Level;Country;State;County;Place;Longitude;Latitude;ZoomLevel;Icon
2;ESP;Almería;Abla;;W2.76;N37.16;12;
2;ESP;Almería;Abrucena;;W2.82;N37.15;12;
2;ESP;Almería;Adra;;W3.024;N36.749;10;
2;ESP;Almería;Albánchez;;W2.16;N37.29;12;
2;ESP;Almería;Alboloduy;;W2.62;N37.07;12;
2;ESP;Almería;Albox;;W2.14;N37.45;12;
2;ESP;Almería;Alcolea;;W3.01;N36.93;12;
2;ESP;Almería;Alcóntar;;W2.62;N37.32;12;
2;ESP;Almería;Alcudia de Monteagud;;W2.25;N37.24;12;
2;ESP;Almería;Alhabia;;W2.56;N36.99;12;
2;ESP;Almería;Alhama de Almería;;W2.57;N36.96;12;
2;ESP;Almería;Alicún;;W2.60;N36.95;12;
2;ESP;Almería;Almería;;W2.43;N36.77;12;
2;ESP;Almería;Almócita;;W2.81;N36.98;12;
2;ESP;Almería;Alsodux;;W2.61;N37.03;12;
2;ESP;Almería;Antas;;W1.97;N37.26;12;
2;ESP;Almería;Arboleas;;W2.08;N37.35;12;
2;ESP;Almería;Armuña de Almanzora;;W2.42;N37.36;12;
2;ESP;Almería;Bacares;;W2.48;N37.25;12;
2;ESP;Almería;Bayárcal;;W2.99;N37.05;12;
2;ESP;Almería;Bayarque;;W2.46;N37.32;12;
2;ESP;Almería;Bédar;;W2.00;N37.18;12;
2;ESP;Almería;Beires;;W2.81;N37.03;12;
2;ESP;Almería;Benahadux;;W2.46;N36.92;12;
2;ESP;Almería;Benitagla;;W2.22;N37.24;12;
2;ESP;Almería;Benizalón;;W2.21;N37.21;12;
2;ESP;Almería;Bentarique;;W2.65;N36.96;12;
2;ESP;Almería;Berja;;W2.97;N36.84;12;
2;ESP;Almería;Canjáyar;;W2.74;N37.00;12;
2;ESP;Almería;Cantoria;;W2.16;N37.33;12;
2;ESP;Almería;Carboneras;;W1.92;N37.00;12;
2;ESP;Almería;Castro de Filabres;;W2.45;N37.18;12;
2;ESP;Almería;Chercos;;W2.27;N37.26;12;
2;ESP;Almería;Chirivel;;W2.28;N37.61;12;
2;ESP;Almería;Cóbdar;;W2.19;N37.25;12;
2;ESP;Almería;Cuevas del Almanzora;;W1.78;N37.30;12;
2;ESP;Almería;Dalías;;W2.83;N36.85;12;
2;ESP;Almería;El Ejido;;W2.80;N36.72;12;
2;ESP;Almería;Enix;;W2.59;N36.86;12;
2;ESP;Almería;Felix;;W2.71;N36.87;12;
2;ESP;Almería;Fines;;W2.27;N37.37;12;
2;ESP;Almería;Fiñana;;W2.86;N37.18;12;
2;ESP;Almería;Fondón;;W2.86;N36.98;12;
2;ESP;Almería;Gádor;;W2.51;N36.96;12;
2;ESP;Almería;Los Gallardos;;W1.96;N37.15;12;
2;ESP;Almería;Garrucha;;W1.83;N37.19;12;
2;ESP;Almería;Gérgal;;W2.54;N37.13;12;
2;ESP;Almería;Huécija;;W2.63;N36.95;12;
2;ESP;Almería;Huércal de Almería;;W2.46;N36.88;12;
2;ESP;Almería;Huércal-Overa;;W1.96;N37.41;12;
2;ESP;Almería;Illar;;W2.64;N36.99;12;
2;ESP;Almería;Instinción;;W2.69;N36.97;12;
2;ESP;Almería;Laroya;;W2.34;N37.29;12;
2;ESP;Almería;Láujar de Andarax;;W2.90;N37.01;12;
2;ESP;Almería;Líjar;;W2.23;N37.29;12;
2;ESP;Almería;Lubrín;;W2.08;N37.24;12;
2;ESP;Almería;Lucainena de las Torres;;W2.14;N37.05;12;
2;ESP;Almería;Lúcar;;W2.43;N37.44;12;
2;ESP;Almería;Macael;;W2.30;N37.31;12;
2;ESP;Almería;María;;W2.22;N37.73;12;
2;ESP;Almería;Mojácar;;W1.86;N37.12;12;
2;ESP;Almería;La Mojonera;;W2.68;N36.78;12;
2;ESP;Almería;Nacimiento;;W2.66;N37.15;12;
2;ESP;Almería;Níjar;;W2.08;N36.82;12;
2;ESP;Almería;Ohanes;;W2.76;N37.06;12;
2;ESP;Almería;Olula de Castro;;W2.48;N37.17;12;
2;ESP;Almería;Olula del Río;;W2.31;N37.38;12;
2;ESP;Almería;Oria;;W2.32;N37.50;12;
2;ESP;Almería;Padules;;W2.77;N36.97;12;
2;ESP;Almería;Partaloa;;W2.23;N37.41;12;
2;ESP;Almería;Paterna del Río;;W2.95;N37.05;12;
2;ESP;Almería;Pechina;;W2.40;N36.95;12;
2;ESP;Almería;Pulpí;;W1.67;N37.36;12;
2;ESP;Almería;Purchena;;W2.36;N37.38;12;
2;ESP;Almería;Rágol;;W2.70;N37.01;12;
2;ESP;Almería;Rioja;;W2.44;N36.98;12;
2;ESP;Almería;Roquetas de Mar;;W2.60;N36.80;12;
2;ESP;Almería;Santa Cruz de Marchena;;W2.59;N37.04;12;
2;ESP;Almería;Santa Fe de Mondújar;;W2.53;N36.98;12;
2;ESP;Almería;Senés;;W2.34;N37.21;12;
2;ESP;Almería;Serón;;W2.56;N37.35;12;
2;ESP;Almería;Sierro;;W2.39;N37.29;12;
2;ESP;Almería;Somontín;;W2.39;N37.42;12;
2;ESP;Almería;Sorbas;;W2.07;N37.10;12;
2;ESP;Almería;Suflí;;W2.38;N37.32;12;
2;ESP;Almería;Tabernas;;W2.36;N37.05;12;
2;ESP;Almería;Taberno;;W2.06;N37.48;12;
2;ESP;Almería;Tahal;;W2.30;N37.21;12;
2;ESP;Almería;Terque;;W2.63;N36.96;12;
2;ESP;Almería;Tíjola;;W2.49;N37.39;12;
2;ESP;Almería;Las Tres Villas;;W2.72;N37.16;12;
2;ESP;Almería;Turre;;W1.96;N37.11;12;
2;ESP;Almería;Turrillas;;W2.27;N37.03;12;
2;ESP;Almería;Uleila del Campo;;W2.19;N37.19;12;
2;ESP;Almería;Urrácal;;W2.35;N37.39;12;
2;ESP;Almería;Velefique;;W2.40;N37.20;12;
2;ESP;Almería;Vélez-Blanco;;W2.09;N37.77;12;
2;ESP;Almería;Vélez-Rubio;;W2.05;N37.59;12;
2;ESP;Almería;Vera;;W1.84;N37.21;12;
2;ESP;Almería;Viator;;W2.39;N36.90;12;
2;ESP;Almería;Vícar;;W2.68;N36.82;12;
2;ESP;Almería;Zurgena;;W2.03;N37.36;12;
