Level;Country;State;County;Place;Longitude;Latitude;ZoomLevel;Icon
2;España;Badajoz;Acedera;;W5.59;N39.08;12;
2;España;Badajoz;Aceuchal;;W6.50;N38.67;12;
2;España;Badajoz;Ahillones;;W5.89;N38.25;12;
2;España;Badajoz;Alange;;W6.29;N38.74;12;
2;España;Badajoz;La Albuera;;W6.82;N38.72;12;
2;España;Badajoz;Alburquerque;;W7;N39.22;10;
2;España;Badajoz;Alconchel;;W7.17;N38.51;12;
2;España;Badajoz;Alconera;;W6.47;N38.40;12;
2;España;Badajoz;Aljucén;;W6.33;N39.06;12;
2;España;Badajoz;Almendral;;W6.84;N38.61;12;
2;España;Badajoz;Almendralejo;;W6.40;N38.72;12;
2;España;Badajoz;Arroyo de San Serván;;W6.46;N38.85;12;
2;España;Badajoz;Atalaya;;W6.49;N38.33;12;
2;España;Badajoz;Azuaga;;W5.68;N38.27;12;
2;España;Badajoz;Badajoz;;W6.98;N38.89;10;
2;España;Badajoz;Barcarrota;;W6.88;N38.50;12;
2;España;Badajoz;Baterno;;W4.89;N38.92;12;
2;España;Badajoz;Benquerencia de la Serena;;W5.43;N38.67;12;
2;España;Badajoz;Berlanga;;W5.87;N38.28;12;
2;España;Badajoz;Bienvenida;;W6.22;N38.31;12;
2;España;Badajoz;Bodonal de la Sierra;;W6.48;N38.17;12;
2;España;Badajoz;Burguillos del Cerro;;W6.59;N38.37;12;
2;España;Badajoz;Cabeza del Buey;;W5.27;N38.77;12;
2;España;Badajoz;Cabeza la Vaca;;W6.38;N38.10;12;
2;España;Badajoz;Calamonte;;W6.38;N38.88;12;
2;España;Badajoz;Calera de León;;W6.34;N38.08;12;
2;España;Badajoz;Calzadilla de los Barros;;W6.30;N38.32;12;
2;España;Badajoz;Campanario;;W5.64;N38.87;12;
2;España;Badajoz;Campillo de Llerena;;W5.81;N38.53;12;
2;España;Badajoz;Capilla;;W5.05;N38.80;12;
2;España;Badajoz;Carmonita;;W6.36;N39.15;12;
2;España;Badajoz;El Carrascalejo;;W6.33;N39.02;12;
2;España;Badajoz;Casas de Don Pedro;;W5.29;N39.15;12;
2;España;Badajoz;Casas de Reina;;W5.96;N38.19;12;
2;España;Badajoz;Castilblanco;;W5.08;N39.31;12;
2;España;Badajoz;Castuera;;W5.47;N38.79;12;
2;España;Badajoz;Cheles;;W7.26;N38.55;12;
2;España;Badajoz;La Codosera;;W7.19;N39.22;12;
2;España;Badajoz;Cordobilla de Lácara;;W6.44;N39.14;12;
2;España;Badajoz;La Coronada;;W5.65;N38.95;12;
2;España;Badajoz;Corte de Peleas;;W6.65;N38.73;12;
2;España;Badajoz;Cristina;;W6.10;N38.83;12;
2;España;Badajoz;Don Álvaro;;W6.27;N38.86;12;
2;España;Badajoz;Don Benito;;W5.86;N38.98;12;
2;España;Badajoz;Entrín Bajo;;W6.70;N38.72;12;
2;España;Badajoz;Esparragalejo;;W6.43;N38.95;12;
2;España;Badajoz;Esparragosa de la Serena;;W5.59;N38.66;12;
2;España;Badajoz;Esparragosa de Lares;;W5.36;N38.96;12;
2;España;Badajoz;Feria;;W6.54;N38.50;12;
2;España;Badajoz;Fregenal de la Sierra;;W6.55;N38.22;12;
2;España;Badajoz;Fuenlabrada de los Montes;;W4.936;N39.133;10;
2;España;Badajoz;Fuente de Cantos;;W6.27;N38.23;12;
2;España;Badajoz;Fuente del Arco;;W5.95;N38.11;12;
2;España;Badajoz;Fuente del Maestre;;W6.45;N38.55;12;
2;España;Badajoz;Fuentes de León;;W6.52;N38.06;12;
2;España;Badajoz;Garbayuela;;W5.01;N39.06;12;
2;España;Badajoz;Garlitos;;W4.99;N38.90;12;
2;España;Badajoz;La Garrovilla;;W6.49;N38.94;12;
2;España;Badajoz;Granja de Torrehermosa;;W5.57;N38.32;12;
2;España;Badajoz;Guareña;;W6.08;N38.91;12;
2;España;Badajoz;La Haba;;W5.80;N38.87;12;
2;España;Badajoz;Helechosa de los Montes;;W4.83;N39.38;12;
2;España;Badajoz;Herrera del Duque;;W5.03;N39.26;12;
2;España;Badajoz;Higuera de la Serena;;W5.77;N38.65;12;
2;España;Badajoz;Higuera de Llerena;;W5.96;N38.32;12;
2;España;Badajoz;Higuera de Vargas;;W7.00;N38.43;12;
2;España;Badajoz;Higuera la Real;;W6.73;N38.13;12;
2;España;Badajoz;Hinojosa del Valle;;W6.18;N38.48;12;
2;España;Badajoz;Hornachos;;W6.06;N38.56;12;
2;España;Badajoz;Jerez de los Caballeros;;W6.81;N38.34;12;
2;España;Badajoz;La Lapa;;W6.53;N38.46;12;
2;España;Badajoz;Llera;;W6.09;N38.47;12;
2;España;Badajoz;Llerena;;W6.01;N38.24;10;
2;España;Badajoz;Lobón;;W6.62;N38.84;12;
2;España;Badajoz;Magacela;;W5.72;N38.88;12;
2;España;Badajoz;Maguilla;;W5.83;N38.38;12;
2;España;Badajoz;Malcocinado;;W5.71;N38.13;12;
2;España;Badajoz;Malpartida de la Serena;;W5.62;N38.70;12;
2;España;Badajoz;Manchita;;W6.01;N38.80;12;
2;España;Badajoz;Medellín;;W5.99;N38.96;12;
2;España;Badajoz;Medina de las Torres;;W6.42;N38.32;12;
2;España;Badajoz;Mengabril;;W5.94;N38.92;12;
2;España;Badajoz;Mérida;;W6.42;N38.97;10;
2;España;Badajoz;Mirandilla;;W6.28;N39.03;12;
2;España;Badajoz;Monesterio;;W6.17;N38.04;12;
2;España;Badajoz;Montemolín;;W6.13;N38.11;12;
2;España;Badajoz;Monterrubio de la Serena;;W5.38;N38.69;12;
2;España;Badajoz;Montijo;;W6.57;N38.95;12;
2;España;Badajoz;La Morera;;W6.67;N38.57;12;
2;España;Badajoz;La Nava de Santiago;;W6.51;N39.08;12;
2;España;Badajoz;Navalvillar de Pela;;W5.49;N39.11;12;
2;España;Badajoz;Nogales;;W6.73;N38.60;12;
2;España;Badajoz;Oliva de la Frontera;;W6.99;N38.25;12;
2;España;Badajoz;Oliva de Mérida;;W6.05;N38.74;12;
2;España;Badajoz;Olivenza;;W7.09;N38.62;12;
2;España;Badajoz;Orellana de la Sierra;;W5.51;N39.02;12;
2;España;Badajoz;Orellana la Vieja;;W5.55;N39.02;12;
2;España;Badajoz;Palomas;;W6.16;N38.70;12;
2;España;Badajoz;La Parra;;W6.61;N38.53;12;
2;España;Badajoz;Peñalsordo;;W5.13;N38.83;12;
2;España;Badajoz;Peraleda del Zaucejo;;W5.56;N38.48;12;
2;España;Badajoz;Puebla de Alcocer;;W5.23;N39.07;12;
2;España;Badajoz;Puebla de la Calzada;;W6.63;N38.88;12;
2;España;Badajoz;Puebla de la Reina;;W6.07;N38.66;12;
2;España;Badajoz;Puebla de Obando;;W6.62;N39.18;12;
2;España;Badajoz;Puebla de Sancho Pérez;;W6.37;N38.40;12;
2;España;Badajoz;Puebla del Maestre;;W6.07;N38.08;12;
2;España;Badajoz;Puebla del Prior;;W6.21;N38.60;12;
2;España;Badajoz;Pueblonuevo del Guadiana;;W6.77;N38.94;12;
2;España;Badajoz;Quintana de la Serena;;W5.74;N38.77;12;
2;España;Badajoz;Reina;;W5.95;N38.15;12;
2;España;Badajoz;Rena;;W5.80;N39.05;12;
2;España;Badajoz;Retamal de Llerena;;W5.85;N38.59;12;
2;España;Badajoz;Ribera del Fresno;;W6.24;N38.58;12;
2;España;Badajoz;Risco;;W5.12;N38.89;12;
2;España;Badajoz;La Roca de la Sierra;;W6.66;N39.08;12;
2;España;Badajoz;Salvaleón;;W6.78;N38.52;12;
2;España;Badajoz;Salvatierra de los Barros;;W6.67;N38.50;12;
2;España;Badajoz;San Pedro de Mérida;;W6.17;N38.96;12;
2;España;Badajoz;San Vicente de Alcántara;;W7.05;N39.34;12;
2;España;Badajoz;Sancti-Spíritus;;W5.18;N38.92;12;
2;España;Badajoz;Santa Amalia;;W6.06;N39.03;12;
2;España;Badajoz;Santa Marta;;W6.64;N38.65;12;
2;España;Badajoz;Los Santos de Maimona;;W6.32;N38.48;12;
2;España;Badajoz;Segura de León;;W6.46;N38.13;12;
2;España;Badajoz;Siruela;;W5.06;N38.99;12;
2;España;Badajoz;Solana de los Barros;;W6.57;N38.74;12;
2;España;Badajoz;Talarrubias;;W5.22;N39.15;12;
2;España;Badajoz;Talavera la Real;;W6.73;N38.86;12;
2;España;Badajoz;Táliga;;W7.00;N38.53;12;
2;España;Badajoz;Tamurejo;;W4.96;N38.99;12;
2;España;Badajoz;Torre de Miguel Sesmero;;W6.76;N38.65;12;
2;España;Badajoz;Torremayor;;W6.55;N38.91;12;
2;España;Badajoz;Torremejía;;W6.37;N38.79;12;
2;España;Badajoz;Trasierra;;W6.01;N38.14;12;
2;España;Badajoz;Trujillanos;;W6.25;N38.96;12;
2;España;Badajoz;Usagre;;W6.15;N38.41;12;
2;España;Badajoz;Valdecaballeros;;W5.20;N39.27;12;
2;España;Badajoz;Valdelacalzada;;W6.70;N38.89;12;
2;España;Badajoz;Valdetorres;;W6.06;N38.91;12;
2;España;Badajoz;Valencia de las Torres;;W5.99;N38.44;12;
2;España;Badajoz;Valencia del Mombuey;;W7.10;N38.25;12;
2;España;Badajoz;Valencia del Ventoso;;W6.49;N38.27;12;
2;España;Badajoz;Valle de la Serena;;W5.81;N38.70;12;
2;España;Badajoz;Valle de Matamoros;;W6.80;N38.39;12;
2;España;Badajoz;Valle de Santa Ana;;W6.78;N38.37;12;
2;España;Badajoz;Valverde de Burguillos;;W6.54;N38.33;12;
2;España;Badajoz;Valverde de Leganés;;W6.98;N38.67;10;
2;España;Badajoz;Valverde de Llerena;;W5.80;N38.21;12;
2;España;Badajoz;Valverde de Mérida;;W6.22;N38.90;12;
2;España;Badajoz;Villafranca de los Barros;;W6.34;N38.59;12;
2;España;Badajoz;Villagarcía de la Torre;;W6.07;N38.31;12;
2;España;Badajoz;Villagonzalo;;W6.23;N38.83;12;
2;España;Badajoz;Villalba de los Barros;;W6.55;N38.64;12;
2;España;Badajoz;Villanueva de la Serena;;W5.73;N39.01;12;
2;España;Badajoz;Villanueva del Fresno;;W7.17;N38.39;12;
2;España;Badajoz;Villar de Rena;;W5.80;N39.09;12;
2;España;Badajoz;Villar del Rey;;W6.84;N39.13;10;
2;España;Badajoz;Villarta de los Montes;;W4.75;N39.22;12;
2;España;Badajoz;Zafra;;W6.46;N38.44;12;
2;España;Badajoz;Zahínos;;W6.99;N38.33;12;
2;España;Badajoz;Zalamea de la Serena;;W5.72;N38.65;12;
2;España;Badajoz;La Zarza;;W6.27;N38.80;12;
2;España;Badajoz;Zarza-Capilla;;W5.13;N38.76;12;
