Level;Country;State;County;Place;Longitude;Latitude;ZoomLevel;Icon
2;España;Ávila;Adanero;;W4.60;N40.94;12;
2;España;Ávila;La Adrada;;W4.66;N40.31;12;
2;España;Ávila;Albornos;;W4.88;N40.83;12;
2;España;Ávila;Aldeanueva de Santa Cruz;;W5.43;N40.38;12;
2;España;Ávila;Aldeaseca;;W4.80;N41.04;12;
2;España;Ávila;La Aldehuela;;W5.40;N40.42;12;
2;España;Ávila;Amavida;;W5.06;N40.58;12;
2;España;Ávila;El Arenal;;W5.08;N40.28;12;
2;España;Ávila;Arenas de San Pedro;;W5.10;N40.17;12;
2;España;Ávila;Arevalillo;;W5.37;N40.59;12;
2;España;Ávila;Arévalo;;W4.72;N41.04;12;
2;España;Ávila;Aveinte;;W4.83;N40.79;12;
2;España;Ávila;Avellaneda;;W5.39;N40.39;12;
2;España;Ávila;Ávila;;W4.69;N40.66;10;
2;España;Ávila;El Barco de Ávila;;W5.52;N40.36;12;
2;España;Ávila;El Barraco;;W4.59;N40.45;12;
2;España;Ávila;Barromán;;W4.93;N41.06;12;
2;España;Ávila;Becedas;;W5.64;N40.39;12;
2;España;Ávila;Becedillas;;W5.31;N40.56;12;
2;España;Ávila;Bercial de Zapardiel;;W4.97;N41.04;12;
2;España;Ávila;Las Berlanas;;W4.77;N40.80;12;
2;España;Ávila;Bernuy-Zapardiel;;W4.94;N40.97;12;
2;España;Ávila;Berrocalejo de Aragona;;W4.59;N40.70;12;
2;España;Ávila;Blascomillán;;W5.12;N40.83;12;
2;España;Ávila;Blasconuño de Matacabras;;W4.99;N41.14;12;
2;España;Ávila;Blascosancho;;W4.65;N40.87;12;
2;España;Ávila;El Bohodón;;W4.73;N40.92;12;
2;España;Ávila;Bohoyo;;W5.40;N40.29;12;
2;España;Ávila;Bonilla de la Sierra;;W5.25;N40.55;12;
2;España;Ávila;Brabos;;W4.93;N40.76;12;
2;España;Ávila;Bularros;;W4.83;N40.73;12;
2;España;Ávila;Burgohondo;;W4.78;N40.39;12;
2;España;Ávila;Cabezas de Alambre;;W4.83;N40.93;12;
2;España;Ávila;Cabezas del Pozo;;W4.97;N41.00;12;
2;España;Ávila;Cabezas del Villar;;W5.20;N40.71;12;
2;España;Ávila;Cabizuela;;W4.80;N40.90;12;
2;España;Ávila;Canales;;W4.90;N41.00;12;
2;España;Ávila;Candeleda;;W5.29;N40.17;12;
2;España;Ávila;Cantiveros;;W4.95;N40.96;12;
2;España;Ávila;Cardeñosa;;W4.73;N40.74;12;
2;España;Ávila;La Carrera;;W5.56;N40.35;12;
2;España;Ávila;Casas del Puerto;;W5.17;N40.52;12;
2;España;Ávila;Casasola;;W4.82;N40.67;12;
2;España;Ávila;Casavieja;;W4.77;N40.30;12;
2;España;Ávila;Casillas;;W4.57;N40.33;12;
2;España;Ávila;Castellanos de Zapardiel;;W4.90;N41.08;12;
2;España;Ávila;Cebreros;;W4.43;N40.45;12;
2;España;Ávila;Cepeda la Mora;;W5.05;N40.45;12;
2;España;Ávila;Chamartín;;W4.95;N40.72;12;
2;España;Ávila;Cillán;;W4.99;N40.70;12;
2;España;Ávila;Cisla;;W5.02;N40.97;12;
2;España;Ávila;La Colilla;;W4.76;N40.64;12;
2;España;Ávila;Collado de Contreras;;W4.93;N40.88;12;
2;España;Ávila;Collado del Mirón;;W5.36;N40.55;12;
2;España;Ávila;Constanzana;;W4.88;N40.93;12;
2;España;Ávila;Crespos;;W4.97;N40.86;12;
2;España;Ávila;Cuevas del Valle;;W5.03;N40.29;12;
2;España;Ávila;Diego del Carpio;;W5.33;N40.67;12;
2;España;Ávila;Donjimeno;;W4.85;N40.96;12;
2;España;Ávila;Donvidas;;W4.80;N41.08;12;
2;España;Ávila;Espinosa de los Caballeros;;W4.68;N41.02;12;
2;España;Ávila;Flores de Ávila;;W5.08;N40.94;12;
2;España;Ávila;Fontiveros;;W4.96;N40.92;12;
2;España;Ávila;Fresnedilla;;W4.65;N40.24;12;
2;España;Ávila;El Fresno;;W4.75;N40.62;12;
2;España;Ávila;Fuente el Saúz;;W4.90;N40.97;12;
2;España;Ávila;Fuentes de Año;;W4.91;N41.03;12;
2;España;Ávila;Gallegos de Altamiros;;W4.91;N40.71;12;
2;España;Ávila;Gallegos de Sobrinos;;W5.14;N40.70;12;
2;España;Ávila;Garganta del Villar;;W5.12;N40.45;12;
2;España;Ávila;Gavilanes;;W4.86;N40.26;12;
2;España;Ávila;Gemuño;;W4.77;N40.59;12;
2;España;Ávila;Gil García;;W5.59;N40.27;12;
2;España;Ávila;Gilbuena;;W5.59;N40.42;12;
2;España;Ávila;Gimialcón;;W5.13;N40.87;12;
2;España;Ávila;Gotarrendura;;W4.73;N40.83;12;
2;España;Ávila;Grandes y San Martín;;W4.96;N40.76;12;
2;España;Ávila;Guisando;;W5.14;N40.21;12;
2;España;Ávila;Gutierre-Muñoz;;W4.66;N40.97;12;
2;España;Ávila;Hernansancho;;W4.72;N40.86;12;
2;España;Ávila;Herradón de Pinares;;W4.54;N40.59;12;
2;España;Ávila;Herreros de Suso;;W5.04;N40.80;12;
2;España;Ávila;Higuera de las Dueñas;;W4.61;N40.23;12;
2;España;Ávila;La Hija de Dios;;W4.97;N40.52;12;
2;España;Ávila;La Horcajada;;W5.47;N40.44;12;
2;España;Ávila;Horcajo de las Torres;;W5.11;N41.06;12;
2;España;Ávila;El Hornillo;;W5.12;N40.26;12;
2;España;Ávila;El Hoyo de Pinares;;W4.40;N40.51;12;
2;España;Ávila;Hoyocasero;;W5.00;N40.44;12;
2;España;Ávila;Hoyorredondo;;W5.41;N40.46;12;
2;España;Ávila;Hoyos de Miguel Muñoz;;W5.07;N40.39;12;
2;España;Ávila;Hoyos del Collado;;W5.20;N40.36;12;
2;España;Ávila;Hoyos del Espino;;W5.18;N40.34;12;
2;España;Ávila;Hurtumpascual;;W5.10;N40.68;12;
2;España;Ávila;Junciana;;W5.57;N40.42;12;
2;España;Ávila;Langa;;W4.85;N41.00;12;
2;España;Ávila;Lanzahíta;;W4.93;N40.19;12;
2;España;Ávila;Los Llanos de Tormes;;W5.47;N40.33;12;
2;España;Ávila;El Losar del Barco;;W5.53;N40.40;12;
2;España;Ávila;Madrigal de las Altas Torres;;W4.998;N41.092;10;
2;España;Ávila;Maello;;W4.56;N40.82;12;
2;España;Ávila;Malpartida de Corneja;;W5.35;N40.52;12;
2;España;Ávila;Mamblas;;W5.02;N41.01;12;
2;España;Ávila;Mancera de Arriba;;W5.14;N40.79;12;
2;España;Ávila;Manjabálago;;W5.06;N40.68;12;
2;España;Ávila;Marlín;;W4.82;N40.71;12;
2;España;Ávila;Martiherrero;;W4.78;N40.68;12;
2;España;Ávila;Martínez;;W5.35;N40.63;12;
2;España;Ávila;Mediana de Voltoya;;W4.56;N40.71;12;
2;España;Ávila;Medinilla;;W5.59;N40.45;12;
2;España;Ávila;Mengamuñoz;;W5.01;N40.50;12;
2;España;Ávila;Mesegar de Corneja;;W5.31;N40.52;12;
2;España;Ávila;Mijares;;W4.83;N40.27;12;
2;España;Ávila;Mingorría;;W4.68;N40.77;12;
2;España;Ávila;El Mirón;;W5.40;N40.56;12;
2;España;Ávila;Mironcillo;;W4.82;N40.56;12;
2;España;Ávila;Mirueña de los Infanzones;;W5.08;N40.74;12;
2;España;Ávila;Mombeltrán;;W5.00;N40.21;12;
2;España;Ávila;Monsalupe;;W4.79;N40.77;12;
2;España;Ávila;Moraleja de Matacabras;;W4.94;N41.12;12;
2;España;Ávila;Muñana;;W5.01;N40.60;12;
2;España;Ávila;Muñico;;W5.04;N40.71;12;
2;España;Ávila;Muñogalindo;;W4.91;N40.60;12;
2;España;Ávila;Muñogrande;;W4.94;N40.81;12;
2;España;Ávila;Muñomer del Peco;;W4.89;N40.87;12;
2;España;Ávila;Muñopepe;;W4.82;N40.63;12;
2;España;Ávila;Muñosancho;;W5.03;N40.92;12;
2;España;Ávila;Muñotello;;W5.03;N40.54;12;
2;España;Ávila;Narrillos del Álamo;;W5.47;N40.58;12;
2;España;Ávila;Narrillos del Rebollar;;W4.96;N40.68;12;
2;España;Ávila;Narros de Saldueña;;W4.86;N40.87;12;
2;España;Ávila;Narros del Castillo;;W5.05;N40.85;12;
2;España;Ávila;Narros del Puerto;;W4.99;N40.54;12;
2;España;Ávila;Nava de Arévalo;;W4.76;N40.99;12;
2;España;Ávila;Nava del Barco;;W5.56;N40.27;12;
2;España;Ávila;Navacepedilla de Corneja;;W5.16;N40.49;12;
2;España;Ávila;Navadijos;;W5.08;N40.43;12;
2;España;Ávila;Navaescurial;;W5.26;N40.47;12;
2;España;Ávila;Navahondilla;;W4.49;N40.34;12;
2;España;Ávila;Navalacruz;;W4.98;N40.45;12;
2;España;Ávila;Navalmoral;;W4.74;N40.46;12;
2;España;Ávila;Navalonguilla;;W5.53;N40.23;12;
2;España;Ávila;Navalosa;;W4.89;N40.39;12;
2;España;Ávila;Navalperal de Pinares;;W4.45;N40.59;12;
2;España;Ávila;Navalperal de Tormes;;W5.28;N40.35;12;
2;España;Ávila;Navaluenga;;W4.70;N40.40;12;
2;España;Ávila;Navaquesera;;W4.91;N40.42;12;
2;España;Ávila;Navarredonda de Gredos;;W5.12;N40.35;12;
2;España;Ávila;Navarredondilla;;W4.83;N40.44;12;
2;España;Ávila;Navarrevisca;;W4.86;N40.36;12;
2;España;Ávila;Las Navas del Marqués;;W4.35;N40.59;12;
2;España;Ávila;Navatalgordo;;W4.85;N40.41;12;
2;España;Ávila;Navatejares;;W5.54;N40.32;12;
2;España;Ávila;Neila de San Miguel;;W5.65;N40.43;12;
2;España;Ávila;Niharra;;W4.84;N40.59;12;
2;España;Ávila;Ojos-Albos;;W4.52;N40.72;12;
2;España;Ávila;Orbita;;W4.66;N40.99;12;
2;España;Ávila;El Oso;;W4.77;N40.85;12;
2;España;Ávila;Padiernos;;W4.87;N40.62;12;
2;España;Ávila;Pajares de Adaja;;W4.65;N40.91;12;
2;España;Ávila;Palacios de Goda;;W4.76;N41.10;12;
2;España;Ávila;Papatrigo;;W4.84;N40.87;12;
2;España;Ávila;El Parral;;W4.99;N40.79;12;
2;España;Ávila;Pascualcobo;;W5.27;N40.65;12;
2;España;Ávila;Pedro Bernardo;;W4.90;N40.24;12;
2;España;Ávila;Pedro-Rodríguez;;W4.78;N40.94;12;
2;España;Ávila;Peguerinos;;W4.23;N40.66;12;
2;España;Ávila;Peñalba de Ávila;;W4.72;N40.80;12;
2;España;Ávila;Piedrahíta;;W5.33;N40.47;12;
2;España;Ávila;Piedralaves;;W4.71;N40.32;12;
2;España;Ávila;Poveda;;W5.08;N40.57;12;
2;España;Ávila;Poyales del Hoyo;;W5.16;N40.17;12;
2;España;Ávila;Pozanco;;W4.66;N40.80;12;
2;España;Ávila;Pradosegar;;W5.07;N40.54;12;
2;España;Ávila;Puerto Castilla;;W5.64;N40.27;12;
2;España;Ávila;Rasueros;;W5.07;N41.02;12;
2;España;Ávila;Riocabado;;W4.80;N40.84;12;
2;España;Ávila;Riofrío;;W4.76;N40.54;12;
2;España;Ávila;Rivilla de Barajas;;W5.01;N40.88;12;
2;España;Ávila;Salobral;;W4.80;N40.61;12;
2;España;Ávila;Salvadiós;;W5.07;N40.89;12;
2;España;Ávila;San Bartolomé de Béjar;;W5.67;N40.40;12;
2;España;Ávila;San Bartolomé de Corneja;;W5.37;N40.49;12;
2;España;Ávila;San Bartolomé de Pinares;;W4.45;N40.54;12;
2;España;Ávila;San Esteban de los Patos;;W4.63;N40.74;12;
2;España;Ávila;San Esteban de Zapardiel;;W4.89;N41.10;12;
2;España;Ávila;San Esteban del Valle;;W4.96;N40.28;12;
2;España;Ávila;San García de Ingelmos;;W5.11;N40.77;12;
2;España;Ávila;San Juan de Gredos;;W5.25;N40.34;12;
2;España;Ávila;San Juan de la Encinilla;;W4.83;N40.82;12;
2;España;Ávila;San Juan de la Nava;;W4.68;N40.46;12;
2;España;Ávila;San Juan del Molinillo;;W4.84;N40.47;12;
2;España;Ávila;San Juan del Olmo;;W5.04;N40.64;12;
2;España;Ávila;San Lorenzo de Tormes;;W5.50;N40.38;12;
2;España;Ávila;San Martín de la Vega del Alberche;;W5.16;N40.43;12;
2;España;Ávila;San Martín del Pimpollar;;W5.03;N40.37;12;
2;España;Ávila;San Miguel de Corneja;;W5.27;N40.50;12;
2;España;Ávila;San Miguel de Serrezuela;;W5.27;N40.69;12;
2;España;Ávila;San Pascual;;W4.73;N40.90;12;
2;España;Ávila;San Pedro del Arroyo;;W4.87;N40.79;12;
2;España;Ávila;San Vicente de Arévalo;;W4.79;N40.96;12;
2;España;Ávila;Sanchidrián;;W4.59;N40.89;12;
2;España;Ávila;Sanchorreja;;W4.88;N40.68;12;
2;España;Ávila;Santa Cruz de Pinares;;W4.58;N40.53;12;
2;España;Ávila;Santa Cruz del Valle;;W4.99;N40.22;12;
2;España;Ávila;Santa María de los Caballeros;;W5.45;N40.39;12;
2;España;Ávila;Santa María del Arroyo;;W4.94;N40.60;12;
2;España;Ávila;Santa María del Berrocal;;W5.41;N40.51;12;
2;España;Ávila;Santa María del Cubillo;;W4.47;N40.72;12;
2;España;Ávila;Santa María del Tiétar;;W4.55;N40.31;12;
2;España;Ávila;Santiago del Collado;;W5.34;N40.43;12;
2;España;Ávila;Santiago del Tormes;;W5.37;N40.34;12;
2;España;Ávila;Santo Domingo de las Posadas;;W4.64;N40.80;12;
2;España;Ávila;Santo Tomé de Zabarcos;;W4.90;N40.79;12;
2;España;Ávila;La Serrada;;W4.79;N40.63;12;
2;España;Ávila;Serranillos;;W4.91;N40.33;12;
2;España;Ávila;Sigeres;;W4.93;N40.79;12;
2;España;Ávila;Sinlabajos;;W4.84;N41.08;12;
2;España;Ávila;Solana de Ávila;;W5.64;N40.33;12;
2;España;Ávila;Solana de Rioalmar;;W5.02;N40.74;12;
2;España;Ávila;Solosancho;;W4.91;N40.56;12;
2;España;Ávila;Sotalbo;;W4.88;N40.52;12;
2;España;Ávila;Sotillo de la Adrada;;W4.60;N40.30;12;
2;España;Ávila;El Tiemblo;;W4.48;N40.39;12;
2;España;Ávila;Tiñosillos;;W4.71;N40.95;12;
2;España;Ávila;Tolbaños;;W4.59;N40.76;12;
2;España;Ávila;Tormellas;;W5.51;N40.31;12;
2;España;Ávila;Tornadizos de Ávila;;W4.62;N40.61;12;
2;España;Ávila;La Torre;;W4.96;N40.61;12;
2;España;Ávila;Tórtoles;;W5.27;N40.58;12;
2;España;Ávila;Umbrías;;W5.57;N40.32;12;
2;España;Ávila;Vadillo de la Sierra;;W5.13;N40.61;12;
2;España;Ávila;Valdecasa;;W5.02;N40.67;12;
2;España;Ávila;Vega de Santa María;;W4.66;N40.83;12;
2;España;Ávila;Velayos;;W4.60;N40.85;12;
2;España;Ávila;Villaflor;;W4.88;N40.75;12;
2;España;Ávila;Villafranca de la Sierra;;W5.16;N40.49;12;
2;España;Ávila;Villanueva de Ávila;;W4.82;N40.37;12;
2;España;Ávila;Villanueva de Gómez;;W4.69;N40.89;12;
2;España;Ávila;Villanueva del Aceral;;W4.87;N41.04;12;
2;España;Ávila;Villanueva del Campillo;;W5.19;N40.59;12;
2;España;Ávila;Villar de Corneja;;W5.44;N40.48;12;
2;España;Ávila;Villarejo del Valle;;W4.99;N40.32;12;
2;España;Ávila;Villatoro;;W5.10;N40.53;12;
2;España;Ávila;Viñegra de Moraña;;W4.93;N40.86;12;
2;España;Ávila;Vita;;W5.00;N40.83;12;
2;España;Ávila;Zapardiel de la Cañada;;W5.32;N40.61;12;
2;España;Ávila;Zapardiel de la Ribera;;W5.32;N40.31;12;
