"Level";"Country";"County";"Place";"void";"Longitude";"Latitude";"ZoomLevel";"Icon"
2;ENG;Oxfordshire;Abingdon;;W1.29;N51.66;10;
2;ENG;Oxfordshire;Adderbury;;W1.31;N52.01;10;
2;ENG;Oxfordshire;Adwell;;W1.00;N51.68;10;
2;ENG;Oxfordshire;Alkerton;;W1.46;N52.07;10;
2;ENG;Oxfordshire;Alvescot;;W1.61;N51.73;10;
2;ENG;Oxfordshire;Ambrosden;;W1.12;N51.86;10;
2;ENG;Oxfordshire;Appleford;;W1.25;N51.63;10;
2;ENG;Oxfordshire;Appleton;;W1.36;N51.70;10;
2;ENG;Oxfordshire;Ardington;;W1.38;N51.58;10;
2;ENG;Oxfordshire;Ardington Wick;;W1.38;N51.59;10;
2;ENG;Oxfordshire;Ardley;;W1.21;N51.93;10;
2;ENG;Oxfordshire;Ascott d'Oyley;;W1.56;N51.86;10;
2;ENG;Oxfordshire;Ascott Earl;;W1.58;N51.86;10;
2;ENG;Oxfordshire;Ascott under Wychwood;;W1.56;N51.86;10;
2;ENG;Oxfordshire;Ashbury;;W1.62;N51.56;10;
2;ENG;Oxfordshire;Asthall;;W1.59;N51.79;10;
2;ENG;Oxfordshire;Asthall Leigh;;W1.56;N51.80;10;
2;ENG;Oxfordshire;Aston;;W1.50;N51.72;10;
2;ENG;Oxfordshire;Aston Rowant;;W0.95;N51.68;10;
2;ENG;Oxfordshire;Aston Tirrold;;W1.20;N51.56;10;
2;ENG;Oxfordshire;Aston Upthorpe;;W1.20;N51.57;10;
2;ENG;Oxfordshire;Bainton;;W1.15;N51.92;10;
2;ENG;Oxfordshire;Baldon Row;;W1.19;N51.69;10;
2;ENG;Oxfordshire;Balscote;;W1.43;N52.06;10;
2;ENG;Oxfordshire;Bampton;;W1.55;N51.72;10;
2;ENG;Oxfordshire;Banbury;;W1.34;N52.05;10;
2;ENG;Oxfordshire;Barford St John;;W1.37;N51.99;10;
2;ENG;Oxfordshire;Barford St Michael;;W1.37;N51.98;10;
2;ENG;Oxfordshire;Barnard Gate;;W1.42;N51.78;10;
2;ENG;Oxfordshire;Barton;;W1.20;N51.75;10;
2;ENG;Oxfordshire;Barton Abbey;;W1.34;N51.91;10;
2;ENG;Oxfordshire;Baulking;;W1.55;N51.60;10;
2;ENG;Oxfordshire;Baynard's Green;;W1.21;N51.95;10;
2;ENG;Oxfordshire;Bayworth;;W1.27;N51.70;10;
2;ENG;Oxfordshire;Beckley;;W1.18;N51.78;10;
2;ENG;Oxfordshire;Begbroke;;W1.31;N51.81;10;
2;ENG;Oxfordshire;Belmont;;W1.43;N51.58;10;
2;ENG;Oxfordshire;Benson;;W1.12;N51.61;10;
2;ENG;Oxfordshire;Berinsfield;;W1.17;N51.66;10;
2;ENG;Oxfordshire;Berrick Salome;;W1.10;N51.64;10;
2;ENG;Oxfordshire;Bessels Leigh;;W1.35;N51.70;10;
2;ENG;Oxfordshire;Bicester;;W1.15;N51.89;10;
2;ENG;Oxfordshire;Binfield Heath;;W0.93;N51.49;10;
2;ENG;Oxfordshire;Binsey;;W1.29;N51.75;10;
2;ENG;Oxfordshire;Bix;;W0.96;N51.55;10;
2;ENG;Oxfordshire;Black Bourton;;W1.59;N51.73;10;
2;ENG;Oxfordshire;Blackditch;;W1.40;N51.74;10;
2;ENG;Oxfordshire;Blackird Leys;;W1.20;N51.72;10;
2;ENG;Oxfordshire;Blackthorn;;W1.10;N51.86;10;
2;ENG;Oxfordshire;Bladon;;W1.36;N51.82;10;
2;ENG;Oxfordshire;Bledington;;W1.65;N51.89;10;
2;ENG;Oxfordshire;Blenheim;;W1.17;N51.71;10;
2;ENG;Oxfordshire;Blenheim;;W1.17;N51.74;10;
2;ENG;Oxfordshire;Bletchingdon;;W1.27;N51.84;10;
2;ENG;Oxfordshire;Blewbury;;W1.23;N51.56;10;
2;ENG;Oxfordshire;Bloxham;;W1.37;N52.01;10;
2;ENG;Oxfordshire;Boars Hill;;W1.30;N51.71;10;
2;ENG;Oxfordshire;Bodicote;;W1.33;N52.02;10;
2;ENG;Oxfordshire;Botley;;W1.30;N51.74;10;
2;ENG;Oxfordshire;Bould;;W1.65;N51.88;10;
2;ENG;Oxfordshire;Bourton;;W1.66;N51.58;10;
2;ENG;Oxfordshire;Bow;;W1.50;N51.64;10;
2;ENG;Oxfordshire;Bridge End;;W1.17;N51.63;10;
2;ENG;Oxfordshire;Brighthampton;;W1.45;N51.72;10;
2;ENG;Oxfordshire;Brightwell Baldwin;;W1.06;N51.65;10;
2;ENG;Oxfordshire;Brightwell cum Sotwell;;W1.16;N51.60;10;
2;ENG;Oxfordshire;Britwell Salome;;W1.03;N51.63;10;
2;ENG;Oxfordshire;Brize Norton;;W1.56;N51.76;10;
2;ENG;Oxfordshire;Broadplat;;W0.94;N51.54;10;
2;ENG;Oxfordshire;Broadwell;;W1.63;N51.72;10;
2;ENG;Oxfordshire;Broadwell Brook;;W1.60;N51.71;10;
2;ENG;Oxfordshire;Brookend;;W1.53;N51.88;10;
2;ENG;Oxfordshire;Brookhampton;;W1.13;N51.67;10;
2;ENG;Oxfordshire;Broughton;;W1.38;N52.03;10;
2;ENG;Oxfordshire;Broughton Poggs;;W1.66;N51.72;10;
2;ENG;Oxfordshire;Bruern Abbey;;W1.62;N51.87;10;
2;ENG;Oxfordshire;Buckland;;W1.50;N51.67;10;
2;ENG;Oxfordshire;Buckland Marsh;;W1.52;N51.68;10;
2;ENG;Oxfordshire;Bucknell;;W1.18;N51.92;10;
2;ENG;Oxfordshire;Bunkers Hill;;W1.31;N51.84;10;
2;ENG;Oxfordshire;Burcot;;W1.19;N51.65;10;
2;ENG;Oxfordshire;Burdrop;;W1.49;N52.03;10;
2;ENG;Oxfordshire;Burford;;W1.63;N51.80;10;
2;ENG;Oxfordshire;Buscot;;W1.66;N51.67;10;
2;ENG;Oxfordshire;Bushey Ground;;W1.55;N51.77;10;
2;ENG;Oxfordshire;Caldecott;;W1.29;N51.66;10;
2;ENG;Oxfordshire;Calthorpe;;W1.33;N52.04;10;
2;ENG;Oxfordshire;Camp Corner;;W1.07;N51.72;10;
2;ENG;Oxfordshire;Campsfield;;W1.33;N51.83;10;
2;ENG;Oxfordshire;Cane End;;W1.03;N51.50;10;
2;ENG;Oxfordshire;Carswell Marsh;;W1.53;N51.68;10;
2;ENG;Oxfordshire;Carterton;;W1.59;N51.75;10;
2;ENG;Oxfordshire;Cassington;;W1.34;N51.78;10;
2;ENG;Oxfordshire;Catslip;;W0.99;N51.56;10;
2;ENG;Oxfordshire;Caulcott;;W1.27;N51.91;10;
2;ENG;Oxfordshire;Caversfield;;W1.15;N51.92;10;
2;ENG;Oxfordshire;Chadlington;;W1.53;N51.88;10;
2;ENG;Oxfordshire;Chalford;;W0.97;N51.69;10;
2;ENG;Oxfordshire;Chalgrove;;W1.09;N51.65;10;
2;ENG;Oxfordshire;Chalkhouse Green;;W0.97;N51.49;10;
2;ENG;Oxfordshire;Charlbury;;W1.49;N51.86;10;
2;ENG;Oxfordshire;Charlton;;W1.42;N51.58;10;
2;ENG;Oxfordshire;Charlton-on-Otmoor;;W1.18;N51.83;10;
2;ENG;Oxfordshire;Charney Bassett;;W1.45;N51.64;10;
2;ENG;Oxfordshire;Charterville Allotments;;W1.55;N51.78;10;
2;ENG;Oxfordshire;Chastleton;;W1.65;N51.95;10;
2;ENG;Oxfordshire;Chawley;;W1.32;N51.73;10;
2;ENG;Oxfordshire;Chazey Heath;;W1.00;N51.48;10;
2;ENG;Oxfordshire;Checkendon;;W1.04;N51.54;10;
2;ENG;Oxfordshire;Cherwell;;W1.27;N51.81;10;
2;ENG;Oxfordshire;Chesterton;;W1.18;N51.88;10;
2;ENG;Oxfordshire;Childrey;;W1.48;N51.58;10;
2;ENG;Oxfordshire;Chilson;;W1.55;N51.86;10;
2;ENG;Oxfordshire;Chiltern Hills;;W0.99;N51.59;10;
2;ENG;Oxfordshire;Chilton;;W1.30;N51.56;10;
2;ENG;Oxfordshire;Chimney;;W1.49;N51.69;10;
2;ENG;Oxfordshire;Chimney-end;;W1.55;N51.83;10;
2;ENG;Oxfordshire;Chinnor;;W0.91;N51.69;10;
2;ENG;Oxfordshire;Chipping Norton;;W1.55;N51.93;10;
2;ENG;Oxfordshire;Chislehampton;;W1.14;N51.67;10;
2;ENG;Oxfordshire;Cholsey;;W1.16;N51.57;10;
2;ENG;Oxfordshire;Christmas Common;;W0.97;N51.63;10;
2;ENG;Oxfordshire;Church End;;W1.43;N51.76;10;
2;ENG;Oxfordshire;Church End;;W1.53;N51.97;10;
2;ENG;Oxfordshire;Church Enstone;;W1.46;N51.92;10;
2;ENG;Oxfordshire;Church Hanborough;;W1.39;N51.80;10;
2;ENG;Oxfordshire;Churchill;;W1.59;N51.91;10;
2;ENG;Oxfordshire;Clanfield;;W1.59;N51.70;10;
2;ENG;Oxfordshire;Clare;;W1.03;N51.67;10;
2;ENG;Oxfordshire;Cleeve;;W1.13;N51.52;10;
2;ENG;Oxfordshire;Cleveley;;W1.44;N51.91;10;
2;ENG;Oxfordshire;Clifton;;W1.30;N51.97;10;
2;ENG;Oxfordshire;Clifton Hampden;;W1.22;N51.65;10;
2;ENG;Oxfordshire;Cogges;;W1.47;N51.77;10;
2;ENG;Oxfordshire;Cold Harbour;;W1.09;N51.50;10;
2;ENG;Oxfordshire;Collins End;;W1.06;N51.49;10;
2;ENG;Oxfordshire;Combe;;W1.40;N51.83;10;
2;ENG;Oxfordshire;Compton Beauchamp;;W1.59;N51.58;10;
2;ENG;Oxfordshire;Cookley Green;;W1.00;N51.60;10;
2;ENG;Oxfordshire;Cornwell;;W1.60;N51.94;10;
2;ENG;Oxfordshire;Coscote;;W1.26;N51.58;10;
2;ENG;Oxfordshire;Cote;;W1.49;N51.71;10;
2;ENG;Oxfordshire;Cothill;;W1.33;N51.68;10;
2;ENG;Oxfordshire;Cottisford;;W1.15;N51.97;10;
2;ENG;Oxfordshire;Cowleaze Corner;;W1.56;N51.71;10;
2;ENG;Oxfordshire;Cowley;;W1.20;N51.73;10;
2;ENG;Oxfordshire;Crawley;;W1.50;N51.79;10;
2;ENG;Oxfordshire;Cray's Pond;;W1.09;N51.51;10;
2;ENG;Oxfordshire;Crocker End;;W0.99;N51.56;10;
2;ENG;Oxfordshire;Cropredy;;W1.32;N52.11;10;
2;ENG;Oxfordshire;Cross Lanes;;W1.03;N51.49;10;
2;ENG;Oxfordshire;Crowell;;W0.93;N51.68;10;
2;ENG;Oxfordshire;Crowell Hill;;W0.91;N51.67;10;
2;ENG;Oxfordshire;Crowmarsh Gifford;;W1.12;N51.59;10;
2;ENG;Oxfordshire;Crowsley;;W0.96;N51.50;10;
2;ENG;Oxfordshire;Cuddesdon;;W1.13;N51.72;10;
2;ENG;Oxfordshire;Culham;;W1.27;N51.65;10;
2;ENG;Oxfordshire;Cumnor;;W1.33;N51.73;10;
2;ENG;Oxfordshire;Cumnor Hill;;W1.32;N51.74;10;
2;ENG;Oxfordshire;Curbridge;;W1.52;N51.76;10;
2;ENG;Oxfordshire;Cutteslowe;;W1.27;N51.78;10;
2;ENG;Oxfordshire;Cuxham;;W1.04;N51.65;10;
2;ENG;Oxfordshire;Dean;;W1.50;N51.89;10;
2;ENG;Oxfordshire;Dean Court;;W1.32;N51.74;10;
2;ENG;Oxfordshire;Deddington;;W1.33;N51.97;10;
2;ENG;Oxfordshire;Delly End;;W1.49;N51.81;10;
2;ENG;Oxfordshire;Denchworth;;W1.45;N51.61;10;
2;ENG;Oxfordshire;Denton;;W1.14;N51.71;10;
2;ENG;Oxfordshire;Didcot;;W1.25;N51.59;10;
2;ENG;Oxfordshire;Dorchester;;W1.17;N51.64;10;
2;ENG;Oxfordshire;Dorn;;W1.35;N51.91;10;
2;ENG;Oxfordshire;Draycot;;W1.07;N51.74;10;
2;ENG;Oxfordshire;Drayton;;W1.32;N51.64;10;
2;ENG;Oxfordshire;Drayton;;W1.38;N52.06;10;
2;ENG;Oxfordshire;Drayton St Leonard;;W1.14;N51.65;10;
2;ENG;Oxfordshire;Dry Sandford;;W1.33;N51.69;10;
2;ENG;Oxfordshire;Ducklington;;W1.49;N51.76;10;
2;ENG;Oxfordshire;Duns Tew;;W1.34;N51.94;10;
2;ENG;Oxfordshire;Dunsden Green;;W0.94;N51.48;10;
2;ENG;Oxfordshire;Dunthrop;;W1.49;N51.94;10;
2;ENG;Oxfordshire;Duxford;;W1.48;N51.68;10;
2;ENG;Oxfordshire;Easington;;W1.04;N51.66;10;
2;ENG;Oxfordshire;Easington;;W1.34;N52.04;10;
2;ENG;Oxfordshire;East Adderbury;;W1.31;N52.01;10;
2;ENG;Oxfordshire;East Challow;;W1.46;N51.58;10;
2;ENG;Oxfordshire;East End;;W1.43;N51.82;10;
2;ENG;Oxfordshire;East End;;W1.39;N51.83;10;
2;ENG;Oxfordshire;East End;;W1.49;N51.99;10;
2;ENG;Oxfordshire;East End;;W1.31;N52.01;10;
2;ENG;Oxfordshire;East Ginge;;W1.36;N51.57;10;
2;ENG;Oxfordshire;East Hagbourne;;W1.23;N51.58;10;
2;ENG;Oxfordshire;East Hanney;;W1.40;N51.63;10;
2;ENG;Oxfordshire;East Hendred;;W1.35;N51.58;10;
2;ENG;Oxfordshire;East Lockinge;;W1.39;N51.58;10;
2;ENG;Oxfordshire;Eastend;;W1.52;N51.89;10;
2;ENG;Oxfordshire;Eaton;;W1.36;N51.72;10;
2;ENG;Oxfordshire;Eaton Hastings;;W1.63;N51.67;10;
2;ENG;Oxfordshire;Elsfield;;W1.21;N51.78;10;
2;ENG;Oxfordshire;Emmington;;W0.93;N51.71;10;
2;ENG;Oxfordshire;Enslow;;W1.30;N51.85;10;
2;ENG;Oxfordshire;Enstone;;W1.46;N51.91;10;
2;ENG;Oxfordshire;Epwell;;W1.49;N52.05;10;
2;ENG;Oxfordshire;Evenlode;;W1.63;N51.88;10;
2;ENG;Oxfordshire;Ewelme;;W1.07;N51.61;10;
2;ENG;Oxfordshire;Exlade Street;;W1.06;N51.53;10;
2;ENG;Oxfordshire;Eynsham;;W1.37;N51.77;10;
2;ENG;Oxfordshire;Faringdon;;W1.59;N51.65;10;
2;ENG;Oxfordshire;Farmoor;;W1.34;N51.75;10;
2;ENG;Oxfordshire;Fawler;;W1.55;N51.59;10;
2;ENG;Oxfordshire;Fawler;;W1.46;N51.85;10;
2;ENG;Oxfordshire;Fawley Bottom;;W0.93;N51.56;10;
2;ENG;Oxfordshire;Fencott;;W1.17;N51.83;10;
2;ENG;Oxfordshire;Fernham;;W1.58;N51.61;10;
2;ENG;Oxfordshire;Fernham;;W1.59;N51.62;10;
2;ENG;Oxfordshire;Fewcott;;W1.23;N51.93;10;
2;ENG;Oxfordshire;Field Assarts;;W1.55;N51.81;10;
2;ENG;Oxfordshire;Fifield;;W1.65;N51.86;10;
2;ENG;Oxfordshire;Filchampstead;;W1.34;N51.74;10;
2;ENG;Oxfordshire;Filkins;;W1.66;N51.73;10;
2;ENG;Oxfordshire;Finmere;;W1.08;N51.98;10;
2;ENG;Oxfordshire;Finstock;;W1.47;N51.84;10;
2;ENG;Oxfordshire;Fordwells;;W1.56;N51.81;10;
2;ENG;Oxfordshire;Forest Hill;;W1.16;N51.75;10;
2;ENG;Oxfordshire;Forty Green;;W0.90;N51.72;10;
2;ENG;Oxfordshire;Foscot;;W1.65;N51.88;10;
2;ENG;Oxfordshire;Foxcombe Hill;;W1.29;N51.70;10;
2;ENG;Oxfordshire;Freeland;;W1.40;N51.80;10;
2;ENG;Oxfordshire;Frilford;;W1.37;N51.67;10;
2;ENG;Oxfordshire;Frilford Heath;;W1.36;N51.67;10;
2;ENG;Oxfordshire;Fringford;;W1.12;N51.94;10;
2;ENG;Oxfordshire;Fritwell;;W1.24;N51.95;10;
2;ENG;Oxfordshire;Fulbrook;;W1.62;N51.81;10;
2;ENG;Oxfordshire;Fulwell;;W1.46;N51.90;10;
2;ENG;Oxfordshire;Fyfield;;W1.39;N51.67;10;
2;ENG;Oxfordshire;Gagingwell;;W1.41;N51.92;10;
2;ENG;Oxfordshire;Gainfield;;W1.50;N51.65;10;
2;ENG;Oxfordshire;Gallowstree Common;;W1.02;N51.51;10;
2;ENG;Oxfordshire;Garford;;W1.39;N51.66;10;
2;ENG;Oxfordshire;Garsington;;W1.16;N51.71;10;
2;ENG;Oxfordshire;Gibralter;;W1.30;N51.84;10;
2;ENG;Oxfordshire;Glyme;;W1.37;N51.83;10;
2;ENG;Oxfordshire;Glympton;;W1.39;N51.88;10;
2;ENG;Oxfordshire;Golden Balls;;W1.20;N51.66;10;
2;ENG;Oxfordshire;Goosey;;W1.49;N51.61;10;
2;ENG;Oxfordshire;Goring;;W1.13;N51.52;10;
2;ENG;Oxfordshire;Goring Heath;;W1.06;N51.50;10;
2;ENG;Oxfordshire;Gosford;;W1.29;N51.81;10;
2;ENG;Oxfordshire;Gozzard's Ford;;W1.33;N51.67;10;
2;ENG;Oxfordshire;Grafton;;W1.62;N51.69;10;
2;ENG;Oxfordshire;Grandpont;;W1.26;N51.74;10;
2;ENG;Oxfordshire;Great Bourton;;W1.34;N52.10;10;
2;ENG;Oxfordshire;Great Coxwell;;W1.62;N51.63;10;
2;ENG;Oxfordshire;Great Haseley;;W1.07;N51.70;10;
2;ENG;Oxfordshire;Great Holcombe;;W1.11;N51.65;10;
2;ENG;Oxfordshire;Great Milton;;W1.10;N51.71;10;
2;ENG;Oxfordshire;Great Rollright;;W1.53;N51.97;10;
2;ENG;Oxfordshire;Great Tew;;W1.43;N51.95;10;
2;ENG;Oxfordshire;Greenend;;W1.53;N51.88;10;
2;ENG;Oxfordshire;Greenfield;;W0.97;N51.61;10;
2;ENG;Oxfordshire;Greys Green;;W0.96;N51.53;10;
2;ENG;Oxfordshire;Grimsbury;;W1.33;N52.05;10;
2;ENG;Oxfordshire;Grove;;W1.42;N51.60;10;
2;ENG;Oxfordshire;Hailey;;W1.07;N51.56;10;
2;ENG;Oxfordshire;Hailey;;W1.49;N51.80;10;
2;ENG;Oxfordshire;Hampton Gay;;W1.30;N51.84;10;
2;ENG;Oxfordshire;Hampton Poyle;;W1.27;N51.83;10;
2;ENG;Oxfordshire;Hanwell;;W1.37;N52.08;10;
2;ENG;Oxfordshire;Harcourt Hill;;W1.29;N51.73;10;
2;ENG;Oxfordshire;Hardwick;;W1.45;N51.75;10;
2;ENG;Oxfordshire;Hardwick;;W1.17;N51.95;10;
2;ENG;Oxfordshire;Hardwick;;W1.35;N52.06;10;
2;ENG;Oxfordshire;Harpsden;;W0.90;N51.51;10;
2;ENG;Oxfordshire;Harpsden Bottom;;W0.92;N51.51;10;
2;ENG;Oxfordshire;Harwell;;W1.29;N51.59;10;
2;ENG;Oxfordshire;Hatford;;W1.52;N51.64;10;
2;ENG;Oxfordshire;Headington;;W1.21;N51.75;10;
2;ENG;Oxfordshire;Headington Hill;;W1.23;N51.75;10;
2;ENG;Oxfordshire;Hempton;;W1.36;N51.97;10;
2;ENG;Oxfordshire;Hempton Wainhill;;W0.90;N51.70;10;
2;ENG;Oxfordshire;Henley-on-Thames;;W0.90;N51.53;10;
2;ENG;Oxfordshire;Hensington;;W1.34;N51.84;10;
2;ENG;Oxfordshire;Henton;;W0.90;N51.71;10;
2;ENG;Oxfordshire;Henwood;;W1.33;N51.71;10;
2;ENG;Oxfordshire;Hethe;;W1.14;N51.95;10;
2;ENG;Oxfordshire;Heythrop;;W1.49;N51.94;10;
2;ENG;Oxfordshire;High Cogges;;W1.46;N51.77;10;
2;ENG;Oxfordshire;Highfield;;W1.17;N51.90;10;
2;ENG;Oxfordshire;Highmoor;;W0.99;N51.55;10;
2;ENG;Oxfordshire;Highmoor Brook;;W1.55;N51.71;10;
2;ENG;Oxfordshire;Highmoor Cross;;W1.00;N51.55;10;
2;ENG;Oxfordshire;Hill Bottom;;W1.07;N51.50;10;
2;ENG;Oxfordshire;Hinton Waldrist;;W1.46;N51.67;10;
2;ENG;Oxfordshire;Holton;;W1.13;N51.74;10;
2;ENG;Oxfordshire;Holwell;;W1.66;N51.77;10;
2;ENG;Oxfordshire;Hook End;;W1.04;N51.52;10;
2;ENG;Oxfordshire;Hook Norton;;W1.49;N51.99;10;
2;ENG;Oxfordshire;Hopcroft's Holt;;W1.33;N51.92;10;
2;ENG;Oxfordshire;Horley;;W1.40;N52.08;10;
2;ENG;Oxfordshire;Hornton;;W1.43;N52.10;10;
2;ENG;Oxfordshire;Horspath;;W1.17;N51.73;10;
2;ENG;Oxfordshire;Horton-cum-Studley;;W1.14;N51.80;10;
2;ENG;Oxfordshire;Huntercombe End;;W1.01;N51.57;10;
2;ENG;Oxfordshire;Ickford;;W1.07;N51.75;10;
2;ENG;Oxfordshire;Idbury;;W1.66;N51.86;10;
2;ENG;Oxfordshire;Iffley;;W1.24;N51.72;10;
2;ENG;Oxfordshire;Ipsden;;W1.09;N51.56;10;
2;ENG;Oxfordshire;Islip;;W1.24;N51.82;10;
2;ENG;Oxfordshire;Kelmscot;;W1.63;N51.68;10;
2;ENG;Oxfordshire;Kencot;;W1.63;N51.73;10;
2;ENG;Oxfordshire;Kennington;;W1.24;N51.71;10;
2;ENG;Oxfordshire;Kiddington;;W1.40;N51.89;10;
2;ENG;Oxfordshire;Kidlington;;W1.29;N51.81;10;
2;ENG;Oxfordshire;Kidmore End;;W1.00;N51.50;10;
2;ENG;Oxfordshire;King's End;;W1.15;N51.89;10;
2;ENG;Oxfordshire;Kingston Bagpuize;;W1.42;N51.67;10;
2;ENG;Oxfordshire;Kingston Blount;;W0.94;N51.68;10;
2;ENG;Oxfordshire;Kingston Lisle;;W1.53;N51.58;10;
2;ENG;Oxfordshire;Kingston Stert;;W0.95;N51.70;10;
2;ENG;Oxfordshire;Kingstone Winslow;;W1.62;N51.56;10;
2;ENG;Oxfordshire;Kirtlington;;W1.28;N51.86;10;
2;ENG;Oxfordshire;Kitebrook;;W1.65;N51.97;10;
2;ENG;Oxfordshire;Knighton;;W1.59;N51.58;10;
2;ENG;Oxfordshire;Langford;;W1.65;N51.71;10;
2;ENG;Oxfordshire;Langley;;W1.56;N51.83;10;
2;ENG;Oxfordshire;Latchford;;W1.06;N51.70;10;
2;ENG;Oxfordshire;Launton;;W1.12;N51.89;10;
2;ENG;Oxfordshire;Leach;;W1.69;N51.71;10;
2;ENG;Oxfordshire;Leafield;;W1.55;N51.83;10;
2;ENG;Oxfordshire;Ledwell;;W1.39;N51.94;10;
2;ENG;Oxfordshire;Letcombe Bassett;;W1.46;N51.56;10;
2;ENG;Oxfordshire;Letcombe Regis;;W1.45;N51.57;10;
2;ENG;Oxfordshire;Lew;;W1.53;N51.75;10;
2;ENG;Oxfordshire;Lewknor;;W0.97;N51.66;10;
2;ENG;Oxfordshire;Lidstone;;W1.49;N51.91;10;
2;ENG;Oxfordshire;Little Bourton;;W1.34;N52.09;10;
2;ENG;Oxfordshire;Little Chesterton;;W1.20;N51.87;10;
2;ENG;Oxfordshire;Little Clanfield;;W1.61;N51.70;10;
2;ENG;Oxfordshire;Little Coxwell;;W1.59;N51.63;10;
2;ENG;Oxfordshire;Little Haseley;;W1.07;N51.69;10;
2;ENG;Oxfordshire;Little London;;W1.24;N51.70;10;
2;ENG;Oxfordshire;Little Milton;;W1.11;N51.69;10;
2;ENG;Oxfordshire;Little Minster;;W1.55;N51.79;10;
2;ENG;Oxfordshire;Little Rollright;;W1.57;N51.96;10;
2;ENG;Oxfordshire;Little Tew;;W1.44;N51.94;10;
2;ENG;Oxfordshire;Little Wittenham;;W1.19;N51.63;10;
2;ENG;Oxfordshire;Littlemore;;W1.23;N51.71;10;
2;ENG;Oxfordshire;Littleworth;;W1.12;N51.61;10;
2;ENG;Oxfordshire;Littleworth;;W1.55;N51.67;10;
2;ENG;Oxfordshire;Littleworth;;W1.16;N51.74;10;
2;ENG;Oxfordshire;Long Hanborough;;W1.40;N51.82;10;
2;ENG;Oxfordshire;Long Wittenham;;W1.22;N51.63;10;
2;ENG;Oxfordshire;Longcot;;W1.61;N51.60;10;
2;ENG;Oxfordshire;Longworth;;W1.43;N51.68;10;
2;ENG;Oxfordshire;Lower Arncott;;W1.13;N51.85;10;
2;ENG;Oxfordshire;Lower Assendon;;W0.93;N51.55;10;
2;ENG;Oxfordshire;Lower End;;W1.53;N51.83;10;
2;ENG;Oxfordshire;Lower Heyford;;W1.30;N51.91;10;
2;ENG;Oxfordshire;Lower Highmoor;;W0.99;N51.55;10;
2;ENG;Oxfordshire;Lower Radley;;W1.23;N51.67;10;
2;ENG;Oxfordshire;Lower Shiplake;;W0.89;N51.50;10;
2;ENG;Oxfordshire;Lower Tadmarton;;W1.41;N52.03;10;
2;ENG;Oxfordshire;Lower Wainhill;;W0.90;N51.70;10;
2;ENG;Oxfordshire;Lyford;;W1.43;N51.64;10;
2;ENG;Oxfordshire;Lyneham;;W1.60;N51.87;10;
2;ENG;Oxfordshire;Mackney;;W1.17;N51.59;10;
2;ENG;Oxfordshire;Maidensgrove;;W0.96;N51.58;10;
2;ENG;Oxfordshire;Mapledurham;;W1.03;N51.47;10;
2;ENG;Oxfordshire;Marcham;;W1.35;N51.66;10;
2;ENG;Oxfordshire;Marsh Baldon;;W1.19;N51.68;10;
2;ENG;Oxfordshire;Marston;;W1.24;N51.76;10;
2;ENG;Oxfordshire;Mays Green;;W0.93;N51.51;10;
2;ENG;Oxfordshire;Meadside;;W1.16;N51.63;10;
2;ENG;Oxfordshire;Merton;;W1.17;N51.84;10;
2;ENG;Oxfordshire;Middle Assendon;;W0.94;N51.55;10;
2;ENG;Oxfordshire;Middle Aston;;W1.31;N51.93;10;
2;ENG;Oxfordshire;Middle Barton;;W1.37;N51.92;10;
2;ENG;Oxfordshire;Middleton Stoney;;W1.23;N51.90;10;
2;ENG;Oxfordshire;Milcombe;;W1.40;N52.00;10;
2;ENG;Oxfordshire;Mill Brook;;W1.23;N51.57;10;
2;ENG;Oxfordshire;Millend;;W1.53;N51.89;10;
2;ENG;Oxfordshire;Milton;;W1.30;N51.62;10;
2;ENG;Oxfordshire;Milton;;W1.34;N52.01;10;
2;ENG;Oxfordshire;Milton Common;;W1.06;N51.72;10;
2;ENG;Oxfordshire;Milton Heights;;W1.30;N51.61;10;
2;ENG;Oxfordshire;Milton Hill;;W1.32;N51.60;10;
2;ENG;Oxfordshire;Milton under Wychwood;;W1.62;N51.86;10;
2;ENG;Oxfordshire;Minster Lovell;;W1.55;N51.78;10;
2;ENG;Oxfordshire;Mixbury;;W1.12;N51.99;10;
2;ENG;Oxfordshire;Mollington;;W1.35;N52.11;10;
2;ENG;Oxfordshire;Moreton;;W1.40;N51.70;10;
2;ENG;Oxfordshire;Moreton;;W1.00;N51.73;10;
2;ENG;Oxfordshire;Moulsford;;W1.16;N51.54;10;
2;ENG;Oxfordshire;Mount Skippett;;W1.49;N51.83;10;
2;ENG;Oxfordshire;Murcott;;W1.15;N51.83;10;
2;ENG;Oxfordshire;Neat Enstone;;W1.46;N51.91;10;
2;ENG;Oxfordshire;Neithrop;;W1.35;N52.05;10;
2;ENG;Oxfordshire;Nether Worton;;W1.39;N51.96;10;
2;ENG;Oxfordshire;Nethercote;;W1.31;N52.06;10;
2;ENG;Oxfordshire;Nethercott;;W1.30;N51.87;10;
2;ENG;Oxfordshire;Netherton;;W1.40;N51.68;10;
2;ENG;Oxfordshire;Nettlebed;;W1.00;N51.56;10;
2;ENG;Oxfordshire;New Botley;;W1.29;N51.75;10;
2;ENG;Oxfordshire;New Cross;;W0.90;N51.49;10;
2;ENG;Oxfordshire;New Headington;;W1.20;N51.75;10;
2;ENG;Oxfordshire;New Hinksey;;W1.26;N51.73;10;
2;ENG;Oxfordshire;New Marston;;W1.24;N51.75;10;
2;ENG;Oxfordshire;New Town;;W1.63;N51.95;10;
2;ENG;Oxfordshire;New Yatt;;W1.46;N51.81;10;
2;ENG;Oxfordshire;Newbridge;;W1.42;N51.70;10;
2;ENG;Oxfordshire;Newington;;W1.13;N51.65;10;
2;ENG;Oxfordshire;Newland;;W1.47;N51.78;10;
2;ENG;Oxfordshire;Newton Morrell;;W1.11;N51.95;10;
2;ENG;Oxfordshire;Newton Purcell;;W1.09;N51.96;10;
2;ENG;Oxfordshire;Newtown;;W0.90;N51.52;10;
2;ENG;Oxfordshire;Noke;;W1.21;N51.81;10;
2;ENG;Oxfordshire;North Aston;;W1.31;N51.95;10;
2;ENG;Oxfordshire;North Hinksey Village;;W1.29;N51.74;10;
2;ENG;Oxfordshire;North Leigh;;W1.45;N51.80;10;
2;ENG;Oxfordshire;North Moreton;;W1.19;N51.59;10;
2;ENG;Oxfordshire;North Newington;;W1.38;N52.04;10;
2;ENG;Oxfordshire;North Stoke;;W1.12;N51.56;10;
2;ENG;Oxfordshire;North Weston;;W1.01;N51.73;10;
2;ENG;Oxfordshire;Northbrook;;W1.28;N51.89;10;
2;ENG;Oxfordshire;Northcourt;;W1.27;N51.67;10;
2;ENG;Oxfordshire;Northmoor;;W1.39;N51.71;10;
2;ENG;Oxfordshire;Nuffield;;W1.04;N51.57;10;
2;ENG;Oxfordshire;Nuneham Courtenay;;W1.20;N51.68;10;
2;ENG;Oxfordshire;Nuney Green;;W1.03;N51.50;10;
2;ENG;Oxfordshire;Oakley;;W0.93;N51.69;10;
2;ENG;Oxfordshire;Oakley Wood;;W1.07;N51.58;10;
2;ENG;Oxfordshire;Ock;;W1.38;N51.66;10;
2;ENG;Oxfordshire;Oddington;;W1.20;N51.82;10;
2;ENG;Oxfordshire;Old Chalford;;W1.50;N51.92;10;
2;ENG;Oxfordshire;Old Woodstock;;W1.36;N51.85;10;
2;ENG;Oxfordshire;Osney;;W1.27;N51.75;10;
2;ENG;Oxfordshire;Over Kiddington;;W1.42;N51.89;10;
2;ENG;Oxfordshire;Over Norton;;W1.55;N51.94;10;
2;ENG;Oxfordshire;Over Worton;;W1.37;N51.95;10;
2;ENG;Oxfordshire;Oxford;;W1.26;N51.75;10;
2;ENG;Oxfordshire;Oxford Canal;;W1.30;N51.84;10;
2;ENG;Oxfordshire;Park Corner;;W1.00;N51.58;10;
2;ENG;Oxfordshire;Park Street;;W1.26;N51.75;10;
2;ENG;Oxfordshire;Piddington;;W1.07;N51.84;10;
2;ENG;Oxfordshire;Pishill;;W0.96;N51.59;10;
2;ENG;Oxfordshire;Pishill Bank;;W0.97;N51.60;10;
2;ENG;Oxfordshire;Play Hatch;;W0.93;N51.47;10;
2;ENG;Oxfordshire;Poffley End;;W1.49;N51.80;10;
2;ENG;Oxfordshire;Port Hill;;W1.01;N51.57;10;
2;ENG;Oxfordshire;Postcombe;;W0.98;N51.68;10;
2;ENG;Oxfordshire;Preston Crowmarsh;;W1.12;N51.60;10;
2;ENG;Oxfordshire;Pusey;;W1.49;N51.66;10;
2;ENG;Oxfordshire;Pyrton;;W1.01;N51.64;10;
2;ENG;Oxfordshire;Rack End;;W1.42;N51.72;10;
2;ENG;Oxfordshire;Radcot;;W1.59;N51.68;10;
2;ENG;Oxfordshire;Radford;;W1.41;N51.90;10;
2;ENG;Oxfordshire;Radfordbridge;;W1.41;N51.90;10;
2;ENG;Oxfordshire;Radley;;W1.24;N51.67;10;
2;ENG;Oxfordshire;Radley Park;;W1.26;N51.68;10;
2;ENG;Oxfordshire;Ramsden;;W1.49;N51.83;10;
2;ENG;Oxfordshire;Ray;;W1.11;N51.85;10;
2;ENG;Oxfordshire;Risinghurst;;W1.20;N51.75;10;
2;ENG;Oxfordshire;Roke;;W1.10;N51.63;10;
2;ENG;Oxfordshire;Rokemarsh;;W1.10;N51.62;10;
2;ENG;Oxfordshire;Rose Hill;;W1.23;N51.72;10;
2;ENG;Oxfordshire;Rotherfield Greys;;W0.96;N51.53;10;
2;ENG;Oxfordshire;Rotherfield Peppard;;W0.97;N51.52;10;
2;ENG;Oxfordshire;Rousham;;W1.31;N51.91;10;
2;ENG;Oxfordshire;Rowstock;;W1.32;N51.59;10;
2;ENG;Oxfordshire;Ruscote;;W1.35;N52.06;10;
2;ENG;Oxfordshire;Russell's Water;;W0.99;N51.59;10;
2;ENG;Oxfordshire;Salford;;W1.59;N51.95;10;
2;ENG;Oxfordshire;Sandford St Martin;;W1.39;N51.93;10;
2;ENG;Oxfordshire;Sandford-on-Thames;;W1.23;N51.70;10;
2;ENG;Oxfordshire;Sandhills;;W1.18;N51.75;10;
2;ENG;Oxfordshire;Sandleigh;;W1.32;N51.70;10;
2;ENG;Oxfordshire;Sarsden;;W1.59;N51.90;10;
2;ENG;Oxfordshire;Sarsden Halt;;W1.60;N51.91;10;
2;ENG;Oxfordshire;Satwell;;W0.99;N51.54;10;
2;ENG;Oxfordshire;Scotland End;;W1.50;N51.99;10;
2;ENG;Oxfordshire;Seacourt Stream;;W1.27;N51.73;10;
2;ENG;Oxfordshire;Shellingford;;W1.55;N51.63;10;
2;ENG;Oxfordshire;Shenington;;W1.46;N52.07;10;
2;ENG;Oxfordshire;Shepherd's Green;;W0.97;N51.54;10;
2;ENG;Oxfordshire;Shillingford;;W1.14;N51.62;10;
2;ENG;Oxfordshire;Shilton;;W1.62;N51.77;10;
2;ENG;Oxfordshire;Shiplake;;W0.90;N51.49;10;
2;ENG;Oxfordshire;Shiplake Bottom;;W0.99;N51.51;10;
2;ENG;Oxfordshire;Shiplake Row;;W0.92;N51.49;10;
2;ENG;Oxfordshire;Shippon;;W1.30;N51.67;10;
2;ENG;Oxfordshire;Shipton under Wychwood;;W1.60;N51.85;10;
2;ENG;Oxfordshire;Shipton-on-Cherwell;;W1.30;N51.84;10;
2;ENG;Oxfordshire;Shirburn;;W1.00;N51.64;10;
2;ENG;Oxfordshire;Shores Green;;W1.46;N51.77;10;
2;ENG;Oxfordshire;Shorthampton;;W1.53;N51.87;10;
2;ENG;Oxfordshire;Shrivenham;;W1.65;N51.59;10;
2;ENG;Oxfordshire;Shutford;;W1.44;N52.05;10;
2;ENG;Oxfordshire;Sibford Ferris;;W1.49;N52.03;10;
2;ENG;Oxfordshire;Sibford Gower;;W1.49;N52.03;10;
2;ENG;Oxfordshire;Signet;;W1.65;N51.78;10;
2;ENG;Oxfordshire;Slade End;;W1.16;N51.60;10;
2;ENG;Oxfordshire;Somerton;;W1.28;N51.94;10;
2;ENG;Oxfordshire;Sonning;;W0.92;N51.46;10;
2;ENG;Oxfordshire;Sonning Common;;W0.99;N51.51;10;
2;ENG;Oxfordshire;Sonning Eye;;W0.92;N51.47;10;
2;ENG;Oxfordshire;Souldern;;W1.24;N51.97;10;
2;ENG;Oxfordshire;South Hinksey;;W1.27;N51.73;10;
2;ENG;Oxfordshire;South Leigh;;W1.43;N51.76;10;
2;ENG;Oxfordshire;South Moreton;;W1.19;N51.58;10;
2;ENG;Oxfordshire;South Newington;;W1.41;N51.99;10;
2;ENG;Oxfordshire;South Stoke;;W1.15;N51.54;10;
2;ENG;Oxfordshire;South Weston;;W0.98;N51.67;10;
2;ENG;Oxfordshire;Southcoombe;;W1.52;N51.94;10;
2;ENG;Oxfordshire;Southend;;W1.16;N51.70;10;
2;ENG;Oxfordshire;Southmoor;;W1.43;N51.67;10;
2;ENG;Oxfordshire;Southrop;;W1.49;N51.98;10;
2;ENG;Oxfordshire;Sparsholt;;W1.51;N51.58;10;
2;ENG;Oxfordshire;Spelsbury;;W1.50;N51.88;10;
2;ENG;Oxfordshire;Sprig's Alley;;W0.90;N51.67;10;
2;ENG;Oxfordshire;Stadhampton;;W1.13;N51.67;10;
2;ENG;Oxfordshire;Standlake;;W1.43;N51.72;10;
2;ENG;Oxfordshire;Stanford in the Vale;;W1.51;N51.63;10;
2;ENG;Oxfordshire;Stanton Harcourt;;W1.40;N51.74;10;
2;ENG;Oxfordshire;Stanton St John;;W1.17;N51.77;10;
2;ENG;Oxfordshire;Steeple Aston;;W1.31;N51.92;10;
2;ENG;Oxfordshire;Steeple Barton;;W1.36;N51.92;10;
2;ENG;Oxfordshire;Steventon;;W1.33;N51.61;10;
2;ENG;Oxfordshire;Stoke Lyne;;W1.18;N51.94;10;
2;ENG;Oxfordshire;Stoke Row;;W1.02;N51.55;10;
2;ENG;Oxfordshire;Stoke Talmage;;W1.03;N51.68;10;
2;ENG;Oxfordshire;Stonesfield;;W1.43;N51.85;10;
2;ENG;Oxfordshire;Stonor;;W0.94;N51.58;10;
2;ENG;Oxfordshire;Stratton Audley;;W1.12;N51.92;10;
2;ENG;Oxfordshire;Summertown;;W1.26;N51.76;10;
2;ENG;Oxfordshire;Sunningwell;;W1.29;N51.69;10;
2;ENG;Oxfordshire;Sunnymead;;W1.27;N51.77;10;
2;ENG;Oxfordshire;Sutton;;W1.40;N51.75;10;
2;ENG;Oxfordshire;Sutton Courtenay;;W1.27;N51.63;10;
2;ENG;Oxfordshire;Sutton Wick;;W1.32;N51.64;10;
2;ENG;Oxfordshire;Swalcliffe;;W1.46;N52.03;10;
2;ENG;Oxfordshire;Swere;;W1.50;N51.96;10;
2;ENG;Oxfordshire;Swerford;;W1.46;N51.97;10;
2;ENG;Oxfordshire;Swinbrook;;W1.59;N51.80;10;
2;ENG;Oxfordshire;Swinford;;W1.36;N51.76;10;
2;ENG;Oxfordshire;Sydenham;;W0.94;N51.70;10;
2;ENG;Oxfordshire;Tackley;;W1.31;N51.87;10;
2;ENG;Oxfordshire;Tadley;;W1.23;N51.58;10;
2;ENG;Oxfordshire;Tadmarton;;W1.43;N52.03;10;
2;ENG;Oxfordshire;Taston;;W1.49;N51.88;10;
2;ENG;Oxfordshire;Taynton;;W1.66;N51.81;10;
2;ENG;Oxfordshire;Temple Cowley;;W1.21;N51.73;10;
2;ENG;Oxfordshire;Tetsworth;;W1.01;N51.71;10;
2;ENG;Oxfordshire;Thame;;W1.14;N51.67;10;
2;ENG;Oxfordshire;Thame;;W0.98;N51.73;10;
2;ENG;Oxfordshire;Thame;;W1.09;N51.74;10;
2;ENG;Oxfordshire;Thames;;W1.33;N51.78;10;
2;ENG;Oxfordshire;The Colony;;W1.50;N52.03;10;
2;ENG;Oxfordshire;The Green;;W1.31;N51.94;10;
2;ENG;Oxfordshire;The Platt;;W1.14;N51.70;10;
2;ENG;Oxfordshire;Thrupp;;W1.58;N51.68;10;
2;ENG;Oxfordshire;Thrupp;;W1.30;N51.83;10;
2;ENG;Oxfordshire;Tiddington;;W1.06;N51.73;10;
2;ENG;Oxfordshire;Tokers Green;;W1.00;N51.48;10;
2;ENG;Oxfordshire;Toot Baldon;;W1.19;N51.69;10;
2;ENG;Oxfordshire;Towersey;;W0.94;N51.73;10;
2;ENG;Oxfordshire;Townsend;;W1.45;N51.58;10;
2;ENG;Oxfordshire;Trench Green;;W1.02;N51.48;10;
2;ENG;Oxfordshire;Tubney;;W1.37;N51.67;10;
2;ENG;Oxfordshire;Turners Court;;W1.07;N51.58;10;
2;ENG;Oxfordshire;Twyford;;W1.31;N52.02;10;
2;ENG;Oxfordshire;Uffington;;W1.56;N51.59;10;
2;ENG;Oxfordshire;Upper Arncott;;W1.11;N51.84;10;
2;ENG;Oxfordshire;Upper Heyford;;W1.28;N51.93;10;
2;ENG;Oxfordshire;Upper Milton;;W1.63;N51.85;10;
2;ENG;Oxfordshire;Upper Wardington;;W1.28;N52.11;10;
2;ENG;Oxfordshire;Upper Wolvercote;;W1.29;N51.77;10;
2;ENG;Oxfordshire;Upperton;;W1.06;N51.64;10;
2;ENG;Oxfordshire;Upton;;W1.26;N51.57;10;
2;ENG;Oxfordshire;Upton;;W1.65;N51.80;10;
2;ENG;Oxfordshire;Walcot;;W1.50;N51.86;10;
2;ENG;Oxfordshire;Wallingford;;W1.13;N51.59;10;
2;ENG;Oxfordshire;Walton Manor;;W1.27;N51.75;10;
2;ENG;Oxfordshire;Wantage;;W1.42;N51.58;10;
2;ENG;Oxfordshire;Warborough;;W1.14;N51.63;10;
2;ENG;Oxfordshire;Wardington;;W1.28;N52.11;10;
2;ENG;Oxfordshire;Warpsgrove;;W1.07;N51.67;10;
2;ENG;Oxfordshire;Watchfield;;W1.65;N51.60;10;
2;ENG;Oxfordshire;Water Eaton;;W1.26;N51.80;10;
2;ENG;Oxfordshire;Waterperry;;W1.10;N51.74;10;
2;ENG;Oxfordshire;Waterstock;;W1.08;N51.74;10;
2;ENG;Oxfordshire;Watlington;;W1.01;N51.64;10;
2;ENG;Oxfordshire;Weald;;W1.56;N51.71;10;
2;ENG;Oxfordshire;Well Place;;W1.06;N51.56;10;
2;ENG;Oxfordshire;Wendlebury;;W1.18;N51.86;10;
2;ENG;Oxfordshire;West Adderbury;;W1.33;N52.01;10;
2;ENG;Oxfordshire;West Challow;;W1.48;N51.58;10;
2;ENG;Oxfordshire;West End;;W1.39;N51.73;10;
2;ENG;Oxfordshire;West End;;W1.16;N51.57;10;
2;ENG;Oxfordshire;West Ginge;;W1.36;N51.57;10;
2;ENG;Oxfordshire;West Hagbourne;;W1.26;N51.57;10;
2;ENG;Oxfordshire;West Hanney;;W1.42;N51.62;10;
2;ENG;Oxfordshire;West Hendred;;W1.36;N51.58;10;
2;ENG;Oxfordshire;West Lockinge;;W1.39;N51.58;10;
2;ENG;Oxfordshire;Westbury;;W1.09;N52.01;10;
2;ENG;Oxfordshire;Westcot;;W1.52;N51.58;10;
2;ENG;Oxfordshire;Westcott Barton;;W1.39;N51.92;10;
2;ENG;Oxfordshire;Westend;;W1.53;N51.89;10;
2;ENG;Oxfordshire;Westhall Hill;;W1.62;N51.80;10;
2;ENG;Oxfordshire;Weston-on-the-Green;;W1.23;N51.85;10;
2;ENG;Oxfordshire;Westwell;;W1.68;N51.78;10;
2;ENG;Oxfordshire;Wheatley;;W1.14;N51.74;10;
2;ENG;Oxfordshire;Whistlow;;W1.34;N51.92;10;
2;ENG;Oxfordshire;Whitchurch Hill;;W1.07;N51.50;10;
2;ENG;Oxfordshire;Whitchurch-on-Thames;;W1.09;N51.48;10;
2;ENG;Oxfordshire;Whiteoak Green;;W1.50;N51.82;10;
2;ENG;Oxfordshire;Wigginton;;W1.44;N51.99;10;
2;ENG;Oxfordshire;Wigginton Heath;;W1.44;N52.01;10;
2;ENG;Oxfordshire;Wildmoor;;W1.29;N51.67;10;
2;ENG;Oxfordshire;Williamscot;;W1.30;N52.10;10;
2;ENG;Oxfordshire;Windrush;;W1.65;N51.80;10;
2;ENG;Oxfordshire;Winterbrook;;W1.13;N51.58;10;
2;ENG;Oxfordshire;Witheridge Hill;;W1.00;N51.55;10;
2;ENG;Oxfordshire;Witney;;W1.49;N51.77;10;
2;ENG;Oxfordshire;Wolvercote;;W1.30;N51.77;10;
2;ENG;Oxfordshire;Woodcote;;W1.07;N51.52;10;
2;ENG;Oxfordshire;Woodeaton;;W1.23;N51.79;10;
2;ENG;Oxfordshire;Woodfield;;W1.15;N51.90;10;
2;ENG;Oxfordshire;Woodgreen;;W1.47;N51.78;10;
2;ENG;Oxfordshire;Woodlands;;W0.90;N51.53;10;
2;ENG;Oxfordshire;Woodleys;;W1.39;N51.86;10;
2;ENG;Oxfordshire;Woodstock;;W1.36;N51.84;10;
2;ENG;Oxfordshire;Woodway;;W1.23;N51.55;10;
2;ENG;Oxfordshire;Woolstone;;W1.58;N51.58;10;
2;ENG;Oxfordshire;Wootton;;W1.32;N51.70;10;
2;ENG;Oxfordshire;Wootton;;W1.37;N51.86;10;
2;ENG;Oxfordshire;Worsham;;W1.58;N51.78;10;
2;ENG;Oxfordshire;Worton;;W1.33;N51.79;10;
2;ENG;Oxfordshire;Wroxton;;W1.40;N52.06;10;
2;ENG;Oxfordshire;Wytham;;W1.32;N51.76;10;
2;ENG;Oxfordshire;Yarnton;;W1.31;N51.80;10;
2;ENG;Oxfordshire;Yelford;;W1.48;N51.73;10;