"Level";"Country";"County";"Place";"void";"Longitude";"Latitude";"ZoomLevel";"Icon"
2;ENG;Somerset;Aaron's Hill;;W2.22;N51.06;10;
2;ENG;Somerset;Abbas Combe;;W2.42;N50.99;10;
2;ENG;Somerset;Abbots Leigh;;W2.66;N51.45;10;
2;ENG;Somerset;Adsborough;;W3.04;N51.05;10;
2;ENG;Somerset;Adscombe;;W3.17;N51.12;10;
2;ENG;Somerset;Aisholt;;W3.15;N51.10;10;
2;ENG;Somerset;Alcombe;;W2.28;N51.41;10;
2;ENG;Somerset;Alcombe;;W3.47;N51.19;10;
2;ENG;Somerset;Alder Row;;W2.33;N51.18;10;
2;ENG;Somerset;Aley;;W3.17;N51.12;10;
2;ENG;Somerset;Alford;;W2.57;N51.08;10;
2;ENG;Somerset;Alhampton;;W2.54;N51.10;10;
2;ENG;Somerset;Aller;;W2.85;N51.05;10;
2;ENG;Somerset;Allerford;;W3.18;N51.01;10;
2;ENG;Somerset;Allerford;;W3.57;N51.21;10;
2;ENG;Somerset;Allowenshay;;W2.86;N50.91;10;
2;ENG;Somerset;Alston Sutton;;W2.84;N51.25;10;
2;ENG;Somerset;Alstone;;W2.98;N51.20;10;
2;ENG;Somerset;Alvington;;W2.68;N50.93;10;
2;ENG;Somerset;Amesbury;;W2.50;N51.32;10;
2;ENG;Somerset;Andersea;;W2.95;N51.09;10;
2;ENG;Somerset;Andersfield;;W3.08;N51.10;10;
2;ENG;Somerset;Angersleigh;;W3.15;N50.96;10;
2;ENG;Somerset;Ansford;;W2.52;N51.09;10;
2;ENG;Somerset;Appley;;W3.32;N50.98;10;
2;ENG;Somerset;Arno's Vale;;W2.57;N51.43;10;
2;ENG;Somerset;Ash (near Taunton);;W3.02;N50.99;10;
2;ENG;Somerset;Ash (near Yeovil);;W2.75;N50.97;10;
2;ENG;Somerset;Ash Priors;;W3.21;N51.05;10;
2;ENG;Somerset;Ashbeer;;W3.31;N51.10;10;
2;ENG;Somerset;Ashbrittle;;W3.35;N50.98;10;
2;ENG;Somerset;Ashcombe Park;;W2.96;N51.35;10;
2;ENG;Somerset;Ashcott;;W2.81;N51.12;10;
2;ENG;Somerset;Ashcott Corner;;W2.80;N51.14;10;
2;ENG;Somerset;Ashgrove;;W2.43;N51.31;10;
2;ENG;Somerset;Ashill;;W2.96;N50.94;10;
2;ENG;Somerset;Ashington;;W2.62;N50.98;10;
2;ENG;Somerset;Ashley Down;;W2.59;N51.47;10;
2;ENG;Somerset;Ashton;;W2.84;N51.23;10;
2;ENG;Somerset;Ashton Gate;;W2.62;N51.43;10;
2;ENG;Somerset;Ashton Vale;;W2.63;N51.42;10;
2;ENG;Somerset;Ashwell;;W2.91;N50.93;10;
2;ENG;Somerset;Ashwick;;W2.53;N51.23;10;
2;ENG;Somerset;Asney;;W2.77;N51.12;10;
2;ENG;Somerset;Athelney;;W2.94;N51.04;10;
2;ENG;Somerset;Atherstone;;W2.88;N50.94;10;
2;ENG;Somerset;Avon;;W2.51;N51.42;10;
2;ENG;Somerset;Avoncliff;;W2.28;N51.32;10;
2;ENG;Somerset;Avonmouth;;W2.69;N51.49;10;
2;ENG;Somerset;Axbridge;;W2.81;N51.28;10;
2;ENG;Somerset;Axe;;W2.78;N51.23;10;
2;ENG;Somerset;Axe;;W2.96;N51.29;10;
2;ENG;Somerset;Babcary;;W2.62;N51.04;10;
2;ENG;Somerset;Backwell;;W2.74;N51.40;10;
2;ENG;Somerset;Backwell Common;;W2.74;N51.41;10;
2;ENG;Somerset;Backwell Green;;W2.73;N51.41;10;
2;ENG;Somerset;Badger Street;;W3.05;N50.96;10;
2;ENG;Somerset;Badgworth;;W2.87;N51.26;10;
2;ENG;Somerset;Bagley;;W2.78;N51.20;10;
2;ENG;Somerset;Bagley Green;;W3.25;N50.96;10;
2;ENG;Somerset;Bailbrook;;W2.34;N51.40;10;
2;ENG;Somerset;Baltonsborough;;W2.65;N51.10;10;
2;ENG;Somerset;Bankland;;W2.98;N51.05;10;
2;ENG;Somerset;Banwell;;W2.87;N51.32;10;
2;ENG;Somerset;Bare Ash;;W3.07;N51.10;10;
2;ENG;Somerset;Barlake;;W2.50;N51.23;10;
2;ENG;Somerset;Barle;;W3.66;N51.10;10;
2;ENG;Somerset;Barr;;W3.15;N51.00;10;
2;ENG;Somerset;Barrington;;W2.88;N50.95;10;
2;ENG;Somerset;Barrow;;W2.64;N51.16;10;
2;ENG;Somerset;Barrow Common;;W2.66;N51.40;10;
2;ENG;Somerset;Barrow Gurney;;W2.67;N51.40;10;
2;ENG;Somerset;Barrow Vale;;W2.51;N51.33;10;
2;ENG;Somerset;Barton;;W2.87;N51.30;10;
2;ENG;Somerset;Barton Hill;;W2.57;N51.44;10;
2;ENG;Somerset;Barton St David;;W2.65;N51.08;10;
2;ENG;Somerset;Barwick;;W2.62;N50.91;10;
2;ENG;Somerset;Bason Bridge;;W2.94;N51.20;10;
2;ENG;Somerset;Batch;;W2.97;N51.29;10;
2;ENG;Somerset;Batcombe;;W2.44;N51.14;10;
2;ENG;Somerset;Bath;;W2.37;N51.37;10;
2;ENG;Somerset;Bathampton;;W2.33;N51.39;10;
2;ENG;Somerset;Bathealton;;W3.32;N51.00;10;
2;ENG;Somerset;Batheaston;;W2.31;N51.40;10;
2;ENG;Somerset;Bathford;;W2.30;N51.39;10;
2;ENG;Somerset;Bathpool;;W3.07;N51.02;10;
2;ENG;Somerset;Bathway;;W2.58;N51.26;10;
2;ENG;Somerset;Bathwick;;W2.36;N51.38;10;
2;ENG;Somerset;Batten's Green;;W3.01;N50.95;10;
2;ENG;Somerset;Battleton;;W3.55;N51.03;10;
2;ENG;Somerset;Bawdrip;;W2.94;N51.14;10;
2;ENG;Somerset;Bayford;;W2.40;N51.05;10;
2;ENG;Somerset;Beacon Hill;;W2.36;N51.39;10;
2;ENG;Somerset;Beam Bridge;;W3.28;N50.96;10;
2;ENG;Somerset;Beard Hill;;W2.54;N51.15;10;
2;ENG;Somerset;Beardly Batch;;W2.54;N51.16;10;
2;ENG;Somerset;Beckery;;W2.74;N51.13;10;
2;ENG;Somerset;Beckington;;W2.28;N51.25;10;
2;ENG;Somerset;Bedlam;;W2.35;N51.23;10;
2;ENG;Somerset;Bedminster;;W2.60;N51.43;10;
2;ENG;Somerset;Bedminster Down;;W2.61;N51.41;10;
2;ENG;Somerset;Beechen Cliff;;W2.36;N51.37;10;
2;ENG;Somerset;Beer;;W2.85;N51.07;10;
2;ENG;Somerset;Beer Crocombe;;W2.97;N50.97;10;
2;ENG;Somerset;Beetham;;W3.03;N50.90;10;
2;ENG;Somerset;Beggearn Huish;;W3.37;N51.14;10;
2;ENG;Somerset;Belluton;;W2.56;N51.37;10;
2;ENG;Somerset;Benter;;W2.51;N51.23;10;
2;ENG;Somerset;Berhill;;W2.80;N51.12;10;
2;ENG;Somerset;Berkley;;W2.27;N51.24;10;
2;ENG;Somerset;Berkley Down;;W2.30;N51.23;10;
2;ENG;Somerset;Berkley Marsh;;W2.28;N51.24;10;
2;ENG;Somerset;Berrow;;W3.01;N51.26;10;
2;ENG;Somerset;Bickenhall;;W3.02;N50.95;10;
2;ENG;Somerset;Bickham;;W3.50;N51.15;10;
2;ENG;Somerset;Bicknoller;;W3.27;N51.14;10;
2;ENG;Somerset;Biddisham;;W2.89;N51.27;10;
2;ENG;Somerset;Bilbrook;;W3.38;N51.16;10;
2;ENG;Somerset;Bincombe;;W3.17;N51.14;10;
2;ENG;Somerset;Bindon;;W3.28;N51.00;10;
2;ENG;Somerset;Binegar;;W2.56;N51.23;10;
2;ENG;Somerset;Birchwood;;W3.08;N50.92;10;
2;ENG;Somerset;Biscombe;;W3.18;N50.91;10;
2;ENG;Somerset;Bishop Sutton;;W2.60;N51.32;10;
2;ENG;Somerset;Bishop's Hull;;W3.14;N51.00;10;
2;ENG;Somerset;Bishops Lydeard;;W3.19;N51.05;10;
2;ENG;Somerset;Bishopston;;W2.60;N51.47;10;
2;ENG;Somerset;Bishopsworth;;W2.61;N51.40;10;
2;ENG;Somerset;Blackford;;W2.50;N51.03;10;
2;ENG;Somerset;Blackford;;W3.54;N51.19;10;
2;ENG;Somerset;Blackford;;W2.84;N51.21;10;
2;ENG;Somerset;Blackmoor;;W2.64;N51.36;10;
2;ENG;Somerset;Blackmoor;;W2.77;N51.34;10;
2;ENG;Somerset;Blackmoor;;W3.19;N50.95;10;
2;ENG;Somerset;Blackrock;;W2.54;N51.38;10;
2;ENG;Somerset;Blackwater;;W3.05;N50.92;10;
2;ENG;Somerset;Blagdon;;W2.71;N51.31;10;
2;ENG;Somerset;Blagdon Hill;;W3.12;N50.95;10;
2;ENG;Somerset;Blagdon Lake;;W2.70;N51.33;10;
2;ENG;Somerset;Blaise Hamlet;;W2.64;N51.49;10;
2;ENG;Somerset;Blatchbridge;;W2.33;N51.20;10;
2;ENG;Somerset;Bleadney;;W2.74;N51.20;10;
2;ENG;Somerset;Bleadon;;W2.94;N51.29;10;
2;ENG;Somerset;Blindmoor;;W3.05;N50.92;10;
2;ENG;Somerset;Bloomfield;;W2.48;N51.32;10;
2;ENG;Somerset;Bloomfield;;W2.37;N51.36;10;
2;ENG;Somerset;Blue Anchor;;W3.40;N51.17;10;
2;ENG;Somerset;Bodden;;W2.53;N51.19;10;
2;ENG;Somerset;Bonson;;W3.11;N51.15;10;
2;ENG;Somerset;Borough Post;;W2.98;N51.01;10;
2;ENG;Somerset;Bossington;;W3.59;N51.21;10;
2;ENG;Somerset;Bourne;;W2.74;N51.32;10;
2;ENG;Somerset;Bourton;;W2.90;N51.37;10;
2;ENG;Somerset;Bowdens;;W2.84;N51.04;10;
2;ENG;Somerset;Bower Ashton;;W2.63;N51.43;10;
2;ENG;Somerset;Bower Hinton;;W2.78;N50.95;10;
2;ENG;Somerset;Bowlish;;W2.55;N51.18;10;
2;ENG;Somerset;Bradford on Tone;;W3.18;N50.99;10;
2;ENG;Somerset;Bradley Cross;;W2.76;N51.27;10;
2;ENG;Somerset;Bradley Green;;W3.07;N51.13;10;
2;ENG;Somerset;Bradney;;W2.95;N51.13;10;
2;ENG;Somerset;Bramwell;;W2.81;N51.05;10;
2;ENG;Somerset;Brandish Street;;W3.57;N51.20;10;
2;ENG;Somerset;Bratton;;W3.51;N51.20;10;
2;ENG;Somerset;Bratton Seymour;;W2.47;N51.05;10;
2;ENG;Somerset;Breach;;W2.54;N51.33;10;
2;ENG;Somerset;Brean;;W3.01;N51.29;10;
2;ENG;Somerset;Brean Down;;W3.02;N51.32;10;
2;ENG;Somerset;Brent Knoll;;W2.96;N51.24;10;
2;ENG;Somerset;Brentry;;W2.62;N51.50;10;
2;ENG;Somerset;Bridgehampton;;W2.62;N51.01;10;
2;ENG;Somerset;Bridgetown;;W3.54;N51.08;10;
2;ENG;Somerset;Bridgwater;;W3.00;N51.12;10;
2;ENG;Somerset;Bridgwater and Taunton Canal;;W3.00;N51.12;10;
2;ENG;Somerset;Brindham;;W2.70;N51.15;10;
2;ENG;Somerset;Brinsea;;W2.80;N51.35;10;
2;ENG;Somerset;Brislington;;W2.54;N51.42;10;
2;ENG;Somerset;Bristol;;W2.57;N51.47;10;
2;ENG;Somerset;Britten's;;W2.50;N51.30;10;
2;ENG;Somerset;Broadshard;;W2.79;N50.88;10;
2;ENG;Somerset;Broadway;;W2.96;N50.93;10;
2;ENG;Somerset;Brockham End;;W2.41;N51.41;10;
2;ENG;Somerset;Brockley;;W2.77;N51.39;10;
2;ENG;Somerset;Brockwell;;W3.54;N51.17;10;
2;ENG;Somerset;Brompton Ralph;;W3.31;N51.08;10;
2;ENG;Somerset;Brompton Regis;;W3.50;N51.06;10;
2;ENG;Somerset;Brookhampton;;W2.52;N51.04;10;
2;ENG;Somerset;Broom Hill;;W2.54;N51.43;10;
2;ENG;Somerset;Broomfield;;W3.11;N51.08;10;
2;ENG;Somerset;Broomhill;;W2.54;N51.48;10;
2;ENG;Somerset;Brue;;W2.64;N51.09;10;
2;ENG;Somerset;Brushford;;W3.54;N51.01;10;
2;ENG;Somerset;Bruton;;W2.45;N51.10;10;
2;ENG;Somerset;Brympton D'Evercy;;W2.69;N50.93;10;
2;ENG;Somerset;Buckland Dinham;;W2.35;N51.25;10;
2;ENG;Somerset;Buckland Down;;W2.40;N51.25;10;
2;ENG;Somerset;Buckland St Mary;;W3.03;N50.91;10;
2;ENG;Somerset;Budleigh;;W3.16;N50.96;10;
2;ENG;Somerset;Bulls Green;;W2.41;N51.21;10;
2;ENG;Somerset;Burcott;;W2.68;N51.20;10;
2;ENG;Somerset;Burford;;W2.58;N51.16;10;
2;ENG;Somerset;Burlinch;;W3.05;N51.05;10;
2;ENG;Somerset;Burnett;;W2.49;N51.38;10;
2;ENG;Somerset;Burnham on Sea;;W3.00;N51.23;10;
2;ENG;Somerset;Burnworthy;;W3.16;N50.92;10;
2;ENG;Somerset;Burrington;;W2.74;N51.32;10;
2;ENG;Somerset;Burrow;;W2.84;N50.97;10;
2;ENG;Somerset;Burrow;;W3.53;N51.16;10;
2;ENG;Somerset;Burrowbridge;;W2.92;N51.05;10;
2;ENG;Somerset;Burrowbridge;;W2.92;N51.06;10;
2;ENG;Somerset;Burtle;;W2.87;N51.17;10;
2;ENG;Somerset;Burtle Hill;;W2.87;N51.18;10;
2;ENG;Somerset;Burton;;W2.67;N50.91;10;
2;ENG;Somerset;Burton;;W3.16;N51.18;10;
2;ENG;Somerset;Bury;;W3.51;N51.03;10;
2;ENG;Somerset;Buscott;;W2.80;N51.13;10;
2;ENG;Somerset;Bussex;;W2.93;N51.11;10;
2;ENG;Somerset;Butcombe;;W2.70;N51.34;10;
2;ENG;Somerset;Butleigh;;W2.68;N51.09;10;
2;ENG;Somerset;Butleigh Wootton;;W2.71;N51.11;10;
2;ENG;Somerset;By Brook;;W2.30;N51.40;10;
2;ENG;Somerset;Cad Green;;W2.94;N50.94;10;
2;ENG;Somerset;Cale;;W2.34;N50.98;10;
2;ENG;Somerset;Callow Hill;;W2.71;N51.19;10;
2;ENG;Somerset;Cam;;W2.50;N51.05;10;
2;ENG;Somerset;Cambridge Batch;;W2.69;N51.41;10;
2;ENG;Somerset;Cameley;;W2.56;N51.31;10;
2;ENG;Somerset;Camerton;;W2.46;N51.31;10;
2;ENG;Somerset;Cannard's Grave;;W2.54;N51.16;10;
2;ENG;Somerset;Cannington;;W3.07;N51.14;10;
2;ENG;Somerset;Canonsgrove;;W3.12;N50.98;10;
2;ENG;Somerset;Capland;;W2.99;N50.95;10;
2;ENG;Somerset;Capton;;W3.31;N51.14;10;
2;ENG;Somerset;Carhampton;;W3.43;N51.16;10;
2;ENG;Somerset;Carlingcott;;W2.44;N51.32;10;
2;ENG;Somerset;Cary;;W2.81;N51.09;10;
2;ENG;Somerset;Cary Fitzpaine;;W2.65;N51.04;10;
2;ENG;Somerset;Castle;;W3.29;N51.04;10;
2;ENG;Somerset;Castle;;W2.71;N51.19;10;
2;ENG;Somerset;Castle Cary;;W2.52;N51.08;10;
2;ENG;Somerset;Catcott;;W2.87;N51.14;10;
2;ENG;Somerset;Catsgore;;W2.71;N51.02;10;
2;ENG;Somerset;Catsham;;W2.64;N51.09;10;
2;ENG;Somerset;Chaffcombe;;W2.92;N50.88;10;
2;ENG;Somerset;Chalkway;;W2.89;N50.85;10;
2;ENG;Somerset;Chantry;;W2.40;N51.22;10;
2;ENG;Somerset;Chapel Allerton;;W2.86;N51.24;10;
2;ENG;Somerset;Chapel Cleeve;;W3.38;N51.16;10;
2;ENG;Somerset;Chapel Leigh;;W3.25;N51.05;10;
2;ENG;Somerset;Chard;;W2.96;N50.86;10;
2;ENG;Somerset;Chard Reservoir;;W2.93;N50.88;10;
2;ENG;Somerset;Chardleigh Green;;W2.98;N50.88;10;
2;ENG;Somerset;Charlcombe;;W2.37;N51.40;10;
2;ENG;Somerset;Charlinch;;W3.10;N51.12;10;
2;ENG;Somerset;Charlton;;W3.01;N51.02;10;
2;ENG;Somerset;Charlton;;W2.53;N51.18;10;
2;ENG;Somerset;Charlton;;W2.46;N51.26;10;
2;ENG;Somerset;Charlton Adam;;W2.67;N51.04;10;
2;ENG;Somerset;Charlton Horethorne;;W2.48;N51.00;10;
2;ENG;Somerset;Charlton Mackrell;;W2.68;N51.04;10;
2;ENG;Somerset;Charlton Musgrove;;W2.40;N51.07;10;
2;ENG;Somerset;Charterhouse;;W2.71;N51.29;10;
2;ENG;Somerset;Cheddar;;W2.78;N51.27;10;
2;ENG;Somerset;Cheddar Reservoir;;W2.80;N51.27;10;
2;ENG;Somerset;Cheddon Fitzpaine;;W3.08;N51.03;10;
2;ENG;Somerset;Chedzoy;;W2.94;N51.12;10;
2;ENG;Somerset;Chelmsine;;W3.15;N50.95;10;
2;ENG;Somerset;Chelston;;W3.21;N50.98;10;
2;ENG;Somerset;Chelston Heathfield;;W3.19;N50.98;10;
2;ENG;Somerset;Chelvey;;W2.77;N51.40;10;
2;ENG;Somerset;Chelvey Batch;;W2.76;N51.39;10;
2;ENG;Somerset;Chelwood;;W2.53;N51.34;10;
2;ENG;Somerset;Chelynch;;W2.50;N51.18;10;
2;ENG;Somerset;Chesterblade;;W2.48;N51.16;10;
2;ENG;Somerset;Chew;;W2.50;N51.41;10;
2;ENG;Somerset;Chew Magna;;W2.61;N51.36;10;
2;ENG;Somerset;Chew Stoke;;W2.64;N51.34;10;
2;ENG;Somerset;Chew Valley Lake;;W2.61;N51.33;10;
2;ENG;Somerset;Chewton Keynsham;;W2.50;N51.39;10;
2;ENG;Somerset;Chewton Mendip;;W2.58;N51.27;10;
2;ENG;Somerset;Chidgley;;W3.37;N51.11;10;
2;ENG;Somerset;Chilcombe;;W3.27;N51.13;10;
2;ENG;Somerset;Chilcompton;;W2.51;N51.25;10;
2;ENG;Somerset;Chillington;;W2.88;N50.89;10;
2;ENG;Somerset;Chilson Common;;W2.95;N50.83;10;
2;ENG;Somerset;Chilthorne Domer;;W2.68;N50.96;10;
2;ENG;Somerset;Chilton Cantelo;;W2.61;N50.99;10;
2;ENG;Somerset;Chilton Polden;;W2.90;N51.14;10;
2;ENG;Somerset;Chilton Trinity;;W3.01;N51.14;10;
2;ENG;Somerset;Chipley;;W3.26;N50.99;10;
2;ENG;Somerset;Chipstable;;W3.37;N51.03;10;
2;ENG;Somerset;Chiselborough;;W2.76;N50.92;10;
2;ENG;Somerset;Cholwell;;W2.56;N51.31;10;
2;ENG;Somerset;Christon;;W2.90;N51.30;10;
2;ENG;Somerset;Churchill;;W2.79;N51.33;10;
2;ENG;Somerset;Churchill Green;;W2.81;N51.33;10;
2;ENG;Somerset;Churchinford;;W3.12;N50.90;10;
2;ENG;Somerset;Churchstanton;;W3.15;N50.91;10;
2;ENG;Somerset;Churchtown;;W3.47;N51.13;10;
2;ENG;Somerset;Clandown;;W2.46;N51.29;10;
2;ENG;Somerset;Clanville;;W2.54;N51.08;10;
2;ENG;Somerset;Clapton;;W2.83;N50.85;10;
2;ENG;Somerset;Clapton;;W2.51;N51.27;10;
2;ENG;Somerset;Clapton in Gordano;;W2.76;N51.46;10;
2;ENG;Somerset;Clarence Park;;W2.99;N51.33;10;
2;ENG;Somerset;Clatworthy;;W3.35;N51.06;10;
2;ENG;Somerset;Clatworthy Reservoir;;W3.37;N51.07;10;
2;ENG;Somerset;Clavelshay;;W3.07;N51.07;10;
2;ENG;Somerset;Claverham;;W2.80;N51.39;10;
2;ENG;Somerset;Claverton;;W2.31;N51.37;10;
2;ENG;Somerset;Claverton Down;;W2.33;N51.36;10;
2;ENG;Somerset;Clay Hill;;W2.54;N51.46;10;
2;ENG;Somerset;Clayhanger;;W2.98;N50.89;10;
2;ENG;Somerset;Clays End;;W2.43;N51.37;10;
2;ENG;Somerset;Cleeve;;W2.77;N51.39;10;
2;ENG;Somerset;Clevedon;;W2.87;N51.43;10;
2;ENG;Somerset;Clewer;;W2.80;N51.25;10;
2;ENG;Somerset;Clifton;;W2.63;N51.45;10;
2;ENG;Somerset;Cloford;;W2.40;N51.18;10;
2;ENG;Somerset;Cloford Common;;W2.40;N51.18;10;
2;ENG;Somerset;Closworth;;W2.62;N50.88;10;
2;ENG;Somerset;Clutton;;W2.54;N51.32;10;
2;ENG;Somerset;Clutton Hill;;W2.53;N51.32;10;
2;ENG;Somerset;Coat;;W2.78;N50.97;10;
2;ENG;Somerset;Cockhill;;W2.54;N51.07;10;
2;ENG;Somerset;Cocklake;;W2.81;N51.23;10;
2;ENG;Somerset;Cockwood;;W3.11;N51.17;10;
2;ENG;Somerset;Codsend;;W3.60;N51.13;10;
2;ENG;Somerset;Cole;;W2.48;N51.09;10;
2;ENG;Somerset;Coleford;;W2.45;N51.23;10;
2;ENG;Somerset;Coleford Water;;W3.27;N51.08;10;
2;ENG;Somerset;Coley;;W2.60;N51.29;10;
2;ENG;Somerset;Combe;;W2.84;N51.03;10;
2;ENG;Somerset;Combe Down;;W2.34;N51.35;10;
2;ENG;Somerset;Combe Florey;;W3.21;N51.07;10;
2;ENG;Somerset;Combe Hay;;W2.38;N51.32;10;
2;ENG;Somerset;Combe St Nicholas;;W2.99;N50.89;10;
2;ENG;Somerset;Combe Throop;;W2.41;N51.00;10;
2;ENG;Somerset;Combwich;;W3.07;N51.17;10;
2;ENG;Somerset;Comeytrowe;;W3.14;N51.00;10;
2;ENG;Somerset;Compass;;W3.01;N51.09;10;
2;ENG;Somerset;Compton Bishop;;W2.87;N51.29;10;
2;ENG;Somerset;Compton Common;;W2.51;N51.36;10;
2;ENG;Somerset;Compton Dando;;W2.51;N51.37;10;
2;ENG;Somerset;Compton Dundon;;W2.72;N51.09;10;
2;ENG;Somerset;Compton Durville;;W2.84;N50.94;10;
2;ENG;Somerset;Compton Martin;;W2.66;N51.31;10;
2;ENG;Somerset;Compton Pauncefoot;;W2.51;N51.03;10;
2;ENG;Somerset;Congresbury;;W2.82;N51.36;10;
2;ENG;Somerset;Congresbury Yeo;;W2.66;N51.32;10;
2;ENG;Somerset;Coombe;;W2.85;N50.87;10;
2;ENG;Somerset;Coombe;;W3.04;N51.05;10;
2;ENG;Somerset;Coombe Dingle;;W2.64;N51.49;10;
2;ENG;Somerset;Coombses;;W2.95;N50.84;10;
2;ENG;Somerset;Coppleham;;W3.54;N51.09;10;
2;ENG;Somerset;Corfe;;W3.09;N50.96;10;
2;ENG;Somerset;Corston;;W2.44;N51.38;10;
2;ENG;Somerset;Corton Denham;;W2.52;N50.99;10;
2;ENG;Somerset;Cossington;;W2.93;N51.15;10;
2;ENG;Somerset;Cote;;W2.94;N51.19;10;
2;ENG;Somerset;Cotham;;W2.60;N51.46;10;
2;ENG;Somerset;Cothelstone;;W3.17;N51.07;10;
2;ENG;Somerset;Coultings;;W3.11;N51.16;10;
2;ENG;Somerset;Coursley;;W3.22;N51.09;10;
2;ENG;Somerset;Courtway;;W3.14;N51.09;10;
2;ENG;Somerset;Cowbridge;;W3.50;N51.16;10;
2;ENG;Somerset;Cowslip Green;;W2.74;N51.34;10;
2;ENG;Somerset;Coxbridge;;W2.65;N51.12;10;
2;ENG;Somerset;Coxley;;W2.67;N51.18;10;
2;ENG;Somerset;Coxley Wick;;W2.68;N51.18;10;
2;ENG;Somerset;Cranmore;;W2.48;N51.18;10;
2;ENG;Somerset;Creech Heathfield;;W3.04;N51.02;10;
2;ENG;Somerset;Creech St Michael;;W3.04;N51.01;10;
2;ENG;Somerset;Crewkerne;;W2.79;N50.87;10;
2;ENG;Somerset;Crew's Hole;;W2.54;N51.45;10;
2;ENG;Somerset;Cricket Malherbie;;W2.91;N50.89;10;
2;ENG;Somerset;Cricket St Thomas;;W2.89;N50.86;10;
2;ENG;Somerset;Crickham;;W2.81;N51.23;10;
2;ENG;Somerset;Crimchard;;W2.98;N50.87;10;
2;ENG;Somerset;Critchill;;W2.34;N51.22;10;
2;ENG;Somerset;Crock Street;;W2.96;N50.91;10;
2;ENG;Somerset;Croscombe;;W2.58;N51.19;10;
2;ENG;Somerset;Cross;;W2.84;N51.28;10;
2;ENG;Somerset;Crowcombe;;W3.24;N51.11;10;
2;ENG;Somerset;Cucklington;;W2.35;N51.04;10;
2;ENG;Somerset;Cudworth;;W2.89;N50.88;10;
2;ENG;Somerset;Culm;;W3.17;N50.92;10;
2;ENG;Somerset;Curland;;W3.04;N50.94;10;
2;ENG;Somerset;Curland Common;;W3.04;N50.94;10;
2;ENG;Somerset;Curload;;W2.94;N51.04;10;
2;ENG;Somerset;Curry Mallet;;W2.97;N50.98;10;
2;ENG;Somerset;Curry Rivel;;W2.87;N51.02;10;
2;ENG;Somerset;Cushuish;;W3.15;N51.06;10;
2;ENG;Somerset;Cutcombe;;W3.54;N51.14;10;
2;ENG;Somerset;Cutler's Green;;W2.58;N51.26;10;
2;ENG;Somerset;Cuttiford's Door;;W2.96;N50.88;10;
2;ENG;Somerset;Darshill;;W2.57;N51.18;10;
2;ENG;Somerset;Daw's Green;;W3.15;N50.98;10;
2;ENG;Somerset;Dillington;;W2.89;N50.93;10;
2;ENG;Somerset;Dimmer;;W2.55;N51.07;10;
2;ENG;Somerset;Dinder;;W2.61;N51.19;10;
2;ENG;Somerset;Dinghurst;;W2.80;N51.32;10;
2;ENG;Somerset;Dinnington;;W2.85;N50.90;10;
2;ENG;Somerset;Dipford;;W3.14;N50.98;10;
2;ENG;Somerset;Discove;;W2.44;N51.09;10;
2;ENG;Somerset;Ditcheat;;W2.54;N51.12;10;
2;ENG;Somerset;Dodington;;W3.18;N51.15;10;
2;ENG;Somerset;Dolemeads;;W2.36;N51.37;10;
2;ENG;Somerset;Dommett;;W3.02;N50.92;10;
2;ENG;Somerset;Doniford;;W3.31;N51.17;10;
2;ENG;Somerset;Donyatt;;W2.95;N50.92;10;
2;ENG;Somerset;Double Hill;;W2.41;N51.31;10;
2;ENG;Somerset;Doulting;;W2.51;N51.18;10;
2;ENG;Somerset;Doverhay;;W3.60;N51.20;10;
2;ENG;Somerset;Dowlish Ford;;W2.92;N50.91;10;
2;ENG;Somerset;Dowlish Wake;;W2.89;N50.90;10;
2;ENG;Somerset;Down End;;W2.98;N51.16;10;
2;ENG;Somerset;Downend;;W2.51;N51.49;10;
2;ENG;Somerset;Downhead;;W2.62;N51.02;10;
2;ENG;Somerset;Downhead;;W2.44;N51.20;10;
2;ENG;Somerset;Downside;;W2.73;N51.38;10;
2;ENG;Somerset;Downside;;W2.54;N51.19;10;
2;ENG;Somerset;Dowslands;;W3.09;N50.99;10;
2;ENG;Somerset;Draycott;;W2.65;N50.98;10;
2;ENG;Somerset;Draycott;;W2.76;N51.24;10;
2;ENG;Somerset;Drayton;;W2.78;N50.93;10;
2;ENG;Somerset;Drayton;;W2.85;N51.01;10;
2;ENG;Somerset;Duddlestone;;W3.09;N50.98;10;
2;ENG;Somerset;Dulcote;;W2.63;N51.19;10;
2;ENG;Somerset;Dulverton;;W3.55;N51.04;10;
2;ENG;Somerset;Dunball;;W2.98;N51.16;10;
2;ENG;Somerset;Dundon;;W2.75;N51.08;10;
2;ENG;Somerset;Dundon Hayes;;W2.77;N51.08;10;
2;ENG;Somerset;Dundry;;W2.64;N51.39;10;
2;ENG;Somerset;Dunkerton;;W2.41;N51.32;10;
2;ENG;Somerset;Dunster;;W3.44;N51.17;10;
2;ENG;Somerset;Dunwear;;W2.98;N51.11;10;
2;ENG;Somerset;Durleigh;;W3.04;N51.11;10;
2;ENG;Somerset;Durleigh Brook;;W3.06;N51.14;10;
2;ENG;Somerset;Durnfield;;W2.72;N50.97;10;
2;ENG;Somerset;Durston;;W3.01;N51.04;10;
2;ENG;Somerset;Dyche;;W3.20;N51.16;10;
2;ENG;Somerset;East Bower;;W2.98;N51.12;10;
2;ENG;Somerset;East Brent;;W2.94;N51.25;10;
2;ENG;Somerset;East Chinnock;;W2.72;N50.91;10;
2;ENG;Somerset;East Clevedon;;W2.85;N51.43;10;
2;ENG;Somerset;East Coker;;W2.65;N50.90;10;
2;ENG;Somerset;East Combe;;W3.20;N51.07;10;
2;ENG;Somerset;East Compton;;W2.55;N51.16;10;
2;ENG;Somerset;East Cranmore;;W2.45;N51.18;10;
2;ENG;Somerset;East Dundry;;W2.61;N51.39;10;
2;ENG;Somerset;East End;;W2.74;N51.42;10;
2;ENG;Somerset;East End;;W2.52;N51.02;10;
2;ENG;Somerset;East End;;W2.47;N51.21;10;
2;ENG;Somerset;East End;;W2.58;N51.25;10;
2;ENG;Somerset;East Harptree;;W2.63;N51.29;10;
2;ENG;Somerset;East Hewish;;W2.87;N51.37;10;
2;ENG;Somerset;East Horrington;;W2.60;N51.21;10;
2;ENG;Somerset;East Huntspill;;W2.94;N51.19;10;
2;ENG;Somerset;East Lambrook;;W2.81;N50.95;10;
2;ENG;Somerset;East Lydeard;;W3.18;N51.05;10;
2;ENG;Somerset;East Lydford;;W2.61;N51.07;10;
2;ENG;Somerset;East Lyng;;W2.95;N51.04;10;
2;ENG;Somerset;East Nynehead;;W3.21;N50.99;10;
2;ENG;Somerset;East Pennard;;W2.58;N51.13;10;
2;ENG;Somerset;East Quantoxhead;;W3.24;N51.17;10;
2;ENG;Somerset;East Rolstone;;W2.87;N51.35;10;
2;ENG;Somerset;East Stoke;;W2.74;N50.95;10;
2;ENG;Somerset;East Street;;W2.65;N51.13;10;
2;ENG;Somerset;East Street;;W2.67;N51.13;10;
2;ENG;Somerset;East Town;;W3.28;N51.08;10;
2;ENG;Somerset;East Town;;W2.57;N51.15;10;
2;ENG;Somerset;East Water;;W2.67;N51.24;10;
2;ENG;Somerset;East Woodlands;;W2.31;N51.19;10;
2;ENG;Somerset;Eastbrook;;W3.12;N50.99;10;
2;ENG;Somerset;Eastertown;;W2.94;N51.28;10;
2;ENG;Somerset;Eastfield;;W2.62;N51.49;10;
2;ENG;Somerset;Easton;;W2.56;N51.46;10;
2;ENG;Somerset;Easton;;W2.70;N51.22;10;
2;ENG;Somerset;Easton Town;;W2.58;N51.09;10;
2;ENG;Somerset;Easton-in-Gordano;;W2.70;N51.47;10;
2;ENG;Somerset;Eastover;;W3.00;N51.12;10;
2;ENG;Somerset;Eastville;;W2.56;N51.47;10;
2;ENG;Somerset;Ebdon;;W2.92;N51.37;10;
2;ENG;Somerset;Edbrook;;W3.10;N51.15;10;
2;ENG;Somerset;Edford;;W2.47;N51.23;10;
2;ENG;Somerset;Edgarley;;W2.70;N51.13;10;
2;ENG;Somerset;Edgcott;;W3.65;N51.12;10;
2;ENG;Somerset;Edington;;W2.88;N51.14;10;
2;ENG;Somerset;Edingworth;;W2.93;N51.27;10;
2;ENG;Somerset;Edithmead;;W2.97;N51.23;10;
2;ENG;Somerset;Egford;;W2.35;N51.23;10;
2;ENG;Somerset;Elborough;;W2.90;N51.32;10;
2;ENG;Somerset;Ellicombe;;W3.46;N51.18;10;
2;ENG;Somerset;Elliots Green;;W2.30;N51.20;10;
2;ENG;Somerset;Elworthy;;W3.31;N51.10;10;
2;ENG;Somerset;Emborough;;W2.56;N51.25;10;
2;ENG;Somerset;Englishcombe;;W2.41;N51.35;10;
2;ENG;Somerset;Enmore;;W3.08;N51.10;10;
2;ENG;Somerset;Escott;;W3.30;N51.12;10;
2;ENG;Somerset;Evercreech;;W2.51;N51.14;10;
2;ENG;Somerset;Exe;;W3.57;N51.10;10;
2;ENG;Somerset;Exford;;W3.64;N51.12;10;
2;ENG;Somerset;Exmoor;;W3.76;N51.13;10;
2;ENG;Somerset;Exton;;W3.54;N51.08;10;
2;ENG;Somerset;Failand;;W2.69;N51.43;10;
2;ENG;Somerset;Fairfield Park;;W2.36;N51.39;10;
2;ENG;Somerset;Farleigh;;W2.73;N51.41;10;
2;ENG;Somerset;Farleigh Hungerford;;W2.28;N51.31;10;
2;ENG;Somerset;Farley;;W2.83;N51.46;10;
2;ENG;Somerset;Farmborough;;W2.48;N51.33;10;
2;ENG;Somerset;Farrington Gurney;;W2.53;N51.29;10;
2;ENG;Somerset;Faulkland;;W2.38;N51.28;10;
2;ENG;Somerset;Feltham;;W3.09;N50.94;10;
2;ENG;Somerset;Felton;;W2.69;N51.38;10;
2;ENG;Somerset;Fennington;;W3.15;N51.05;10;
2;ENG;Somerset;Fiddington;;W3.13;N51.15;10;
2;ENG;Somerset;Field;;W2.55;N51.17;10;
2;ENG;Somerset;Filton;;W2.57;N51.49;10;
2;ENG;Somerset;Filwood Park;;W2.59;N51.41;10;
2;ENG;Somerset;Fishponds;;W2.53;N51.47;10;
2;ENG;Somerset;Fitzhead;;W3.27;N51.04;10;
2;ENG;Somerset;Five Bells;;W3.34;N51.16;10;
2;ENG;Somerset;Fivehead;;W2.93;N50.98;10;
2;ENG;Somerset;Fivehead;;W2.92;N50.99;10;
2;ENG;Somerset;Flax Bourton;;W2.72;N51.41;10;
2;ENG;Somerset;Flaxpool;;W3.22;N51.10;10;
2;ENG;Somerset;Foddington;;W2.60;N51.05;10;
2;ENG;Somerset;Ford;;W3.29;N51.04;10;
2;ENG;Somerset;Ford;;W2.58;N51.27;10;
2;ENG;Somerset;Ford Street;;W3.21;N50.95;10;
2;ENG;Somerset;Fordgate;;W2.97;N51.08;10;
2;ENG;Somerset;Forton;;W2.95;N50.85;10;
2;ENG;Somerset;Four Foot;;W2.60;N51.09;10;
2;ENG;Somerset;Four Forks;;W3.10;N51.12;10;
2;ENG;Somerset;Fowler's Plot;;W2.95;N51.11;10;
2;ENG;Somerset;Fox Hill;;W2.36;N51.35;10;
2;ENG;Somerset;Foxcote;;W2.41;N51.29;10;
2;ENG;Somerset;Frenchay;;W2.51;N51.49;10;
2;ENG;Somerset;Freshford;;W2.31;N51.33;10;
2;ENG;Somerset;Friarn;;W3.18;N51.13;10;
2;ENG;Somerset;Frieze Hill;;W3.12;N51.01;10;
2;ENG;Somerset;Frome;;W2.33;N51.22;10;
2;ENG;Somerset;Frome;;W2.29;N51.28;10;
2;ENG;Somerset;Fromefield;;W2.31;N51.23;10;
2;ENG;Somerset;Frost Hill;;W2.82;N51.37;10;
2;ENG;Somerset;Fulford;;W3.14;N51.05;10;
2;ENG;Somerset;Fulwood;;W3.12;N50.97;10;
2;ENG;Somerset;Furnham;;W2.96;N50.87;10;
2;ENG;Somerset;Fyfett;;W3.09;N50.92;10;
2;ENG;Somerset;Galhampton;;W2.52;N51.05;10;
2;ENG;Somerset;Galmington;;W3.12;N51.00;10;
2;ENG;Somerset;Girt;;W2.54;N51.00;10;
2;ENG;Somerset;Glastonbury;;W2.71;N51.14;10;
2;ENG;Somerset;Goathurst;;W3.07;N51.10;10;
2;ENG;Somerset;Godney;;W2.74;N51.17;10;
2;ENG;Somerset;Golden Hill;;W2.60;N51.48;10;
2;ENG;Somerset;Gold's Cross;;W2.59;N51.33;10;
2;ENG;Somerset;Golsoncott;;W3.40;N51.14;10;
2;ENG;Somerset;Goosenford;;W3.08;N51.03;10;
2;ENG;Somerset;Gothelney Green;;W3.07;N51.12;10;
2;ENG;Somerset;Gotton;;W3.08;N51.04;10;
2;ENG;Somerset;Great Elm;;W2.37;N51.23;10;
2;ENG;Somerset;Green Ore;;W2.61;N51.24;10;
2;ENG;Somerset;Green Parlour;;W2.43;N51.28;10;
2;ENG;Somerset;Greendown;;W2.61;N51.27;10;
2;ENG;Somerset;Greenway;;W3.19;N51.04;10;
2;ENG;Somerset;Greinton;;W2.84;N51.12;10;
2;ENG;Somerset;Greyfield;;W2.51;N51.32;10;
2;ENG;Somerset;Greylake;;W2.88;N51.09;10;
2;ENG;Somerset;Greylake Fosse;;W2.85;N51.11;10;
2;ENG;Somerset;Gundenham;;W3.25;N50.99;10;
2;ENG;Somerset;Gupworthy;;W3.48;N51.10;10;
2;ENG;Somerset;Gurney Slade;;W2.54;N51.23;10;
2;ENG;Somerset;Hackness;;W2.96;N51.20;10;
2;ENG;Somerset;Hadspen;;W2.50;N51.08;10;
2;ENG;Somerset;Halcon;;W3.08;N51.01;10;
2;ENG;Somerset;Hale;;W2.35;N51.04;10;
2;ENG;Somerset;Hale Coombe;;W2.83;N51.30;10;
2;ENG;Somerset;Hallatrow;;W2.53;N51.31;10;
2;ENG;Somerset;Halse;;W3.22;N51.03;10;
2;ENG;Somerset;Halse Water;;W3.27;N51.07;10;
2;ENG;Somerset;Halsway;;W3.25;N51.12;10;
2;ENG;Somerset;Ham;;W3.01;N50.91;10;
2;ENG;Somerset;Ham;;W3.21;N50.98;10;
2;ENG;Somerset;Ham;;W3.02;N51.02;10;
2;ENG;Somerset;Ham;;W2.47;N51.23;10;
2;ENG;Somerset;Ham Green;;W2.67;N51.47;10;
2;ENG;Somerset;Ham Street;;W2.64;N51.10;10;
2;ENG;Somerset;Hambridge;;W2.87;N50.98;10;
2;ENG;Somerset;Hamp;;W3.00;N51.11;10;
2;ENG;Somerset;Handy Cross;;W3.25;N51.07;10;
2;ENG;Somerset;Hanham Green;;W2.51;N51.42;10;
2;ENG;Somerset;Hapsford;;W2.35;N51.23;10;
2;ENG;Somerset;Hardington;;W2.37;N51.26;10;
2;ENG;Somerset;Hardington Mandeville;;W2.69;N50.89;10;
2;ENG;Somerset;Hardington Marsh;;W2.71;N50.87;10;
2;ENG;Somerset;Hardington Moor;;W2.69;N50.90;10;
2;ENG;Somerset;Hardway;;W2.41;N51.10;10;
2;ENG;Somerset;Hare;;W3.01;N50.93;10;
2;ENG;Somerset;Hartcliffe;;W2.60;N51.40;10;
2;ENG;Somerset;Hartford;;W3.49;N51.05;10;
2;ENG;Somerset;Hartswell;;W3.31;N51.03;10;
2;ENG;Somerset;Haselbury Plucknett;;W2.75;N50.88;10;
2;ENG;Somerset;Hastings;;W2.98;N50.93;10;
2;ENG;Somerset;Hatch Beauchamp;;W2.99;N50.97;10;
2;ENG;Somerset;Hatch Green;;W2.99;N50.96;10;
2;ENG;Somerset;Havyatt;;W2.68;N51.13;10;
2;ENG;Somerset;Havyatt Green;;W2.76;N51.33;10;
2;ENG;Somerset;Hawkcombe;;W3.60;N51.20;10;
2;ENG;Somerset;Haybridge;;W2.67;N51.21;10;
2;ENG;Somerset;Haydon;;W2.46;N51.27;10;
2;ENG;Somerset;Haydon;;W3.07;N51.00;10;
2;ENG;Somerset;Haydon;;W2.60;N51.22;10;
2;ENG;Somerset;Haygrass;;W3.09;N50.98;10;
2;ENG;Somerset;Haymoor End;;W2.99;N51.02;10;
2;ENG;Somerset;Headley Park;;W2.61;N51.41;10;
2;ENG;Somerset;Heale;;W3.08;N50.96;10;
2;ENG;Somerset;Heale;;W2.88;N51.02;10;
2;ENG;Somerset;Heale;;W2.45;N51.19;10;
2;ENG;Somerset;Heath House;;W2.83;N51.21;10;
2;ENG;Somerset;Heathfield;;W3.19;N51.02;10;
2;ENG;Somerset;Heathfield;;W3.20;N51.09;10;
2;ENG;Somerset;Heaven's Door;;W2.57;N50.98;10;
2;ENG;Somerset;Hedging;;W3.00;N51.05;10;
2;ENG;Somerset;Hele;;W3.17;N51.00;10;
2;ENG;Somerset;Helland;;W2.97;N51.01;10;
2;ENG;Somerset;Hembridge;;W2.58;N51.12;10;
2;ENG;Somerset;Hemington;;W2.40;N51.27;10;
2;ENG;Somerset;Henbury;;W2.63;N51.49;10;
2;ENG;Somerset;Hengrove;;W2.57;N51.40;10;
2;ENG;Somerset;Hengrove Park;;W2.59;N51.40;10;
2;ENG;Somerset;Henlade;;W3.05;N51.00;10;
2;ENG;Somerset;Henleaze;;W2.60;N51.48;10;
2;ENG;Somerset;Henley;;W2.81;N51.08;10;
2;ENG;Somerset;Henstridge;;W2.40;N50.96;10;
2;ENG;Somerset;Henstridge Ash;;W2.40;N50.97;10;
2;ENG;Somerset;Henstridge Bowden;;W2.44;N50.97;10;
2;ENG;Somerset;Henstridge Marsh;;W2.37;N50.97;10;
2;ENG;Somerset;Henton;;W2.73;N51.20;10;
2;ENG;Somerset;Herons Green;;W2.64;N51.32;10;
2;ENG;Somerset;Hewish;;W2.86;N51.37;10;
2;ENG;Somerset;Hewish;;W2.82;N50.86;10;
2;ENG;Somerset;Hicks Gate;;W2.53;N51.41;10;
2;ENG;Somerset;High Ham;;W2.82;N51.07;10;
2;ENG;Somerset;High Littleton;;W2.51;N51.32;10;
2;ENG;Somerset;Highbridge;;W2.97;N51.21;10;
2;ENG;Somerset;Highbury;;W2.44;N51.23;10;
2;ENG;Somerset;Higher Alham;;W2.47;N51.16;10;
2;ENG;Somerset;Higher Burrow;;W2.85;N50.97;10;
2;ENG;Somerset;Higher Chillington;;W2.88;N50.88;10;
2;ENG;Somerset;Higher Durston;;W3.02;N51.04;10;
2;ENG;Somerset;Higher Holton;;W2.45;N51.04;10;
2;ENG;Somerset;Higher Marsh;;W2.38;N50.97;10;
2;ENG;Somerset;Higher Nyland;;W2.38;N50.99;10;
2;ENG;Somerset;Higher Street;;W3.24;N51.17;10;
2;ENG;Somerset;Higher Town;;W3.49;N51.20;10;
2;ENG;Somerset;Higher Vexford;;W3.28;N51.10;10;
2;ENG;Somerset;Higher Wambrook;;W3.01;N50.86;10;
2;ENG;Somerset;Highridge;;W2.63;N51.40;10;
2;ENG;Somerset;Highridge;;W2.63;N51.41;10;
2;ENG;Somerset;Highway;;W2.77;N50.97;10;
2;ENG;Somerset;Hill Corner;;W2.28;N51.23;10;
2;ENG;Somerset;Hill End;;W2.71;N50.89;10;
2;ENG;Somerset;Hillcommon;;W3.22;N51.02;10;
2;ENG;Somerset;Hillend;;W2.90;N51.31;10;
2;ENG;Somerset;Hillfarrance;;W3.19;N51.00;10;
2;ENG;Somerset;Hillfields;;W2.51;N51.47;10;
2;ENG;Somerset;Hinton;;W2.61;N50.97;10;
2;ENG;Somerset;Hinton Blewett;;W2.58;N51.30;10;
2;ENG;Somerset;Hinton Charterhouse;;W2.33;N51.32;10;
2;ENG;Somerset;Hinton St George;;W2.82;N50.90;10;
2;ENG;Somerset;Hobbs Wall;;W2.50;N51.33;10;
2;ENG;Somerset;Hoccombe;;W3.27;N51.05;10;
2;ENG;Somerset;Hockholler;;W3.19;N50.98;10;
2;ENG;Somerset;Hockholler Green;;W3.18;N50.98;10;
2;ENG;Somerset;Holcombe;;W2.47;N51.23;10;
2;ENG;Somerset;Holford;;W3.21;N51.16;10;
2;ENG;Somerset;Hollands;;W2.64;N50.95;10;
2;ENG;Somerset;Hollow Brook;;W2.60;N51.33;10;
2;ENG;Somerset;Holly Brook;;W2.71;N51.22;10;
2;ENG;Somerset;Holman Clavel;;W3.11;N50.93;10;
2;ENG;Somerset;Holnicote;;W3.56;N51.20;10;
2;ENG;Somerset;Holton;;W2.45;N51.03;10;
2;ENG;Somerset;Holway;;W3.08;N51.00;10;
2;ENG;Somerset;Holwell;;W2.40;N51.20;10;
2;ENG;Somerset;Holywell;;W2.68;N50.91;10;
2;ENG;Somerset;Holywell Lake;;W3.28;N50.97;10;
2;ENG;Somerset;Honey Hall;;W2.81;N51.34;10;
2;ENG;Somerset;Horfield;;W2.59;N51.48;10;
2;ENG;Somerset;Horn Hill;;W3.10;N51.15;10;
2;ENG;Somerset;Hornblotton;;W2.58;N51.10;10;
2;ENG;Somerset;Hornblotton Green;;W2.60;N51.09;10;
2;ENG;Somerset;Horner;;W3.59;N51.19;10;
2;ENG;Somerset;Horner Water;;W3.63;N51.16;10;
2;ENG;Somerset;Hornsbury;;W2.95;N50.88;10;
2;ENG;Somerset;Horsecastle;;W2.83;N51.39;10;
2;ENG;Somerset;Horsey;;W2.97;N51.14;10;
2;ENG;Somerset;Horsington;;W2.42;N51.00;10;
2;ENG;Somerset;Horton;;W2.96;N50.92;10;
2;ENG;Somerset;Horton Cross;;W2.95;N50.93;10;
2;ENG;Somerset;Hotwells;;W2.62;N51.44;10;
2;ENG;Somerset;Houndsmoor;;W3.25;N51.01;10;
2;ENG;Somerset;Houndstone;;W2.68;N50.95;10;
2;ENG;Somerset;Hounsley Batch;;W2.66;N51.36;10;
2;ENG;Somerset;Howleigh;;W3.14;N50.95;10;
2;ENG;Somerset;Howley;;W3.05;N50.87;10;
2;ENG;Somerset;Huish Champflower;;W3.37;N51.05;10;
2;ENG;Somerset;Huish Episcopi;;W2.81;N51.03;10;
2;ENG;Somerset;Hungerford;;W3.37;N51.15;10;
2;ENG;Somerset;Hunstrete;;W2.51;N51.35;10;
2;ENG;Somerset;Huntham;;W2.95;N51.02;10;
2;ENG;Somerset;Huntscott;;W3.54;N51.17;10;
2;ENG;Somerset;Huntspill;;W2.98;N51.20;10;
2;ENG;Somerset;Huntstile;;W3.05;N51.09;10;
2;ENG;Somerset;Huntworth;;W2.98;N51.10;10;
2;ENG;Somerset;Hurcott;;W2.86;N50.94;10;
2;ENG;Somerset;Hurcott;;W2.71;N51.05;10;
2;ENG;Somerset;Hurst;;W2.78;N50.95;10;
2;ENG;Somerset;Hutton;;W2.93;N51.31;10;
2;ENG;Somerset;Huxham Green;;W2.58;N51.12;10;
2;ENG;Somerset;Hythe;;W2.80;N51.26;10;
2;ENG;Somerset;Icelton;;W2.90;N51.38;10;
2;ENG;Somerset;Ilchester;;W2.68;N50.99;10;
2;ENG;Somerset;Ilchester Mead;;W2.69;N50.99;10;
2;ENG;Somerset;Ilford;;W2.91;N50.94;10;
2;ENG;Somerset;Ilminster;;W2.91;N50.92;10;
2;ENG;Somerset;Ilton;;W2.92;N50.94;10;
2;ENG;Somerset;Inglesbatch;;W2.43;N51.34;10;
2;ENG;Somerset;Innox Hill;;W2.33;N51.23;10;
2;ENG;Somerset;Isle;;W2.89;N50.94;10;
2;ENG;Somerset;Isle Abbotts;;W2.92;N50.97;10;
2;ENG;Somerset;Isle Brewers;;W2.91;N50.98;10;
2;ENG;Somerset;Iwood;;W2.79;N51.36;10;
2;ENG;Somerset;Keenthorne;;W3.13;N51.14;10;
2;ENG;Somerset;Keinton Mandeville;;W2.65;N51.06;10;
2;ENG;Somerset;Kelston;;W2.43;N51.40;10;
2;ENG;Somerset;Kenn;;W2.84;N51.41;10;
2;ENG;Somerset;Kenn Moor Gate;;W2.80;N51.39;10;
2;ENG;Somerset;Kennet and Avon Canal;;W2.31;N51.35;10;
2;ENG;Somerset;Kenny;;W2.98;N50.94;10;
2;ENG;Somerset;Keward;;W2.65;N51.19;10;
2;ENG;Somerset;Kewstoke;;W2.96;N51.36;10;
2;ENG;Somerset;Keyford;;W2.33;N51.22;10;
2;ENG;Somerset;Keynsham;;W2.50;N51.41;10;
2;ENG;Somerset;Kibbear;;W3.11;N50.98;10;
2;ENG;Somerset;Kilmersdon;;W2.44;N51.26;10;
2;ENG;Somerset;Kilton;;W3.20;N51.18;10;
2;ENG;Somerset;Kilve;;W3.23;N51.17;10;
2;ENG;Somerset;Kingdown;;W2.69;N51.37;10;
2;ENG;Somerset;Kingsbridge;;W3.45;N51.12;10;
2;ENG;Somerset;Kingsbury Episcopi;;W2.81;N50.98;10;
2;ENG;Somerset;Kingsbury Regis;;W2.47;N50.96;10;
2;ENG;Somerset;Kingsdon;;W2.70;N51.03;10;
2;ENG;Somerset;Kingston Seymour;;W2.86;N51.39;10;
2;ENG;Somerset;Kingston St Mary;;W3.11;N51.05;10;
2;ENG;Somerset;Kingstone;;W2.89;N50.91;10;
2;ENG;Somerset;Kingsway;;W2.38;N51.36;10;
2;ENG;Somerset;Kingswood;;W2.51;N51.45;10;
2;ENG;Somerset;Kingswood;;W3.28;N51.12;10;
2;ENG;Somerset;Kingweston;;W2.68;N51.06;10;
2;ENG;Somerset;Kittisford;;W3.32;N50.99;10;
2;ENG;Somerset;Knapp;;W2.99;N51.02;10;
2;ENG;Somerset;Knightcott;;W2.89;N51.32;10;
2;ENG;Somerset;Knighton;;W3.16;N51.18;10;
2;ENG;Somerset;Knole;;W2.74;N51.02;10;
2;ENG;Somerset;Knoll Green;;W3.10;N51.14;10;
2;ENG;Somerset;Knott Oak;;W2.89;N50.92;10;
2;ENG;Somerset;Knowle;;W2.57;N51.42;10;
2;ENG;Somerset;Knowle;;W2.95;N51.14;10;
2;ENG;Somerset;Knowle St Giles;;W2.93;N50.89;10;
2;ENG;Somerset;Lambridge;;W2.34;N51.39;10;
2;ENG;Somerset;Lamyatt;;W2.50;N51.11;10;
2;ENG;Somerset;Langaller;;W3.05;N51.02;10;
2;ENG;Somerset;Langford;;W3.14;N51.02;10;
2;ENG;Somerset;Langford Budville;;W3.26;N50.99;10;
2;ENG;Somerset;Langford Green;;W2.76;N51.32;10;
2;ENG;Somerset;Langham;;W2.96;N50.88;10;
2;ENG;Somerset;Langley;;W3.31;N51.04;10;
2;ENG;Somerset;Langley Marsh;;W3.32;N51.05;10;
2;ENG;Somerset;Langport;;W2.82;N51.03;10;
2;ENG;Somerset;Langridge;;W2.37;N51.41;10;
2;ENG;Somerset;Lansdown;;W2.37;N51.39;10;
2;ENG;Somerset;Lansdown;;W2.40;N51.41;10;
2;ENG;Somerset;Larkhall;;W2.36;N51.39;10;
2;ENG;Somerset;Latcham;;W2.80;N51.21;10;
2;ENG;Somerset;Lattiford;;W2.44;N51.03;10;
2;ENG;Somerset;Launcherley;;W2.65;N51.18;10;
2;ENG;Somerset;Laverley;;W2.63;N51.14;10;
2;ENG;Somerset;Laverton;;W2.33;N51.27;10;
2;ENG;Somerset;Lawford;;W3.24;N51.11;10;
2;ENG;Somerset;Lawrence Weston;;W2.66;N51.49;10;
2;ENG;Somerset;Leigh Common;;W2.37;N51.05;10;
2;ENG;Somerset;Leigh upon Mendip;;W2.44;N51.22;10;
2;ENG;Somerset;Leigh Woods;;W2.64;N51.44;10;
2;ENG;Somerset;Leighland Chapel;;W3.38;N51.11;10;
2;ENG;Somerset;Leighton;;W2.43;N51.18;10;
2;ENG;Somerset;Ley;;W3.65;N51.12;10;
2;ENG;Somerset;Lillesdon;;W2.99;N51.00;10;
2;ENG;Somerset;Lilstock;;W3.20;N51.18;10;
2;ENG;Somerset;Limington;;W2.65;N50.99;10;
2;ENG;Somerset;Limpley Stoke;;W2.31;N51.33;10;
2;ENG;Somerset;Liney;;W2.93;N51.11;10;
2;ENG;Somerset;Link;;W2.76;N51.32;10;
2;ENG;Somerset;Lipyeate;;W2.47;N51.24;10;
2;ENG;Somerset;Listoke;;W2.97;N51.00;10;
2;ENG;Somerset;Little Green;;W2.40;N51.23;10;
2;ENG;Somerset;Little Hill;;W3.05;N50.91;10;
2;ENG;Somerset;Little Keyford;;W2.33;N51.21;10;
2;ENG;Somerset;Little Load;;W2.77;N51.01;10;
2;ENG;Somerset;Little London;;W2.54;N51.22;10;
2;ENG;Somerset;Little Norton;;W2.75;N50.93;10;
2;ENG;Somerset;Little Weston;;W2.54;N51.02;10;
2;ENG;Somerset;Littleton;;W2.64;N51.36;10;
2;ENG;Somerset;Littleton;;W2.72;N51.06;10;
2;ENG;Somerset;Litton;;W2.58;N51.28;10;
2;ENG;Somerset;Locking;;W2.92;N51.32;10;
2;ENG;Somerset;Lockleaze;;W2.57;N51.48;10;
2;ENG;Somerset;Locksbrook;;W2.40;N51.37;10;
2;ENG;Somerset;Lodway;;W2.69;N51.48;10;
2;ENG;Somerset;Long Ashton;;W2.66;N51.42;10;
2;ENG;Somerset;Long Load;;W2.77;N51.00;10;
2;ENG;Somerset;Long Sutton;;W2.77;N51.02;10;
2;ENG;Somerset;Longhouse;;W2.43;N51.33;10;
2;ENG;Somerset;Longstone;;W2.87;N51.05;10;
2;ENG;Somerset;Lopen;;W2.82;N50.92;10;
2;ENG;Somerset;Lopen Head;;W2.82;N50.92;10;
2;ENG;Somerset;Lottisham;;W2.61;N51.10;10;
2;ENG;Somerset;Lovington;;W2.58;N51.06;10;
2;ENG;Somerset;Low Ham;;W2.81;N51.05;10;
2;ENG;Somerset;Lower Aisholt;;W3.14;N51.10;10;
2;ENG;Somerset;Lower Burrow;;W2.84;N50.97;10;
2;ENG;Somerset;Lower Canada;;W2.93;N51.31;10;
2;ENG;Somerset;Lower Durston;;W3.01;N51.04;10;
2;ENG;Somerset;Lower Failand;;W2.70;N51.45;10;
2;ENG;Somerset;Lower Godney;;W2.75;N51.17;10;
2;ENG;Somerset;Lower Knapp;;W2.99;N51.02;10;
2;ENG;Somerset;Lower Knowle;;W2.59;N51.42;10;
2;ENG;Somerset;Lower Langford;;W2.77;N51.33;10;
2;ENG;Somerset;Lower Marsh;;W2.37;N50.97;10;
2;ENG;Somerset;Lower Marston;;W2.34;N51.19;10;
2;ENG;Somerset;Lower Merridge;;W3.14;N51.09;10;
2;ENG;Somerset;Lower Milton;;W2.67;N51.22;10;
2;ENG;Somerset;Lower Nyland;;W2.37;N50.98;10;
2;ENG;Somerset;Lower Odcombe;;W2.69;N50.93;10;
2;ENG;Somerset;Lower Roadwater;;W3.38;N51.13;10;
2;ENG;Somerset;Lower Stratton;;W2.79;N50.93;10;
2;ENG;Somerset;Lower Swainswick;;W2.34;N51.40;10;
2;ENG;Somerset;Lower Vexford;;W3.27;N51.10;10;
2;ENG;Somerset;Lower Weacombe;;W3.28;N51.15;10;
2;ENG;Somerset;Lower Weare;;W2.86;N51.27;10;
2;ENG;Somerset;Lower Westholme;;W2.63;N51.15;10;
2;ENG;Somerset;Lower Weston;;W2.38;N51.38;10;
2;ENG;Somerset;Lower Whatley;;W2.37;N51.22;10;
2;ENG;Somerset;Lower Woolston;;W2.50;N51.04;10;
2;ENG;Somerset;Lower Wraxall;;W2.57;N51.11;10;
2;ENG;Somerset;Lowton;;W3.15;N50.95;10;
2;ENG;Somerset;Loxton;;W2.90;N51.29;10;
2;ENG;Somerset;Luccombe;;W3.56;N51.18;10;
2;ENG;Somerset;Luckwell Bridge;;W3.57;N51.13;10;
2;ENG;Somerset;Ludney;;W2.88;N50.90;10;
2;ENG;Somerset;Lufton;;W2.69;N50.94;10;
2;ENG;Somerset;Lullington;;W2.31;N51.25;10;
2;ENG;Somerset;Lulsgate Bottom;;W2.71;N51.38;10;
2;ENG;Somerset;Lusty;;W2.45;N51.10;10;
2;ENG;Somerset;Luxborough;;W3.47;N51.13;10;
2;ENG;Somerset;Lyatts;;W2.68;N50.89;10;
2;ENG;Somerset;Lydeard St Lawrence;;W3.25;N51.08;10;
2;ENG;Somerset;Lydford Fair Place;;W2.61;N51.08;10;
2;ENG;Somerset;Lydford-on-Fosse;;W2.62;N51.06;10;
2;ENG;Somerset;Lydmarsh;;W2.92;N50.86;10;
2;ENG;Somerset;Lye Cross;;W2.73;N51.35;10;
2;ENG;Somerset;Lye Hole;;W2.71;N51.35;10;
2;ENG;Somerset;Lympsham;;W2.96;N51.28;10;
2;ENG;Somerset;Lynch;;W3.57;N51.21;10;
2;ENG;Somerset;Lyng;;W2.97;N51.04;10;
2;ENG;Somerset;Lyngford;;W3.09;N51.01;10;
2;ENG;Somerset;Maiden Head;;W2.63;N51.39;10;
2;ENG;Somerset;Maperton;;W2.47;N51.03;10;
2;ENG;Somerset;Mark;;W2.88;N51.21;10;
2;ENG;Somerset;Mark Causeway;;W2.91;N51.21;10;
2;ENG;Somerset;Marksbury;;W2.48;N51.35;10;
2;ENG;Somerset;Marsh Mills;;W3.15;N51.13;10;
2;ENG;Somerset;Marsh Street;;W3.44;N51.18;10;
2;ENG;Somerset;Marshall's Elm;;W2.74;N51.10;10;
2;ENG;Somerset;Marston Bigot;;W2.35;N51.19;10;
2;ENG;Somerset;Marston Gate;;W2.34;N51.21;10;
2;ENG;Somerset;Marston Magna;;W2.58;N50.99;10;
2;ENG;Somerset;Martock;;W2.77;N50.96;10;
2;ENG;Somerset;Maundown;;W3.34;N51.04;10;
2;ENG;Somerset;May's Green;;W2.87;N51.36;10;
2;ENG;Somerset;Meadgate;;W2.46;N51.32;10;
2;ENG;Somerset;Meare;;W2.78;N51.16;10;
2;ENG;Somerset;Meare Green;;W3.01;N50.99;10;
2;ENG;Somerset;Meare Green;;W2.95;N51.02;10;
2;ENG;Somerset;Mearns;;W2.50;N51.32;10;
2;ENG;Somerset;Melcombe;;W3.02;N51.09;10;
2;ENG;Somerset;Mells;;W2.40;N51.23;10;
2;ENG;Somerset;Mells Green;;W2.40;N51.23;10;
2;ENG;Somerset;Mendip Hills;;W2.74;N51.29;10;
2;ENG;Somerset;Merridge;;W3.14;N51.09;10;
2;ENG;Somerset;Merriott;;W2.79;N50.90;10;
2;ENG;Somerset;Merriottsford;;W2.79;N50.90;10;
2;ENG;Somerset;Mid Lambrook;;W2.82;N50.95;10;
2;ENG;Somerset;Middle Bridge;;W2.76;N51.47;10;
2;ENG;Somerset;Middle Burnham;;W2.98;N51.23;10;
2;ENG;Somerset;Middle Chinnock;;W2.75;N50.91;10;
2;ENG;Somerset;Middle Green;;W3.24;N50.96;10;
2;ENG;Somerset;Middle Stoford;;W3.16;N50.98;10;
2;ENG;Somerset;Middle Stoughton;;W2.83;N51.23;10;
2;ENG;Somerset;Middletown;;W2.79;N51.43;10;
2;ENG;Somerset;Middlezoy;;W2.90;N51.08;10;
2;ENG;Somerset;Midelney;;W2.84;N50.99;10;
2;ENG;Somerset;Midford;;W2.36;N51.33;10;
2;ENG;Somerset;Midford Brook;;W2.34;N51.34;10;
2;ENG;Somerset;Midsomer Norton;;W2.48;N51.28;10;
2;ENG;Somerset;Midway;;W2.50;N51.21;10;
2;ENG;Somerset;Milborne Port;;W2.47;N50.96;10;
2;ENG;Somerset;Milborne Wick;;W2.48;N50.97;10;
2;ENG;Somerset;Milton;;W2.94;N51.35;10;
2;ENG;Somerset;Milton;;W2.77;N50.98;10;
2;ENG;Somerset;Milton Clevedon;;W2.48;N51.13;10;
2;ENG;Somerset;Milverton;;W3.25;N51.01;10;
2;ENG;Somerset;Minehead;;W3.49;N51.20;10;
2;ENG;Somerset;Misterton;;W2.78;N50.86;10;
2;ENG;Somerset;Monksilver;;W3.33;N51.12;10;
2;ENG;Somerset;Monkton Combe;;W2.33;N51.35;10;
2;ENG;Somerset;Monkton Heathfield;;W3.07;N51.02;10;
2;ENG;Somerset;Montacute;;W2.72;N50.94;10;
2;ENG;Somerset;Montpelier;;W2.59;N51.46;10;
2;ENG;Somerset;Moolham;;W2.91;N50.91;10;
2;ENG;Somerset;Moor;;W2.82;N50.94;10;
2;ENG;Somerset;Moorland (Northmoor Green);;W2.95;N51.08;10;
2;ENG;Somerset;Moorledge;;W2.60;N51.35;10;
2;ENG;Somerset;Moorlinch;;W2.87;N51.12;10;
2;ENG;Somerset;Muchelney;;W2.81;N51.01;10;
2;ENG;Somerset;Muchelney Ham;;W2.81;N51.00;10;
2;ENG;Somerset;Mudford;;W2.61;N50.96;10;
2;ENG;Somerset;Mudford Sock;;W2.64;N50.96;10;
2;ENG;Somerset;Mudgley;;W2.80;N51.20;10;
2;ENG;Somerset;Nailsbourne;;W3.12;N51.04;10;
2;ENG;Somerset;Nailsea;;W2.77;N51.41;10;
2;ENG;Somerset;Nailwell;;W2.43;N51.33;10;
2;ENG;Somerset;Nash;;W2.67;N50.91;10;
2;ENG;Somerset;Nedge Hill;;W2.60;N51.25;10;
2;ENG;Somerset;Neighbourne;;W2.51;N51.23;10;
2;ENG;Somerset;Nempnett Thrubwell;;W2.67;N51.33;10;
2;ENG;Somerset;Netham;;W2.56;N51.44;10;
2;ENG;Somerset;Nether Stowey;;W3.15;N51.14;10;
2;ENG;Somerset;Netherclay;;W3.06;N50.97;10;
2;ENG;Somerset;Nethercott;;W3.22;N51.08;10;
2;ENG;Somerset;Nettlebridge;;W2.51;N51.23;10;
2;ENG;Somerset;New Buildings;;W2.44;N51.31;10;
2;ENG;Somerset;New Cross;;W2.84;N50.96;10;
2;ENG;Somerset;New ENG;;W2.96;N50.88;10;
2;ENG;Somerset;New Town;;W2.33;N51.31;10;
2;ENG;Somerset;New Town;;W2.60;N51.34;10;
2;ENG;Somerset;New Town;;W2.62;N50.94;10;
2;ENG;Somerset;New Town;;W2.77;N51.20;10;
2;ENG;Somerset;Newbridge;;W2.40;N51.38;10;
2;ENG;Somerset;Newbury;;W2.44;N51.24;10;
2;ENG;Somerset;Newport;;W2.98;N51.00;10;
2;ENG;Somerset;Newton;;W3.28;N51.13;10;
2;ENG;Somerset;Newton St Loe;;W2.43;N51.37;10;
2;ENG;Somerset;Newtown;;W3.03;N50.90;10;
2;ENG;Somerset;Newtown;;W3.01;N51.12;10;
2;ENG;Somerset;Nimmer;;W2.96;N50.88;10;
2;ENG;Somerset;North Barrow;;W2.57;N51.05;10;
2;ENG;Somerset;North Brewham;;W2.40;N51.12;10;
2;ENG;Somerset;North Cadbury;;W2.52;N51.04;10;
2;ENG;Somerset;North Cheriton;;W2.44;N51.02;10;
2;ENG;Somerset;North Coker;;W2.67;N50.91;10;
2;ENG;Somerset;North Curry;;W2.97;N51.02;10;
2;ENG;Somerset;North End;;W2.54;N51.33;10;
2;ENG;Somerset;North End;;W2.84;N51.39;10;
2;ENG;Somerset;North End;;W3.04;N51.02;10;
2;ENG;Somerset;North Newton;;W3.00;N51.07;10;
2;ENG;Somerset;North Perrott;;W2.75;N50.87;10;
2;ENG;Somerset;North Petherton;;W3.01;N51.09;10;
2;ENG;Somerset;North Stoke;;W2.43;N51.41;10;
2;ENG;Somerset;North Town;;W2.52;N51.05;10;
2;ENG;Somerset;North Town;;W2.63;N51.17;10;
2;ENG;Somerset;North Weston;;W2.77;N51.47;10;
2;ENG;Somerset;North Wick;;W2.60;N51.38;10;
2;ENG;Somerset;North Widcombe;;W2.61;N51.31;10;
2;ENG;Somerset;North Wootton;;W2.63;N51.16;10;
2;ENG;Somerset;Northay;;W3.02;N50.89;10;
2;ENG;Somerset;Northend;;W2.31;N51.41;10;
2;ENG;Somerset;Northfield;;W3.03;N51.11;10;
2;ENG;Somerset;Northgate;;W3.31;N51.04;10;
2;ENG;Somerset;Northmoor Corner;;W2.98;N51.06;10;
2;ENG;Somerset;Northmoor Green (Moorland);;W2.95;N51.08;10;
2;ENG;Somerset;Northover;;W2.68;N51.00;10;
2;ENG;Somerset;Northover;;W2.74;N51.13;10;
2;ENG;Somerset;Northway;;W3.24;N51.05;10;
2;ENG;Somerset;Northwick;;W2.93;N51.22;10;
2;ENG;Somerset;Norton;;W2.94;N51.36;10;
2;ENG;Somerset;Norton Fitzwarren;;W3.15;N51.01;10;
2;ENG;Somerset;Norton Hawkfield;;W2.59;N51.37;10;
2;ENG;Somerset;Norton Hill;;W2.47;N51.27;10;
2;ENG;Somerset;Norton Malreward;;W2.57;N51.38;10;
2;ENG;Somerset;Norton St Philip;;W2.33;N51.29;10;
2;ENG;Somerset;Norton Sub Hamdon;;W2.75;N50.93;10;
2;ENG;Somerset;Norton's Wood;;W2.82;N51.44;10;
2;ENG;Somerset;Novers Park;;W2.60;N51.41;10;
2;ENG;Somerset;Nunney;;W2.38;N51.20;10;
2;ENG;Somerset;Nunney Catch;;W2.38;N51.19;10;
2;ENG;Somerset;Nye;;W2.84;N51.34;10;
2;ENG;Somerset;Nyland;;W2.78;N51.24;10;
2;ENG;Somerset;Nynehead;;W3.24;N50.99;10;
2;ENG;Somerset;Nythe;;W2.82;N51.10;10;
2;ENG;Somerset;Oake;;W3.21;N51.01;10;
2;ENG;Somerset;Oake Green;;W3.21;N51.01;10;
2;ENG;Somerset;Oakhill;;W2.53;N51.22;10;
2;ENG;Somerset;Oare;;W3.71;N51.20;10;
2;ENG;Somerset;Oareford;;W3.70;N51.20;10;
2;ENG;Somerset;Oath;;W2.88;N51.03;10;
2;ENG;Somerset;Odcombe;;W2.71;N50.93;10;
2;ENG;Somerset;Odd Down;;W2.38;N51.35;10;
2;ENG;Somerset;Old Cleeve;;W3.38;N51.16;10;
2;ENG;Somerset;Old Ditch;;W2.71;N51.23;10;
2;ENG;Somerset;Old Down;;W2.54;N51.25;10;
2;ENG;Somerset;Old Way;;W2.91;N50.94;10;
2;ENG;Somerset;Oldfield Park;;W2.38;N51.37;10;
2;ENG;Somerset;Oldford;;W2.31;N51.24;10;
2;ENG;Somerset;Oldmixon;;W2.96;N51.31;10;
2;ENG;Somerset;Orchard Portman;;W3.08;N50.98;10;
2;ENG;Somerset;Othery;;W2.88;N51.07;10;
2;ENG;Somerset;Otterford;;W3.11;N50.92;10;
2;ENG;Somerset;Otterhampton;;W3.08;N51.18;10;
2;ENG;Somerset;Outwood;;W3.00;N51.04;10;
2;ENG;Somerset;Over Stowey;;W3.17;N51.13;10;
2;ENG;Somerset;Over Stratton;;W2.81;N50.93;10;
2;ENG;Somerset;Overleigh;;W2.74;N51.11;10;
2;ENG;Somerset;Oxenpill;;W2.80;N51.16;10;
2;ENG;Somerset;Paintmoor;;W2.93;N50.87;10;
2;ENG;Somerset;Panborough;;W2.76;N51.20;10;
2;ENG;Somerset;Parbrook;;W2.63;N51.12;10;
2;ENG;Somerset;Parchey;;W2.94;N51.12;10;
2;ENG;Somerset;Park;;W2.78;N51.06;10;
2;ENG;Somerset;Park Corner;;W2.31;N51.32;10;
2;ENG;Somerset;Park End;;W3.17;N51.09;10;
2;ENG;Somerset;Parkway;;W2.58;N50.98;10;
2;ENG;Somerset;Parrett;;W2.91;N51.06;10;
2;ENG;Somerset;Pathe;;W2.90;N51.06;10;
2;ENG;Somerset;Paulton;;W2.50;N51.30;10;
2;ENG;Somerset;Pawlett;;W3.01;N51.17;10;
2;ENG;Somerset;Pawlett Hill;;W3.01;N51.18;10;
2;ENG;Somerset;Payton;;W3.26;N50.97;10;
2;ENG;Somerset;Pear Ash;;W2.35;N51.07;10;
2;ENG;Somerset;Peasedown St John;;W2.43;N51.31;10;
2;ENG;Somerset;Peasmarsh;;W2.94;N50.90;10;
2;ENG;Somerset;Pecking Mill;;W2.53;N51.13;10;
2;ENG;Somerset;Pedwell;;W2.83;N51.12;10;
2;ENG;Somerset;Pen Mill;;W2.62;N50.94;10;
2;ENG;Somerset;Pendomer;;W2.68;N50.88;10;
2;ENG;Somerset;Penselwood;;W2.35;N51.07;10;
2;ENG;Somerset;Pensford;;W2.54;N51.36;10;
2;ENG;Somerset;Periton;;W3.48;N51.19;10;
2;ENG;Somerset;Perry Green;;W3.04;N51.13;10;
2;ENG;Somerset;Perry Street;;W2.95;N50.84;10;
2;ENG;Somerset;Perrymead;;W2.36;N51.36;10;
2;ENG;Somerset;Pibsbury;;W2.80;N51.03;10;
2;ENG;Somerset;Pickney;;W3.15;N51.05;10;
2;ENG;Somerset;Pict's Hill;;W2.81;N51.03;10;
2;ENG;Somerset;Pightley;;W3.11;N51.10;10;
2;ENG;Somerset;Pill;;W2.69;N51.47;10;
2;ENG;Somerset;Pilton;;W2.58;N51.15;10;
2;ENG;Somerset;Piltown;;W2.64;N51.13;10;
2;ENG;Somerset;Pinksmoor;;W3.28;N50.96;10;
2;ENG;Somerset;Pipehouse;;W2.33;N51.32;10;
2;ENG;Somerset;Pitcombe;;W2.47;N51.09;10;
2;ENG;Somerset;Pitcot;;W2.50;N51.23;10;
2;ENG;Somerset;Pitminster;;W3.11;N50.96;10;
2;ENG;Somerset;Pitney;;W2.78;N51.04;10;
2;ENG;Somerset;Pitsford Hill;;W3.28;N51.06;10;
2;ENG;Somerset;Plainsfield;;W3.15;N51.11;10;
2;ENG;Somerset;Plaster's Green;;W2.67;N51.33;10;
2;ENG;Somerset;Pleamore Cross;;W3.25;N50.95;10;
2;ENG;Somerset;Plot Gate;;W2.65;N51.08;10;
2;ENG;Somerset;Plot Street;;W2.64;N51.12;10;
2;ENG;Somerset;Podimore;;W2.65;N51.01;10;
2;ENG;Somerset;Poleshill;;W3.31;N50.99;10;
2;ENG;Somerset;Polsham;;W2.70;N51.17;10;
2;ENG;Somerset;Pond Close;;W3.25;N51.04;10;
2;ENG;Somerset;Poole;;W3.22;N50.98;10;
2;ENG;Somerset;Pooltown;;W3.45;N51.12;10;
2;ENG;Somerset;Porlock;;W3.60;N51.20;10;
2;ENG;Somerset;Porlock Weir;;W3.63;N51.21;10;
2;ENG;Somerset;Porlockford;;W3.63;N51.21;10;
2;ENG;Somerset;Portbury;;W2.73;N51.47;10;
2;ENG;Somerset;Portfield;;W2.85;N51.03;10;
2;ENG;Somerset;Portishead;;W2.77;N51.48;10;
2;ENG;Somerset;Portland;;W2.75;N51.12;10;
2;ENG;Somerset;Portway;;W2.84;N51.03;10;
2;ENG;Somerset;Portway;;W2.74;N51.12;10;
2;ENG;Somerset;Potters Hill;;W2.70;N51.39;10;
2;ENG;Somerset;Pound;;W2.79;N50.93;10;
2;ENG;Somerset;Prestleigh;;W2.53;N51.15;10;
2;ENG;Somerset;Preston Bowyer;;W3.24;N51.02;10;
2;ENG;Somerset;Preston Plucknett;;W2.67;N50.94;10;
2;ENG;Somerset;Priddy;;W2.68;N51.25;10;
2;ENG;Somerset;Priest Down;;W2.54;N51.37;10;
2;ENG;Somerset;Primrose Hill;;W2.38;N51.39;10;
2;ENG;Somerset;Priorswood;;W3.09;N51.02;10;
2;ENG;Somerset;Priston;;W2.44;N51.33;10;
2;ENG;Somerset;Publow;;W2.54;N51.37;10;
2;ENG;Somerset;Puckington;;W2.89;N50.95;10;
2;ENG;Somerset;Puddlebridge;;W2.96;N50.92;10;
2;ENG;Somerset;Pudleigh;;W2.98;N50.88;10;
2;ENG;Somerset;Puriton;;W2.97;N51.16;10;
2;ENG;Somerset;Purn;;W2.96;N51.30;10;
2;ENG;Somerset;Purtington;;W2.86;N50.87;10;
2;ENG;Somerset;Puxton;;W2.86;N51.36;10;
2;ENG;Somerset;Pyleigh;;W3.25;N51.06;10;
2;ENG;Somerset;Pylle;;W2.57;N51.14;10;
2;ENG;Somerset;Pyrland;;W3.09;N51.02;10;
2;ENG;Somerset;Quantock Hills;;W3.15;N51.10;10;
2;ENG;Somerset;Queen Camel;;W2.58;N51.01;10;
2;ENG;Somerset;Queen Charlton;;W2.53;N51.40;10;
2;ENG;Somerset;Rackley;;W2.87;N51.28;10;
2;ENG;Somerset;Radford;;W2.47;N51.31;10;
2;ENG;Somerset;Radlet;;W3.14;N51.13;10;
2;ENG;Somerset;Radstock;;W2.46;N51.28;10;
2;ENG;Somerset;Rapps;;W2.95;N50.94;10;
2;ENG;Somerset;Redcliffe Bay;;W2.80;N51.47;10;
2;ENG;Somerset;Redhill;;W2.73;N51.36;10;
2;ENG;Somerset;Redland;;W2.60;N51.47;10;
2;ENG;Somerset;Redlands;;W2.74;N51.09;10;
2;ENG;Somerset;Redlane;;W3.13;N50.90;10;
2;ENG;Somerset;Redlynch;;W2.42;N51.09;10;
2;ENG;Somerset;Regil;;W2.67;N51.35;10;
2;ENG;Somerset;Rhode;;W3.04;N51.10;10;
2;ENG;Somerset;Rich's Holford;;W3.22;N51.09;10;
2;ENG;Somerset;Rickford;;W2.74;N51.32;10;
2;ENG;Somerset;Ridge;;W2.64;N51.30;10;
2;ENG;Somerset;Ridgeway;;W2.54;N51.47;10;
2;ENG;Somerset;Ridgeway;;W2.37;N51.20;10;
2;ENG;Somerset;Riding Gate;;W2.38;N51.05;10;
2;ENG;Somerset;Rimpton;;W2.57;N50.98;10;
2;ENG;Somerset;Roadwater;;W3.38;N51.13;10;
2;ENG;Somerset;Rock;;W2.97;N50.99;10;
2;ENG;Somerset;Rockley Ford;;W2.40;N51.28;10;
2;ENG;Somerset;Rockwell Green;;W3.25;N50.97;10;
2;ENG;Somerset;Rode;;W2.28;N51.27;10;
2;ENG;Somerset;Rode Hill;;W2.28;N51.28;10;
2;ENG;Somerset;Rodgrove;;W2.37;N51.01;10;
2;ENG;Somerset;Rodhuish;;W3.41;N51.14;10;
2;ENG;Somerset;Rodney Stoke;;W2.74;N51.24;10;
2;ENG;Somerset;Rodway;;W3.07;N51.15;10;
2;ENG;Somerset;Rolstone;;W2.87;N51.35;10;
2;ENG;Somerset;Rooks Bridge;;W2.91;N51.26;10;
2;ENG;Somerset;Rook's Nest;;W3.31;N51.08;10;
2;ENG;Somerset;Rotcombe;;W2.51;N51.32;10;
2;ENG;Somerset;Roughmoor;;W3.14;N51.01;10;
2;ENG;Somerset;Roundham;;W2.82;N50.87;10;
2;ENG;Somerset;Rowbarton;;W3.11;N51.01;10;
2;ENG;Somerset;Rowberrow;;W2.79;N51.31;10;
2;ENG;Somerset;Rowford;;W3.09;N51.03;10;
2;ENG;Somerset;Royston Water;;W3.11;N50.91;10;
2;ENG;Somerset;Rudge;;W2.25;N51.25;10;
2;ENG;Somerset;Ruggin;;W3.16;N50.95;10;
2;ENG;Somerset;Ruishton;;W3.05;N51.01;10;
2;ENG;Somerset;Rumwell;;W3.15;N51.00;10;
2;ENG;Somerset;Runnington;;W3.26;N50.98;10;
2;ENG;Somerset;Rush Hill;;W2.38;N51.35;10;
2;ENG;Somerset;Saltford;;W2.46;N51.40;10;
2;ENG;Somerset;Sampford Arundel;;W3.28;N50.95;10;
2;ENG;Somerset;Sampford Brett;;W3.31;N51.15;10;
2;ENG;Somerset;Sand;;W2.81;N51.21;10;
2;ENG;Somerset;Sand Point;;W2.97;N51.38;10;
2;ENG;Somerset;Sandford;;W2.83;N51.32;10;
2;ENG;Somerset;Sandford Batch;;W2.84;N51.31;10;
2;ENG;Somerset;Sandylands;;W3.25;N50.99;10;
2;ENG;Somerset;Sawyer's Hill;;W3.19;N50.97;10;
2;ENG;Somerset;Scrapton;;W3.01;N50.88;10;
2;ENG;Somerset;Screedy;;W3.29;N51.01;10;
2;ENG;Somerset;Sea;;W2.94;N50.91;10;
2;ENG;Somerset;Sea Mills;;W2.64;N51.48;10;
2;ENG;Somerset;Seavington St Mary;;W2.86;N50.92;10;
2;ENG;Somerset;Seavington St Michael;;W2.85;N50.93;10;
2;ENG;Somerset;Sellick's Green;;W3.12;N50.96;10;
2;ENG;Somerset;Selworthy;;W3.56;N51.20;10;
2;ENG;Somerset;Seven Ash;;W3.21;N51.09;10;
2;ENG;Somerset;Shalford;;W2.41;N51.06;10;
2;ENG;Somerset;Shapwick;;W2.84;N51.13;10;
2;ENG;Somerset;Sharpstone;;W2.31;N51.32;10;
2;ENG;Somerset;Shawford;;W2.30;N51.27;10;
2;ENG;Somerset;Shearston;;W3.02;N51.06;10;
2;ENG;Somerset;Sheepway;;W2.73;N51.48;10;
2;ENG;Somerset;Shepton Beauchamp;;W2.85;N50.94;10;
2;ENG;Somerset;Shepton Mallet;;W2.55;N51.18;10;
2;ENG;Somerset;Shepton Montague;;W2.47;N51.07;10;
2;ENG;Somerset;Sherborne;;W2.60;N51.29;10;
2;ENG;Somerset;Sherford;;W3.11;N51.00;10;
2;ENG;Somerset;Shipham;;W2.80;N51.30;10;
2;ENG;Somerset;Shiplate;;W2.93;N51.29;10;
2;ENG;Somerset;Shirehampton;;W2.67;N51.49;10;
2;ENG;Somerset;Shopnoller;;W3.20;N51.08;10;
2;ENG;Somerset;Shoreditch;;W3.08;N50.99;10;
2;ENG;Somerset;Shoscombe;;W2.41;N51.30;10;
2;ENG;Somerset;Shoscombe Vale;;W2.41;N51.30;10;
2;ENG;Somerset;Shurton;;W3.14;N51.18;10;
2;ENG;Somerset;Sidbrook;;W3.07;N51.03;10;
2;ENG;Somerset;Sidcot;;W2.83;N51.30;10;
2;ENG;Somerset;Sigwells;;W2.51;N51.00;10;
2;ENG;Somerset;Silver Knap;;W2.48;N51.01;10;
2;ENG;Somerset;Silver Street;;W3.18;N50.98;10;
2;ENG;Somerset;Silver Street;;W2.65;N51.08;10;
2;ENG;Somerset;Simonsbath;;W3.75;N51.13;10;
2;ENG;Somerset;Single Hill;;W2.40;N51.30;10;
2;ENG;Somerset;Sion Hill;;W2.37;N51.39;10;
2;ENG;Somerset;Skilgate;;W3.45;N51.03;10;
2;ENG;Somerset;Slape Cross;;W2.97;N51.13;10;
2;ENG;Somerset;Slough Green;;W3.04;N50.97;10;
2;ENG;Somerset;Small Way;;W2.51;N51.06;10;
2;ENG;Somerset;Snails Hill;;W2.76;N50.91;10;
2;ENG;Somerset;Sneyd Park;;W2.64;N51.47;10;
2;ENG;Somerset;Soho;;W2.44;N51.23;10;
2;ENG;Somerset;Somerdale;;W2.50;N51.41;10;
2;ENG;Somerset;Somerton;;W2.74;N51.04;10;
2;ENG;Somerset;Somerton Hill;;W2.77;N51.04;10;
2;ENG;Somerset;South Barrow;;W2.57;N51.04;10;
2;ENG;Somerset;South Brewham;;W2.40;N51.12;10;
2;ENG;Somerset;South Cadbury;;W2.52;N51.02;10;
2;ENG;Somerset;South Chard;;W2.96;N50.84;10;
2;ENG;Somerset;South Cheriton;;W2.44;N51.01;10;
2;ENG;Somerset;South Down;;W3.13;N50.90;10;
2;ENG;Somerset;South Hill;;W2.94;N51.29;10;
2;ENG;Somerset;South Petherton;;W2.81;N50.94;10;
2;ENG;Somerset;South Twerton;;W2.38;N51.37;10;
2;ENG;Somerset;South Widcombe;;W2.60;N51.30;10;
2;ENG;Somerset;Southay;;W2.81;N50.96;10;
2;ENG;Somerset;Southdown;;W2.38;N51.36;10;
2;ENG;Somerset;Southmarsh;;W2.38;N51.06;10;
2;ENG;Somerset;Southmead;;W2.60;N51.49;10;
2;ENG;Somerset;Southstoke;;W2.37;N51.34;10;
2;ENG;Somerset;Southtown;;W2.96;N50.93;10;
2;ENG;Somerset;Southtown;;W2.64;N51.13;10;
2;ENG;Somerset;Southway;;W2.70;N51.17;10;
2;ENG;Somerset;Southwick;;W2.93;N51.20;10;
2;ENG;Somerset;Southwood;;W2.64;N51.09;10;
2;ENG;Somerset;Sparkford;;W2.57;N51.03;10;
2;ENG;Somerset;Sparrow Hill;;W2.84;N51.26;10;
2;ENG;Somerset;Spaxton;;W3.11;N51.12;10;
2;ENG;Somerset;Speckington;;W2.62;N51.00;10;
2;ENG;Somerset;Speedwell;;W2.53;N51.46;10;
2;ENG;Somerset;Splatt;;W3.11;N51.12;10;
2;ENG;Somerset;Spring Gardens;;W2.34;N51.23;10;
2;ENG;Somerset;St Anne's Park;;W2.54;N51.44;10;
2;ENG;Somerset;St Catherine;;W2.33;N51.42;10;
2;ENG;Somerset;St Decumans;;W3.34;N51.16;10;
2;ENG;Somerset;St George;;W2.54;N51.45;10;
2;ENG;Somerset;St Georges;;W2.90;N51.35;10;
2;ENG;Somerset;St Michael Church;;W3.00;N51.06;10;
2;ENG;Somerset;Stamborough;;W3.40;N51.11;10;
2;ENG;Somerset;Standerwick;;W2.27;N51.24;10;
2;ENG;Somerset;Stanton Drew;;W2.59;N51.36;10;
2;ENG;Somerset;Stanton Prior;;W2.47;N51.35;10;
2;ENG;Somerset;Stanton Wick;;W2.56;N51.35;10;
2;ENG;Somerset;Staple Fitzpaine;;W3.05;N50.95;10;
2;ENG;Somerset;Staple Lawns;;W3.06;N50.95;10;
2;ENG;Somerset;Staplegrove;;W3.12;N51.02;10;
2;ENG;Somerset;Staplehay;;W3.12;N50.98;10;
2;ENG;Somerset;Stapleton;;W2.56;N51.47;10;
2;ENG;Somerset;Stapleton;;W2.77;N50.98;10;
2;ENG;Somerset;Stapley;;W3.16;N50.91;10;
2;ENG;Somerset;Stathe;;W2.90;N51.04;10;
2;ENG;Somerset;Stawell;;W2.91;N51.13;10;
2;ENG;Somerset;Stawley;;W3.34;N50.98;10;
2;ENG;Somerset;Steanbow;;W2.61;N51.14;10;
2;ENG;Somerset;Steart;;W2.62;N51.04;10;
2;ENG;Somerset;Steart;;W3.04;N51.19;10;
2;ENG;Somerset;Steep Holm;;W3.10;N51.33;10;
2;ENG;Somerset;Stembridge;;W2.82;N50.97;10;
2;ENG;Somerset;Stewley;;W2.98;N50.95;10;
2;ENG;Somerset;Sticklepath;;W2.99;N50.90;10;
2;ENG;Somerset;Sticklepath;;W3.37;N51.11;10;
2;ENG;Somerset;Sticklinch;;W2.63;N51.13;10;
2;ENG;Somerset;Stileway;;W2.77;N51.16;10;
2;ENG;Somerset;Stock;;W2.79;N51.34;10;
2;ENG;Somerset;Stockland Bristol;;W3.08;N51.18;10;
2;ENG;Somerset;Stocklinch;;W2.88;N50.94;10;
2;ENG;Somerset;Stockwitch Cross;;W2.64;N51.01;10;
2;ENG;Somerset;Stockwood;;W2.54;N51.40;10;
2;ENG;Somerset;Stockwood Vale;;W2.51;N51.41;10;
2;ENG;Somerset;Stoford;;W2.62;N50.91;10;
2;ENG;Somerset;Stogumber;;W3.30;N51.12;10;
2;ENG;Somerset;Stogursey;;W3.14;N51.17;10;
2;ENG;Somerset;Stoke Bishop;;W2.63;N51.47;10;
2;ENG;Somerset;Stoke St Gregory;;W2.94;N51.03;10;
2;ENG;Somerset;Stoke St Mary;;W3.05;N50.99;10;
2;ENG;Somerset;Stoke St Michael;;W2.48;N51.21;10;
2;ENG;Somerset;Stoke sub Hamdon;;W2.75;N50.95;10;
2;ENG;Somerset;Stoke Trister;;W2.38;N51.05;10;
2;ENG;Somerset;Stolford;;W3.10;N51.19;10;
2;ENG;Somerset;Ston Easton;;W2.54;N51.27;10;
2;ENG;Somerset;Stone;;W2.60;N51.10;10;
2;ENG;Somerset;Stone Allerton;;W2.86;N51.25;10;
2;ENG;Somerset;Stonebridge;;W2.87;N51.32;10;
2;ENG;Somerset;Stone-edge Batch;;W2.77;N51.43;10;
2;ENG;Somerset;Stoney Stoke;;W2.42;N51.08;10;
2;ENG;Somerset;Stoney Stratton;;W2.50;N51.14;10;
2;ENG;Somerset;Stony Littleton;;W2.38;N51.30;10;
2;ENG;Somerset;Stoughton Cross;;W2.83;N51.23;10;
2;ENG;Somerset;Stout;;W2.81;N51.07;10;
2;ENG;Somerset;Stowell;;W2.45;N50.99;10;
2;ENG;Somerset;Stowey;;W2.58;N51.32;10;
2;ENG;Somerset;Stratton-on-the-Fosse;;W2.50;N51.24;10;
2;ENG;Somerset;Street;;W2.92;N50.85;10;
2;ENG;Somerset;Street;;W2.74;N51.12;10;
2;ENG;Somerset;Street Ash;;W3.02;N50.91;10;
2;ENG;Somerset;Street on the Fosse;;W2.55;N51.14;10;
2;ENG;Somerset;Stretcholt;;W3.01;N51.18;10;
2;ENG;Somerset;Stringston;;W3.18;N51.17;10;
2;ENG;Somerset;Strode;;W2.67;N51.34;10;
2;ENG;Somerset;Summerlands;;W2.65;N50.94;10;
2;ENG;Somerset;Sutton;;W2.54;N51.09;10;
2;ENG;Somerset;Sutton Bingham;;W2.65;N50.89;10;
2;ENG;Somerset;Sutton Mallet;;W2.90;N51.11;10;
2;ENG;Somerset;Sutton Montis;;W2.54;N51.01;10;
2;ENG;Somerset;Sutton Wick;;W2.61;N51.31;10;
2;ENG;Somerset;Sweethay;;W3.14;N50.98;10;
2;ENG;Somerset;Swell;;W2.91;N51.00;10;
2;ENG;Somerset;Sydenham;;W2.98;N51.12;10;
2;ENG;Somerset;Tacker Street;;W3.40;N51.12;10;
2;ENG;Somerset;Tadhill;;W2.45;N51.21;10;
2;ENG;Somerset;Tadwick;;W2.37;N51.42;10;
2;ENG;Somerset;Tarnock;;W2.90;N51.26;10;
2;ENG;Somerset;Tatworth;;W2.96;N50.84;10;
2;ENG;Somerset;Taunton;;W3.09;N51.01;10;
2;ENG;Somerset;Tellisford;;W2.28;N51.29;10;
2;ENG;Somerset;Temple Cloud;;W2.54;N51.31;10;
2;ENG;Somerset;Templecombe;;W2.42;N50.99;10;
2;ENG;Somerset;Terhill;;W3.18;N51.08;10;
2;ENG;Somerset;The Common;;W2.54;N51.36;10;
2;ENG;Somerset;The Oval;;W2.38;N51.36;10;
2;ENG;Somerset;The Wrangle;;W2.66;N51.30;10;
2;ENG;Somerset;Theale;;W2.77;N51.21;10;
2;ENG;Somerset;Thicket Mead;;W2.48;N51.29;10;
2;ENG;Somerset;Thorne Coffin;;W2.68;N50.95;10;
2;ENG;Somerset;Thorne St Margaret;;W3.29;N50.98;10;
2;ENG;Somerset;Thorney;;W2.82;N50.99;10;
2;ENG;Somerset;Thornfalcon;;W3.02;N51.00;10;
2;ENG;Somerset;Thorngrove;;W2.91;N51.08;10;
2;ENG;Somerset;Three Ashes;;W2.50;N51.21;10;
2;ENG;Somerset;Thrupe;;W2.57;N51.20;10;
2;ENG;Somerset;Thurlbear;;W3.05;N50.98;10;
2;ENG;Somerset;Thurloxton;;W3.04;N51.06;10;
2;ENG;Somerset;Tickenham;;W2.80;N51.43;10;
2;ENG;Somerset;Timberscombe;;W3.50;N51.16;10;
2;ENG;Somerset;Timsbury;;W2.48;N51.32;10;
2;ENG;Somerset;Tintinhull;;W2.72;N50.96;10;
2;ENG;Somerset;Tivington;;W3.53;N51.19;10;
2;ENG;Somerset;Tivington Knowle;;W3.53;N51.18;10;
2;ENG;Somerset;Tolland;;W3.28;N51.08;10;
2;ENG;Somerset;Tone;;W3.25;N50.98;10;
2;ENG;Somerset;Tone;;W3.35;N51.01;10;
2;ENG;Somerset;Tone Green;;W3.18;N51.00;10;
2;ENG;Somerset;Tonedale;;W3.25;N50.98;10;
2;ENG;Somerset;Torre;;W3.37;N51.15;10;
2;ENG;Somerset;Toulton;;W3.15;N51.07;10;
2;ENG;Somerset;Towerhead;;W2.84;N51.32;10;
2;ENG;Somerset;Towns End;;W2.40;N50.96;10;
2;ENG;Somerset;Town's End;;W2.45;N51.22;10;
2;ENG;Somerset;Townsend;;W2.61;N51.30;10;
2;ENG;Somerset;Townsend;;W2.68;N51.25;10;
2;ENG;Somerset;Treble's Holford;;W3.21;N51.09;10;
2;ENG;Somerset;Treborough;;W3.41;N51.11;10;
2;ENG;Somerset;Triscombe;;W3.21;N51.10;10;
2;ENG;Somerset;Trudoxhill;;W2.37;N51.18;10;
2;ENG;Somerset;Trull;;W3.12;N50.99;10;
2;ENG;Somerset;Tuckerton;;W3.01;N51.05;10;
2;ENG;Somerset;Tucking Mill;;W2.34;N51.34;10;
2;ENG;Somerset;Tunley;;W2.44;N51.32;10;
2;ENG;Somerset;Twerton;;W2.40;N51.37;10;
2;ENG;Somerset;Twinhoe;;W2.37;N51.32;10;
2;ENG;Somerset;Two Mile Hill;;W2.53;N51.46;10;
2;ENG;Somerset;Tyning;;W2.44;N51.29;10;
2;ENG;Somerset;Tyning;;W2.48;N51.32;10;
2;ENG;Somerset;Tyntesfield;;W2.72;N51.43;10;
2;ENG;Somerset;Tytherington;;W2.34;N51.20;10;
2;ENG;Somerset;Ubley;;W2.69;N51.31;10;
2;ENG;Somerset;Udley;;W2.77;N51.36;10;
2;ENG;Somerset;Up Mudford;;W2.61;N50.95;10;
2;ENG;Somerset;Upcott;;W3.15;N51.00;10;
2;ENG;Somerset;Uphill;;W2.99;N51.31;10;
2;ENG;Somerset;Uphill Manor;;W2.97;N51.32;10;
2;ENG;Somerset;Upper Canada;;W2.91;N51.31;10;
2;ENG;Somerset;Upper Cheddon;;W3.09;N51.04;10;
2;ENG;Somerset;Upper Croxley;;W2.67;N51.18;10;
2;ENG;Somerset;Upper Fivehead;;W2.94;N51.00;10;
2;ENG;Somerset;Upper Godney;;W2.74;N51.17;10;
2;ENG;Somerset;Upper Langford;;W2.77;N51.32;10;
2;ENG;Somerset;Upper Littleton;;W2.64;N51.37;10;
2;ENG;Somerset;Upper Milton;;W2.66;N51.22;10;
2;ENG;Somerset;Upper Stanton Drew;;W2.57;N51.35;10;
2;ENG;Somerset;Upper Swainswick;;W2.36;N51.41;10;
2;ENG;Somerset;Upper Town;;W2.69;N51.39;10;
2;ENG;Somerset;Upper Vobster;;W2.43;N51.23;10;
2;ENG;Somerset;Upper Westholme;;W2.61;N51.15;10;
2;ENG;Somerset;Upper Weston;;W2.40;N51.40;10;
2;ENG;Somerset;Upton;;W2.78;N51.03;10;
2;ENG;Somerset;Upton;;W3.44;N51.04;10;
2;ENG;Somerset;Upton Noble;;W2.41;N51.14;10;
2;ENG;Somerset;Urgashay;;W2.62;N51.01;10;
2;ENG;Somerset;Vagg;;W2.68;N50.95;10;
2;ENG;Somerset;Vellow;;W3.30;N51.13;10;
2;ENG;Somerset;Vobster;;W2.43;N51.23;10;
2;ENG;Somerset;Vole;;W2.91;N51.23;10;
2;ENG;Somerset;Voxmoor;;W3.22;N50.95;10;
2;ENG;Somerset;Wadeford;;W2.99;N50.88;10;
2;ENG;Somerset;Wagg;;W2.81;N51.03;10;
2;ENG;Somerset;Walcombe;;W2.64;N51.22;10;
2;ENG;Somerset;Walcot;;W2.36;N51.38;10;
2;ENG;Somerset;Wales;;W2.60;N51.01;10;
2;ENG;Somerset;Walford;;W3.04;N51.04;10;
2;ENG;Somerset;Wall Mead;;W2.47;N51.32;10;
2;ENG;Somerset;Walpole;;W3.00;N51.16;10;
2;ENG;Somerset;Walrow;;W2.96;N51.21;10;
2;ENG;Somerset;Walton;;W2.77;N51.12;10;
2;ENG;Somerset;Walton St Mary;;W2.85;N51.44;10;
2;ENG;Somerset;Walton-in-Gordano;;W2.83;N51.45;10;
2;ENG;Somerset;Wambrook;;W3.01;N50.85;10;
2;ENG;Somerset;Wanstrow;;W2.41;N51.16;10;
2;ENG;Somerset;Warleigh;;W2.30;N51.37;10;
2;ENG;Somerset;Washbrook;;W2.83;N51.24;10;
2;ENG;Somerset;Washford;;W3.37;N51.16;10;
2;ENG;Somerset;Watchet;;W3.33;N51.17;10;
2;ENG;Somerset;Watchfield;;W2.94;N51.21;10;
2;ENG;Somerset;Watergore;;W2.81;N50.93;10;
2;ENG;Somerset;Waterlip;;W2.48;N51.19;10;
2;ENG;Somerset;Waterrow;;W3.35;N51.01;10;
2;ENG;Somerset;Way Wick;;W2.89;N51.35;10;
2;ENG;Somerset;Wayford;;W2.85;N50.85;10;
2;ENG;Somerset;Weacombe;;W3.27;N51.15;10;
2;ENG;Somerset;Weare;;W2.84;N51.26;10;
2;ENG;Somerset;Wearne;;W2.82;N51.04;10;
2;ENG;Somerset;Webbington;;W2.89;N51.29;10;
2;ENG;Somerset;Wedmore;;W2.81;N51.21;10;
2;ENG;Somerset;Weekmoor;;W3.24;N51.01;10;
2;ENG;Somerset;Welham;;W2.48;N51.07;10;
2;ENG;Somerset;Wellington;;W3.22;N50.97;10;
2;ENG;Somerset;Wellisford;;W3.29;N50.98;10;
2;ENG;Somerset;Wellow;;W2.38;N51.32;10;
2;ENG;Somerset;Wells;;W2.65;N51.20;10;
2;ENG;Somerset;Wellsprings;;W3.11;N51.02;10;
2;ENG;Somerset;Welton;;W2.47;N51.28;10;
2;ENG;Somerset;Welton;;W2.48;N51.29;10;
2;ENG;Somerset;Wembdon;;W3.03;N51.12;10;
2;ENG;Somerset;West Bagborough;;W3.18;N51.09;10;
2;ENG;Somerset;West Bradley;;W2.64;N51.12;10;
2;ENG;Somerset;West Buckland;;W3.18;N50.97;10;
2;ENG;Somerset;West Camel;;W2.61;N51.01;10;
2;ENG;Somerset;West Chinnock;;W2.76;N50.91;10;
2;ENG;Somerset;West Coker;;W2.69;N50.91;10;
2;ENG;Somerset;West Compton;;W2.58;N51.17;10;
2;ENG;Somerset;West End;;W2.80;N51.41;10;
2;ENG;Somerset;West End;;W2.47;N51.10;10;
2;ENG;Somerset;West End;;W2.63;N51.26;10;
2;ENG;Somerset;West Harptree;;W2.63;N51.30;10;
2;ENG;Somerset;West Hatch;;W3.02;N50.98;10;
2;ENG;Somerset;West Hewish;;W2.87;N51.37;10;
2;ENG;Somerset;West Hill;;W2.79;N51.48;10;
2;ENG;Somerset;West Hill;;W2.42;N51.05;10;
2;ENG;Somerset;West Horrington;;W2.61;N51.22;10;
2;ENG;Somerset;West Howetown;;W3.55;N51.09;10;
2;ENG;Somerset;West Huntspill;;W3.00;N51.19;10;
2;ENG;Somerset;West Lambrook;;W2.84;N50.95;10;
2;ENG;Somerset;West Leigh;;W3.27;N51.06;10;
2;ENG;Somerset;West Luccombe;;W3.59;N51.20;10;
2;ENG;Somerset;West Lydford;;W2.62;N51.07;10;
2;ENG;Somerset;West Lyng;;W2.98;N51.04;10;
2;ENG;Somerset;West Monkton;;W3.05;N51.04;10;
2;ENG;Somerset;West Mudford;;W2.62;N50.97;10;
2;ENG;Somerset;West Newton;;W3.02;N51.05;10;
2;ENG;Somerset;West Pennard;;W2.65;N51.13;10;
2;ENG;Somerset;West Porlock;;W3.61;N51.21;10;
2;ENG;Somerset;West Quantoxhead;;W3.27;N51.16;10;
2;ENG;Somerset;West Shepton;;W2.55;N51.18;10;
2;ENG;Somerset;West Stoke;;W2.75;N50.95;10;
2;ENG;Somerset;West Stoughton;;W2.84;N51.23;10;
2;ENG;Somerset;West Town;;W2.70;N51.33;10;
2;ENG;Somerset;West Town;;W2.74;N51.40;10;
2;ENG;Somerset;West Town;;W2.67;N51.11;10;
2;ENG;Somerset;West Wick;;W2.92;N51.34;10;
2;ENG;Somerset;West Woodlands;;W2.33;N51.18;10;
2;ENG;Somerset;West Yeo;;W2.95;N51.06;10;
2;ENG;Somerset;Westbury on Trym;;W2.63;N51.49;10;
2;ENG;Somerset;Westbury Park;;W2.62;N51.47;10;
2;ENG;Somerset;Westbury-sub-Mendip;;W2.71;N51.22;10;
2;ENG;Somerset;Westcombe;;W2.77;N51.05;10;
2;ENG;Somerset;Westcombe;;W2.47;N51.14;10;
2;ENG;Somerset;Westfield;;W2.47;N51.28;10;
2;ENG;Somerset;Westford;;W3.25;N50.97;10;
2;ENG;Somerset;Westham;;W2.86;N51.21;10;
2;ENG;Somerset;Westhay;;W2.81;N51.17;10;
2;ENG;Somerset;Weston;;W2.40;N51.39;10;
2;ENG;Somerset;Weston Bampfylde;;W2.55;N51.01;10;
2;ENG;Somerset;Weston Park;;W2.38;N51.39;10;
2;ENG;Somerset;Weston Town;;W2.43;N51.16;10;
2;ENG;Somerset;Weston-in-Gordano;;W2.80;N51.46;10;
2;ENG;Somerset;Weston-super-Mare;;W2.97;N51.34;10;
2;ENG;Somerset;Westonzoyland;;W2.92;N51.10;10;
2;ENG;Somerset;Westowe;;W3.25;N51.08;10;
2;ENG;Somerset;Westport;;W2.88;N50.96;10;
2;ENG;Somerset;Westwood;;W2.28;N51.32;10;
2;ENG;Somerset;Whatley;;W2.91;N50.85;10;
2;ENG;Somerset;Whatley;;W2.38;N51.22;10;
2;ENG;Somerset;Wheathill;;W2.60;N51.06;10;
2;ENG;Somerset;Wheddon Cross;;W3.54;N51.13;10;
2;ENG;Somerset;Whitchurch;;W2.56;N51.40;10;
2;ENG;Somerset;Whitchurch;;W2.40;N50.97;10;
2;ENG;Somerset;Whitcombe;;W2.52;N51.00;10;
2;ENG;Somerset;White Ball;;W3.29;N50.96;10;
2;ENG;Somerset;White Cross;;W2.54;N51.30;10;
2;ENG;Somerset;White Cross;;W2.58;N51.31;10;
2;ENG;Somerset;White Cross;;W2.94;N51.23;10;
2;ENG;Somerset;White Gate;;W2.93;N50.84;10;
2;ENG;Somerset;White Hill;;W2.41;N51.30;10;
2;ENG;Somerset;White Ox Mead;;W2.40;N51.32;10;
2;ENG;Somerset;Whitecross;;W2.85;N51.01;10;
2;ENG;Somerset;Whitefield;;W3.32;N51.05;10;
2;ENG;Somerset;Whitehall;;W2.56;N51.46;10;
2;ENG;Somerset;Whitelackington;;W2.88;N50.93;10;
2;ENG;Somerset;Whitestaunton;;W3.02;N50.88;10;
2;ENG;Somerset;Whiteway;;W2.41;N51.36;10;
2;ENG;Somerset;Whitnell;;W3.13;N51.14;10;
2;ENG;Somerset;Whitney Bottom;;W2.96;N50.91;10;
2;ENG;Somerset;Wick;;W2.85;N51.03;10;
2;ENG;Somerset;Wick;;W3.13;N51.18;10;
2;ENG;Somerset;Wick;;W2.97;N51.27;10;
2;ENG;Somerset;Wick St Lawrence;;W2.92;N51.38;10;
2;ENG;Somerset;Wickham's Cross;;W2.71;N51.08;10;
2;ENG;Somerset;Wicklane;;W2.44;N51.32;10;
2;ENG;Somerset;Widcombe;;W2.34;N51.36;10;
2;ENG;Somerset;Wigborough;;W2.79;N50.93;10;
2;ENG;Somerset;Wilkin Throop;;W2.45;N51.00;10;
2;ENG;Somerset;Willand;;W3.15;N50.91;10;
2;ENG;Somerset;Willett;;W3.28;N51.08;10;
2;ENG;Somerset;Willhayne;;W2.98;N50.88;10;
2;ENG;Somerset;Williton;;W3.33;N51.16;10;
2;ENG;Somerset;Wilmington;;W2.44;N51.35;10;
2;ENG;Somerset;Wilton;;W3.11;N51.00;10;
2;ENG;Somerset;Wiltown;;W2.88;N51.01;10;
2;ENG;Somerset;Wincanton;;W2.41;N51.05;10;
2;ENG;Somerset;Windmill Hill;;W2.59;N51.43;10;
2;ENG;Somerset;Windmill Hill;;W2.98;N50.93;10;
2;ENG;Somerset;Windwhistle;;W2.89;N50.87;10;
2;ENG;Somerset;Winford;;W2.66;N51.38;10;
2;ENG;Somerset;Winscombe;;W2.83;N51.30;10;
2;ENG;Somerset;Winsford;;W3.57;N51.09;10;
2;ENG;Somerset;Winsham;;W2.89;N50.85;10;
2;ENG;Somerset;Winsley;;W2.30;N51.33;10;
2;ENG;Somerset;Winter Well;;W3.06;N50.97;10;
2;ENG;Somerset;Winterfield;;W2.50;N51.29;10;
2;ENG;Somerset;Winterhay Green;;W2.92;N50.93;10;
2;ENG;Somerset;Winterhead;;W2.81;N51.30;10;
2;ENG;Somerset;Witcombe;;W2.75;N50.98;10;
2;ENG;Somerset;Witham Friary;;W2.37;N51.16;10;
2;ENG;Somerset;Withial;;W2.61;N51.12;10;
2;ENG;Somerset;Withiel Florey;;W3.45;N51.08;10;
2;ENG;Somerset;Withy Mills;;W2.48;N51.31;10;
2;ENG;Somerset;Withybrook;;W2.50;N51.22;10;
2;ENG;Somerset;Withycombe;;W3.41;N51.15;10;
2;ENG;Somerset;Withyditch;;W2.43;N51.32;10;
2;ENG;Somerset;Withypool;;W3.65;N51.10;10;
2;ENG;Somerset;Withywood;;W2.61;N51.40;10;
2;ENG;Somerset;Wiveliscombe;;W3.31;N51.03;10;
2;ENG;Somerset;Wonderstone;;W2.94;N51.29;10;
2;ENG;Somerset;Wood;;W2.98;N50.94;10;
2;ENG;Somerset;Woodcombe;;W3.50;N51.20;10;
2;ENG;Somerset;Woodford;;W3.34;N51.13;10;
2;ENG;Somerset;Woodhill;;W2.77;N51.48;10;
2;ENG;Somerset;Woodhill;;W2.92;N51.03;10;
2;ENG;Somerset;Woodlands;;W2.65;N51.13;10;
2;ENG;Somerset;Woodlands;;W3.20;N51.15;10;
2;ENG;Somerset;Woodram;;W3.11;N50.95;10;
2;ENG;Somerset;Woodspring Priory;;W2.95;N51.38;10;
2;ENG;Somerset;Wookey;;W2.70;N51.20;10;
2;ENG;Somerset;Wookey Hole;;W2.67;N51.22;10;
2;ENG;Somerset;Woolavington;;W2.94;N51.16;10;
2;ENG;Somerset;Woollard;;W2.53;N51.37;10;
2;ENG;Somerset;Woolley;;W2.37;N51.41;10;
2;ENG;Somerset;Woolmersdon;;W3.02;N51.09;10;
2;ENG;Somerset;Woolminstone;;W2.83;N50.86;10;
2;ENG;Somerset;Woolston;;W2.51;N51.04;10;
2;ENG;Somerset;Woolston;;W3.30;N51.14;10;
2;ENG;Somerset;Woolvers Hill;;W2.89;N51.33;10;
2;ENG;Somerset;Woolverton;;W2.30;N51.27;10;
2;ENG;Somerset;Wootton Courtenay;;W3.53;N51.17;10;
2;ENG;Somerset;Worle;;W2.93;N51.35;10;
2;ENG;Somerset;Worlebury;;W2.96;N51.35;10;
2;ENG;Somerset;Worminster;;W2.61;N51.17;10;
2;ENG;Somerset;Worth;;W2.70;N51.20;10;
2;ENG;Somerset;Worthy;;W3.64;N51.21;10;
2;ENG;Somerset;Wrangway;;W3.25;N50.94;10;
2;ENG;Somerset;Wrantage;;W2.99;N50.99;10;
2;ENG;Somerset;Wraxall;;W2.73;N51.43;10;
2;ENG;Somerset;Wraxall;;W2.57;N51.12;10;
2;ENG;Somerset;Wreath;;W2.93;N50.86;10;
2;ENG;Somerset;Wrington;;W2.76;N51.35;10;
2;ENG;Somerset;Writhlington;;W2.43;N51.28;10;
2;ENG;Somerset;Wyke Champflower;;W2.48;N51.10;10;
2;ENG;Somerset;Yanley;;W2.64;N51.41;10;
2;ENG;Somerset;Yarberry;;W2.87;N51.30;10;
2;ENG;Somerset;Yarde;;W3.34;N51.14;10;
2;ENG;Somerset;Yarford;;W3.14;N51.05;10;
2;ENG;Somerset;Yarley;;W2.71;N51.20;10;
2;ENG;Somerset;Yarlington;;W2.50;N51.05;10;
2;ENG;Somerset;Yarrow;;W2.88;N51.21;10;
2;ENG;Somerset;Yarty;;W3.08;N50.92;10;
2;ENG;Somerset;Yatton;;W2.83;N51.38;10;
2;ENG;Somerset;Yeabridge;;W2.79;N50.93;10;
2;ENG;Somerset;Yenston;;W2.41;N50.98;10;
2;ENG;Somerset;Yeo;;W2.63;N51.00;10;
2;ENG;Somerset;Yeovil;;W2.64;N50.94;10;
2;ENG;Somerset;Yeovil Marsh;;W2.65;N50.95;10;
2;ENG;Somerset;Yeovilton;;W2.65;N50.99;10;