"Level";"Country";"County";"Place";"void";"Longitude";"Latitude";"ZoomLevel";"Icon"
2;England;Lincolnshire;Aby;;E0.11;N53.28;10;
2;England;Lincolnshire;Addlethorpe;;E0.30;N53.18;10;
2;England;Lincolnshire;Ailby;;E0.14;N53.26;10;
2;England;Lincolnshire;Aire;;W1.02;N53.69;10;
2;England;Lincolnshire;Aire and Calder Navigation;;W1.00;N53.66;10;
2;England;Lincolnshire;Aisby;;W0.49;N52.93;10;
2;England;Lincolnshire;Aisby;;W0.69;N53.41;10;
2;England;Lincolnshire;Aisthorpe;;W0.59;N53.30;10;
2;England;Lincolnshire;Alford;;E0.17;N53.25;10;
2;England;Lincolnshire;Algakirk;;W0.08;N52.89;10;
2;England;Lincolnshire;Alkborough;;W0.66;N53.67;10;
2;England;Lincolnshire;Allington;;W0.73;N52.95;10;
2;England;Lincolnshire;Althorpe;;W0.74;N53.57;10;
2;England;Lincolnshire;Alvingham;;E0.04;N53.39;10;
2;England;Lincolnshire;Amcotts;;W0.71;N53.61;10;
2;England;Lincolnshire;Ancaster;;W0.54;N52.97;10;
2;England;Lincolnshire;Anderby;;E0.27;N53.25;10;
2;England;Lincolnshire;Anderby Creek;;E0.30;N53.25;10;
2;England;Lincolnshire;Anton's Gowt;;W0.06;N53.00;10;
2;England;Lincolnshire;Anwick;;W0.34;N53.03;10;
2;England;Lincolnshire;Apley;;W0.35;N53.26;10;
2;England;Lincolnshire;Appleby;;W0.56;N53.61;10;
2;England;Lincolnshire;Asgarby;;W0.34;N52.99;10;
2;England;Lincolnshire;Asgarby;;W0.01;N53.17;10;
2;England;Lincolnshire;Ashby;;W0.65;N53.56;10;
2;England;Lincolnshire;Ashby by Partney;;E0.12;N53.17;10;
2;England;Lincolnshire;Ashby cum Fenby;;W0.11;N53.48;10;
2;England;Lincolnshire;Ashby de la Launde;;W0.43;N53.08;10;
2;England;Lincolnshire;Ashby Hill;;W0.13;N53.48;10;
2;England;Lincolnshire;Ashby Puerorum;;W0.02;N53.22;10;
2;England;Lincolnshire;Ashington End;;E0.27;N53.16;10;
2;England;Lincolnshire;Aslackby;;W0.39;N52.85;10;
2;England;Lincolnshire;Asperton;;W0.12;N52.91;10;
2;England;Lincolnshire;Asserby;;E0.23;N53.26;10;
2;England;Lincolnshire;Asserby Turn;;E0.20;N53.27;10;
2;England;Lincolnshire;Asterby;;W0.11;N53.29;10;
2;England;Lincolnshire;Aswarby;;W0.42;N52.93;10;
2;England;Lincolnshire;Aswardby;;E0.05;N53.20;10;
2;England;Lincolnshire;Atterby;;W0.52;N53.41;10;
2;England;Lincolnshire;Aubourn;;W0.62;N53.14;10;
2;England;Lincolnshire;Aunby;;W0.49;N52.71;10;
2;England;Lincolnshire;Aunsby;;W0.45;N52.92;10;
2;England;Lincolnshire;Austen Fen;;E0.06;N53.42;10;
2;England;Lincolnshire;Austendike;;W0.08;N52.77;10;
2;England;Lincolnshire;Authorpe;;E0.09;N53.30;10;
2;England;Lincolnshire;Authorpe Row;;E0.29;N53.23;10;
2;England;Lincolnshire;Aylesby;;W0.19;N53.54;10;
2;England;Lincolnshire;Bag Enderby;;E0.01;N53.22;10;
2;England;Lincolnshire;Bain;;W0.13;N53.36;10;
2;England;Lincolnshire;Bardney;;W0.33;N53.20;10;
2;England;Lincolnshire;Barholm;;W0.38;N52.67;10;
2;England;Lincolnshire;Barkston;;W0.61;N52.95;10;
2;England;Lincolnshire;Barlings;;W0.39;N53.25;10;
2;England;Lincolnshire;Barlings Eau;;W0.36;N53.23;10;
2;England;Lincolnshire;Barnetby le Wold;;W0.41;N53.56;10;
2;England;Lincolnshire;Barnoldby le Beck;;W0.14;N53.50;10;
2;England;Lincolnshire;Barrow Hann;;W0.36;N53.68;10;
2;England;Lincolnshire;Barrow Haven;;W0.39;N53.68;10;
2;England;Lincolnshire;Barrow upon Humber;;W0.38;N53.66;10;
2;England;Lincolnshire;Barrowby;;W0.69;N52.91;10;
2;England;Lincolnshire;Barton Upon Humber;;W0.44;N53.68;10;
2;England;Lincolnshire;Barton Waterside;;W0.45;N53.69;10;
2;England;Lincolnshire;Bassingham;;W0.64;N53.12;10;
2;England;Lincolnshire;Bassingthorpe;;W0.57;N52.84;10;
2;England;Lincolnshire;Baston;;W0.35;N52.71;10;
2;England;Lincolnshire;Baumber;;W0.18;N53.24;10;
2;England;Lincolnshire;Baythorpe;;W0.15;N52.95;10;
2;England;Lincolnshire;Beelsby;;W0.19;N53.49;10;
2;England;Lincolnshire;Beesby;;E0.18;N53.29;10;
2;England;Lincolnshire;Belchford;;W0.06;N53.25;10;
2;England;Lincolnshire;Belleau;;E0.09;N53.28;10;
2;England;Lincolnshire;Belnie;;W0.14;N52.85;10;
2;England;Lincolnshire;Beltoft;;W0.79;N53.54;10;
2;England;Lincolnshire;Belton;;W0.63;N52.94;10;
2;England;Lincolnshire;Belton;;W0.82;N53.54;10;
2;England;Lincolnshire;Benington;;E0.06;N52.99;10;
2;England;Lincolnshire;Benington Sea End;;E0.08;N52.99;10;
2;England;Lincolnshire;Benniworth;;W0.20;N53.31;10;
2;England;Lincolnshire;Bicker;;W0.18;N52.91;10;
2;England;Lincolnshire;Bicker Bar;;W0.17;N52.92;10;
2;England;Lincolnshire;Bicker Gauntlet;;W0.20;N52.93;10;
2;England;Lincolnshire;Bigby;;W0.41;N53.54;10;
2;England;Lincolnshire;Billingborough;;W0.35;N52.89;10;
2;England;Lincolnshire;Billinghay;;W0.28;N53.07;10;
2;England;Lincolnshire;Bilsby;;E0.20;N53.26;10;
2;England;Lincolnshire;Bilsby Field;;E0.18;N53.25;10;
2;England;Lincolnshire;Binbrook;;W0.18;N53.42;10;
2;England;Lincolnshire;Birchwood;;W0.60;N53.21;10;
2;England;Lincolnshire;Birkholme;;W0.56;N52.79;10;
2;England;Lincolnshire;Birthorpe;;W0.36;N52.88;10;
2;England;Lincolnshire;Biscathorpe;;W0.16;N53.33;10;
2;England;Lincolnshire;Bishop Norton;;W0.52;N53.41;10;
2;England;Lincolnshire;Bishopbridge;;W0.45;N53.40;10;
2;England;Lincolnshire;Bitchfield;;W0.54;N52.84;10;
2;England;Lincolnshire;Black Barn;;E0.12;N52.83;10;
2;England;Lincolnshire;Blackjack;;W0.12;N52.93;10;
2;England;Lincolnshire;Blankney;;W0.41;N53.12;10;
2;England;Lincolnshire;Bleasby;;W0.30;N53.34;10;
2;England;Lincolnshire;Bleasby Moor;;W0.31;N53.33;10;
2;England;Lincolnshire;Blyborough;;W0.60;N53.43;10;
2;England;Lincolnshire;Blyton;;W0.72;N53.43;10;
2;England;Lincolnshire;Bonby;;W0.48;N53.62;10;
2;England;Lincolnshire;Bonthorpe;;E0.21;N53.22;10;
2;England;Lincolnshire;Boothby Graffoe;;W0.53;N53.11;10;
2;England;Lincolnshire;Boothby Pagnell;;W0.56;N52.85;10;
2;England;Lincolnshire;Boston;;W0.02;N52.97;10;
2;England;Lincolnshire;Boston Long Hedges;;E0.01;N53.00;10;
2;England;Lincolnshire;Boston West;;W0.07;N52.98;10;
2;England;Lincolnshire;Bottesford;;W0.65;N53.55;10;
2;England;Lincolnshire;Boughton;;W0.33;N52.99;10;
2;England;Lincolnshire;Boultham;;W0.56;N53.20;10;
2;England;Lincolnshire;Boultham Moor;;W0.57;N53.20;10;
2;England;Lincolnshire;Bourne;;W0.38;N52.76;10;
2;England;Lincolnshire;Bourne Eau;;W0.32;N52.76;10;
2;England;Lincolnshire;Braceborough;;W0.40;N52.70;10;
2;England;Lincolnshire;Bracebridge;;W0.56;N53.20;10;
2;England;Lincolnshire;Bracebridge Heath;;W0.53;N53.19;10;
2;England;Lincolnshire;Braceby;;W0.49;N52.90;10;
2;England;Lincolnshire;Bracon;;W0.82;N53.55;10;
2;England;Lincolnshire;Bradley;;W0.13;N53.53;10;
2;England;Lincolnshire;Bradley;;W0.12;N53.54;10;
2;England;Lincolnshire;Brampton;;W0.74;N53.30;10;
2;England;Lincolnshire;Brand End;;E0.03;N52.98;10;
2;England;Lincolnshire;Brandon;;W0.65;N53.02;10;
2;England;Lincolnshire;Brandy Wharf;;W0.48;N53.45;10;
2;England;Lincolnshire;Bransby;;W0.66;N53.30;10;
2;England;Lincolnshire;Branston;;W0.47;N53.19;10;
2;England;Lincolnshire;Branston Booths;;W0.41;N53.20;10;
2;England;Lincolnshire;Brant;;W0.60;N53.10;10;
2;England;Lincolnshire;Brant Broughton;;W0.64;N53.07;10;
2;England;Lincolnshire;Bratoft;;E0.19;N53.15;10;
2;England;Lincolnshire;Brattleby;;W0.59;N53.30;10;
2;England;Lincolnshire;Bridge End;;W0.30;N52.90;10;
2;England;Lincolnshire;Brigg;;W0.49;N53.55;10;
2;England;Lincolnshire;Brigsley;;W0.11;N53.49;10;
2;England;Lincolnshire;Brinkhill;;E0.05;N53.23;10;
2;England;Lincolnshire;Broadholme;;W0.66;N53.25;10;
2;England;Lincolnshire;Brocklesby;;W0.27;N53.58;10;
2;England;Lincolnshire;Brookenby;;W0.19;N53.43;10;
2;England;Lincolnshire;Brotherhouse Bar;;W0.13;N52.70;10;
2;England;Lincolnshire;Brothertoft;;W0.10;N52.99;10;
2;England;Lincolnshire;Broughton;;W0.55;N53.56;10;
2;England;Lincolnshire;Broughton Common;;W0.53;N53.57;10;
2;England;Lincolnshire;Broxholme;;W0.63;N53.28;10;
2;England;Lincolnshire;Brumby;;W0.65;N53.57;10;
2;England;Lincolnshire;Bucklegate;;W0.02;N52.89;10;
2;England;Lincolnshire;Bucknall;;W0.24;N53.19;10;
2;England;Lincolnshire;Bulby;;W0.44;N52.82;10;
2;England;Lincolnshire;Bullington;;W0.36;N53.27;10;
2;England;Lincolnshire;Bunker's Hill;;W0.12;N53.05;10;
2;England;Lincolnshire;Burgh le Marsh;;E0.24;N53.15;10;
2;England;Lincolnshire;Burgh on Bain;;W0.16;N53.35;10;
2;England;Lincolnshire;Burnham;;W0.41;N53.63;10;
2;England;Lincolnshire;Burringham;;W0.74;N53.57;10;
2;England;Lincolnshire;Burtoft;;W0.12;N52.89;10;
2;England;Lincolnshire;Burton;;W0.56;N53.25;10;
2;England;Lincolnshire;Burton Corner;;W0.02;N52.98;10;
2;England;Lincolnshire;Burton le Coggles;;W0.56;N52.81;10;
2;England;Lincolnshire;Burton Pedwardine;;W0.34;N52.96;10;
2;England;Lincolnshire;Burton Stather;;W0.70;N53.65;10;
2;England;Lincolnshire;Burton upon Stather;;W0.68;N53.64;10;
2;England;Lincolnshire;Burwell;;E0.02;N53.29;10;
2;England;Lincolnshire;Buslingthorpe;;W0.37;N53.35;10;
2;England;Lincolnshire;Butterwick;;E0.05;N52.98;10;
2;England;Lincolnshire;Cabourne;;W0.29;N53.49;10;
2;England;Lincolnshire;Cackle Hill;;E0.00;N52.81;10;
2;England;Lincolnshire;Cadney;;W0.47;N53.51;10;
2;England;Lincolnshire;Caenby;;W0.49;N53.38;10;
2;England;Lincolnshire;Caistor;;W0.32;N53.49;10;
2;England;Lincolnshire;Calceby;;E0.08;N53.25;10;
2;England;Lincolnshire;Cammeringham;;W0.58;N53.32;10;
2;England;Lincolnshire;Camp;;W0.68;N53.07;10;
2;England;Lincolnshire;Canada;;W0.31;N53.49;10;
2;England;Lincolnshire;Candlesby;;E0.16;N53.18;10;
2;England;Lincolnshire;Canwick;;W0.53;N53.20;10;
2;England;Lincolnshire;Careby;;W0.49;N52.73;10;
2;England;Lincolnshire;Carlton Scroop;;W0.58;N52.99;10;
2;England;Lincolnshire;Carlton-le-Moorland;;W0.65;N53.10;10;
2;England;Lincolnshire;Carrington;;W0.04;N53.06;10;
2;England;Lincolnshire;Castle Bytham;;W0.54;N52.75;10;
2;England;Lincolnshire;Castle Carlton;;E0.08;N53.32;10;
2;England;Lincolnshire;Castlethorpe;;W0.52;N53.55;10;
2;England;Lincolnshire;Catchwater Drain;;W0.26;N53.19;10;
2;England;Lincolnshire;Cawkwell;;W0.08;N53.29;10;
2;England;Lincolnshire;Cawthorpe;;W0.38;N52.78;10;
2;England;Lincolnshire;Caythorpe;;W0.61;N53.02;10;
2;England;Lincolnshire;Chain Bridge;;W0.06;N52.96;10;
2;England;Lincolnshire;Chapel Hill;;W0.21;N53.07;10;
2;England;Lincolnshire;Chapel St Leonards;;E0.32;N53.22;10;
2;England;Lincolnshire;Chapelgate;;E0.08;N52.79;10;
2;England;Lincolnshire;Cherry Willingham;;W0.45;N53.23;10;
2;England;Lincolnshire;Church End;;W0.18;N52.88;10;
2;England;Lincolnshire;Church End;;E0.13;N53.43;10;
2;England;Lincolnshire;Church Town;;W0.82;N53.54;10;
2;England;Lincolnshire;Clark's Hill;;E0.04;N52.76;10;
2;England;Lincolnshire;Claxby;;E0.17;N53.21;10;
2;England;Lincolnshire;Claxby;;W0.33;N53.43;10;
2;England;Lincolnshire;Clay Lake;;W0.16;N52.77;10;
2;England;Lincolnshire;Claypole;;W0.73;N53.03;10;
2;England;Lincolnshire;Claythorpe;;E0.11;N53.28;10;
2;England;Lincolnshire;Cleethorpes;;W0.03;N53.55;10;
2;England;Lincolnshire;Clixby;;W0.34;N53.52;10;
2;England;Lincolnshire;Coates;;W0.63;N53.33;10;
2;England;Lincolnshire;Cold Hanworth;;W0.45;N53.33;10;
2;England;Lincolnshire;Cold Harbour;;W0.58;N52.89;10;
2;England;Lincolnshire;Coleby;;W0.55;N53.12;10;
2;England;Lincolnshire;Coleby;;W0.65;N53.66;10;
2;England;Lincolnshire;Colsterworth;;W0.63;N52.80;10;
2;England;Lincolnshire;Coningsby;;W0.17;N53.10;10;
2;England;Lincolnshire;Conisholme;;E0.10;N53.43;10;
2;England;Lincolnshire;Corby Glen;;W0.53;N52.81;10;
2;England;Lincolnshire;Corringham;;W0.69;N53.40;10;
2;England;Lincolnshire;Counter Drain;;W0.26;N52.76;10;
2;England;Lincolnshire;Covenham St Bartholomew;;E0.00;N53.42;10;
2;England;Lincolnshire;Covenham St Mary;;E0.00;N53.42;10;
2;England;Lincolnshire;Cowbit;;W0.13;N52.74;10;
2;England;Lincolnshire;Cowbridge;;W0.03;N53.00;10;
2;England;Lincolnshire;Cranwell;;W0.46;N53.02;10;
2;England;Lincolnshire;Creeton;;W0.50;N52.75;10;
2;England;Lincolnshire;Croft;;E0.24;N53.12;10;
2;England;Lincolnshire;Crosby;;W0.68;N53.58;10;
2;England;Lincolnshire;Cross Drain;;W0.23;N52.67;10;
2;England;Lincolnshire;Crossgate;;W0.16;N52.81;10;
2;England;Lincolnshire;Crowland;;W0.16;N52.67;10;
2;England;Lincolnshire;Crowle;;W0.83;N53.59;10;
2;England;Lincolnshire;Crowle Hill;;W0.83;N53.60;10;
2;England;Lincolnshire;Crowle Park;;W0.83;N53.59;10;
2;England;Lincolnshire;Croxby;;W0.20;N53.46;10;
2;England;Lincolnshire;Croxby Top;;W0.25;N53.46;10;
2;England;Lincolnshire;Croxton;;W0.35;N53.59;10;
2;England;Lincolnshire;Culverthorpe;;W0.48;N52.94;10;
2;England;Lincolnshire;Cumberworth;;E0.24;N53.23;10;
2;England;Lincolnshire;Cuxwold;;W0.23;N53.49;10;
2;England;Lincolnshire;Dalby;;E0.09;N53.20;10;
2;England;Lincolnshire;Dalderby;;W0.14;N53.17;10;
2;England;Lincolnshire;Dawsmere;;E0.13;N52.84;10;
2;England;Lincolnshire;Deeping St Nicholas;;W0.20;N52.71;10;
2;England;Lincolnshire;Dembleby;;W0.45;N52.92;10;
2;England;Lincolnshire;Denton;;W0.72;N52.87;10;
2;England;Lincolnshire;Derrythorpe;;W0.76;N53.56;10;
2;England;Lincolnshire;Devon;;W0.75;N52.90;10;
2;England;Lincolnshire;Dickon Hills;;E0.13;N53.08;10;
2;England;Lincolnshire;Digby;;W0.38;N53.07;10;
2;England;Lincolnshire;Doddington;;W0.65;N53.21;10;
2;England;Lincolnshire;Dogdyke;;W0.19;N53.07;10;
2;England;Lincolnshire;Don;;W0.99;N53.66;10;
2;England;Lincolnshire;Donington;;W0.20;N52.89;10;
2;England;Lincolnshire;Donington Eaudike;;W0.17;N52.90;10;
2;England;Lincolnshire;Donington on Bain;;W0.15;N53.32;10;
2;England;Lincolnshire;Donington South Ing;;W0.21;N52.89;10;
2;England;Lincolnshire;Donna Nook;;E0.13;N53.46;10;
2;England;Lincolnshire;Dorrington;;W0.40;N53.05;10;
2;England;Lincolnshire;Dovendale;;W0.04;N53.31;10;
2;England;Lincolnshire;Dowsby;;W0.35;N52.84;10;
2;England;Lincolnshire;Dowsdale;;W0.10;N52.67;10;
2;England;Lincolnshire;Dragonby;;W0.64;N53.61;10;
2;England;Lincolnshire;Drayton;;W0.15;N52.93;10;
2;England;Lincolnshire;Driby;;E0.06;N53.24;10;
2;England;Lincolnshire;Dry Doddington;;W0.73;N53.00;10;
2;England;Lincolnshire;Dunholme;;W0.47;N53.29;10;
2;England;Lincolnshire;Dunsby;;W0.36;N52.82;10;
2;England;Lincolnshire;Dunston;;W0.41;N53.14;10;
2;England;Lincolnshire;Dutch River;;W0.91;N53.68;10;
2;England;Lincolnshire;Dyke;;W0.37;N52.78;10;
2;England;Lincolnshire;Eagle;;W0.69;N53.19;10;
2;England;Lincolnshire;Eagle Barnsdale;;W0.68;N53.17;10;
2;England;Lincolnshire;Ealand;;W0.82;N53.59;10;
2;England;Lincolnshire;Earlsfield;;W0.66;N52.90;10;
2;England;Lincolnshire;East Barkwith;;W0.26;N53.31;10;
2;England;Lincolnshire;East Butterwick;;W0.74;N53.53;10;
2;England;Lincolnshire;East Ferry;;W0.78;N53.48;10;
2;England;Lincolnshire;East Firsby;;W0.49;N53.35;10;
2;England;Lincolnshire;East Glen;;W0.43;N52.79;10;
2;England;Lincolnshire;East Halton;;W0.29;N53.65;10;
2;England;Lincolnshire;East Halton Beck;;W0.30;N53.61;10;
2;England;Lincolnshire;East Heckington;;W0.22;N52.98;10;
2;England;Lincolnshire;East Keal;;E0.04;N53.14;10;
2;England;Lincolnshire;East Kirkby;;W0.01;N53.13;10;
2;England;Lincolnshire;East Lound;;W0.82;N53.48;10;
2;England;Lincolnshire;East Marsh;;W0.08;N53.57;10;
2;England;Lincolnshire;East Ravendale;;W0.14;N53.47;10;
2;England;Lincolnshire;East Stockwith;;W0.81;N53.43;10;
2;England;Lincolnshire;East Torrington;;W0.28;N53.33;10;
2;England;Lincolnshire;Eastoft;;W0.79;N53.63;10;
2;England;Lincolnshire;Easton;;W0.63;N52.82;10;
2;England;Lincolnshire;Eastville;;E0.08;N53.08;10;
2;England;Lincolnshire;Eau;;W0.67;N53.51;10;
2;England;Lincolnshire;Edenham;;W0.42;N52.77;10;
2;England;Lincolnshire;Edlington;;W0.15;N53.22;10;
2;England;Lincolnshire;Elsham;;W0.44;N53.59;10;
2;England;Lincolnshire;Epworth;;W0.82;N53.51;10;
2;England;Lincolnshire;Epworth Turbary;;W0.85;N53.51;10;
2;England;Lincolnshire;Ermine;;W0.54;N53.24;10;
2;England;Lincolnshire;Eskham;;E0.04;N53.46;10;
2;England;Lincolnshire;Evedon;;W0.37;N53.00;10;
2;England;Lincolnshire;Ewerby;;W0.33;N53.00;10;
2;England;Lincolnshire;Ewerby Thorpe;;W0.31;N53.00;10;
2;England;Lincolnshire;Faldingworth;;W0.40;N53.34;10;
2;England;Lincolnshire;Farforth;;W0.03;N53.28;10;
2;England;Lincolnshire;Farlesthorpe;;E0.20;N53.24;10;
2;England;Lincolnshire;Fen End;;W0.16;N52.76;10;
2;England;Lincolnshire;Fen Side;;E0.00;N53.10;10;
2;England;Lincolnshire;Fenhouses;;W0.14;N52.94;10;
2;England;Lincolnshire;Fenton;;W0.70;N53.04;10;
2;England;Lincolnshire;Fenton;;W0.74;N53.27;10;
2;England;Lincolnshire;Fillingham;;W0.58;N53.35;10;
2;England;Lincolnshire;Firsby;;E0.16;N53.14;10;
2;England;Lincolnshire;Fishmere End;;W0.11;N52.91;10;
2;England;Lincolnshire;Fishtoft;;E0.02;N52.95;10;
2;England;Lincolnshire;Fishtoft Drove;;W0.04;N53.02;10;
2;England;Lincolnshire;Fiskerton;;W0.44;N53.23;10;
2;England;Lincolnshire;Fleet;;E0.04;N52.78;10;
2;England;Lincolnshire;Fleet Hargate;;E0.06;N52.79;10;
2;England;Lincolnshire;Fleet Haven;;E0.11;N52.85;10;
2;England;Lincolnshire;Flixborough;;W0.68;N53.62;10;
2;England;Lincolnshire;Flixborough Stather;;W0.70;N53.61;10;
2;England;Lincolnshire;Fockerby;;W0.73;N53.66;10;
2;England;Lincolnshire;Fold Hill;;E0.17;N53.06;10;
2;England;Lincolnshire;Folkingham;;W0.41;N52.88;10;
2;England;Lincolnshire;Fordington;;E0.11;N53.21;10;
2;England;Lincolnshire;Fosdyke;;W0.05;N52.87;10;
2;England;Lincolnshire;Fosdyke Bridge;;W0.05;N52.86;10;
2;England;Lincolnshire;Fossdyke Navigation;;W0.61;N53.25;10;
2;England;Lincolnshire;Foston;;W0.73;N52.96;10;
2;England;Lincolnshire;Fotherby;;W0.03;N53.39;10;
2;England;Lincolnshire;Frampton;;W0.03;N52.93;10;
2;England;Lincolnshire;Frampton West End;;W0.06;N52.95;10;
2;England;Lincolnshire;Freiston;;E0.03;N52.97;10;
2;England;Lincolnshire;Freiston Shore;;E0.06;N52.95;10;
2;England;Lincolnshire;Freshney;;W0.14;N53.54;10;
2;England;Lincolnshire;Friesthorpe;;W0.39;N53.33;10;
2;England;Lincolnshire;Frieston;;W0.61;N53.01;10;
2;England;Lincolnshire;Friskney;;E0.17;N53.07;10;
2;England;Lincolnshire;Friskney Eaudyke;;E0.19;N53.07;10;
2;England;Lincolnshire;Frith Bank;;W0.04;N53.00;10;
2;England;Lincolnshire;Frithville;;W0.04;N53.03;10;
2;England;Lincolnshire;Frodingham;;W0.65;N53.58;10;
2;England;Lincolnshire;Frognall;;W0.28;N52.67;10;
2;England;Lincolnshire;Fulbeck;;W0.59;N53.03;10;
2;England;Lincolnshire;Fulletby;;W0.06;N53.23;10;
2;England;Lincolnshire;Fulnetby;;W0.36;N53.29;10;
2;England;Lincolnshire;Fulney;;W0.14;N52.79;10;
2;England;Lincolnshire;Fulstow;;W0.01;N53.45;10;
2;England;Lincolnshire;Gainsborough;;W0.78;N53.39;10;
2;England;Lincolnshire;Galley Hill;;E0.15;N53.28;10;
2;England;Lincolnshire;Garnsgate;;E0.08;N52.77;10;
2;England;Lincolnshire;Garthorpe;;W0.73;N53.66;10;
2;England;Lincolnshire;Gautby;;W0.24;N53.23;10;
2;England;Lincolnshire;Gayton Engine;;E0.17;N53.36;10;
2;England;Lincolnshire;Gayton le Marsh;;E0.13;N53.33;10;
2;England;Lincolnshire;Gayton le Wold;;W0.15;N53.34;10;
2;England;Lincolnshire;Gedney;;E0.07;N52.79;10;
2;England;Lincolnshire;Gedney Drove End;;E0.16;N52.83;10;
2;England;Lincolnshire;Gedney Dyke;;E0.09;N52.81;10;
2;England;Lincolnshire;Gedney Hill;;W0.03;N52.68;10;
2;England;Lincolnshire;Gelston;;W0.64;N52.99;10;
2;England;Lincolnshire;Gipsey Bridge;;W0.09;N53.02;10;
2;England;Lincolnshire;Girsby;;W0.18;N53.36;10;
2;England;Lincolnshire;Glen;;W0.27;N52.76;10;
2;England;Lincolnshire;Glentham;;W0.49;N53.39;10;
2;England;Lincolnshire;Glentworth;;W0.58;N53.38;10;
2;England;Lincolnshire;Gonerby Hill Foot;;W0.66;N52.92;10;
2;England;Lincolnshire;Gosberton;;W0.15;N52.86;10;
2;England;Lincolnshire;Gosberton Cheal;;W0.19;N52.83;10;
2;England;Lincolnshire;Gosberton Clough;;W0.23;N52.84;10;
2;England;Lincolnshire;Goulceby;;W0.12;N53.29;10;
2;England;Lincolnshire;Goxhill;;W0.33;N53.67;10;
2;England;Lincolnshire;Graby;;W0.38;N52.84;10;
2;England;Lincolnshire;Grainsby;;W0.08;N53.47;10;
2;England;Lincolnshire;Grainthorpe;;E0.07;N53.45;10;
2;England;Lincolnshire;Grainthorpe Fen;;E0.06;N53.43;10;
2;England;Lincolnshire;Graiselound;;W0.84;N53.47;10;
2;England;Lincolnshire;Grange;;W0.11;N53.55;10;
2;England;Lincolnshire;Grant Thorold;;W0.06;N53.56;10;
2;England;Lincolnshire;Grantham;;W0.64;N52.91;10;
2;England;Lincolnshire;Grantham Canal;;W0.65;N52.90;10;
2;England;Lincolnshire;Grasby;;W0.37;N53.52;10;
2;England;Lincolnshire;Grayingham;;W0.60;N53.45;10;
2;England;Lincolnshire;Great Carlton;;E0.11;N53.34;10;
2;England;Lincolnshire;Great Coates;;W0.14;N53.57;10;
2;England;Lincolnshire;Great Eau;;E0.20;N53.41;10;
2;England;Lincolnshire;Great Gonerby;;W0.67;N52.93;10;
2;England;Lincolnshire;Great Hale;;W0.30;N52.96;10;
2;England;Lincolnshire;Great Limber;;W0.29;N53.55;10;
2;England;Lincolnshire;Great Ponton;;W0.63;N52.85;10;
2;England;Lincolnshire;Great Steeping;;E0.15;N53.15;10;
2;England;Lincolnshire;Great Sturton;;W0.18;N53.26;10;
2;England;Lincolnshire;Great Tows;;W0.16;N53.39;10;
2;England;Lincolnshire;Greatford;;W0.40;N52.68;10;
2;England;Lincolnshire;Grebby;;E0.13;N53.19;10;
2;England;Lincolnshire;Green Hill;;W0.66;N52.91;10;
2;England;Lincolnshire;Greetham;;W0.05;N53.21;10;
2;England;Lincolnshire;Greetwell;;W0.58;N53.52;10;
2;England;Lincolnshire;Grey Green;;W0.82;N53.55;10;
2;England;Lincolnshire;Grimoldby;;E0.08;N53.37;10;
2;England;Lincolnshire;Grimsby;;W0.08;N53.56;10;
2;England;Lincolnshire;Grimsthorpe;;W0.45;N52.79;10;
2;England;Lincolnshire;Gunby;;W0.65;N52.77;10;
2;England;Lincolnshire;Gunby;;E0.18;N53.17;10;
2;England;Lincolnshire;Gunness;;W0.73;N53.58;10;
2;England;Lincolnshire;Gunthorpe;;W0.79;N53.45;10;
2;England;Lincolnshire;Guthram Gowt;;W0.26;N52.78;10;
2;England;Lincolnshire;Guy's Head;;E0.19;N52.80;10;
2;England;Lincolnshire;Habertoft;;E0.24;N53.19;10;
2;England;Lincolnshire;Habrough;;W0.27;N53.60;10;
2;England;Lincolnshire;Haceby;;W0.48;N52.91;10;
2;England;Lincolnshire;Hackthorn;;W0.51;N53.32;10;
2;England;Lincolnshire;Haconby;;W0.36;N52.81;10;
2;England;Lincolnshire;Haddington;;W0.64;N53.15;10;
2;England;Lincolnshire;Hagnaby;;E0.00;N53.13;10;
2;England;Lincolnshire;Hagnaby;;E0.21;N53.28;10;
2;England;Lincolnshire;Hagnaby Lock;;W0.01;N53.11;10;
2;England;Lincolnshire;Hagworthingham;;E0.00;N53.20;10;
2;England;Lincolnshire;Hainton;;W0.22;N53.34;10;
2;England;Lincolnshire;Halesgate;;W0.04;N52.81;10;
2;England;Lincolnshire;Hall End;;E0.13;N53.02;10;
2;England;Lincolnshire;Hallington;;W0.04;N53.34;10;
2;England;Lincolnshire;Haltham;;W0.14;N53.15;10;
2;England;Lincolnshire;Haltoft End;;E0.02;N52.98;10;
2;England;Lincolnshire;Halton Fenside;;E0.12;N53.14;10;
2;England;Lincolnshire;Halton Holegate;;E0.10;N53.16;10;
2;England;Lincolnshire;Hameringham;;W0.04;N53.18;10;
2;England;Lincolnshire;Hanby;;W0.48;N52.86;10;
2;England;Lincolnshire;Hannah;;E0.24;N53.28;10;
2;England;Lincolnshire;Hanthorpe;;W0.39;N52.80;10;
2;England;Lincolnshire;Hareby;;W0.01;N53.16;10;
2;England;Lincolnshire;Harlaxton;;W0.69;N52.87;10;
2;England;Lincolnshire;Harmston;;W0.55;N53.14;10;
2;England;Lincolnshire;Harpswell;;W0.60;N53.39;10;
2;England;Lincolnshire;Harrington;;E0.03;N53.21;10;
2;England;Lincolnshire;Hasthorpe;;E0.21;N53.19;10;
2;England;Lincolnshire;Hatcliffe;;W0.17;N53.48;10;
2;England;Lincolnshire;Hatton;;W0.24;N53.26;10;
2;England;Lincolnshire;Haugh;;E0.11;N53.25;10;
2;England;Lincolnshire;Haugham;;W0.01;N53.30;10;
2;England;Lincolnshire;Haven Bank;;W0.16;N53.05;10;
2;England;Lincolnshire;Hawthorn Hill;;W0.19;N53.07;10;
2;England;Lincolnshire;Hawthorpe;;W0.45;N52.83;10;
2;England;Lincolnshire;Haxey;;W0.85;N53.48;10;
2;England;Lincolnshire;Haxey Carr;;W0.87;N53.50;10;
2;England;Lincolnshire;Healing;;W0.17;N53.57;10;
2;England;Lincolnshire;Heapham;;W0.69;N53.38;10;
2;England;Lincolnshire;Heathfield;;W0.33;N53.42;10;
2;England;Lincolnshire;Heckington;;W0.30;N52.98;10;
2;England;Lincolnshire;Hedgehog Bridge;;W0.13;N52.99;10;
2;England;Lincolnshire;Heighington;;W0.45;N53.20;10;
2;England;Lincolnshire;Helpringham;;W0.31;N52.94;10;
2;England;Lincolnshire;Helsey;;E0.26;N53.22;10;
2;England;Lincolnshire;Hemingby;;W0.15;N53.24;10;
2;England;Lincolnshire;Hemswell;;W0.61;N53.40;10;
2;England;Lincolnshire;Hemswell Cliff;;W0.57;N53.38;10;
2;England;Lincolnshire;Heydour;;W0.51;N52.93;10;
2;England;Lincolnshire;Hibaldstow;;W0.53;N53.50;10;
2;England;Lincolnshire;High Barn;;E0.03;N53.15;10;
2;England;Lincolnshire;High Ferry;;E0.01;N53.02;10;
2;England;Lincolnshire;High Risby;;W0.62;N53.61;10;
2;England;Lincolnshire;High Toynton;;W0.08;N53.20;10;
2;England;Lincolnshire;Hilldyke;;E0.00;N53.00;10;
2;England;Lincolnshire;Hobhole Drain;;E0.03;N52.99;10;
2;England;Lincolnshire;Hoffleet Stow;;W0.15;N52.91;10;
2;England;Lincolnshire;Hogsthorpe;;E0.29;N53.22;10;
2;England;Lincolnshire;Holbeach;;E0.01;N52.80;10;
2;England;Lincolnshire;Holbeach Bank;;E0.00;N52.82;10;
2;England;Lincolnshire;Holbeach Clough;;W0.01;N52.82;10;
2;England;Lincolnshire;Holbeach Drove;;W0.04;N52.68;10;
2;England;Lincolnshire;Holbeach Hurn;;E0.06;N52.82;10;
2;England;Lincolnshire;Holbeach St Johns;;W0.01;N52.74;10;
2;England;Lincolnshire;Holbeach St Marks;;E0.03;N52.85;10;
2;England;Lincolnshire;Holbeach St Matthew;;E0.09;N52.86;10;
2;England;Lincolnshire;Holdingham;;W0.43;N53.01;10;
2;England;Lincolnshire;Holland Fen;;W0.16;N53.02;10;
2;England;Lincolnshire;Holme;;W0.61;N53.54;10;
2;England;Lincolnshire;Holme Hill;;W0.08;N53.56;10;
2;England;Lincolnshire;Holton cum Beckering;;W0.33;N53.31;10;
2;England;Lincolnshire;Holton le Clay;;W0.07;N53.49;10;
2;England;Lincolnshire;Holton le Moor;;W0.37;N53.45;10;
2;England;Lincolnshire;Honington;;W0.60;N52.97;10;
2;England;Lincolnshire;Hop Pole;;W0.25;N52.70;10;
2;England;Lincolnshire;Horbling;;W0.35;N52.90;10;
2;England;Lincolnshire;Horkstow;;W0.51;N53.64;10;
2;England;Lincolnshire;Horkstow Wolds;;W0.50;N53.65;10;
2;England;Lincolnshire;Horncastle;;W0.11;N53.20;10;
2;England;Lincolnshire;Horsington;;W0.21;N53.19;10;
2;England;Lincolnshire;Hougham;;W0.69;N52.98;10;
2;England;Lincolnshire;Hough-on-the-Hill;;W0.63;N53.00;10;
2;England;Lincolnshire;Howell;;W0.31;N52.99;10;
2;England;Lincolnshire;Howsham;;W0.43;N53.52;10;
2;England;Lincolnshire;Hubbert's Bridge;;W0.12;N52.96;10;
2;England;Lincolnshire;Humberston;;W0.02;N53.52;10;
2;England;Lincolnshire;Humberston Fitties;;E0.01;N53.52;10;
2;England;Lincolnshire;Humby;;W0.51;N52.87;10;
2;England;Lincolnshire;Hundle Houses;;W0.15;N53.06;10;
2;England;Lincolnshire;Hundleby;;E0.06;N53.17;10;
2;England;Lincolnshire;Hungerton;;W0.70;N52.86;10;
2;England;Lincolnshire;Hurn's End;;E0.11;N53.01;10;
2;England;Lincolnshire;Huttoft;;E0.26;N53.25;10;
2;England;Lincolnshire;Immingham;;W0.21;N53.60;10;
2;England;Lincolnshire;Ingham;;W0.58;N53.33;10;
2;England;Lincolnshire;Ingoldmells;;E0.33;N53.18;10;
2;England;Lincolnshire;Ingoldsby;;W0.50;N52.85;10;
2;England;Lincolnshire;Irby in the Marsh;;E0.19;N53.14;10;
2;England;Lincolnshire;Irby upon Humber;;W0.20;N53.51;10;
2;England;Lincolnshire;Irnham;;W0.48;N52.82;10;
2;England;Lincolnshire;Island Carr;;W0.50;N53.54;10;
2;England;Lincolnshire;Isle of Axholme;;W0.82;N53.54;10;
2;England;Lincolnshire;Keadby;;W0.74;N53.58;10;
2;England;Lincolnshire;Keal Cotes;;E0.03;N53.12;10;
2;England;Lincolnshire;Keddington;;E0.01;N53.37;10;
2;England;Lincolnshire;Keddington Corner;;E0.02;N53.38;10;
2;England;Lincolnshire;Keelby;;W0.24;N53.57;10;
2;England;Lincolnshire;Keisby;;W0.47;N52.84;10;
2;England;Lincolnshire;Kelby;;W0.51;N52.95;10;
2;England;Lincolnshire;Kelfield;;W0.76;N53.49;10;
2;England;Lincolnshire;Kelstern;;W0.12;N53.39;10;
2;England;Lincolnshire;Ketsby;;E0.03;N53.26;10;
2;England;Lincolnshire;Kettlethorpe;;W0.74;N53.26;10;
2;England;Lincolnshire;Kexby;;W0.69;N53.35;10;
2;England;Lincolnshire;Kingerby;;W0.42;N53.41;10;
2;England;Lincolnshire;Kingerby Beck;;W0.35;N53.42;10;
2;England;Lincolnshire;Kirkby;;W0.40;N53.41;10;
2;England;Lincolnshire;Kirkby Fenside;;W0.02;N53.13;10;
2;England;Lincolnshire;Kirkby Green;;W0.38;N53.09;10;
2;England;Lincolnshire;Kirkby la Thorpe;;W0.37;N52.99;10;
2;England;Lincolnshire;Kirkby on Bain;;W0.14;N53.14;10;
2;England;Lincolnshire;Kirkby Underwood;;W0.41;N52.83;10;
2;England;Lincolnshire;Kirmington;;W0.33;N53.58;10;
2;England;Lincolnshire;Kirmond le Mire;;W0.22;N53.41;10;
2;England;Lincolnshire;Kirton;;W0.06;N52.92;10;
2;England;Lincolnshire;Kirton End;;W0.09;N52.94;10;
2;England;Lincolnshire;Kirton Holme;;W0.12;N52.95;10;
2;England;Lincolnshire;Kirton in Lindsey;;W0.60;N53.47;10;
2;England;Lincolnshire;Knaith Park;;W0.73;N53.35;10;
2;England;Lincolnshire;Laceby;;W0.17;N53.53;10;
2;England;Lincolnshire;Laceby Acres;;W0.14;N53.54;10;
2;England;Lincolnshire;Lade Bank;;E0.07;N53.06;10;
2;England;Lincolnshire;Langrick;;W0.12;N53.01;10;
2;England;Lincolnshire;Langrick Bridge;;W0.12;N53.00;10;
2;England;Lincolnshire;Langtoft;;W0.34;N52.69;10;
2;England;Lincolnshire;Langton;;W0.16;N53.19;10;
2;England;Lincolnshire;Langton;;E0.08;N53.20;10;
2;England;Lincolnshire;Langton by Wragby;;W0.29;N53.26;10;
2;England;Lincolnshire;Langworth;;W0.42;N53.27;10;
2;England;Lincolnshire;Laughterton;;W0.75;N53.26;10;
2;England;Lincolnshire;Laughton;;W0.41;N52.86;10;
2;England;Lincolnshire;Laughton;;W0.73;N53.46;10;
2;England;Lincolnshire;Lea;;W0.76;N53.36;10;
2;England;Lincolnshire;Leadenham;;W0.58;N53.05;10;
2;England;Lincolnshire;Leake;;E0.11;N53.01;10;
2;England;Lincolnshire;Leake Commonside;;E0.07;N53.04;10;
2;England;Lincolnshire;Leake Fold Hill;;E0.08;N53.03;10;
2;England;Lincolnshire;Leasingham;;W0.43;N53.01;10;
2;England;Lincolnshire;Legbourne;;E0.04;N53.33;10;
2;England;Lincolnshire;Legsby;;W0.30;N53.35;10;
2;England;Lincolnshire;Lenton;;W0.48;N52.85;10;
2;England;Lincolnshire;Leverton;;E0.07;N53.00;10;
2;England;Lincolnshire;Leverton Highgate;;E0.08;N53.00;10;
2;England;Lincolnshire;Leverton Lucasgate;;E0.09;N53.00;10;
2;England;Lincolnshire;Leverton Outgate;;E0.11;N53.01;10;
2;England;Lincolnshire;Lincoln;;W0.54;N53.22;10;
2;England;Lincolnshire;Linwood;;W0.34;N53.35;10;
2;England;Lincolnshire;Lissington;;W0.34;N53.33;10;
2;England;Lincolnshire;Listoft;;E0.26;N53.22;10;
2;England;Lincolnshire;Little Bytham;;W0.50;N52.74;10;
2;England;Lincolnshire;Little Carlton;;E0.08;N53.34;10;
2;England;Lincolnshire;Little Cawthorpe;;E0.02;N53.32;10;
2;England;Lincolnshire;Little Coates;;W0.12;N53.55;10;
2;England;Lincolnshire;Little Common;;W0.01;N52.82;10;
2;England;Lincolnshire;Little Grimsby;;W0.01;N53.39;10;
2;England;Lincolnshire;Little Hale;;W0.30;N52.95;10;
2;England;Lincolnshire;Little Limber;;W0.30;N53.57;10;
2;England;Lincolnshire;Little London;;W0.17;N52.76;10;
2;England;Lincolnshire;Little London;;E0.11;N52.78;10;
2;England;Lincolnshire;Little London;;W0.01;N53.25;10;
2;England;Lincolnshire;Little London;;W0.28;N53.35;10;
2;England;Lincolnshire;Little Ponton;;W0.63;N52.87;10;
2;England;Lincolnshire;Little Steeping;;E0.13;N53.13;10;
2;England;Lincolnshire;Little Sutton;;E0.14;N52.77;10;
2;England;Lincolnshire;Little Welton;;W0.04;N53.36;10;
2;England;Lincolnshire;Little Wisbeach;;W0.33;N52.86;10;
2;England;Lincolnshire;Littlefield;;W0.09;N53.55;10;
2;England;Lincolnshire;Lobthorpe;;W0.59;N52.76;10;
2;England;Lincolnshire;Londonthorpe;;W0.58;N52.92;10;
2;England;Lincolnshire;Long Bennington;;W0.76;N52.98;10;
2;England;Lincolnshire;Long Sutton;;E0.11;N52.77;10;
2;England;Lincolnshire;Loosegate;;W0.05;N52.80;10;
2;England;Lincolnshire;Louth;;W0.00;N53.36;10;
2;England;Lincolnshire;Louth Canal;;E0.02;N53.49;10;
2;England;Lincolnshire;Low Barlings;;W0.38;N53.24;10;
2;England;Lincolnshire;Low Burnham;;W0.82;N53.50;10;
2;England;Lincolnshire;Low Fulney;;W0.13;N52.77;10;
2;England;Lincolnshire;Low Risby;;W0.59;N53.61;10;
2;England;Lincolnshire;Low Toynton;;W0.09;N53.21;10;
2;England;Lincolnshire;Lower Bassingthorpe;;W0.57;N52.85;10;
2;England;Lincolnshire;Ludborough;;W0.05;N53.43;10;
2;England;Lincolnshire;Luddington;;W0.76;N53.63;10;
2;England;Lincolnshire;Ludford;;W0.21;N53.38;10;
2;England;Lincolnshire;Ludney;;E0.09;N53.43;10;
2;England;Lincolnshire;Lusby;;W0.01;N53.18;10;
2;England;Lincolnshire;Lutton;;E0.12;N52.80;10;
2;England;Lincolnshire;Lutton Gowts;;E0.11;N52.79;10;
2;England;Lincolnshire;Mablethorpe;;E0.25;N53.34;10;
2;England;Lincolnshire;Maidenwell;;W0.02;N53.29;10;
2;England;Lincolnshire;Maltby;;W0.03;N53.33;10;
2;England;Lincolnshire;Maltby le Marsh;;E0.18;N53.30;10;
2;England;Lincolnshire;Manby;;E0.08;N53.35;10;
2;England;Lincolnshire;Manor Hill Corner;;E0.07;N52.73;10;
2;England;Lincolnshire;Manthorpe;;W0.41;N52.72;10;
2;England;Lincolnshire;Manthorpe;;W0.64;N52.92;10;
2;England;Lincolnshire;Manton;;W0.59;N53.50;10;
2;England;Lincolnshire;Manton Warren;;W0.59;N53.53;10;
2;England;Lincolnshire;Mareham le Fen;;W0.10;N53.13;10;
2;England;Lincolnshire;Mareham on the Hill;;W0.08;N53.19;10;
2;England;Lincolnshire;Markby;;E0.21;N53.27;10;
2;England;Lincolnshire;Market Deeping;;W0.32;N52.67;10;
2;England;Lincolnshire;Market Rasen;;W0.34;N53.38;10;
2;England;Lincolnshire;Market Stainton;;W0.17;N53.29;10;
2;England;Lincolnshire;Marshchapel;;E0.03;N53.47;10;
2;England;Lincolnshire;Marston;;W0.67;N52.97;10;
2;England;Lincolnshire;Martin;;W0.32;N53.11;10;
2;England;Lincolnshire;Martin;;W0.16;N53.17;10;
2;England;Lincolnshire;Martin Dales;;W0.25;N53.13;10;
2;England;Lincolnshire;Martin Moor;;W0.19;N53.15;10;
2;England;Lincolnshire;Marton;;W0.75;N53.31;10;
2;England;Lincolnshire;Mavis Enderby;;E0.03;N53.17;10;
2;England;Lincolnshire;Mawthorpe;;E0.17;N53.22;10;
2;England;Lincolnshire;Medlam;;W0.04;N53.08;10;
2;England;Lincolnshire;Melton Ross;;W0.38;N53.57;10;
2;England;Lincolnshire;Messingham;;W0.65;N53.52;10;
2;England;Lincolnshire;Metheringham;;W0.41;N53.13;10;
2;England;Lincolnshire;Middle Rasen;;W0.37;N53.38;10;
2;England;Lincolnshire;Midville;;E0.05;N53.08;10;
2;England;Lincolnshire;Mill Hill;;E0.28;N53.16;10;
2;England;Lincolnshire;Mill Place;;W0.52;N53.54;10;
2;England;Lincolnshire;Millthorpe;;W0.35;N52.85;10;
2;England;Lincolnshire;Miningsby;;W0.02;N53.15;10;
2;England;Lincolnshire;Minting;;W0.23;N53.24;10;
2;England;Lincolnshire;Monksthorpe;;E0.15;N53.16;10;
2;England;Lincolnshire;Moor Side;;W0.14;N53.09;10;
2;England;Lincolnshire;Moorby;;W0.07;N53.15;10;
2;England;Lincolnshire;Moorhouses;;W0.10;N53.08;10;
2;England;Lincolnshire;Moortown;;W0.38;N53.47;10;
2;England;Lincolnshire;Morton;;W0.38;N52.80;10;
2;England;Lincolnshire;Morton;;W0.68;N53.15;10;
2;England;Lincolnshire;Moulton;;W0.07;N52.79;10;
2;England;Lincolnshire;Moulton Chapel;;W0.09;N52.74;10;
2;England;Lincolnshire;Moulton Eaugate;;W0.07;N52.72;10;
2;England;Lincolnshire;Moulton Seas End;;W0.04;N52.82;10;
2;England;Lincolnshire;Muckton;;E0.05;N53.30;10;
2;England;Lincolnshire;Muckton Bottom;;E0.04;N53.31;10;
2;England;Lincolnshire;Mumby;;E0.26;N53.24;10;
2;England;Lincolnshire;Navenby;;W0.53;N53.10;10;
2;England;Lincolnshire;Nene;;E0.19;N52.76;10;
2;England;Lincolnshire;Nettleham;;W0.50;N53.26;10;
2;England;Lincolnshire;Nettleton;;W0.34;N53.48;10;
2;England;Lincolnshire;Nettleton Top;;W0.32;N53.46;10;
2;England;Lincolnshire;New Barnetby;;W0.38;N53.57;10;
2;England;Lincolnshire;New Bolingbroke;;W0.05;N53.09;10;
2;England;Lincolnshire;New Boultham;;W0.56;N53.21;10;
2;England;Lincolnshire;New End;;W0.15;N53.24;10;
2;England;Lincolnshire;New England;;E0.23;N53.10;10;
2;England;Lincolnshire;New Holland;;W0.36;N53.69;10;
2;England;Lincolnshire;New Leake;;E0.08;N53.08;10;
2;England;Lincolnshire;New River;;W0.20;N52.66;10;
2;England;Lincolnshire;New River Ancholme;;W0.48;N53.48;10;
2;England;Lincolnshire;New River Ancholme;;W0.48;N53.50;10;
2;England;Lincolnshire;New Waltham;;W0.07;N53.51;10;
2;England;Lincolnshire;New York;;W0.15;N53.07;10;
2;England;Lincolnshire;Newball;;W0.39;N53.27;10;
2;England;Lincolnshire;Newham;;W0.09;N53.03;10;
2;England;Lincolnshire;Newtoft;;W0.43;N53.36;10;
2;England;Lincolnshire;Newton;;W0.45;N52.91;10;
2;England;Lincolnshire;Newton by Toft;;W0.42;N53.36;10;
2;England;Lincolnshire;Newton on Trent;;W0.75;N53.25;10;
2;England;Lincolnshire;Nocton;;W0.43;N53.16;10;
2;England;Lincolnshire;Normanby;;W0.67;N53.63;10;
2;England;Lincolnshire;Normanby by Stow;;W0.67;N53.33;10;
2;England;Lincolnshire;Normanby le Wold;;W0.31;N53.44;10;
2;England;Lincolnshire;Normanby-by-Spital;;W0.49;N53.37;10;
2;England;Lincolnshire;Normanton;;W0.60;N53.00;10;
2;England;Lincolnshire;North Beck;;W0.47;N52.94;10;
2;England;Lincolnshire;North Carlton;;W0.59;N53.28;10;
2;England;Lincolnshire;North Cockerington;;E0.05;N53.38;10;
2;England;Lincolnshire;North Cotes;;E0.01;N53.48;10;
2;England;Lincolnshire;North Elkington;;W0.07;N53.39;10;
2;England;Lincolnshire;North End;;W0.17;N52.95;10;
2;England;Lincolnshire;North End;;E0.23;N53.35;10;
2;England;Lincolnshire;North End;;E0.13;N53.37;10;
2;England;Lincolnshire;North End;;E0.02;N53.40;10;
2;England;Lincolnshire;North End;;W0.43;N53.47;10;
2;England;Lincolnshire;North End;;W0.02;N53.48;10;
2;England;Lincolnshire;North End;;W0.33;N53.68;10;
2;England;Lincolnshire;North Ewster;;W0.74;N53.51;10;
2;England;Lincolnshire;North Greetwell;;W0.48;N53.24;10;
2;England;Lincolnshire;North Hykeham;;W0.59;N53.18;10;
2;England;Lincolnshire;North Kelsey;;W0.43;N53.49;10;
2;England;Lincolnshire;North Kelsey Beck;;W0.45;N53.50;10;
2;England;Lincolnshire;North Kelsey Moor;;W0.38;N53.50;10;
2;England;Lincolnshire;North Killingholme;;W0.27;N53.63;10;
2;England;Lincolnshire;North Kyme;;W0.28;N53.05;10;
2;England;Lincolnshire;North Level Main Drain;;E0.01;N52.66;10;
2;England;Lincolnshire;North Ormsby;;W0.07;N53.41;10;
2;England;Lincolnshire;North Owersby;;W0.40;N53.43;10;
2;England;Lincolnshire;North Rauceby;;W0.48;N53.00;10;
2;England;Lincolnshire;North Reston;;E0.07;N53.32;10;
2;England;Lincolnshire;North Scarle;;W0.74;N53.18;10;
2;England;Lincolnshire;North Somercotes;;E0.13;N53.44;10;
2;England;Lincolnshire;North Thoresby;;W0.05;N53.46;10;
2;England;Lincolnshire;North Willingham;;W0.25;N53.37;10;
2;England;Lincolnshire;North Witham;;W0.63;N52.77;10;
2;England;Lincolnshire;Northbeck;;W0.37;N52.95;10;
2;England;Lincolnshire;Northgate;;W0.23;N52.81;10;
2;England;Lincolnshire;Northlands;;E0.00;N53.05;10;
2;England;Lincolnshire;Northorpe;;W0.38;N52.73;10;
2;England;Lincolnshire;Northorpe;;W0.21;N52.90;10;
2;England;Lincolnshire;Northorpe;;W0.66;N53.46;10;
2;England;Lincolnshire;Norton Disney;;W0.68;N53.12;10;
2;England;Lincolnshire;Nunsthorpe;;W0.11;N53.54;10;
2;England;Lincolnshire;Oasby;;W0.51;N52.93;10;
2;England;Lincolnshire;Obthorpe Lodge;;W0.37;N52.72;10;
2;England;Lincolnshire;Old Bolingbroke;;E0.01;N53.15;10;
2;England;Lincolnshire;Old Clee;;W0.05;N53.55;10;
2;England;Lincolnshire;Old Gate;;E0.08;N52.75;10;
2;England;Lincolnshire;Old Leake;;E0.08;N53.02;10;
2;England;Lincolnshire;Old River Ancholme;;W0.49;N53.55;10;
2;England;Lincolnshire;Old River Ancholme;;W0.49;N53.57;10;
2;England;Lincolnshire;Old River Witham;;W0.35;N53.22;10;
2;England;Lincolnshire;Old Somerby;;W0.57;N52.88;10;
2;England;Lincolnshire;Old Woodhall;;W0.19;N53.18;10;
2;England;Lincolnshire;Orby;;E0.22;N53.17;10;
2;England;Lincolnshire;Osbournby;;W0.42;N52.92;10;
2;England;Lincolnshire;Osgodby;;W0.39;N53.41;10;
2;England;Lincolnshire;Otby;;W0.30;N53.42;10;
2;England;Lincolnshire;Owmby;;W0.38;N53.52;10;
2;England;Lincolnshire;Owmby-by-Spital;;W0.49;N53.37;10;
2;England;Lincolnshire;Owston Ferry;;W0.79;N53.49;10;
2;England;Lincolnshire;Oxcombe;;W0.03;N53.27;10;
2;England;Lincolnshire;Panton;;W0.24;N53.28;10;
2;England;Lincolnshire;Partney;;E0.10;N53.19;10;
2;England;Lincolnshire;Peak Hill;;W0.13;N52.72;10;
2;England;Lincolnshire;Pickworth;;W0.45;N52.88;10;
2;England;Lincolnshire;Pilham;;W0.70;N53.42;10;
2;England;Lincolnshire;Pinchbeck;;W0.17;N52.80;10;
2;England;Lincolnshire;Pinchbeck West;;W0.22;N52.80;10;
2;England;Lincolnshire;Pinchbeck West;;W0.23;N52.80;10;
2;England;Lincolnshire;Pode Hole;;W0.20;N52.78;10;
2;England;Lincolnshire;Pointon;;W0.35;N52.86;10;
2;England;Lincolnshire;Poplar Grove;;E0.13;N53.45;10;
2;England;Lincolnshire;Port Sutton Bridge;;E0.19;N52.77;10;
2;England;Lincolnshire;Potterhanworth;;W0.43;N53.18;10;
2;England;Lincolnshire;Potterhanworth Booths;;W0.39;N53.18;10;
2;England;Lincolnshire;Pyewipe;;W0.12;N53.58;10;
2;England;Lincolnshire;Quadring;;W0.18;N52.88;10;
2;England;Lincolnshire;Quadring Eaudike;;W0.15;N52.88;10;
2;England;Lincolnshire;Quarrington;;W0.43;N52.98;10;
2;England;Lincolnshire;Raithby;;E0.04;N53.18;10;
2;England;Lincolnshire;Raithby;;W0.03;N53.33;10;
2;England;Lincolnshire;Ranby;;W0.17;N53.28;10;
2;England;Lincolnshire;Rand;;W0.35;N53.28;10;
2;England;Lincolnshire;Rase;;W0.35;N53.38;10;
2;England;Lincolnshire;Read's Island;;W0.53;N53.68;10;
2;England;Lincolnshire;Reasby;;W0.41;N53.29;10;
2;England;Lincolnshire;Rectory;;W0.32;N52.67;10;
2;England;Lincolnshire;Redbourne;;W0.53;N53.47;10;
2;England;Lincolnshire;Reed Point;;W0.11;N52.89;10;
2;England;Lincolnshire;Reed Point;;W0.21;N53.04;10;
2;England;Lincolnshire;Reedham;;W0.14;N53.08;10;
2;England;Lincolnshire;Reepham;;W0.45;N53.24;10;
2;England;Lincolnshire;Revesby;;W0.07;N53.13;10;
2;England;Lincolnshire;Revesby Bridge;;W0.05;N53.12;10;
2;England;Lincolnshire;Riby;;W0.22;N53.54;10;
2;England;Lincolnshire;Rigsby;;E0.14;N53.25;10;
2;England;Lincolnshire;Rimac;;E0.19;N53.39;10;
2;England;Lincolnshire;Rippingale;;W0.38;N52.83;10;
2;England;Lincolnshire;Risby;;W0.28;N53.40;10;
2;England;Lincolnshire;Risegate;;W0.21;N52.84;10;
2;England;Lincolnshire;Riseholme;;W0.53;N53.26;10;
2;England;Lincolnshire;Ropsley;;W0.52;N52.89;10;
2;England;Lincolnshire;Rothwell;;W0.26;N53.47;10;
2;England;Lincolnshire;Roughton;;W0.14;N53.15;10;
2;England;Lincolnshire;Roughton Moor;;W0.19;N53.15;10;
2;England;Lincolnshire;Rowston;;W0.38;N53.09;10;
2;England;Lincolnshire;Roxby;;W0.61;N53.63;10;
2;England;Lincolnshire;Ruckland;;W0.01;N53.28;10;
2;England;Lincolnshire;Ruskington;;W0.39;N53.03;10;
2;England;Lincolnshire;Saleby;;E0.17;N53.27;10;
2;England;Lincolnshire;Salmonby;;W0.02;N53.23;10;
2;England;Lincolnshire;Saltfleet;;E0.18;N53.41;10;
2;England;Lincolnshire;Saltfleetby All Saints;;E0.17;N53.38;10;
2;England;Lincolnshire;Saltfleetby St Clement;;E0.17;N53.39;10;
2;England;Lincolnshire;Saltfleetby St Peter;;E0.14;N53.37;10;
2;England;Lincolnshire;Sandbraes;;W0.32;N53.49;10;
2;England;Lincolnshire;Sandholme;;W0.02;N52.91;10;
2;England;Lincolnshire;Sandilands;;E0.27;N53.29;10;
2;England;Lincolnshire;Sandtoft;;W0.88;N53.56;10;
2;England;Lincolnshire;Sandy Bank;;W0.12;N53.07;10;
2;England;Lincolnshire;Santon;;W0.61;N53.59;10;
2;England;Lincolnshire;Sapperton;;W0.50;N52.88;10;
2;England;Lincolnshire;Saracen's Head;;W0.01;N52.82;10;
2;England;Lincolnshire;Sausthorpe;;E0.06;N53.20;10;
2;England;Lincolnshire;Saxby;;W0.49;N53.36;10;
2;England;Lincolnshire;Saxby All Saints;;W0.50;N53.63;10;
2;England;Lincolnshire;Saxilby;;W0.66;N53.26;10;
2;England;Lincolnshire;Scamblesby;;W0.09;N53.28;10;
2;England;Lincolnshire;Scampton;;W0.59;N53.30;10;
2;England;Lincolnshire;Scartho;;W0.10;N53.53;10;
2;England;Lincolnshire;Scawby;;W0.55;N53.53;10;
2;England;Lincolnshire;Scopwick;;W0.40;N53.10;10;
2;England;Lincolnshire;Scothern;;W0.45;N53.28;10;
2;England;Lincolnshire;Scotland;;W0.51;N52.85;10;
2;England;Lincolnshire;Scott Willoughby;;W0.43;N52.92;10;
2;England;Lincolnshire;Scotter;;W0.67;N53.48;10;
2;England;Lincolnshire;Scotterthorpe;;W0.68;N53.50;10;
2;England;Lincolnshire;Scotton;;W0.67;N53.48;10;
2;England;Lincolnshire;Scrafield;;W0.05;N53.19;10;
2;England;Lincolnshire;Scrane End;;E0.05;N52.94;10;
2;England;Lincolnshire;Scredington;;W0.37;N52.94;10;
2;England;Lincolnshire;Scremby;;E0.15;N53.18;10;
2;England;Lincolnshire;Scrivelsby;;W0.11;N53.17;10;
2;England;Lincolnshire;Scrub Hill;;W0.16;N53.07;10;
2;England;Lincolnshire;Scunthorpe;;W0.65;N53.57;10;
2;England;Lincolnshire;Seacroft;;E0.32;N53.11;10;
2;England;Lincolnshire;Seadyke;;W0.03;N52.90;10;
2;England;Lincolnshire;Searby;;W0.38;N53.53;10;
2;England;Lincolnshire;Seathorne;;E0.34;N53.15;10;
2;England;Lincolnshire;Sedgebrook;;W0.73;N52.92;10;
2;England;Lincolnshire;Sempringham;;W0.35;N52.88;10;
2;England;Lincolnshire;Shepeau Stow;;W0.07;N52.69;10;
2;England;Lincolnshire;Sibsey;;E0.01;N53.03;10;
2;England;Lincolnshire;Sibsey Fen Side;;E0.00;N53.04;10;
2;England;Lincolnshire;Silk Willoughby;;W0.43;N52.96;10;
2;England;Lincolnshire;Sixhills;;W0.24;N53.36;10;
2;England;Lincolnshire;Skegness;;E0.33;N53.14;10;
2;England;Lincolnshire;Skeldyke;;W0.02;N52.91;10;
2;England;Lincolnshire;Skellingthorpe;;W0.62;N53.22;10;
2;England;Lincolnshire;Skendleby;;E0.13;N53.19;10;
2;England;Lincolnshire;Skendleby Psalter;;E0.14;N53.21;10;
2;England;Lincolnshire;Skerth Drain;;W0.19;N53.00;10;
2;England;Lincolnshire;Skidbrooke;;E0.16;N53.40;10;
2;England;Lincolnshire;Skidbrooke North End;;E0.16;N53.42;10;
2;England;Lincolnshire;Skillington;;W0.68;N52.81;10;
2;England;Lincolnshire;Skirbeck;;W0.02;N52.96;10;
2;England;Lincolnshire;Skirbeck Quarter;;W0.03;N52.95;10;
2;England;Lincolnshire;Slackholme End;;E0.28;N53.20;10;
2;England;Lincolnshire;Slea;;W0.42;N52.99;10;
2;England;Lincolnshire;Sleaford;;W0.42;N52.99;10;
2;England;Lincolnshire;Sloothby;;E0.22;N53.20;10;
2;England;Lincolnshire;Small End;;E0.14;N53.07;10;
2;England;Lincolnshire;Snarford;;W0.42;N53.32;10;
2;England;Lincolnshire;Snelland;;W0.39;N53.30;10;
2;England;Lincolnshire;Snitterby;;W0.52;N53.43;10;
2;England;Lincolnshire;Somerby;;W0.40;N53.54;10;
2;England;Lincolnshire;Somersby;;E0.01;N53.22;10;
2;England;Lincolnshire;Sotby;;W0.20;N53.28;10;
2;England;Lincolnshire;Sots Hole;;W0.32;N53.16;10;
2;England;Lincolnshire;South Carlton;;W0.57;N53.27;10;
2;England;Lincolnshire;South Cockerington;;E0.05;N53.37;10;
2;England;Lincolnshire;South Elkington;;W0.06;N53.37;10;
2;England;Lincolnshire;South End;;W0.32;N53.66;10;
2;England;Lincolnshire;South Ferriby;;W0.51;N53.66;10;
2;England;Lincolnshire;South Forty Foot Drain;;W0.25;N52.90;10;
2;England;Lincolnshire;South Holland Main Drain;;E0.15;N52.75;10;
2;England;Lincolnshire;South Hykeham;;W0.61;N53.16;10;
2;England;Lincolnshire;South Kelsey;;W0.43;N53.46;10;
2;England;Lincolnshire;South Killingholme;;W0.27;N53.62;10;
2;England;Lincolnshire;South Kyme;;W0.25;N53.02;10;
2;England;Lincolnshire;South Ormsby;;E0.05;N53.25;10;
2;England;Lincolnshire;South Owersby;;W0.40;N53.42;10;
2;England;Lincolnshire;South Rauceby;;W0.48;N52.99;10;
2;England;Lincolnshire;South Reston;;E0.10;N53.32;10;
2;England;Lincolnshire;South Somercotes;;E0.12;N53.41;10;
2;England;Lincolnshire;South Thoresby;;E0.09;N53.26;10;
2;England;Lincolnshire;South Willingham;;W0.21;N53.33;10;
2;England;Lincolnshire;South Witham;;W0.63;N52.76;10;
2;England;Lincolnshire;Southrey;;W0.31;N53.17;10;
2;England;Lincolnshire;Spalding;;W0.16;N52.78;10;
2;England;Lincolnshire;Spanby;;W0.37;N52.92;10;
2;England;Lincolnshire;Spilsby;;E0.09;N53.17;10;
2;England;Lincolnshire;Spital in the Street;;W0.55;N53.39;10;
2;England;Lincolnshire;Spittlegate;;W0.64;N52.89;10;
2;England;Lincolnshire;Spridlington;;W0.49;N53.34;10;
2;England;Lincolnshire;Springthorpe;;W0.69;N53.39;10;
2;England;Lincolnshire;St Giles;;W0.53;N53.23;10;
2;England;Lincolnshire;Stainby;;W0.66;N52.78;10;
2;England;Lincolnshire;Stainfield;;W0.41;N52.81;10;
2;England;Lincolnshire;Stainfield;;W0.33;N53.24;10;
2;England;Lincolnshire;Stainforth and Keadby Canal;;W0.75;N53.59;10;
2;England;Lincolnshire;Stainsby;;W0.01;N53.21;10;
2;England;Lincolnshire;Stainton by Langworth;;W0.41;N53.27;10;
2;England;Lincolnshire;Stainton le Vale;;W0.24;N53.43;10;
2;England;Lincolnshire;Stallingborough;;W0.18;N53.58;10;
2;England;Lincolnshire;Stamford;;W0.49;N52.65;10;
2;England;Lincolnshire;Stapleford;;W0.68;N53.10;10;
2;England;Lincolnshire;Steeping;;E0.13;N53.16;10;
2;England;Lincolnshire;Stenigot;;W0.12;N53.31;10;
2;England;Lincolnshire;Stenwith;;W0.76;N52.91;10;
2;England;Lincolnshire;Stewton;;E0.04;N53.35;10;
2;England;Lincolnshire;Stickford;;E0.01;N53.11;10;
2;England;Lincolnshire;Stickney;;E0.00;N53.08;10;
2;England;Lincolnshire;Stixwould;;W0.25;N53.16;10;
2;England;Lincolnshire;Stockholes Turbary;;W0.85;N53.55;10;
2;England;Lincolnshire;Stoke Rochford;;W0.65;N52.83;10;
2;England;Lincolnshire;Stow;;W0.68;N53.31;10;
2;England;Lincolnshire;Stowgate;;W0.24;N52.67;10;
2;England;Lincolnshire;Stragglethorpe;;W0.64;N53.05;10;
2;England;Lincolnshire;Stroxton;;W0.66;N52.86;10;
2;England;Lincolnshire;Strubby;;E0.17;N53.31;10;
2;England;Lincolnshire;Strugg's Hill;;W0.08;N52.91;10;
2;England;Lincolnshire;Stubton;;W0.70;N53.02;10;
2;England;Lincolnshire;Sturgate;;W0.69;N53.39;10;
2;England;Lincolnshire;Sturton;;W0.53;N53.52;10;
2;England;Lincolnshire;Sturton by Stow;;W0.66;N53.30;10;
2;England;Lincolnshire;Sudbrook;;W0.55;N52.98;10;
2;England;Lincolnshire;Sudbrooke;;W0.45;N53.27;10;
2;England;Lincolnshire;Surfleet;;W0.14;N52.83;10;
2;England;Lincolnshire;Surfleet Seas End;;W0.11;N52.83;10;
2;England;Lincolnshire;Susworth;;W0.74;N53.50;10;
2;England;Lincolnshire;Sutterby;;E0.06;N53.22;10;
2;England;Lincolnshire;Sutterton;;W0.09;N52.89;10;
2;England;Lincolnshire;Sutterton Dowdyke;;W0.09;N52.87;10;
2;England;Lincolnshire;Sutton;;W0.70;N53.05;10;
2;England;Lincolnshire;Sutton Bridge;;E0.17;N52.76;10;
2;England;Lincolnshire;Sutton Corner;;E0.12;N52.82;10;
2;England;Lincolnshire;Sutton Crosses;;E0.11;N52.76;10;
2;England;Lincolnshire;Sutton on Sea;;E0.27;N53.30;10;
2;England;Lincolnshire;Sutton St Edmund;;E0.01;N52.69;10;
2;England;Lincolnshire;Sutton St James;;E0.05;N52.74;10;
2;England;Lincolnshire;Swaby;;E0.06;N53.27;10;
2;England;Lincolnshire;Swallow;;W0.23;N53.51;10;
2;England;Lincolnshire;Swallow Beck;;W0.57;N53.20;10;
2;England;Lincolnshire;Swanpool;;W0.57;N53.21;10;
2;England;Lincolnshire;Swarby;;W0.45;N52.94;10;
2;England;Lincolnshire;Swaton;;W0.32;N52.91;10;
2;England;Lincolnshire;Swayfield;;W0.53;N52.78;10;
2;England;Lincolnshire;Swinderby;;W0.71;N53.14;10;
2;England;Lincolnshire;Swineshead;;W0.17;N52.94;10;
2;England;Lincolnshire;Swineshead Bridge;;W0.19;N52.97;10;
2;England;Lincolnshire;Swinethorpe;;W0.69;N53.21;10;
2;England;Lincolnshire;Swinhope;;W0.17;N53.44;10;
2;England;Lincolnshire;Swinstead;;W0.50;N52.78;10;
2;England;Lincolnshire;Syston;;W0.63;N52.94;10;
2;England;Lincolnshire;Tallington;;W0.38;N52.65;10;
2;England;Lincolnshire;Tamworth Green;;E0.05;N52.95;10;
2;England;Lincolnshire;Tathwell;;W0.01;N53.31;10;
2;England;Lincolnshire;Tattershall;;W0.19;N53.10;10;
2;England;Lincolnshire;Tattershall Bridge;;W0.22;N53.08;10;
2;England;Lincolnshire;Tattershall Thorpe;;W0.19;N53.11;10;
2;England;Lincolnshire;Tealby;;W0.27;N53.39;10;
2;England;Lincolnshire;Tetford;;W0.01;N53.24;10;
2;England;Lincolnshire;Tetley;;W0.83;N53.59;10;
2;England;Lincolnshire;Tetney;;W0.02;N53.48;10;
2;England;Lincolnshire;Tetney Lock;;E0.01;N53.49;10;
2;England;Lincolnshire;The Hallands;;W0.35;N53.66;10;
2;England;Lincolnshire;The Haven;;E0.06;N52.92;10;
2;England;Lincolnshire;The Willows;;W0.12;N53.56;10;
2;England;Lincolnshire;Thealby;;W0.65;N53.64;10;
2;England;Lincolnshire;Theddlethorpe All Saints;;E0.19;N53.36;10;
2;England;Lincolnshire;Theddlethorpe St Helen;;E0.20;N53.36;10;
2;England;Lincolnshire;Thetford;;W0.35;N52.71;10;
2;England;Lincolnshire;Thimbleby;;W0.15;N53.20;10;
2;England;Lincolnshire;Thoresthorpe;;E0.17;N53.27;10;
2;England;Lincolnshire;Thoresway;;W0.25;N53.44;10;
2;England;Lincolnshire;Thorganby;;W0.19;N53.45;10;
2;England;Lincolnshire;Thornton;;W0.14;N53.18;10;
2;England;Lincolnshire;Thornton Curtis;;W0.36;N53.63;10;
2;England;Lincolnshire;Thornton le Moor;;W0.42;N53.45;10;
2;England;Lincolnshire;Thorpe;;E0.23;N53.31;10;
2;England;Lincolnshire;Thorpe Culvert;;E0.19;N53.11;10;
2;England;Lincolnshire;Thorpe Fendykes;;E0.16;N53.11;10;
2;England;Lincolnshire;Thorpe Latimer;;W0.31;N52.93;10;
2;England;Lincolnshire;Thorpe le Vale;;W0.19;N53.39;10;
2;England;Lincolnshire;Thorpe on the Hill;;W0.65;N53.17;10;
2;England;Lincolnshire;Thorpe St Peter;;E0.21;N53.11;10;
2;England;Lincolnshire;Thorpe Tilney;;W0.34;N53.09;10;
2;England;Lincolnshire;Three Bridges;;E0.14;N53.36;10;
2;England;Lincolnshire;Threekingham;;W0.39;N52.91;10;
2;England;Lincolnshire;Thurlby;;E0.23;N53.25;10;
2;England;Lincolnshire;Thurlby by Bourne;;W0.38;N52.73;10;
2;England;Lincolnshire;Thurlby by Lincoln;;W0.65;N53.13;10;
2;England;Lincolnshire;Timberland;;W0.32;N53.10;10;
2;England;Lincolnshire;Toby's Hill;;E0.18;N53.42;10;
2;England;Lincolnshire;Toft;;W0.43;N52.74;10;
2;England;Lincolnshire;Toft Hill;;W0.14;N53.14;10;
2;England;Lincolnshire;Toft next Newton;;W0.43;N53.37;10;
2;England;Lincolnshire;Tongue End;;W0.28;N52.74;10;
2;England;Lincolnshire;Torksey;;W0.75;N53.29;10;
2;England;Lincolnshire;Torne;;W0.86;N53.53;10;
2;England;Lincolnshire;Tothill;;E0.11;N53.30;10;
2;England;Lincolnshire;Towngate;;W0.32;N52.67;10;
2;England;Lincolnshire;Toynton All Saints;;E0.07;N53.14;10;
2;England;Lincolnshire;Toynton Fen Side;;E0.07;N53.13;10;
2;England;Lincolnshire;Toynton St Peter;;E0.09;N53.14;10;
2;England;Lincolnshire;Trent;;W0.77;N53.46;10;
2;England;Lincolnshire;Trent;;W0.73;N53.59;10;
2;England;Lincolnshire;Trusthorpe;;E0.26;N53.32;10;
2;England;Lincolnshire;Tumby;;W0.16;N53.11;10;
2;England;Lincolnshire;Tumby Woodside;;W0.11;N53.09;10;
2;England;Lincolnshire;Tunnel Pits;;W0.90;N53.52;10;
2;England;Lincolnshire;Twenty;;W0.29;N52.76;10;
2;England;Lincolnshire;Tydd St Mary;;E0.13;N52.74;10;
2;England;Lincolnshire;Uffington;;W0.43;N52.65;10;
2;England;Lincolnshire;Ulceby;;E0.12;N53.22;10;
2;England;Lincolnshire;Ulceby;;W0.33;N53.61;10;
2;England;Lincolnshire;Ulceby Skitter;;W0.30;N53.61;10;
2;England;Lincolnshire;Upperthorpe;;W0.87;N53.49;10;
2;England;Lincolnshire;Upton;;W0.70;N53.36;10;
2;England;Lincolnshire;Usselby;;W0.36;N53.42;10;
2;England;Lincolnshire;Utterby;;W0.04;N53.41;10;
2;England;Lincolnshire;Vernatt's Drain;;W0.15;N52.80;10;
2;England;Lincolnshire;Waddingham;;W0.52;N53.45;10;
2;England;Lincolnshire;Waddington;;W0.53;N53.16;10;
2;England;Lincolnshire;Waddingworth;;W0.23;N53.22;10;
2;England;Lincolnshire;Wainfleet All Saints;;E0.22;N53.10;10;
2;England;Lincolnshire;Wainfleet Bank;;E0.19;N53.10;10;
2;England;Lincolnshire;Wainfleet St Mary;;E0.22;N53.09;10;
2;England;Lincolnshire;Wainfleet Tofts;;E0.20;N53.09;10;
2;England;Lincolnshire;Waithe;;W0.07;N53.48;10;
2;England;Lincolnshire;Waithe Beck;;W0.18;N53.47;10;
2;England;Lincolnshire;Waithe Beck;;W0.02;N53.48;10;
2;England;Lincolnshire;Walcot;;W0.42;N52.90;10;
2;England;Lincolnshire;Walcot;;W0.66;N53.67;10;
2;England;Lincolnshire;Walcott;;W0.31;N53.08;10;
2;England;Lincolnshire;Walesby;;W0.30;N53.41;10;
2;England;Lincolnshire;Walesby Grange;;W0.33;N53.39;10;
2;England;Lincolnshire;Walmsgate;;E0.03;N53.28;10;
2;England;Lincolnshire;Waltham;;W0.10;N53.50;10;
2;England;Lincolnshire;Wargate;;W0.17;N52.85;10;
2;England;Lincolnshire;Washingborough;;W0.47;N53.21;10;
2;England;Lincolnshire;Wasps Nest;;W0.38;N53.16;10;
2;England;Lincolnshire;Weelsby;;W0.06;N53.55;10;
2;England;Lincolnshire;Welbourn;;W0.56;N53.07;10;
2;England;Lincolnshire;Welby;;W0.55;N52.93;10;
2;England;Lincolnshire;Well;;E0.15;N53.23;10;
2;England;Lincolnshire;Welland;;W0.20;N52.66;10;
2;England;Lincolnshire;Wellingore;;W0.53;N53.09;10;
2;England;Lincolnshire;Wellow;;W0.09;N53.55;10;
2;England;Lincolnshire;Welton;;W0.48;N53.29;10;
2;England;Lincolnshire;Welton Hill;;W0.44;N53.31;10;
2;England;Lincolnshire;Welton le Marsh;;E0.19;N53.18;10;
2;England;Lincolnshire;Welton le Wold;;W0.09;N53.36;10;
2;England;Lincolnshire;West Ashby;;W0.11;N53.23;10;
2;England;Lincolnshire;West Barkwith;;W0.27;N53.30;10;
2;England;Lincolnshire;West Butterwick;;W0.74;N53.53;10;
2;England;Lincolnshire;West Carr;;W0.88;N53.55;10;
2;England;Lincolnshire;West End;;E0.05;N52.99;10;
2;England;Lincolnshire;West End;;E0.03;N53.46;10;
2;England;Lincolnshire;West Field;;W0.30;N53.65;10;
2;England;Lincolnshire;West Glen;;W0.38;N52.70;10;
2;England;Lincolnshire;West Halton;;W0.63;N53.66;10;
2;England;Lincolnshire;West Houses;;W0.01;N53.06;10;
2;England;Lincolnshire;West Keal;;E0.03;N53.14;10;
2;England;Lincolnshire;West Marsh;;W0.11;N53.56;10;
2;England;Lincolnshire;West Rasen;;W0.40;N53.38;10;
2;England;Lincolnshire;West Ravendale;;W0.16;N53.47;10;
2;England;Lincolnshire;West Torrington;;W0.30;N53.32;10;
2;England;Lincolnshire;West Willoughby;;W0.57;N52.97;10;
2;England;Lincolnshire;Westborough;;W0.73;N52.98;10;
2;England;Lincolnshire;Westby;;W0.56;N52.84;10;
2;England;Lincolnshire;Westgate;;W0.83;N53.55;10;
2;England;Lincolnshire;Westhorpe;;W0.18;N52.86;10;
2;England;Lincolnshire;Weston;;W0.10;N52.79;10;
2;England;Lincolnshire;Weston Hills;;W0.10;N52.76;10;
2;England;Lincolnshire;Westrum;;W0.49;N53.54;10;
2;England;Lincolnshire;Westwoodside;;W0.88;N53.48;10;
2;England;Lincolnshire;Whaplode;;W0.04;N52.79;10;
2;England;Lincolnshire;Whaplode Drove;;W0.06;N52.69;10;
2;England;Lincolnshire;Wharton;;W0.73;N53.42;10;
2;England;Lincolnshire;Whisby;;W0.65;N53.19;10;
2;England;Lincolnshire;White Pit;;E0.05;N53.27;10;
2;England;Lincolnshire;Whitton;;W0.63;N53.70;10;
2;England;Lincolnshire;Wickenby;;W0.38;N53.31;10;
2;England;Lincolnshire;Wigtoft;;W0.12;N52.90;10;
2;England;Lincolnshire;Wildsworth;;W0.79;N53.46;10;
2;England;Lincolnshire;Wilksby;;W0.08;N53.14;10;
2;England;Lincolnshire;Will Row;;E0.17;N53.35;10;
2;England;Lincolnshire;Willingham by Stow;;W0.69;N53.34;10;
2;England;Lincolnshire;Willoughby;;E0.18;N53.21;10;
2;England;Lincolnshire;Willoughby High Drain;;E0.32;N53.22;10;
2;England;Lincolnshire;Willoughby Hills;;W0.01;N52.98;10;
2;England;Lincolnshire;Willoughton;;W0.60;N53.42;10;
2;England;Lincolnshire;Wilsford;;W0.51;N52.97;10;
2;England;Lincolnshire;Wilsthorpe;;W0.38;N52.70;10;
2;England;Lincolnshire;Winceby;;W0.04;N53.19;10;
2;England;Lincolnshire;Windsor;;W0.85;N53.59;10;
2;England;Lincolnshire;Winteringham;;W0.60;N53.68;10;
2;England;Lincolnshire;Winterton;;W0.60;N53.65;10;
2;England;Lincolnshire;Winthorpe;;E0.33;N53.15;10;
2;England;Lincolnshire;Wispington;;W0.20;N53.22;10;
2;England;Lincolnshire;Witham;;W0.36;N53.22;10;
2;England;Lincolnshire;Witham on the Hill;;W0.44;N52.73;10;
2;England;Lincolnshire;Withcall;;W0.07;N53.32;10;
2;England;Lincolnshire;Withern;;E0.14;N53.31;10;
2;England;Lincolnshire;Wold Newton;;W0.13;N53.44;10;
2;England;Lincolnshire;Wood Enderby;;W0.10;N53.14;10;
2;England;Lincolnshire;Woodhall Spa;;W0.22;N53.15;10;
2;England;Lincolnshire;Woodhouse;;W0.82;N53.56;10;
2;England;Lincolnshire;Woodnook;;W0.60;N52.87;10;
2;England;Lincolnshire;Woodside;;W0.93;N53.51;10;
2;England;Lincolnshire;Woodthorpe;;E0.14;N53.29;10;
2;England;Lincolnshire;Woolsthorpe-by-Colsterworth;;W0.63;N52.80;10;
2;England;Lincolnshire;Wootton;;W0.36;N53.62;10;
2;England;Lincolnshire;Worlaby;;W0.01;N53.26;10;
2;England;Lincolnshire;Worlaby;;W0.47;N53.60;10;
2;England;Lincolnshire;Wragby;;W0.30;N53.28;10;
2;England;Lincolnshire;Wragholme;;E0.06;N53.45;10;
2;England;Lincolnshire;Wrangle;;E0.11;N53.03;10;
2;England;Lincolnshire;Wrangle Bank;;E0.11;N53.05;10;
2;England;Lincolnshire;Wrangle Low Ground;;E0.11;N53.04;10;
2;England;Lincolnshire;Wrangle Lowgate;;E0.13;N53.03;10;
2;England;Lincolnshire;Wrawby;;W0.46;N53.55;10;
2;England;Lincolnshire;Wressle;;W0.53;N53.56;10;
2;England;Lincolnshire;Wroot;;W0.93;N53.51;10;
2;England;Lincolnshire;Wybers Wood;;W0.14;N53.55;10;
2;England;Lincolnshire;Wyberton;;W0.05;N52.95;10;
2;England;Lincolnshire;Wykeham;;W0.11;N52.81;10;
2;England;Lincolnshire;Wyville;;W0.69;N52.85;10;
2;England;Lincolnshire;Yaddlethorpe;;W0.67;N53.55;10;
2;England;Lincolnshire;Yarborough;;W0.11;N53.56;10;
2;England;Lincolnshire;Yarburgh;;E0.03;N53.41;10;
2;England;Lincolnshire;Yawthorpe;;W0.66;N53.40;10;
2;England;Lincolnshire;Young Wood;;W0.30;N53.22;10;