"Level";"Country";"County";"Place";"void";"Longitude";"Latitude";"ZoomLevel";"Icon"
2;England;Hertfordshire;Abbots Langley;;W0.42;N51.69;10;
2;England;Hertfordshire;Adeyfield;;W0.45;N51.75;10;
2;England;Hertfordshire;Albury;;E0.07;N51.89;10;
2;England;Hertfordshire;Albury End;;E0.06;N51.88;10;
2;England;Hertfordshire;Aldbury;;W0.60;N51.79;10;
2;England;Hertfordshire;Aldenham;;W0.36;N51.66;10;
2;England;Hertfordshire;Aley Green;;W0.46;N51.85;10;
2;England;Hertfordshire;Allen's Green;;E0.10;N51.82;10;
2;England;Hertfordshire;Amwell;;W0.31;N51.80;10;
2;England;Hertfordshire;Ansells End;;W0.33;N51.84;10;
2;England;Hertfordshire;Anstey;;E0.03;N51.96;10;
2;England;Hertfordshire;Apsley;;W0.48;N51.73;10;
2;England;Hertfordshire;Ardeley;;W0.11;N51.92;10;
2;England;Hertfordshire;Arkley;;W0.23;N51.64;10;
2;England;Hertfordshire;Ashwell;;W0.16;N52.03;10;
2;England;Hertfordshire;Ashwell End;;W0.17;N52.04;10;
2;England;Hertfordshire;Aspenden;;W0.03;N51.93;10;
2;England;Hertfordshire;Aston;;W0.15;N51.88;10;
2;England;Hertfordshire;Aston End;;W0.15;N51.90;10;
2;England;Hertfordshire;Ayot Green;;W0.24;N51.81;10;
2;England;Hertfordshire;Ayot St Lawrence;;W0.27;N51.83;10;
2;England;Hertfordshire;Ayot St Peter;;W0.24;N51.82;10;
2;England;Hertfordshire;Ayres End;;W0.33;N51.79;10;
2;England;Hertfordshire;Babbs Green;;E0.01;N51.82;10;
2;England;Hertfordshire;Bakers End;;E0.01;N51.82;10;
2;England;Hertfordshire;Baldock;;W0.19;N51.98;10;
2;England;Hertfordshire;Baldock;;W0.19;N51.99;10;
2;England;Hertfordshire;Barkway;;E0.01;N51.99;10;
2;England;Hertfordshire;Barley;;E0.03;N52.02;10;
2;England;Hertfordshire;Barleycroft End;;E0.07;N51.92;10;
2;England;Hertfordshire;Barnet Gate;;W0.25;N51.64;10;
2;England;Hertfordshire;Barwick;;E0.00;N51.85;10;
2;England;Hertfordshire;Bassus Green;;W0.11;N51.90;10;
2;England;Hertfordshire;Batchworth;;W0.46;N51.63;10;
2;England;Hertfordshire;Batchworth Heath;;W0.45;N51.61;10;
2;England;Hertfordshire;Batford;;W0.34;N51.82;10;
2;England;Hertfordshire;Batlers Green;;W0.33;N51.66;10;
2;England;Hertfordshire;Bayford;;W0.11;N51.75;10;
2;England;Hertfordshire;Beane;;W0.09;N51.83;10;
2;England;Hertfordshire;Bedmond;;W0.42;N51.71;10;
2;England;Hertfordshire;Bedwell;;W0.19;N51.90;10;
2;England;Hertfordshire;Bell Bar;;W0.19;N51.73;10;
2;England;Hertfordshire;Belsize;;W0.51;N51.68;10;
2;England;Hertfordshire;Bendish;;W0.31;N51.87;10;
2;England;Hertfordshire;Bengeo;;W0.08;N51.80;10;
2;England;Hertfordshire;Benington;;W0.11;N51.89;10;
2;England;Hertfordshire;Bennetts End;;W0.46;N51.73;10;
2;England;Hertfordshire;Bentley Heath;;W0.20;N51.67;10;
2;England;Hertfordshire;Berkhamsted;;W0.58;N51.76;10;
2;England;Hertfordshire;Bernards Heath;;W0.33;N51.75;10;
2;England;Hertfordshire;Birch Green;;W0.13;N51.78;10;
2;England;Hertfordshire;Birchwood;;W0.23;N51.76;10;
2;England;Hertfordshire;Bishop's Stortford;;E0.16;N51.86;10;
2;England;Hertfordshire;Blackmore End;;W0.31;N51.83;10;
2;England;Hertfordshire;Blue Hill;;W0.12;N51.86;10;
2;England;Hertfordshire;Borehamwood;;W0.28;N51.65;10;
2;England;Hertfordshire;Bourne End;;W0.52;N51.74;10;
2;England;Hertfordshire;Bovingdon;;W0.53;N51.71;10;
2;England;Hertfordshire;Bovingdon Green;;W0.53;N51.70;10;
2;England;Hertfordshire;Bower Heath;;W0.34;N51.83;10;
2;England;Hertfordshire;Boxmoor;;W0.49;N51.74;10;
2;England;Hertfordshire;Bozen Green;;E0.03;N51.92;10;
2;England;Hertfordshire;Bragbury End;;W0.17;N51.87;10;
2;England;Hertfordshire;Bramfield;;W0.12;N51.81;10;
2;England;Hertfordshire;Braughing;;E0.01;N51.89;10;
2;England;Hertfordshire;Braughing Friars;;E0.04;N51.89;10;
2;England;Hertfordshire;Breachwood Green;;W0.33;N51.88;10;
2;England;Hertfordshire;Brent Pelham;;E0.07;N51.95;10;
2;England;Hertfordshire;Brent Reservoir;;W0.24;N51.57;10;
2;England;Hertfordshire;Brickendon;;W0.08;N51.74;10;
2;England;Hertfordshire;Bricket Wood;;W0.36;N51.70;10;
2;England;Hertfordshire;Broad Colney;;W0.30;N51.71;10;
2;England;Hertfordshire;Broadgreen Wood;;W0.10;N51.76;10;
2;England;Hertfordshire;Broadoak End;;W0.11;N51.80;10;
2;England;Hertfordshire;Broadwater;;W0.18;N51.88;10;
2;England;Hertfordshire;Broken Green;;E0.04;N51.87;10;
2;England;Hertfordshire;Bromley;;E0.04;N51.87;10;
2;England;Hertfordshire;Brook End;;W0.08;N51.93;10;
2;England;Hertfordshire;Brookmans Park;;W0.20;N51.72;10;
2;England;Hertfordshire;Broxbourne;;W0.03;N51.74;10;
2;England;Hertfordshire;Brunswick Park;;W0.15;N51.62;10;
2;England;Hertfordshire;Buckland;;W0.03;N51.97;10;
2;England;Hertfordshire;Bucks Hill;;W0.48;N51.68;10;
2;England;Hertfordshire;Bulbourne;;W0.65;N51.80;10;
2;England;Hertfordshire;Bullen's Green;;W0.24;N51.73;10;
2;England;Hertfordshire;Bull's Green;;W0.15;N51.83;10;
2;England;Hertfordshire;Bulstrode;;W0.51;N51.70;10;
2;England;Hertfordshire;Buntingford;;W0.02;N51.94;10;
2;England;Hertfordshire;Burge End;;W0.34;N51.97;10;
2;England;Hertfordshire;Burnham Green;;W0.17;N51.82;10;
2;England;Hertfordshire;Burn's Green;;W0.11;N51.88;10;
2;England;Hertfordshire;Burnt Oak;;W0.26;N51.60;10;
2;England;Hertfordshire;Bury Green;;W0.06;N51.69;10;
2;England;Hertfordshire;Bury Green;;E0.10;N51.86;10;
2;England;Hertfordshire;Bushey;;W0.36;N51.64;10;
2;England;Hertfordshire;Bushey Heath;;W0.33;N51.63;10;
2;England;Hertfordshire;Bygrave;;W0.16;N51.99;10;
2;England;Hertfordshire;Cadwell;;W0.28;N51.97;10;
2;England;Hertfordshire;Caldecote;;W0.20;N52.02;10;
2;England;Hertfordshire;Caldecote Hill;;W0.33;N51.63;10;
2;England;Hertfordshire;Cam (Rhee);;W0.19;N52.04;10;
2;England;Hertfordshire;Carpenders Park;;W0.38;N51.62;10;
2;England;Hertfordshire;Chandler's Cross;;W0.46;N51.67;10;
2;England;Hertfordshire;Chapel Green;;W0.04;N51.99;10;
2;England;Hertfordshire;Chapmore End;;W0.08;N51.82;10;
2;England;Hertfordshire;Charlton;;W0.29;N51.93;10;
2;England;Hertfordshire;Chaulden;;W0.50;N51.74;10;
2;England;Hertfordshire;Cheapside;;E0.03;N51.97;10;
2;England;Hertfordshire;Chells;;W0.16;N51.90;10;
2;England;Hertfordshire;Cherry Green;;W0.03;N51.90;10;
2;England;Hertfordshire;Cheshunt;;W0.04;N51.70;10;
2;England;Hertfordshire;Cheverell's Green;;W0.47;N51.82;10;
2;England;Hertfordshire;Child's Hill;;W0.21;N51.55;10;
2;England;Hertfordshire;Childwick Bury;;W0.36;N51.77;10;
2;England;Hertfordshire;Childwick Green;;W0.34;N51.77;10;
2;England;Hertfordshire;Chiltern Hills;;W0.49;N51.82;10;
2;England;Hertfordshire;Chipperfield;;W0.49;N51.69;10;
2;England;Hertfordshire;Chipping;;W0.03;N51.97;10;
2;England;Hertfordshire;Chipping Barnet;;W0.20;N51.64;10;
2;England;Hertfordshire;Chiswell Green;;W0.36;N51.72;10;
2;England;Hertfordshire;Chorleywood;;W0.52;N51.65;10;
2;England;Hertfordshire;Chorleywood Bottom;;W0.52;N51.64;10;
2;England;Hertfordshire;Church End;;W0.21;N51.59;10;
2;England;Hertfordshire;Church End;;W0.40;N51.78;10;
2;England;Hertfordshire;Church End;;E0.09;N51.87;10;
2;England;Hertfordshire;Church End;;W0.16;N51.95;10;
2;England;Hertfordshire;Churchgate;;W0.06;N51.70;10;
2;England;Hertfordshire;Clapgate;;E0.09;N51.90;10;
2;England;Hertfordshire;Clay End;;W0.11;N51.90;10;
2;England;Hertfordshire;Clothall;;W0.15;N51.96;10;
2;England;Hertfordshire;Clothall Common;;W0.18;N51.98;10;
2;England;Hertfordshire;Cockfosters;;W0.16;N51.64;10;
2;England;Hertfordshire;Codicote;;W0.24;N51.84;10;
2;England;Hertfordshire;Codicote Bottom;;W0.25;N51.83;10;
2;England;Hertfordshire;Cokenach;;E0.02;N52.00;10;
2;England;Hertfordshire;Cold Christmas;;E0.00;N51.82;10;
2;England;Hertfordshire;Cold Harbour;;W0.34;N51.83;10;
2;England;Hertfordshire;Cole Green;;W0.14;N51.78;10;
2;England;Hertfordshire;Cole Green;;E0.07;N51.95;10;
2;England;Hertfordshire;Coleman Green;;W0.27;N51.79;10;
2;England;Hertfordshire;Colindale;;W0.25;N51.58;10;
2;England;Hertfordshire;Colliers End;;W0.01;N51.86;10;
2;England;Hertfordshire;Colne;;W0.49;N51.62;10;
2;England;Hertfordshire;Colney Hatch;;W0.16;N51.60;10;
2;England;Hertfordshire;Colney Heath;;W0.26;N51.73;10;
2;England;Hertfordshire;Colney Street;;W0.33;N51.70;10;
2;England;Hertfordshire;Commonwood;;W0.49;N51.68;10;
2;England;Hertfordshire;Cooper's Green;;W0.27;N51.76;10;
2;England;Hertfordshire;Cottered;;W0.09;N51.94;10;
2;England;Hertfordshire;Counters End;;W0.49;N51.75;10;
2;England;Hertfordshire;Cow Roast;;W0.62;N51.78;10;
2;England;Hertfordshire;Crabbs Green;;E0.10;N51.93;10;
2;England;Hertfordshire;Cradle End;;E0.10;N51.86;10;
2;England;Hertfordshire;Cromer;;W0.12;N51.93;10;
2;England;Hertfordshire;Cromer-Hyde;;W0.26;N51.79;10;
2;England;Hertfordshire;Croxley Green;;W0.45;N51.64;10;
2;England;Hertfordshire;Cuffley;;W0.11;N51.71;10;
2;England;Hertfordshire;Cumberlow Green;;W0.10;N51.95;10;
2;England;Hertfordshire;Cupid Green;;W0.45;N51.76;10;
2;England;Hertfordshire;Damask Green;;W0.18;N51.94;10;
2;England;Hertfordshire;Dancers Hill;;W0.22;N51.67;10;
2;England;Hertfordshire;Dane End;;W0.06;N51.87;10;
2;England;Hertfordshire;Danesbury;;W0.21;N51.82;10;
2;England;Hertfordshire;Darleyhall;;W0.34;N51.88;10;
2;England;Hertfordshire;Dassels;;E0.02;N51.92;10;
2;England;Hertfordshire;Datchworth;;W0.15;N51.85;10;
2;England;Hertfordshire;Datchworth Green;;W0.15;N51.84;10;
2;England;Hertfordshire;Deacons Hill;;W0.28;N51.64;10;
2;England;Hertfordshire;Dewes Green;;E0.10;N51.94;10;
2;England;Hertfordshire;Digswell;;W0.18;N51.81;10;
2;England;Hertfordshire;Digswell Park;;W0.21;N51.81;10;
2;England;Hertfordshire;Digswell Water;;W0.18;N51.81;10;
2;England;Hertfordshire;Driver's End;;W0.22;N51.85;10;
2;England;Hertfordshire;Ducks Island;;W0.22;N51.64;10;
2;England;Hertfordshire;Dudswell;;W0.60;N51.77;10;
2;England;Hertfordshire;East Barnet;;W0.16;N51.63;10;
2;England;Hertfordshire;East End;;E0.10;N51.92;10;
2;England;Hertfordshire;East End Green;;W0.13;N51.77;10;
2;England;Hertfordshire;East Finchley;;W0.18;N51.58;10;
2;England;Hertfordshire;Easthall;;W0.27;N51.88;10;
2;England;Hertfordshire;Edgware;;W0.28;N51.61;10;
2;England;Hertfordshire;Ellenbrook;;W0.26;N51.75;10;
2;England;Hertfordshire;Elstree;;W0.31;N51.64;10;
2;England;Hertfordshire;Epping Green;;W0.13;N51.73;10;
2;England;Hertfordshire;Essendon;;W0.16;N51.75;10;
2;England;Hertfordshire;Farnham Green;;E0.12;N51.90;10;
2;England;Hertfordshire;Fields End;;W0.52;N51.75;10;
2;England;Hertfordshire;Finchley;;W0.19;N51.59;10;
2;England;Hertfordshire;Fishers Green;;W0.22;N51.91;10;
2;England;Hertfordshire;Flamstead;;W0.44;N51.81;10;
2;England;Hertfordshire;Flamstead End;;W0.06;N51.70;10;
2;England;Hertfordshire;Flaunden;;W0.54;N51.68;10;
2;England;Hertfordshire;Fleetville;;W0.32;N51.74;10;
2;England;Hertfordshire;Ford End;;E0.10;N51.95;10;
2;England;Hertfordshire;Fortis Green;;W0.16;N51.58;10;
2;England;Hertfordshire;Friern Barnet;;W0.15;N51.61;10;
2;England;Hertfordshire;Frithsden;;W0.53;N51.77;10;
2;England;Hertfordshire;Frogmore;;W0.33;N51.71;10;
2;England;Hertfordshire;Furneux Pelham;;E0.07;N51.93;10;
2;England;Hertfordshire;Gade;;W0.44;N51.70;10;
2;England;Hertfordshire;Gadebridge;;W0.49;N51.76;10;
2;England;Hertfordshire;Ganwick Corner;;W0.19;N51.67;10;
2;England;Hertfordshire;Garston;;W0.39;N51.67;10;
2;England;Hertfordshire;Gaston Green;;E0.16;N51.83;10;
2;England;Hertfordshire;Gilston;;E0.08;N51.78;10;
2;England;Hertfordshire;Gilston Park;;E0.08;N51.79;10;
2;England;Hertfordshire;Goff's Oak;;W0.09;N51.71;10;
2;England;Hertfordshire;Golders Green;;W0.21;N51.57;10;
2;England;Hertfordshire;Goose Green;;W0.04;N51.76;10;
2;England;Hertfordshire;Gorhambury;;W0.39;N51.75;10;
2;England;Hertfordshire;Gosmore;;W0.28;N51.92;10;
2;England;Hertfordshire;Grand Union Canal;;W0.55;N51.75;10;
2;England;Hertfordshire;Graveley;;W0.21;N51.92;10;
2;England;Hertfordshire;Gravesend;;E0.07;N51.90;10;
2;England;Hertfordshire;Great Amwell;;W0.02;N51.79;10;
2;England;Hertfordshire;Great Gaddesden;;W0.52;N51.78;10;
2;England;Hertfordshire;Great Hormead;;E0.03;N51.94;10;
2;England;Hertfordshire;Great Munden;;W0.03;N51.89;10;
2;England;Hertfordshire;Great Offley;;W0.34;N51.92;10;
2;England;Hertfordshire;Great Wymondley;;W0.24;N51.93;10;
2;England;Hertfordshire;Green End;;W0.49;N51.74;10;
2;England;Hertfordshire;Green End;;W0.06;N51.88;10;
2;England;Hertfordshire;Green End;;E0.01;N51.90;10;
2;England;Hertfordshire;Green End;;W0.16;N51.95;10;
2;England;Hertfordshire;Green End;;W0.07;N51.98;10;
2;England;Hertfordshire;Green Street;;W0.28;N51.66;10;
2;England;Hertfordshire;Green Street;;E0.10;N51.87;10;
2;England;Hertfordshire;Green Tye;;E0.08;N51.84;10;
2;England;Hertfordshire;Grovehill;;W0.46;N51.76;10;
2;England;Hertfordshire;Gubblecote;;W0.69;N51.81;10;
2;England;Hertfordshire;Guilden Morden;;W0.14;N52.07;10;
2;England;Hertfordshire;Gustard Wood;;W0.30;N51.83;10;
2;England;Hertfordshire;Hadham Cross;;E0.06;N51.84;10;
2;England;Hertfordshire;Hadham Ford;;E0.07;N51.87;10;
2;England;Hertfordshire;Hadley;;W0.20;N51.64;10;
2;England;Hertfordshire;Hadley Wood;;W0.17;N51.65;10;
2;England;Hertfordshire;Hailey;;W0.01;N51.77;10;
2;England;Hertfordshire;Haldens;;W0.20;N51.81;10;
2;England;Hertfordshire;Hall Grove;;W0.18;N51.78;10;
2;England;Hertfordshire;Hall's Green;;W0.15;N51.93;10;
2;England;Hertfordshire;Hammerfield;;W0.49;N51.75;10;
2;England;Hertfordshire;Hammond Street;;W0.07;N51.71;10;
2;England;Hertfordshire;Hampstead Garden Suburb;;W0.18;N51.57;10;
2;England;Hertfordshire;Handside;;W0.21;N51.79;10;
2;England;Hertfordshire;Hare Street;;W0.09;N51.93;10;
2;England;Hertfordshire;Hare Street;;E0.01;N51.94;10;
2;England;Hertfordshire;Harmer Green;;W0.18;N51.82;10;
2;England;Hertfordshire;Harpenden;;W0.36;N51.81;10;
2;England;Hertfordshire;Harpenden Common;;W0.36;N51.80;10;
2;England;Hertfordshire;Hartham;;W0.08;N51.80;10;
2;England;Hertfordshire;Hatching Green;;W0.36;N51.79;10;
2;England;Hertfordshire;Hatfield;;W0.23;N51.74;10;
2;England;Hertfordshire;Hatfield Garden Village;;W0.24;N51.76;10;
2;England;Hertfordshire;Hatfield Hyde;;W0.20;N51.78;10;
2;England;Hertfordshire;Haultwick;;W0.06;N51.88;10;
2;England;Hertfordshire;Hay Green;;W0.04;N52.00;10;
2;England;Hertfordshire;Hay Street;;E0.01;N51.91;10;
2;England;Hertfordshire;Hebing End;;W0.09;N51.88;10;
2;England;Hertfordshire;Helham Green;;E0.01;N51.81;10;
2;England;Hertfordshire;Hemel Hempstead;;W0.46;N51.75;10;
2;England;Hertfordshire;Hendon;;W0.22;N51.58;10;
2;England;Hertfordshire;Heronsgate;;W0.52;N51.63;10;
2;England;Hertfordshire;Hertford;;W0.08;N51.79;10;
2;England;Hertfordshire;Hertford Heath;;W0.04;N51.78;10;
2;England;Hertfordshire;Hertingfordbury;;W0.11;N51.79;10;
2;England;Hertfordshire;Hexton;;W0.40;N51.95;10;
2;England;Hertfordshire;High Barnet;;W0.20;N51.64;10;
2;England;Hertfordshire;High Cross;;W0.35;N51.66;10;
2;England;Hertfordshire;High Cross;;W0.02;N51.84;10;
2;England;Hertfordshire;High Wych;;E0.11;N51.80;10;
2;England;Hertfordshire;Highfield;;W0.46;N51.76;10;
2;England;Hertfordshire;Highwood Hill;;W0.23;N51.62;10;
2;England;Hertfordshire;Hill End;;W0.49;N51.60;10;
2;England;Hertfordshire;Hinxworth;;W0.20;N52.04;10;
2;England;Hertfordshire;Hitchin;;W0.26;N51.95;10;
2;England;Hertfordshire;Hitchin Hill;;W0.28;N51.93;10;
2;England;Hertfordshire;Hiz;;W0.25;N51.93;10;
2;England;Hertfordshire;Hockerill;;E0.16;N51.85;10;
2;England;Hertfordshire;Hoddesdon;;W0.03;N51.75;10;
2;England;Hertfordshire;Hogpits Bottom;;W0.53;N51.69;10;
2;England;Hertfordshire;Holders Hill;;W0.22;N51.59;10;
2;England;Hertfordshire;Holywell;;W0.42;N51.64;10;
2;England;Hertfordshire;Hoo End;;W0.28;N51.85;10;
2;England;Hertfordshire;Hook's Cross;;W0.15;N51.86;10;
2;England;Hertfordshire;How Wood;;W0.36;N51.71;10;
2;England;Hertfordshire;Hudnall;;W0.55;N51.80;10;
2;England;Hertfordshire;Hunsdon;;E0.04;N51.80;10;
2;England;Hertfordshire;Hunsdonbury;;E0.04;N51.79;10;
2;England;Hertfordshire;Hunton Bridge;;W0.43;N51.68;10;
2;England;Hertfordshire;Ickleford;;W0.28;N51.96;10;
2;England;Hertfordshire;Ivel;;W0.13;N52.02;10;
2;England;Hertfordshire;Jockey End;;W0.49;N51.80;10;
2;England;Hertfordshire;Kelshall;;W0.07;N52.00;10;
2;England;Hertfordshire;Kettle Green;;E0.04;N51.84;10;
2;England;Hertfordshire;Keysers Estate;;W0.01;N51.73;10;
2;England;Hertfordshire;Kimpton;;W0.30;N51.84;10;
2;England;Hertfordshire;Kings Langley;;W0.45;N51.70;10;
2;England;Hertfordshire;King's Walden;;W0.31;N51.89;10;
2;England;Hertfordshire;Kingswood;;W0.40;N51.68;10;
2;England;Hertfordshire;Kinsbourne Green;;W0.40;N51.83;10;
2;England;Hertfordshire;Kitts End;;W0.20;N51.66;10;
2;England;Hertfordshire;Knebworth;;W0.18;N51.86;10;
2;England;Hertfordshire;Langley;;W0.24;N51.88;10;
2;England;Hertfordshire;Langleybury;;W0.45;N51.68;10;
2;England;Hertfordshire;Latchford;;E0.01;N51.86;10;
2;England;Hertfordshire;Latchmore Bank;;E0.16;N51.84;10;
2;England;Hertfordshire;Lea Navigation;;W0.01;N51.73;10;
2;England;Hertfordshire;Lea Valley;;W0.33;N51.82;10;
2;England;Hertfordshire;Leasey Bridge;;W0.31;N51.81;10;
2;England;Hertfordshire;Leavesden Green;;W0.42;N51.68;10;
2;England;Hertfordshire;Lemsford;;W0.24;N51.78;10;
2;England;Hertfordshire;Letchmore Heath;;W0.33;N51.66;10;
2;England;Hertfordshire;Letchworth;;W0.23;N51.97;10;
2;England;Hertfordshire;Letty Green;;W0.14;N51.77;10;
2;England;Hertfordshire;Levens Green;;W0.03;N51.88;10;
2;England;Hertfordshire;Leverstock Green;;W0.43;N51.74;10;
2;England;Hertfordshire;Ley Green;;W0.32;N51.90;10;
2;England;Hertfordshire;Lilley;;W0.38;N51.92;10;
2;England;Hertfordshire;Little Almshoe;;W0.27;N51.91;10;
2;England;Hertfordshire;Little Berkamstead;;W0.13;N51.75;10;
2;England;Hertfordshire;Little Chishill;;E0.05;N52.01;10;
2;England;Hertfordshire;Little Gaddesden;;W0.56;N51.80;10;
2;England;Hertfordshire;Little Hadham;;E0.09;N51.87;10;
2;England;Hertfordshire;Little Heath;;W0.19;N51.70;10;
2;England;Hertfordshire;Little Heath;;W0.53;N51.76;10;
2;England;Hertfordshire;Little Hormead;;E0.03;N51.94;10;
2;England;Hertfordshire;Little Offley;;W0.35;N51.93;10;
2;England;Hertfordshire;Little Tring;;W0.68;N51.79;10;
2;England;Hertfordshire;Little Wymondley;;W0.24;N51.92;10;
2;England;Hertfordshire;London Colney;;W0.30;N51.72;10;
2;England;Hertfordshire;Long Marston;;W0.70;N51.82;10;
2;England;Hertfordshire;Loudwater;;W0.48;N51.65;10;
2;England;Hertfordshire;Lower Green;;E0.06;N51.97;10;
2;England;Hertfordshire;Lower Green;;W0.28;N51.97;10;
2;England;Hertfordshire;Lower Woodside;;W0.20;N51.73;10;
2;England;Hertfordshire;Lucas End;;W0.09;N51.71;10;
2;England;Hertfordshire;Luffenhall;;W0.12;N51.93;10;
2;England;Hertfordshire;Mackerye End;;W0.33;N51.82;10;
2;England;Hertfordshire;Maple Cross;;W0.51;N51.61;10;
2;England;Hertfordshire;Mardleybury;;W0.17;N51.84;10;
2;England;Hertfordshire;Markyate;;W0.46;N51.83;10;
2;England;Hertfordshire;Marshalls Heath;;W0.31;N51.82;10;
2;England;Hertfordshire;Marshalswick;;W0.32;N51.75;10;
2;England;Hertfordshire;Marshmoor;;W0.21;N51.73;10;
2;England;Hertfordshire;Meesden;;E0.08;N51.96;10;
2;England;Hertfordshire;Meriden;;W0.39;N51.67;10;
2;England;Hertfordshire;Merry Hill;;W0.36;N51.63;10;
2;England;Hertfordshire;Micklefield Green;;W0.49;N51.67;10;
2;England;Hertfordshire;Mill End;;W0.49;N51.63;10;
2;England;Hertfordshire;Mill End;;W0.06;N51.97;10;
2;England;Hertfordshire;Mill Green;;W0.20;N51.76;10;
2;England;Hertfordshire;Mill Hill;;W0.23;N51.61;10;
2;England;Hertfordshire;Mimram;;W0.21;N51.83;10;
2;England;Hertfordshire;Moneyhill;;W0.49;N51.63;10;
2;England;Hertfordshire;Monken Hadley;;W0.20;N51.65;10;
2;England;Hertfordshire;Moor Green;;W0.08;N51.91;10;
2;England;Hertfordshire;Moor Park;;W0.44;N51.62;10;
2;England;Hertfordshire;Much Hadham;;E0.06;N51.85;10;
2;England;Hertfordshire;Nash Mills;;W0.46;N51.72;10;
2;England;Hertfordshire;Nast Hyde;;W0.24;N51.74;10;
2;England;Hertfordshire;Nasty;;W0.03;N51.89;10;
2;England;Hertfordshire;Nether Street;;E0.05;N51.82;10;
2;England;Hertfordshire;Nettleden;;W0.53;N51.77;10;
2;England;Hertfordshire;New Barnet;;W0.18;N51.63;10;
2;England;Hertfordshire;New Greens;;W0.34;N51.76;10;
2;England;Hertfordshire;New Ground;;W0.62;N51.78;10;
2;England;Hertfordshire;New Mill;;W0.66;N51.79;10;
2;England;Hertfordshire;New River;;W0.05;N51.68;10;
2;England;Hertfordshire;Newgate Street;;W0.11;N51.71;10;
2;England;Hertfordshire;Newnham;;W0.19;N52.01;10;
2;England;Hertfordshire;Newsells;;E0.01;N52.01;10;
2;England;Hertfordshire;Nobland Green;;E0.03;N51.83;10;
2;England;Hertfordshire;Nomansland (Hertfordshire);;W0.30;N51.79;10;
2;England;Hertfordshire;North Finchley;;W0.18;N51.61;10;
2;England;Hertfordshire;North Watford;;W0.41;N51.67;10;
2;England;Hertfordshire;Northaw;;W0.14;N51.70;10;
2;England;Hertfordshire;Northchurch;;W0.59;N51.76;10;
2;England;Hertfordshire;Norton;;W0.20;N51.99;10;
2;England;Hertfordshire;Norton Green;;W0.22;N51.89;10;
2;England;Hertfordshire;Nup End;;W0.22;N51.85;10;
2;England;Hertfordshire;Nuthampstead;;E0.03;N51.98;10;
2;England;Hertfordshire;Oakfield;;W0.27;N51.93;10;
2;England;Hertfordshire;Oaklands;;W0.20;N51.83;10;
2;England;Hertfordshire;Oakleigh Park;;W0.18;N51.63;10;
2;England;Hertfordshire;Old Hall Green;;W0.01;N51.88;10;
2;England;Hertfordshire;Old Hatfield;;W0.21;N51.75;10;
2;England;Hertfordshire;Old Knebworth;;W0.21;N51.86;10;
2;England;Hertfordshire;Old Town;;W0.21;N51.91;10;
2;England;Hertfordshire;Osidge;;W0.15;N51.63;10;
2;England;Hertfordshire;Oughton;;W0.29;N51.95;10;
2;England;Hertfordshire;Oxhey;;W0.38;N51.64;10;
2;England;Hertfordshire;Oxlease;;W0.23;N51.74;10;
2;England;Hertfordshire;Painter's Green;;W0.15;N51.84;10;
2;England;Hertfordshire;Panshanger;;W0.18;N51.80;10;
2;England;Hertfordshire;Park Street;;W0.35;N51.72;10;
2;England;Hertfordshire;Parker's Green;;W0.08;N51.90;10;
2;England;Hertfordshire;Patchetts Green;;W0.35;N51.66;10;
2;England;Hertfordshire;Patient End;;E0.06;N51.92;10;
2;England;Hertfordshire;Patmore Heath;;E0.09;N51.90;10;
2;England;Hertfordshire;Peartree;;W0.20;N51.79;10;
2;England;Hertfordshire;Perry Green;;E0.07;N51.83;10;
2;England;Hertfordshire;Peters Green;;W0.34;N51.85;10;
2;England;Hertfordshire;Piccotts End;;W0.47;N51.77;10;
2;England;Hertfordshire;Pimlico;;W0.42;N51.73;10;
2;England;Hertfordshire;Pin Green;;W0.19;N51.91;10;
2;England;Hertfordshire;Pirton;;W0.34;N51.96;10;
2;England;Hertfordshire;Pitstone;;W0.63;N51.81;10;
2;England;Hertfordshire;Poplars;;W0.17;N51.89;10;
2;England;Hertfordshire;Porter's End;;W0.31;N51.83;10;
2;England;Hertfordshire;Potten End;;W0.53;N51.76;10;
2;England;Hertfordshire;Potters Bar;;W0.19;N51.69;10;
2;England;Hertfordshire;Potters Crouch;;W0.39;N51.73;10;
2;England;Hertfordshire;Pottersheath;;W0.21;N51.84;10;
2;England;Hertfordshire;Pouchen End;;W0.52;N51.74;10;
2;England;Hertfordshire;Presdales;;W0.02;N51.79;10;
2;England;Hertfordshire;Preston;;W0.30;N51.90;10;
2;England;Hertfordshire;Purwell;;W0.25;N51.94;10;
2;England;Hertfordshire;Rableyheath;;W0.21;N51.85;10;
2;England;Hertfordshire;Radlett;;W0.32;N51.67;10;
2;England;Hertfordshire;Radwell;;W0.22;N52.00;10;
2;England;Hertfordshire;Redbourn;;W0.40;N51.79;10;
2;England;Hertfordshire;Redbournbury;;W0.37;N51.77;10;
2;England;Hertfordshire;Redhill;;W0.10;N51.98;10;
2;England;Hertfordshire;Reed;;W0.01;N52.00;10;
2;England;Hertfordshire;Reed End;;W0.04;N52.00;10;
2;England;Hertfordshire;Rhee (Cam);;W0.19;N52.04;10;
2;England;Hertfordshire;Rib;;W0.02;N51.96;10;
2;England;Hertfordshire;Rickmansworth;;W0.49;N51.63;10;
2;England;Hertfordshire;Ridge;;W0.25;N51.68;10;
2;England;Hertfordshire;Roe End;;W0.49;N51.82;10;
2;England;Hertfordshire;Roe Green;;W0.23;N51.75;10;
2;England;Hertfordshire;Roe Green;;W0.09;N51.98;10;
2;England;Hertfordshire;Roestock;;W0.24;N51.73;10;
2;England;Hertfordshire;Rosedale;;W0.06;N51.70;10;
2;England;Hertfordshire;Round Bush;;W0.35;N51.66;10;
2;England;Hertfordshire;Rowley Green;;W0.25;N51.65;10;
2;England;Hertfordshire;Royston;;W0.03;N52.05;10;
2;England;Hertfordshire;Rucklers Lane;;W0.46;N51.72;10;
2;England;Hertfordshire;Rush Green;;W0.04;N51.79;10;
2;England;Hertfordshire;Rush Green;;W0.25;N51.89;10;
2;England;Hertfordshire;Rushden;;W0.10;N51.96;10;
2;England;Hertfordshire;Rusling End;;W0.25;N51.87;10;
2;England;Hertfordshire;Rye Park;;W0.01;N51.76;10;
2;England;Hertfordshire;Sacombe;;W0.07;N51.85;10;
2;England;Hertfordshire;Sacombe Green;;W0.05;N51.85;10;
2;England;Hertfordshire;Sandon;;W0.07;N51.98;10;
2;England;Hertfordshire;Sandridge;;W0.30;N51.77;10;
2;England;Hertfordshire;Sarratt;;W0.49;N51.68;10;
2;England;Hertfordshire;Sawbridgeworth;;E0.14;N51.81;10;
2;England;Hertfordshire;Shaftenhoe End;;E0.03;N52.01;10;
2;England;Hertfordshire;Shaw Green;;W0.12;N51.97;10;
2;England;Hertfordshire;Shenley;;W0.27;N51.68;10;
2;England;Hertfordshire;Shenleybury;;W0.29;N51.69;10;
2;England;Hertfordshire;Shephall;;W0.18;N51.89;10;
2;England;Hertfordshire;Sherrardspark;;W0.21;N51.80;10;
2;England;Hertfordshire;Shootersway;;W0.59;N51.75;10;
2;England;Hertfordshire;Sleapshyde;;W0.26;N51.74;10;
2;England;Hertfordshire;Slip End;;W0.13;N52.00;10;
2;England;Hertfordshire;Smallford;;W0.27;N51.74;10;
2;England;Hertfordshire;Smith's End;;E0.03;N52.01;10;
2;England;Hertfordshire;Smug Oak;;W0.36;N51.70;10;
2;England;Hertfordshire;Snailswell;;W0.29;N51.97;10;
2;England;Hertfordshire;Snow End;;E0.03;N51.96;10;
2;England;Hertfordshire;Sopwell;;W0.33;N51.73;10;
2;England;Hertfordshire;South Hatfield;;W0.23;N51.73;10;
2;England;Hertfordshire;South Mimms;;W0.23;N51.69;10;
2;England;Hertfordshire;South Oxhey;;W0.39;N51.61;10;
2;England;Hertfordshire;South-end;;E0.07;N51.82;10;
2;England;Hertfordshire;Southern Green;;W0.09;N51.96;10;
2;England;Hertfordshire;Spellbrook;;E0.14;N51.83;10;
2;England;Hertfordshire;Spitalbrook;;W0.01;N51.75;10;
2;England;Hertfordshire;St Albans;;W0.33;N51.75;10;
2;England;Hertfordshire;St Ibbs;;W0.27;N51.92;10;
2;England;Hertfordshire;St Ippollitts;;W0.27;N51.92;10;
2;England;Hertfordshire;St Julians;;W0.35;N51.73;10;
2;England;Hertfordshire;St Margarets;;E0.00;N51.78;10;
2;England;Hertfordshire;St Nicholas;;W0.18;N51.91;10;
2;England;Hertfordshire;St Paul's Walden;;W0.27;N51.88;10;
2;England;Hertfordshire;St Stephens;;W0.36;N51.74;10;
2;England;Hertfordshire;Staines Green;;W0.13;N51.78;10;
2;England;Hertfordshire;Stanborough;;W0.23;N51.78;10;
2;England;Hertfordshire;Standon;;E0.00;N51.87;10;
2;England;Hertfordshire;Standon Green End;;W0.02;N51.85;10;
2;England;Hertfordshire;Stanstead Abbots;;E0.01;N51.78;10;
2;England;Hertfordshire;Stapleford;;W0.10;N51.82;10;
2;England;Hertfordshire;Starling's Green;;E0.10;N51.95;10;
2;England;Hertfordshire;Stevenage;;W0.19;N51.90;10;
2;England;Hertfordshire;Stocking Pelham;;E0.10;N51.94;10;
2;England;Hertfordshire;Stort;;E0.15;N51.80;10;
2;England;Hertfordshire;Swanley Bar;;W0.19;N51.70;10;
2;England;Hertfordshire;Symonds Green;;W0.22;N51.91;10;
2;England;Hertfordshire;Tea Green;;W0.35;N51.89;10;
2;England;Hertfordshire;Tewin;;W0.15;N51.81;10;
2;England;Hertfordshire;Tewin Wood;;W0.15;N51.82;10;
2;England;Hertfordshire;The Camp;;W0.32;N51.74;10;
2;England;Hertfordshire;The Folly;;W0.31;N51.81;10;
2;England;Hertfordshire;The Frythe;;W0.23;N51.81;10;
2;England;Hertfordshire;The Grove;;W0.43;N51.67;10;
2;England;Hertfordshire;The Node;;W0.24;N51.86;10;
2;England;Hertfordshire;The Ridgeway;;W0.14;N51.71;10;
2;England;Hertfordshire;The Rookery;;W0.41;N51.63;10;
2;England;Hertfordshire;The Ryde;;W0.21;N51.76;10;
2;England;Hertfordshire;The Swillett;;W0.52;N51.64;10;
2;England;Hertfordshire;Therfield;;W0.06;N52.01;10;
2;England;Hertfordshire;Thorley;;E0.13;N51.85;10;
2;England;Hertfordshire;Thorley Houses;;E0.11;N51.85;10;
2;England;Hertfordshire;Thorley Street;;E0.14;N51.85;10;
2;England;Hertfordshire;Throcking;;W0.06;N51.95;10;
2;England;Hertfordshire;Thundridge;;W0.04;N51.83;10;
2;England;Hertfordshire;Titmore Green;;W0.24;N51.91;10;
2;England;Hertfordshire;Todd's Green;;W0.22;N51.91;10;
2;England;Hertfordshire;Tolmers;;W0.11;N51.71;10;
2;England;Hertfordshire;Tonwell;;W0.07;N51.83;10;
2;England;Hertfordshire;Totteridge;;W0.20;N51.63;10;
2;England;Hertfordshire;Tower Hill;;W0.51;N51.70;10;
2;England;Hertfordshire;Townsend;;W0.34;N51.75;10;
2;England;Hertfordshire;Trims Green;;E0.13;N51.83;10;
2;England;Hertfordshire;Tring;;W0.66;N51.79;10;
2;England;Hertfordshire;Tring Wharf;;W0.66;N51.79;10;
2;England;Hertfordshire;Tringford;;W0.68;N51.80;10;
2;England;Hertfordshire;Trowley Bottom;;W0.44;N51.80;10;
2;England;Hertfordshire;Turnford;;W0.03;N51.71;10;
2;England;Hertfordshire;Two Waters;;W0.48;N51.73;10;
2;England;Hertfordshire;Tylers Causeway;;W0.13;N51.72;10;
2;England;Hertfordshire;Tyttenhanger;;W0.29;N51.73;10;
2;England;Hertfordshire;Underhill;;W0.19;N51.64;10;
2;England;Hertfordshire;Uppend;;E0.12;N51.91;10;
2;England;Hertfordshire;Upper Dunsley;;W0.65;N51.79;10;
2;England;Hertfordshire;Upwick Green;;E0.10;N51.89;10;
2;England;Hertfordshire;Venus Hill;;W0.53;N51.69;10;
2;England;Hertfordshire;Ver;;W0.36;N51.68;10;
2;England;Hertfordshire;Wadesmill;;W0.04;N51.83;10;
2;England;Hertfordshire;Wakeley;;W0.05;N51.91;10;
2;England;Hertfordshire;Walkern;;W0.12;N51.91;10;
2;England;Hertfordshire;Wallington;;W0.12;N51.98;10;
2;England;Hertfordshire;Walnuttree Green;;E0.10;N51.88;10;
2;England;Hertfordshire;Walsworth;;W0.26;N51.95;10;
2;England;Hertfordshire;Ware;;W0.02;N51.80;10;
2;England;Hertfordshire;Wareside;;E0.01;N51.81;10;
2;England;Hertfordshire;Warners End;;W0.50;N51.75;10;
2;England;Hertfordshire;Warren's Green;;W0.16;N51.93;10;
2;England;Hertfordshire;Washall Green;;E0.09;N51.95;10;
2;England;Hertfordshire;Water End;;W0.23;N51.72;10;
2;England;Hertfordshire;Water End;;W0.50;N51.77;10;
2;England;Hertfordshire;Waterdale;;W0.39;N51.70;10;
2;England;Hertfordshire;Waterend;;W0.26;N51.80;10;
2;England;Hertfordshire;Waterford;;W0.10;N51.80;10;
2;England;Hertfordshire;Watford;;W0.41;N51.66;10;
2;England;Hertfordshire;Watford Heath;;W0.38;N51.63;10;
2;England;Hertfordshire;Watton at Stone;;W0.12;N51.85;10;
2;England;Hertfordshire;Welham Green;;W0.22;N51.73;10;
2;England;Hertfordshire;Well End;;W0.26;N51.66;10;
2;England;Hertfordshire;Wellpond Green;;E0.04;N51.87;10;
2;England;Hertfordshire;Welwyn;;W0.23;N51.82;10;
2;England;Hertfordshire;Welwyn Garden City;;W0.20;N51.80;10;
2;England;Hertfordshire;West End;;W0.17;N51.75;10;
2;England;Hertfordshire;West Hyde;;W0.51;N51.60;10;
2;England;Hertfordshire;West Watford;;W0.41;N51.64;10;
2;England;Hertfordshire;Westbrook Hay;;W0.52;N51.73;10;
2;England;Hertfordshire;Westland Green;;E0.06;N51.86;10;
2;England;Hertfordshire;Westmill;;W0.02;N51.92;10;
2;England;Hertfordshire;Westmill;;W0.29;N51.95;10;
2;England;Hertfordshire;Weston;;W0.16;N51.95;10;
2;England;Hertfordshire;Westwick Row;;W0.42;N51.74;10;
2;England;Hertfordshire;Wheathampstead;;W0.30;N51.81;10;
2;England;Hertfordshire;Whempstead;;W0.09;N51.86;10;
2;England;Hertfordshire;Whetstone;;W0.18;N51.62;10;
2;England;Hertfordshire;Whippendell Botton;;W0.48;N51.70;10;
2;England;Hertfordshire;White Hall;;W0.14;N51.87;10;
2;England;Hertfordshire;Whitehall;;W0.06;N51.96;10;
2;England;Hertfordshire;Whitwell;;W0.28;N51.87;10;
2;England;Hertfordshire;Widford;;E0.05;N51.81;10;
2;England;Hertfordshire;Wigginton;;W0.65;N51.78;10;
2;England;Hertfordshire;Wigginton Bottom;;W0.65;N51.77;10;
2;England;Hertfordshire;Wildhill;;W0.17;N51.73;10;
2;England;Hertfordshire;Willian;;W0.22;N51.95;10;
2;England;Hertfordshire;Wilstone;;W0.69;N51.81;10;
2;England;Hertfordshire;Wilstone Reservoir;;W0.69;N51.80;10;
2;England;Hertfordshire;Wood End;;W0.08;N51.90;10;
2;England;Hertfordshire;Woodhall;;W0.20;N51.78;10;
2;England;Hertfordshire;Woodside;;W0.40;N51.69;10;
2;England;Hertfordshire;Woodside;;W0.19;N51.73;10;
2;England;Hertfordshire;Woodside Park;;W0.19;N51.61;10;
2;England;Hertfordshire;Woollensbrook;;W0.03;N51.77;10;
2;England;Hertfordshire;Woolmer Green;;W0.18;N51.84;10;
2;England;Hertfordshire;Wormley;;W0.03;N51.72;10;
2;England;Hertfordshire;Wormley West End;;W0.07;N51.72;10;
2;England;Hertfordshire;Wormleybury;;W0.03;N51.72;10;
2;England;Hertfordshire;Wyddial;;W0.01;N51.96;10;
2;England;Hertfordshire;Wymondley Bury;;W0.24;N51.92;10;
2;England;Hertfordshire;Youngsbury;;W0.01;N51.84;10;