"Level";"Country";"County";"Place";"void";"Longitude";"Latitude";"ZoomLevel";"Icon"
2;England;Yorkshire;Abbeydale;;W1.52;N53.33;10;
2;England;Yorkshire;Abbeydale Park;;W1.53;N53.31;10;
2;England;Yorkshire;Abdy;;W1.35;N53.47;10;
2;England;Yorkshire;Aberford;;W1.34;N53.82;10;
2;England;Yorkshire;Acaster Malbis;;W1.11;N53.89;10;
2;England;Yorkshire;Acaster Selby;;W1.13;N53.86;10;
2;England;Yorkshire;Acklam;;W1.25;N54.54;10;
2;England;Yorkshire;Acklam;;W0.81;N54.03;10;
2;England;Yorkshire;Ackton;;W1.38;N53.68;10;
2;England;Yorkshire;Ackworth Moor Top;;W1.35;N53.63;10;
2;England;Yorkshire;Acomb;;W1.13;N53.94;10;
2;England;Yorkshire;Acre;;W2.10;N53.55;10;
2;England;Yorkshire;Addingham;;W1.89;N53.93;10;
2;England;Yorkshire;Addingham Moorside;;W1.89;N53.91;10;
2;England;Yorkshire;Adel;;W1.59;N53.84;10;
2;England;Yorkshire;Adlingfleet;;W0.72;N53.67;10;
2;England;Yorkshire;Adwalton;;W1.65;N53.74;10;
2;England;Yorkshire;Adwick le Street;;W1.20;N53.55;10;
2;England;Yorkshire;Adwick upon Dearne;;W1.29;N53.50;10;
2;England;Yorkshire;Agbrigg;;W1.48;N53.66;10;
2;England;Yorkshire;Agglethorpe;;W1.87;N54.27;10;
2;England;Yorkshire;Aike;;W0.41;N53.89;10;
2;England;Yorkshire;Aike Beck;;W0.42;N53.90;10;
2;England;Yorkshire;Ainderby Quernhow;;W1.48;N54.21;10;
2;England;Yorkshire;Ainderby Steeple;;W1.49;N54.32;10;
2;England;Yorkshire;Ainley Top;;W1.83;N53.66;10;
2;England;Yorkshire;Ainthorpe;;W0.92;N54.46;10;
2;England;Yorkshire;Aire;;W1.07;N53.70;10;
2;England;Yorkshire;Aire;;W1.30;N53.73;10;
2;England;Yorkshire;Aire and Calder Navigation;;W1.02;N53.65;10;
2;England;Yorkshire;Aire and Calder Navigation;;W1.24;N53.71;10;
2;England;Yorkshire;Aire View;;W2.01;N53.91;10;
2;England;Yorkshire;Airedale;;W1.31;N53.71;10;
2;England;Yorkshire;Airmyn;;W0.91;N53.71;10;
2;England;Yorkshire;Airton;;W2.15;N54.02;10;
2;England;Yorkshire;Airy Hill;;W0.62;N54.46;10;
2;England;Yorkshire;Aiskew;;W1.58;N54.28;10;
2;England;Yorkshire;Aislaby;;W0.81;N54.25;10;
2;England;Yorkshire;Aislaby;;W0.69;N54.46;10;
2;England;Yorkshire;Aldborough;;W1.38;N54.08;10;
2;England;Yorkshire;Aldbrough;;W0.11;N53.82;10;
2;England;Yorkshire;Aldbrough St John;;W1.69;N54.49;10;
2;England;Yorkshire;Aldfield;;W1.60;N54.11;10;
2;England;Yorkshire;Aldwark;;W1.29;N54.06;10;
2;England;Yorkshire;Aldwarke;;W1.33;N53.44;10;
2;England;Yorkshire;Allerston;;W0.66;N54.22;10;
2;England;Yorkshire;Allerthorpe;;W0.81;N53.91;10;
2;England;Yorkshire;Allerton;;W1.83;N53.80;10;
2;England;Yorkshire;Allerton Bywater;;W1.36;N53.73;10;
2;England;Yorkshire;Allerton Mauleverer;;W1.37;N54.01;10;
2;England;Yorkshire;Almholme;;W1.12;N53.56;10;
2;England;Yorkshire;Almondbury;;W1.75;N53.63;10;
2;England;Yorkshire;Alne;;W1.25;N54.07;10;
2;England;Yorkshire;Alne Station;;W1.23;N54.08;10;
2;England;Yorkshire;Alt;;W2.09;N53.52;10;
2;England;Yorkshire;Altofts;;W1.44;N53.70;10;
2;England;Yorkshire;Alverthorpe;;W1.53;N53.68;10;
2;England;Yorkshire;Alwoodley;;W1.54;N53.85;10;
2;England;Yorkshire;Alwoodley Gates;;W1.53;N53.85;10;
2;England;Yorkshire;Alwoodley Park;;W1.56;N53.85;10;
2;England;Yorkshire;Amblecote;;W2.16;N52.46;10;
2;England;Yorkshire;Ambler Thorn;;W1.86;N53.75;10;
2;England;Yorkshire;Amotherby;;W0.86;N54.14;10;
2;England;Yorkshire;Ampleforth;;W1.11;N54.19;10;
2;England;Yorkshire;Angram;;W1.20;N53.92;10;
2;England;Yorkshire;Angram;;W2.18;N54.38;10;
2;England;Yorkshire;Angram Reservoir;;W1.93;N54.17;10;
2;England;Yorkshire;Anlaby;;W0.43;N53.73;10;
2;England;Yorkshire;Anlaby Park;;W0.40;N53.73;10;
2;England;Yorkshire;Apedale Beck;;W1.98;N54.37;10;
2;England;Yorkshire;Apperley Bridge;;W1.71;N53.82;10;
2;England;Yorkshire;Appersett;;W2.23;N54.30;10;
2;England;Yorkshire;Appleton Roebuck;;W1.16;N53.87;10;
2;England;Yorkshire;Appleton Wiske;;W1.40;N54.43;10;
2;England;Yorkshire;Appleton-le-Moors;;W0.88;N54.27;10;
2;England;Yorkshire;Appleton-le-Street;;W0.88;N54.14;10;
2;England;Yorkshire;Appletreewick;;W1.92;N54.03;10;
2;England;Yorkshire;Arbourthorne;;W1.44;N53.36;10;
2;England;Yorkshire;Arckle Beck;;W2.04;N54.44;10;
2;England;Yorkshire;Ardsley;;W1.42;N53.54;10;
2;England;Yorkshire;Arkendale;;W1.42;N54.03;10;
2;England;Yorkshire;Arkle Beck;;W1.94;N54.39;10;
2;England;Yorkshire;Arkle Town;;W2.00;N54.41;10;
2;England;Yorkshire;Arksey;;W1.14;N53.54;10;
2;England;Yorkshire;Armitage Bridge;;W1.80;N53.61;10;
2;England;Yorkshire;Armley;;W1.59;N53.79;10;
2;England;Yorkshire;Armthorpe;;W1.06;N53.52;10;
2;England;Yorkshire;Arncliffe;;W2.10;N54.13;10;
2;England;Yorkshire;Arndale Gill;;W1.93;N54.44;10;
2;England;Yorkshire;Arnold;;W0.29;N53.85;10;
2;England;Yorkshire;Arram;;W0.43;N53.88;10;
2;England;Yorkshire;Arrathorne;;W1.69;N54.33;10;
2;England;Yorkshire;Arrunden;;W1.80;N53.55;10;
2;England;Yorkshire;Arthington;;W1.59;N53.89;10;
2;England;Yorkshire;Arthursdale;;W1.43;N53.82;10;
2;England;Yorkshire;Asenby;;W1.40;N54.16;10;
2;England;Yorkshire;Ashfold Side;;W1.81;N54.09;10;
2;England;Yorkshire;Askern;;W1.17;N53.61;10;
2;England;Yorkshire;Askham Bryan;;W1.16;N53.92;10;
2;England;Yorkshire;Askham Richard;;W1.19;N53.92;10;
2;England;Yorkshire;Askrigg;;W2.09;N54.31;10;
2;England;Yorkshire;Askwith;;W1.75;N53.92;10;
2;England;Yorkshire;Asselby;;W0.92;N53.74;10;
2;England;Yorkshire;Aston;;W1.31;N53.36;10;
2;England;Yorkshire;Athersley North;;W1.47;N53.57;10;
2;England;Yorkshire;Athersley South;;W1.47;N53.57;10;
2;England;Yorkshire;Attercliffe;;W1.44;N53.38;10;
2;England;Yorkshire;Atwick;;W0.18;N53.93;10;
2;England;Yorkshire;Auckley;;W1.02;N53.50;10;
2;England;Yorkshire;Aughton;;W0.93;N53.83;10;
2;England;Yorkshire;Aughton;;W1.32;N53.36;10;
2;England;Yorkshire;Austerfield;;W1.00;N53.43;10;
2;England;Yorkshire;Austerlands;;W2.07;N53.54;10;
2;England;Yorkshire;Austhorpe;;W1.43;N53.79;10;
2;England;Yorkshire;Austwick;;W2.36;N54.10;10;
2;England;Yorkshire;Axwell Park;;W1.70;N54.94;10;
2;England;Yorkshire;Aysgarth;;W2.00;N54.28;10;
2;England;Yorkshire;Azerley;;W1.61;N54.16;10;
2;England;Yorkshire;Badsworth;;W1.30;N53.62;10;
2;England;Yorkshire;Bagby;;W1.29;N54.21;10;
2;England;Yorkshire;Bagby Grange;;W1.31;N54.21;10;
2;England;Yorkshire;Bagley;;W1.66;N53.81;10;
2;England;Yorkshire;Baildon;;W1.77;N53.84;10;
2;England;Yorkshire;Baildon Green;;W1.78;N53.83;10;
2;England;Yorkshire;Bailiff Bridge;;W1.78;N53.71;10;
2;England;Yorkshire;Bain;;W2.09;N54.30;10;
2;England;Yorkshire;Bainbridge;;W2.10;N54.30;10;
2;England;Yorkshire;Bainton;;W0.53;N53.95;10;
2;England;Yorkshire;Balby;;W1.17;N53.50;10;
2;England;Yorkshire;Baldersby;;W1.46;N54.19;10;
2;England;Yorkshire;Baldersby St James;;W1.44;N54.17;10;
2;England;Yorkshire;Balkholme;;W0.81;N53.73;10;
2;England;Yorkshire;Balna Beck;;W1.57;N53.71;10;
2;England;Yorkshire;Balne;;W1.12;N53.66;10;
2;England;Yorkshire;Bank Newton;;W2.13;N53.97;10;
2;England;Yorkshire;Bank Top;;W1.72;N53.82;10;
2;England;Yorkshire;Bank Top;;W1.84;N53.71;10;
2;England;Yorkshire;Bantam Grove;;W1.59;N53.73;10;
2;England;Yorkshire;Baptist End;;W2.08;N52.49;10;
2;England;Yorkshire;Bar Moor;;W1.78;N54.97;10;
2;England;Yorkshire;Barcroft;;W1.94;N53.82;10;
2;England;Yorkshire;Barden;;W1.78;N54.33;10;
2;England;Yorkshire;Barden Beck;;W1.96;N54.01;10;
2;England;Yorkshire;Bardsey;;W1.45;N53.88;10;
2;England;Yorkshire;Barkisland;;W1.92;N53.66;10;
2;England;Yorkshire;Barkston Ash;;W1.25;N53.81;10;
2;England;Yorkshire;Barlby;;W1.04;N53.79;10;
2;England;Yorkshire;Barlow;;W1.76;N54.93;10;
2;England;Yorkshire;Barlow;;W1.03;N53.74;10;
2;England;Yorkshire;Barmby Moor;;W0.82;N53.92;10;
2;England;Yorkshire;Barmby on the Marsh;;W0.97;N53.74;10;
2;England;Yorkshire;Barmston;;W0.23;N54.01;10;
2;England;Yorkshire;Barnbow Carr;;W1.40;N53.81;10;
2;England;Yorkshire;Barnburgh;;W1.27;N53.52;10;
2;England;Yorkshire;Barnby Dun;;W1.08;N53.57;10;
2;England;Yorkshire;Barnes Hall;;W1.50;N53.45;10;
2;England;Yorkshire;Barnoldswick;;W2.52;N54.13;10;
2;England;Yorkshire;Barnside;;W1.74;N53.54;10;
2;England;Yorkshire;Barnsley;;W1.48;N53.54;10;
2;England;Yorkshire;Barrow;;W1.44;N53.47;10;
2;England;Yorkshire;Barrowcliff;;W0.43;N54.28;10;
2;England;Yorkshire;Barton;;W1.64;N54.46;10;
2;England;Yorkshire;Barton Hill;;W0.93;N54.06;10;
2;England;Yorkshire;Barton le Street;;W0.89;N54.15;10;
2;England;Yorkshire;Barton le Willows;;W0.91;N54.05;10;
2;England;Yorkshire;Barugh;;W1.53;N53.56;10;
2;England;Yorkshire;Barugh Green;;W1.53;N53.55;10;
2;England;Yorkshire;Barwick in Elmet;;W1.40;N53.82;10;
2;England;Yorkshire;Bassett;;W1.58;N53.35;10;
2;England;Yorkshire;Batemoor;;W1.47;N53.31;10;
2;England;Yorkshire;Batley;;W1.63;N53.71;10;
2;England;Yorkshire;Batley Carr;;W1.65;N53.70;10;
2;England;Yorkshire;Battersby;;W1.09;N54.45;10;
2;England;Yorkshire;Battyeford;;W1.71;N53.67;10;
2;England;Yorkshire;Bawtry;;W1.02;N53.43;10;
2;England;Yorkshire;Beacon Lough;;W1.58;N54.92;10;
2;England;Yorkshire;Beadlam;;W1.00;N54.24;10;
2;England;Yorkshire;Beal;;W1.19;N53.71;10;
2;England;Yorkshire;Beamsley;;W1.89;N53.96;10;
2;England;Yorkshire;Beauchief;;W1.50;N53.32;10;
2;England;Yorkshire;Beck Bottom;;W1.54;N53.70;10;
2;England;Yorkshire;Beck Foot;;W1.84;N53.83;10;
2;England;Yorkshire;Beckermonds;;W2.20;N54.21;10;
2;England;Yorkshire;Beckwith;;W1.57;N53.96;10;
2;England;Yorkshire;Beckwithshaw;;W1.60;N53.96;10;
2;England;Yorkshire;Bedale;;W1.60;N54.28;10;
2;England;Yorkshire;Bedale Beck;;W1.53;N54.30;10;
2;England;Yorkshire;Bedlam;;W1.60;N54.04;10;
2;England;Yorkshire;Beechcliffe;;W1.92;N53.87;10;
2;England;Yorkshire;Beechwood;;W1.48;N53.81;10;
2;England;Yorkshire;Beeford;;W0.29;N53.97;10;
2;England;Yorkshire;Beeston;;W1.57;N53.76;10;
2;England;Yorkshire;Beeston Hill;;W1.56;N53.77;10;
2;England;Yorkshire;Beeston Park Side;;W1.56;N53.75;10;
2;England;Yorkshire;Beeston Royds;;W1.60;N53.76;10;
2;England;Yorkshire;Beggarington Hill;;W1.59;N53.71;10;
2;England;Yorkshire;Beighton;;W1.34;N53.34;10;
2;England;Yorkshire;Bell Busk;;W2.15;N54.00;10;
2;England;Yorkshire;Bellasize;;W0.75;N53.73;10;
2;England;Yorkshire;Belle Green;;W1.41;N53.57;10;
2;England;Yorkshire;Belle Isle;;W1.53;N53.75;10;
2;England;Yorkshire;Belle Vale;;W2.07;N52.45;10;
2;England;Yorkshire;Belle Vue;;W1.11;N53.51;10;
2;England;Yorkshire;Belle Vue;;W1.48;N53.66;10;
2;England;Yorkshire;Bellerby;;W1.83;N54.32;10;
2;England;Yorkshire;Bell's Close;;W1.70;N54.97;10;
2;England;Yorkshire;Bempton;;W0.18;N54.13;10;
2;England;Yorkshire;Ben Rhydding;;W1.80;N53.91;10;
2;England;Yorkshire;Beningbrough;;W1.20;N54.00;10;
2;England;Yorkshire;Bennetland;;W0.75;N53.74;10;
2;England;Yorkshire;Bensham;;W1.62;N54.95;10;
2;England;Yorkshire;Bentgate;;W2.10;N53.59;10;
2;England;Yorkshire;Bentley;;W1.15;N53.53;10;
2;England;Yorkshire;Bentley;;W0.46;N53.80;10;
2;England;Yorkshire;Bentley Rise;;W1.15;N53.53;10;
2;England;Yorkshire;Bents Head;;W1.87;N53.82;10;
2;England;Yorkshire;Berry Brow;;W1.80;N53.62;10;
2;England;Yorkshire;Berry Moor;;W1.56;N53.52;10;
2;England;Yorkshire;Berrygate Hill;;W0.13;N53.69;10;
2;England;Yorkshire;Berwick Hills;;W1.21;N54.55;10;
2;England;Yorkshire;Bessacarr;;W1.08;N53.50;10;
2;England;Yorkshire;Bessingby;;W0.24;N54.06;10;
2;England;Yorkshire;Beswick;;W0.46;N53.91;10;
2;England;Yorkshire;Beverley;;W0.42;N53.84;10;
2;England;Yorkshire;Beverley and Barmston Drain;;W0.37;N53.91;10;
2;England;Yorkshire;Bewerley;;W1.77;N54.07;10;
2;England;Yorkshire;Bewholme;;W0.23;N53.93;10;
2;England;Yorkshire;Bickerton;;W1.31;N53.94;10;
2;England;Yorkshire;Bielby;;W0.81;N53.87;10;
2;England;Yorkshire;Bielby Beck;;W0.79;N53.88;10;
2;England;Yorkshire;Bierley;;W1.72;N53.76;10;
2;England;Yorkshire;Biggin;;W1.18;N53.79;10;
2;England;Yorkshire;Bilbrough;;W1.19;N53.90;10;
2;England;Yorkshire;Bill Quay;;W1.54;N54.95;10;
2;England;Yorkshire;Billingley;;W1.35;N53.53;10;
2;England;Yorkshire;Bilton;;W0.24;N53.78;10;
2;England;Yorkshire;Bilton;;W1.28;N53.94;10;
2;England;Yorkshire;Bilton;;W1.54;N54.00;10;
2;England;Yorkshire;Bilton Haggs;;W1.30;N53.93;10;
2;England;Yorkshire;Bingley;;W1.83;N53.84;10;
2;England;Yorkshire;Binsoe;;W1.61;N54.20;10;
2;England;Yorkshire;Birchencliffe;;W1.83;N53.65;10;
2;England;Yorkshire;Birdforth;;W1.26;N54.16;10;
2;England;Yorkshire;Birdforth Beck;;W1.23;N54.17;10;
2;England;Yorkshire;Birds Edge;;W1.69;N53.55;10;
2;England;Yorkshire;Birdsall;;W0.76;N54.07;10;
2;England;Yorkshire;Birdwell;;W1.48;N53.50;10;
2;England;Yorkshire;Birkby;;W1.80;N53.65;10;
2;England;Yorkshire;Birkby;;W1.49;N54.41;10;
2;England;Yorkshire;Birkenshaw;;W1.69;N53.74;10;
2;England;Yorkshire;Birkenshaw Bottoms;;W1.68;N53.73;10;
2;England;Yorkshire;Birkhouse;;W1.77;N53.71;10;
2;England;Yorkshire;Birkin;;W1.19;N53.72;10;
2;England;Yorkshire;Birks;;W1.60;N53.73;10;
2;England;Yorkshire;Birley Carr;;W1.50;N53.42;10;
2;England;Yorkshire;Birley Edge;;W1.50;N53.42;10;
2;England;Yorkshire;Birstall;;W1.66;N53.73;10;
2;England;Yorkshire;Birstall Smithies;;W1.66;N53.72;10;
2;England;Yorkshire;Birstwith;;W1.65;N54.02;10;
2;England;Yorkshire;Birtley;;W1.58;N54.89;10;
2;England;Yorkshire;Bishop Burton;;W0.51;N53.83;10;
2;England;Yorkshire;Bishop Monkton;;W1.51;N54.08;10;
2;England;Yorkshire;Bishop Thornton;;W1.60;N54.06;10;
2;England;Yorkshire;Bishop Wilton;;W0.79;N53.98;10;
2;England;Yorkshire;Bishopthorpe;;W1.10;N53.91;10;
2;England;Yorkshire;Bishopton;;W1.55;N54.13;10;
2;England;Yorkshire;Black Hill;;W1.94;N53.86;10;
2;England;Yorkshire;Black Moor;;W1.56;N53.84;10;
2;England;Yorkshire;Blackburn;;W1.42;N53.42;10;
2;England;Yorkshire;Blacker;;W1.50;N53.57;10;
2;England;Yorkshire;Blacker Hill;;W1.45;N53.51;10;
2;England;Yorkshire;Blackfoss Beck;;W0.82;N53.97;10;
2;England;Yorkshire;Blackley;;W1.85;N53.66;10;
2;England;Yorkshire;Blackmoorfoot;;W1.86;N53.61;10;
2;England;Yorkshire;Blackshaw Head;;W2.07;N53.73;10;
2;England;Yorkshire;Blacktoft;;W0.72;N53.70;10;
2;England;Yorkshire;Blackwell;;W1.58;N54.50;10;
2;England;Yorkshire;Blades;;W2.03;N54.37;10;
2;England;Yorkshire;Bland Hill;;W1.69;N53.97;10;
2;England;Yorkshire;Blaxton;;W0.99;N53.49;10;
2;England;Yorkshire;Blaydon;;W1.73;N54.95;10;
2;England;Yorkshire;Blaydon Burn;;W1.75;N54.95;10;
2;England;Yorkshire;Blaydon Haughs;;W1.70;N54.96;10;
2;England;Yorkshire;Bleak Hey Nook;;W2.00;N53.57;10;
2;England;Yorkshire;Blubberhouses;;W1.75;N53.99;10;
2;England;Yorkshire;Bogthorn;;W1.94;N53.84;10;
2;England;Yorkshire;Bolehill;;W1.47;N53.33;10;
2;England;Yorkshire;Bolsterstone;;W1.59;N53.46;10;
2;England;Yorkshire;Boltby;;W1.24;N54.26;10;
2;England;Yorkshire;Bolton;;W1.75;N53.81;10;
2;England;Yorkshire;Bolton;;W0.82;N53.95;10;
2;England;Yorkshire;Bolton Abbey;;W1.89;N53.97;10;
2;England;Yorkshire;Bolton Bridge;;W1.91;N53.97;10;
2;England;Yorkshire;Bolton on Swale;;W1.61;N54.38;10;
2;England;Yorkshire;Bolton Percy;;W1.19;N53.86;10;
2;England;Yorkshire;Bolton Upton Dearne;;W1.32;N53.51;10;
2;England;Yorkshire;Bolton Woods;;W1.77;N53.81;10;
2;England;Yorkshire;Boosbeck;;W0.98;N54.54;10;
2;England;Yorkshire;Booth;;W1.94;N53.73;10;
2;England;Yorkshire;Booth Wood;;W1.95;N53.64;10;
2;England;Yorkshire;Boothferry;;W0.89;N53.72;10;
2;England;Yorkshire;Boothroyd;;W1.65;N53.68;10;
2;England;Yorkshire;Boothtown;;W1.88;N53.73;10;
2;England;Yorkshire;Booze;;W1.98;N54.41;10;
2;England;Yorkshire;Bordley;;W2.09;N54.07;10;
2;England;Yorkshire;Boroughbridge;;W1.40;N54.08;10;
2;England;Yorkshire;Borrowby;;W1.35;N54.29;10;
2;England;Yorkshire;Borrowby;;W0.81;N54.52;10;
2;England;Yorkshire;Bossall;;W0.91;N54.03;10;
2;England;Yorkshire;Boston Spa;;W1.36;N53.89;10;
2;England;Yorkshire;Bottom Boat;;W1.47;N53.71;10;
2;England;Yorkshire;Bottomley;;W1.91;N53.66;10;
2;England;Yorkshire;Boulby;;W0.82;N54.56;10;
2;England;Yorkshire;Boulder Clough;;W1.95;N53.70;10;
2;England;Yorkshire;Bouthwaite;;W1.81;N54.13;10;
2;England;Yorkshire;Bow Broom;;W1.32;N53.48;10;
2;England;Yorkshire;Bowling;;W1.74;N53.77;10;
2;England;Yorkshire;Boynton;;W0.27;N54.09;10;
2;England;Yorkshire;Bracken Bank;;W1.94;N53.84;10;
2;England;Yorkshire;Bracken Hill;;W1.72;N53.68;10;
2;England;Yorkshire;Bracken Park;;W1.46;N53.86;10;
2;England;Yorkshire;Brackenbottom;;W2.29;N54.14;10;
2;England;Yorkshire;Brackenhall;;W1.77;N53.66;10;
2;England;Yorkshire;Brackenthwaite;;W1.59;N53.95;10;
2;England;Yorkshire;Bradford;;W1.75;N53.78;10;
2;England;Yorkshire;Bradgate;;W1.38;N53.43;10;
2;England;Yorkshire;Bradley;;W1.75;N53.67;10;
2;England;Yorkshire;Bradley Mills;;W1.77;N53.64;10;
2;England;Yorkshire;Bradshaw;;W1.89;N53.76;10;
2;England;Yorkshire;Bradshaw;;W1.92;N53.62;10;
2;England;Yorkshire;Bradway;;W1.52;N53.31;10;
2;England;Yorkshire;Brafferton;;W1.34;N54.12;10;
2;England;Yorkshire;Braidley;;W1.95;N54.21;10;
2;England;Yorkshire;Braithwaite;;W1.94;N53.86;10;
2;England;Yorkshire;Braithwaite;;W1.07;N53.60;10;
2;England;Yorkshire;Braithwell;;W1.20;N53.44;10;
2;England;Yorkshire;Brakenhill;;W1.36;N53.63;10;
2;England;Yorkshire;Bramford;;W2.10;N52.53;10;
2;England;Yorkshire;Bramham;;W1.36;N53.88;10;
2;England;Yorkshire;Bramhope;;W1.62;N53.88;10;
2;England;Yorkshire;Bramley;;W1.63;N53.80;10;
2;England;Yorkshire;Bramley;;W1.27;N53.42;10;
2;England;Yorkshire;Bramley Head;;W1.81;N54.01;10;
2;England;Yorkshire;Brampton;;W1.38;N53.50;10;
2;England;Yorkshire;Brampton en le Morthen;;W1.27;N53.38;10;
2;England;Yorkshire;Brandesburton;;W0.31;N53.90;10;
2;England;Yorkshire;Brandsby;;W1.11;N54.14;10;
2;England;Yorkshire;Brandy Carr;;W1.54;N53.70;10;
2;England;Yorkshire;Brantingham;;W0.57;N53.74;10;
2;England;Yorkshire;Branton;;W1.03;N53.50;10;
2;England;Yorkshire;Branton Green;;W1.32;N54.05;10;
2;England;Yorkshire;Brawby;;W0.88;N54.19;10;
2;England;Yorkshire;Brawith;;W1.23;N54.45;10;
2;England;Yorkshire;Braythorn;;W1.63;N53.93;10;
2;England;Yorkshire;Brayton;;W1.09;N53.76;10;
2;England;Yorkshire;Brearley;;W1.97;N53.73;10;
2;England;Yorkshire;Brearton;;W1.51;N54.03;10;
2;England;Yorkshire;Brecks;;W1.30;N53.42;10;
2;England;Yorkshire;Breighton;;W0.92;N53.79;10;
2;England;Yorkshire;Brick Houses;;W1.55;N53.32;10;
2;England;Yorkshire;Bridge Hewick;;W1.49;N54.12;10;
2;England;Yorkshire;Bridgehouse Gate;;W1.77;N54.08;10;
2;England;Yorkshire;Bridlington;;W0.19;N54.08;10;
2;England;Yorkshire;Brierholme Carr;;W0.97;N53.58;10;
2;England;Yorkshire;Brierley;;W1.38;N53.58;10;
2;England;Yorkshire;Brierley Hill;;W2.11;N52.47;10;
2;England;Yorkshire;Brierton;;W1.27;N54.66;10;
2;England;Yorkshire;Briestfield;;W1.65;N53.64;10;
2;England;Yorkshire;Briggswath;;W0.67;N54.46;10;
2;England;Yorkshire;Brigham;;W0.37;N53.96;10;
2;England;Yorkshire;Brighouse;;W1.78;N53.70;10;
2;England;Yorkshire;Brightholmlee;;W1.56;N53.45;10;
2;England;Yorkshire;Brightside;;W1.44;N53.39;10;
2;England;Yorkshire;Brincliffe;;W1.50;N53.36;10;
2;England;Yorkshire;Brind;;W0.87;N53.77;10;
2;England;Yorkshire;Brinsworth;;W1.38;N53.40;10;
2;England;Yorkshire;Briscoerigg;;W1.62;N53.94;10;
2;England;Yorkshire;Bristnall Fields;;W2.01;N52.47;10;
2;England;Yorkshire;Broad Carr;;W1.86;N53.66;10;
2;England;Yorkshire;Broad Ings;;W0.78;N53.94;10;
2;England;Yorkshire;Brockholes;;W1.78;N53.59;10;
2;England;Yorkshire;Brockmoor;;W2.13;N52.48;10;
2;England;Yorkshire;Brodsworth;;W1.24;N53.55;10;
2;England;Yorkshire;Brokes;;W1.77;N54.38;10;
2;England;Yorkshire;Bromley;;W1.51;N53.47;10;
2;England;Yorkshire;Bromley;;W2.14;N52.49;10;
2;England;Yorkshire;Brompton;;W1.43;N54.35;10;
2;England;Yorkshire;Brompton by Sawdon;;W0.55;N54.22;10;
2;England;Yorkshire;Brompton on Swale;;W1.67;N54.38;10;
2;England;Yorkshire;Brookfield;;W1.25;N54.52;10;
2;England;Yorkshire;Brookfoot;;W1.80;N53.70;10;
2;England;Yorkshire;Brookhouse;;W1.91;N53.75;10;
2;England;Yorkshire;Brookhouse;;W1.23;N53.38;10;
2;England;Yorkshire;Brooklands;;W1.48;N53.81;10;
2;England;Yorkshire;Broom;;W1.33;N53.41;10;
2;England;Yorkshire;Broomfleet;;W0.66;N53.73;10;
2;England;Yorkshire;Broomhill;;W1.38;N53.51;10;
2;England;Yorkshire;Brotherton;;W1.27;N53.71;10;
2;England;Yorkshire;Brotton;;W0.94;N54.56;10;
2;England;Yorkshire;Brough;;W0.59;N53.72;10;
2;England;Yorkshire;Broughton;;W2.09;N53.95;10;
2;England;Yorkshire;Broughton;;W0.83;N54.14;10;
2;England;Yorkshire;Broughton Beck;;W1.17;N54.45;10;
2;England;Yorkshire;Broughton Bridge Beck;;W1.09;N54.44;10;
2;England;Yorkshire;Brown Bank;;W1.68;N53.97;10;
2;England;Yorkshire;Brown Moor;;W1.43;N53.79;10;
2;England;Yorkshire;Bruntcliffe;;W1.62;N53.73;10;
2;England;Yorkshire;Brunthwaite;;W1.92;N53.91;10;
2;England;Yorkshire;Bubwith;;W0.92;N53.81;10;
2;England;Yorkshire;Buckden;;W2.09;N54.18;10;
2;England;Yorkshire;Buckpool;;W2.16;N52.47;10;
2;England;Yorkshire;Buckton;;W0.19;N54.13;10;
2;England;Yorkshire;Bugthorpe;;W0.82;N54.00;10;
2;England;Yorkshire;Bullamoor;;W1.40;N54.34;10;
2;England;Yorkshire;Bulmer;;W0.94;N54.09;10;
2;England;Yorkshire;Bulmer Beck;;W1.08;N54.14;10;
2;England;Yorkshire;Burghwallis;;W1.20;N53.59;10;
2;England;Yorkshire;Burley;;W1.59;N53.80;10;
2;England;Yorkshire;Burley in Wharfedale;;W1.75;N53.91;10;
2;England;Yorkshire;Burley Woodhead;;W1.77;N53.89;10;
2;England;Yorkshire;Burmantofts;;W1.51;N53.80;10;
2;England;Yorkshire;Burn;;W1.10;N53.74;10;
2;England;Yorkshire;Burn;;W1.71;N54.21;10;
2;England;Yorkshire;Burn Bridge;;W1.54;N53.95;10;
2;England;Yorkshire;Burnby;;W0.73;N53.90;10;
2;England;Yorkshire;Burncross;;W1.48;N53.46;10;
2;England;Yorkshire;Burnedge;;W2.12;N53.58;10;
2;England;Yorkshire;Burneston;;W1.54;N54.26;10;
2;England;Yorkshire;Burngreave;;W1.47;N53.38;10;
2;England;Yorkshire;Burniston;;W0.44;N54.32;10;
2;England;Yorkshire;Burnlee;;W1.82;N53.55;10;
2;England;Yorkshire;Burnsall;;W1.95;N54.04;10;
2;England;Yorkshire;Burnt Tree;;W2.07;N52.50;10;
2;England;Yorkshire;Burnt Yates;;W1.61;N54.04;10;
2;England;Yorkshire;Burrill;;W1.64;N54.27;10;
2;England;Yorkshire;Bursea;;W0.78;N53.78;10;
2;England;Yorkshire;Burshill;;W0.34;N53.91;10;
2;England;Yorkshire;Burstwick;;W0.15;N53.72;10;
2;England;Yorkshire;Burstwick Drain;;W0.20;N53.73;10;
2;England;Yorkshire;Burtersett;;W2.17;N54.29;10;
2;England;Yorkshire;Burton Agnes;;W0.32;N54.05;10;
2;England;Yorkshire;Burton Beck;;W1.68;N54.30;10;
2;England;Yorkshire;Burton Fleming;;W0.34;N54.13;10;
2;England;Yorkshire;Burton in Lonsdale;;W2.53;N54.14;10;
2;England;Yorkshire;Burton Leonard;;W1.51;N54.06;10;
2;England;Yorkshire;Burton Pidsea;;W0.10;N53.76;10;
2;England;Yorkshire;Burton Salmon;;W1.25;N53.73;10;
2;England;Yorkshire;Burythorpe;;W0.79;N54.06;10;
2;England;Yorkshire;Busk;;W2.13;N53.54;10;
2;England;Yorkshire;Buttercrambe;;W0.88;N54.01;10;
2;England;Yorkshire;Buttershaw;;W1.80;N53.75;10;
2;England;Yorkshire;Butterwick;;W0.48;N54.12;10;
2;England;Yorkshire;Butterwick;;W0.88;N54.18;10;
2;England;Yorkshire;Byland Abbey;;W1.17;N54.19;10;
2;England;Yorkshire;Byram;;W1.27;N53.71;10;
2;England;Yorkshire;Cackleshaw;;W1.94;N53.83;10;
2;England;Yorkshire;Cadeby;;W1.23;N53.49;10;
2;England;Yorkshire;Calcutt;;W1.48;N53.99;10;
2;England;Yorkshire;Caldbergh;;W1.86;N54.26;10;
2;England;Yorkshire;Calder;;W1.47;N53.67;10;
2;England;Yorkshire;Calder and Hebble Navigation;;W1.61;N53.67;10;
2;England;Yorkshire;Calder Grove;;W1.54;N53.64;10;
2;England;Yorkshire;Caldwell;;W1.75;N54.51;10;
2;England;Yorkshire;Calton;;W2.15;N54.02;10;
2;England;Yorkshire;Calverley;;W1.69;N53.82;10;
2;England;Yorkshire;Camblesforth;;W1.03;N53.72;10;
2;England;Yorkshire;Cambridge;;W1.69;N53.90;10;
2;England;Yorkshire;Camerton;;W0.15;N53.71;10;
2;England;Yorkshire;Camp Hill;;W1.92;N53.64;10;
2;England;Yorkshire;Camp Hill;;W1.52;N54.23;10;
2;England;Yorkshire;Camp Town;;W1.54;N53.84;10;
2;England;Yorkshire;Campsall;;W1.18;N53.61;10;
2;England;Yorkshire;Canal Side;;W0.97;N53.60;10;
2;England;Yorkshire;Canklow;;W1.36;N53.40;10;
2;England;Yorkshire;Cantley;;W1.06;N53.51;10;
2;England;Yorkshire;Carbrook;;W1.42;N53.39;10;
2;England;Yorkshire;Carcroft;;W1.18;N53.58;10;
2;England;Yorkshire;Cargo Fleet;;W1.21;N54.57;10;
2;England;Yorkshire;Carlbury;;W1.67;N54.53;10;
2;England;Yorkshire;Carlecotes;;W1.74;N53.52;10;
2;England;Yorkshire;Carlesmoor;;W1.72;N54.15;10;
2;England;Yorkshire;Carleton;;W2.04;N53.93;10;
2;England;Yorkshire;Carleton;;W1.30;N53.67;10;
2;England;Yorkshire;Carlin How;;W0.91;N54.56;10;
2;England;Yorkshire;Carlinghow;;W1.65;N53.71;10;
2;England;Yorkshire;Carlton;;W1.45;N53.58;10;
2;England;Yorkshire;Carlton;;W1.50;N53.73;10;
2;England;Yorkshire;Carlton;;W1.03;N53.70;10;
2;England;Yorkshire;Carlton;;W1.90;N54.25;10;
2;England;Yorkshire;Carlton;;W1.08;N54.26;10;
2;England;Yorkshire;Carlton Husthwaite;;W1.25;N54.17;10;
2;England;Yorkshire;Carlton in Cleveland;;W1.23;N54.42;10;
2;England;Yorkshire;Carlton Miniott;;W1.40;N54.22;10;
2;England;Yorkshire;Carnaby;;W0.25;N54.06;10;
2;England;Yorkshire;Carperby;;W2.00;N54.29;10;
2;England;Yorkshire;Carr;;W1.23;N53.40;10;
2;England;Yorkshire;Carr Beck;;W1.32;N54.39;10;
2;England;Yorkshire;Carr Gate;;W1.53;N53.71;10;
2;England;Yorkshire;Carr Hill;;W1.59;N54.94;10;
2;England;Yorkshire;Carter Knowle;;W1.50;N53.35;10;
2;England;Yorkshire;Carthorpe;;W1.54;N54.24;10;
2;England;Yorkshire;Cartworth;;W1.79;N53.55;10;
2;England;Yorkshire;Castle Bolton;;W1.95;N54.31;10;
2;England;Yorkshire;Castle Green;;W1.62;N53.51;10;
2;England;Yorkshire;Castle Street;;W2.07;N53.71;10;
2;England;Yorkshire;Castleford;;W1.36;N53.72;10;
2;England;Yorkshire;Castleton;;W0.95;N54.46;10;
2;England;Yorkshire;Castley;;W1.60;N53.90;10;
2;England;Yorkshire;Cat Hill;;W1.63;N53.54;10;
2;England;Yorkshire;Catcliffe;;W1.36;N53.38;10;
2;England;Yorkshire;Catherine Slack;;W1.86;N53.74;10;
2;England;Yorkshire;Catshaw;;W1.69;N53.52;10;
2;England;Yorkshire;Cattal;;W1.33;N53.98;10;
2;England;Yorkshire;Catterick;;W1.63;N54.36;10;
2;England;Yorkshire;Catterick Bridge;;W1.66;N54.38;10;
2;England;Yorkshire;Catterton;;W1.22;N53.89;10;
2;England;Yorkshire;Catton;;W1.43;N54.19;10;
2;England;Yorkshire;Catwick;;W0.28;N53.88;10;
2;England;Yorkshire;Causeway Foot;;W1.89;N53.77;10;
2;England;Yorkshire;Causeway Foot;;W1.71;N53.60;10;
2;England;Yorkshire;Cawkeld;;W0.49;N53.93;10;
2;England;Yorkshire;Cawood;;W1.13;N53.82;10;
2;England;Yorkshire;Cawthorne;;W1.57;N53.55;10;
2;England;Yorkshire;Cawthorne;;W0.81;N54.29;10;
2;England;Yorkshire;Cawton;;W1.02;N54.17;10;
2;England;Yorkshire;Cayton;;W0.39;N54.23;10;
2;England;Yorkshire;Chadderton;;W2.15;N53.54;10;
2;England;Yorkshire;Chadderton Fold;;W2.16;N53.55;10;
2;England;Yorkshire;Chapel Allerton;;W1.54;N53.82;10;
2;England;Yorkshire;Chapel Fields;;W1.14;N53.95;10;
2;England;Yorkshire;Chapel Haddlesey;;W1.12;N53.72;10;
2;England;Yorkshire;Chapel-le-Dale;;W2.41;N54.18;10;
2;England;Yorkshire;Chapelthorpe;;W1.53;N53.63;10;
2;England;Yorkshire;Chapeltown;;W1.47;N53.46;10;
2;England;Yorkshire;Charlestown;;W1.77;N53.83;10;
2;England;Yorkshire;Charlestown;;W2.04;N53.73;10;
2;England;Yorkshire;Charlton;;W1.01;N54.52;10;
2;England;Yorkshire;Charltonbrook;;W1.48;N53.46;10;
2;England;Yorkshire;Chat Hill;;W1.83;N53.78;10;
2;England;Yorkshire;Chequerfield;;W1.30;N53.67;10;
2;England;Yorkshire;Cherry Burton;;W0.49;N53.86;10;
2;England;Yorkshire;Chesterfield Canal;;W1.20;N53.32;10;
2;England;Yorkshire;Chevin End;;W1.72;N53.89;10;
2;England;Yorkshire;Chickenley;;W1.60;N53.68;10;
2;England;Yorkshire;Chidswell;;W1.60;N53.70;10;
2;England;Yorkshire;Chiserley;;W2.00;N53.74;10;
2;England;Yorkshire;Chop Gate;;W1.15;N54.38;10;
2;England;Yorkshire;Chopwell;;W1.82;N54.91;10;
2;England;Yorkshire;Chowdene;;W1.61;N54.92;10;
2;England;Yorkshire;Church End;;W0.33;N53.96;10;
2;England;Yorkshire;Church Fenton;;W1.22;N53.81;10;
2;England;Yorkshire;Church Houses;;W0.98;N54.36;10;
2;England;Yorkshire;Churwell;;W1.59;N53.75;10;
2;England;Yorkshire;Cinder Hill;;W2.11;N52.54;10;
2;England;Yorkshire;Clapham;;W2.39;N54.11;10;
2;England;Yorkshire;Clapham Green;;W1.63;N54.01;10;
2;England;Yorkshire;Clara Vale;;W1.79;N54.97;10;
2;England;Yorkshire;Claremount;;W1.86;N53.72;10;
2;England;Yorkshire;Clarksfield;;W2.09;N53.53;10;
2;England;Yorkshire;Claxton;;W0.94;N54.03;10;
2;England;Yorkshire;Clayton;;W1.81;N53.77;10;
2;England;Yorkshire;Clayton;;W1.32;N53.55;10;
2;England;Yorkshire;Clayton Heights;;W1.83;N53.76;10;
2;England;Yorkshire;Clayton West;;W1.62;N53.58;10;
2;England;Yorkshire;Cleasby;;W1.61;N54.51;10;
2;England;Yorkshire;Cleckheaton;;W1.72;N53.72;10;
2;England;Yorkshire;Clerk Green;;W1.65;N53.70;10;
2;England;Yorkshire;Cleveland Hills;;W1.07;N54.44;10;
2;England;Yorkshire;Cliff End;;W1.81;N53.64;10;
2;England;Yorkshire;Cliffe;;W0.99;N53.78;10;
2;England;Yorkshire;Cliffe;;W1.67;N54.53;10;
2;England;Yorkshire;Clifford;;W1.36;N53.89;10;
2;England;Yorkshire;Clifton;;W1.77;N53.69;10;
2;England;Yorkshire;Clifton;;W1.23;N53.45;10;
2;England;Yorkshire;Clifton;;W1.71;N53.92;10;
2;England;Yorkshire;Clifton;;W1.35;N53.42;10;
2;England;Yorkshire;Clifton;;W1.10;N53.97;10;
2;England;Yorkshire;Clint;;W1.61;N54.02;10;
2;England;Yorkshire;Clints;;W1.84;N54.39;10;
2;England;Yorkshire;Clough;;W1.86;N53.61;10;
2;England;Yorkshire;Clough;;W2.09;N53.56;10;
2;England;Yorkshire;Clough Foot;;W2.15;N53.70;10;
2;England;Yorkshire;Clough Head;;W1.91;N53.69;10;
2;England;Yorkshire;Clough Head;;W1.88;N53.63;10;
2;England;Yorkshire;Cloughton;;W0.46;N54.33;10;
2;England;Yorkshire;Cloughton Newlands;;W0.44;N54.34;10;
2;England;Yorkshire;Coalburns;;W1.81;N54.94;10;
2;England;Yorkshire;Coatham;;W1.08;N54.61;10;
2;England;Yorkshire;Cobby Syke;;W1.71;N53.99;10;
2;England;Yorkshire;Cock Beck;;W1.45;N53.83;10;
2;England;Yorkshire;Cock Beck;;W1.29;N53.83;10;
2;England;Yorkshire;Cock Hill;;W1.22;N53.98;10;
2;England;Yorkshire;Cockayne;;W1.04;N54.37;10;
2;England;Yorkshire;Cockersdale;;W1.65;N53.75;10;
2;England;Yorkshire;Cockley Hill;;W1.72;N53.64;10;
2;England;Yorkshire;Cod Beck;;W1.34;N54.26;10;
2;England;Yorkshire;Coisley Hill;;W1.38;N53.35;10;
2;England;Yorkshire;Colburn;;W1.69;N54.37;10;
2;England;Yorkshire;Cold Cotes;;W2.44;N54.13;10;
2;England;Yorkshire;Cold Hiendley;;W1.44;N53.62;10;
2;England;Yorkshire;Cold Kirby;;W1.18;N54.24;10;
2;England;Yorkshire;Colden;;W2.06;N53.74;10;
2;England;Yorkshire;Coley;;W1.81;N53.73;10;
2;England;Yorkshire;Collingham;;W1.42;N53.90;10;
2;England;Yorkshire;Colne;;W1.97;N53.61;10;
2;England;Yorkshire;Colne Bridge;;W1.74;N53.67;10;
2;England;Yorkshire;Colsterdale;;W1.80;N54.22;10;
2;England;Yorkshire;Colton;;W1.45;N53.78;10;
2;England;Yorkshire;Colton;;W1.17;N53.88;10;
2;England;Yorkshire;Combs;;W1.63;N53.66;10;
2;England;Yorkshire;Commondale;;W0.98;N54.48;10;
2;England;Yorkshire;Compton;;W1.40;N53.89;10;
2;England;Yorkshire;Conanby;;W1.26;N53.47;10;
2;England;Yorkshire;Coneysthorpe;;W0.91;N54.13;10;
2;England;Yorkshire;Coneythorpe;;W1.40;N54.01;10;
2;England;Yorkshire;Conisbrough;;W1.23;N53.47;10;
2;England;Yorkshire;Coniston;;W0.25;N53.79;10;
2;England;Yorkshire;Coniston Cold;;W2.15;N53.99;10;
2;England;Yorkshire;Conistone;;W2.03;N54.09;10;
2;England;Yorkshire;Cononley;;W2.03;N53.91;10;
2;England;Yorkshire;Cononley Woodside;;W2.03;N53.91;10;
2;England;Yorkshire;Constable Burton;;W1.75;N54.30;10;
2;England;Yorkshire;Cookridge;;W1.62;N53.85;10;
2;England;Yorkshire;Coombeswood;;W2.04;N52.46;10;
2;England;Yorkshire;Copgrove;;W1.48;N54.06;10;
2;England;Yorkshire;Copley;;W1.88;N53.69;10;
2;England;Yorkshire;Copley Hill;;W1.65;N53.73;10;
2;England;Yorkshire;Copmanthorpe;;W1.14;N53.91;10;
2;England;Yorkshire;Coppice;;W2.12;N53.52;10;
2;England;Yorkshire;Copster Hill;;W2.12;N53.52;10;
2;England;Yorkshire;Copt Hewick;;W1.49;N54.13;10;
2;England;Yorkshire;Cornholme;;W2.15;N53.73;10;
2;England;Yorkshire;Cortworth;;W1.39;N53.47;10;
2;England;Yorkshire;Coseley;;W2.08;N52.54;10;
2;England;Yorkshire;Cotterdale;;W2.26;N54.33;10;
2;England;Yorkshire;Cotterhill Woods;;W1.17;N53.33;10;
2;England;Yorkshire;Cottingham;;W0.39;N53.78;10;
2;England;Yorkshire;Cottingley;;W1.83;N53.82;10;
2;England;Yorkshire;Cotton Stones;;W1.97;N53.68;10;
2;England;Yorkshire;Coulby Newham;;W1.22;N54.51;10;
2;England;Yorkshire;Coulton;;W1.03;N54.15;10;
2;England;Yorkshire;Countersett;;W2.13;N54.28;10;
2;England;Yorkshire;Cover;;W1.80;N54.27;10;
2;England;Yorkshire;Coverham;;W1.84;N54.27;10;
2;England;Yorkshire;Cowcliffe;;W1.80;N53.65;10;
2;England;Yorkshire;Cowesby;;W1.29;N54.29;10;
2;England;Yorkshire;Cowling;;W2.06;N53.88;10;
2;England;Yorkshire;Cowling;;W1.64;N54.27;10;
2;England;Yorkshire;Cowmes;;W1.72;N53.64;10;
2;England;Yorkshire;Cowthorpe;;W1.36;N53.96;10;
2;England;Yorkshire;Coxley;;W1.59;N53.64;10;
2;England;Yorkshire;Coxwold;;W1.18;N54.18;10;
2;England;Yorkshire;Crackenedge;;W1.63;N53.69;10;
2;England;Yorkshire;Crackpot;;W2.04;N54.35;10;
2;England;Yorkshire;Cracoe;;W2.04;N54.03;10;
2;England;Yorkshire;Cradle Edge;;W1.91;N53.83;10;
2;England;Yorkshire;Cradley;;W2.08;N52.45;10;
2;England;Yorkshire;Cradley Heath;;W2.08;N52.46;10;
2;England;Yorkshire;Cragg Hill;;W1.63;N53.82;10;
2;England;Yorkshire;Cragg Vale;;W2.00;N53.70;10;
2;England;Yorkshire;Crakehill;;W1.35;N54.15;10;
2;England;Yorkshire;Crambe;;W0.88;N54.06;10;
2;England;Yorkshire;Crambeck;;W0.88;N54.09;10;
2;England;Yorkshire;Crane Moor;;W1.54;N53.50;10;
2;England;Yorkshire;Cranswick;;W0.46;N53.95;10;
2;England;Yorkshire;Crathorne;;W1.32;N54.45;10;
2;England;Yorkshire;Crawcrook;;W1.79;N54.96;10;
2;England;Yorkshire;Crawshaw;;W1.65;N53.61;10;
2;England;Yorkshire;Cray;;W2.09;N54.20;10;
2;England;Yorkshire;Crayke;;W1.14;N54.12;10;
2;England;Yorkshire;Cridling Stubbs;;W1.21;N53.68;10;
2;England;Yorkshire;Crigglestone;;W1.53;N53.63;10;
2;England;Yorkshire;Crimple Beck (River Crimple);;W1.46;N53.97;10;
2;England;Yorkshire;Cringles;;W1.94;N53.92;10;
2;England;Yorkshire;Crockey Hill;;W1.05;N53.90;10;
2;England;Yorkshire;Crofton;;W1.42;N53.64;10;
2;England;Yorkshire;Croft-on-Tees;;W1.56;N54.47;10;
2;England;Yorkshire;Crofts;;W0.15;N54.11;10;
2;England;Yorkshire;Crompton Fold;;W2.09;N53.57;10;
2;England;Yorkshire;Cromwell Bottom;;W1.81;N53.69;10;
2;England;Yorkshire;Crookes;;W1.52;N53.37;10;
2;England;Yorkshire;Crookesmoor;;W1.50;N53.37;10;
2;England;Yorkshire;Crookhill;;W1.76;N54.96;10;
2;England;Yorkshire;Cropton;;W0.84;N54.29;10;
2;England;Yorkshire;Crosby Court;;W1.40;N54.31;10;
2;England;Yorkshire;Crosland Edge;;W1.85;N53.59;10;
2;England;Yorkshire;Crosland Hill;;W1.83;N53.62;10;
2;England;Yorkshire;Crosland Moor;;W1.83;N53.63;10;
2;England;Yorkshire;Cross Gates;;W1.86;N53.84;10;
2;England;Yorkshire;Cross Gates;;W1.47;N53.80;10;
2;England;Yorkshire;Cross Green;;W1.51;N53.78;10;
2;England;Yorkshire;Cross Hills;;W2.00;N53.89;10;
2;England;Yorkshire;Cross Holme;;W1.13;N54.35;10;
2;England;Yorkshire;Cross Lanes;;W1.20;N54.07;10;
2;England;Yorkshire;Cross Roads;;W1.94;N53.82;10;
2;England;Yorkshire;Crossflatts;;W1.84;N53.85;10;
2;England;Yorkshire;Crossgates;;W0.42;N54.24;10;
2;England;Yorkshire;Crossley Hall;;W1.80;N53.79;10;
2;England;Yorkshire;Crow Edge;;W1.72;N53.53;10;
2;England;Yorkshire;Crow Nest;;W1.83;N53.84;10;
2;England;Yorkshire;Crowdon;;W0.47;N54.35;10;
2;England;Yorkshire;Cubeck;;W2.07;N54.29;10;
2;England;Yorkshire;Cubley;;W1.63;N53.51;10;
2;England;Yorkshire;Cudworth;;W1.42;N53.56;10;
2;England;Yorkshire;Cudworth Common;;W1.41;N53.55;10;
2;England;Yorkshire;Cullingworth;;W1.91;N53.82;10;
2;England;Yorkshire;Cundall;;W1.35;N54.14;10;
2;England;Yorkshire;Cundy Cross;;W1.44;N53.54;10;
2;England;Yorkshire;Cundy Hos;;W1.53;N53.46;10;
2;England;Yorkshire;Cusworth;;W1.18;N53.53;10;
2;England;Yorkshire;Cutsyke;;W1.36;N53.71;10;
2;England;Yorkshire;Dacre;;W1.71;N54.03;10;
2;England;Yorkshire;Dacre Banks;;W1.71;N54.04;10;
2;England;Yorkshire;Daisy Hill;;W1.80;N53.80;10;
2;England;Yorkshire;Daisy Hill;;W1.60;N53.74;10;
2;England;Yorkshire;Daisy Nook;;W2.13;N53.49;10;
2;England;Yorkshire;Dalby;;W1.03;N54.13;10;
2;England;Yorkshire;Dale;;W2.03;N53.56;10;
2;England;Yorkshire;Dale End;;W2.06;N53.91;10;
2;England;Yorkshire;Dallow;;W1.71;N54.13;10;
2;England;Yorkshire;Dalton;;W1.75;N53.64;10;
2;England;Yorkshire;Dalton;;W1.34;N54.17;10;
2;England;Yorkshire;Dalton;;W1.83;N54.46;10;
2;England;Yorkshire;Dalton;;W1.32;N53.44;10;
2;England;Yorkshire;Dalton Magna;;W1.30;N53.43;10;
2;England;Yorkshire;Dalton Parva;;W1.32;N53.43;10;
2;England;Yorkshire;Dalton Piercy;;W1.28;N54.67;10;
2;England;Yorkshire;Dalton-on-Tees;;W1.55;N54.45;10;
2;England;Yorkshire;Dam Head;;W1.84;N53.73;10;
2;England;Yorkshire;Damems;;W1.94;N53.84;10;
2;England;Yorkshire;Danby;;W0.92;N54.46;10;
2;England;Yorkshire;Danby Wiske;;W1.49;N54.37;10;
2;England;Yorkshire;Danthorpe;;W0.11;N53.77;10;
2;England;Yorkshire;Darby End;;W2.07;N52.48;10;
2;England;Yorkshire;Darfield;;W1.38;N53.53;10;
2;England;Yorkshire;Darley;;W1.69;N54.02;10;
2;England;Yorkshire;Darley Head;;W1.71;N54.02;10;
2;England;Yorkshire;Darlington;;W1.56;N54.52;10;
2;England;Yorkshire;Darnall;;W1.41;N53.38;10;
2;England;Yorkshire;Darrington;;W1.27;N53.67;10;
2;England;Yorkshire;Darton;;W1.51;N53.58;10;
2;England;Yorkshire;Daw Cross;;W1.55;N53.95;10;
2;England;Yorkshire;Dawker Hill;;W1.10;N53.81;10;
2;England;Yorkshire;Dean Head;;W1.60;N53.49;10;
2;England;Yorkshire;Dean Lane Head;;W1.86;N53.80;10;
2;England;Yorkshire;Dearne;;W1.36;N53.52;10;
2;England;Yorkshire;Dearne;;W1.30;N53.53;10;
2;England;Yorkshire;Deckham;;W1.59;N54.94;10;
2;England;Yorkshire;Deepcar;;W1.57;N53.46;10;
2;England;Yorkshire;Deepdale;;W2.17;N54.20;10;
2;England;Yorkshire;Deepfields;;W2.08;N52.54;10;
2;England;Yorkshire;Deerstones;;W1.87;N53.97;10;
2;England;Yorkshire;Deighton;;W1.75;N53.66;10;
2;England;Yorkshire;Deighton;;W1.41;N54.40;10;
2;England;Yorkshire;Deighton;;W1.05;N53.88;10;
2;England;Yorkshire;Delph;;W2.03;N53.56;10;
2;England;Yorkshire;Denaby Main;;W1.26;N53.48;10;
2;England;Yorkshire;Denby Dale;;W1.66;N53.56;10;
2;England;Yorkshire;Denholme;;W1.91;N53.80;10;
2;England;Yorkshire;Denholme Clough;;W1.89;N53.78;10;
2;England;Yorkshire;Denholme Edge;;W1.91;N53.80;10;
2;England;Yorkshire;Denholme Gate;;W1.89;N53.78;10;
2;England;Yorkshire;Denshaw;;W2.04;N53.58;10;
2;England;Yorkshire;Denton;;W1.78;N53.92;10;
2;England;Yorkshire;Derwent;;W0.92;N53.93;10;
2;England;Yorkshire;Derwent;;W1.73;N54.92;10;
2;England;Yorkshire;Derwent;;W0.56;N54.20;10;
2;England;Yorkshire;Derwent;;W1.74;N53.44;10;
2;England;Yorkshire;Dewsbury;;W1.63;N53.69;10;
2;England;Yorkshire;Dewsbury Moor;;W1.66;N53.69;10;
2;England;Yorkshire;Diggle;;W2.00;N53.56;10;
2;England;Yorkshire;Dinnington;;W1.22;N53.35;10;
2;England;Yorkshire;Dishforth;;W1.41;N54.15;10;
2;England;Yorkshire;Dobcross;;W2.01;N53.55;10;
2;England;Yorkshire;Dockroyd;;W1.95;N53.83;10;
2;England;Yorkshire;Dodworth;;W1.53;N53.54;10;
2;England;Yorkshire;Dodworth Bottom;;W1.53;N53.53;10;
2;England;Yorkshire;Dodworth Green;;W1.53;N53.53;10;
2;England;Yorkshire;Dog Hill;;W2.07;N53.57;10;
2;England;Yorkshire;Dogley Lane;;W1.72;N53.62;10;
2;England;Yorkshire;Don;;W1.38;N53.42;10;
2;England;Yorkshire;Doncaster;;W1.14;N53.51;10;
2;England;Yorkshire;Doncaster Common;;W1.09;N53.51;10;
2;England;Yorkshire;Dore;;W1.53;N53.32;10;
2;England;Yorkshire;Dormanstown;;W1.10;N54.59;10;
2;England;Yorkshire;Dove;;W0.91;N54.27;10;
2;England;Yorkshire;Downholme;;W1.83;N54.36;10;
2;England;Yorkshire;Drakehouse;;W1.35;N53.35;10;
2;England;Yorkshire;Draughton;;W1.95;N53.96;10;
2;England;Yorkshire;Drax;;W0.98;N53.72;10;
2;England;Yorkshire;Drebley;;W1.92;N54.02;10;
2;England;Yorkshire;Driffield;;W0.44;N54.00;10;
2;England;Yorkshire;Driffield Canal;;W0.38;N53.99;10;
2;England;Yorkshire;Drighlington;;W1.66;N53.74;10;
2;England;Yorkshire;Dringhoe;;W0.24;N53.96;10;
2;England;Yorkshire;Dringhouses;;W1.11;N53.93;10;
2;England;Yorkshire;Dropping Well;;W1.41;N53.44;10;
2;England;Yorkshire;Drub;;W1.71;N53.73;10;
2;England;Yorkshire;Dudley;;W2.10;N52.50;10;
2;England;Yorkshire;Dudley Hill;;W1.72;N53.77;10;
2;England;Yorkshire;Duerley Beck;;W2.22;N54.30;10;
2;England;Yorkshire;Duggleby;;W0.67;N54.09;10;
2;England;Yorkshire;Dunford Bridge;;W1.77;N53.51;10;
2;England;Yorkshire;Dungworth;;W1.58;N53.39;10;
2;England;Yorkshire;Dunkeswick;;W1.54;N53.90;10;
2;England;Yorkshire;Dunnington;;W0.24;N53.95;10;
2;England;Yorkshire;Dunnington;;W0.99;N53.96;10;
2;England;Yorkshire;Dunscroft;;W1.01;N53.56;10;
2;England;Yorkshire;Dunsdale;;W1.07;N54.55;10;
2;England;Yorkshire;Dunsley;;W0.68;N54.48;10;
2;England;Yorkshire;Dunston;;W1.65;N54.95;10;
2;England;Yorkshire;Dunston Hill;;W1.65;N54.94;10;
2;England;Yorkshire;Dunsville;;W1.03;N53.55;10;
2;England;Yorkshire;Dunswell;;W0.37;N53.80;10;
2;England;Yorkshire;Durkar;;W1.53;N53.64;10;
2;England;Yorkshire;Earby Beck;;W2.13;N53.90;10;
2;England;Yorkshire;Earlsheaton;;W1.62;N53.68;10;
2;England;Yorkshire;Earswick;;W1.05;N54.00;10;
2;England;Yorkshire;Easby;;W1.72;N54.39;10;
2;England;Yorkshire;Easby;;W1.12;N54.46;10;
2;England;Yorkshire;Easington;;E0.10;N53.64;10;
2;England;Yorkshire;Easington;;W0.85;N54.54;10;
2;England;Yorkshire;Easington Beck;;W0.83;N54.53;10;
2;England;Yorkshire;Easington Beck;;W0.81;N54.55;10;
2;England;Yorkshire;Easingwold;;W1.19;N54.11;10;
2;England;Yorkshire;East Appleton;;W1.64;N54.35;10;
2;England;Yorkshire;East Ardsley;;W1.54;N53.72;10;
2;England;Yorkshire;East Ayton;;W0.48;N54.25;10;
2;England;Yorkshire;East Barnby;;W0.73;N54.49;10;
2;England;Yorkshire;East Bierley;;W1.71;N53.75;10;
2;England;Yorkshire;East Carlton;;W1.66;N53.88;10;
2;England;Yorkshire;East Common;;W1.06;N53.77;10;
2;England;Yorkshire;East Cottingwith;;W0.93;N53.86;10;
2;England;Yorkshire;East Cowick;;W1.00;N53.68;10;
2;England;Yorkshire;East Cowton;;W1.53;N54.42;10;
2;England;Yorkshire;East Dene;;W1.33;N53.43;10;
2;England;Yorkshire;East Ella;;W0.40;N53.74;10;
2;England;Yorkshire;East End;;W0.04;N53.72;10;
2;England;Yorkshire;East End;;W0.19;N53.75;10;
2;England;Yorkshire;East End;;W0.21;N53.99;10;
2;England;Yorkshire;East Garforth;;W1.37;N53.79;10;
2;England;Yorkshire;East Gateshead;;W1.59;N54.96;10;
2;England;Yorkshire;East Hardwick;;W1.30;N53.65;10;
2;England;Yorkshire;East Harlsey;;W1.35;N54.38;10;
2;England;Yorkshire;East Hauxwell;;W1.75;N54.33;10;
2;England;Yorkshire;East Herringthorpe;;W1.32;N53.43;10;
2;England;Yorkshire;East Heslerton;;W0.59;N54.17;10;
2;England;Yorkshire;East Keswick;;W1.45;N53.89;10;
2;England;Yorkshire;East Knapton;;W0.65;N54.16;10;
2;England;Yorkshire;East Layton;;W1.75;N54.47;10;
2;England;Yorkshire;East Loftus;;W0.88;N54.55;10;
2;England;Yorkshire;East Lutton;;W0.56;N54.10;10;
2;England;Yorkshire;East Marton;;W2.15;N53.94;10;
2;England;Yorkshire;East Moor;;W1.48;N53.68;10;
2;England;Yorkshire;East Morton;;W1.84;N53.87;10;
2;England;Yorkshire;East Ness;;W0.94;N54.19;10;
2;England;Yorkshire;East Newton;;W0.08;N53.81;10;
2;England;Yorkshire;East Newton;;W1.02;N54.20;10;
2;England;Yorkshire;East Rigton;;W1.45;N53.88;10;
2;England;Yorkshire;East Rounton;;W1.35;N54.42;10;
2;England;Yorkshire;East Witton;;W1.78;N54.26;10;
2;England;Yorkshire;Eastburn;;W1.97;N53.89;10;
2;England;Yorkshire;Eastburn;;W0.49;N53.98;10;
2;England;Yorkshire;Eastby;;W1.98;N53.98;10;
2;England;Yorkshire;Easterside;;W1.22;N54.53;10;
2;England;Yorkshire;Eastfield;;W1.56;N53.51;10;
2;England;Yorkshire;Eastfield;;W0.40;N54.24;10;
2;England;Yorkshire;Eastrington;;W0.80;N53.75;10;
2;England;Yorkshire;Eastwood;;W2.06;N53.72;10;
2;England;Yorkshire;Eastwood;;W1.35;N53.43;10;
2;England;Yorkshire;Eavestone;;W1.66;N54.10;10;
2;England;Yorkshire;Ebberston;;W0.63;N54.22;10;
2;England;Yorkshire;Ecclesall;;W1.52;N53.35;10;
2;England;Yorkshire;Ecclesfield;;W1.47;N53.44;10;
2;England;Yorkshire;Eccleshill;;W1.74;N53.82;10;
2;England;Yorkshire;Eccup;;W1.57;N53.87;10;
2;England;Yorkshire;Eccup Reservoir;;W1.54;N53.87;10;
2;England;Yorkshire;Ecklands;;W1.68;N53.51;10;
2;England;Yorkshire;Edenthorpe;;W1.08;N53.54;10;
2;England;Yorkshire;Edge Mount;;W1.59;N53.43;10;
2;England;Yorkshire;Edgerton;;W1.80;N53.64;10;
2;England;Yorkshire;Eggborough;;W1.15;N53.70;10;
2;England;Yorkshire;Egton;;W0.76;N54.44;10;
2;England;Yorkshire;Egton Bridge;;W0.76;N54.43;10;
2;England;Yorkshire;Egypt;;W1.86;N53.79;10;
2;England;Yorkshire;Eighton Banks;;W1.58;N54.91;10;
2;England;Yorkshire;Eldroth;;W2.36;N54.08;10;
2;England;Yorkshire;Eldwick;;W1.81;N53.85;10;
2;England;Yorkshire;Elland;;W1.83;N53.68;10;
2;England;Yorkshire;Elland Lower Edge;;W1.81;N53.68;10;
2;England;Yorkshire;Elland Upper Edge;;W1.81;N53.67;10;
2;England;Yorkshire;Ellerbeck;;W1.33;N54.35;10;
2;England;Yorkshire;Ellerburn;;W0.71;N54.24;10;
2;England;Yorkshire;Ellerby;;W0.78;N54.51;10;
2;England;Yorkshire;Ellerker;;W0.60;N53.74;10;
2;England;Yorkshire;Ellerton;;W0.93;N53.84;10;
2;England;Yorkshire;Ellerton;;W1.61;N54.36;10;
2;England;Yorkshire;Ellingstring;;W1.74;N54.24;10;
2;England;Yorkshire;Elloughton;;W0.57;N53.73;10;
2;England;Yorkshire;Elmswell;;W0.49;N54.00;10;
2;England;Yorkshire;Elsecar;;W1.42;N53.49;10;
2;England;Yorkshire;Elslack;;W2.12;N53.93;10;
2;England;Yorkshire;Elstronwick;;W0.15;N53.77;10;
2;England;Yorkshire;Elswick;;W1.65;N54.96;10;
2;England;Yorkshire;Elvington;;W0.93;N53.91;10;
2;England;Yorkshire;Elwick;;W1.30;N54.68;10;
2;England;Yorkshire;Embsay;;W2.00;N53.97;10;
2;England;Yorkshire;Emley;;W1.63;N53.61;10;
2;England;Yorkshire;Enterpen;;W1.29;N54.43;10;
2;England;Yorkshire;Eppleby;;W1.73;N54.51;10;
2;England;Yorkshire;Eppleworth;;W0.46;N53.76;10;
2;England;Yorkshire;Eryholme;;W1.50;N54.46;10;
2;England;Yorkshire;Escrick;;W1.04;N53.87;10;
2;England;Yorkshire;Esholt;;W1.72;N53.85;10;
2;England;Yorkshire;Eshton;;W2.10;N54.00;10;
2;England;Yorkshire;Eshton Beck;;W2.09;N54.02;10;
2;England;Yorkshire;Esk;;W0.96;N54.46;10;
2;England;Yorkshire;Esk Valley;;W0.73;N54.42;10;
2;England;Yorkshire;Eskholme;;W1.04;N53.64;10;
2;England;Yorkshire;Eston;;W1.15;N54.56;10;
2;England;Yorkshire;Ettingshall Park;;W2.11;N52.55;10;
2;England;Yorkshire;Etton;;W0.51;N53.87;10;
2;England;Yorkshire;Eve Hill;;W2.10;N52.50;10;
2;England;Yorkshire;Everingham;;W0.78;N53.86;10;
2;England;Yorkshire;Everthorpe;;W0.63;N53.76;10;
2;England;Yorkshire;Ewden Village;;W1.59;N53.46;10;
2;England;Yorkshire;Exelby;;W1.55;N54.26;10;
2;England;Yorkshire;Exley;;W1.86;N53.69;10;
2;England;Yorkshire;Exley Head;;W1.94;N53.85;10;
2;England;Yorkshire;Faceby;;W1.24;N54.42;10;
2;England;Yorkshire;Fadmoor;;W0.97;N54.29;10;
2;England;Yorkshire;Fagley;;W1.72;N53.80;10;
2;England;Yorkshire;Failsworth;;W2.16;N53.50;10;
2;England;Yorkshire;Fairburn;;W1.28;N53.73;10;
2;England;Yorkshire;Falsgrave;;W0.43;N54.26;10;
2;England;Yorkshire;Fangdale Beck;;W1.14;N54.33;10;
2;England;Yorkshire;Fangfoss;;W0.84;N53.96;10;
2;England;Yorkshire;Far Bank;;W1.03;N53.61;10;
2;England;Yorkshire;Far Royds;;W1.60;N53.77;10;
2;England;Yorkshire;Farlington;;W1.06;N54.09;10;
2;England;Yorkshire;Farnham;;W1.48;N54.03;10;
2;England;Yorkshire;Farnhill;;W2.00;N53.91;10;
2;England;Yorkshire;Farnley;;W1.62;N53.78;10;
2;England;Yorkshire;Farnley;;W1.68;N53.91;10;
2;England;Yorkshire;Farnley Bank;;W1.75;N53.61;10;
2;England;Yorkshire;Farnley Tyas;;W1.75;N53.60;10;
2;England;Yorkshire;Farsley;;W1.68;N53.81;10;
2;England;Yorkshire;Farsley Beck Bottom;;W1.66;N53.81;10;
2;England;Yorkshire;Fartown;;W1.78;N53.65;10;
2;England;Yorkshire;Fawdington;;W1.34;N54.14;10;
2;England;Yorkshire;Faxfleet;;W0.69;N53.70;10;
2;England;Yorkshire;Fearby;;W1.71;N54.22;10;
2;England;Yorkshire;Fearnville;;W1.50;N53.81;10;
2;England;Yorkshire;Featherstone;;W1.36;N53.67;10;
2;England;Yorkshire;Feetham;;W2.03;N54.37;10;
2;England;Yorkshire;Feizor;;W2.32;N54.09;10;
2;England;Yorkshire;Felixkirk;;W1.29;N54.25;10;
2;England;Yorkshire;Felkirk;;W1.42;N53.60;10;
2;England;Yorkshire;Fell Lane;;W1.94;N53.85;10;
2;England;Yorkshire;Felling;;W1.58;N54.94;10;
2;England;Yorkshire;Felling Shore;;W1.57;N54.96;10;
2;England;Yorkshire;Fellside;;W1.70;N54.93;10;
2;England;Yorkshire;Fenay Bridge;;W1.72;N53.63;10;
2;England;Yorkshire;Fenwick;;W1.10;N53.63;10;
2;England;Yorkshire;Ferrensby;;W1.45;N54.03;10;
2;England;Yorkshire;Ferrybridge;;W1.28;N53.71;10;
2;England;Yorkshire;Fewston;;W1.71;N53.98;10;
2;England;Yorkshire;Fewston Bents;;W1.71;N53.98;10;
2;England;Yorkshire;Fewston Reservoir;;W1.71;N53.98;10;
2;England;Yorkshire;Filey;;W0.29;N54.20;10;
2;England;Yorkshire;Fimber;;W0.64;N54.02;10;
2;England;Yorkshire;Finghall;;W1.72;N54.29;10;
2;England;Yorkshire;Finkle Street;;W1.54;N53.47;10;
2;England;Yorkshire;Fir Vale;;W1.45;N53.40;10;
2;England;Yorkshire;Firbeck;;W1.15;N53.38;10;
2;England;Yorkshire;Firby;;W0.87;N54.08;10;
2;England;Yorkshire;Firby;;W1.60;N54.26;10;
2;England;Yorkshire;Firth Park;;W1.45;N53.41;10;
2;England;Yorkshire;Fishlake;;W1.01;N53.60;10;
2;England;Yorkshire;Fishpool;;W1.65;N53.91;10;
2;England;Yorkshire;Fitling;;W0.10;N53.78;10;
2;England;Yorkshire;Fitton Hill;;W2.10;N53.51;10;
2;England;Yorkshire;Fitzwilliam;;W1.38;N53.63;10;
2;England;Yorkshire;Fixby;;W1.78;N53.67;10;
2;England;Yorkshire;Flamborough;;W0.13;N54.11;10;
2;England;Yorkshire;Flamborough Head;;W0.08;N54.11;10;
2;England;Yorkshire;Flanshaw;;W1.53;N53.67;10;
2;England;Yorkshire;Flappit Spring;;W1.92;N53.82;10;
2;England;Yorkshire;Flasby;;W2.09;N54.00;10;
2;England;Yorkshire;Flawith;;W1.26;N54.07;10;
2;England;Yorkshire;Flaxby;;W1.40;N54.00;10;
2;England;Yorkshire;Flaxton;;W0.96;N54.04;10;
2;England;Yorkshire;Fleets;;W2.06;N54.03;10;
2;England;Yorkshire;Flinton;;W0.14;N53.80;10;
2;England;Yorkshire;Flixton;;W0.42;N54.19;10;
2;England;Yorkshire;Flockton;;W1.63;N53.63;10;
2;England;Yorkshire;Flockton Green;;W1.63;N53.63;10;
2;England;Yorkshire;Flockton Moor;;W1.66;N53.62;10;
2;England;Yorkshire;Flush House;;W1.83;N53.55;10;
2;England;Yorkshire;Flushdyke;;W1.57;N53.68;10;
2;England;Yorkshire;Foggathorpe;;W0.86;N53.82;10;
2;England;Yorkshire;Foldrings;;W1.56;N53.43;10;
2;England;Yorkshire;Folkton;;W0.39;N54.19;10;
2;England;Yorkshire;Follifoot;;W1.48;N53.96;10;
2;England;Yorkshire;Follingsby;;W1.53;N54.93;10;
2;England;Yorkshire;Forcett;;W1.73;N54.50;10;
2;England;Yorkshire;Fordon;;W0.40;N54.16;10;
2;England;Yorkshire;Foredale;;W2.30;N54.11;10;
2;England;Yorkshire;Forest Lane Head;;W1.49;N53.99;10;
2;England;Yorkshire;Forest Moor;;W1.48;N53.99;10;
2;England;Yorkshire;Foss;;W1.07;N53.95;10;
2;England;Yorkshire;Fosterhouses;;W1.01;N53.61;10;
2;England;Yorkshire;Foston;;W0.94;N54.07;10;
2;England;Yorkshire;Foston on the Wolds;;W0.32;N53.97;10;
2;England;Yorkshire;Foulby;;W1.41;N53.64;10;
2;England;Yorkshire;Foulness;;W0.80;N53.80;10;
2;England;Yorkshire;Four Lane End;;W1.59;N53.51;10;
2;England;Yorkshire;Four Lane Ends;;W1.80;N53.79;10;
2;England;Yorkshire;Fox Royd;;W1.65;N53.65;10;
2;England;Yorkshire;Foxholes;;W0.45;N54.14;10;
2;England;Yorkshire;Foxton;;W1.35;N54.35;10;
2;England;Yorkshire;Foxup;;W2.21;N54.18;10;
2;England;Yorkshire;Fraisthorpe;;W0.24;N54.03;10;
2;England;Yorkshire;Frecheville;;W1.41;N53.34;10;
2;England;Yorkshire;Fremington;;W1.93;N54.38;10;
2;England;Yorkshire;Fridaythorpe;;W0.67;N54.02;10;
2;England;Yorkshire;Friendly;;W1.92;N53.71;10;
2;England;Yorkshire;Frizinghall;;W1.78;N53.81;10;
2;England;Yorkshire;Frodingham Beck;;W0.33;N53.97;10;
2;England;Yorkshire;Fryton;;W0.95;N54.16;10;
2;England;Yorkshire;Fulford;;W1.07;N53.93;10;
2;England;Yorkshire;Full Sutton;;W0.87;N53.98;10;
2;England;Yorkshire;Fullshaw;;W1.69;N53.50;10;
2;England;Yorkshire;Fullwood;;W2.09;N53.56;10;
2;England;Yorkshire;Fulneck;;W1.66;N53.78;10;
2;England;Yorkshire;Fulstone;;W1.74;N53.57;10;
2;England;Yorkshire;Fulwood;;W1.55;N53.36;10;
2;England;Yorkshire;Fylingthorpe;;W0.55;N54.42;10;
2;England;Yorkshire;Galphay;;W1.61;N54.14;10;
2;England;Yorkshire;Gamble Hill;;W1.62;N53.79;10;
2;England;Yorkshire;Gammersgill;;W1.92;N54.23;10;
2;England;Yorkshire;Ganstead;;W0.27;N53.78;10;
2;England;Yorkshire;Ganthorpe;;W0.96;N54.12;10;
2;England;Yorkshire;Ganton;;W0.49;N54.17;10;
2;England;Yorkshire;Garden Village;;W1.33;N53.78;10;
2;England;Yorkshire;Garden Village;;W1.60;N53.47;10;
2;England;Yorkshire;Gardham;;W0.55;N53.86;10;
2;England;Yorkshire;Garforth;;W1.37;N53.78;10;
2;England;Yorkshire;Gargrave;;W2.10;N53.98;10;
2;England;Yorkshire;Garriston;;W1.77;N54.32;10;
2;England;Yorkshire;Garton;;W0.08;N53.79;10;
2;England;Yorkshire;Garton-on-the-wolds;;W0.50;N54.01;10;
2;England;Yorkshire;Gate Helmsley;;W0.94;N53.98;10;
2;England;Yorkshire;Gateforth;;W1.15;N53.74;10;
2;England;Yorkshire;Gatenby;;W1.51;N54.27;10;
2;England;Yorkshire;Gawber;;W1.51;N53.55;10;
2;England;Yorkshire;Gawthorpe;;W1.71;N53.64;10;
2;England;Yorkshire;Gawthorpe;;W1.59;N53.69;10;
2;England;Yorkshire;Gayle;;W2.20;N54.29;10;
2;England;Yorkshire;Gayles;;W1.81;N54.45;10;
2;England;Yorkshire;Gembling;;W0.32;N53.99;10;
2;England;Yorkshire;Gerrick;;W0.92;N54.49;10;
2;England;Yorkshire;Giggleswick;;W2.29;N54.07;10;
2;England;Yorkshire;Gilberdyke;;W0.74;N53.75;10;
2;England;Yorkshire;Gildersome;;W1.63;N53.75;10;
2;England;Yorkshire;Gildersome Street;;W1.63;N53.74;10;
2;England;Yorkshire;Gildingwells;;W1.17;N53.35;10;
2;England;Yorkshire;Gill;;W2.06;N53.88;10;
2;England;Yorkshire;Gill Beck;;W1.79;N53.98;10;
2;England;Yorkshire;Gillamoor;;W0.95;N54.29;10;
2;England;Yorkshire;Gilling Beck;;W1.74;N54.45;10;
2;England;Yorkshire;Gilling East;;W1.06;N54.17;10;
2;England;Yorkshire;Gilling West;;W1.72;N54.44;10;
2;England;Yorkshire;Gilroyd;;W1.50;N53.53;10;
2;England;Yorkshire;Gilstead;;W1.81;N53.84;10;
2;England;Yorkshire;Gipsyville;;W0.39;N53.72;10;
2;England;Yorkshire;Gipton;;W1.50;N53.81;10;
2;England;Yorkshire;Gipton Wood;;W1.51;N53.81;10;
2;England;Yorkshire;Girlington;;W1.78;N53.80;10;
2;England;Yorkshire;Glaisdale;;W0.81;N54.43;10;
2;England;Yorkshire;Glass Houghton;;W1.33;N53.71;10;
2;England;Yorkshire;Glasshouses;;W1.74;N54.07;10;
2;England;Yorkshire;Gleadless;;W1.43;N53.34;10;
2;England;Yorkshire;Gleadless Valley;;W1.44;N53.34;10;
2;England;Yorkshire;Gledhow;;W1.53;N53.81;10;
2;England;Yorkshire;Glodwick;;W2.09;N53.53;10;
2;England;Yorkshire;Goathland;;W0.72;N54.39;10;
2;England;Yorkshire;Golcar;;W1.85;N53.64;10;
2;England;Yorkshire;Goldsborough;;W1.42;N53.99;10;
2;England;Yorkshire;Goldsborough;;W0.71;N54.51;10;
2;England;Yorkshire;Goldthorpe;;W1.30;N53.53;10;
2;England;Yorkshire;Gollinglith Foot;;W1.77;N54.21;10;
2;England;Yorkshire;Gomersal;;W1.69;N53.73;10;
2;England;Yorkshire;Goodmanham;;W0.66;N53.87;10;
2;England;Yorkshire;Goole;;W0.88;N53.69;10;
2;England;Yorkshire;Goose Eye;;W1.97;N53.85;10;
2;England;Yorkshire;Goosehill;;W1.44;N53.68;10;
2;England;Yorkshire;Gornalwood;;W2.13;N52.50;10;
2;England;Yorkshire;Goulton;;W1.27;N54.42;10;
2;England;Yorkshire;Gouthwaite Reservoir;;W1.79;N54.12;10;
2;England;Yorkshire;Gowdall;;W1.06;N53.69;10;
2;England;Yorkshire;Gowthorpe;;W0.84;N53.97;10;
2;England;Yorkshire;Goxhill;;W0.20;N53.87;10;
2;England;Yorkshire;Grafton;;W1.37;N54.06;10;
2;England;Yorkshire;Grains Bar;;W2.06;N53.56;10;
2;England;Yorkshire;Grange;;W2.10;N54.31;10;
2;England;Yorkshire;Grange Moor;;W1.66;N53.64;10;
2;England;Yorkshire;Grangetown;;W1.15;N54.57;10;
2;England;Yorkshire;Gransmoor;;W0.29;N54.01;10;
2;England;Yorkshire;Grantley;;W1.64;N54.11;10;
2;England;Yorkshire;Grantley Hall;;W1.63;N54.11;10;
2;England;Yorkshire;Grasscroft;;W2.04;N53.53;10;
2;England;Yorkshire;Grassington;;W2.00;N54.07;10;
2;England;Yorkshire;Gravel Hole;;W2.13;N53.57;10;
2;England;Yorkshire;Greasbrough;;W1.38;N53.45;10;
2;England;Yorkshire;Great Ayton;;W1.13;N54.49;10;
2;England;Yorkshire;Great Barugh;;W0.86;N54.19;10;
2;England;Yorkshire;Great Broughton;;W1.16;N54.44;10;
2;England;Yorkshire;Great Busby;;W1.19;N54.43;10;
2;England;Yorkshire;Great Cliff;;W1.54;N53.64;10;
2;England;Yorkshire;Great Cowden;;W0.14;N53.86;10;
2;England;Yorkshire;Great Crakehall;;W1.63;N54.29;10;
2;England;Yorkshire;Great Edstone;;W0.92;N54.24;10;
2;England;Yorkshire;Great Fencote;;W1.57;N54.33;10;
2;England;Yorkshire;Great Habton;;W0.85;N54.17;10;
2;England;Yorkshire;Great Hatfield;;W0.20;N53.86;10;
2;England;Yorkshire;Great Heck;;W1.10;N53.68;10;
2;England;Yorkshire;Great Horton;;W1.78;N53.77;10;
2;England;Yorkshire;Great Houghton;;W1.35;N53.54;10;
2;England;Yorkshire;Great Kelk;;W0.32;N54.00;10;
2;England;Yorkshire;Great Kendale;;W0.45;N54.02;10;
2;England;Yorkshire;Great Langton;;W1.55;N54.35;10;
2;England;Yorkshire;Great Ouseburn;;W1.32;N54.04;10;
2;England;Yorkshire;Great Preston;;W1.39;N53.75;10;
2;England;Yorkshire;Great Smeaton;;W1.47;N54.43;10;
2;England;Yorkshire;Great Thirkleby;;W1.28;N54.19;10;
2;England;Yorkshire;Greatham;;W1.24;N54.63;10;
2;England;Yorkshire;Green Close;;W2.42;N54.11;10;
2;England;Yorkshire;Green Clough;;W1.88;N53.78;10;
2;England;Yorkshire;Green End;;W0.73;N54.41;10;
2;England;Yorkshire;Green Hammerton;;W1.31;N53.99;10;
2;England;Yorkshire;Green Hill;;W1.34;N53.82;10;
2;England;Yorkshire;Green Moor;;W1.57;N53.48;10;
2;England;Yorkshire;Green Side;;W1.74;N53.59;10;
2;England;Yorkshire;Green Side;;W1.59;N53.78;10;
2;England;Yorkshire;Greenacres;;W2.09;N53.54;10;
2;England;Yorkshire;Greenfield;;W2.01;N53.53;10;
2;England;Yorkshire;Greengates;;W1.71;N53.82;10;
2;England;Yorkshire;Greenhill;;W1.49;N53.32;10;
2;England;Yorkshire;Greenhow Hill;;W1.83;N54.07;10;
2;England;Yorkshire;Greenland;;W1.41;N53.38;10;
2;England;Yorkshire;Greenoak;;W0.77;N53.73;10;
2;England;Yorkshire;Greenside;;W1.78;N54.95;10;
2;England;Yorkshire;Greenside;;W1.74;N53.64;10;
2;England;Yorkshire;Greetland;;W1.88;N53.68;10;
2;England;Yorkshire;Greetland Wall Nook;;W1.91;N53.68;10;
2;England;Yorkshire;Grenoside;;W1.50;N53.43;10;
2;England;Yorkshire;Greta;;W2.38;N54.20;10;
2;England;Yorkshire;Grewelthorpe;;W1.64;N54.17;10;
2;England;Yorkshire;Greygarth;;W1.72;N54.14;10;
2;England;Yorkshire;Greystonegill;;W2.49;N54.11;10;
2;England;Yorkshire;Greystones;;W1.52;N53.36;10;
2;England;Yorkshire;Grimesthorpe;;W1.45;N53.40;10;
2;England;Yorkshire;Grimethorpe;;W1.38;N53.57;10;
2;England;Yorkshire;Grimston;;W0.05;N53.79;10;
2;England;Yorkshire;Grimston;;W1.02;N53.95;10;
2;England;Yorkshire;Grindale;;W0.27;N54.12;10;
2;England;Yorkshire;Grinton;;W1.93;N54.37;10;
2;England;Yorkshire;Gristhorpe;;W0.34;N54.22;10;
2;England;Yorkshire;Grosmont;;W0.73;N54.43;10;
2;England;Yorkshire;Grotton;;W2.06;N53.53;10;
2;England;Yorkshire;Grove Town;;W1.30;N53.68;10;
2;England;Yorkshire;Grovehill;;W0.42;N53.83;10;
2;England;Yorkshire;Guard House;;W1.94;N53.86;10;
2;England;Yorkshire;Guilthwaite;;W1.32;N53.39;10;
2;England;Yorkshire;Guisborough;;W1.05;N54.52;10;
2;England;Yorkshire;Guiseley;;W1.71;N53.87;10;
2;England;Yorkshire;Gundy;;W0.93;N53.80;10;
2;England;Yorkshire;Gunnerside;;W2.07;N54.37;10;
2;England;Yorkshire;Gypsey Race;;W0.27;N54.08;10;
2;England;Yorkshire;Hackenthorpe;;W1.38;N53.34;10;
2;England;Yorkshire;Hackforth;;W1.63;N54.33;10;
2;England;Yorkshire;Hackness;;W0.51;N54.29;10;
2;England;Yorkshire;Hade Edge;;W1.79;N53.54;10;
2;England;Yorkshire;Haggate;;W2.13;N53.55;10;
2;England;Yorkshire;Haigh;;W1.56;N53.60;10;
2;England;Yorkshire;Haigh Moor;;W1.57;N53.71;10;
2;England;Yorkshire;Hainworth;;W1.91;N53.83;10;
2;England;Yorkshire;Hainworth Shaw;;W1.91;N53.84;10;
2;England;Yorkshire;Haisthorpe;;W0.29;N54.06;10;
2;England;Yorkshire;Halesowen;;W2.07;N52.44;10;
2;England;Yorkshire;Halfway;;W1.35;N53.32;10;
2;England;Yorkshire;Halifax;;W1.86;N53.72;10;
2;England;Yorkshire;Hall Bower;;W1.78;N53.62;10;
2;England;Yorkshire;Hall Broom;;W1.59;N53.39;10;
2;England;Yorkshire;Hall Garth;;W0.98;N53.95;10;
2;England;Yorkshire;Hall Green;;W1.53;N53.63;10;
2;England;Yorkshire;Halsham;;W0.07;N53.72;10;
2;England;Yorkshire;Halton;;W1.48;N53.79;10;
2;England;Yorkshire;Halton East;;W1.94;N53.97;10;
2;England;Yorkshire;Halton Gill;;W2.18;N54.18;10;
2;England;Yorkshire;Halton Moor;;W1.48;N53.79;10;
2;England;Yorkshire;Halton West;;W2.24;N53.98;10;
2;England;Yorkshire;Hambleton;;W1.16;N53.76;10;
2;England;Yorkshire;Hambleton;;W1.92;N53.97;10;
2;England;Yorkshire;Hampole;;W1.24;N53.58;10;
2;England;Yorkshire;Hampsthwaite;;W1.60;N54.01;10;
2;England;Yorkshire;Handsworth;;W1.40;N53.36;10;
2;England;Yorkshire;Hanging Heaton;;W1.62;N53.70;10;
2;England;Yorkshire;Hangsman Hill;;W0.98;N53.61;10;
2;England;Yorkshire;Hanlith;;W2.15;N54.04;10;
2;England;Yorkshire;Harden;;W1.77;N53.52;10;
2;England;Yorkshire;Harden;;W1.87;N53.83;10;
2;England;Yorkshire;Hardgate;;W1.60;N54.05;10;
2;England;Yorkshire;Hardraw;;W2.21;N54.31;10;
2;England;Yorkshire;Hardwick;;W1.28;N53.36;10;
2;England;Yorkshire;Harecroft;;W1.87;N53.81;10;
2;England;Yorkshire;Harehills;;W1.51;N53.80;10;
2;England;Yorkshire;Harewood;;W1.51;N53.90;10;
2;England;Yorkshire;Harewood Hill;;W1.94;N53.83;10;
2;England;Yorkshire;Harley;;W1.45;N53.47;10;
2;England;Yorkshire;Harlington;;W1.27;N53.51;10;
2;England;Yorkshire;Harlow Carr;;W1.57;N53.98;10;
2;England;Yorkshire;Harlow Green;;W1.59;N54.91;10;
2;England;Yorkshire;Harlow Hill;;W1.57;N53.98;10;
2;England;Yorkshire;Harlthorpe;;W0.87;N53.82;10;
2;England;Yorkshire;Harmby;;W1.81;N54.29;10;
2;England;Yorkshire;Harome;;W1.01;N54.22;10;
2;England;Yorkshire;Harpham;;W0.33;N54.03;10;
2;England;Yorkshire;Harrogate;;W1.54;N53.99;10;
2;England;Yorkshire;Harrop Dale;;W2.00;N53.56;10;
2;England;Yorkshire;Harswell;;W0.75;N53.85;10;
2;England;Yorkshire;Hart;;W1.27;N54.70;10;
2;England;Yorkshire;Hart Station;;W1.25;N54.71;10;
2;England;Yorkshire;Hartforth;;W1.73;N54.44;10;
2;England;Yorkshire;Harthill;;W1.26;N53.31;10;
2;England;Yorkshire;Hartlepool;;W1.22;N54.68;10;
2;England;Yorkshire;Hartlington;;W1.95;N54.04;10;
2;England;Yorkshire;Hartoft End;;W0.86;N54.31;10;
2;England;Yorkshire;Harton;;W0.93;N54.04;10;
2;England;Yorkshire;Hart's Hill;;W2.11;N52.49;10;
2;England;Yorkshire;Hartshead;;W1.72;N53.69;10;
2;England;Yorkshire;Hartshead Moor Side;;W1.74;N53.71;10;
2;England;Yorkshire;Hartshead Moor Top;;W1.75;N53.72;10;
2;England;Yorkshire;Hartwith;;W1.68;N54.04;10;
2;England;Yorkshire;Harwood Dale;;W0.52;N54.34;10;
2;England;Yorkshire;Hasbury;;W2.07;N52.44;10;
2;England;Yorkshire;Hatfield;;W1.00;N53.57;10;
2;England;Yorkshire;Hatfield Chase;;W0.92;N53.58;10;
2;England;Yorkshire;Hatfield Woodhouse;;W0.97;N53.56;10;
2;England;Yorkshire;Hathershaw;;W2.12;N53.52;10;
2;England;Yorkshire;Haugh;;W2.09;N53.59;10;
2;England;Yorkshire;Havercroft;;W1.41;N53.61;10;
2;England;Yorkshire;Hawes;;W2.20;N54.29;10;
2;England;Yorkshire;Hawks Stones;;W2.12;N53.73;10;
2;England;Yorkshire;Hawkswick;;W2.07;N54.12;10;
2;England;Yorkshire;Hawksworth;;W1.75;N53.86;10;
2;England;Yorkshire;Hawksworth;;W1.62;N53.82;10;
2;England;Yorkshire;Hawnby;;W1.17;N54.29;10;
2;England;Yorkshire;Hawne;;W2.06;N52.45;10;
2;England;Yorkshire;Haworth;;W1.95;N53.82;10;
2;England;Yorkshire;Haxby;;W1.08;N54.00;10;
2;England;Yorkshire;Hay Field;;W1.03;N53.48;10;
2;England;Yorkshire;Hayton;;W0.75;N53.89;10;
2;England;Yorkshire;Haywood;;W1.12;N53.60;10;
2;England;Yorkshire;Hazlehead;;W1.71;N53.51;10;
2;England;Yorkshire;Hazlewood;;W1.87;N53.97;10;
2;England;Yorkshire;Headingley;;W1.57;N53.81;10;
2;England;Yorkshire;Healaugh;;W1.25;N53.91;10;
2;England;Yorkshire;Healaugh;;W1.98;N54.38;10;
2;England;Yorkshire;Healds Green;;W2.16;N53.55;10;
2;England;Yorkshire;Healey;;W1.66;N53.71;10;
2;England;Yorkshire;Healey;;W1.72;N54.21;10;
2;England;Yorkshire;Healey;;W1.59;N53.66;10;
2;England;Yorkshire;Heath Common;;W1.47;N53.66;10;
2;England;Yorkshire;Heathfield;;W1.80;N54.09;10;
2;England;Yorkshire;Heathwaite;;W1.26;N54.40;10;
2;England;Yorkshire;Heaton;;W1.80;N53.81;10;
2;England;Yorkshire;Heaton Royds;;W1.80;N53.82;10;
2;England;Yorkshire;Heaton Shay;;W1.80;N53.82;10;
2;England;Yorkshire;Hebden;;W1.97;N54.06;10;
2;England;Yorkshire;Hebden Bridge;;W2.03;N53.73;10;
2;England;Yorkshire;Heckmondwike;;W1.68;N53.70;10;
2;England;Yorkshire;Hedon;;W0.19;N53.73;10;
2;England;Yorkshire;Hedon Haven;;W0.23;N53.73;10;
2;England;Yorkshire;Heeley;;W1.47;N53.35;10;
2;England;Yorkshire;Heights;;W2.03;N53.56;10;
2;England;Yorkshire;Hellaby;;W1.24;N53.42;10;
2;England;Yorkshire;Hellifield;;W2.23;N54.00;10;
2;England;Yorkshire;Hellifield Green;;W2.23;N54.00;10;
2;England;Yorkshire;Helm;;W2.10;N54.31;10;
2;England;Yorkshire;Helme;;W1.86;N53.59;10;
2;England;Yorkshire;Helmsley;;W1.06;N54.24;10;
2;England;Yorkshire;Helperby;;W1.34;N54.11;10;
2;England;Yorkshire;Helperthorpe;;W0.54;N54.11;10;
2;England;Yorkshire;Helwith Bridge;;W2.29;N54.11;10;
2;England;Yorkshire;Hemingbrough;;W0.98;N53.76;10;
2;England;Yorkshire;Hemingfield;;W1.41;N53.50;10;
2;England;Yorkshire;Hemlington;;W1.24;N54.51;10;
2;England;Yorkshire;Hemsworth;;W1.46;N53.34;10;
2;England;Yorkshire;Hemsworth;;W1.36;N53.61;10;
2;England;Yorkshire;Hensall;;W1.10;N53.70;10;
2;England;Yorkshire;Henshaw;;W1.69;N53.85;10;
2;England;Yorkshire;Heptonstall;;W2.04;N53.74;10;
2;England;Yorkshire;Hepworth;;W1.75;N53.55;10;
2;England;Yorkshire;Hermit Hill;;W1.51;N53.49;10;
2;England;Yorkshire;Hermit Hole;;W1.92;N53.84;10;
2;England;Yorkshire;Herringthorpe;;W1.33;N53.42;10;
2;England;Yorkshire;Hertford;;W0.46;N54.21;10;
2;England;Yorkshire;Heslington;;W1.05;N53.94;10;
2;England;Yorkshire;Hessay;;W1.20;N53.97;10;
2;England;Yorkshire;Hessle;;W0.44;N53.72;10;
2;England;Yorkshire;Hessle;;W1.35;N53.64;10;
2;England;Yorkshire;Hetton;;W2.06;N54.01;10;
2;England;Yorkshire;Hew Green;;W1.65;N54.01;10;
2;England;Yorkshire;Heworth;;W1.56;N54.94;10;
2;England;Yorkshire;Heworth;;W1.07;N53.96;10;
2;England;Yorkshire;Hexthorpe;;W1.15;N53.51;10;
2;England;Yorkshire;Hey Green;;W1.95;N53.60;10;
2;England;Yorkshire;Heyshaw;;W1.74;N54.04;10;
2;England;Yorkshire;Heyside;;W2.10;N53.55;10;
2;England;Yorkshire;Hickleton;;W1.27;N53.53;10;
2;England;Yorkshire;Higginshaw;;W2.10;N53.55;10;
2;England;Yorkshire;High Ackworth;;W1.33;N53.64;10;
2;England;Yorkshire;High Bentham;;W2.52;N54.11;10;
2;England;Yorkshire;High Birstwith;;W1.66;N54.01;10;
2;England;Yorkshire;High Bradfield;;W1.61;N53.42;10;
2;England;Yorkshire;High Bradley;;W2.00;N53.93;10;
2;England;Yorkshire;High Catton;;W0.91;N53.96;10;
2;England;Yorkshire;High Coniscliffe;;W1.66;N54.53;10;
2;England;Yorkshire;High Crompton;;W2.12;N53.57;10;
2;England;Yorkshire;High Eggborough;;W1.13;N53.69;10;
2;England;Yorkshire;High Ellington;;W1.70;N54.24;10;
2;England;Yorkshire;High Flatts;;W1.68;N53.55;10;
2;England;Yorkshire;High Green;;W1.71;N53.62;10;
2;England;Yorkshire;High Green;;W1.50;N53.46;10;
2;England;Yorkshire;High Harrogate;;W1.52;N53.99;10;
2;England;Yorkshire;High Hawsker;;W0.58;N54.45;10;
2;England;Yorkshire;High Hoyland;;W1.59;N53.58;10;
2;England;Yorkshire;High Hunsley;;W0.55;N53.80;10;
2;England;Yorkshire;High Hutton;;W0.85;N54.10;10;
2;England;Yorkshire;High Kilburn;;W1.21;N54.20;10;
2;England;Yorkshire;High Marishes;;W0.75;N54.19;10;
2;England;Yorkshire;High Melton;;W1.24;N53.50;10;
2;England;Yorkshire;High Shaw;;W2.21;N54.31;10;
2;England;Yorkshire;High Spen;;W1.79;N54.92;10;
2;England;Yorkshire;High Stakesby;;W0.64;N54.47;10;
2;England;Yorkshire;High Throston;;W1.25;N54.69;10;
2;England;Yorkshire;High Worsall;;W1.41;N54.47;10;
2;England;Yorkshire;Higham;;W1.53;N53.55;10;
2;England;Yorkshire;Higham Common;;W1.53;N53.55;10;
2;England;Yorkshire;Highburton;;W1.71;N53.61;10;
2;England;Yorkshire;Highfield;;W0.90;N53.81;10;
2;England;Yorkshire;Highfield;;W1.78;N54.91;10;
2;England;Yorkshire;Highfield;;W1.47;N53.36;10;
2;England;Yorkshire;Highfields;;W1.20;N53.54;10;
2;England;Yorkshire;Highgate;;W1.32;N53.52;10;
2;England;Yorkshire;Highroad Well Moor;;W1.91;N53.73;10;
2;England;Yorkshire;Hightown;;W1.72;N53.71;10;
2;England;Yorkshire;Hightown Heights;;W1.74;N53.71;10;
2;England;Yorkshire;Hilderthorpe;;W0.21;N54.06;10;
2;England;Yorkshire;Hill End;;W1.86;N53.98;10;
2;England;Yorkshire;Hill Side;;W1.66;N53.51;10;
2;England;Yorkshire;Hill Side;;W1.72;N53.64;10;
2;England;Yorkshire;Hill Top;;W1.59;N53.54;10;
2;England;Yorkshire;Hill Top;;W1.86;N53.79;10;
2;England;Yorkshire;Hill Top;;W1.89;N53.61;10;
2;England;Yorkshire;Hill Top;;W1.62;N53.80;10;
2;England;Yorkshire;Hill Top;;W1.71;N54.04;10;
2;England;Yorkshire;Hill Top;;W1.60;N54.05;10;
2;England;Yorkshire;Hill Top;;W1.26;N53.46;10;
2;England;Yorkshire;Hill Top;;W1.58;N53.39;10;
2;England;Yorkshire;Hill Top;;W1.41;N53.42;10;
2;England;Yorkshire;Hillam;;W1.24;N53.74;10;
2;England;Yorkshire;Hillfoot;;W1.69;N53.79;10;
2;England;Yorkshire;Hillsborough;;W1.52;N53.40;10;
2;England;Yorkshire;Hilston;;W0.05;N53.77;10;
2;England;Yorkshire;Hinchcliffe Mill;;W1.82;N53.55;10;
2;England;Yorkshire;Hinderwell;;W0.78;N54.53;10;
2;England;Yorkshire;Hipperholme;;W1.81;N53.72;10;
2;England;Yorkshire;Hipswell;;W1.72;N54.36;10;
2;England;Yorkshire;Hirst Courtney;;W1.07;N53.70;10;
2;England;Yorkshire;Hive;;W0.75;N53.76;10;
2;England;Yorkshire;Hodge Beck;;W0.95;N54.26;10;
2;England;Yorkshire;Hogley Green;;W1.82;N53.55;10;
2;England;Yorkshire;Holbeck;;W1.56;N53.78;10;
2;England;Yorkshire;Holbeck;;W1.12;N54.18;10;
2;England;Yorkshire;Holbrook;;W1.34;N53.32;10;
2;England;Yorkshire;Holden Fold;;W2.13;N53.55;10;
2;England;Yorkshire;Holderness Drain;;W0.30;N53.80;10;
2;England;Yorkshire;Holdsworth;;W1.88;N53.75;10;
2;England;Yorkshire;Holdworth;;W1.58;N53.41;10;
2;England;Yorkshire;Hole;;W1.95;N53.82;10;
2;England;Yorkshire;Hole Bottom;;W2.09;N53.71;10;
2;England;Yorkshire;Holgate;;W1.11;N53.95;10;
2;England;Yorkshire;Hollin Park;;W1.50;N53.81;10;
2;England;Yorkshire;Hollingthorpe;;W1.53;N53.63;10;
2;England;Yorkshire;Hollins End;;W1.41;N53.35;10;
2;England;Yorkshire;Hollinthorpe;;W1.42;N53.77;10;
2;England;Yorkshire;Hollinwood;;W2.15;N53.51;10;
2;England;Yorkshire;Hollow Meadows;;W1.64;N53.38;10;
2;England;Yorkshire;Holly Hill;;W1.75;N54.39;10;
2;England;Yorkshire;Hollym;;E0.02;N53.70;10;
2;England;Yorkshire;Holmbridge;;W1.83;N53.55;10;
2;England;Yorkshire;Holme;;W1.71;N53.77;10;
2;England;Yorkshire;Holme;;W1.82;N53.52;10;
2;England;Yorkshire;Holme;;W1.85;N53.54;10;
2;England;Yorkshire;Holme;;W1.74;N53.66;10;
2;England;Yorkshire;Holme;;W1.46;N54.23;10;
2;England;Yorkshire;Holme Green;;W1.16;N53.86;10;
2;England;Yorkshire;Holme on the Wolds;;W0.54;N53.90;10;
2;England;Yorkshire;Holme Wood;;W1.71;N53.77;10;
2;England;Yorkshire;Holme-on-Spalding-Moor;;W0.78;N53.83;10;
2;England;Yorkshire;Holmfield;;W1.88;N53.74;10;
2;England;Yorkshire;Holmfirth;;W1.79;N53.56;10;
2;England;Yorkshire;Holmpton;;E0.05;N53.68;10;
2;England;Yorkshire;Holt Head;;W1.89;N53.60;10;
2;England;Yorkshire;Holt Park;;W1.60;N53.85;10;
2;England;Yorkshire;Holtby;;W0.97;N53.97;10;
2;England;Yorkshire;Holts;;W2.07;N53.52;10;
2;England;Yorkshire;Holywell Green;;W1.88;N53.66;10;
2;England;Yorkshire;Honley;;W1.80;N53.59;10;
2;England;Yorkshire;Honley Moor;;W1.80;N53.59;10;
2;England;Yorkshire;Hoo Hole;;W2.00;N53.72;10;
2;England;Yorkshire;Hoober;;W1.38;N53.47;10;
2;England;Yorkshire;Hood Green;;W1.53;N53.51;10;
2;England;Yorkshire;Hood Hill;;W1.45;N53.46;10;
2;England;Yorkshire;Hook;;W0.84;N53.71;10;
2;England;Yorkshire;Hooker Gate;;W1.78;N54.92;10;
2;England;Yorkshire;Hooton Levitt;;W1.21;N53.41;10;
2;England;Yorkshire;Hooton Pagnell;;W1.27;N53.56;10;
2;England;Yorkshire;Hooton Roberts;;W1.27;N53.46;10;
2;England;Yorkshire;Hopetown;;W1.41;N53.70;10;
2;England;Yorkshire;Hopperton;;W1.36;N53.99;10;
2;England;Yorkshire;Horbury;;W1.56;N53.65;10;
2;England;Yorkshire;Horbury Bridge;;W1.57;N53.64;10;
2;England;Yorkshire;Horbury Junction;;W1.54;N53.64;10;
2;England;Yorkshire;Hornby;;W1.66;N54.33;10;
2;England;Yorkshire;Hornby;;W1.44;N54.43;10;
2;England;Yorkshire;Hornsea;;W0.17;N53.90;10;
2;England;Yorkshire;Hornsea Burton;;W0.17;N53.89;10;
2;England;Yorkshire;Horsehouse;;W1.94;N54.22;10;
2;England;Yorkshire;Horsforth;;W1.63;N53.83;10;
2;England;Yorkshire;Horsforth Woodside;;W1.63;N53.82;10;
2;England;Yorkshire;Horton in Ribblesdale;;W2.30;N54.14;10;
2;England;Yorkshire;Hotham;;W0.65;N53.79;10;
2;England;Yorkshire;Hough Side;;W1.65;N53.79;10;
2;England;Yorkshire;Houlsyke;;W0.87;N54.45;10;
2;England;Yorkshire;Houses Hill;;W1.71;N53.64;10;
2;England;Yorkshire;Hove Edge;;W1.80;N53.71;10;
2;England;Yorkshire;Hovingham;;W0.99;N54.16;10;
2;England;Yorkshire;Howbrook;;W1.51;N53.47;10;
2;England;Yorkshire;Howden;;W0.87;N53.74;10;
2;England;Yorkshire;Howden Clough;;W1.65;N53.73;10;
2;England;Yorkshire;Howe;;W1.46;N54.21;10;
2;England;Yorkshire;Howgill;;W1.90;N54.02;10;
2;England;Yorkshire;Howsham;;W0.88;N54.04;10;
2;England;Yorkshire;Hoyland;;W1.44;N53.49;10;
2;England;Yorkshire;Hoyland Common;;W1.47;N53.49;10;
2;England;Yorkshire;Hoylandswaine;;W1.60;N53.53;10;
2;England;Yorkshire;Hoyle Mill;;W1.45;N53.54;10;
2;England;Yorkshire;Hubberholme;;W2.12;N54.19;10;
2;England;Yorkshire;Hubberton Green;;W1.95;N53.69;10;
2;England;Yorkshire;Huby;;W1.59;N53.91;10;
2;England;Yorkshire;Huby;;W1.14;N54.07;10;
2;England;Yorkshire;Huddersfield;;W1.78;N53.64;10;
2;England;Yorkshire;Hudswell;;W1.78;N54.39;10;
2;England;Yorkshire;Huggate;;W0.65;N53.98;10;
2;England;Yorkshire;Hull;;W0.38;N53.98;10;
2;England;Yorkshire;Humbleton;;W0.14;N53.78;10;
2;England;Yorkshire;Humbleton Beck;;W0.12;N53.76;10;
2;England;Yorkshire;Hungate;;W1.44;N53.72;10;
2;England;Yorkshire;Hunmanby;;W0.33;N54.17;10;
2;England;Yorkshire;Hunmanby Moor;;W0.30;N54.17;10;
2;England;Yorkshire;Hunsingore;;W1.36;N53.97;10;
2;England;Yorkshire;Hunslet;;W1.54;N53.77;10;
2;England;Yorkshire;Hunslet Carr;;W1.54;N53.76;10;
2;England;Yorkshire;Hunsworth;;W1.72;N53.73;10;
2;England;Yorkshire;Huntington;;W1.07;N53.98;10;
2;England;Yorkshire;Hunton;;W1.72;N54.32;10;
2;England;Yorkshire;Hurgill;;W1.75;N54.40;10;
2;England;Yorkshire;Hurn;;W0.45;N53.84;10;
2;England;Yorkshire;Hurst Green;;W2.03;N52.46;10;
2;England;Yorkshire;Hurst Hill;;W2.10;N52.54;10;
2;England;Yorkshire;Husthwaite;;W1.22;N54.16;10;
2;England;Yorkshire;Hut Green;;W1.15;N53.70;10;
2;England;Yorkshire;Hutton;;W0.44;N53.96;10;
2;England;Yorkshire;Hutton Bonville;;W1.47;N54.39;10;
2;England;Yorkshire;Hutton Buscel;;W0.51;N54.24;10;
2;England;Yorkshire;Hutton Conyers;;W1.51;N54.15;10;
2;England;Yorkshire;Hutton Cranswick;;W0.44;N53.95;10;
2;England;Yorkshire;Hutton Gate;;W1.08;N54.52;10;
2;England;Yorkshire;Hutton Hang;;W1.74;N54.28;10;
2;England;Yorkshire;Hutton Rudby;;W1.29;N54.44;10;
2;England;Yorkshire;Hutton Sessay;;W1.28;N54.17;10;
2;England;Yorkshire;Hutton Village;;W1.07;N54.50;10;
2;England;Yorkshire;Hutton Wandesley;;W1.23;N53.94;10;
2;England;Yorkshire;Hutton-le-Hole;;W0.92;N54.29;10;
2;England;Yorkshire;Huttons Ambo;;W0.83;N54.09;10;
2;England;Yorkshire;Hyde Park;;W1.14;N53.51;10;
2;England;Yorkshire;Ickornshaw;;W2.06;N53.87;10;
2;England;Yorkshire;Idle;;W1.74;N53.82;10;
2;England;Yorkshire;Idle Moor;;W1.75;N53.82;10;
2;England;Yorkshire;Ilkley;;W1.83;N53.91;10;
2;England;Yorkshire;Illingworth;;W1.89;N53.74;10;
2;England;Yorkshire;Ilton;;W1.72;N54.19;10;
2;England;Yorkshire;Ingbirchworth;;W1.66;N53.55;10;
2;England;Yorkshire;Ingerthorpe;;W1.55;N54.08;10;
2;England;Yorkshire;Ingleby Arncliffe;;W1.32;N54.39;10;
2;England;Yorkshire;Ingleby Cross;;W1.30;N54.39;10;
2;England;Yorkshire;Ingleby Greenhow;;W1.10;N54.44;10;
2;England;Yorkshire;Inglemire;;W0.37;N53.76;10;
2;England;Yorkshire;Ingleton;;W2.47;N54.15;10;
2;England;Yorkshire;Ingmanthorpe;;W1.37;N53.94;10;
2;England;Yorkshire;Ingrow;;W1.92;N53.84;10;
2;England;Yorkshire;Instoneville;;W1.17;N53.60;10;
2;England;Yorkshire;Intake;;W1.11;N53.52;10;
2;England;Yorkshire;Intake;;W1.66;N53.81;10;
2;England;Yorkshire;Intake;;W1.43;N53.35;10;
2;England;Yorkshire;Ireland Wood;;W1.60;N53.83;10;
2;England;Yorkshire;Irton;;W0.45;N54.24;10;
2;England;Yorkshire;Ivelet;;W2.10;N54.36;10;
2;England;Yorkshire;Jackson Bridge;;W1.75;N53.55;10;
2;England;Yorkshire;Jagger Green;;W1.86;N53.66;10;
2;England;Yorkshire;Jaw Hill;;W1.56;N53.70;10;
2;England;Yorkshire;Jennyfield;;W1.57;N53.99;10;
2;England;Yorkshire;John O'Gaunts;;W1.47;N53.75;10;
2;England;Yorkshire;Jordanthorpe;;W1.47;N53.32;10;
2;England;Yorkshire;Jordon;;W1.39;N53.42;10;
2;England;Yorkshire;Jubilee;;W2.09;N53.58;10;
2;England;Yorkshire;Jump;;W1.42;N53.50;10;
2;England;Yorkshire;Junction;;W1.98;N53.90;10;
2;England;Yorkshire;Kates Hill;;W2.07;N52.50;10;
2;England;Yorkshire;Kearby Town End;;W1.48;N53.91;10;
2;England;Yorkshire;Kearton;;W2.01;N54.38;10;
2;England;Yorkshire;Keasden;;W2.42;N54.08;10;
2;England;Yorkshire;Kebroyd;;W1.94;N53.68;10;
2;England;Yorkshire;Keelham;;W1.89;N53.78;10;
2;England;Yorkshire;Keighley;;W1.91;N53.86;10;
2;England;Yorkshire;Kelcliffe;;W1.72;N53.87;10;
2;England;Yorkshire;Keld;;W2.17;N54.40;10;
2;England;Yorkshire;Keld Houses;;W1.84;N54.06;10;
2;England;Yorkshire;Keldholme;;W0.92;N54.26;10;
2;England;Yorkshire;Kelfield;;W1.10;N53.83;10;
2;England;Yorkshire;Kellingley;;W1.21;N53.71;10;
2;England;Yorkshire;Kellington;;W1.16;N53.70;10;
2;England;Yorkshire;Kendray;;W1.45;N53.54;10;
2;England;Yorkshire;Kennythorpe;;W0.80;N54.07;10;
2;England;Yorkshire;Kepwick;;W1.29;N54.30;10;
2;England;Yorkshire;Keresforth Hill;;W1.51;N53.54;10;
2;England;Yorkshire;Kettlesing;;W1.66;N54.00;10;
2;England;Yorkshire;Kettlesing Bottom;;W1.66;N54.00;10;
2;England;Yorkshire;Kettlethorpe;;W1.51;N53.63;10;
2;England;Yorkshire;Kettlewell;;W2.04;N54.14;10;
2;England;Yorkshire;Kex Beck;;W1.67;N54.17;10;
2;England;Yorkshire;Kexbrough;;W1.54;N53.57;10;
2;England;Yorkshire;Kexby;;W0.93;N53.95;10;
2;England;Yorkshire;Key Green;;W0.76;N54.42;10;
2;England;Yorkshire;Keyingham;;W0.12;N53.70;10;
2;England;Yorkshire;Keyingham Drain;;W0.11;N53.71;10;
2;England;Yorkshire;Kibblesworth;;W1.62;N54.89;10;
2;England;Yorkshire;Kiddal Lane End;;W1.39;N53.84;10;
2;England;Yorkshire;Kilburn;;W1.21;N54.20;10;
2;England;Yorkshire;Kildale;;W1.07;N54.47;10;
2;England;Yorkshire;Kildwick;;W1.98;N53.90;10;
2;England;Yorkshire;Kilham;;W0.38;N54.06;10;
2;England;Yorkshire;Killingbeck;;W1.50;N53.80;10;
2;England;Yorkshire;Killinghall;;W1.57;N54.01;10;
2;England;Yorkshire;Kilnhurst;;W1.30;N53.46;10;
2;England;Yorkshire;Kilnsea;;E0.13;N53.61;10;
2;England;Yorkshire;Kilnsey;;W2.04;N54.09;10;
2;England;Yorkshire;Kilnwick;;W0.49;N53.92;10;
2;England;Yorkshire;Kilnwick Percy;;W0.75;N53.94;10;
2;England;Yorkshire;Kilpin;;W0.83;N53.72;10;
2;England;Yorkshire;Kilpin Pike;;W0.84;N53.72;10;
2;England;Yorkshire;Kilton;;W0.91;N54.55;10;
2;England;Yorkshire;Kilton Thorpe;;W0.93;N54.54;10;
2;England;Yorkshire;Kimberworth;;W1.39;N53.43;10;
2;England;Yorkshire;Kimberworth Park;;W1.39;N53.44;10;
2;England;Yorkshire;Kine Moor;;W1.59;N53.53;10;
2;England;Yorkshire;Kingston upon Hull;;W0.34;N53.74;10;
2;England;Yorkshire;Kingstone;;W1.50;N53.54;10;
2;England;Yorkshire;Kingstonia;;W1.54;N54.11;10;
2;England;Yorkshire;Kingswinford;;W2.17;N52.49;10;
2;England;Yorkshire;Kinsley;;W1.38;N53.62;10;
2;England;Yorkshire;Kiplin;;W1.58;N54.36;10;
2;England;Yorkshire;Kippax;;W1.37;N53.76;10;
2;England;Yorkshire;Kirby Grindalythe;;W0.62;N54.09;10;
2;England;Yorkshire;Kirby Hill;;W1.80;N54.44;10;
2;England;Yorkshire;Kirby Knowle;;W1.29;N54.27;10;
2;England;Yorkshire;Kirby Misperton;;W0.82;N54.20;10;
2;England;Yorkshire;Kirby Sigston;;W1.37;N54.34;10;
2;England;Yorkshire;Kirby Underdale;;W0.78;N54.01;10;
2;England;Yorkshire;Kirby Wiske;;W1.43;N54.25;10;
2;England;Yorkshire;Kirk Bramwith;;W1.07;N53.59;10;
2;England;Yorkshire;Kirk Deighton;;W1.40;N53.94;10;
2;England;Yorkshire;Kirk Ella;;W0.45;N53.74;10;
2;England;Yorkshire;Kirk Hammerton;;W1.29;N53.98;10;
2;England;Yorkshire;Kirk Sandall;;W1.08;N53.55;10;
2;England;Yorkshire;Kirk Smeaton;;W1.23;N53.63;10;
2;England;Yorkshire;Kirkbridge;;W1.61;N54.30;10;
2;England;Yorkshire;Kirkburn;;W0.50;N53.98;10;
2;England;Yorkshire;Kirkburton;;W1.71;N53.60;10;
2;England;Yorkshire;Kirkby;;W1.18;N54.44;10;
2;England;Yorkshire;Kirkby Fleetham;;W1.57;N54.34;10;
2;England;Yorkshire;Kirkby Hill;;W1.42;N54.10;10;
2;England;Yorkshire;Kirkby Malham;;W2.16;N54.04;10;
2;England;Yorkshire;Kirkby Malzeard;;W1.64;N54.16;10;
2;England;Yorkshire;Kirkby Mills;;W0.92;N54.25;10;
2;England;Yorkshire;Kirkby Overblow;;W1.51;N53.93;10;
2;England;Yorkshire;Kirkby Wharfe;;W1.24;N53.85;10;
2;England;Yorkshire;Kirkbymoorside;;W0.94;N54.26;10;
2;England;Yorkshire;Kirkham;;W0.88;N54.07;10;
2;England;Yorkshire;Kirkhamgate;;W1.56;N53.69;10;
2;England;Yorkshire;Kirkheaton;;W1.72;N53.65;10;
2;England;Yorkshire;Kirkleatham;;W1.08;N54.58;10;
2;England;Yorkshire;Kirklington;;W1.52;N54.22;10;
2;England;Yorkshire;Kirkstall;;W1.60;N53.81;10;
2;England;Yorkshire;Kirkthorpe;;W1.45;N53.67;10;
2;England;Yorkshire;Kitchenroyd;;W1.65;N53.57;10;
2;England;Yorkshire;Kiveton Park;;W1.26;N53.34;10;
2;England;Yorkshire;Knapton;;W1.14;N53.96;10;
2;England;Yorkshire;Knaresborough;;W1.46;N54.00;10;
2;England;Yorkshire;Knavesmire;;W1.11;N53.93;10;
2;England;Yorkshire;Knayton;;W1.34;N54.27;10;
2;England;Yorkshire;Knedlington;;W0.89;N53.74;10;
2;England;Yorkshire;Knoll Top;;W1.71;N54.08;10;
2;England;Yorkshire;Knott Lanes;;W2.12;N53.50;10;
2;England;Yorkshire;Knottingley;;W1.25;N53.70;10;
2;England;Yorkshire;Knowl Wood;;W2.10;N53.69;10;
2;England;Yorkshire;Knowle Park;;W1.92;N53.85;10;
2;England;Yorkshire;Knowsthorpe;;W1.53;N53.78;10;
2;England;Yorkshire;Krumlin;;W1.92;N53.65;10;
2;England;Yorkshire;Kyle;;W1.22;N54.03;10;
2;England;Yorkshire;Lackenby;;W1.13;N54.56;10;
2;England;Yorkshire;Ladies Riggs;;W1.78;N54.08;10;
2;England;Yorkshire;Lady Park;;W1.62;N54.91;10;
2;England;Yorkshire;Lady Wood;;W1.50;N53.82;10;
2;England;Yorkshire;Laisterdyke;;W1.72;N53.79;10;
2;England;Yorkshire;Lambwath Stream;;W0.11;N53.82;10;
2;England;Yorkshire;Lamesley;;W1.61;N54.91;10;
2;England;Yorkshire;Lane Bottom;;W1.92;N53.81;10;
2;England;Yorkshire;Lane End;;W1.97;N53.83;10;
2;England;Yorkshire;Lane End;;W1.47;N53.46;10;
2;England;Yorkshire;Lane Ends;;W1.66;N53.84;10;
2;England;Yorkshire;Lane Ends;;W2.03;N53.88;10;
2;England;Yorkshire;Lane Head;;W1.71;N53.56;10;
2;England;Yorkshire;Lane Head;;W1.69;N53.60;10;
2;England;Yorkshire;Lanesfield;;W2.11;N52.55;10;
2;England;Yorkshire;Langbar;;W1.86;N53.95;10;
2;England;Yorkshire;Langbaurgh;;W1.15;N54.49;10;
2;England;Yorkshire;Langcliffe;;W2.27;N54.08;10;
2;England;Yorkshire;Langsett;;W1.68;N53.49;10;
2;England;Yorkshire;Langthorne;;W1.61;N54.31;10;
2;England;Yorkshire;Langthorpe;;W1.42;N54.09;10;
2;England;Yorkshire;Langthwaite;;W2.00;N54.41;10;
2;England;Yorkshire;Langtoft;;W0.45;N54.08;10;
2;England;Yorkshire;Langton;;W0.79;N54.09;10;
2;England;Yorkshire;Lapal;;W2.03;N52.44;10;
2;England;Yorkshire;Larkfield;;W1.68;N53.84;10;
2;England;Yorkshire;Lastingham;;W0.89;N54.30;10;
2;England;Yorkshire;Laughton Common;;W1.23;N53.37;10;
2;England;Yorkshire;Laughton en le Morthen;;W1.21;N53.38;10;
2;England;Yorkshire;Laver;;W1.57;N54.15;10;
2;England;Yorkshire;Laverton;;W1.66;N54.15;10;
2;England;Yorkshire;Lawkland;;W2.35;N54.08;10;
2;England;Yorkshire;Lawkland Green;;W2.33;N54.08;10;
2;England;Yorkshire;Lawns;;W1.53;N53.71;10;
2;England;Yorkshire;Lawnswood;;W1.60;N53.83;10;
2;England;Yorkshire;Laxton;;W0.80;N53.71;10;
2;England;Yorkshire;Laycock;;W1.95;N53.85;10;
2;England;Yorkshire;Layerthorpe;;W1.07;N53.95;10;
2;England;Yorkshire;Laytham;;W0.87;N53.84;10;
2;England;Yorkshire;Lazenby;;W1.11;N54.56;10;
2;England;Yorkshire;Leadgate;;W1.82;N54.92;10;
2;England;Yorkshire;Leake;;W1.34;N54.30;10;
2;England;Yorkshire;Lealholm;;W0.82;N54.45;10;
2;England;Yorkshire;Lealholm Side;;W0.82;N54.46;10;
2;England;Yorkshire;Lease Rigg;;W0.73;N54.42;10;
2;England;Yorkshire;Leathley;;W1.65;N53.91;10;
2;England;Yorkshire;Leavening;;W0.80;N54.05;10;
2;England;Yorkshire;Lebberston;;W0.36;N54.22;10;
2;England;Yorkshire;Leconfield;;W0.46;N53.87;10;
2;England;Yorkshire;Ledsham;;W1.31;N53.75;10;
2;England;Yorkshire;Ledston;;W1.34;N53.74;10;
2;England;Yorkshire;Ledston Luck;;W1.36;N53.76;10;
2;England;Yorkshire;Lee Moor;;W1.48;N53.72;10;
2;England;Yorkshire;Leeds;;W1.54;N53.80;10;
2;England;Yorkshire;Leeds and Liverpool Canal;;W1.75;N53.83;10;
2;England;Yorkshire;Leeds and Liverpool Canal;;W2.12;N53.97;10;
2;England;Yorkshire;Leeming;;W1.94;N53.80;10;
2;England;Yorkshire;Leeming;;W1.55;N54.29;10;
2;England;Yorkshire;Leeming Bar;;W1.57;N54.30;10;
2;England;Yorkshire;Lees;;W2.07;N53.53;10;
2;England;Yorkshire;Leighton;;W1.75;N54.20;10;
2;England;Yorkshire;Leighton Reservoir;;W1.75;N54.20;10;
2;England;Yorkshire;Lelley;;W0.18;N53.77;10;
2;England;Yorkshire;Lemington;;W1.73;N54.97;10;
2;England;Yorkshire;Leppington;;W0.84;N54.03;10;
2;England;Yorkshire;Lepton;;W1.69;N53.63;10;
2;England;Yorkshire;Lepton Edge;;W1.68;N53.63;10;
2;England;Yorkshire;Letwell;;W1.15;N53.37;10;
2;England;Yorkshire;Leven;;W0.32;N53.88;10;
2;England;Yorkshire;Leven;;W1.31;N54.45;10;
2;England;Yorkshire;Leven Canal;;W0.36;N53.88;10;
2;England;Yorkshire;Leventhorpe;;W1.81;N53.79;10;
2;England;Yorkshire;Levisham;;W0.72;N54.29;10;
2;England;Yorkshire;Leyburn;;W1.83;N54.30;10;
2;England;Yorkshire;Leymoor;;W1.85;N53.64;10;
2;England;Yorkshire;Lidget;;W1.02;N53.49;10;
2;England;Yorkshire;Lidget Green;;W1.78;N53.78;10;
2;England;Yorkshire;Lidgett Park;;W1.51;N53.83;10;
2;England;Yorkshire;Lightcliffe;;W1.78;N53.72;10;
2;England;Yorkshire;Lime Side;;W2.13;N53.51;10;
2;England;Yorkshire;Lindley;;W1.83;N53.65;10;
2;England;Yorkshire;Lindley;;W1.66;N53.93;10;
2;England;Yorkshire;Lindrick Dale;;W1.19;N53.33;10;
2;England;Yorkshire;Lindwell;;W1.86;N53.68;10;
2;England;Yorkshire;Linfitts;;W2.04;N53.56;10;
2;England;Yorkshire;Lingards Wood;;W1.91;N53.60;10;
2;England;Yorkshire;Lingbob;;W1.86;N53.81;10;
2;England;Yorkshire;Lingdale;;W0.98;N54.53;10;
2;England;Yorkshire;Lings;;W1.01;N53.56;10;
2;England;Yorkshire;Linthorpe;;W1.25;N54.55;10;
2;England;Yorkshire;Linthwaite;;W1.85;N53.62;10;
2;England;Yorkshire;Linton;;W1.42;N53.90;10;
2;England;Yorkshire;Linton;;W2.01;N54.05;10;
2;England;Yorkshire;Linton-on-Ouse;;W1.25;N54.03;10;
2;England;Yorkshire;Lissett;;W0.26;N54.00;10;
2;England;Yorkshire;Listerdale;;W1.30;N53.41;10;
2;England;Yorkshire;Little Airmyn;;W0.91;N53.71;10;
2;England;Yorkshire;Little Ayton;;W1.12;N54.48;10;
2;England;Yorkshire;Little Barugh;;W0.83;N54.20;10;
2;England;Yorkshire;Little Catwick;;W0.29;N53.88;10;
2;England;Yorkshire;Little Crakehall;;W1.63;N54.30;10;
2;England;Yorkshire;Little Don;;W1.77;N53.48;10;
2;England;Yorkshire;Little Driffield;;W0.47;N53.99;10;
2;England;Yorkshire;Little End;;W0.78;N53.83;10;
2;England;Yorkshire;Little Fencote;;W1.57;N54.33;10;
2;England;Yorkshire;Little Fenton;;W1.21;N53.80;10;
2;England;Yorkshire;Little Habton;;W0.86;N54.18;10;
2;England;Yorkshire;Little Hatfield;;W0.22;N53.87;10;
2;England;Yorkshire;Little Heck;;W1.10;N53.69;10;
2;England;Yorkshire;Little Horton;;W1.77;N53.77;10;
2;England;Yorkshire;Little Houghton;;W1.36;N53.54;10;
2;England;Yorkshire;Little Lepton;;W1.69;N53.62;10;
2;England;Yorkshire;Little Leven;;W0.32;N53.88;10;
2;England;Yorkshire;Little London;;W1.69;N53.84;10;
2;England;Yorkshire;Little Ouseburn;;W1.32;N54.03;10;
2;England;Yorkshire;Little Preston;;W1.42;N53.76;10;
2;England;Yorkshire;Little Reedness;;W0.78;N53.68;10;
2;England;Yorkshire;Little Ribston;;W1.42;N53.97;10;
2;England;Yorkshire;Little Skipwith;;W1.01;N53.83;10;
2;England;Yorkshire;Little Smeaton;;W1.21;N53.63;10;
2;England;Yorkshire;Little Smeaton;;W1.47;N54.42;10;
2;England;Yorkshire;Little Stainforth;;W2.29;N54.09;10;
2;England;Yorkshire;Little Studley;;W1.52;N54.14;10;
2;England;Yorkshire;Little Thorpe;;W1.72;N53.69;10;
2;England;Yorkshire;Little Weighton;;W0.51;N53.78;10;
2;England;Yorkshire;Littlethorpe;;W1.51;N54.11;10;
2;England;Yorkshire;Littletown;;W1.69;N53.71;10;
2;England;Yorkshire;Littleworth;;W1.06;N53.47;10;
2;England;Yorkshire;Litton;;W2.15;N54.16;10;
2;England;Yorkshire;Liversedge;;W1.69;N53.70;10;
2;England;Yorkshire;Liverton;;W0.90;N54.52;10;
2;England;Yorkshire;Liverton Mines;;W0.90;N54.54;10;
2;England;Yorkshire;Load Brook;;W1.59;N53.38;10;
2;England;Yorkshire;Lobley Hill;;W1.64;N54.93;10;
2;England;Yorkshire;Lockington;;W0.49;N53.91;10;
2;England;Yorkshire;Lockton;;W0.71;N54.29;10;
2;England;Yorkshire;Lockwood;;W1.80;N53.63;10;
2;England;Yorkshire;Lodge Green;;W2.07;N54.37;10;
2;England;Yorkshire;Lodge Hill;;W1.57;N53.68;10;
2;England;Yorkshire;Lodge Moor;;W1.58;N53.36;10;
2;England;Yorkshire;Lofthouse;;W1.84;N54.15;10;
2;England;Yorkshire;Lofthouse;;W1.50;N53.72;10;
2;England;Yorkshire;Lofthouse Gate;;W1.50;N53.71;10;
2;England;Yorkshire;Loftus;;W0.90;N54.55;10;
2;England;Yorkshire;Londesborough;;W0.69;N53.89;10;
2;England;Yorkshire;London Fields;;W2.11;N52.50;10;
2;England;Yorkshire;Londonderry;;W1.54;N54.27;10;
2;England;Yorkshire;Long Drax;;W0.97;N53.74;10;
2;England;Yorkshire;Long Lee;;W1.89;N53.85;10;
2;England;Yorkshire;Long Marston;;W1.23;N53.95;10;
2;England;Yorkshire;Long Preston;;W2.26;N54.01;10;
2;England;Yorkshire;Long Riston;;W0.29;N53.86;10;
2;England;Yorkshire;Long Sandall;;W1.09;N53.54;10;
2;England;Yorkshire;Long Sight;;W2.12;N53.55;10;
2;England;Yorkshire;Longley;;W1.92;N53.68;10;
2;England;Yorkshire;Longley;;W1.79;N53.55;10;
2;England;Yorkshire;Longley Estate;;W1.47;N53.41;10;
2;England;Yorkshire;Longscales;;W1.66;N54.00;10;
2;England;Yorkshire;Longwood;;W1.85;N53.64;10;
2;England;Yorkshire;Longwood Edge;;W1.85;N53.64;10;
2;England;Yorkshire;Loscoe;;W1.39;N53.70;10;
2;England;Yorkshire;Lothersdale;;W2.06;N53.90;10;
2;England;Yorkshire;Loversall;;W1.14;N53.47;10;
2;England;Yorkshire;Low Ackworth;;W1.33;N53.64;10;
2;England;Yorkshire;Low Barugh;;W1.53;N53.56;10;
2;England;Yorkshire;Low Bradfield;;W1.61;N53.41;10;
2;England;Yorkshire;Low Bradley;;W2.00;N53.92;10;
2;England;Yorkshire;Low Catton;;W0.93;N53.96;10;
2;England;Yorkshire;Low Compton;;W2.12;N53.56;10;
2;England;Yorkshire;Low Coniscliffe;;W1.63;N54.51;10;
2;England;Yorkshire;Low Dalby;;W0.69;N54.27;10;
2;England;Yorkshire;Low Eighton;;W1.59;N54.90;10;
2;England;Yorkshire;Low Ellington;;W1.69;N54.24;10;
2;England;Yorkshire;Low Fell;;W1.61;N54.93;10;
2;England;Yorkshire;Low Fold;;W1.65;N53.82;10;
2;England;Yorkshire;Low Garth;;W0.87;N54.43;10;
2;England;Yorkshire;Low Gate;;W1.61;N54.09;10;
2;England;Yorkshire;Low Grantley;;W1.64;N54.12;10;
2;England;Yorkshire;Low Green;;W1.68;N53.83;10;
2;England;Yorkshire;Low Green;;W1.69;N54.02;10;
2;England;Yorkshire;Low Greenside;;W1.78;N54.95;10;
2;England;Yorkshire;Low Hawsker;;W0.58;N54.45;10;
2;England;Yorkshire;Low Hutton;;W0.83;N54.09;10;
2;England;Yorkshire;Low Laithe;;W1.71;N54.06;10;
2;England;Yorkshire;Low Laithes;;W1.42;N53.53;10;
2;England;Yorkshire;Low Marishes;;W0.74;N54.18;10;
2;England;Yorkshire;Low Mill;;W0.97;N54.34;10;
2;England;Yorkshire;Low Moor;;W1.77;N53.74;10;
2;England;Yorkshire;Low Row;;W2.03;N54.36;10;
2;England;Yorkshire;Low Snaygill;;W2.01;N53.93;10;
2;England;Yorkshire;Low Thornley;;W1.73;N54.93;10;
2;England;Yorkshire;Low Valley;;W1.39;N53.52;10;
2;England;Yorkshire;Low Whita;;W2.00;N54.37;10;
2;England;Yorkshire;Low Worsall;;W1.39;N54.47;10;
2;England;Yorkshire;Lower Altofts;;W1.42;N53.71;10;
2;England;Yorkshire;Lower Cumberworth;;W1.66;N53.57;10;
2;England;Yorkshire;Lower Denby;;W1.65;N53.55;10;
2;England;Yorkshire;Lower Dunsforth;;W1.32;N54.07;10;
2;England;Yorkshire;Lower Gornal;;W2.11;N52.51;10;
2;England;Yorkshire;Lower Grange;;W1.81;N53.79;10;
2;England;Yorkshire;Lower Hopton;;W1.71;N53.66;10;
2;England;Yorkshire;Lower Houses;;W1.77;N53.63;10;
2;England;Yorkshire;Lower Mickletown;;W1.39;N53.73;10;
2;England;Yorkshire;Lower Soothill;;W1.62;N53.71;10;
2;England;Yorkshire;Lower Town;;W1.95;N53.80;10;
2;England;Yorkshire;Lower Westhouse;;W2.50;N54.15;10;
2;England;Yorkshire;Lower Wyke;;W1.77;N53.72;10;
2;England;Yorkshire;Lowfield;;W1.47;N53.36;10;
2;England;Yorkshire;Lowna;;W0.95;N54.31;10;
2;England;Yorkshire;Lowthorpe;;W0.35;N54.02;10;
2;England;Yorkshire;Loxley;;W1.55;N53.39;10;
2;England;Yorkshire;Luddenden;;W1.94;N53.73;10;
2;England;Yorkshire;Luddenden Foot;;W1.94;N53.71;10;
2;England;Yorkshire;Lumb;;W1.77;N53.61;10;
2;England;Yorkshire;Lumb Foot;;W1.98;N53.82;10;
2;England;Yorkshire;Lumbutts;;W2.07;N53.70;10;
2;England;Yorkshire;Lumby;;W1.27;N53.76;10;
2;England;Yorkshire;Lund;;W0.52;N53.91;10;
2;England;Yorkshire;Lund;;W1.01;N53.78;10;
2;England;Yorkshire;Lundwood;;W1.44;N53.55;10;
2;England;Yorkshire;Lupset;;W1.53;N53.66;10;
2;England;Yorkshire;Lutley;;W2.08;N52.44;10;
2;England;Yorkshire;Luzley Brook;;W2.12;N53.55;10;
2;England;Yorkshire;Lydgate;;W2.12;N53.72;10;
2;England;Yorkshire;Lydgate;;W2.04;N53.53;10;
2;England;Yorkshire;Lye;;W2.11;N52.45;10;
2;England;Yorkshire;Malham;;W2.15;N54.05;10;
2;England;Yorkshire;Malinbridge;;W1.52;N53.39;10;
2;England;Yorkshire;Maltby;;W1.21;N53.42;10;
2;England;Yorkshire;Malton;;W0.80;N54.12;10;
2;England;Yorkshire;Manfield;;W1.66;N54.51;10;
2;England;Yorkshire;Mankinholes;;W2.06;N53.70;10;
2;England;Yorkshire;Manningham;;W1.77;N53.80;10;
2;England;Yorkshire;Manor Estate;;W1.43;N53.36;10;
2;England;Yorkshire;Manor Park;;W1.77;N53.91;10;
2;England;Yorkshire;Manor Park;;W1.44;N53.36;10;
2;England;Yorkshire;Manston;;W1.45;N53.80;10;
2;England;Yorkshire;Manywells Height;;W1.91;N53.81;10;
2;England;Yorkshire;Mappleton;;W0.14;N53.87;10;
2;England;Yorkshire;Mapplewell;;W1.51;N53.57;10;
2;England;Yorkshire;Marfleet;;W0.28;N53.74;10;
2;England;Yorkshire;Margrove Park;;W0.99;N54.52;10;
2;England;Yorkshire;Market Weighton;;W0.67;N53.85;10;
2;England;Yorkshire;Market Weighton Canal;;W0.71;N53.82;10;
2;England;Yorkshire;Markington;;W1.55;N54.08;10;
2;England;Yorkshire;Marley Hill;;W1.68;N54.91;10;
2;England;Yorkshire;Marr;;W1.23;N53.53;10;
2;England;Yorkshire;Marrick;;W1.89;N54.37;10;
2;England;Yorkshire;Marsden;;W1.94;N53.59;10;
2;England;Yorkshire;Marsett;;W2.15;N54.27;10;
2;England;Yorkshire;Marsh;;W1.97;N53.81;10;
2;England;Yorkshire;Marsh;;W1.81;N53.64;10;
2;England;Yorkshire;Marske;;W1.84;N54.39;10;
2;England;Yorkshire;Marske Beck;;W1.87;N54.41;10;
2;England;Yorkshire;Marske-By-The-Sea;;W1.02;N54.58;10;
2;England;Yorkshire;Marton;;W0.22;N53.83;10;
2;England;Yorkshire;Marton;;W1.21;N54.52;10;
2;England;Yorkshire;Marton;;W1.37;N54.05;10;
2;England;Yorkshire;Marton;;W0.88;N54.23;10;
2;England;Yorkshire;Marton Grove;;W1.24;N54.55;10;
2;England;Yorkshire;Marton-in-the-Forest;;W1.09;N54.10;10;
2;England;Yorkshire;Marton-le-Moor;;W1.43;N54.12;10;
2;England;Yorkshire;Masbrough;;W1.38;N53.42;10;
2;England;Yorkshire;Masham;;W1.66;N54.21;10;
2;England;Yorkshire;Masongill;;W2.52;N54.17;10;
2;England;Yorkshire;Maunby;;W1.46;N54.26;10;
2;England;Yorkshire;Mawson Green;;W1.03;N53.63;10;
2;England;Yorkshire;Maythorn;;W1.72;N53.54;10;
2;England;Yorkshire;Meadowhall;;W1.41;N53.42;10;
2;England;Yorkshire;Meadowhead;;W1.49;N53.33;10;
2;England;Yorkshire;Meagill;;W1.74;N53.99;10;
2;England;Yorkshire;Meal Hill;;W1.74;N53.55;10;
2;England;Yorkshire;Meanwood;;W1.57;N53.82;10;
2;England;Yorkshire;Mearbeck;;W2.29;N54.03;10;
2;England;Yorkshire;Measborough Dike;;W1.45;N53.54;10;
2;England;Yorkshire;Meaux Abbey;;W0.34;N53.83;10;
2;England;Yorkshire;Meersbrook;;W1.47;N53.35;10;
2;England;Yorkshire;Melbourne;;W0.86;N53.88;10;
2;England;Yorkshire;Melmerby;;W1.49;N54.17;10;
2;England;Yorkshire;Melmerby;;W1.89;N54.26;10;
2;England;Yorkshire;Melsonby;;W1.70;N54.46;10;
2;England;Yorkshire;Meltham;;W1.86;N53.58;10;
2;England;Yorkshire;Meltham Mills;;W1.85;N53.58;10;
2;England;Yorkshire;Melton;;W0.53;N53.72;10;
2;England;Yorkshire;Meltonby;;W0.79;N53.95;10;
2;England;Yorkshire;Menethorpe;;W0.83;N54.09;10;
2;England;Yorkshire;Menston;;W1.74;N53.88;10;
2;England;Yorkshire;Menthorpe;;W0.93;N53.79;10;
2;England;Yorkshire;Merchant Fields;;W1.71;N53.73;10;
2;England;Yorkshire;Methley;;W1.41;N53.72;10;
2;England;Yorkshire;Methley Junction;;W1.41;N53.72;10;
2;England;Yorkshire;Methley Lanes;;W1.44;N53.72;10;
2;England;Yorkshire;Mewith Head;;W2.46;N54.08;10;
2;England;Yorkshire;Mexborough;;W1.29;N53.49;10;
2;England;Yorkshire;Micklebring;;W1.23;N53.44;10;
2;England;Yorkshire;Mickleby;;W0.76;N54.49;10;
2;England;Yorkshire;Micklefield;;W1.33;N53.79;10;
2;England;Yorkshire;Micklethwaite;;W1.84;N53.86;10;
2;England;Yorkshire;Mickletown;;W1.41;N53.73;10;
2;England;Yorkshire;Mickley;;W1.61;N54.17;10;
2;England;Yorkshire;Middlecave;;W0.82;N54.12;10;
2;England;Yorkshire;Middlecliffe;;W1.36;N53.54;10;
2;England;Yorkshire;Middleham;;W1.81;N54.27;10;
2;England;Yorkshire;Middlesbrough;;W1.21;N54.55;10;
2;England;Yorkshire;Middlesmoor;;W1.86;N54.16;10;
2;England;Yorkshire;Middlestown;;W1.60;N53.64;10;
2;England;Yorkshire;Middlethorpe;;W1.10;N53.92;10;
2;England;Yorkshire;Middleton;;W1.81;N53.93;10;
2;England;Yorkshire;Middleton;;W1.19;N54.68;10;
2;England;Yorkshire;Middleton;;W1.56;N53.73;10;
2;England;Yorkshire;Middleton;;W2.06;N53.88;10;
2;England;Yorkshire;Middleton;;W0.80;N54.25;10;
2;England;Yorkshire;Middleton One Row;;W1.46;N54.50;10;
2;England;Yorkshire;Middleton on-the-Wolds;;W0.56;N53.92;10;
2;England;Yorkshire;Middleton Quernhow;;W1.49;N54.19;10;
2;England;Yorkshire;Middleton Tyas;;W1.66;N54.44;10;
2;England;Yorkshire;Middleton-on-Leven;;W1.29;N54.47;10;
2;England;Yorkshire;Middlewood;;W1.53;N53.41;10;
2;England;Yorkshire;Middlewood;;W1.53;N53.42;10;
2;England;Yorkshire;Midgehole;;W2.01;N53.74;10;
2;England;Yorkshire;Midgley;;W1.97;N53.73;10;
2;England;Yorkshire;Midgley;;W1.59;N53.62;10;
2;England;Yorkshire;Midhopestones;;W1.65;N53.48;10;
2;England;Yorkshire;Milby;;W1.38;N54.09;10;
2;England;Yorkshire;Miles Hill;;W1.56;N53.81;10;
2;England;Yorkshire;Mill Bank;;W1.95;N53.68;10;
2;England;Yorkshire;Mill Dam;;W2.49;N54.09;10;
2;England;Yorkshire;Mill Hirst;;W1.71;N54.03;10;
2;England;Yorkshire;Mill Shaw;;W1.57;N53.76;10;
2;England;Yorkshire;Millhouse Green;;W1.68;N53.52;10;
2;England;Yorkshire;Millhouses;;W1.36;N53.53;10;
2;England;Yorkshire;Millhouses;;W1.52;N53.34;10;
2;England;Yorkshire;Millington;;W0.73;N53.94;10;
2;England;Yorkshire;Milnsbridge;;W1.83;N53.63;10;
2;England;Yorkshire;Milnthorpe;;W1.50;N53.64;10;
2;England;Yorkshire;Milton;;W1.44;N53.49;10;
2;England;Yorkshire;Minskip;;W1.42;N54.07;10;
2;England;Yorkshire;Mires Beck;;W0.64;N53.80;10;
2;England;Yorkshire;Mirfield;;W1.69;N53.66;10;
2;England;Yorkshire;Mirfield;;W1.69;N53.67;10;
2;England;Yorkshire;Mixenden;;W1.91;N53.74;10;
2;England;Yorkshire;Moldgreen;;W1.77;N53.64;10;
2;England;Yorkshire;Molescroft;;W0.45;N53.84;10;
2;England;Yorkshire;Monk Bretton;;W1.45;N53.55;10;
2;England;Yorkshire;Monk End;;W1.56;N54.47;10;
2;England;Yorkshire;Monk Fryston;;W1.24;N53.75;10;
2;England;Yorkshire;Monkhill;;W1.31;N53.69;10;
2;England;Yorkshire;Monkswood;;W1.48;N53.82;10;
2;England;Yorkshire;Moor Allerton;;W1.54;N53.84;10;
2;England;Yorkshire;Moor Edge;;W1.87;N53.83;10;
2;England;Yorkshire;Moor End;;W1.56;N53.53;10;
2;England;Yorkshire;Moor End;;W1.92;N53.74;10;
2;England;Yorkshire;Moor End;;W0.77;N53.82;10;
2;England;Yorkshire;Moor End;;W1.37;N53.89;10;
2;England;Yorkshire;Moor End;;W1.10;N53.83;10;
2;England;Yorkshire;Moor End;;W1.45;N54.05;10;
2;England;Yorkshire;Moor End;;W0.99;N53.99;10;
2;England;Yorkshire;Moor End Field;;W1.32;N54.11;10;
2;England;Yorkshire;Moor Head;;W1.66;N53.60;10;
2;England;Yorkshire;Moor Head;;W1.63;N53.75;10;
2;England;Yorkshire;Moor Monkton;;W1.23;N53.99;10;
2;England;Yorkshire;Moor Monkton Moor;;W1.22;N53.98;10;
2;England;Yorkshire;Moor Side;;W1.77;N53.74;10;
2;England;Yorkshire;Moor Side;;W1.97;N53.81;10;
2;England;Yorkshire;Moor Top;;W1.71;N53.68;10;
2;England;Yorkshire;Moorends;;W0.95;N53.62;10;
2;England;Yorkshire;Moorgate;;W1.33;N53.40;10;
2;England;Yorkshire;Moorhead;;W1.80;N53.82;10;
2;England;Yorkshire;Moorhey;;W2.10;N53.53;10;
2;England;Yorkshire;Moorhole;;W1.38;N53.33;10;
2;England;Yorkshire;Moorhouse;;W1.27;N53.58;10;
2;England;Yorkshire;Moorsholm;;W0.95;N54.51;10;
2;England;Yorkshire;Moorside;;W1.66;N53.74;10;
2;England;Yorkshire;Moorside;;W1.63;N53.81;10;
2;England;Yorkshire;Moorside;;W2.07;N53.56;10;
2;England;Yorkshire;Moorthorpe;;W1.30;N53.59;10;
2;England;Yorkshire;Moortown;;W1.54;N53.83;10;
2;England;Yorkshire;Moresdale Gill;;W1.92;N54.43;10;
2;England;Yorkshire;Morley;;W1.60;N53.73;10;
2;England;Yorkshire;Morthen;;W1.29;N53.39;10;
2;England;Yorkshire;Mortomley;;W1.48;N53.46;10;
2;England;Yorkshire;Morton-on-Swale;;W1.50;N54.31;10;
2;England;Yorkshire;Moss;;W1.10;N53.61;10;
2;England;Yorkshire;Moulton;;W1.64;N54.42;10;
2;England;Yorkshire;Mount;;W1.86;N53.65;10;
2;England;Yorkshire;Mount Pleasant;;W1.59;N54.94;10;
2;England;Yorkshire;Mount Pleasant;;W1.65;N53.70;10;
2;England;Yorkshire;Mount Tabor;;W1.92;N53.73;10;
2;England;Yorkshire;Mountain;;W1.86;N53.76;10;
2;England;Yorkshire;Moxby;;W1.09;N54.08;10;
2;England;Yorkshire;Muker;;W2.15;N54.36;10;
2;England;Yorkshire;Mumps;;W2.10;N53.54;10;
2;England;Yorkshire;Murton;;W1.01;N53.96;10;
2;England;Yorkshire;Murton Grange;;W1.18;N54.28;10;
2;England;Yorkshire;Muscoates;;W0.95;N54.21;10;
2;England;Yorkshire;Mushroom Green;;W2.10;N52.47;10;
2;England;Yorkshire;Muston;;W0.33;N54.19;10;
2;England;Yorkshire;Mytholm;;W2.03;N53.73;10;
2;England;Yorkshire;Mytholmes;;W1.95;N53.83;10;
2;England;Yorkshire;Mytholmroyd;;W1.98;N53.73;10;
2;England;Yorkshire;Myton Hall;;W1.32;N54.08;10;
2;England;Yorkshire;Myton-on-Swale;;W1.34;N54.08;10;
2;England;Yorkshire;Nab Hill;;W1.74;N53.65;10;
2;England;Yorkshire;Nab Wood;;W1.81;N53.82;10;
2;England;Yorkshire;Naburn;;W1.10;N53.89;10;
2;England;Yorkshire;Nafferton;;W0.39;N54.01;10;
2;England;Yorkshire;Nappa;;W2.23;N53.97;10;
2;England;Yorkshire;Nappa Scar;;W2.06;N54.31;10;
2;England;Yorkshire;Nawton;;W1.00;N54.24;10;
2;England;Yorkshire;Near Hardcastle;;W1.83;N54.08;10;
2;England;Yorkshire;Neat Marsh;;W0.25;N53.76;10;
2;England;Yorkshire;Nelly Ayre Foss;;W0.62;N54.47;10;
2;England;Yorkshire;Nether Edge;;W1.50;N53.35;10;
2;England;Yorkshire;Nether End;;W1.63;N53.55;10;
2;England;Yorkshire;Nether Haugh;;W1.38;N53.45;10;
2;England;Yorkshire;Nether Poppleton;;W1.14;N53.97;10;
2;England;Yorkshire;Nether Silton;;W1.30;N54.32;10;
2;England;Yorkshire;Nether Yeadon;;W1.69;N53.85;10;
2;England;Yorkshire;Netherby;;W1.49;N53.90;10;
2;England;Yorkshire;Netherley;;W1.94;N53.58;10;
2;England;Yorkshire;Netheroyd Hill;;W1.78;N53.66;10;
2;England;Yorkshire;Netherthong;;W1.80;N53.57;10;
2;England;Yorkshire;Netherton;;W2.08;N52.49;10;
2;England;Yorkshire;Netherton;;W1.82;N53.61;10;
2;England;Yorkshire;Netherton;;W1.59;N53.64;10;
2;England;Yorkshire;Nettleton Hill;;W1.86;N53.64;10;
2;England;Yorkshire;New Arram;;W0.43;N53.88;10;
2;England;Yorkshire;New Brighton;;W1.81;N53.82;10;
2;England;Yorkshire;New Brighton;;W1.60;N53.73;10;
2;England;Yorkshire;New Brotton;;W0.94;N54.57;10;
2;England;Yorkshire;New Crofton;;W1.42;N53.64;10;
2;England;Yorkshire;New Delph;;W2.03;N53.56;10;
2;England;Yorkshire;New Earswick;;W1.08;N53.98;10;
2;England;Yorkshire;New Edlington;;W1.20;N53.47;10;
2;England;Yorkshire;New Ellerby;;W0.23;N53.83;10;
2;England;Yorkshire;New Farnley;;W1.63;N53.77;10;
2;England;Yorkshire;New Fryston;;W1.31;N53.73;10;
2;England;Yorkshire;New Holland;;W1.87;N53.81;10;
2;England;Yorkshire;New Houses;;W2.30;N54.15;10;
2;England;Yorkshire;New Junction;;W1.04;N53.62;10;
2;England;Yorkshire;New Lodge;;W1.48;N53.57;10;
2;England;Yorkshire;New Marske;;W1.04;N54.57;10;
2;England;Yorkshire;New Micklefield;;W1.33;N53.78;10;
2;England;Yorkshire;New Mill;;W1.75;N53.56;10;
2;England;Yorkshire;New Park;;W1.55;N53.99;10;
2;England;Yorkshire;New Road Side;;W1.77;N53.73;10;
2;England;Yorkshire;New Road Side;;W2.04;N53.87;10;
2;England;Yorkshire;New Rossington;;W1.08;N53.46;10;
2;England;Yorkshire;New Scarbro;;W1.63;N53.80;10;
2;England;Yorkshire;New Sharlston;;W1.42;N53.67;10;
2;England;Yorkshire;New Skelton;;W0.98;N54.55;10;
2;England;Yorkshire;New Thirsk;;W1.35;N54.22;10;
2;England;Yorkshire;New Totley;;W1.53;N53.30;10;
2;England;Yorkshire;New Town;;W1.31;N53.70;10;
2;England;Yorkshire;New Village;;W1.15;N53.54;10;
2;England;Yorkshire;New Village;;W0.40;N53.77;10;
2;England;Yorkshire;New Wortley;;W1.57;N53.78;10;
2;England;Yorkshire;New York;;W1.71;N54.05;10;
2;England;Yorkshire;Newall;;W1.69;N53.91;10;
2;England;Yorkshire;Newbiggin;;W2.01;N54.26;10;
2;England;Yorkshire;Newbiggin;;W2.07;N54.31;10;
2;England;Yorkshire;Newbridge;;W0.77;N54.25;10;
2;England;Yorkshire;Newby;;W1.60;N53.91;10;
2;England;Yorkshire;Newby;;W1.46;N54.09;10;
2;England;Yorkshire;Newby;;W2.42;N54.12;10;
2;England;Yorkshire;Newby;;W0.44;N54.29;10;
2;England;Yorkshire;Newby;;W1.22;N54.50;10;
2;England;Yorkshire;Newby Cote;;W2.41;N54.12;10;
2;England;Yorkshire;Newby Wiske;;W1.44;N54.27;10;
2;England;Yorkshire;Newhay;;W1.00;N53.76;10;
2;England;Yorkshire;Newhey;;W2.10;N53.59;10;
2;England;Yorkshire;Newhill;;W1.35;N53.48;10;
2;England;Yorkshire;Newholm;;W0.67;N54.47;10;
2;England;Yorkshire;Newland;;W0.36;N53.76;10;
2;England;Yorkshire;Newland;;W0.95;N53.70;10;
2;England;Yorkshire;Newland;;W0.78;N53.75;10;
2;England;Yorkshire;Newmillerdam;;W1.51;N53.63;10;
2;England;Yorkshire;Newport;;W0.71;N53.75;10;
2;England;Yorkshire;Newsam Green;;W1.45;N53.76;10;
2;England;Yorkshire;Newsham;;W1.43;N54.25;10;
2;England;Yorkshire;Newsham;;W1.84;N54.48;10;
2;England;Yorkshire;Newsholme;;W1.97;N53.84;10;
2;England;Yorkshire;Newsholme;;W0.92;N53.75;10;
2;England;Yorkshire;Newsome;;W1.78;N53.62;10;
2;England;Yorkshire;Newstead;;W1.41;N53.62;10;
2;England;Yorkshire;Newthorpe;;W1.28;N53.78;10;
2;England;Yorkshire;Newton;;W1.15;N53.51;10;
2;England;Yorkshire;Newton Hill;;W1.50;N53.69;10;
2;England;Yorkshire;Newton Kyme;;W1.30;N53.89;10;
2;England;Yorkshire;Newton Morrell;;W1.64;N54.47;10;
2;England;Yorkshire;Newton Mulgrave;;W0.79;N54.52;10;
2;England;Yorkshire;Newton under Roseberry;;W1.13;N54.50;10;
2;England;Yorkshire;Newton upon Derwent;;W0.90;N53.93;10;
2;England;Yorkshire;Newton-le-Willows;;W1.67;N54.29;10;
2;England;Yorkshire;Newton-on-Ouse;;W1.22;N54.02;10;
2;England;Yorkshire;Newton-on-Rawcliffe;;W0.75;N54.29;10;
2;England;Yorkshire;Nidd;;W1.54;N54.02;10;
2;England;Yorkshire;Nidd;;W1.54;N54.03;10;
2;England;Yorkshire;Nidd;;W1.58;N54.03;10;
2;England;Yorkshire;Nimble Nook;;W2.15;N53.53;10;
2;England;Yorkshire;Noblethorpe;;W1.57;N53.54;10;
2;England;Yorkshire;Noon Nick;;W1.83;N53.82;10;
2;England;Yorkshire;Norby;;W1.35;N54.23;10;
2;England;Yorkshire;Norland Town;;W1.89;N53.69;10;
2;England;Yorkshire;Normanby;;W0.88;N54.22;10;
2;England;Yorkshire;Normanby;;W1.15;N54.55;10;
2;England;Yorkshire;Normanton;;W1.42;N53.69;10;
2;England;Yorkshire;Normanton Spring;;W1.40;N53.35;10;
2;England;Yorkshire;Norr;;W1.86;N53.82;10;
2;England;Yorkshire;Norristhorpe;;W1.69;N53.69;10;
2;England;Yorkshire;North Anston;;W1.22;N53.35;10;
2;England;Yorkshire;North Cave;;W0.65;N53.77;10;
2;England;Yorkshire;North Channel;;W0.12;N53.65;10;
2;England;Yorkshire;North Cliffe;;W0.67;N53.82;10;
2;England;Yorkshire;North Cowton;;W1.56;N54.42;10;
2;England;Yorkshire;North Dalton;;W0.58;N53.95;10;
2;England;Yorkshire;North Deighton;;W1.40;N53.95;10;
2;England;Yorkshire;North Duffield;;W0.96;N53.82;10;
2;England;Yorkshire;North Elmsall;;W1.29;N53.60;10;
2;England;Yorkshire;North End;;W0.05;N53.76;10;
2;England;Yorkshire;North End;;W0.19;N53.85;10;
2;England;Yorkshire;North End;;W0.23;N53.93;10;
2;England;Yorkshire;North Featherstone;;W1.36;N53.69;10;
2;England;Yorkshire;North Ferriby;;W0.51;N53.71;10;
2;England;Yorkshire;North Frodingham;;W0.32;N53.96;10;
2;England;Yorkshire;North Grimston;;W0.71;N54.09;10;
2;England;Yorkshire;North Howden;;W0.86;N53.76;10;
2;England;Yorkshire;North Kilvington;;W1.35;N54.25;10;
2;England;Yorkshire;North Lees;;W1.54;N54.15;10;
2;England;Yorkshire;North Newbald;;W0.61;N53.81;10;
2;England;Yorkshire;North Ormesby;;W1.21;N54.56;10;
2;England;Yorkshire;North Rigton;;W1.59;N53.93;10;
2;England;Yorkshire;North Skelton;;W0.96;N54.55;10;
2;England;Yorkshire;North Stainley;;W1.57;N54.17;10;
2;England;Yorkshire;Northallerton;;W1.43;N54.34;10;
2;England;Yorkshire;Northfield;;W0.44;N53.72;10;
2;England;Yorkshire;Northorpe;;W1.68;N53.67;10;
2;England;Yorkshire;Northowram;;W1.83;N53.73;10;
2;England;Yorkshire;Norton;;W1.18;N53.62;10;
2;England;Yorkshire;Norton;;W2.16;N52.43;10;
2;England;Yorkshire;Norton;;W1.47;N53.33;10;
2;England;Yorkshire;Norton Lees;;W1.47;N53.35;10;
2;England;Yorkshire;Norton Woodseats;;W1.47;N53.33;10;
2;England;Yorkshire;Norton-le-Clay;;W1.38;N54.13;10;
2;England;Yorkshire;Norton-on-Derwent;;W0.79;N54.12;10;
2;England;Yorkshire;Norwood Green;;W1.80;N53.73;10;
2;England;Yorkshire;Nosterfield;;W1.58;N54.21;10;
2;England;Yorkshire;Notton;;W1.48;N53.61;10;
2;England;Yorkshire;Nun Appleton;;W1.16;N53.84;10;
2;England;Yorkshire;Nun Monkton;;W1.23;N54.00;10;
2;England;Yorkshire;Nunburnholme;;W0.70;N53.92;10;
2;England;Yorkshire;Nunnington;;W0.98;N54.20;10;
2;England;Yorkshire;Nunthorpe;;W1.18;N54.51;10;
2;England;Yorkshire;Nunthorpe;;W1.10;N53.93;10;
2;England;Yorkshire;Nunwick;;W1.51;N54.16;10;
2;England;Yorkshire;Nunwick Beck;;W1.55;N54.27;10;
2;England;Yorkshire;Nutwell;;W1.05;N53.52;10;
2;England;Yorkshire;Oakdale;;W1.57;N53.99;10;
2;England;Yorkshire;Oakenshaw;;W1.74;N53.73;10;
2;England;Yorkshire;Oakes;;W1.83;N53.64;10;
2;England;Yorkshire;Oakwell;;W1.68;N53.73;10;
2;England;Yorkshire;Oakwood;;W1.51;N53.81;10;
2;England;Yorkshire;Oakworth;;W1.95;N53.83;10;
2;England;Yorkshire;Oatlands;;W1.54;N53.97;10;
2;England;Yorkshire;Odsal;;W1.77;N53.75;10;
2;England;Yorkshire;Ogden;;W1.91;N53.77;10;
2;England;Yorkshire;Old Bramhope;;W1.65;N53.88;10;
2;England;Yorkshire;Old Byland;;W1.17;N54.25;10;
2;England;Yorkshire;Old Denaby;;W1.27;N53.48;10;
2;England;Yorkshire;Old Dolphin;;W1.83;N53.76;10;
2;England;Yorkshire;Old Edlington;;W1.20;N53.46;10;
2;England;Yorkshire;Old Ellerby;;W0.23;N53.81;10;
2;England;Yorkshire;Old Fold;;W1.57;N54.95;10;
2;England;Yorkshire;Old Goole;;W0.88;N53.68;10;
2;England;Yorkshire;Old Lindley;;W1.86;N53.66;10;
2;England;Yorkshire;Old Malton;;W0.79;N54.13;10;
2;England;Yorkshire;Old Micklefield;;W1.33;N53.79;10;
2;England;Yorkshire;Old Snydale;;W1.39;N53.68;10;
2;England;Yorkshire;Old Swinford;;W2.14;N52.44;10;
2;England;Yorkshire;Old Tame;;W2.06;N53.57;10;
2;England;Yorkshire;Old Thirsk;;W1.34;N54.23;10;
2;England;Yorkshire;Old Town;;W2.01;N53.74;10;
2;England;Yorkshire;Old Town;;W0.19;N54.08;10;
2;England;Yorkshire;Oldfield;;W2.00;N53.82;10;
2;England;Yorkshire;Oldfield;;W1.80;N53.58;10;
2;England;Yorkshire;Oldham Edge;;W2.12;N53.54;10;
2;England;Yorkshire;Oldstead;;W1.18;N54.21;10;
2;England;Yorkshire;Onesacre;;W1.56;N53.43;10;
2;England;Yorkshire;Orgreave;;W1.38;N53.37;10;
2;England;Yorkshire;Ormesby;;W1.18;N54.54;10;
2;England;Yorkshire;Osbaldwick;;W1.04;N53.95;10;
2;England;Yorkshire;Osgodby;;W1.02;N53.78;10;
2;England;Yorkshire;Osgodby Common;;W1.02;N53.80;10;
2;England;Yorkshire;Osmondthorpe;;W1.51;N53.79;10;
2;England;Yorkshire;Osmotherley;;W1.30;N54.36;10;
2;England;Yorkshire;Osset Spa;;W1.56;N53.66;10;
2;England;Yorkshire;Ossett;;W1.57;N53.67;10;
2;England;Yorkshire;Ossett Street Side;;W1.59;N53.68;10;
2;England;Yorkshire;Oswaldkirk;;W1.05;N54.19;10;
2;England;Yorkshire;Otley;;W1.69;N53.90;10;
2;England;Yorkshire;Otterburn;;W2.18;N54.00;10;
2;England;Yorkshire;Ottringham;;W0.09;N53.69;10;
2;England;Yorkshire;Oughtershaw;;W2.21;N54.22;10;
2;England;Yorkshire;Oughtibridge;;W1.54;N53.43;10;
2;England;Yorkshire;Oulston;;W1.17;N54.15;10;
2;England;Yorkshire;Oulton;;W1.45;N53.74;10;
2;England;Yorkshire;Ouse;;W0.96;N53.75;10;
2;England;Yorkshire;Ouse;;W1.11;N53.97;10;
2;England;Yorkshire;Ousefleet;;W0.75;N53.69;10;
2;England;Yorkshire;Ousel Hole;;W1.84;N53.87;10;
2;England;Yorkshire;Out Newton;;E0.08;N53.66;10;
2;England;Yorkshire;Outlane;;W1.88;N53.65;10;
2;England;Yorkshire;Outlane Moor;;W1.89;N53.64;10;
2;England;Yorkshire;Outwood;;W1.51;N53.70;10;
2;England;Yorkshire;Ouzlewell Green;;W1.50;N53.72;10;
2;England;Yorkshire;Ovenden;;W1.89;N53.73;10;
2;England;Yorkshire;Over Silton;;W1.30;N54.33;10;
2;England;Yorkshire;Overend;;W2.07;N52.45;10;
2;England;Yorkshire;Overthorpe;;W1.63;N53.65;10;
2;England;Yorkshire;Overton;;W1.60;N53.64;10;
2;England;Yorkshire;Overton;;W1.16;N53.98;10;
2;England;Yorkshire;Overtown;;W1.47;N53.63;10;
2;England;Yorkshire;Owlerton;;W1.50;N53.39;10;
2;England;Yorkshire;Owlet;;W1.77;N53.82;10;
2;England;Yorkshire;Owlthorpe;;W1.38;N53.33;10;
2;England;Yorkshire;Owston;;W1.17;N53.59;10;
2;England;Yorkshire;Owstwick;;W0.07;N53.76;10;
2;England;Yorkshire;Owthorne;;E0.01;N53.73;10;
2;England;Yorkshire;Owton Manor;;W1.24;N54.65;10;
2;England;Yorkshire;Oxenhope;;W1.95;N53.81;10;
2;England;Yorkshire;Oxnop Beck;;W2.10;N54.37;10;
2;England;Yorkshire;Oxspring;;W1.60;N53.51;10;
2;England;Yorkshire;Oxton;;W1.24;N53.88;10;
2;England;Yorkshire;Paddock;;W1.81;N53.64;10;
2;England;Yorkshire;Padside;;W1.75;N54.02;10;
2;England;Yorkshire;Padside Green;;W1.75;N54.02;10;
2;England;Yorkshire;Painsthorpe;;W0.76;N54.01;10;
2;England;Yorkshire;Painthorpe;;W1.53;N53.63;10;
2;England;Yorkshire;Pallister;;W1.21;N54.56;10;
2;England;Yorkshire;Pannal;;W1.54;N53.95;10;
2;England;Yorkshire;Pannal Ash;;W1.55;N53.96;10;
2;England;Yorkshire;Park End;;W1.19;N54.54;10;
2;England;Yorkshire;Park Gate;;W1.65;N53.59;10;
2;England;Yorkshire;Park Head;;W1.71;N53.56;10;
2;England;Yorkshire;Park Hill;;W1.46;N53.37;10;
2;England;Yorkshire;Park Mill;;W1.62;N53.59;10;
2;England;Yorkshire;Park Villas;;W1.51;N53.83;10;
2;England;Yorkshire;Parkgate;;W1.35;N53.45;10;
2;England;Yorkshire;Parkhead;;W1.52;N53.34;10;
2;England;Yorkshire;Parklands;;W1.46;N53.81;10;
2;England;Yorkshire;Parkwood Springs;;W1.49;N53.39;10;
2;England;Yorkshire;Parlington;;W1.36;N53.81;10;
2;England;Yorkshire;Parson Cross;;W1.47;N53.42;10;
2;England;Yorkshire;Pateley Bridge;;W1.77;N54.08;10;
2;England;Yorkshire;Path Head;;W1.73;N54.96;10;
2;England;Yorkshire;Patrick Brompton;;W1.66;N54.30;10;
2;England;Yorkshire;Patrington;;W0.01;N53.67;10;
2;England;Yorkshire;Patrington Haven;;W0.03;N53.66;10;
2;England;Yorkshire;Paull;;W0.24;N53.71;10;
2;England;Yorkshire;Peas Acre;;W1.84;N53.86;10;
2;England;Yorkshire;Pecket Well;;W2.01;N53.75;10;
2;England;Yorkshire;Pedmore;;W2.13;N52.43;10;
2;England;Yorkshire;Pelaw;;W1.56;N54.95;10;
2;England;Yorkshire;Pellon;;W1.89;N53.72;10;
2;England;Yorkshire;Pendas Fields;;W1.43;N53.81;10;
2;England;Yorkshire;Penistone;;W1.63;N53.52;10;
2;England;Yorkshire;Penny Hill;;W1.91;N53.65;10;
2;England;Yorkshire;Pensnett;;W2.13;N52.49;10;
2;England;Yorkshire;Pepper Hill;;W1.83;N53.74;10;
2;England;Yorkshire;Piccadilly;;W1.32;N53.47;10;
2;England;Yorkshire;Pickburn;;W1.23;N53.55;10;
2;England;Yorkshire;Pickering;;W0.78;N54.24;10;
2;England;Yorkshire;Pickering Beck;;W0.72;N54.33;10;
2;England;Yorkshire;Pickhill;;W1.47;N54.24;10;
2;England;Yorkshire;Pickles Hill;;W1.97;N53.83;10;
2;England;Yorkshire;Pickwood Scar;;W1.89;N53.69;10;
2;England;Yorkshire;Picton;;W1.36;N54.45;10;
2;England;Yorkshire;Piercebridge;;W1.69;N54.53;10;
2;England;Yorkshire;Pike End;;W1.97;N53.64;10;
2;England;Yorkshire;Pike Law;;W1.94;N53.64;10;
2;England;Yorkshire;Pilley;;W1.50;N53.49;10;
2;England;Yorkshire;Pincheon Green;;W1.01;N53.64;10;
2;England;Yorkshire;Pinfold Hill;;W1.56;N53.51;10;
2;England;Yorkshire;Pismire Hill;;W1.44;N53.41;10;
2;England;Yorkshire;Pitses;;W2.09;N53.52;10;
2;England;Yorkshire;Pitsmoor;;W1.46;N53.39;10;
2;England;Yorkshire;Platts Common;;W1.45;N53.50;10;
2;England;Yorkshire;Pledwick;;W1.50;N53.63;10;
2;England;Yorkshire;Pobgreen;;W1.98;N53.55;10;
2;England;Yorkshire;Pockley;;W1.03;N54.25;10;
2;England;Yorkshire;Pocklington;;W0.78;N53.93;10;
2;England;Yorkshire;Pocklington Canal;;W0.82;N53.88;10;
2;England;Yorkshire;Pogmoor;;W1.51;N53.55;10;
2;England;Yorkshire;Pole Moor;;W1.91;N53.63;10;
2;England;Yorkshire;Pollington;;W1.07;N53.66;10;
2;England;Yorkshire;Pontefract;;W1.32;N53.68;10;
2;England;Yorkshire;Pool;;W1.63;N53.90;10;
2;England;Yorkshire;Poole;;W1.25;N53.73;10;
2;England;Yorkshire;Port Clarence;;W1.24;N54.58;10;
2;England;Yorkshire;Port Mulgrave;;W0.78;N54.54;10;
2;England;Yorkshire;Portobello;;W1.56;N54.88;10;
2;England;Yorkshire;Portobello;;W1.50;N53.65;10;
2;England;Yorkshire;Potter Brompton;;W0.51;N54.18;10;
2;England;Yorkshire;Potter Hill;;W1.50;N53.46;10;
2;England;Yorkshire;Potternewton;;W1.54;N53.81;10;
2;England;Yorkshire;Potterton;;W1.39;N53.83;10;
2;England;Yorkshire;Pottery Field;;W1.54;N53.78;10;
2;England;Yorkshire;Potto;;W1.27;N54.42;10;
2;England;Yorkshire;Preston;;W0.21;N53.75;10;
2;England;Yorkshire;Preston-under-Scar;;W1.89;N54.31;10;
2;England;Yorkshire;Priesthorpe;;W1.69;N53.81;10;
2;England;Yorkshire;Priestley Green;;W1.80;N53.73;10;
2;England;Yorkshire;Priestthorpe;;W1.83;N53.84;10;
2;England;Yorkshire;Primrose Hill;;W2.08;N52.48;10;
2;England;Yorkshire;Primrose Valley;;W0.30;N54.18;10;
2;England;Yorkshire;Prince Royd;;W1.81;N53.65;10;
2;England;Yorkshire;Pudsey;;W2.15;N53.73;10;
2;England;Yorkshire;Pudsey;;W1.66;N53.79;10;
2;England;Yorkshire;Pule Hill;;W1.86;N53.73;10;
2;England;Yorkshire;Purston Jaglin;;W1.35;N53.66;10;
2;England;Yorkshire;Quarmby;;W1.83;N53.64;10;
2;England;Yorkshire;Quarry Bank;;W2.10;N52.47;10;
2;England;Yorkshire;Queensbury;;W1.86;N53.76;10;
2;England;Yorkshire;Quick Edge;;W2.06;N53.52;10;
2;England;Yorkshire;Quinton;;W2.03;N52.45;10;
2;England;Yorkshire;Raggalds;;W1.88;N53.77;10;
2;England;Yorkshire;Rails;;W1.56;N53.37;10;
2;England;Yorkshire;Rainton;;W1.43;N54.16;10;
2;England;Yorkshire;Rake Beck;;W1.89;N54.44;10;
2;England;Yorkshire;Ramsden Wood;;W2.12;N53.68;10;
2;England;Yorkshire;Ramsgill;;W1.83;N54.13;10;
2;England;Yorkshire;Ranmoor;;W1.53;N53.37;10;
2;England;Yorkshire;Rascal Moor;;W0.75;N53.81;10;
2;England;Yorkshire;Raskelf;;W1.25;N54.13;10;
2;England;Yorkshire;Rastrick;;W1.80;N53.68;10;
2;England;Yorkshire;Rathmell;;W2.30;N54.02;10;
2;England;Yorkshire;Ravenfield;;W1.27;N53.44;10;
2;England;Yorkshire;Ravenscar;;W0.49;N54.39;10;
2;England;Yorkshire;Ravenscliffe;;W1.71;N53.81;10;
2;England;Yorkshire;Ravenseat;;W2.21;N54.42;10;
2;England;Yorkshire;Ravensthorpe;;W1.66;N53.67;10;
2;England;Yorkshire;Ravensworth;;W1.78;N54.45;10;
2;England;Yorkshire;Raw;;W0.56;N54.43;10;
2;England;Yorkshire;Raw Green;;W1.59;N53.55;10;
2;England;Yorkshire;Rawcliffe;;W0.97;N53.69;10;
2;England;Yorkshire;Rawcliffe;;W1.11;N53.98;10;
2;England;Yorkshire;Rawcliffe Bridge;;W0.94;N53.68;10;
2;England;Yorkshire;Rawdon;;W1.68;N53.84;10;
2;England;Yorkshire;Rawdon Carrs;;W1.68;N53.83;10;
2;England;Yorkshire;Rawfolds;;W1.71;N53.71;10;
2;England;Yorkshire;Rawmarsh;;W1.35;N53.45;10;
2;England;Yorkshire;Rawthorpe;;W1.75;N53.64;10;
2;England;Yorkshire;Raygill;;W2.09;N53.90;10;
2;England;Yorkshire;Red Beck;;W1.81;N53.71;10;
2;England;Yorkshire;Red Hill;;W1.33;N53.71;10;
2;England;Yorkshire;Redcar;;W1.05;N54.60;10;
2;England;Yorkshire;Redmire;;W1.94;N54.31;10;
2;England;Yorkshire;Reedness;;W0.80;N53.69;10;
2;England;Yorkshire;Reeth;;W1.95;N54.38;10;
2;England;Yorkshire;Reighton;;W0.27;N54.15;10;
2;England;Yorkshire;Ribble;;W2.27;N54.07;10;
2;England;Yorkshire;Ribble Head;;W2.35;N54.20;10;
2;England;Yorkshire;Riccal;;W0.95;N54.20;10;
2;England;Yorkshire;Riccall;;W1.05;N53.82;10;
2;England;Yorkshire;Richmond;;W1.73;N54.40;10;
2;England;Yorkshire;Richmond;;W1.40;N53.36;10;
2;England;Yorkshire;Richmond Hill;;W1.53;N53.79;10;
2;England;Yorkshire;Riddlesden;;W1.89;N53.87;10;
2;England;Yorkshire;Rievaulx;;W1.12;N54.25;10;
2;England;Yorkshire;Rift House;;W1.24;N54.66;10;
2;England;Yorkshire;Rillington;;W0.69;N54.15;10;
2;England;Yorkshire;Rimswell;;W0.01;N53.73;10;
2;England;Yorkshire;Rimswell Valley;;E0.00;N53.73;10;
2;England;Yorkshire;Ringinglow;;W1.58;N53.34;10;
2;England;Yorkshire;Ripley;;W1.57;N54.03;10;
2;England;Yorkshire;Riplingham;;W0.54;N53.76;10;
2;England;Yorkshire;Ripon;;W1.52;N54.13;10;
2;England;Yorkshire;Ripon Canal;;W1.49;N54.11;10;
2;England;Yorkshire;Ripponden;;W1.95;N53.66;10;
2;England;Yorkshire;Risby;;W0.48;N53.79;10;
2;England;Yorkshire;Rise;;W0.25;N53.86;10;
2;England;Yorkshire;Rishworth;;W1.95;N53.65;10;
2;England;Yorkshire;Risplith;;W1.63;N54.10;10;
2;England;Yorkshire;Rivelin;;W1.57;N53.37;10;
2;England;Yorkshire;River Crimple (Crimple Beck);;W1.46;N53.97;10;
2;England;Yorkshire;River Dun Navigation;;W1.07;N53.57;10;
2;England;Yorkshire;Roberttown;;W1.71;N53.69;10;
2;England;Yorkshire;Robin Hood;;W1.51;N53.73;10;
2;England;Yorkshire;Robin Hood's Bay;;W0.53;N54.43;10;
2;England;Yorkshire;Rochdale Canal;;W2.09;N53.71;10;
2;England;Yorkshire;Rochdale Canal;;W2.16;N53.52;10;
2;England;Yorkshire;Rodley;;W1.66;N53.82;10;
2;England;Yorkshire;Rodmer Clough;;W2.07;N53.75;10;
2;England;Yorkshire;Roebuck Low;;W2.06;N53.56;10;
2;England;Yorkshire;Roecliffe;;W1.43;N54.08;10;
2;England;Yorkshire;Rollestone;;W1.46;N53.35;10;
2;England;Yorkshire;Rolston;;W0.16;N53.88;10;
2;England;Yorkshire;Romanby;;W1.44;N54.33;10;
2;England;Yorkshire;Rookwith;;W1.69;N54.26;10;
2;England;Yorkshire;Roos;;W0.04;N53.75;10;
2;England;Yorkshire;Roos Drain;;W0.06;N53.73;10;
2;England;Yorkshire;Rosedale Abbey;;W0.89;N54.34;10;
2;England;Yorkshire;Roseville;;W2.10;N52.53;10;
2;England;Yorkshire;Rossett Green;;W1.54;N53.96;10;
2;England;Yorkshire;Rossington;;W1.06;N53.47;10;
2;England;Yorkshire;Rostholme;;W1.15;N53.54;10;
2;England;Yorkshire;Rother;;W1.34;N53.36;10;
2;England;Yorkshire;Rothwell;;W1.48;N53.74;10;
2;England;Yorkshire;Rothwell Haigh;;W1.48;N53.74;10;
2;England;Yorkshire;Rotsea;;W0.38;N53.94;10;
2;England;Yorkshire;Roughbirchworth;;W1.60;N53.50;10;
2;England;Yorkshire;Round Oak;;W2.11;N52.48;10;
2;England;Yorkshire;Roundhay;;W1.50;N53.82;10;
2;England;Yorkshire;Roundhill Reservoir;;W1.77;N54.18;10;
2;England;Yorkshire;Routh;;W0.34;N53.86;10;
2;England;Yorkshire;Rowden;;W1.61;N54.00;10;
2;England;Yorkshire;Rowley Hill;;W1.71;N53.62;10;
2;England;Yorkshire;Roxby;;W0.82;N54.53;10;
2;England;Yorkshire;Royal Oak;;W0.31;N54.18;10;
2;England;Yorkshire;Royd;;W1.68;N53.52;10;
2;England;Yorkshire;Royd Moor;;W1.66;N53.53;10;
2;England;Yorkshire;Royd Moor;;W1.33;N53.61;10;
2;England;Yorkshire;Roydhouse;;W1.68;N53.60;10;
2;England;Yorkshire;Royds Green;;W1.47;N53.72;10;
2;England;Yorkshire;Royston;;W1.47;N53.59;10;
2;England;Yorkshire;Royton;;W2.13;N53.55;10;
2;England;Yorkshire;Rudby;;W1.27;N54.44;10;
2;England;Yorkshire;Rudston;;W0.33;N54.08;10;
2;England;Yorkshire;Rufforth;;W1.20;N53.95;10;
2;England;Yorkshire;Ruiton;;W2.13;N52.52;10;
2;England;Yorkshire;Running Hill Head;;W1.98;N53.55;10;
2;England;Yorkshire;Runswick Bay;;W0.76;N54.53;10;
2;England;Yorkshire;Rushton;;W0.54;N54.23;10;
2;England;Yorkshire;Russell's Hall;;W2.11;N52.49;10;
2;England;Yorkshire;Ruston Parva;;W0.38;N54.03;10;
2;England;Yorkshire;Ruswarp;;W0.64;N54.46;10;
2;England;Yorkshire;Ryburn;;W1.93;N53.68;10;
2;England;Yorkshire;Rye;;W0.91;N54.20;10;
2;England;Yorkshire;Ryecroft;;W1.89;N53.83;10;
2;England;Yorkshire;Ryecroft;;W1.33;N53.45;10;
2;England;Yorkshire;Ryehill;;W0.15;N53.70;10;
2;England;Yorkshire;Ryhill;;W1.42;N53.62;10;
2;England;Yorkshire;Rylstone;;W2.06;N54.01;10;
2;England;Yorkshire;Ryther;;W1.16;N53.84;10;
2;England;Yorkshire;Ryton;;W1.76;N54.97;10;
2;England;Yorkshire;Ryton;;W0.79;N54.16;10;
2;England;Yorkshire;Ryton Woodside;;W1.78;N54.95;10;
2;England;Yorkshire;Salendine Nook;;W1.85;N53.64;10;
2;England;Yorkshire;Salt End;;W0.24;N53.73;10;
2;England;Yorkshire;Saltaire;;W1.80;N53.82;10;
2;England;Yorkshire;Saltburn-by-the-Sea;;W0.98;N54.58;10;
2;England;Yorkshire;Saltmarshe;;W0.81;N53.70;10;
2;England;Yorkshire;Salton;;W0.91;N54.21;10;
2;England;Yorkshire;Saltwell;;W1.61;N54.94;10;
2;England;Yorkshire;Sancton;;W0.63;N53.83;10;
2;England;Yorkshire;Sand Hole;;W0.77;N53.82;10;
2;England;Yorkshire;Sand Hutton;;W0.94;N54.01;10;
2;England;Yorkshire;Sandal;;W1.50;N53.65;10;
2;England;Yorkshire;Sandal Magna;;W1.48;N53.65;10;
2;England;Yorkshire;Sandford;;W1.62;N53.81;10;
2;England;Yorkshire;Sandhill;;W1.35;N53.54;10;
2;England;Yorkshire;Sandhills;;W1.43;N53.84;10;
2;England;Yorkshire;Sandholme;;W0.75;N53.76;10;
2;England;Yorkshire;Sandhutton;;W1.41;N54.23;10;
2;England;Yorkshire;Sandsend;;W0.67;N54.49;10;
2;England;Yorkshire;Sandy Lane;;W1.84;N53.81;10;
2;England;Yorkshire;Sandygate;;W1.53;N53.37;10;
2;England;Yorkshire;Satron;;W2.10;N54.36;10;
2;England;Yorkshire;Savile Park;;W1.88;N53.70;10;
2;England;Yorkshire;Savile Town;;W1.63;N53.67;10;
2;England;Yorkshire;Sawdon;;W0.55;N54.24;10;
2;England;Yorkshire;Sawley;;W1.63;N54.09;10;
2;England;Yorkshire;Sawood;;W1.94;N53.80;10;
2;England;Yorkshire;Saxton;;W1.28;N53.81;10;
2;England;Yorkshire;Scackleton;;W1.02;N54.14;10;
2;England;Yorkshire;Scagglethorpe;;W0.73;N54.13;10;
2;England;Yorkshire;Scalby;;W0.74;N53.75;10;
2;England;Yorkshire;Scalby;;W0.44;N54.29;10;
2;England;Yorkshire;Scaling;;W0.85;N54.50;10;
2;England;Yorkshire;Scamland;;W0.84;N53.87;10;
2;England;Yorkshire;Scampston;;W0.68;N54.16;10;
2;England;Yorkshire;Scapegoat Hill;;W1.88;N53.64;10;
2;England;Yorkshire;Scar House Reservoir;;W1.90;N54.19;10;
2;England;Yorkshire;Scarborough;;W0.41;N54.27;10;
2;England;Yorkshire;Scarcroft;;W1.46;N53.86;10;
2;England;Yorkshire;Scarthingwell;;W1.25;N53.82;10;
2;England;Yorkshire;Scawsby;;W1.18;N53.53;10;
2;England;Yorkshire;Scawthorpe;;W1.17;N53.53;10;
2;England;Yorkshire;Scawton;;W1.17;N54.24;10;
2;England;Yorkshire;Scholemoor;;W1.80;N53.78;10;
2;England;Yorkshire;Scholes;;W1.98;N53.82;10;
2;England;Yorkshire;Scholes;;W1.75;N53.72;10;
2;England;Yorkshire;Scholes;;W1.75;N53.55;10;
2;England;Yorkshire;Scholes;;W1.43;N53.82;10;
2;England;Yorkshire;Scholes;;W1.41;N53.45;10;
2;England;Yorkshire;Scholey Hill;;W1.44;N53.72;10;
2;England;Yorkshire;School Green;;W1.83;N53.79;10;
2;England;Yorkshire;Scissett;;W1.63;N53.58;10;
2;England;Yorkshire;Scorborough;;W0.46;N53.89;10;
2;England;Yorkshire;Scorborough Beck;;W0.44;N53.89;10;
2;England;Yorkshire;Scorton;;W1.61;N54.39;10;
2;England;Yorkshire;Scotgate;;W1.82;N53.59;10;
2;England;Yorkshire;Scotton;;W1.51;N54.02;10;
2;England;Yorkshire;Scotton;;W1.72;N54.35;10;
2;England;Yorkshire;Scout Dike;;W1.65;N53.53;10;
2;England;Yorkshire;Scouthead;;W2.06;N53.54;10;
2;England;Yorkshire;Scrayingham;;W0.88;N54.03;10;
2;England;Yorkshire;Scriven;;W1.48;N54.01;10;
2;England;Yorkshire;Scruton;;W1.54;N54.32;10;
2;England;Yorkshire;Sculcoates;;W0.34;N53.75;10;
2;England;Yorkshire;Sea Cut;;W0.44;N54.29;10;
2;England;Yorkshire;Seacroft;;W1.46;N53.81;10;
2;England;Yorkshire;Seamer;;W0.45;N54.23;10;
2;England;Yorkshire;Seamer;;W1.24;N54.48;10;
2;England;Yorkshire;Seaton;;W0.23;N53.89;10;
2;England;Yorkshire;Seaton Carew;;W1.19;N54.65;10;
2;England;Yorkshire;Seaton Ross;;W0.81;N53.85;10;
2;England;Yorkshire;Seave Green;;W1.13;N54.39;10;
2;England;Yorkshire;Sedbusk;;W2.18;N54.31;10;
2;England;Yorkshire;Sedgley;;W2.13;N52.54;10;
2;England;Yorkshire;Selby;;W1.07;N53.78;10;
2;England;Yorkshire;Selby Dam;;W1.07;N53.78;10;
2;England;Yorkshire;Selly Hill;;W0.67;N54.46;10;
2;England;Yorkshire;Selside;;W2.33;N54.17;10;
2;England;Yorkshire;Seph;;W1.12;N54.32;10;
2;England;Yorkshire;Sessay;;W1.31;N54.16;10;
2;England;Yorkshire;Settle;;W2.29;N54.06;10;
2;England;Yorkshire;Settrington;;W0.73;N54.11;10;
2;England;Yorkshire;Settrington Beck;;W0.74;N54.15;10;
2;England;Yorkshire;Seven;;W0.86;N54.33;10;
2;England;Yorkshire;Sewerby;;W0.18;N54.09;10;
2;England;Yorkshire;Sexhow;;W1.27;N54.44;10;
2;England;Yorkshire;Shackleton;;W2.03;N53.75;10;
2;England;Yorkshire;Shade;;W2.10;N53.70;10;
2;England;Yorkshire;Shadwell;;W1.48;N53.84;10;
2;England;Yorkshire;Shafton;;W1.41;N53.59;10;
2;England;Yorkshire;Shafton Two Gates;;W1.41;N53.58;10;
2;England;Yorkshire;Sharlston;;W1.41;N53.65;10;
2;England;Yorkshire;Sharlston Common;;W1.42;N53.66;10;
2;England;Yorkshire;Sharow;;W1.51;N54.13;10;
2;England;Yorkshire;Sharrow;;W1.49;N53.36;10;
2;England;Yorkshire;Shaw;;W1.97;N53.81;10;
2;England;Yorkshire;Shaw Green;;W1.60;N53.96;10;
2;England;Yorkshire;Shaw Lands;;W1.50;N53.55;10;
2;England;Yorkshire;Shaw Mills;;W1.61;N54.05;10;
2;England;Yorkshire;Shaw Side;;W2.10;N53.56;10;
2;England;Yorkshire;Shawfield Head;;W1.62;N53.95;10;
2;England;Yorkshire;Shay Gate;;W1.84;N53.81;10;
2;England;Yorkshire;Sheepridge;;W1.77;N53.66;10;
2;England;Yorkshire;Sheepscar;;W1.53;N53.80;10;
2;England;Yorkshire;Sheffield;;W1.47;N53.37;10;
2;England;Yorkshire;Sheffield Park;;W1.46;N53.37;10;
2;England;Yorkshire;Shelf;;W1.81;N53.74;10;
2;England;Yorkshire;Shelley;;W1.69;N53.59;10;
2;England;Yorkshire;Shelley Woodhouse;;W1.68;N53.58;10;
2;England;Yorkshire;Shepherd Hill;;W1.57;N53.67;10;
2;England;Yorkshire;Shepley;;W1.71;N53.57;10;
2;England;Yorkshire;Sherburn;;W0.54;N54.18;10;
2;England;Yorkshire;Sherburn-in-Elmet;;W1.25;N53.79;10;
2;England;Yorkshire;Sheriff Hill;;W1.59;N54.93;10;
2;England;Yorkshire;Sheriff Hutton;;W1.00;N54.08;10;
2;England;Yorkshire;Shibden Head;;W1.86;N53.75;10;
2;England;Yorkshire;Shipley;;W1.78;N53.82;10;
2;England;Yorkshire;Shipton;;W1.16;N54.01;10;
2;England;Yorkshire;Shiptonthorpe;;W0.70;N53.87;10;
2;England;Yorkshire;Shirecliffe;;W1.48;N53.40;10;
2;England;Yorkshire;Shiregreen;;W1.45;N53.42;10;
2;England;Yorkshire;Sholver;;W2.07;N53.56;10;
2;England;Yorkshire;Shore;;W2.13;N53.73;10;
2;England;Yorkshire;Short Cross;;W2.06;N52.45;10;
2;England;Yorkshire;Sicklinghall;;W1.45;N53.92;10;
2;England;Yorkshire;Siddal;;W1.84;N53.70;10;
2;England;Yorkshire;Sigglesthorne;;W0.25;N53.88;10;
2;England;Yorkshire;Silkstone;;W1.57;N53.54;10;
2;England;Yorkshire;Silkstone Common;;W1.56;N53.53;10;
2;England;Yorkshire;Silpho;;W0.52;N54.31;10;
2;England;Yorkshire;Silsden;;W1.94;N53.91;10;
2;England;Yorkshire;Silver End;;W2.13;N52.47;10;
2;England;Yorkshire;Sim Hill;;W1.56;N53.50;10;
2;England;Yorkshire;Simonstone;;W2.20;N54.31;10;
2;England;Yorkshire;Simpson Green;;W1.72;N53.83;10;
2;England;Yorkshire;Sinderby;;W1.47;N54.22;10;
2;England;Yorkshire;Sinnington;;W0.86;N54.25;10;
2;England;Yorkshire;Skeeby;;W1.70;N54.41;10;
2;England;Yorkshire;Skeffling;;E0.07;N53.64;10;
2;England;Yorkshire;Skelbrooke;;W1.24;N53.60;10;
2;England;Yorkshire;Skell;;W1.53;N54.13;10;
2;England;Yorkshire;Skellow;;W1.20;N53.58;10;
2;England;Yorkshire;Skelmanthorpe;;W1.65;N53.58;10;
2;England;Yorkshire;Skelton;;W0.84;N53.71;10;
2;England;Yorkshire;Skelton;;W1.13;N53.99;10;
2;England;Yorkshire;Skelton on Ure;;W1.45;N54.10;10;
2;England;Yorkshire;Skelton-in-Cleveland;;W0.99;N54.55;10;
2;England;Yorkshire;Skerne;;W0.41;N53.98;10;
2;England;Yorkshire;Skewsby;;W1.05;N54.13;10;
2;England;Yorkshire;Skidby;;W0.46;N53.78;10;
2;England;Yorkshire;Skinningrove;;W0.90;N54.56;10;
2;England;Yorkshire;Skipsea;;W0.23;N53.97;10;
2;England;Yorkshire;Skipsea Brough;;W0.23;N53.96;10;
2;England;Yorkshire;Skipton;;W2.03;N53.95;10;
2;England;Yorkshire;Skipton-on-Swale;;W1.44;N54.20;10;
2;England;Yorkshire;Skipwith;;W0.99;N53.83;10;
2;England;Yorkshire;Skirethorns;;W2.03;N54.07;10;
2;England;Yorkshire;Skirlaugh;;W0.26;N53.83;10;
2;England;Yorkshire;Skirpenbeck;;W0.87;N54.00;10;
2;England;Yorkshire;Skyreholme;;W1.90;N54.03;10;
2;England;Yorkshire;Slack;;W2.04;N53.74;10;
2;England;Yorkshire;Slack;;W1.88;N53.64;10;
2;England;Yorkshire;Slackcote;;W2.04;N53.57;10;
2;England;Yorkshire;Slade Hooton;;W1.21;N53.39;10;
2;England;Yorkshire;Slaithwaite;;W1.88;N53.61;10;
2;England;Yorkshire;Slapewath;;W1.01;N54.52;10;
2;England;Yorkshire;Slay Pits;;W0.98;N53.57;10;
2;England;Yorkshire;Sledmere;;W0.58;N54.06;10;
2;England;Yorkshire;Sleights;;W0.67;N54.45;10;
2;England;Yorkshire;Slingsby;;W0.94;N54.16;10;
2;England;Yorkshire;Slippery Ford;;W2.00;N53.85;10;
2;England;Yorkshire;Smelthouses;;W1.71;N54.07;10;
2;England;Yorkshire;Smithies;;W1.47;N53.56;10;
2;England;Yorkshire;Smithley;;W1.42;N53.52;10;
2;England;Yorkshire;Snainton;;W0.59;N54.22;10;
2;England;Yorkshire;Snaith;;W1.03;N53.69;10;
2;England;Yorkshire;Snape;;W1.60;N54.25;10;
2;England;Yorkshire;Snape Hill;;W1.38;N53.53;10;
2;England;Yorkshire;Sneaton;;W0.62;N54.45;10;
2;England;Yorkshire;Sneatonthorpe;;W0.61;N54.44;10;
2;England;Yorkshire;Snow Hill;;W1.51;N53.69;10;
2;England;Yorkshire;Snow Lea;;W1.86;N53.64;10;
2;England;Yorkshire;Snowden Hill;;W1.60;N53.49;10;
2;England;Yorkshire;Snydale;;W1.39;N53.67;10;
2;England;Yorkshire;Sockburn;;W1.47;N54.45;10;
2;England;Yorkshire;Sothall;;W1.34;N53.33;10;
2;England;Yorkshire;Soughley;;W1.72;N53.51;10;
2;England;Yorkshire;South Anston;;W1.23;N53.34;10;
2;England;Yorkshire;South Bank;;W1.18;N54.57;10;
2;England;Yorkshire;South Bank;;W1.10;N53.94;10;
2;England;Yorkshire;South Bramwith;;W1.06;N53.59;10;
2;England;Yorkshire;South Cave;;W0.60;N53.76;10;
2;England;Yorkshire;South Cliffe;;W0.68;N53.81;10;
2;England;Yorkshire;South Crosland;;W1.83;N53.60;10;
2;England;Yorkshire;South Dalton;;W0.54;N53.89;10;
2;England;Yorkshire;South Duffield;;W0.96;N53.78;10;
2;England;Yorkshire;South Elmsall;;W1.29;N53.59;10;
2;England;Yorkshire;South End;;W0.19;N53.84;10;
2;England;Yorkshire;South Field;;W0.45;N53.71;10;
2;England;Yorkshire;South Hiendley;;W1.41;N53.60;10;
2;England;Yorkshire;South Holme;;W0.94;N54.18;10;
2;England;Yorkshire;South Kilvington;;W1.35;N54.25;10;
2;England;Yorkshire;South Kirkby;;W1.33;N53.58;10;
2;England;Yorkshire;South Lane;;W1.60;N53.55;10;
2;England;Yorkshire;South Milford;;W1.25;N53.77;10;
2;England;Yorkshire;South Newbald;;W0.61;N53.80;10;
2;England;Yorkshire;South Ossett;;W1.57;N53.66;10;
2;England;Yorkshire;South Otterington;;W1.43;N54.27;10;
2;England;Yorkshire;South Stainley;;W1.54;N54.06;10;
2;England;Yorkshire;Southburn;;W0.49;N53.97;10;
2;England;Yorkshire;Southowram;;W1.83;N53.70;10;
2;England;Yorkshire;Sowerby;;W1.94;N53.70;10;
2;England;Yorkshire;Sowerby;;W1.34;N54.22;10;
2;England;Yorkshire;Sowerby Bridge;;W1.91;N53.70;10;
2;England;Yorkshire;Sowood;;W1.89;N53.65;10;
2;England;Yorkshire;Sowood Green;;W1.89;N53.65;10;
2;England;Yorkshire;Soyland Town;;W1.95;N53.67;10;
2;England;Yorkshire;Spacey Houses;;W1.52;N53.95;10;
2;England;Yorkshire;Spaldington;;W0.84;N53.78;10;
2;England;Yorkshire;Spaunton;;W0.89;N54.29;10;
2;England;Yorkshire;Speeton;;W0.25;N54.14;10;
2;England;Yorkshire;Spen;;W1.71;N53.72;10;
2;England;Yorkshire;Spennithorne;;W1.80;N54.29;10;
2;England;Yorkshire;Spital Hill;;W1.08;N53.43;10;
2;England;Yorkshire;Spittal;;W0.84;N53.95;10;
2;England;Yorkshire;Spofforth;;W1.45;N53.95;10;
2;England;Yorkshire;Spring End;;W2.07;N54.36;10;
2;England;Yorkshire;Spring Hill;;W2.09;N53.54;10;
2;England;Yorkshire;Spring Vale;;W1.62;N53.52;10;
2;England;Yorkshire;Springhead;;W2.07;N53.53;10;
2;England;Yorkshire;Springwell;;W1.56;N54.91;10;
2;England;Yorkshire;Sproatley;;W0.19;N53.78;10;
2;England;Yorkshire;Sprotbrough;;W1.20;N53.51;10;
2;England;Yorkshire;Sproxton;;W1.06;N54.22;10;
2;England;Yorkshire;Spurn Head;;E0.11;N53.57;10;
2;England;Yorkshire;St Anthony's;;W1.56;N54.96;10;
2;England;Yorkshire;St Helen's;;W1.45;N53.56;10;
2;England;Yorkshire;St John's;;W1.34;N53.82;10;
2;England;Yorkshire;St Peter's;;W1.57;N54.96;10;
2;England;Yorkshire;Stacey Bank;;W1.58;N53.40;10;
2;England;Yorkshire;Stackhouse;;W2.29;N54.08;10;
2;England;Yorkshire;Staddlethorpe;;W0.74;N53.74;10;
2;England;Yorkshire;Stainburn;;W1.63;N53.92;10;
2;England;Yorkshire;Staincliffe;;W1.65;N53.70;10;
2;England;Yorkshire;Staincross;;W1.50;N53.58;10;
2;England;Yorkshire;Stainforth;;W1.03;N53.59;10;
2;England;Yorkshire;Stainforth;;W2.27;N54.09;10;
2;England;Yorkshire;Stainland;;W1.89;N53.66;10;
2;England;Yorkshire;Stainsacre;;W0.59;N54.45;10;
2;England;Yorkshire;Stainton;;W1.25;N54.51;10;
2;England;Yorkshire;Stainton;;W1.84;N54.35;10;
2;England;Yorkshire;Stainton;;W1.17;N53.43;10;
2;England;Yorkshire;Staintondale;;W0.47;N54.36;10;
2;England;Yorkshire;Stairfoot;;W1.44;N53.54;10;
2;England;Yorkshire;Staithes;;W0.79;N54.55;10;
2;England;Yorkshire;Stalling Busk;;W2.13;N54.26;10;
2;England;Yorkshire;Stambermill;;W2.13;N52.45;10;
2;England;Yorkshire;Stamford Bridge;;W0.91;N53.98;10;
2;England;Yorkshire;Stanbury;;W2.00;N53.82;10;
2;England;Yorkshire;Stanks;;W1.45;N53.81;10;
2;England;Yorkshire;Stanley;;W1.48;N53.71;10;
2;England;Yorkshire;Stanley Ferry;;W1.47;N53.70;10;
2;England;Yorkshire;Stanningley;;W1.66;N53.80;10;
2;England;Yorkshire;Stannington;;W1.55;N53.38;10;
2;England;Yorkshire;Stape;;W0.78;N54.32;10;
2;England;Yorkshire;Stapleton;;W1.22;N53.66;10;
2;England;Yorkshire;Stapleton;;W1.59;N54.50;10;
2;England;Yorkshire;Starbeck;;W1.51;N53.99;10;
2;England;Yorkshire;Starbotton;;W2.07;N54.16;10;
2;England;Yorkshire;Stargate;;W1.75;N54.96;10;
2;England;Yorkshire;Staupes;;W1.66;N54.00;10;
2;England;Yorkshire;Staveley;;W1.45;N54.05;10;
2;England;Yorkshire;Staxton;;W0.45;N54.19;10;
2;England;Yorkshire;Stead;;W1.78;N53.91;10;
2;England;Yorkshire;Stean;;W1.87;N54.15;10;
2;England;Yorkshire;Stearsby;;W1.06;N54.13;10;
2;England;Yorkshire;Steel Bank;;W1.50;N53.37;10;
2;England;Yorkshire;Steep Lane;;W1.97;N53.70;10;
2;England;Yorkshire;Steeton;;W1.95;N53.89;10;
2;England;Yorkshire;Stella;;W1.73;N54.96;10;
2;England;Yorkshire;Stillingfleet;;W1.10;N53.85;10;
2;England;Yorkshire;Stillington;;W1.11;N54.09;10;
2;England;Yorkshire;Stirton;;W2.04;N53.96;10;
2;England;Yorkshire;Stockbridge;;W1.89;N53.87;10;
2;England;Yorkshire;Stockbridge;;W1.14;N53.54;10;
2;England;Yorkshire;Stocksbridge;;W1.60;N53.47;10;
2;England;Yorkshire;Stockton on the Forest;;W1.01;N53.98;10;
2;England;Yorkshire;Stokesley;;W1.19;N54.46;10;
2;England;Yorkshire;Stone;;W1.17;N53.39;10;
2;England;Yorkshire;Stone Chair;;W1.83;N53.73;10;
2;England;Yorkshire;Stone Hill;;W0.98;N53.56;10;
2;England;Yorkshire;Stoneferry;;W0.33;N53.76;10;
2;England;Yorkshire;Stonegate;;W0.81;N54.47;10;
2;England;Yorkshire;Stonegrave;;W1.00;N54.18;10;
2;England;Yorkshire;Stoney Royd;;W1.86;N53.71;10;
2;England;Yorkshire;Stopes;;W1.58;N53.38;10;
2;England;Yorkshire;Storiths;;W1.87;N53.98;10;
2;England;Yorkshire;Storrs;;W1.56;N53.39;10;
2;England;Yorkshire;Storwood;;W0.92;N53.88;10;
2;England;Yorkshire;Stour;;W2.11;N52.47;10;
2;England;Yorkshire;Stour Bridge Canal;;W2.14;N52.47;10;
2;England;Yorkshire;Stourton;;W1.51;N53.76;10;
2;England;Yorkshire;Stranghow;;W0.96;N54.52;10;
2;England;Yorkshire;Strawberry Hill;;W1.36;N53.68;10;
2;England;Yorkshire;Stream Dyke;;W0.22;N53.87;10;
2;England;Yorkshire;Street;;W0.87;N54.42;10;
2;England;Yorkshire;Street Gate;;W1.67;N54.92;10;
2;England;Yorkshire;Street Houses;;W1.21;N53.89;10;
2;England;Yorkshire;Streethouse;;W1.41;N53.67;10;
2;England;Yorkshire;Streetlam;;W1.52;N54.37;10;
2;England;Yorkshire;Strensall;;W1.03;N54.03;10;
2;England;Yorkshire;Studfold;;W2.29;N54.12;10;
2;England;Yorkshire;Studley Roger;;W1.55;N54.12;10;
2;England;Yorkshire;Studley Royal;;W1.58;N54.12;10;
2;England;Yorkshire;Stutton;;W1.28;N53.86;10;
2;England;Yorkshire;Suffield;;W0.49;N54.29;10;
2;England;Yorkshire;Summerbridge;;W1.69;N54.05;10;
2;England;Yorkshire;Summergangs;;W0.31;N53.75;10;
2;England;Yorkshire;Summerscales;;W1.84;N53.98;10;
2;England;Yorkshire;Sunk Island;;W0.09;N53.64;10;
2;England;Yorkshire;Sunniside;;W1.68;N54.91;10;
2;England;Yorkshire;Sunnyfields;;W1.18;N53.53;10;
2;England;Yorkshire;Sunnyside;;W1.29;N53.43;10;
2;England;Yorkshire;Sutton;;W1.17;N53.60;10;
2;England;Yorkshire;Sutton;;W1.25;N53.71;10;
2;England;Yorkshire;Sutton Howgrave;;W1.52;N54.20;10;
2;England;Yorkshire;Sutton Ings;;W0.30;N53.76;10;
2;England;Yorkshire;Sutton Mill;;W2.00;N53.89;10;
2;England;Yorkshire;Sutton upon Derwent;;W0.93;N53.90;10;
2;England;Yorkshire;Sutton-in-Craven;;W2.00;N53.88;10;
2;England;Yorkshire;Sutton-on-Hull;;W0.31;N53.77;10;
2;England;Yorkshire;Sutton-on-the-Forest;;W1.11;N54.06;10;
2;England;Yorkshire;Sutton-under-Whitestonecliffe;;W1.26;N54.23;10;
2;England;Yorkshire;Swain House;;W1.75;N53.82;10;
2;England;Yorkshire;Swainby;;W1.27;N54.41;10;
2;England;Yorkshire;Swaithe;;W1.44;N53.53;10;
2;England;Yorkshire;Swale;;W1.86;N54.37;10;
2;England;Yorkshire;Swallownest;;W1.34;N53.36;10;
2;England;Yorkshire;Swalwell;;W1.68;N54.95;10;
2;England;Yorkshire;Swanland;;W0.50;N53.73;10;
2;England;Yorkshire;Swarcliffe;;W1.45;N53.81;10;
2;England;Yorkshire;Swartha;;W1.92;N53.91;10;
2;England;Yorkshire;Swetton;;W1.71;N54.15;10;
2;England;Yorkshire;Swillington;;W1.42;N53.76;10;
2;England;Yorkshire;Swillington Common;;W1.42;N53.78;10;
2;England;Yorkshire;Swincliffe;;W1.69;N53.73;10;
2;England;Yorkshire;Swincliffe;;W1.63;N54.01;10;
2;England;Yorkshire;Swinden;;W2.21;N53.98;10;
2;England;Yorkshire;Swine;;W0.28;N53.79;10;
2;England;Yorkshire;Swinefleet;;W0.83;N53.68;10;
2;England;Yorkshire;Swinithwaite;;W1.94;N54.29;10;
2;England;Yorkshire;Swinnow Moor;;W1.65;N53.79;10;
2;England;Yorkshire;Swinsty Reservoir;;W1.69;N53.97;10;
2;England;Yorkshire;Swinton;;W0.85;N54.14;10;
2;England;Yorkshire;Swinton;;W1.67;N54.20;10;
2;England;Yorkshire;Swinton;;W1.32;N53.47;10;
2;England;Yorkshire;Swinton Bridge;;W1.30;N53.48;10;
2;England;Yorkshire;Sykehouse;;W1.04;N53.63;10;
2;England;Yorkshire;Tadcaster;;W1.27;N53.88;10;
2;England;Yorkshire;Tame Bridge;;W1.23;N54.46;10;
2;England;Yorkshire;Tame Water;;W2.03;N53.55;10;
2;England;Yorkshire;Tancred;;W1.31;N54.01;10;
2;England;Yorkshire;Tandem;;W1.74;N53.64;10;
2;England;Yorkshire;Tang;;W1.65;N54.00;10;
2;England;Yorkshire;Tang Hall;;W1.05;N53.96;10;
2;England;Yorkshire;Tankersley;;W1.48;N53.48;10;
2;England;Yorkshire;Tansley Hill;;W2.07;N52.49;10;
2;England;Yorkshire;Tapton Hill;;W1.52;N53.37;10;
2;England;Yorkshire;Tarn;;W1.75;N53.84;10;
2;England;Yorkshire;Team Valley;;W1.62;N54.93;10;
2;England;Yorkshire;Teams;;W1.64;N54.95;10;
2;England;Yorkshire;Tees;;W1.46;N54.48;10;
2;England;Yorkshire;Teesville;;W1.16;N54.56;10;
2;England;Yorkshire;Temple Hirst;;W1.09;N53.71;10;
2;England;Yorkshire;Templeborough;;W1.39;N53.41;10;
2;England;Yorkshire;Terrington;;W0.97;N54.12;10;
2;England;Yorkshire;Thackley;;W1.74;N53.83;10;
2;England;Yorkshire;Thackley End;;W1.74;N53.83;10;
2;England;Yorkshire;The Beck;;W0.89;N53.90;10;
2;England;Yorkshire;The Beck;;W0.93;N53.87;10;
2;England;Yorkshire;The Fall;;W1.54;N53.72;10;
2;England;Yorkshire;The Grange;;W1.12;N54.35;10;
2;England;Yorkshire;The Green;;W1.63;N53.51;10;
2;England;Yorkshire;The Headland;;W1.19;N54.69;10;
2;England;Yorkshire;The Lawns;;W0.43;N53.78;10;
2;England;Yorkshire;The Parks;;W1.03;N53.57;10;
2;England;Yorkshire;The Stell;;W1.53;N54.41;10;
2;England;Yorkshire;The Straits;;W2.14;N52.52;10;
2;England;Yorkshire;The Village;;W2.16;N52.49;10;
2;England;Yorkshire;Theakston;;W1.54;N54.26;10;
2;England;Yorkshire;Thearne;;W0.37;N53.80;10;
2;England;Yorkshire;Thick Hollins;;W1.85;N53.58;10;
2;England;Yorkshire;Thimbleby;;W1.32;N54.34;10;
2;England;Yorkshire;Thirkby Beck;;W1.25;N54.30;10;
2;England;Yorkshire;Thirlby;;W1.26;N54.24;10;
2;England;Yorkshire;Thirn;;W1.67;N54.26;10;
2;England;Yorkshire;Thirsk;;W1.35;N54.23;10;
2;England;Yorkshire;Thirtleby;;W0.22;N53.78;10;
2;England;Yorkshire;Thixendale;;W0.71;N54.03;10;
2;England;Yorkshire;Tholthorpe;;W1.28;N54.08;10;
2;England;Yorkshire;Thongsbridge;;W1.77;N53.57;10;
2;England;Yorkshire;Thoralby;;W2.00;N54.27;10;
2;England;Yorkshire;Thorganby;;W0.95;N53.86;10;
2;England;Yorkshire;Thorgill;;W0.92;N54.35;10;
2;England;Yorkshire;Thorlby;;W2.06;N53.96;10;
2;England;Yorkshire;Thormanby;;W1.25;N54.15;10;
2;England;Yorkshire;Thorn Hill;;W1.36;N53.43;10;
2;England;Yorkshire;Thornborough;;W1.55;N54.20;10;
2;England;Yorkshire;Thornbury;;W1.71;N53.80;10;
2;England;Yorkshire;Thorncliff;;W1.68;N53.61;10;
2;England;Yorkshire;Thorne;;W0.97;N53.60;10;
2;England;Yorkshire;Thorner;;W1.43;N53.85;10;
2;England;Yorkshire;Thornes;;W1.51;N53.66;10;
2;England;Yorkshire;Thorngumbald;;W0.18;N53.71;10;
2;England;Yorkshire;Thornhill;;W1.62;N53.65;10;
2;England;Yorkshire;Thornhill Edge;;W1.63;N53.64;10;
2;England;Yorkshire;Thornhill Lees;;W1.63;N53.66;10;
2;England;Yorkshire;Thornhills;;W1.77;N53.70;10;
2;England;Yorkshire;Thornholme;;W0.30;N54.05;10;
2;England;Yorkshire;Thorns;;W2.18;N54.39;10;
2;England;Yorkshire;Thornseat;;W1.64;N53.42;10;
2;England;Yorkshire;Thornthwaite;;W1.74;N54.01;10;
2;England;Yorkshire;Thornton;;W1.84;N53.78;10;
2;England;Yorkshire;Thornton;;W0.86;N53.89;10;
2;England;Yorkshire;Thornton in Lonsdale;;W2.49;N54.15;10;
2;England;Yorkshire;Thornton Rust;;W2.04;N54.28;10;
2;England;Yorkshire;Thornton Steward;;W1.74;N54.27;10;
2;England;Yorkshire;Thornton Watlass;;W1.64;N54.26;10;
2;England;Yorkshire;Thornton-le-Beans;;W1.40;N54.30;10;
2;England;Yorkshire;Thornton-le-Clay;;W0.96;N54.07;10;
2;England;Yorkshire;Thornton-le-Dale;;W0.72;N54.22;10;
2;England;Yorkshire;Thornton-le-Moor;;W1.40;N54.28;10;
2;England;Yorkshire;Thornton-le-Street;;W1.37;N54.26;10;
2;England;Yorkshire;Thorp;;W2.13;N53.56;10;
2;England;Yorkshire;Thorp Arch;;W1.34;N53.89;10;
2;England;Yorkshire;Thorpe;;W0.49;N53.90;10;
2;England;Yorkshire;Thorpe;;W1.98;N54.04;10;
2;England;Yorkshire;Thorpe Audlin;;W1.29;N53.63;10;
2;England;Yorkshire;Thorpe Bassett;;W0.68;N54.14;10;
2;England;Yorkshire;Thorpe Edge;;W1.72;N53.82;10;
2;England;Yorkshire;Thorpe Hesley;;W1.44;N53.45;10;
2;England;Yorkshire;Thorpe in Balne;;W1.11;N53.58;10;
2;England;Yorkshire;Thorpe le Street;;W0.73;N53.88;10;
2;England;Yorkshire;Thorpe on The Hill;;W1.53;N53.72;10;
2;England;Yorkshire;Thorpe Salvin;;W1.22;N53.32;10;
2;England;Yorkshire;Thorpe Underwood;;W1.29;N54.02;10;
2;England;Yorkshire;Thorpe Willoughby;;W1.13;N53.77;10;
2;England;Yorkshire;Thorpe Wood;;W1.12;N53.78;10;
2;England;Yorkshire;Threapland;;W2.03;N54.03;10;
2;England;Yorkshire;Threshfield;;W2.03;N54.06;10;
2;England;Yorkshire;Thrintoft;;W1.50;N54.33;10;
2;England;Yorkshire;Throapham;;W1.20;N53.37;10;
2;England;Yorkshire;Throxenby;;W0.44;N54.28;10;
2;England;Yorkshire;Thruscross;;W1.77;N54.01;10;
2;England;Yorkshire;Thruscross Reservoir;;W1.77;N54.01;10;
2;England;Yorkshire;Thrybergh;;W1.30;N53.45;10;
2;England;Yorkshire;Thunder Bridge;;W1.72;N53.59;10;
2;England;Yorkshire;Thurcroft;;W1.26;N53.38;10;
2;England;Yorkshire;Thurgoland;;W1.57;N53.50;10;
2;England;Yorkshire;Thurlstone;;W1.65;N53.52;10;
2;England;Yorkshire;Thurnscoe;;W1.32;N53.54;10;
2;England;Yorkshire;Thurnscoe East;;W1.30;N53.54;10;
2;England;Yorkshire;Thurston Clough;;W2.04;N53.56;10;
2;England;Yorkshire;Thurstonland;;W1.75;N53.58;10;
2;England;Yorkshire;Thwaite;;W2.17;N54.37;10;
2;England;Yorkshire;Thwaites;;W1.89;N53.86;10;
2;England;Yorkshire;Thwaites Brow;;W1.89;N53.85;10;
2;England;Yorkshire;Thwing;;W0.39;N54.11;10;
2;England;Yorkshire;Tibthorpe;;W0.53;N53.98;10;
2;England;Yorkshire;Tickhill;;W1.11;N53.43;10;
2;England;Yorkshire;Tickton;;W0.38;N53.85;10;
2;England;Yorkshire;Tilts;;W1.14;N53.57;10;
2;England;Yorkshire;Timble;;W1.74;N53.96;10;
2;England;Yorkshire;Tingley;;W1.57;N53.73;10;
2;England;Yorkshire;Tinshill;;W1.62;N53.84;10;
2;England;Yorkshire;Tinsley;;W1.39;N53.40;10;
2;England;Yorkshire;Tinsley;;W1.41;N53.40;10;
2;England;Yorkshire;Tivy Dale;;W1.59;N53.55;10;
2;England;Yorkshire;Tockwith;;W1.30;N53.96;10;
2;England;Yorkshire;Todmorden;;W2.09;N53.71;10;
2;England;Yorkshire;Todwick;;W1.26;N53.35;10;
2;England;Yorkshire;Toftshaw;;W1.72;N53.75;10;
2;England;Yorkshire;Toll Bar;;W1.15;N53.55;10;
2;England;Yorkshire;Tollerton;;W1.22;N54.06;10;
2;England;Yorkshire;Tollesby;;W1.21;N54.52;10;
2;England;Yorkshire;Tong;;W1.66;N53.76;10;
2;England;Yorkshire;Tong Park;;W1.75;N53.84;10;
2;England;Yorkshire;Tong Street;;W1.71;N53.76;10;
2;England;Yorkshire;Toothill;;W1.78;N53.68;10;
2;England;Yorkshire;Top o' th' Meadows;;W2.06;N53.55;10;
2;England;Yorkshire;Topcliffe;;W1.59;N53.73;10;
2;England;Yorkshire;Topcliffe;;W1.38;N54.17;10;
2;England;Yorkshire;Topham;;W1.06;N53.64;10;
2;England;Yorkshire;Torne;;W0.97;N53.52;10;
2;England;Yorkshire;Totley;;W1.55;N53.30;10;
2;England;Yorkshire;Totley Brook;;W1.53;N53.31;10;
2;England;Yorkshire;Totley Rise;;W1.52;N53.31;10;
2;England;Yorkshire;Totties;;W1.77;N53.56;10;
2;England;Yorkshire;Toulston;;W1.31;N53.89;10;
2;England;Yorkshire;Town End;;W1.86;N53.63;10;
2;England;Yorkshire;Town End;;W0.93;N53.96;10;
2;England;Yorkshire;Town Head;;W1.94;N53.91;10;
2;England;Yorkshire;Town Head;;W2.27;N54.01;10;
2;England;Yorkshire;Town Head;;W2.35;N54.10;10;
2;England;Yorkshire;Townhead;;W1.76;N53.51;10;
2;England;Yorkshire;Townhead;;W1.55;N53.32;10;
2;England;Yorkshire;Towthorpe;;W0.62;N54.04;10;
2;England;Yorkshire;Towthorpe;;W1.03;N54.01;10;
2;England;Yorkshire;Towton;;W1.27;N53.84;10;
2;England;Yorkshire;Treeton;;W1.35;N53.37;10;
2;England;Yorkshire;Triangle;;W1.94;N53.69;10;
2;England;Yorkshire;Troutsdale Beck;;W0.56;N54.29;10;
2;England;Yorkshire;Troydale;;W1.65;N53.78;10;
2;England;Yorkshire;Trumfleet;;W1.09;N53.59;10;
2;England;Yorkshire;Tunstall;;W0.02;N53.75;10;
2;England;Yorkshire;Tunstall;;W1.67;N54.35;10;
2;England;Yorkshire;Tunstead;;W2.00;N53.53;10;
2;England;Yorkshire;Turnerwood;;W1.19;N53.32;10;
2;England;Yorkshire;Tyersal;;W1.71;N53.78;10;
2;England;Yorkshire;Tyne;;W1.74;N54.97;10;
2;England;Yorkshire;Uckerby;;W1.63;N54.41;10;
2;England;Yorkshire;Ugglebarnby;;W0.64;N54.45;10;
2;England;Yorkshire;Ughill;;W1.62;N53.40;10;
2;England;Yorkshire;Ugthorpe;;W0.78;N54.48;10;
2;England;Yorkshire;Ulleskelf;;W1.22;N53.84;10;
2;England;Yorkshire;Ulley;;W1.30;N53.37;10;
2;England;Yorkshire;Ulrome;;W0.23;N53.98;10;
2;England;Yorkshire;Ulshaw;;W1.78;N54.27;10;
2;England;Yorkshire;Under Bank;;W1.79;N53.55;10;
2;England;Yorkshire;Under Tofts;;W1.55;N53.37;10;
2;England;Yorkshire;Undercliffe;;W1.74;N53.80;10;
2;England;Yorkshire;Upleatham;;W1.02;N54.56;10;
2;England;Yorkshire;Upper Armley;;W1.60;N53.80;10;
2;England;Yorkshire;Upper Batley;;W1.63;N53.72;10;
2;England;Yorkshire;Upper Brockholes;;W1.91;N53.75;10;
2;England;Yorkshire;Upper Cudworth;;W1.42;N53.57;10;
2;England;Yorkshire;Upper Cumberworth;;W1.68;N53.56;10;
2;England;Yorkshire;Upper Denby;;W1.66;N53.55;10;
2;England;Yorkshire;Upper Denby;;W1.65;N53.64;10;
2;England;Yorkshire;Upper Dunsforth;;W1.32;N54.06;10;
2;England;Yorkshire;Upper Gornal;;W2.11;N52.52;10;
2;England;Yorkshire;Upper Green;;W1.59;N53.72;10;
2;England;Yorkshire;Upper Haugh;;W1.36;N53.46;10;
2;England;Yorkshire;Upper Heaton;;W1.72;N53.66;10;
2;England;Yorkshire;Upper Helmsley;;W0.94;N53.99;10;
2;England;Yorkshire;Upper Hopton;;W1.71;N53.65;10;
2;England;Yorkshire;Upper Hoyland;;W1.47;N53.50;10;
2;England;Yorkshire;Upper Marsh;;W1.97;N53.82;10;
2;England;Yorkshire;Upper Midhope;;W1.68;N53.48;10;
2;England;Yorkshire;Upper Moor Side;;W1.63;N53.76;10;
2;England;Yorkshire;Upper Poppleton;;W1.16;N53.97;10;
2;England;Yorkshire;Upper Tankersley;;W1.48;N53.48;10;
2;England;Yorkshire;Upper Town;;W1.97;N53.80;10;
2;England;Yorkshire;Upper Whiston;;W1.32;N53.39;10;
2;England;Yorkshire;Uppermill;;W2.01;N53.54;10;
2;England;Yorkshire;Upperthong;;W1.80;N53.56;10;
2;England;Yorkshire;Upsall;;W1.31;N54.27;10;
2;England;Yorkshire;Upton;;W0.26;N53.96;10;
2;England;Yorkshire;Upton;;W1.29;N53.61;10;
2;England;Yorkshire;Ure;;W1.72;N54.27;10;
2;England;Yorkshire;Ure Bank;;W1.52;N54.14;10;
2;England;Yorkshire;Urra;;W1.12;N54.40;10;
2;England;Yorkshire;Utley;;W1.92;N53.87;10;
2;England;Yorkshire;Vale;;W2.13;N53.73;10;
2;England;Yorkshire;Victoria;;W1.74;N53.54;10;
2;England;Yorkshire;Wadsley;;W1.53;N53.40;10;
2;England;Yorkshire;Wadsley Bridge;;W1.50;N53.41;10;
2;England;Yorkshire;Wadworth;;W1.15;N53.46;10;
2;England;Yorkshire;Wainstalls;;W1.94;N53.74;10;
2;England;Yorkshire;Wake Hill;;W1.71;N54.12;10;
2;England;Yorkshire;Wakefield;;W1.50;N53.67;10;
2;England;Yorkshire;Walden;;W1.98;N54.23;10;
2;England;Yorkshire;Walden Beck;;W1.96;N54.27;10;
2;England;Yorkshire;Walden Stubbs;;W1.16;N53.63;10;
2;England;Yorkshire;Waldershaigh;;W1.60;N53.46;10;
2;England;Yorkshire;Wales;;W1.29;N53.33;10;
2;England;Yorkshire;Wales Bar;;W1.31;N53.34;10;
2;England;Yorkshire;Waleswood;;W1.32;N53.34;10;
2;England;Yorkshire;Walkerville;;W1.69;N54.37;10;
2;England;Yorkshire;Walkington;;W0.49;N53.82;10;
2;England;Yorkshire;Walkley;;W1.50;N53.38;10;
2;England;Yorkshire;Wall Hill;;W2.04;N53.55;10;
2;England;Yorkshire;Wallbrook;;W2.08;N52.53;10;
2;England;Yorkshire;Walmgate Stray;;W1.07;N53.94;10;
2;England;Yorkshire;Walsden;;W2.10;N53.69;10;
2;England;Yorkshire;Walshford;;W1.37;N53.97;10;
2;England;Yorkshire;Walton;;W1.33;N53.91;10;
2;England;Yorkshire;Walton;;W1.47;N53.64;10;
2;England;Yorkshire;Wansford;;W0.38;N53.98;10;
2;England;Yorkshire;Ward Green;;W1.48;N53.53;10;
2;England;Yorkshire;Wardley;;W1.54;N54.94;10;
2;England;Yorkshire;Warlaby;;W1.47;N54.31;10;
2;England;Yorkshire;Warland;;W2.09;N53.67;10;
2;England;Yorkshire;Warley Town;;W1.92;N53.72;10;
2;England;Yorkshire;Warmfield;;W1.44;N53.67;10;
2;England;Yorkshire;Warmsworth;;W1.18;N53.49;10;
2;England;Yorkshire;Warren;;W1.47;N53.46;10;
2;England;Yorkshire;Warrenby;;W1.10;N54.61;10;
2;England;Yorkshire;Warsill;;W1.66;N54.08;10;
2;England;Yorkshire;Warter;;W0.69;N53.93;10;
2;England;Yorkshire;Warthermarske;;W1.69;N54.19;10;
2;England;Yorkshire;Warthill;;W0.97;N53.98;10;
2;England;Yorkshire;Washburn;;W1.80;N54.04;10;
2;England;Yorkshire;Washfold;;W1.92;N54.41;10;
2;England;Yorkshire;Washpit;;W1.79;N53.55;10;
2;England;Yorkshire;Wass;;W1.15;N54.20;10;
2;England;Yorkshire;Water End;;W0.81;N53.83;10;
2;England;Yorkshire;Water Fryston;;W1.30;N53.72;10;
2;England;Yorkshire;Water Houses;;W2.18;N54.09;10;
2;England;Yorkshire;Watersheddings;;W2.09;N53.55;10;
2;England;Yorkshire;Waterside;;W0.98;N53.60;10;
2;England;Yorkshire;Waterthorpe;;W1.35;N53.33;10;
2;England;Yorkshire;Wath;;W1.78;N54.09;10;
2;England;Yorkshire;Wath;;W0.97;N54.16;10;
2;England;Yorkshire;Wath;;W1.51;N54.18;10;
2;England;Yorkshire;Wath Upon Dearne;;W1.35;N53.49;10;
2;England;Yorkshire;Watton;;W0.46;N53.93;10;
2;England;Yorkshire;Wawne;;W0.36;N53.80;10;
2;England;Yorkshire;Waxholme;;E0.00;N53.74;10;
2;England;Yorkshire;Weardley;;W1.56;N53.89;10;
2;England;Yorkshire;Weaverthorpe;;W0.53;N54.11;10;
2;England;Yorkshire;Weel;;W0.39;N53.83;10;
2;England;Yorkshire;Weeton;;E0.04;N53.65;10;
2;England;Yorkshire;Weeton;;W1.57;N53.90;10;
2;England;Yorkshire;Weetwood;;W1.59;N53.82;10;
2;England;Yorkshire;Welburn;;W0.90;N54.09;10;
2;England;Yorkshire;Welburn;;W0.95;N54.24;10;
2;England;Yorkshire;Welbury;;W1.40;N54.41;10;
2;England;Yorkshire;Welhambridge;;W0.80;N53.79;10;
2;England;Yorkshire;Well;;W1.60;N54.22;10;
2;England;Yorkshire;Well Heads;;W1.88;N53.79;10;
2;England;Yorkshire;Wellhouse;;W1.86;N53.62;10;
2;England;Yorkshire;Wellington Hill;;W1.46;N53.83;10;
2;England;Yorkshire;Wellroyd;;W1.68;N53.82;10;
2;England;Yorkshire;Welton;;W0.54;N53.73;10;
2;England;Yorkshire;Welwick;;E0.02;N53.66;10;
2;England;Yorkshire;Wenning;;W2.45;N54.11;10;
2;England;Yorkshire;Wensley;;W1.86;N54.29;10;
2;England;Yorkshire;Went;;W1.01;N53.65;10;
2;England;Yorkshire;Went;;W1.22;N53.64;10;
2;England;Yorkshire;Wentbridge;;W1.27;N53.64;10;
2;England;Yorkshire;Wentworth;;W1.42;N53.47;10;
2;England;Yorkshire;Werneth;;W2.13;N53.53;10;
2;England;Yorkshire;Wescoe Hill;;W1.59;N53.90;10;
2;England;Yorkshire;West Appleton;;W1.67;N54.34;10;
2;England;Yorkshire;West Ardsley;;W1.57;N53.72;10;
2;England;Yorkshire;West Ayton;;W0.49;N54.24;10;
2;England;Yorkshire;West Barnby;;W0.75;N54.49;10;
2;England;Yorkshire;West Bowling;;W1.75;N53.77;10;
2;England;Yorkshire;West Bretton;;W1.57;N53.61;10;
2;England;Yorkshire;West Burton;;W1.98;N54.27;10;
2;England;Yorkshire;West Carlton;;W1.69;N53.87;10;
2;England;Yorkshire;West Carr;;W0.34;N53.77;10;
2;England;Yorkshire;West Cliff;;W0.64;N54.48;10;
2;England;Yorkshire;West Cowick;;W1.03;N53.68;10;
2;England;Yorkshire;West Ella;;W0.48;N53.74;10;
2;England;Yorkshire;West End;;W1.00;N53.55;10;
2;England;Yorkshire;West End;;W0.07;N53.72;10;
2;England;Yorkshire;West End;;W0.22;N53.75;10;
2;England;Yorkshire;West End;;W0.62;N53.75;10;
2;England;Yorkshire;West End;;W0.23;N53.98;10;
2;England;Yorkshire;West End;;W0.39;N54.06;10;
2;England;Yorkshire;West End;;W1.72;N53.72;10;
2;England;Yorkshire;West End;;W1.65;N53.83;10;
2;England;Yorkshire;West End;;W1.12;N53.80;10;
2;England;Yorkshire;West End;;W1.22;N53.85;10;
2;England;Yorkshire;West End;;W1.78;N54.00;10;
2;England;Yorkshire;West Field;;W1.14;N53.94;10;
2;England;Yorkshire;West Garforth;;W1.40;N53.78;10;
2;England;Yorkshire;West Green;;W1.44;N53.56;10;
2;England;Yorkshire;West Haddlesey;;W1.15;N53.72;10;
2;England;Yorkshire;West Hardwick;;W1.38;N53.65;10;
2;England;Yorkshire;West Harlsey;;W1.37;N54.37;10;
2;England;Yorkshire;West Heslerton;;W0.60;N54.16;10;
2;England;Yorkshire;West Hill;;W0.22;N54.07;10;
2;England;Yorkshire;West Knapton;;W0.66;N54.16;10;
2;England;Yorkshire;West Layton;;W1.78;N54.48;10;
2;England;Yorkshire;West Lilling;;W1.02;N54.07;10;
2;England;Yorkshire;West Lutton;;W0.57;N54.10;10;
2;England;Yorkshire;West Marton;;W2.16;N53.94;10;
2;England;Yorkshire;West Melton;;W1.36;N53.49;10;
2;England;Yorkshire;West Morton;;W1.86;N53.87;10;
2;England;Yorkshire;West Ness;;W0.94;N54.20;10;
2;England;Yorkshire;West Newton;;W0.19;N53.81;10;
2;England;Yorkshire;West Park;;W0.37;N53.73;10;
2;England;Yorkshire;West Park;;W1.25;N54.68;10;
2;England;Yorkshire;West Park;;W1.60;N53.82;10;
2;England;Yorkshire;West Rounton;;W1.36;N54.42;10;
2;England;Yorkshire;West Royd;;W1.75;N53.82;10;
2;England;Yorkshire;West Scholes;;W1.86;N53.77;10;
2;England;Yorkshire;West Scrafton;;W1.89;N54.24;10;
2;England;Yorkshire;West Stonesdale;;W2.18;N54.41;10;
2;England;Yorkshire;West Tanfield;;W1.60;N54.19;10;
2;England;Yorkshire;West Vale;;W1.86;N53.68;10;
2;England;Yorkshire;West View;;W1.25;N54.70;10;
2;England;Yorkshire;West Witton;;W1.90;N54.28;10;
2;England;Yorkshire;Westerdale;;W0.98;N54.43;10;
2;England;Yorkshire;Westfield;;W1.71;N53.85;10;
2;England;Yorkshire;Westfield;;W1.68;N53.71;10;
2;England;Yorkshire;Westfield;;W1.08;N54.60;10;
2;England;Yorkshire;Westfield;;W1.35;N53.32;10;
2;England;Yorkshire;Westgate Hill;;W1.69;N53.75;10;
2;England;Yorkshire;Westhill;;W0.14;N53.83;10;
2;England;Yorkshire;Westhouse;;W2.50;N54.16;10;
2;England;Yorkshire;Weston;;W1.74;N53.91;10;
2;England;Yorkshire;Westow;;W0.85;N54.07;10;
2;England;Yorkshire;Wetherby;;W1.39;N53.92;10;
2;England;Yorkshire;Wetwang;;W0.58;N54.01;10;
2;England;Yorkshire;Wharfe;;W1.28;N53.89;10;
2;England;Yorkshire;Wharfe;;W1.77;N53.92;10;
2;England;Yorkshire;Wharfe;;W2.33;N54.11;10;
2;England;Yorkshire;Wharncliffe Side;;W1.56;N53.44;10;
2;England;Yorkshire;Wharram le Street;;W0.68;N54.08;10;
2;England;Yorkshire;Wharram Percy;;W0.70;N54.06;10;
2;England;Yorkshire;Whashton;;W1.77;N54.44;10;
2;England;Yorkshire;Whaw;;W2.03;N54.43;10;
2;England;Yorkshire;Wheatley;;W1.89;N53.73;10;
2;England;Yorkshire;Wheatley;;W1.12;N53.52;10;
2;England;Yorkshire;Wheatley Hills;;W1.09;N53.52;10;
2;England;Yorkshire;Wheatley Park;;W1.11;N53.53;10;
2;England;Yorkshire;Wheedale Gill;;W0.88;N54.47;10;
2;England;Yorkshire;Wheeldale Beck;;W0.75;N54.37;10;
2;England;Yorkshire;Wheeldale Gill;;W0.83;N54.38;10;
2;England;Yorkshire;Wheldale;;W1.31;N53.72;10;
2;England;Yorkshire;Wheldrake;;W0.96;N53.89;10;
2;England;Yorkshire;Whenby;;W1.03;N54.11;10;
2;England;Yorkshire;Whickham;;W1.68;N54.93;10;
2;England;Yorkshire;Whinmoor;;W1.45;N53.81;10;
2;England;Yorkshire;Whinney Hill;;W1.32;N53.44;10;
2;England;Yorkshire;Whins Wood;;W1.92;N53.83;10;
2;England;Yorkshire;Whirlow;;W1.53;N53.33;10;
2;England;Yorkshire;Whirlow Brook;;W1.53;N53.33;10;
2;England;Yorkshire;Whiston;;W1.32;N53.40;10;
2;England;Yorkshire;Whitby;;W0.62;N54.47;10;
2;England;Yorkshire;White Gate;;W2.16;N53.52;10;
2;England;Yorkshire;White Hill;;W2.00;N53.85;10;
2;England;Yorkshire;White Lee;;W1.66;N53.72;10;
2;England;Yorkshire;Whitecote;;W1.63;N53.82;10;
2;England;Yorkshire;Whitehills;;W1.56;N54.93;10;
2;England;Yorkshire;Whitewall Corner;;W0.79;N54.12;10;
2;England;Yorkshire;Whitgift;;W0.77;N53.68;10;
2;England;Yorkshire;Whitkirk;;W1.45;N53.79;10;
2;England;Yorkshire;Whitley;;W1.15;N53.68;10;
2;England;Yorkshire;Whitley;;W1.48;N53.44;10;
2;England;Yorkshire;Whitley Bridge;;W1.16;N53.69;10;
2;England;Yorkshire;Whitley Head;;W1.95;N53.88;10;
2;England;Yorkshire;Whitley Lower;;W1.66;N53.64;10;
2;England;Yorkshire;Whitley Thorpe;;W1.16;N53.67;10;
2;England;Yorkshire;Whitsundale Beck;;W2.21;N54.41;10;
2;England;Yorkshire;Whitwell;;W1.57;N54.38;10;
2;England;Yorkshire;Whitwell-on-the-Hill;;W0.90;N54.07;10;
2;England;Yorkshire;Whitwood;;W1.39;N53.71;10;
2;England;Yorkshire;Whity Gill;;W2.12;N54.34;10;
2;England;Yorkshire;Whixley;;W1.32;N54.01;10;
2;England;Yorkshire;Whorlton;;W1.26;N54.41;10;
2;England;Yorkshire;Wibsey;;W1.78;N53.76;10;
2;England;Yorkshire;Wickersley;;W1.27;N53.41;10;
2;England;Yorkshire;Wickham Fell;;W1.68;N54.92;10;
2;England;Yorkshire;Wiganthorpe;;W0.99;N54.14;10;
2;England;Yorkshire;Wigginton;;W1.10;N54.01;10;
2;England;Yorkshire;Wigglesworth;;W2.30;N54.00;10;
2;England;Yorkshire;Wighill;;W1.28;N53.90;10;
2;England;Yorkshire;Wigtwizzle;;W1.64;N53.45;10;
2;England;Yorkshire;Wike;;W1.49;N53.87;10;
2;England;Yorkshire;Wike Well End;;W0.95;N53.60;10;
2;England;Yorkshire;Wilberfoss;;W0.88;N53.94;10;
2;England;Yorkshire;Wilberlee;;W1.91;N53.62;10;
2;England;Yorkshire;Willerby;;W0.45;N53.75;10;
2;England;Yorkshire;Willerby;;W0.46;N54.19;10;
2;England;Yorkshire;Willitoft;;W0.87;N53.80;10;
2;England;Yorkshire;Willow Beck;;W1.34;N54.18;10;
2;England;Yorkshire;Wilsden;;W1.86;N53.82;10;
2;England;Yorkshire;Wilsden Hill;;W1.87;N53.82;10;
2;England;Yorkshire;Wilshaw;;W1.83;N53.57;10;
2;England;Yorkshire;Wilsic;;W1.15;N53.45;10;
2;England;Yorkshire;Wilsill;;W1.72;N54.07;10;
2;England;Yorkshire;Wilthorpe;;W1.51;N53.55;10;
2;England;Yorkshire;Wilton;;W0.68;N54.22;10;
2;England;Yorkshire;Wilton;;W1.10;N54.56;10;
2;England;Yorkshire;Wincobank;;W1.42;N53.41;10;
2;England;Yorkshire;Windhill;;W1.77;N53.82;10;
2;England;Yorkshire;Windhill;;W1.27;N53.49;10;
2;England;Yorkshire;Windmill Hill;;W1.42;N53.65;10;
2;England;Yorkshire;Windy Nook;;W1.58;N54.93;10;
2;England;Yorkshire;Winestead;;W0.04;N53.69;10;
2;England;Yorkshire;Winestead Drain;;W0.03;N53.66;10;
2;England;Yorkshire;Wingfield;;W1.39;N53.45;10;
2;England;Yorkshire;Winksley;;W1.61;N54.13;10;
2;England;Yorkshire;Winlaton;;W1.72;N54.95;10;
2;England;Yorkshire;Winlaton Mill;;W1.72;N54.93;10;
2;England;Yorkshire;Winsley;;W1.65;N54.04;10;
2;England;Yorkshire;Winterburn;;W2.10;N54.01;10;
2;England;Yorkshire;Wintersett;;W1.42;N53.63;10;
2;England;Yorkshire;Wintersett Reservoir;;W1.43;N53.62;10;
2;England;Yorkshire;Winton;;W1.37;N54.35;10;
2;England;Yorkshire;Wintringham;;W0.65;N54.14;10;
2;England;Yorkshire;Wiske;;W1.45;N54.32;10;
2;England;Yorkshire;Wistow;;W1.10;N53.80;10;
2;England;Yorkshire;Withernsea;;E0.02;N53.72;10;
2;England;Yorkshire;Withernwick;;W0.19;N53.84;10;
2;England;Yorkshire;Withymoor Village;;W2.13;N52.47;10;
2;England;Yorkshire;Wold Newton;;W0.40;N54.14;10;
2;England;Yorkshire;Wollescote;;W2.11;N52.44;10;
2;England;Yorkshire;Wombleton;;W0.97;N54.23;10;
2;England;Yorkshire;Wombwell;;W1.41;N53.51;10;
2;England;Yorkshire;Womersley;;W1.19;N53.66;10;
2;England;Yorkshire;Wood End;;W2.10;N53.57;10;
2;England;Yorkshire;Wood Row;;W1.42;N53.73;10;
2;England;Yorkshire;Wood Seats;;W1.50;N53.45;10;
2;England;Yorkshire;Woodale;;W1.97;N54.20;10;
2;England;Yorkshire;Woodhall;;W0.95;N53.77;10;
2;England;Yorkshire;Woodhall;;W2.04;N54.30;10;
2;England;Yorkshire;Woodhall Hills;;W1.69;N53.81;10;
2;England;Yorkshire;Woodhouse;;W1.91;N53.85;10;
2;England;Yorkshire;Woodhouse;;W1.78;N53.68;10;
2;England;Yorkshire;Woodhouse;;W1.56;N53.81;10;
2;England;Yorkshire;Woodhouse;;W1.38;N53.36;10;
2;England;Yorkshire;Woodhouse;;W1.42;N53.69;10;
2;England;Yorkshire;Woodhouse Mill;;W1.37;N53.36;10;
2;England;Yorkshire;Woodhouses;;W2.13;N53.49;10;
2;England;Yorkshire;Woodkirk;;W1.59;N53.71;10;
2;England;Yorkshire;Woodlands;;W1.86;N53.73;10;
2;England;Yorkshire;Woodlands;;W1.20;N53.55;10;
2;England;Yorkshire;Woodlands;;W1.51;N53.98;10;
2;England;Yorkshire;Woodlesford;;W1.45;N53.75;10;
2;England;Yorkshire;Woodmansey;;W0.40;N53.81;10;
2;England;Yorkshire;Woodsetton;;W2.11;N52.53;10;
2;England;Yorkshire;Woodsetts;;W1.17;N53.34;10;
2;England;Yorkshire;Woodside;;W1.80;N53.74;10;
2;England;Yorkshire;Woodside;;W2.11;N52.49;10;
2;England;Yorkshire;Woodthorpe;;W1.13;N53.93;10;
2;England;Yorkshire;Wooldale;;W1.77;N53.56;10;
2;England;Yorkshire;Woolgreaves;;W1.48;N53.63;10;
2;England;Yorkshire;Woolley;;W1.53;N53.61;10;
2;England;Yorkshire;Wordsley;;W2.17;N52.48;10;
2;England;Yorkshire;Worrall;;W1.54;N53.42;10;
2;England;Yorkshire;Worsbrough;;W1.47;N53.52;10;
2;England;Yorkshire;Worsbrough Bridge;;W1.47;N53.52;10;
2;England;Yorkshire;Worsbrough Common;;W1.48;N53.53;10;
2;England;Yorkshire;Worsbrough Dale;;W1.45;N53.52;10;
2;England;Yorkshire;Wortley;;W1.54;N53.48;10;
2;England;Yorkshire;Wortley;;W1.60;N53.78;10;
2;England;Yorkshire;Worton;;W2.07;N54.30;10;
2;England;Yorkshire;Wragby;;W1.38;N53.64;10;
2;England;Yorkshire;Wrangbrook;;W1.26;N53.61;10;
2;England;Yorkshire;Wrekenton;;W1.58;N54.92;10;
2;England;Yorkshire;Wrelton;;W0.83;N54.26;10;
2;England;Yorkshire;Wrenthorpe;;W1.53;N53.69;10;
2;England;Yorkshire;Wressle;;W0.92;N53.77;10;
2;England;Yorkshire;Wrose;;W1.75;N53.82;10;
2;England;Yorkshire;Wydra;;W1.69;N53.98;10;
2;England;Yorkshire;Wyke;;W1.77;N53.73;10;
2;England;Yorkshire;Wykeham;;W0.52;N54.23;10;
2;England;Yorkshire;Wyton;;W0.22;N53.78;10;
2;England;Yorkshire;Yafforth;;W1.47;N54.34;10;
2;England;Yorkshire;Yapham;;W0.81;N53.94;10;
2;England;Yorkshire;Yeadon;;W1.69;N53.85;10;
2;England;Yorkshire;Yearby;;W1.07;N54.58;10;
2;England;Yorkshire;Yearsley;;W1.11;N54.15;10;
2;England;Yorkshire;Yedingham;;W0.63;N54.19;10;
2;England;Yorkshire;Yockenthwaite;;W2.15;N54.20;10;
2;England;Yorkshire;Yokefleet;;W0.77;N53.70;10;
2;England;Yorkshire;York;;W1.10;N53.95;10;
2;England;Yorkshire;Youlthorpe;;W0.84;N53.98;10;
2;England;Yorkshire;Youlton;;W1.25;N54.06;10;