"Level";"Country";"County";"Place";"void";"Longitude";"Latitude";"ZoomLevel";"Icon"
2;England;Worcestershire;Ab Lench;;W1.98;N52.15;10;
2;England;Worcestershire;Abberley;;W2.38;N52.30;10;
2;England;Worcestershire;Abberton;;W2.01;N52.17;10;
2;England;Worcestershire;Abbey Dore;;W2.90;N51.96;10;
2;England;Worcestershire;Abbots Morton;;W1.97;N52.19;10;
2;England;Worcestershire;Acton;;W2.23;N52.30;10;
2;England;Worcestershire;Acton Beauchamp;;W2.48;N52.14;10;
2;England;Worcestershire;Acton Green;;W2.45;N52.14;10;
2;England;Worcestershire;Adforton;;W2.88;N52.33;10;
2;England;Worcestershire;Aggborough;;W2.25;N52.37;10;
2;England;Worcestershire;Alder's End;;W2.55;N52.04;10;
2;England;Worcestershire;Aldington;;W1.91;N52.09;10;
2;England;Worcestershire;Alfred's Well;;W2.08;N52.34;10;
2;England;Worcestershire;Alfrick;;W2.38;N52.17;10;
2;England;Worcestershire;Alfrick Pound;;W2.38;N52.16;10;
2;England;Worcestershire;Allensmore;;W2.78;N52.01;10;
2;England;Worcestershire;Almeley;;W2.98;N52.15;10;
2;England;Worcestershire;Almeley Wooton;;W2.98;N52.16;10;
2;England;Worcestershire;Altbough;;W2.67;N51.96;10;
2;England;Worcestershire;Alvechurch;;W1.97;N52.34;10;
2;England;Worcestershire;Amberley;;W2.67;N52.11;10;
2;England;Worcestershire;Ankerdine Hill;;W2.39;N52.20;10;
2;England;Worcestershire;Apes Dale;;W2.01;N52.34;10;
2;England;Worcestershire;Archenfield;;W3.08;N52.07;10;
2;England;Worcestershire;Areley Kings;;W2.29;N52.32;10;
2;England;Worcestershire;Arrow;;W2.78;N52.20;10;
2;England;Worcestershire;Arrow Green;;W2.83;N52.21;10;
2;England;Worcestershire;Arrowfield Top;;W1.95;N52.36;10;
2;England;Worcestershire;Ashfield;;W2.59;N51.90;10;
2;England;Worcestershire;Ashley Moor;;W2.77;N52.29;10;
2;England;Worcestershire;Ashperton;;W2.52;N52.06;10;
2;England;Worcestershire;Ashton;;W2.71;N52.27;10;
2;England;Worcestershire;Ashton under Hill;;W2.01;N52.04;10;
2;England;Worcestershire;Aspley Heath;;W1.86;N52.32;10;
2;England;Worcestershire;Astley;;W2.32;N52.30;10;
2;England;Worcestershire;Astley Cross;;W2.29;N52.31;10;
2;England;Worcestershire;Aston;;W2.79;N52.25;10;
2;England;Worcestershire;Aston;;W2.79;N52.33;10;
2;England;Worcestershire;Aston Bank;;W2.55;N52.32;10;
2;England;Worcestershire;Aston Crews;;W2.48;N51.90;10;
2;England;Worcestershire;Aston Fields;;W2.06;N52.31;10;
2;England;Worcestershire;Aston Ingham;;W2.46;N51.90;10;
2;England;Worcestershire;Aston Somerville;;W1.94;N52.04;10;
2;England;Worcestershire;Astwood;;W2.20;N52.21;10;
2;England;Worcestershire;Astwood;;W2.10;N52.28;10;
2;England;Worcestershire;Astwood Bank;;W1.94;N52.25;10;
2;England;Worcestershire;Atch Lench;;W1.95;N52.14;10;
2;England;Worcestershire;Auberrow;;W2.74;N52.11;10;
2;England;Worcestershire;Aulden;;W2.79;N52.18;10;
2;England;Worcestershire;Avon;;W1.97;N52.10;10;
2;England;Worcestershire;Aylestone Hill;;W2.70;N52.05;10;
2;England;Worcestershire;Aylton;;W2.51;N52.03;10;
2;England;Worcestershire;Aymestrey;;W2.85;N52.28;10;
2;England;Worcestershire;Bacton;;W2.93;N51.98;10;
2;England;Worcestershire;Badgers Hill;;W2.00;N52.13;10;
2;England;Worcestershire;Badsey;;W1.89;N52.08;10;
2;England;Worcestershire;Bagwyllydiart;;W2.81;N51.92;10;
2;England;Worcestershire;Ballingham;;W2.62;N51.97;10;
2;England;Worcestershire;Ballingham Hill;;W2.62;N51.98;10;
2;England;Worcestershire;Bank Street;;W2.54;N52.25;10;
2;England;Worcestershire;Bank's Green;;W2.01;N52.30;10;
2;England;Worcestershire;Barbourne;;W2.23;N52.21;10;
2;England;Worcestershire;Barnard's Green;;W2.32;N52.10;10;
2;England;Worcestershire;Barnettbrook;;W2.17;N52.38;10;
2;England;Worcestershire;Barnfields;;W2.80;N52.07;10;
2;England;Worcestershire;Barnt Green;;W2.00;N52.35;10;
2;England;Worcestershire;Barons' Cross;;W2.77;N52.21;10;
2;England;Worcestershire;Bartestree;;W2.64;N52.06;10;
2;England;Worcestershire;Barton Court;;W2.38;N52.05;10;
2;England;Worcestershire;Bartonsham;;W2.71;N52.04;10;
2;England;Worcestershire;Bastonford;;W2.27;N52.14;10;
2;England;Worcestershire;Batchcott;;W2.74;N52.32;10;
2;England;Worcestershire;Batchfields;;W2.51;N52.13;10;
2;England;Worcestershire;Batchley;;W1.97;N52.30;10;
2;England;Worcestershire;Bateman's Green;;W1.89;N52.38;10;
2;England;Worcestershire;Battenton Green;;W2.25;N52.28;10;
2;England;Worcestershire;Baughton;;W2.19;N52.06;10;
2;England;Worcestershire;Baylis Green;;W1.88;N52.32;10;
2;England;Worcestershire;Baynhall;;W2.22;N52.12;10;
2;England;Worcestershire;Baysham;;W2.62;N51.94;10;
2;England;Worcestershire;Bayton;;W2.45;N52.35;10;
2;England;Worcestershire;Bayton Common;;W2.42;N52.34;10;
2;England;Worcestershire;Beach Hay;;W2.42;N52.36;10;
2;England;Worcestershire;Bearwood;;W2.90;N52.19;10;
2;England;Worcestershire;Beavan's Hill;;W2.48;N51.91;10;
2;England;Worcestershire;Beckford;;W2.04;N52.01;10;
2;England;Worcestershire;Beggars Ash;;W2.43;N52.04;10;
2;England;Worcestershire;Belbroughton;;W2.13;N52.38;10;
2;England;Worcestershire;Bell End;;W2.08;N52.39;10;
2;England;Worcestershire;Bell Heath;;W2.07;N52.39;10;
2;England;Worcestershire;Bellevue;;W2.04;N52.36;10;
2;England;Worcestershire;Bengeworth;;W1.94;N52.08;10;
2;England;Worcestershire;Beoley;;W1.91;N52.31;10;
2;England;Worcestershire;Berrow;;W2.30;N52.00;10;
2;England;Worcestershire;Berrow Green;;W2.38;N52.21;10;
2;England;Worcestershire;Berry Hill;;W2.16;N52.27;10;
2;England;Worcestershire;Besford;;W2.13;N52.09;10;
2;England;Worcestershire;Bevere;;W2.23;N52.22;10;
2;England;Worcestershire;Bewdley;;W2.32;N52.37;10;
2;England;Worcestershire;Bickley;;W2.54;N52.33;10;
2;England;Worcestershire;Bicton;;W2.79;N52.26;10;
2;England;Worcestershire;Birch Acre;;W1.89;N52.35;10;
2;England;Worcestershire;Birch Berrow;;W2.39;N52.27;10;
2;England;Worcestershire;Birch Green;;W2.22;N52.10;10;
2;England;Worcestershire;Birchall;;W2.51;N52.03;10;
2;England;Worcestershire;Birchan Coppice;;W2.28;N52.36;10;
2;England;Worcestershire;Birchend;;W2.49;N52.09;10;
2;England;Worcestershire;Bircher;;W2.77;N52.28;10;
2;England;Worcestershire;Birley;;W2.80;N52.17;10;
2;England;Worcestershire;Birlingham;;W2.10;N52.08;10;
2;England;Worcestershire;Birtley;;W2.94;N52.31;10;
2;England;Worcestershire;Birts Street;;W2.32;N52.02;10;
2;England;Worcestershire;Birtsmorton;;W2.29;N52.01;10;
2;England;Worcestershire;Bishampton;;W2.03;N52.15;10;
2;England;Worcestershire;Bishon Common;;W2.84;N52.08;10;
2;England;Worcestershire;Bishops Frome;;W2.49;N52.12;10;
2;England;Worcestershire;Bishopstone;;W2.86;N52.08;10;
2;England;Worcestershire;Blacklands;;W2.54;N52.07;10;
2;England;Worcestershire;Blackmarstone;;W2.73;N52.04;10;
2;England;Worcestershire;Blackminster;;W1.89;N52.09;10;
2;England;Worcestershire;Blackmore End;;W2.27;N52.09;10;
2;England;Worcestershire;Blackpole;;W2.20;N52.21;10;
2;England;Worcestershire;Blackstone;;W2.30;N52.36;10;
2;England;Worcestershire;Blackwell;;W2.03;N52.34;10;
2;England;Worcestershire;Blakebrook;;W2.28;N52.38;10;
2;England;Worcestershire;Blakedown;;W2.19;N52.40;10;
2;England;Worcestershire;Blakemere;;W2.93;N52.05;10;
2;England;Worcestershire;Blakeshall;;W2.25;N52.42;10;
2;England;Worcestershire;Bleak Acre;;W2.58;N52.13;10;
2;England;Worcestershire;Bliss Gate;;W2.38;N52.34;10;
2;England;Worcestershire;Bluntington;;W2.16;N52.36;10;
2;England;Worcestershire;Bockleton;;W2.60;N52.24;10;
2;England;Worcestershire;Bodenham;;W2.68;N52.15;10;
2;England;Worcestershire;Bodenham Bank;;W2.52;N51.98;10;
2;England;Worcestershire;Bodenham Moor;;W2.67;N52.14;10;
2;England;Worcestershire;Bolstone;;W2.65;N51.98;10;
2;England;Worcestershire;Boreley;;W2.26;N52.28;10;
2;England;Worcestershire;Bosbury;;W2.45;N52.08;10;
2;England;Worcestershire;Bournes Green;;W2.13;N52.36;10;
2;England;Worcestershire;Bournheath;;W2.08;N52.36;10;
2;England;Worcestershire;Bouts;;W1.95;N52.22;10;
2;England;Worcestershire;Bow Brook;;W1.99;N52.28;10;
2;England;Worcestershire;Bowley;;W2.67;N52.16;10;
2;England;Worcestershire;Bowley Lane;;W2.46;N52.08;10;
2;England;Worcestershire;Bowley Town;;W2.68;N52.17;10;
2;England;Worcestershire;Bowling Green;;W2.27;N52.15;10;
2;England;Worcestershire;Bradley Green;;W2.03;N52.24;10;
2;England;Worcestershire;Bradlow;;W2.42;N52.03;10;
2;England;Worcestershire;Bradnor Green;;W3.04;N52.20;10;
2;England;Worcestershire;Brampton Abbotts;;W2.58;N51.93;10;
2;England;Worcestershire;Brampton Bryan;;W2.92;N52.34;10;
2;England;Worcestershire;Brand Green;;W2.35;N52.06;10;
2;England;Worcestershire;Bransford;;W2.30;N52.16;10;
2;England;Worcestershire;Branson's Cross;;W1.88;N52.32;10;
2;England;Worcestershire;Brayswick;;W2.26;N52.13;10;
2;England;Worcestershire;Bredenbury;;W2.58;N52.20;10;
2;England;Worcestershire;Bredon;;W2.11;N52.02;10;
2;England;Worcestershire;Bredon's Hardwick;;W2.13;N52.01;10;
2;England;Worcestershire;Bredon's Norton;;W2.10;N52.04;10;
2;England;Worcestershire;Bredwardine;;W2.97;N52.09;10;
2;England;Worcestershire;Breinton Common;;W2.80;N52.04;10;
2;England;Worcestershire;Brelston Green;;W2.64;N51.87;10;
2;England;Worcestershire;Bretforton;;W1.87;N52.08;10;
2;England;Worcestershire;Brickfields;;W2.20;N52.20;10;
2;England;Worcestershire;Bricklehampton;;W2.03;N52.07;10;
2;England;Worcestershire;Bridge End;;W2.29;N51.97;10;
2;England;Worcestershire;Bridge End;;W2.55;N52.11;10;
2;England;Worcestershire;Bridge Sollers;;W2.86;N52.07;10;
2;England;Worcestershire;Bridstow;;W2.61;N51.91;10;
2;England;Worcestershire;Brierley;;W2.74;N52.19;10;
2;England;Worcestershire;Brilley;;W3.08;N52.13;10;
2;England;Worcestershire;Brimfield;;W2.70;N52.29;10;
2;England;Worcestershire;Bringewood Forge;;W2.80;N52.36;10;
2;England;Worcestershire;Bringsty Common;;W2.44;N52.19;10;
2;England;Worcestershire;Brinkley Hill;;W2.61;N51.97;10;
2;England;Worcestershire;Brinsop;;W2.81;N52.09;10;
2;England;Worcestershire;Brinsop Common;;W2.83;N52.09;10;
2;England;Worcestershire;Broad;;W2.74;N52.23;10;
2;England;Worcestershire;Broad Alley;;W2.17;N52.30;10;
2;England;Worcestershire;Broad Common;;W2.19;N52.30;10;
2;England;Worcestershire;Broad Green;;W2.35;N52.19;10;
2;England;Worcestershire;Broad Green;;W2.01;N52.32;10;
2;England;Worcestershire;Broad Heath;;W2.98;N52.26;10;
2;England;Worcestershire;Broad Marston;;W1.79;N52.11;10;
2;England;Worcestershire;Broad Oak;;W2.75;N51.88;10;
2;England;Worcestershire;Broadmoor Common;;W2.58;N52.02;10;
2;England;Worcestershire;Broadmore Green;;W2.27;N52.17;10;
2;England;Worcestershire;Broadwas;;W2.35;N52.19;10;
2;England;Worcestershire;Broadwaters;;W2.23;N52.40;10;
2;England;Worcestershire;Broadway;;W1.87;N52.03;10;
2;England;Worcestershire;Broadway Lands;;W2.65;N51.96;10;
2;England;Worcestershire;Brobury;;W2.96;N52.09;10;
2;England;Worcestershire;Brockamin;;W2.35;N52.17;10;
2;England;Worcestershire;Brockencote;;W2.17;N52.35;10;
2;England;Worcestershire;Brockhampton;;W2.59;N51.97;10;
2;England;Worcestershire;Brockmanton;;W2.67;N52.22;10;
2;England;Worcestershire;Bromsash;;W2.52;N51.91;10;
2;England;Worcestershire;Bromsgrove;;W2.07;N52.32;10;
2;England;Worcestershire;Bromyard;;W2.51;N52.18;10;
2;England;Worcestershire;Bromyard Downs;;W2.49;N52.19;10;
2;England;Worcestershire;Brook End;;W2.20;N52.13;10;
2;England;Worcestershire;Broom Hill;;W2.13;N52.37;10;
2;England;Worcestershire;Broombank;;W2.48;N52.32;10;
2;England;Worcestershire;Broome;;W2.14;N52.40;10;
2;England;Worcestershire;Broom's Green;;W2.42;N51.99;10;
2;England;Worcestershire;Broomy Hill;;W2.74;N52.04;10;
2;England;Worcestershire;Brotheridge Green;;W2.26;N52.06;10;
2;England;Worcestershire;Broughton Green;;W2.07;N52.24;10;
2;England;Worcestershire;Broughton Hackett;;W2.11;N52.18;10;
2;England;Worcestershire;Brownheath Common;;W2.16;N52.23;10;
2;England;Worcestershire;Broxwood;;W2.93;N52.18;10;
2;England;Worcestershire;Bryan's Green;;W2.17;N52.31;10;
2;England;Worcestershire;Buckbury;;W2.23;N52.00;10;
2;England;Worcestershire;Buckridge;;W2.41;N52.36;10;
2;England;Worcestershire;Buckton;;W2.91;N52.35;10;
2;England;Worcestershire;Bugle Gate;;W2.26;N52.30;10;
2;England;Worcestershire;Bullinghope;;W2.71;N52.02;10;
2;England;Worcestershire;Bull's Hill;;W2.59;N51.87;10;
2;England;Worcestershire;Burcher;;W2.98;N52.23;10;
2;England;Worcestershire;Burcot;;W2.03;N52.33;10;
2;England;Worcestershire;Burghill;;W2.77;N52.09;10;
2;England;Worcestershire;Burley Gate;;W2.60;N52.12;10;
2;England;Worcestershire;Burlish Park;;W2.29;N52.34;10;
2;England;Worcestershire;Burmarsh;;W2.68;N52.11;10;
2;England;Worcestershire;Burrington;;W2.82;N52.34;10;
2;England;Worcestershire;Bury End;;W1.87;N52.02;10;
2;England;Worcestershire;Bush Bank;;W2.80;N52.15;10;
2;England;Worcestershire;Bushley;;W2.19;N52.00;10;
2;England;Worcestershire;Bushley Green;;W2.20;N52.00;10;
2;England;Worcestershire;Bycross;;W2.92;N52.07;10;
2;England;Worcestershire;Byford;;W2.89;N52.07;10;
2;England;Worcestershire;Byford Common;;W2.90;N52.08;10;
2;England;Worcestershire;Byton;;W2.93;N52.26;10;
2;England;Worcestershire;Byton Hand;;W2.93;N52.26;10;
2;England;Worcestershire;Cakebole;;W2.19;N52.34;10;
2;England;Worcestershire;Callow;;W2.74;N52.00;10;
2;England;Worcestershire;Callow End;;W2.24;N52.13;10;
2;England;Worcestershire;Callow Hill;;W2.71;N51.84;10;
2;England;Worcestershire;Callow Hill;;W2.38;N52.35;10;
2;England;Worcestershire;Callow Marsh;;W2.51;N52.11;10;
2;England;Worcestershire;Calver Hill;;W2.92;N52.12;10;
2;England;Worcestershire;Canon Bridge;;W2.83;N52.06;10;
2;England;Worcestershire;Canon Frome;;W2.51;N52.08;10;
2;England;Worcestershire;Canon Pyon;;W2.79;N52.12;10;
2;England;Worcestershire;Carey;;W2.64;N51.97;10;
2;England;Worcestershire;Carpenter's Hill;;W1.89;N52.32;10;
2;England;Worcestershire;Castle Frome;;W2.49;N52.10;10;
2;England;Worcestershire;Castle Hill;;W2.33;N52.22;10;
2;England;Worcestershire;Castlemorton;;W2.30;N52.03;10;
2;England;Worcestershire;Catchems End;;W2.30;N52.37;10;
2;England;Worcestershire;Catley Southfield;;W2.46;N52.09;10;
2;England;Worcestershire;Catshill;;W2.07;N52.35;10;
2;England;Worcestershire;Caunsall;;W2.22;N52.42;10;
2;England;Worcestershire;Chadbury;;W1.98;N52.11;10;
2;England;Worcestershire;Chaddesley Corbett;;W2.16;N52.35;10;
2;England;Worcestershire;Chadwick;;W2.25;N52.31;10;
2;England;Worcestershire;Chance's Pitch;;W2.38;N52.05;10;
2;England;Worcestershire;Chandler's Cross;;W2.33;N52.04;10;
2;England;Worcestershire;Chapman's Hill;;W2.06;N52.39;10;
2;England;Worcestershire;Charford;;W2.07;N52.31;10;
2;England;Worcestershire;Charlton;;W1.98;N52.10;10;
2;England;Worcestershire;Charlton;;W2.25;N52.33;10;
2;England;Worcestershire;Chatley;;W2.22;N52.24;10;
2;England;Worcestershire;Chawson;;W2.17;N52.25;10;
2;England;Worcestershire;Checkley;;W2.59;N52.03;10;
2;England;Worcestershire;Cherry Orchard;;W2.22;N52.17;10;
2;England;Worcestershire;Chickward;;W3.05;N52.17;10;
2;England;Worcestershire;Childswickham;;W1.89;N52.04;10;
2;England;Worcestershire;Cholstrey;;W2.79;N52.22;10;
2;England;Worcestershire;Church End;;W2.24;N52.06;10;
2;England;Worcestershire;Church Hill;;W1.91;N52.31;10;
2;England;Worcestershire;Church Lench;;W1.97;N52.15;10;
2;England;Worcestershire;Churchfield;;W2.39;N52.11;10;
2;England;Worcestershire;Churchill;;W2.11;N52.17;10;
2;England;Worcestershire;Churchill;;W2.17;N52.40;10;
2;England;Worcestershire;Cladswell;;W1.94;N52.22;10;
2;England;Worcestershire;Claines;;W2.22;N52.22;10;
2;England;Worcestershire;Cleaver;;W2.71;N51.95;10;
2;England;Worcestershire;Cleeve Prior;;W1.88;N52.13;10;
2;England;Worcestershire;Clehonger;;W2.80;N52.02;10;
2;England;Worcestershire;Clencher's Mill;;W2.39;N52.01;10;
2;England;Worcestershire;Clent;;W2.11;N52.40;10;
2;England;Worcestershire;Clifford;;W3.11;N52.09;10;
2;England;Worcestershire;Clifton;;W2.23;N52.11;10;
2;England;Worcestershire;Clifton Upton Teme;;W2.42;N52.24;10;
2;England;Worcestershire;Clock Mills;;W3.03;N52.09;10;
2;England;Worcestershire;Clodock;;W2.99;N51.93;10;
2;England;Worcestershire;Clouds;;W2.61;N52.03;10;
2;England;Worcestershire;Clows Top;;W2.42;N52.33;10;
2;England;Worcestershire;Cobhall Common;;W2.80;N52.01;10;
2;England;Worcestershire;Cobley Hill;;W1.98;N52.33;10;
2;England;Worcestershire;Cobnash;;W2.80;N52.23;10;
2;England;Worcestershire;Cock Gate;;W2.79;N52.28;10;
2;England;Worcestershire;Cockshoot;;W2.61;N52.03;10;
2;England;Worcestershire;Cockyard;;W2.86;N51.99;10;
2;England;Worcestershire;Coddington;;W2.42;N52.07;10;
2;England;Worcestershire;Cofton Hackett;;W2.00;N52.37;10;
2;England;Worcestershire;Cold Elm;;W2.23;N51.98;10;
2;England;Worcestershire;Cole;;W1.90;N52.35;10;
2;England;Worcestershire;Cole;;W1.85;N52.39;10;
2;England;Worcestershire;Coles Green;;W2.35;N52.15;10;
2;England;Worcestershire;Collett's Green;;W2.26;N52.15;10;
2;England;Worcestershire;Collington;;W2.52;N52.23;10;
2;England;Worcestershire;Collins Green;;W2.39;N52.21;10;
2;England;Worcestershire;Colwall;;W2.39;N52.07;10;
2;England;Worcestershire;Colwall Green;;W2.36;N52.06;10;
2;England;Worcestershire;Colwall Stone;;W2.36;N52.07;10;
2;England;Worcestershire;Combe;;W2.96;N52.26;10;
2;England;Worcestershire;Combe Moor;;W2.93;N52.26;10;
2;England;Worcestershire;Comberton;;W2.74;N52.29;10;
2;England;Worcestershire;Comhampton;;W2.25;N52.29;10;
2;England;Worcestershire;Common Hill;;W2.61;N52.00;10;
2;England;Worcestershire;Conderton;;W2.05;N52.03;10;
2;England;Worcestershire;Cookhill;;W1.92;N52.22;10;
2;England;Worcestershire;Cookley;;W2.23;N52.41;10;
2;England;Worcestershire;Cooksey Corner;;W2.13;N52.31;10;
2;England;Worcestershire;Cooksey Green;;W2.14;N52.31;10;
2;England;Worcestershire;Copcut;;W2.17;N52.24;10;
2;England;Worcestershire;Cornett;;W2.62;N52.13;10;
2;England;Worcestershire;Cotheridge;;W2.32;N52.18;10;
2;England;Worcestershire;Coughton;;W2.59;N51.88;10;
2;England;Worcestershire;Covender;;W2.55;N52.08;10;
2;England;Worcestershire;Coxall;;W2.92;N52.36;10;
2;England;Worcestershire;Crabbs Cross;;W1.95;N52.27;10;
2;England;Worcestershire;Cradley;;W2.39;N52.12;10;
2;England;Worcestershire;Craswell;;W3.03;N52.00;10;
2;England;Worcestershire;Credenhill;;W2.80;N52.08;10;
2;England;Worcestershire;Crick's Green;;W2.54;N52.15;10;
2;England;Worcestershire;Crizeley;;W2.81;N51.98;10;
2;England;Worcestershire;Crocker's Ash;;W2.68;N51.84;10;
2;England;Worcestershire;Croft;;W2.80;N52.28;10;
2;England;Worcestershire;Cropthorne;;W2.01;N52.09;10;
2;England;Worcestershire;Cross Bank;;W2.38;N52.35;10;
2;England;Worcestershire;Cross Llyde;;W2.84;N51.93;10;
2;England;Worcestershire;Crossway;;W2.56;N51.97;10;
2;England;Worcestershire;Crossway Green;;W2.23;N52.31;10;
2;England;Worcestershire;Crow Hill;;W2.53;N51.93;10;
2;England;Worcestershire;Crowcroft;;W2.35;N52.14;10;
2;England;Worcestershire;Crowle;;W2.11;N52.20;10;
2;England;Worcestershire;Crowle Green;;W2.13;N52.20;10;
2;England;Worcestershire;Crown East;;W2.27;N52.18;10;
2;England;Worcestershire;Crozen;;W2.62;N52.12;10;
2;England;Worcestershire;Cruise Hill;;W2.00;N52.26;10;
2;England;Worcestershire;Crumpton Hill;;W2.35;N52.13;10;
2;England;Worcestershire;Cutnall Green;;W2.19;N52.31;10;
2;England;Worcestershire;Dagtail End;;W1.95;N52.26;10;
2;England;Worcestershire;Dancing Green;;W2.53;N51.87;10;
2;England;Worcestershire;Darbys Green;;W2.38;N52.20;10;
2;England;Worcestershire;Dawshill;;W2.26;N52.16;10;
2;England;Worcestershire;Dayhouse Bank;;W2.06;N52.40;10;
2;England;Worcestershire;Deblin's Green;;W2.27;N52.13;10;
2;England;Worcestershire;Defford;;W2.13;N52.08;10;
2;England;Worcestershire;Didley;;W2.80;N51.98;10;
2;England;Worcestershire;Diglis;;W2.23;N52.17;10;
2;England;Worcestershire;Dilwyn;;W2.86;N52.18;10;
2;England;Worcestershire;Dinedor;;W2.68;N52.02;10;
2;England;Worcestershire;Dinedor Cross;;W2.70;N52.01;10;
2;England;Worcestershire;Dines Green;;W2.26;N52.19;10;
2;England;Worcestershire;Docklow;;W2.64;N52.20;10;
2;England;Worcestershire;Doddenham;;W2.36;N52.20;10;
2;England;Worcestershire;Dodford;;W2.10;N52.35;10;
2;England;Worcestershire;Dodmarsh;;W2.62;N52.08;10;
2;England;Worcestershire;Dordale;;W2.11;N52.36;10;
2;England;Worcestershire;Dore;;W2.89;N51.98;10;
2;England;Worcestershire;Dormington;;W2.61;N52.05;10;
2;England;Worcestershire;Dormston;;W2.03;N52.21;10;
2;England;Worcestershire;Dorsington;;W1.81;N52.13;10;
2;England;Worcestershire;Dorstone;;W3.00;N52.06;10;
2;England;Worcestershire;Doverdale;;W2.20;N52.29;10;
2;England;Worcestershire;Dowles;;W2.33;N52.38;10;
2;England;Worcestershire;Dowles Brook;;W2.35;N52.38;10;
2;England;Worcestershire;Drakelow;;W2.26;N52.41;10;
2;England;Worcestershire;Drakes Broughton;;W2.11;N52.13;10;
2;England;Worcestershire;Drakes Cross;;W1.88;N52.38;10;
2;England;Worcestershire;Draycott;;W2.22;N52.12;10;
2;England;Worcestershire;Drayton;;W2.14;N52.37;10;
2;England;Worcestershire;Droitwich;;W2.16;N52.26;10;
2;England;Worcestershire;Droitwich Canal;;W2.15;N52.26;10;
2;England;Worcestershire;Druggers End;;W2.30;N52.04;10;
2;England;Worcestershire;Duckswich;;W2.24;N52.04;10;
2;England;Worcestershire;Dunhampstead;;W2.13;N52.23;10;
2;England;Worcestershire;Dunhampton;;W2.23;N52.29;10;
2;England;Worcestershire;Dunley;;W2.32;N52.31;10;
2;England;Worcestershire;Dunstall Common;;W2.17;N52.08;10;
2;England;Worcestershire;Durlow Common;;W2.54;N52.04;10;
2;England;Worcestershire;Duxmoor;;W2.82;N52.38;10;
2;England;Worcestershire;Eachway;;W2.03;N52.38;10;
2;England;Worcestershire;Eardisland;;W2.86;N52.21;10;
2;England;Worcestershire;Eardisley;;W3.00;N52.13;10;
2;England;Worcestershire;Eardiston;;W2.45;N52.30;10;
2;England;Worcestershire;Earl's Common;;W2.07;N52.22;10;
2;England;Worcestershire;Earl's Croome;;W2.20;N52.07;10;
2;England;Worcestershire;Eastham;;W2.51;N52.30;10;
2;England;Worcestershire;Easthampton;;W2.88;N52.26;10;
2;England;Worcestershire;Eastnor;;W2.39;N52.03;10;
2;England;Worcestershire;Eastwood;;W2.55;N52.05;10;
2;England;Worcestershire;Eaton;;W2.73;N52.21;10;
2;England;Worcestershire;Eaton Bishop;;W2.81;N52.03;10;
2;England;Worcestershire;Eau Withington;;W2.67;N52.07;10;
2;England;Worcestershire;Ebnall;;W2.77;N52.21;10;
2;England;Worcestershire;Eckington;;W2.11;N52.06;10;
2;England;Worcestershire;Edgiock;;W1.95;N52.23;10;
2;England;Worcestershire;Edvin Loach;;W2.49;N52.21;10;
2;England;Worcestershire;Edwyn Ralph;;W2.52;N52.21;10;
2;England;Worcestershire;Egdon;;W2.13;N52.15;10;
2;England;Worcestershire;Eign Hill;;W2.70;N52.04;10;
2;England;Worcestershire;Elcock's Brook;;W1.98;N52.27;10;
2;England;Worcestershire;Eldersfield;;W2.29;N51.97;10;
2;England;Worcestershire;Elmbridge;;W2.14;N52.30;10;
2;England;Worcestershire;Elmley Castle;;W2.03;N52.06;10;
2;England;Worcestershire;Elmley Lovett;;W2.19;N52.31;10;
2;England;Worcestershire;Elms Green;;W2.73;N52.20;10;
2;England;Worcestershire;Elms Green;;W2.41;N52.29;10;
2;England;Worcestershire;Elsdon;;W2.99;N52.18;10;
2;England;Worcestershire;Elton;;W2.80;N52.32;10;
2;England;Worcestershire;Elton's Marsh;;W2.74;N52.08;10;
2;England;Worcestershire;Enfield;;W1.95;N52.31;10;
2;England;Worcestershire;Enmore Field;;W2.79;N52.27;10;
2;England;Worcestershire;Escley Brook;;W2.97;N51.91;10;
2;England;Worcestershire;Even Pits;;W2.64;N52.02;10;
2;England;Worcestershire;Evendine;;W2.36;N52.06;10;
2;England;Worcestershire;Evesbatch;;W2.46;N52.12;10;
2;England;Worcestershire;Evesham;;W1.95;N52.08;10;
2;England;Worcestershire;Ewyas Harold;;W2.90;N51.94;10;
2;England;Worcestershire;Eye;;W2.74;N52.26;10;
2;England;Worcestershire;Eyton;;W2.77;N52.24;10;
2;England;Worcestershire;Fairfield;;W1.95;N52.07;10;
2;England;Worcestershire;Fairfield;;W2.08;N52.37;10;
2;England;Worcestershire;Falcon;;W2.58;N51.98;10;
2;England;Worcestershire;Fawley Chapel;;W2.61;N51.95;10;
2;England;Worcestershire;Feckenham;;W2.00;N52.24;10;
2;England;Worcestershire;Felton;;W2.62;N52.12;10;
2;England;Worcestershire;Fernhill Heath;;W2.20;N52.22;10;
2;England;Worcestershire;Fiddler's Green;;W2.62;N52.01;10;
2;England;Worcestershire;Field;;W3.02;N52.14;10;
2;England;Worcestershire;Field's Place;;W2.86;N52.17;10;
2;England;Worcestershire;Fine Street;;W2.97;N52.04;10;
2;England;Worcestershire;Fingerpost;;W2.39;N52.36;10;
2;England;Worcestershire;Finstall;;W2.03;N52.32;10;
2;England;Worcestershire;Fishpool;;W2.49;N51.95;10;
2;England;Worcestershire;Five Bridges;;W2.51;N52.11;10;
2;England;Worcestershire;Fladbury;;W2.01;N52.11;10;
2;England;Worcestershire;Fladbury Cross;;W2.01;N52.12;10;
2;England;Worcestershire;Flaggoners Green;;W2.52;N52.18;10;
2;England;Worcestershire;Flintsham;;W3.01;N52.21;10;
2;England;Worcestershire;Floodgates;;W3.05;N52.20;10;
2;England;Worcestershire;Flyford Flavell;;W2.03;N52.18;10;
2;England;Worcestershire;Foley Park;;W2.26;N52.37;10;
2;England;Worcestershire;Footrid;;W2.47;N52.32;10;
2;England;Worcestershire;Ford;;W2.71;N52.19;10;
2;England;Worcestershire;Forge;;W2.96;N52.22;10;
2;England;Worcestershire;Forhill;;W1.92;N52.37;10;
2;England;Worcestershire;Foster's Green;;W2.04;N52.28;10;
2;England;Worcestershire;Four Pools;;W1.94;N52.07;10;
2;England;Worcestershire;Fownhope;;W2.61;N52.00;10;
2;England;Worcestershire;Fox Hill;;W2.46;N52.10;10;
2;England;Worcestershire;Foxley;;W2.86;N52.10;10;
2;England;Worcestershire;Foxlydiate;;W1.98;N52.30;10;
2;England;Worcestershire;Foy;;W2.59;N51.94;10;
2;England;Worcestershire;Franche;;W2.26;N52.40;10;
2;England;Worcestershire;Franklands Gate;;W2.68;N52.11;10;
2;England;Worcestershire;Frankley;;W2.01;N52.41;10;
2;England;Worcestershire;Frankley Green;;W2.01;N52.41;10;
2;England;Worcestershire;Frankley Hill;;W2.03;N52.40;10;
2;England;Worcestershire;Frith Common;;W2.45;N52.31;10;
2;England;Worcestershire;Frog Pool;;W2.30;N52.28;10;
2;England;Worcestershire;Frome;;W2.52;N52.19;10;
2;England;Worcestershire;Fromes;;W2.48;N52.11;10;
2;England;Worcestershire;Fromington;;W2.68;N52.11;10;
2;England;Worcestershire;Gadfield Elm;;W2.32;N51.97;10;
2;England;Worcestershire;Gallows Green;;W2.10;N52.25;10;
2;England;Worcestershire;Garway;;W2.78;N51.89;10;
2;England;Worcestershire;Garway Hill;;W2.81;N51.92;10;
2;England;Worcestershire;Gilbert's End;;W2.26;N52.07;10;
2;England;Worcestershire;Gilfach;;W2.96;N52.00;10;
2;England;Worcestershire;Gilver's Lane;;W2.27;N52.06;10;
2;England;Worcestershire;Glewstone;;W2.65;N51.89;10;
2;England;Worcestershire;Golden Valley;;W2.49;N52.13;10;
2;England;Worcestershire;Golder Field;;W2.64;N52.24;10;
2;England;Worcestershire;Goodrich;;W2.62;N51.86;10;
2;England;Worcestershire;Good's Green;;W2.32;N52.42;10;
2;England;Worcestershire;Goom's Hill;;W1.97;N52.18;10;
2;England;Worcestershire;Goose Pool;;W2.78;N52.02;10;
2;England;Worcestershire;Goosehill Green;;W2.10;N52.24;10;
2;England;Worcestershire;Gorsley;;W2.46;N51.92;10;
2;England;Worcestershire;Gorsley Common;;W2.48;N51.92;10;
2;England;Worcestershire;Gorst Hill;;W2.38;N52.34;10;
2;England;Worcestershire;Gosford;;W2.69;N52.30;10;
2;England;Worcestershire;Grafton;;W2.74;N52.02;10;
2;England;Worcestershire;Grafton;;W2.03;N52.03;10;
2;England;Worcestershire;Grafton Flyford;;W2.05;N52.20;10;
2;England;Worcestershire;Grantsfield;;W2.70;N52.23;10;
2;England;Worcestershire;Great Comberton;;W2.07;N52.07;10;
2;England;Worcestershire;Great Doward;;W2.65;N51.84;10;
2;England;Worcestershire;Great Malvern;;W2.32;N52.11;10;
2;England;Worcestershire;Great Witley;;W2.36;N52.29;10;
2;England;Worcestershire;Green Crize;;W2.71;N52.02;10;
2;England;Worcestershire;Green Lane;;W2.55;N52.10;10;
2;England;Worcestershire;Green Street;;W2.19;N52.05;10;
2;England;Worcestershire;Green Street;;W2.20;N52.13;10;
2;England;Worcestershire;Greenhill;;W1.94;N52.10;10;
2;England;Worcestershire;Greenhill;;W2.42;N52.12;10;
2;England;Worcestershire;Greenhill;;W2.23;N52.39;10;
2;England;Worcestershire;Greenlands;;W1.92;N52.28;10;
2;England;Worcestershire;Greenway;;W2.38;N52.32;10;
2;England;Worcestershire;Grendon Bishop;;W2.60;N52.20;10;
2;England;Worcestershire;Grendon Green;;W2.60;N52.20;10;
2;England;Worcestershire;Greystones;;W1.86;N52.13;10;
2;England;Worcestershire;Greytree;;W2.59;N51.92;10;
2;England;Worcestershire;Grimes Hill;;W1.88;N52.37;10;
2;England;Worcestershire;Grimley;;W2.25;N52.23;10;
2;England;Worcestershire;Grittlesend;;W2.41;N52.13;10;
2;England;Worcestershire;Grove;;W2.57;N52.09;10;
2;England;Worcestershire;Grove;;W2.20;N52.05;10;
2;England;Worcestershire;Guarlford;;W2.27;N52.10;10;
2;England;Worcestershire;Guller's End;;W2.21;N52.01;10;
2;England;Worcestershire;Habberley;;W2.29;N52.39;10;
2;England;Worcestershire;Hackman's Gate;;W2.16;N52.39;10;
2;England;Worcestershire;Hadley;;W2.20;N52.26;10;
2;England;Worcestershire;Hadzor;;W2.13;N52.25;10;
2;England;Worcestershire;Hagley;;W2.64;N52.06;10;
2;England;Worcestershire;Hagley;;W2.13;N52.42;10;
2;England;Worcestershire;Hales Bank;;W2.57;N52.14;10;
2;England;Worcestershire;Hales Park;;W2.33;N52.37;10;
2;England;Worcestershire;Hales Wood;;W2.58;N51.96;10;
2;England;Worcestershire;Hall Flat;;W2.04;N52.35;10;
2;England;Worcestershire;Hallow;;W2.26;N52.22;10;
2;England;Worcestershire;Hallow Heath;;W2.26;N52.22;10;
2;England;Worcestershire;Hallwood Green;;W2.48;N51.99;10;
2;England;Worcestershire;Halmond's Frome;;W2.48;N52.12;10;
2;England;Worcestershire;Ham Green;;W2.38;N52.09;10;
2;England;Worcestershire;Ham Green;;W1.98;N52.26;10;
2;England;Worcestershire;Hamnish Clifford;;W2.68;N52.22;10;
2;England;Worcestershire;Hampton;;W1.97;N52.08;10;
2;England;Worcestershire;Hampton Bishop;;W2.65;N52.03;10;
2;England;Worcestershire;Hampton Lovett;;W2.17;N52.28;10;
2;England;Worcestershire;Hampton Park;;W2.68;N52.04;10;
2;England;Worcestershire;Hanbury;;W2.06;N52.26;10;
2;England;Worcestershire;Hanley Castle;;W2.24;N52.06;10;
2;England;Worcestershire;Hanley Child;;W2.51;N52.28;10;
2;England;Worcestershire;Hanley Swan;;W2.27;N52.07;10;
2;England;Worcestershire;Hanley William;;W2.48;N52.28;10;
2;England;Worcestershire;Harbours Hill;;W2.07;N52.28;10;
2;England;Worcestershire;Hardwick Green;;W2.27;N51.98;10;
2;England;Worcestershire;Hardwicke;;W3.08;N52.08;10;
2;England;Worcestershire;Harewood End;;W2.69;N51.93;10;
2;England;Worcestershire;Harpley;;W2.47;N52.24;10;
2;England;Worcestershire;Hartle;;W2.11;N52.38;10;
2;England;Worcestershire;Hartlebury;;W2.25;N52.32;10;
2;England;Worcestershire;Hartlebury Common;;W2.26;N52.32;10;
2;England;Worcestershire;Harvington;;W1.92;N52.13;10;
2;England;Worcestershire;Harvington;;W2.19;N52.36;10;
2;England;Worcestershire;Hasluck's Green;;W1.85;N52.40;10;
2;England;Worcestershire;Hatfield;;W2.19;N52.14;10;
2;England;Worcestershire;Haven;;W2.61;N52.13;10;
2;England;Worcestershire;Haven;;W2.87;N52.18;10;
2;England;Worcestershire;Hawbridge;;W2.14;N52.13;10;
2;England;Worcestershire;Hawford;;W2.23;N52.23;10;
2;England;Worcestershire;Hawkersland Cross;;W2.68;N52.11;10;
2;England;Worcestershire;Hayley Green;;W2.08;N52.43;10;
2;England;Worcestershire;Headbrook;;W3.02;N52.19;10;
2;England;Worcestershire;Headless Cross;;W1.95;N52.28;10;
2;England;Worcestershire;Headley Heath;;W1.91;N52.38;10;
2;England;Worcestershire;Heath Green;;W1.89;N52.33;10;
2;England;Worcestershire;Heightington;;W2.35;N52.33;10;
2;England;Worcestershire;Henbrook;;W2.11;N52.29;10;
2;England;Worcestershire;Hereford;;W2.71;N52.05;10;
2;England;Worcestershire;High Green;;W2.19;N52.10;10;
2;England;Worcestershire;High Lane;;W2.48;N52.23;10;
2;England;Worcestershire;Highway;;W2.80;N52.13;10;
2;England;Worcestershire;Highwood;;W2.51;N52.29;10;
2;England;Worcestershire;Hildersley;;W2.56;N51.91;10;
2;England;Worcestershire;Hill Croome;;W2.17;N52.05;10;
2;England;Worcestershire;Hill End;;W2.14;N52.26;10;
2;England;Worcestershire;Hill Furze;;W2.01;N52.13;10;
2;England;Worcestershire;Hill Gate;;W2.74;N51.93;10;
2;England;Worcestershire;Hill Side;;W2.36;N52.24;10;
2;England;Worcestershire;Hillhampton;;W2.61;N52.11;10;
2;England;Worcestershire;Hillpool;;W2.16;N52.38;10;
2;England;Worcestershire;Himbleton;;W2.08;N52.22;10;
2;England;Worcestershire;Hindlip;;W2.19;N52.22;10;
2;England;Worcestershire;Hinton;;W2.97;N52.03;10;
2;England;Worcestershire;Hinton Cross;;W1.95;N52.05;10;
2;England;Worcestershire;Hinton on the Green;;W1.97;N52.05;10;
2;England;Worcestershire;Hoarwithy;;W2.67;N51.95;10;
2;England;Worcestershire;Hoden;;W1.86;N52.12;10;
2;England;Worcestershire;Holbeache;;W2.32;N52.40;10;
2;England;Worcestershire;Holberrow Green;;W1.97;N52.22;10;
2;England;Worcestershire;Holdfast;;W2.22;N52.03;10;
2;England;Worcestershire;Hole-in-the Wall;;W2.56;N51.94;10;
2;England;Worcestershire;Holly Green;;W2.20;N52.06;10;
2;England;Worcestershire;Hollybush;;W2.35;N52.02;10;
2;England;Worcestershire;Hollywood;;W1.88;N52.39;10;
2;England;Worcestershire;Holme Lacy;;W2.65;N52.01;10;
2;England;Worcestershire;Holme Marsh;;W2.96;N52.18;10;
2;England;Worcestershire;Holmer;;W2.73;N52.07;10;
2;England;Worcestershire;Holt;;W2.26;N52.25;10;
2;England;Worcestershire;Holt End;;W1.89;N52.31;10;
2;England;Worcestershire;Holt Fleet;;W2.26;N52.26;10;
2;England;Worcestershire;Holt Heath;;W2.27;N52.26;10;
2;England;Worcestershire;Holy Cross;;W2.11;N52.40;10;
2;England;Worcestershire;Holywell;;W2.92;N52.06;10;
2;England;Worcestershire;Hom Green;;W2.61;N51.89;10;
2;England;Worcestershire;Honddu;;W2.93;N51.91;10;
2;England;Worcestershire;Honeybourne;;W1.84;N52.09;10;
2;England;Worcestershire;Hoobrook;;W2.25;N52.36;10;
2;England;Worcestershire;Hook Bank;;W2.27;N52.05;10;
2;England;Worcestershire;Hope Mansell;;W2.55;N51.86;10;
2;England;Worcestershire;Hope under Dinmore;;W2.73;N52.16;10;
2;England;Worcestershire;Hope's Rough;;W2.54;N52.12;10;
2;England;Worcestershire;Hopley's Green;;W2.96;N52.16;10;
2;England;Worcestershire;Hopwood;;W1.97;N52.36;10;
2;England;Worcestershire;Horseway Head;;W2.96;N52.23;10;
2;England;Worcestershire;Horsham;;W2.39;N52.21;10;
2;England;Worcestershire;How Caple;;W2.58;N51.96;10;
2;England;Worcestershire;Howsen;;W2.30;N52.18;10;
2;England;Worcestershire;Howton;;W2.86;N51.95;10;
2;England;Worcestershire;Huddington;;W2.08;N52.21;10;
2;England;Worcestershire;Humber;;W2.68;N52.20;10;
2;England;Worcestershire;Hunderton;;W2.74;N52.03;10;
2;England;Worcestershire;Hundred;;W2.70;N52.27;10;
2;England;Worcestershire;Hungerstone;;W2.81;N52.01;10;
2;England;Worcestershire;Hunnington;;W2.06;N52.42;10;
2;England;Worcestershire;Hunt End;;W1.95;N52.27;10;
2;England;Worcestershire;Huntington;;W2.76;N52.06;10;
2;England;Worcestershire;Huntington;;W3.09;N52.17;10;
2;England;Worcestershire;Hurcott;;W2.22;N52.39;10;
2;England;Worcestershire;Hurstley;;W2.95;N52.12;10;
2;England;Worcestershire;Hyde;;W2.80;N52.19;10;
2;England;Worcestershire;Illey;;W2.03;N52.42;10;
2;England;Worcestershire;Inkberrow;;W1.98;N52.21;10;
2;England;Worcestershire;Inkford;;W1.89;N52.36;10;
2;England;Worcestershire;Interfield;;W2.33;N52.13;10;
2;England;Worcestershire;Ipsley;;W1.91;N52.29;10;
2;England;Worcestershire;Ivington;;W2.77;N52.19;10;
2;England;Worcestershire;Kemerton;;W2.08;N52.03;10;
2;England;Worcestershire;Kempsey;;W2.22;N52.13;10;
2;England;Worcestershire;Kenchester;;W2.83;N52.08;10;
2;England;Worcestershire;Kendal End;;W2.00;N52.36;10;
2;England;Worcestershire;Kerne Bridge;;W2.61;N51.85;10;
2;England;Worcestershire;Kerry's Gate;;W2.88;N51.99;10;
2;England;Worcestershire;Kersoe;;W2.01;N52.04;10;
2;England;Worcestershire;Kerswell Green;;W2.20;N52.11;10;
2;England;Worcestershire;Kidderminster;;W2.26;N52.38;10;
2;England;Worcestershire;Kiln Green;;W2.58;N51.86;10;
2;England;Worcestershire;Kilpeck;;W2.81;N51.96;10;
2;England;Worcestershire;Kimbolton;;W2.70;N52.24;10;
2;England;Worcestershire;King's Acre;;W2.77;N52.06;10;
2;England;Worcestershire;King's Caple;;W2.64;N51.94;10;
2;England;Worcestershire;King's End;;W2.26;N52.15;10;
2;England;Worcestershire;King's Green;;W2.33;N52.23;10;
2;England;Worcestershire;King's Pyon;;W2.83;N52.14;10;
2;England;Worcestershire;King's Thorn;;W2.72;N51.97;10;
2;England;Worcestershire;Kingsfield;;W2.70;N52.13;10;
2;England;Worcestershire;Kingsford;;W2.28;N52.42;10;
2;England;Worcestershire;Kingsland;;W2.82;N52.24;10;
2;England;Worcestershire;Kingstone;;W2.53;N51.91;10;
2;England;Worcestershire;Kingstone;;W2.84;N52.01;10;
2;England;Worcestershire;Kingswood;;W3.03;N52.17;10;
2;England;Worcestershire;Kingswood Common;;W2.39;N52.28;10;
2;England;Worcestershire;Kington;;W2.01;N52.19;10;
2;England;Worcestershire;Kington;;W3.04;N52.19;10;
2;England;Worcestershire;Kinnersley;;W2.19;N52.08;10;
2;England;Worcestershire;Kinnersley;;W2.96;N52.13;10;
2;England;Worcestershire;Kinton;;W2.88;N52.36;10;
2;England;Worcestershire;Kivernoll;;W2.78;N51.98;10;
2;England;Worcestershire;Knapton Green;;W2.82;N52.16;10;
2;England;Worcestershire;Knighton;;W1.95;N52.20;10;
2;England;Worcestershire;Knighton on Teme;;W2.54;N52.32;10;
2;England;Worcestershire;Knightwick;;W2.41;N52.19;10;
2;England;Worcestershire;Knill;;W3.04;N52.23;10;
2;England;Worcestershire;Knowle Fields;;W1.94;N52.21;10;
2;England;Worcestershire;Kymin;;W2.61;N52.10;10;
2;England;Worcestershire;Kynaston;;W2.67;N51.93;10;
2;England;Worcestershire;Kyre;;W2.55;N52.26;10;
2;England;Worcestershire;Kyre Green;;W2.58;N52.25;10;
2;England;Worcestershire;Kyre Park;;W2.55;N52.26;10;
2;England;Worcestershire;Kyrewood;;W2.58;N52.29;10;
2;England;Worcestershire;Ladyridge;;W2.59;N51.97;10;
2;England;Worcestershire;Ladywood;;W2.19;N52.24;10;
2;England;Worcestershire;Lakeside;;W1.92;N52.30;10;
2;England;Worcestershire;Lane End;;W2.52;N51.86;10;
2;England;Worcestershire;Larport;;W2.62;N52.03;10;
2;England;Worcestershire;Laughern Hill;;W2.33;N52.22;10;
2;England;Worcestershire;Lawton;;W2.82;N52.22;10;
2;England;Worcestershire;Lea End;;W1.94;N52.37;10;
2;England;Worcestershire;Lea Line;;W2.49;N51.88;10;
2;England;Worcestershire;Leadon;;W2.45;N52.08;10;
2;England;Worcestershire;Leapgate;;W2.25;N52.34;10;
2;England;Worcestershire;Ledbury;;W2.43;N52.03;10;
2;England;Worcestershire;Ledicot;;W2.86;N52.25;10;
2;England;Worcestershire;Leigh;;W2.32;N52.17;10;
2;England;Worcestershire;Leigh Brook;;W2.36;N52.16;10;
2;England;Worcestershire;Leigh Sinton;;W2.33;N52.14;10;
2;England;Worcestershire;Leinthall Earls;;W2.82;N52.29;10;
2;England;Worcestershire;Leinthall Starkes;;W2.83;N52.31;10;
2;England;Worcestershire;Leintwardine;;W2.88;N52.36;10;
2;England;Worcestershire;Lem Hill;;W2.41;N52.36;10;
2;England;Worcestershire;Lenchwick;;W1.95;N52.12;10;
2;England;Worcestershire;Leominster;;W2.74;N52.22;10;
2;England;Worcestershire;Letton;;W2.97;N52.10;10;
2;England;Worcestershire;Letton;;W2.92;N52.32;10;
2;England;Worcestershire;Leys Hill;;W2.61;N51.86;10;
2;England;Worcestershire;Leysters;;W2.64;N52.26;10;
2;England;Worcestershire;Libbery;;W2.07;N52.19;10;
2;England;Worcestershire;Lickey;;W2.01;N52.37;10;
2;England;Worcestershire;Lickey End;;W2.04;N52.34;10;
2;England;Worcestershire;Lickhill;;W2.29;N52.34;10;
2;England;Worcestershire;Limebrook;;W2.92;N52.28;10;
2;England;Worcestershire;Lincomb;;W2.26;N52.31;10;
2;England;Worcestershire;Lindridge;;W2.48;N52.31;10;
2;England;Worcestershire;Lineholt;;W2.26;N52.29;10;
2;England;Worcestershire;Lineholt Common;;W2.26;N52.30;10;
2;England;Worcestershire;Lingen;;W2.94;N52.29;10;
2;England;Worcestershire;Linkend;;W2.24;N51.97;10;
2;England;Worcestershire;Linley Green;;W2.45;N52.17;10;
2;England;Worcestershire;Linthurst;;W2.01;N52.34;10;
2;England;Worcestershire;Linton;;W2.49;N51.92;10;
2;England;Worcestershire;Linton Hill;;W2.49;N51.91;10;
2;England;Worcestershire;Litmarsh;;W2.70;N52.13;10;
2;England;Worcestershire;Little Beckford;;W2.04;N52.00;10;
2;England;Worcestershire;Little Birch;;W2.71;N51.97;10;
2;England;Worcestershire;Little Comberton;;W2.05;N52.08;10;
2;England;Worcestershire;Little Cowarne;;W2.58;N52.15;10;
2;England;Worcestershire;Little Dewchurch;;W2.68;N51.97;10;
2;England;Worcestershire;Little Doward;;W2.66;N51.84;10;
2;England;Worcestershire;Little Eastbury;;W2.26;N52.21;10;
2;England;Worcestershire;Little Gorsley;;W2.46;N51.92;10;
2;England;Worcestershire;Little Hereford;;W2.66;N52.30;10;
2;England;Worcestershire;Little Hill;;W2.77;N51.93;10;
2;England;Worcestershire;Little Inkberrow;;W2.00;N52.21;10;
2;England;Worcestershire;Little London;;W2.54;N52.33;10;
2;England;Worcestershire;Little Malvern;;W2.35;N52.05;10;
2;England;Worcestershire;Little Marcle;;W2.48;N52.02;10;
2;England;Worcestershire;Little Merthyr;;W3.08;N52.12;10;
2;England;Worcestershire;Little Tarrington;;W2.55;N52.06;10;
2;England;Worcestershire;Little Welland;;W2.29;N52.04;10;
2;England;Worcestershire;Little Witley;;W2.32;N52.26;10;
2;England;Worcestershire;Littleworth;;W2.17;N52.13;10;
2;England;Worcestershire;Littleworth;;W2.01;N52.25;10;
2;England;Worcestershire;Llancloudy;;W2.74;N51.87;10;
2;England;Worcestershire;Llangarron;;W2.69;N51.88;10;
2;England;Worcestershire;Llangrove;;W2.69;N51.86;10;
2;England;Worcestershire;Llanveynoe;;W3.02;N51.97;10;
2;England;Worcestershire;Llanwarne;;W2.72;N51.94;10;
2;England;Worcestershire;Lodge Park;;W1.94;N52.29;10;
2;England;Worcestershire;Long Bank;;W2.35;N52.36;10;
2;England;Worcestershire;Long Green;;W2.23;N51.99;10;
2;England;Worcestershire;Longdon;;W2.24;N52.02;10;
2;England;Worcestershire;Longdon Heath;;W2.23;N52.04;10;
2;England;Worcestershire;Longdon Hill End;;W2.26;N52.04;10;
2;England;Worcestershire;Longley Green;;W2.39;N52.14;10;
2;England;Worcestershire;Longtown;;W2.99;N51.94;10;
2;England;Worcestershire;Low Habberley;;W2.29;N52.39;10;
2;England;Worcestershire;Lower Bearwood;;W2.89;N52.20;10;
2;England;Worcestershire;Lower Bentley;;W2.03;N52.28;10;
2;England;Worcestershire;Lower Breinton;;W2.77;N52.04;10;
2;England;Worcestershire;Lower Broadheath;;W2.27;N52.21;10;
2;England;Worcestershire;Lower Buckenhill;;W2.58;N51.99;10;
2;England;Worcestershire;Lower Bullingham;;W2.70;N52.03;10;
2;England;Worcestershire;Lower Burton;;W2.85;N52.19;10;
2;England;Worcestershire;Lower Clent;;W2.13;N52.40;10;
2;England;Worcestershire;Lower Egleton;;W2.55;N52.10;10;
2;England;Worcestershire;Lower Grove Common;;W2.65;N51.92;10;
2;England;Worcestershire;Lower Hardwick;;W2.87;N52.19;10;
2;England;Worcestershire;Lower Harpton;;W3.07;N52.23;10;
2;England;Worcestershire;Lower Hergest;;W3.06;N52.18;10;
2;England;Worcestershire;Lower Hook;;W2.27;N52.05;10;
2;England;Worcestershire;Lower Howsell;;W2.32;N52.13;10;
2;England;Worcestershire;Lower Illey;;W2.04;N52.42;10;
2;England;Worcestershire;Lower Lye;;W2.88;N52.28;10;
2;England;Worcestershire;Lower Maes-coed;;W2.96;N51.96;10;
2;England;Worcestershire;Lower Moor;;W2.03;N52.12;10;
2;England;Worcestershire;Lower Rabber;;W3.09;N52.17;10;
2;England;Worcestershire;Lower Sapey;;W2.45;N52.23;10;
2;England;Worcestershire;Lower Southfield;;W2.45;N52.07;10;
2;England;Worcestershire;Lower Strensham;;W2.14;N52.05;10;
2;England;Worcestershire;Lower Todding;;W2.88;N52.37;10;
2;England;Worcestershire;Lower Town;;W2.54;N52.07;10;
2;England;Worcestershire;Lower Town;;W2.20;N52.22;10;
2;England;Worcestershire;Lower Welson;;W3.03;N52.14;10;
2;England;Worcestershire;Lower Westmancote;;W2.10;N52.03;10;
2;England;Worcestershire;Lower Wick;;W2.24;N52.16;10;
2;England;Worcestershire;Lower Wolverton;;W2.11;N52.14;10;
2;England;Worcestershire;Lower Wyche;;W2.33;N52.09;10;
2;England;Worcestershire;Loxter;;W2.42;N52.05;10;
2;England;Worcestershire;Lucton;;W2.83;N52.27;10;
2;England;Worcestershire;Lugg;;W2.75;N52.22;10;
2;England;Worcestershire;Lugg Green;;W2.82;N52.25;10;
2;England;Worcestershire;Lugwardine;;W2.67;N52.06;10;
2;England;Worcestershire;Lulham;;W2.87;N52.06;10;
2;England;Worcestershire;Lulsley;;W2.38;N52.19;10;
2;England;Worcestershire;Luston;;W2.76;N52.26;10;
2;England;Worcestershire;Lyde Cross;;W2.71;N52.08;10;
2;England;Worcestershire;Lydiate Ash;;W2.04;N52.37;10;
2;England;Worcestershire;Lye Head;;W2.36;N52.35;10;
2;England;Worcestershire;Lyne Down;;W2.52;N51.97;10;
2;England;Worcestershire;Lyonshall;;W2.98;N52.18;10;
2;England;Worcestershire;Madeley Heath;;W2.07;N52.39;10;
2;England;Worcestershire;Madley;;W2.86;N52.03;10;
2;England;Worcestershire;Madresfield;;W2.29;N52.12;10;
2;England;Worcestershire;Major's Green;;W1.85;N52.39;10;
2;England;Worcestershire;Malvern Common;;W2.32;N52.09;10;
2;England;Worcestershire;Malvern Hills;;W2.35;N52.06;10;
2;England;Worcestershire;Malvern Link;;W2.32;N52.12;10;
2;England;Worcestershire;Malvern Wells;;W2.33;N52.07;10;
2;England;Worcestershire;Mamble;;W2.47;N52.33;10;
2;England;Worcestershire;Mansell Gamage;;W2.89;N52.09;10;
2;England;Worcestershire;Mansell Lacy;;W2.84;N52.10;10;
2;England;Worcestershire;Marden;;W2.70;N52.11;10;
2;England;Worcestershire;Marl Bank;;W2.32;N52.05;10;
2;England;Worcestershire;Marlas;;W2.81;N51.95;10;
2;England;Worcestershire;Marlbrook;;W2.73;N52.18;10;
2;England;Worcestershire;Marlbrook;;W2.04;N52.36;10;
2;England;Worcestershire;Marlcliff;;W1.86;N52.14;10;
2;England;Worcestershire;Marsh;;W2.74;N52.22;10;
2;England;Worcestershire;Marsh End;;W2.27;N52.01;10;
2;England;Worcestershire;Marston;;W2.93;N52.20;10;
2;England;Worcestershire;Marston Stannett;;W2.64;N52.19;10;
2;England;Worcestershire;Marstow;;W2.65;N51.86;10;
2;England;Worcestershire;Martin Hussingtree;;W2.17;N52.23;10;
2;England;Worcestershire;Martley;;W2.36;N52.22;10;
2;England;Worcestershire;Matchborough;;W1.89;N52.29;10;
2;England;Worcestershire;Mathon;;W2.39;N52.10;10;
2;England;Worcestershire;Maund Bryan;;W2.64;N52.14;10;
2;England;Worcestershire;Meadow Green;;W2.42;N52.20;10;
2;England;Worcestershire;Meer Common;;W2.93;N52.16;10;
2;England;Worcestershire;Menithwood;;W2.44;N52.31;10;
2;England;Worcestershire;Merbach;;W3.02;N52.09;10;
2;England;Worcestershire;Mere Green;;W2.07;N52.25;10;
2;England;Worcestershire;Merrivale;;W2.58;N51.90;10;
2;England;Worcestershire;Michaelchurch;;W2.69;N51.92;10;
2;England;Worcestershire;Michaelchurch Escley;;W3.00;N52.00;10;
2;England;Worcestershire;Middle Littleton;;W1.89;N52.11;10;
2;England;Worcestershire;Middle Maes-coed;;W2.97;N51.99;10;
2;England;Worcestershire;Middleton;;W2.67;N52.31;10;
2;England;Worcestershire;Middleton on the Hill;;W2.67;N52.27;10;
2;England;Worcestershire;Millhalf;;W3.06;N52.12;10;
2;England;Worcestershire;Moccas;;W2.94;N52.07;10;
2;England;Worcestershire;Monkhide;;W2.57;N52.08;10;
2;England;Worcestershire;Monkland;;W2.80;N52.20;10;
2;England;Worcestershire;Monkwood Green;;W2.29;N52.23;10;
2;England;Worcestershire;Monmarsh;;W2.70;N52.13;10;
2;England;Worcestershire;Monmouth Cap;;W2.88;N51.92;10;
2;England;Worcestershire;Monnington on Wye;;W2.92;N52.08;10;
2;England;Worcestershire;Monnow;;W2.76;N51.85;10;
2;England;Worcestershire;Moon's Moat;;W1.89;N52.31;10;
2;England;Worcestershire;Moor End;;W2.14;N52.20;10;
2;England;Worcestershire;Moor Park;;W2.74;N52.05;10;
2;England;Worcestershire;Moorcot;;W2.95;N52.18;10;
2;England;Worcestershire;Moorend Cross;;W2.41;N52.10;10;
2;England;Worcestershire;Moorhampton;;W2.90;N52.10;10;
2;England;Worcestershire;Moors;;W2.67;N51.98;10;
2;England;Worcestershire;Mordiford;;W2.62;N52.03;10;
2;England;Worcestershire;Moreton;;W2.73;N52.27;10;
2;England;Worcestershire;Moreton Jeffries;;W2.58;N52.12;10;
2;England;Worcestershire;Moreton on Lugg;;W2.73;N52.10;10;
2;England;Worcestershire;Mortimer's Cross;;W2.85;N52.26;10;
2;England;Worcestershire;Morton Spirt;;W1.94;N52.18;10;
2;England;Worcestershire;Morton Underhill;;W1.98;N52.22;10;
2;England;Worcestershire;Moseley;;W2.27;N52.22;10;
2;England;Worcestershire;Mount Pleasant;;W1.94;N52.04;10;
2;England;Worcestershire;Mount Pleasant;;W2.00;N52.27;10;
2;England;Worcestershire;Much Birch;;W2.72;N51.96;10;
2;England;Worcestershire;Much Cowardne;;W2.55;N52.12;10;
2;England;Worcestershire;Much Dewchurch;;W2.75;N51.97;10;
2;England;Worcestershire;Much Marcle;;W2.51;N51.98;10;
2;England;Worcestershire;Munderfield Row;;W2.52;N52.15;10;
2;England;Worcestershire;Munderfield Stocks;;W2.51;N52.14;10;
2;England;Worcestershire;Munsley;;W2.49;N52.05;10;
2;England;Worcestershire;Munstone;;W2.71;N52.07;10;
2;England;Worcestershire;Murcot;;W1.91;N52.05;10;
2;England;Worcestershire;Mustow Green;;W2.20;N52.36;10;
2;England;Worcestershire;Napleton;;W2.22;N52.13;10;
2;England;Worcestershire;Nash;;W3.02;N52.25;10;
2;England;Worcestershire;Nash End;;W2.33;N52.42;10;
2;England;Worcestershire;Naunton;;W2.19;N52.04;10;
2;England;Worcestershire;Naunton Beauchamp;;W2.05;N52.16;10;
2;England;Worcestershire;Neight Hill;;W2.08;N52.22;10;
2;England;Worcestershire;Netherton;;W2.69;N51.93;10;
2;England;Worcestershire;Netherton;;W2.01;N52.06;10;
2;England;Worcestershire;New End;;W1.92;N52.23;10;
2;England;Worcestershire;New Mills;;W2.43;N52.03;10;
2;England;Worcestershire;Newbridge Green;;W2.23;N52.04;10;
2;England;Worcestershire;Newchurch;;W2.95;N52.14;10;
2;England;Worcestershire;Newland;;W2.30;N52.13;10;
2;England;Worcestershire;Newland Common;;W2.14;N52.23;10;
2;England;Worcestershire;Newman's Place;;W3.03;N52.13;10;
2;England;Worcestershire;Newnham Bridge;;W2.52;N52.31;10;
2;England;Worcestershire;Newton;;W2.96;N51.98;10;
2;England;Worcestershire;Newton;;W3.03;N52.08;10;
2;England;Worcestershire;Newton;;W2.73;N52.17;10;
2;England;Worcestershire;Newton;;W2.92;N52.31;10;
2;England;Worcestershire;Newtown;;W2.68;N51.99;10;
2;England;Worcestershire;Newtown;;W2.57;N52.09;10;
2;England;Worcestershire;Newtown;;W2.36;N52.21;10;
2;England;Worcestershire;Newtown;;W2.17;N52.26;10;
2;England;Worcestershire;Nextend;;W2.98;N52.20;10;
2;England;Worcestershire;Nineveh;;W2.55;N52.27;10;
2;England;Worcestershire;Nineveh;;W2.47;N52.35;10;
2;England;Worcestershire;Noah's Green;;W2.00;N52.24;10;
2;England;Worcestershire;Norbridge;;W2.42;N52.10;10;
2;England;Worcestershire;Norchard;;W2.23;N52.31;10;
2;England;Worcestershire;North Littleton;;W1.88;N52.12;10;
2;England;Worcestershire;North Piddle;;W2.05;N52.18;10;
2;England;Worcestershire;Northwick;;W2.23;N52.21;10;
2;England;Worcestershire;Norton;;W1.95;N52.12;10;
2;England;Worcestershire;Norton;;W2.17;N52.14;10;
2;England;Worcestershire;Norton Canon;;W2.90;N52.11;10;
2;England;Worcestershire;Noutard's Green;;W2.30;N52.29;10;
2;England;Worcestershire;Oakall Green;;W2.27;N52.23;10;
2;England;Worcestershire;Ockeridge;;W2.33;N52.25;10;
2;England;Worcestershire;Ocle Pychard;;W2.60;N52.11;10;
2;England;Worcestershire;Oddingley;;W2.14;N52.22;10;
2;England;Worcestershire;Offenham;;W1.92;N52.11;10;
2;England;Worcestershire;Offenham Cross;;W1.91;N52.10;10;
2;England;Worcestershire;Old Country;;W2.42;N52.09;10;
2;England;Worcestershire;Old Forge;;W2.65;N51.85;10;
2;England;Worcestershire;Old Gore;;W2.55;N51.94;10;
2;England;Worcestershire;Old Hills;;W2.24;N52.13;10;
2;England;Worcestershire;Old Storridge Common;;W2.38;N52.15;10;
2;England;Worcestershire;Old Wharf;;W2.43;N52.02;10;
2;England;Worcestershire;Oldfield;;W2.23;N52.27;10;
2;England;Worcestershire;Oldwood;;W2.60;N52.29;10;
2;England;Worcestershire;Ombersley;;W2.23;N52.26;10;
2;England;Worcestershire;Orcop;;W2.77;N51.93;10;
2;England;Worcestershire;Orcop Hill;;W2.77;N51.94;10;
2;England;Worcestershire;Orleton;;W2.74;N52.29;10;
2;England;Worcestershire;Orleton;;W2.45;N52.30;10;
2;England;Worcestershire;Orleton Common;;W2.77;N52.30;10;
2;England;Worcestershire;Overbury;;W2.07;N52.03;10;
2;England;Worcestershire;Panks Bridge;;W2.55;N52.12;10;
2;England;Worcestershire;Paradise Green;;W2.70;N52.11;10;
2;England;Worcestershire;Park End;;W2.35;N52.35;10;
2;England;Worcestershire;Park Gate;;W2.10;N52.33;10;
2;England;Worcestershire;Parkway;;W2.42;N52.01;10;
2;England;Worcestershire;Parton;;W3.00;N52.12;10;
2;England;Worcestershire;Peartree Green;;W2.59;N51.98;10;
2;England;Worcestershire;Pebworth;;W1.81;N52.11;10;
2;England;Worcestershire;Pembridge;;W2.89;N52.21;10;
2;England;Worcestershire;Pen-allt;;W2.62;N51.95;10;
2;England;Worcestershire;Pencombe;;W2.60;N52.16;10;
2;England;Worcestershire;Pencraig;;W2.64;N51.87;10;
2;England;Worcestershire;Pendock;;W2.32;N51.98;10;
2;England;Worcestershire;Penguithal;;W2.72;N51.87;10;
2;England;Worcestershire;Penrhos;;W3.01;N52.19;10;
2;England;Worcestershire;Pensax;;W2.41;N52.31;10;
2;England;Worcestershire;Pensham;;W2.08;N52.09;10;
2;England;Worcestershire;Pen-y-Park;;W3.06;N52.08;10;
2;England;Worcestershire;Peopleton;;W2.10;N52.14;10;
2;England;Worcestershire;Perryfields;;W2.08;N52.33;10;
2;England;Worcestershire;Perrystone Hill;;W2.53;N51.95;10;
2;England;Worcestershire;Pershore;;W2.08;N52.10;10;
2;England;Worcestershire;Perton;;W2.59;N52.05;10;
2;England;Worcestershire;Peterchurch;;W2.96;N52.03;10;
2;England;Worcestershire;Peterstow;;W2.64;N51.91;10;
2;England;Worcestershire;Phepson;;W2.08;N52.22;10;
2;England;Worcestershire;Phocle Green;;W2.55;N51.93;10;
2;England;Worcestershire;Picken End;;W2.27;N52.07;10;
2;England;Worcestershire;Pikestye;;W2.68;N52.12;10;
2;England;Worcestershire;Pink Green;;W1.88;N52.31;10;
2;England;Worcestershire;Pin's Green;;W2.29;N52.13;10;
2;England;Worcestershire;Pinvin;;W2.07;N52.13;10;
2;England;Worcestershire;Pipe and Lyde;;W2.73;N52.09;10;
2;England;Worcestershire;Piper's End;;W2.23;N52.00;10;
2;England;Worcestershire;Piper's Hill;;W2.06;N52.28;10;
2;England;Worcestershire;Pirton;;W2.17;N52.12;10;
2;England;Worcestershire;Pixham;;W2.23;N52.13;10;
2;England;Worcestershire;Pixley;;W2.49;N52.03;10;
2;England;Worcestershire;Podmoor;;W2.20;N52.34;10;
2;England;Worcestershire;Pole Elm;;W2.24;N52.13;10;
2;England;Worcestershire;Pontrilas;;W2.88;N51.93;10;
2;England;Worcestershire;Pontshill;;W2.53;N51.88;10;
2;England;Worcestershire;Pool Head;;W2.65;N52.14;10;
2;England;Worcestershire;Poolbrook;;W2.30;N52.09;10;
2;England;Worcestershire;Poolmill;;W2.61;N51.91;10;
2;England;Worcestershire;Portway;;W2.74;N52.01;10;
2;England;Worcestershire;Portway;;W2.76;N52.10;10;
2;England;Worcestershire;Portway;;W1.88;N52.34;10;
2;England;Worcestershire;Pound Bank;;W2.30;N52.10;10;
2;England;Worcestershire;Pound Bank;;W2.39;N52.35;10;
2;England;Worcestershire;Pow Green;;W2.42;N52.09;10;
2;England;Worcestershire;Powick;;W2.24;N52.15;10;
2;England;Worcestershire;Preston Brook;;W2.51;N51.97;10;
2;England;Worcestershire;Preston Marsh;;W2.64;N52.11;10;
2;England;Worcestershire;Preston on Wye;;W2.90;N52.07;10;
2;England;Worcestershire;Preston Wynne;;W2.65;N52.11;10;
2;England;Worcestershire;Priestfield;;W2.26;N52.09;10;
2;England;Worcestershire;Primsland;;W2.14;N52.24;10;
2;England;Worcestershire;Prior's Frome;;W2.62;N52.04;10;
2;England;Worcestershire;Priory Wood;;W3.09;N52.09;10;
2;England;Worcestershire;Pudleston;;W2.64;N52.22;10;
2;England;Worcestershire;Putley;;W2.52;N52.03;10;
2;England;Worcestershire;Putley Common;;W2.54;N52.03;10;
2;England;Worcestershire;Putley Green;;W2.51;N52.03;10;
2;England;Worcestershire;Putson;;W2.71;N52.03;10;
2;England;Worcestershire;Queenhill;;W2.22;N52.02;10;
2;England;Worcestershire;Radford;;W2.00;N52.19;10;
2;England;Worcestershire;Rainbow Hill;;W2.22;N52.20;10;
2;England;Worcestershire;Ramsden;;W2.11;N52.11;10;
2;England;Worcestershire;Rashwood;;W2.13;N52.28;10;
2;England;Worcestershire;Ravenhills Green;;W2.38;N52.18;10;
2;England;Worcestershire;Rea;;W2.47;N52.37;10;
2;England;Worcestershire;Red Hill;;W2.73;N52.03;10;
2;England;Worcestershire;Red Hill;;W2.20;N52.17;10;
2;England;Worcestershire;Red Rail;;W2.67;N51.94;10;
2;England;Worcestershire;Redcross;;W2.17;N52.35;10;
2;England;Worcestershire;Redditch;;W1.94;N52.30;10;
2;England;Worcestershire;Rednal;;W2.00;N52.38;10;
2;England;Worcestershire;Rhydd;;W2.24;N52.10;10;
2;England;Worcestershire;Rhydd Green;;W2.24;N52.10;10;
2;England;Worcestershire;Ribbesford;;W2.32;N52.36;10;
2;England;Worcestershire;Richards Castle;;W2.74;N52.31;10;
2;England;Worcestershire;Riddle;;W2.77;N52.25;10;
2;England;Worcestershire;Ridgeway Cross;;W2.42;N52.12;10;
2;England;Worcestershire;Ripple;;W2.19;N52.03;10;
2;England;Worcestershire;Risbury;;W2.65;N52.19;10;
2;England;Worcestershire;Riverside;;W1.94;N52.31;10;
2;England;Worcestershire;Rochford;;W2.55;N52.30;10;
2;England;Worcestershire;Rock;;W2.39;N52.33;10;
2;England;Worcestershire;Rodd;;W2.99;N52.25;10;
2;England;Worcestershire;Rodd Hurst;;W2.99;N52.25;10;
2;England;Worcestershire;Romsley;;W2.06;N52.40;10;
2;England;Worcestershire;Romsley;;W2.32;N52.43;10;
2;England;Worcestershire;Romsley Hill;;W2.06;N52.40;10;
2;England;Worcestershire;Ronkswood;;W2.20;N52.18;10;
2;England;Worcestershire;Ross Green;;W2.35;N52.24;10;
2;England;Worcestershire;Ross-on-Wye;;W2.58;N51.91;10;
2;England;Worcestershire;Rotherwas;;W2.68;N52.03;10;
2;England;Worcestershire;Rous Lench;;W1.98;N52.17;10;
2;England;Worcestershire;Rowlestone;;W2.91;N51.93;10;
2;England;Worcestershire;Rowney Green;;W1.94;N52.33;10;
2;England;Worcestershire;Rubery;;W2.01;N52.39;10;
2;England;Worcestershire;Ruckhall;;W2.81;N52.04;10;
2;England;Worcestershire;Rudhall;;W2.55;N51.92;10;
2;England;Worcestershire;Rudhall Brook;;W2.57;N51.91;10;
2;England;Worcestershire;Rumbow Cottages;;W2.08;N52.40;10;
2;England;Worcestershire;Rushall;;W2.52;N52.00;10;
2;England;Worcestershire;Rushock;;W3.02;N52.21;10;
2;England;Worcestershire;Rushock;;W2.17;N52.33;10;
2;England;Worcestershire;Rushwick;;W2.27;N52.17;10;
2;England;Worcestershire;Ruxton Green;;W2.66;N51.86;10;
2;England;Worcestershire;Ryall;;W2.20;N52.05;10;
2;England;Worcestershire;Rye Street;;W2.32;N52.01;10;
2;England;Worcestershire;Ryelands;;W2.76;N52.21;10;
2;England;Worcestershire;Saffron's Cross;;W2.67;N52.15;10;
2;England;Worcestershire;Sale Green;;W2.10;N52.21;10;
2;England;Worcestershire;Saleway;;W2.11;N52.22;10;
2;England;Worcestershire;Salwarpe;;W2.19;N52.24;10;
2;England;Worcestershire;Salwarpe;;W2.14;N52.32;10;
2;England;Worcestershire;Sandford;;W2.22;N52.10;10;
2;England;Worcestershire;Sankyns Green;;W2.30;N52.27;10;
2;England;Worcestershire;Sapey Bridge;;W2.41;N52.19;10;
2;England;Worcestershire;Sapey Common;;W2.44;N52.27;10;
2;England;Worcestershire;Sarnesfield;;W2.92;N52.14;10;
2;England;Worcestershire;Sedgeberrow;;W1.97;N52.04;10;
2;England;Worcestershire;Sellack;;W2.64;N51.94;10;
2;England;Worcestershire;Sellack Boat;;W2.64;N51.94;10;
2;England;Worcestershire;Severn;;W2.24;N52.22;10;
2;England;Worcestershire;Severn Stoke;;W2.22;N52.09;10;
2;England;Worcestershire;Sharpway Gate;;W2.07;N52.28;10;
2;England;Worcestershire;Shatterford;;W2.31;N52.42;10;
2;England;Worcestershire;Shell;;W2.07;N52.22;10;
2;England;Worcestershire;Shelsley Beauchamp;;W2.39;N52.26;10;
2;England;Worcestershire;Shelsley Walsh;;W2.41;N52.25;10;
2;England;Worcestershire;Shelwick;;W2.70;N52.08;10;
2;England;Worcestershire;Shelwick Green;;W2.70;N52.08;10;
2;England;Worcestershire;Shenmore;;W2.89;N52.03;10;
2;England;Worcestershire;Shenstone;;W2.20;N52.35;10;
2;England;Worcestershire;Sheriff's Lench;;W1.98;N52.13;10;
2;England;Worcestershire;Shernal Green;;W2.13;N52.24;10;
2;England;Worcestershire;Sherrard's Green;;W2.30;N52.11;10;
2;England;Worcestershire;Shirl Heath;;W2.83;N52.22;10;
2;England;Worcestershire;Shobdon;;W2.89;N52.24;10;
2;England;Worcestershire;Shoulton;;W2.27;N52.22;10;
2;England;Worcestershire;Shrawley;;W2.29;N52.27;10;
2;England;Worcestershire;Shucknall;;W2.61;N52.07;10;
2;England;Worcestershire;Shurnock;;W1.97;N52.23;10;
2;England;Worcestershire;Shutton;;W2.51;N51.92;10;
2;England;Worcestershire;Sidemoor;;W2.07;N52.33;10;
2;England;Worcestershire;Silver Street;;W1.89;N52.37;10;
2;England;Worcestershire;Sinton;;W2.23;N52.26;10;
2;England;Worcestershire;Sinton Green;;W2.27;N52.23;10;
2;England;Worcestershire;Slades Green;;W2.21;N52.00;10;
2;England;Worcestershire;Sledge Green;;W2.27;N52.00;10;
2;England;Worcestershire;Slideslow;;W2.04;N52.32;10;
2;England;Worcestershire;Smallwood;;W1.94;N52.30;10;
2;England;Worcestershire;Smite Hill;;W2.16;N52.22;10;
2;England;Worcestershire;Smith End Green;;W2.33;N52.16;10;
2;England;Worcestershire;Sneachill;;W2.14;N52.17;10;
2;England;Worcestershire;Snead Common;;W2.41;N52.31;10;
2;England;Worcestershire;Sneads Green;;W2.20;N52.30;10;
2;England;Worcestershire;Snodhill;;W3.00;N52.05;10;
2;England;Worcestershire;Solihull Lodge;;W1.86;N52.40;10;
2;England;Worcestershire;Sollers Dilwyn;;W2.84;N52.19;10;
2;England;Worcestershire;Sollers Hope;;W2.56;N51.99;10;
2;England;Worcestershire;South Littleton;;W1.89;N52.11;10;
2;England;Worcestershire;Southcrest;;W1.95;N52.29;10;
2;England;Worcestershire;Southwood;;W2.38;N52.25;10;
2;England;Worcestershire;Spennells;;W2.23;N52.36;10;
2;England;Worcestershire;Spetchley;;W2.16;N52.17;10;
2;England;Worcestershire;St Godwalds;;W2.04;N52.31;10;
2;England;Worcestershire;St John's;;W2.25;N52.18;10;
2;England;Worcestershire;St Margarets;;W2.94;N51.99;10;
2;England;Worcestershire;St Michaels;;W2.61;N52.28;10;
2;England;Worcestershire;St Owen's Cross;;W2.68;N51.91;10;
2;England;Worcestershire;St Peter The Great;;W2.22;N52.16;10;
2;England;Worcestershire;St Weonards;;W2.74;N51.91;10;
2;England;Worcestershire;Staffordshire and Worcestershire Canal;;W2.00;N52.44;10;
2;England;Worcestershire;Stagbatch;;W2.79;N52.21;10;
2;England;Worcestershire;Stakenbridge;;W2.17;N52.40;10;
2;England;Worcestershire;Stanbrook;;W2.24;N52.13;10;
2;England;Worcestershire;Stanford Bishop;;W2.46;N52.15;10;
2;England;Worcestershire;Stanford Bridge;;W2.42;N52.28;10;
2;England;Worcestershire;Stanford on Teme;;W2.44;N52.28;10;
2;England;Worcestershire;Stanklyn;;W2.22;N52.36;10;
2;England;Worcestershire;Stanley Hill;;W2.48;N52.09;10;
2;England;Worcestershire;Stansbatch;;W2.96;N52.24;10;
2;England;Worcestershire;Staple Hill;;W2.04;N52.35;10;
2;England;Worcestershire;Stapleton;;W2.99;N52.27;10;
2;England;Worcestershire;Staplow;;W2.45;N52.06;10;
2;England;Worcestershire;Staunton on Arrow;;W2.93;N52.23;10;
2;England;Worcestershire;Staunton on Wye;;W2.93;N52.09;10;
2;England;Worcestershire;Steen's Bridge;;W2.67;N52.20;10;
2;England;Worcestershire;Stitchin's Hill;;W2.36;N52.15;10;
2;England;Worcestershire;Stock Green;;W2.03;N52.22;10;
2;England;Worcestershire;Stock Wood;;W2.00;N52.22;10;
2;England;Worcestershire;Stocking;;W2.55;N51.96;10;
2;England;Worcestershire;Stockton;;W2.71;N52.24;10;
2;England;Worcestershire;Stockton on Teme;;W2.42;N52.30;10;
2;England;Worcestershire;Stoke Bliss;;W2.51;N52.25;10;
2;England;Worcestershire;Stoke Cross;;W2.55;N52.14;10;
2;England;Worcestershire;Stoke Edith;;W2.58;N52.05;10;
2;England;Worcestershire;Stoke Heath;;W2.08;N52.31;10;
2;England;Worcestershire;Stoke Hill;;W2.57;N52.13;10;
2;England;Worcestershire;Stoke Lacy;;W2.55;N52.13;10;
2;England;Worcestershire;Stoke Lane;;W2.54;N52.14;10;
2;England;Worcestershire;Stoke Pound;;W2.06;N52.30;10;
2;England;Worcestershire;Stoke Prior;;W2.70;N52.20;10;
2;England;Worcestershire;Stoke Prior;;W2.08;N52.30;10;
2;England;Worcestershire;Stoke Wharf;;W2.07;N52.29;10;
2;England;Worcestershire;Stone;;W2.22;N52.37;10;
2;England;Worcestershire;Stonebow;;W2.10;N52.13;10;
2;England;Worcestershire;Stonehall;;W2.17;N52.13;10;
2;England;Worcestershire;Stonepits;;W2.00;N52.20;10;
2;England;Worcestershire;Stoney Hill;;W2.06;N52.32;10;
2;England;Worcestershire;Stoneyard Green;;W2.42;N52.09;10;
2;England;Worcestershire;Stony Cross;;W2.41;N52.12;10;
2;England;Worcestershire;Stony Cross;;W2.67;N52.29;10;
2;England;Worcestershire;Storridge;;W2.36;N52.13;10;
2;England;Worcestershire;Stoulton;;W2.14;N52.13;10;
2;England;Worcestershire;Stour;;W2.23;N52.44;10;
2;England;Worcestershire;Stourport-on-Severn;;W2.28;N52.33;10;
2;England;Worcestershire;Stowe;;W3.05;N52.11;10;
2;England;Worcestershire;Strangford;;W2.61;N51.94;10;
2;England;Worcestershire;Strensham;;W2.13;N52.05;10;
2;England;Worcestershire;Stretford;;W2.70;N52.20;10;
2;England;Worcestershire;Stretford Brook;;W2.78;N52.07;10;
2;England;Worcestershire;Stretford Court;;W2.82;N52.19;10;
2;England;Worcestershire;Stretton Grandison;;W2.54;N52.09;10;
2;England;Worcestershire;Stretton Sugwas;;W2.78;N52.07;10;
2;England;Worcestershire;Structon's Heath;;W2.33;N52.28;10;
2;England;Worcestershire;Suckley;;W2.41;N52.15;10;
2;England;Worcestershire;Suckley Green;;W2.42;N52.17;10;
2;England;Worcestershire;Suckley Knowl;;W2.42;N52.17;10;
2;England;Worcestershire;Sugwas Pool;;W2.80;N52.06;10;
2;England;Worcestershire;Summerfield;;W2.25;N52.35;10;
2;England;Worcestershire;Summerhill;;W2.28;N52.38;10;
2;England;Worcestershire;Sunset;;W3.02;N52.19;10;
2;England;Worcestershire;Sutton Lakes;;W2.67;N52.11;10;
2;England;Worcestershire;Sutton Marsh;;W2.67;N52.09;10;
2;England;Worcestershire;Sutton St Michael;;W2.70;N52.10;10;
2;England;Worcestershire;Sutton St Nicholas;;W2.68;N52.10;10;
2;England;Worcestershire;Swainshill;;W2.78;N52.06;10;
2;England;Worcestershire;Sweet Green;;W2.52;N52.25;10;
2;England;Worcestershire;Swinmore Common;;W2.48;N52.06;10;
2;England;Worcestershire;Symonds Yat;;W2.65;N51.84;10;
2;England;Worcestershire;Sytchampton;;W2.23;N52.29;10;
2;England;Worcestershire;Tanner's Green;;W1.88;N52.36;10;
2;England;Worcestershire;Tanwood;;W2.14;N52.36;10;
2;England;Worcestershire;Tardebigge;;W2.01;N52.31;10;
2;England;Worcestershire;Tarrington;;W2.57;N52.05;10;
2;England;Worcestershire;Tarrington Common;;W2.57;N52.04;10;
2;England;Worcestershire;Tedstone Delamere;;W2.45;N52.21;10;
2;England;Worcestershire;Tedstone Wafer;;W2.48;N52.22;10;
2;England;Worcestershire;Teme;;W2.61;N52.30;10;
2;England;Worcestershire;Tenbury Wells;;W2.60;N52.29;10;
2;England;Worcestershire;The Bage;;W3.03;N52.08;10;
2;England;Worcestershire;The Bourne;;W2.03;N52.20;10;
2;England;Worcestershire;The Burf;;W2.28;N52.30;10;
2;England;Worcestershire;The Fording;;W2.51;N51.92;10;
2;England;Worcestershire;The Gutter;;W2.07;N52.39;10;
2;England;Worcestershire;The Hook;;W2.26;N52.05;10;
2;England;Worcestershire;The Hyde;;W2.24;N52.05;10;
2;England;Worcestershire;The Knapp;;W2.51;N52.18;10;
2;England;Worcestershire;The Lakes;;W2.33;N52.37;10;
2;England;Worcestershire;The Rampings;;W2.21;N52.00;10;
2;England;Worcestershire;The Rhydd;;W2.78;N51.99;10;
2;England;Worcestershire;Thornbury;;W2.55;N52.22;10;
2;England;Worcestershire;Three Ashes;;W2.71;N51.90;10;
2;England;Worcestershire;Throckmorton;;W2.03;N52.13;10;
2;England;Worcestershire;Thruxton;;W2.83;N52.00;10;
2;England;Worcestershire;Tibberton;;W2.14;N52.21;10;
2;England;Worcestershire;Tidbury Green;;W1.86;N52.37;10;
2;England;Worcestershire;Tidnor;;W2.65;N52.04;10;
2;England;Worcestershire;Tillington;;W2.78;N52.10;10;
2;England;Worcestershire;Tillinton Common;;W2.80;N52.10;10;
2;England;Worcestershire;Timberhonger;;W2.11;N52.32;10;
2;England;Worcestershire;Titley;;W2.98;N52.23;10;
2;England;Worcestershire;Titton;;W2.26;N52.31;10;
2;England;Worcestershire;Tolladine;;W2.20;N52.19;10;
2;England;Worcestershire;Torton;;W2.23;N52.34;10;
2;England;Worcestershire;Totnor;;W2.59;N51.97;10;
2;England;Worcestershire;Tram Inn;;W2.78;N51.99;10;
2;England;Worcestershire;Treaddow;;W2.67;N51.91;10;
2;England;Worcestershire;Tretire;;W2.69;N51.90;10;
2;England;Worcestershire;Trimpley;;W2.31;N52.39;10;
2;England;Worcestershire;Trotshill;;W2.17;N52.19;10;
2;England;Worcestershire;Trueman's Heath;;W1.86;N52.39;10;
2;England;Worcestershire;Tudorville;;W2.59;N51.89;10;
2;England;Worcestershire;Tumpy Lakes;;W2.67;N52.11;10;
2;England;Worcestershire;Tunnel Hill;;W2.23;N52.05;10;
2;England;Worcestershire;Tupsley;;W2.68;N52.05;10;
2;England;Worcestershire;Turkey Tump;;W2.72;N51.94;10;
2;England;Worcestershire;Turnastone;;W2.94;N52.01;10;
2;England;Worcestershire;Tutnall;;W2.03;N52.32;10;
2;England;Worcestershire;Twyford;;W1.94;N52.11;10;
2;England;Worcestershire;Twyford Common;;W2.71;N52.01;10;
2;England;Worcestershire;Tyberton;;W2.90;N52.04;10;
2;England;Worcestershire;Uckinghall;;W2.20;N52.04;10;
2;England;Worcestershire;Ullingswick;;W2.60;N52.13;10;
2;England;Worcestershire;Ullington;;W1.85;N52.12;10;
2;England;Worcestershire;Upcott;;W2.99;N52.14;10;
2;England;Worcestershire;Uphampton;;W2.89;N52.26;10;
2;England;Worcestershire;Uphampton;;W2.25;N52.27;10;
2;England;Worcestershire;Upper Arley;;W2.35;N52.41;10;
2;England;Worcestershire;Upper Bentley;;W2.01;N52.29;10;
2;England;Worcestershire;Upper Breinton;;W2.78;N52.05;10;
2;England;Worcestershire;Upper Broadheath;;W2.29;N52.20;10;
2;England;Worcestershire;Upper Broxwood;;W2.93;N52.17;10;
2;England;Worcestershire;Upper Buckenhill;;W2.59;N51.99;10;
2;England;Worcestershire;Upper Catshill;;W2.06;N52.36;10;
2;England;Worcestershire;Upper Colwall;;W2.35;N52.08;10;
2;England;Worcestershire;Upper Dormington;;W2.61;N52.04;10;
2;England;Worcestershire;Upper Egleton;;W2.54;N52.09;10;
2;England;Worcestershire;Upper Gambolds;;W2.04;N52.31;10;
2;England;Worcestershire;Upper Grove Common;;W2.65;N51.93;10;
2;England;Worcestershire;Upper Ham;;W2.22;N52.04;10;
2;England;Worcestershire;Upper Hamnish;;W2.67;N52.22;10;
2;England;Worcestershire;Upper Hardwick;;W2.87;N52.20;10;
2;England;Worcestershire;Upper Haselor;;W1.98;N52.06;10;
2;England;Worcestershire;Upper Hergest;;W3.08;N52.17;10;
2;England;Worcestershire;Upper Hill;;W2.77;N52.17;10;
2;England;Worcestershire;Upper Howsell;;W2.33;N52.13;10;
2;England;Worcestershire;Upper Kinsham;;W2.93;N52.27;10;
2;England;Worcestershire;Upper Lyde;;W2.74;N52.09;10;
2;England;Worcestershire;Upper Lye;;W2.89;N52.28;10;
2;England;Worcestershire;Upper Maes-coed;;W2.97;N52.00;10;
2;England;Worcestershire;Upper Moor;;W2.04;N52.12;10;
2;England;Worcestershire;Upper Rochford;;W2.55;N52.30;10;
2;England;Worcestershire;Upper Sapey;;W2.47;N52.26;10;
2;England;Worcestershire;Upper Strensham;;W2.14;N52.04;10;
2;England;Worcestershire;Upper Town;;W2.61;N52.13;10;
2;England;Worcestershire;Upper Welland;;W2.33;N52.05;10;
2;England;Worcestershire;Upper Welson;;W3.03;N52.15;10;
2;England;Worcestershire;Upper Wick;;W2.26;N52.17;10;
2;England;Worcestershire;Upper Wolverton;;W2.13;N52.14;10;
2;England;Worcestershire;Upper Wyche;;W2.33;N52.08;10;
2;England;Worcestershire;Upton Bishop;;W2.51;N51.94;10;
2;England;Worcestershire;Upton Crews;;W2.52;N51.94;10;
2;England;Worcestershire;Upton Snodsbury;;W2.08;N52.18;10;
2;England;Worcestershire;Upton upon Severn;;W2.22;N52.05;10;
2;England;Worcestershire;Upton Warren;;W2.10;N52.30;10;
2;England;Worcestershire;Urdimarsh;;W2.70;N52.12;10;
2;England;Worcestershire;Vale of Evesham;;W1.84;N52.08;10;
2;England;Worcestershire;Vauld;;W2.68;N52.13;10;
2;England;Worcestershire;Veldo;;W2.65;N52.08;10;
2;England;Worcestershire;Venn's Green;;W2.68;N52.12;10;
2;England;Worcestershire;Vowchurch;;W2.93;N52.01;10;
2;England;Worcestershire;Vowchurch Common;;W2.91;N52.02;10;
2;England;Worcestershire;Wacton;;W2.57;N52.21;10;
2;England;Worcestershire;Wadborough;;W2.14;N52.12;10;
2;England;Worcestershire;Walcot;;W2.08;N52.13;10;
2;England;Worcestershire;Walker's Green;;W2.70;N52.11;10;
2;England;Worcestershire;Waller's Green;;W2.48;N52.04;10;
2;England;Worcestershire;Walshes;;W2.29;N52.32;10;
2;England;Worcestershire;Walterstone;;W2.96;N51.91;10;
2;England;Worcestershire;Walton Pool;;W2.10;N52.40;10;
2;England;Worcestershire;Wants Green;;W2.35;N52.21;10;
2;England;Worcestershire;Waresley;;W2.23;N52.32;10;
2;England;Worcestershire;Warham;;W2.75;N52.04;10;
2;England;Worcestershire;Warndon;;W2.17;N52.20;10;
2;England;Worcestershire;Warndon;;W2.19;N52.20;10;
2;England;Worcestershire;Wayend Street;;W2.38;N52.02;10;
2;England;Worcestershire;Weatheroak Hill;;W1.92;N52.36;10;
2;England;Worcestershire;Weaven;;W2.67;N51.97;10;
2;England;Worcestershire;Webheath;;W1.98;N52.29;10;
2;England;Worcestershire;Welland;;W2.30;N52.04;10;
2;England;Worcestershire;Welland Stone;;W2.27;N52.04;10;
2;England;Worcestershire;Wellington;;W2.74;N52.12;10;
2;England;Worcestershire;Wellington Heath;;W2.42;N52.05;10;
2;England;Worcestershire;Welsh Newton;;W2.72;N51.84;10;
2;England;Worcestershire;Welsh Newton Common;;W2.71;N51.84;10;
2;England;Worcestershire;Weobley;;W2.87;N52.15;10;
2;England;Worcestershire;Weobley Marsh;;W2.86;N52.15;10;
2;England;Worcestershire;West End;;W1.87;N52.02;10;
2;England;Worcestershire;West Hagley;;W2.14;N52.41;10;
2;England;Worcestershire;West Lydiatt;;W2.65;N52.08;10;
2;England;Worcestershire;West Malvern;;W2.35;N52.11;10;
2;England;Worcestershire;West Town;;W2.82;N52.24;10;
2;England;Worcestershire;Westbrook;;W3.05;N52.08;10;
2;England;Worcestershire;Westfield;;W2.41;N52.12;10;
2;England;Worcestershire;Westfields;;W2.74;N52.07;10;
2;England;Worcestershire;Westhide;;W2.61;N52.09;10;
2;England;Worcestershire;Westhope;;W2.79;N52.15;10;
2;England;Worcestershire;Westlands;;W2.17;N52.27;10;
2;England;Worcestershire;Westmancote;;W2.10;N52.03;10;
2;England;Worcestershire;Weston;;W2.93;N52.19;10;
2;England;Worcestershire;Weston Beggard;;W2.61;N52.06;10;
2;England;Worcestershire;Weston under Penyard;;W2.55;N51.90;10;
2;England;Worcestershire;Wharton;;W2.73;N52.19;10;
2;England;Worcestershire;Whitbourne;;W2.41;N52.20;10;
2;England;Worcestershire;Whitchurch;;W2.66;N51.84;10;
2;England;Worcestershire;White Cross;;W2.74;N52.05;10;
2;England;Worcestershire;White End;;W2.32;N52.00;10;
2;England;Worcestershire;White Ladies Aston;;W2.11;N52.16;10;
2;England;Worcestershire;White Rocks;;W2.83;N51.91;10;
2;England;Worcestershire;White Stone;;W2.64;N52.07;10;
2;England;Worcestershire;Whitechurch Maund;;W2.64;N52.13;10;
2;England;Worcestershire;Whitney-on-Wye;;W3.08;N52.11;10;
2;England;Worcestershire;Whittington;;W2.19;N52.16;10;
2;England;Worcestershire;Whitton;;W2.86;N52.36;10;
2;England;Worcestershire;Whyle;;W2.66;N52.23;10;
2;England;Worcestershire;Wichenford;;W2.32;N52.23;10;
2;England;Worcestershire;Wick;;W2.05;N52.10;10;
2;England;Worcestershire;Wick Episcopi;;W2.25;N52.17;10;
2;England;Worcestershire;Wickhamford;;W1.91;N52.06;10;
2;England;Worcestershire;Widemarsh;;W2.73;N52.06;10;
2;England;Worcestershire;Wigmore;;W2.86;N52.31;10;
2;England;Worcestershire;Wilden;;W2.26;N52.34;10;
2;England;Worcestershire;Wildmoor;;W2.07;N52.37;10;
2;England;Worcestershire;Willersey;;W1.85;N52.04;10;
2;England;Worcestershire;Willersley;;W3.00;N52.11;10;
2;England;Worcestershire;Willow Green;;W2.35;N52.21;10;
2;England;Worcestershire;Wilson;;W2.65;N51.90;10;
2;England;Worcestershire;Wilton;;W2.61;N51.91;10;
2;England;Worcestershire;Windmill Hill;;W2.13;N52.13;10;
2;England;Worcestershire;Winforton;;W3.03;N52.11;10;
2;England;Worcestershire;Winnal;;W2.80;N52.00;10;
2;England;Worcestershire;Winnal Common;;W2.80;N52.00;10;
2;England;Worcestershire;Winnall;;W2.28;N52.30;10;
2;England;Worcestershire;Winslow Mill;;W2.55;N52.02;10;
2;England;Worcestershire;Winyates;;W1.89;N52.30;10;
2;England;Worcestershire;Winyates Green;;W1.88;N52.30;10;
2;England;Worcestershire;Withington;;W2.64;N52.08;10;
2;England;Worcestershire;Withington Marsh;;W2.65;N52.09;10;
2;England;Worcestershire;Withybed Green;;W1.98;N52.34;10;
2;England;Worcestershire;Witnells End;;W2.31;N52.42;10;
2;England;Worcestershire;Witton;;W2.16;N52.25;10;
2;England;Worcestershire;Witton Hill;;W2.35;N52.24;10;
2;England;Worcestershire;Wofferwood Common;;W2.45;N52.15;10;
2;England;Worcestershire;Wolferlow;;W2.49;N52.24;10;
2;England;Worcestershire;Wolverley;;W2.25;N52.40;10;
2;England;Worcestershire;Wood End;;W2.54;N52.06;10;
2;England;Worcestershire;Wood Green;;W2.29;N52.30;10;
2;England;Worcestershire;Wood Norton;;W1.98;N52.12;10;
2;England;Worcestershire;Woodcote Green;;W2.13;N52.34;10;
2;England;Worcestershire;Woodgate;;W2.06;N52.29;10;
2;England;Worcestershire;Woodgates Green;;W2.54;N52.32;10;
2;England;Worcestershire;Woodmancote;;W2.14;N52.07;10;
2;England;Worcestershire;Woodrow;;W1.92;N52.28;10;
2;England;Worcestershire;Woodrow;;W2.17;N52.37;10;
2;England;Worcestershire;Woods;;W3.03;N52.13;10;
2;England;Worcestershire;Woodsfield;;W2.27;N52.13;10;
2;England;Worcestershire;Woofferton;;W2.72;N52.30;10;
2;England;Worcestershire;Woolhope;;W2.56;N52.01;10;
2;England;Worcestershire;Woolhope Cockshoot;;W2.54;N52.03;10;
2;England;Worcestershire;Woolmere Green;;W2.06;N52.25;10;
2;England;Worcestershire;Woonton;;W2.95;N52.16;10;
2;England;Worcestershire;Woonton;;W2.67;N52.25;10;
2;England;Worcestershire;Wootton;;W2.59;N52.04;10;
2;England;Worcestershire;Wootton;;W2.99;N52.16;10;
2;England;Worcestershire;Worcester;;W2.22;N52.19;10;
2;England;Worcestershire;Worcester and Birmingham Canal;;W2.02;N52.31;10;
2;England;Worcestershire;Wormbridge;;W2.84;N51.97;10;
2;England;Worcestershire;Wormbridge Common;;W2.84;N51.97;10;
2;England;Worcestershire;Wormelow Tump;;W2.74;N51.96;10;
2;England;Worcestershire;Worms Ash;;W2.08;N52.34;10;
2;England;Worcestershire;Wormsley;;W2.84;N52.11;10;
2;England;Worcestershire;Wribbenhall;;W2.30;N52.37;10;
2;England;Worcestershire;Wychbold;;W2.11;N52.28;10;
2;England;Worcestershire;Wye;;W2.67;N52.04;10;
2;England;Worcestershire;Wylde;;W2.80;N52.30;10;
2;England;Worcestershire;Wymm;;W2.68;N52.11;10;
2;England;Worcestershire;Wynds Point;;W2.35;N52.05;10;
2;England;Worcestershire;Wynn's Green;;W2.58;N52.12;10;
2;England;Worcestershire;Wyre Piddle;;W2.05;N52.12;10;
2;England;Worcestershire;Wyson;;W2.72;N52.29;10;
2;England;Worcestershire;Wythall;;W1.89;N52.37;10;
2;England;Worcestershire;Yarhampton;;W2.33;N52.30;10;
2;England;Worcestershire;Yarhampton Cross;;W2.33;N52.30;10;
2;England;Worcestershire;Yarkhill;;W2.58;N52.07;10;
2;England;Worcestershire;Yarpole;;W2.77;N52.27;10;
2;England;Worcestershire;Yarsop;;W2.87;N52.11;10;
2;England;Worcestershire;Yatton;;W2.85;N52.28;10;
2;England;Worcestershire;Yazor;;W2.87;N52.10;10;