"Level";"Country";"County";"Place";"void";"Longitude";"Latitude";"ZoomLevel";"Icon"
2;England;Northamptonshire;Abington;;W0.87;N52.24;10;
2;England;Northamptonshire;Abington Vale;;W0.85;N52.24;10;
2;England;Northamptonshire;Abthorpe;;W1.06;N52.10;10;
2;England;Northamptonshire;Achurch;;W0.50;N52.42;10;
2;England;Northamptonshire;Adstone;;W1.13;N52.15;10;
2;England;Northamptonshire;Alderton;;W0.92;N52.10;10;
2;England;Northamptonshire;Aldwincle;;W0.53;N52.41;10;
2;England;Northamptonshire;Apethorpe;;W0.49;N52.54;10;
2;England;Northamptonshire;Armston;;W0.44;N52.45;10;
2;England;Northamptonshire;Arthingworth;;W0.89;N52.42;10;
2;England;Northamptonshire;Ashby St Ledgers;;W1.16;N52.30;10;
2;England;Northamptonshire;Ashley;;W0.83;N52.50;10;
2;England;Northamptonshire;Ashton;;W0.89;N52.13;10;
2;England;Northamptonshire;Ashton;;W0.45;N52.48;10;
2;England;Northamptonshire;Astcote;;W1.02;N52.17;10;
2;England;Northamptonshire;Aston le Walls;;W1.28;N52.14;10;
2;England;Northamptonshire;Astrop;;W1.27;N52.02;10;
2;England;Northamptonshire;Avon;;W1.04;N52.41;10;
2;England;Northamptonshire;Aynho;;W1.25;N51.99;10;
2;England;Northamptonshire;Badby;;W1.18;N52.21;10;
2;England;Northamptonshire;Barby;;W1.20;N52.32;10;
2;England;Northamptonshire;Barby Nortoft;;W1.19;N52.34;10;
2;England;Northamptonshire;Barnwell;;W0.47;N52.44;10;
2;England;Northamptonshire;Barton Seagrave;;W0.69;N52.38;10;
2;England;Northamptonshire;Blakesley;;W1.09;N52.14;10;
2;England;Northamptonshire;Blatherwycke;;W0.57;N52.54;10;
2;England;Northamptonshire;Blisworth;;W0.94;N52.17;10;
2;England;Northamptonshire;Boothville;;W0.85;N52.26;10;
2;England;Northamptonshire;Boughton;;W0.90;N52.27;10;
2;England;Northamptonshire;Bozeat;;W0.68;N52.21;10;
2;England;Northamptonshire;Brackley;;W1.15;N52.02;10;
2;England;Northamptonshire;Bradden;;W1.06;N52.12;10;
2;England;Northamptonshire;Brafield on the Green;;W0.80;N52.21;10;
2;England;Northamptonshire;Brampton Ash;;W0.83;N52.47;10;
2;England;Northamptonshire;Braunston;;W1.20;N52.28;10;
2;England;Northamptonshire;Braybrooke;;W0.88;N52.44;10;
2;England;Northamptonshire;Briar Hill;;W0.93;N52.22;10;
2;England;Northamptonshire;Brigstock;;W0.61;N52.45;10;
2;England;Northamptonshire;Brixworth;;W0.91;N52.32;10;
2;England;Northamptonshire;Brockhall;;W1.07;N52.25;10;
2;England;Northamptonshire;Broughton;;W0.78;N52.36;10;
2;England;Northamptonshire;Bugbrooke;;W1.02;N52.20;10;
2;England;Northamptonshire;Burton Latimer;;W0.69;N52.35;10;
2;England;Northamptonshire;Byfield;;W1.25;N52.17;10;
2;England;Northamptonshire;Caldecote;;W1.00;N52.15;10;
2;England;Northamptonshire;Caldecott;;W0.56;N52.30;10;
2;England;Northamptonshire;Canons Ashby;;W1.16;N52.14;10;
2;England;Northamptonshire;Carlton Purlieus;;W0.77;N52.47;10;
2;England;Northamptonshire;Castle Ashby;;W0.74;N52.22;10;
2;England;Northamptonshire;Castlethorpe;;W0.84;N52.08;10;
2;England;Northamptonshire;Cattle End;;W1.03;N52.08;10;
2;England;Northamptonshire;Chacombe;;W1.28;N52.08;10;
2;England;Northamptonshire;Chadstone;;W0.75;N52.21;10;
2;England;Northamptonshire;Chapel Brampton;;W0.94;N52.28;10;
2;England;Northamptonshire;Chapel End;;W0.36;N52.46;10;
2;England;Northamptonshire;Charlton;;W1.24;N52.02;10;
2;England;Northamptonshire;Charwelton;;W1.22;N52.19;10;
2;England;Northamptonshire;Chelveston;;W0.54;N52.31;10;
2;England;Northamptonshire;Cherwell;;W1.29;N51.98;10;
2;England;Northamptonshire;Chipping Warden;;W1.28;N52.12;10;
2;England;Northamptonshire;Church Brampton;;W0.96;N52.27;10;
2;England;Northamptonshire;Church Charwelton;;W1.21;N52.19;10;
2;England;Northamptonshire;Church Stowe;;W1.07;N52.20;10;
2;England;Northamptonshire;Clay Coton;;W1.13;N52.38;10;
2;England;Northamptonshire;Clipston;;W0.95;N52.42;10;
2;England;Northamptonshire;Clopton;;W0.44;N52.40;10;
2;England;Northamptonshire;Cogenhoe;;W0.80;N52.23;10;
2;England;Northamptonshire;Cold Ashby;;W1.04;N52.37;10;
2;England;Northamptonshire;Cold Higham;;W1.03;N52.17;10;
2;England;Northamptonshire;Collingtree;;W0.90;N52.18;10;
2;England;Northamptonshire;Collyweston;;W0.53;N52.60;10;
2;England;Northamptonshire;Corby;;W0.70;N52.49;10;
2;England;Northamptonshire;Cosgrove;;W0.84;N52.07;10;
2;England;Northamptonshire;Coton;;W1.01;N52.33;10;
2;England;Northamptonshire;Cotterstock;;W0.46;N52.49;10;
2;England;Northamptonshire;Cottesbrooke;;W0.97;N52.35;10;
2;England;Northamptonshire;Cottingham;;W0.76;N52.50;10;
2;England;Northamptonshire;Cotton End;;W0.90;N52.22;10;
2;England;Northamptonshire;Courteenhall;;W0.90;N52.17;10;
2;England;Northamptonshire;Cranford St Andrew;;W0.64;N52.38;10;
2;England;Northamptonshire;Cranford St John;;W0.64;N52.37;10;
2;England;Northamptonshire;Creaton;;W0.97;N52.33;10;
2;England;Northamptonshire;Crick;;W1.14;N52.34;10;
2;England;Northamptonshire;Croughton;;W1.21;N51.99;10;
2;England;Northamptonshire;Crowfield;;W1.11;N52.06;10;
2;England;Northamptonshire;Culworth;;W1.21;N52.10;10;
2;England;Northamptonshire;Dallington;;W0.93;N52.24;10;
2;England;Northamptonshire;Dalscote;;W1.00;N52.18;10;
2;England;Northamptonshire;Daventry;;W1.16;N52.25;10;
2;England;Northamptonshire;Deanshanger;;W0.89;N52.04;10;
2;England;Northamptonshire;Deene;;W0.61;N52.51;10;
2;England;Northamptonshire;Deenethorpe;;W0.60;N52.50;10;
2;England;Northamptonshire;Denford;;W0.54;N52.37;10;
2;England;Northamptonshire;Denton;;W0.78;N52.21;10;
2;England;Northamptonshire;Desborough;;W0.82;N52.43;10;
2;England;Northamptonshire;Dingley;;W0.86;N52.47;10;
2;England;Northamptonshire;Dodford;;W1.10;N52.23;10;
2;England;Northamptonshire;Draughton;;W0.88;N52.37;10;
2;England;Northamptonshire;Drayton;;W1.18;N52.25;10;
2;England;Northamptonshire;Duddington;;W0.55;N52.58;10;
2;England;Northamptonshire;Duncote;;W1.02;N52.14;10;
2;England;Northamptonshire;Duston;;W0.94;N52.23;10;
2;England;Northamptonshire;Eaglethorpe;;W0.42;N52.50;10;
2;England;Northamptonshire;Earls Barton;;W0.75;N52.25;10;
2;England;Northamptonshire;East Carlton;;W0.77;N52.49;10;
2;England;Northamptonshire;East Farndon;;W0.95;N52.45;10;
2;England;Northamptonshire;East Haddon;;W1.03;N52.30;10;
2;England;Northamptonshire;Eastcote;;W1.00;N52.17;10;
2;England;Northamptonshire;Easton Maudit;;W0.71;N52.21;10;
2;England;Northamptonshire;Easton on the Hill;;W0.52;N52.62;10;
2;England;Northamptonshire;Ecton;;W0.79;N52.25;10;
2;England;Northamptonshire;Ecton Brook;;W0.81;N52.25;10;
2;England;Northamptonshire;Edgcote;;W1.27;N52.11;10;
2;England;Northamptonshire;Elkington;;W1.09;N52.37;10;
2;England;Northamptonshire;Evenley;;W1.15;N52.00;10;
2;England;Northamptonshire;Everdon;;W1.13;N52.20;10;
2;England;Northamptonshire;Eydon;;W1.21;N52.14;10;
2;England;Northamptonshire;Falcutt;;W1.14;N52.07;10;
2;England;Northamptonshire;Far Cotton;;W0.90;N52.21;10;
2;England;Northamptonshire;Farndish;;W0.65;N52.25;10;
2;England;Northamptonshire;Farthinghoe;;W1.22;N52.04;10;
2;England;Northamptonshire;Farthingstone;;W1.10;N52.18;10;
2;England;Northamptonshire;Finedon;;W0.66;N52.33;10;
2;England;Northamptonshire;Flore;;W1.06;N52.23;10;
2;England;Northamptonshire;Foscote;;W1.03;N52.11;10;
2;England;Northamptonshire;Foster's Booth;;W1.03;N52.18;10;
2;England;Northamptonshire;Fotheringhay;;W0.45;N52.52;10;
2;England;Northamptonshire;Furtho;;W0.87;N52.08;10;
2;England;Northamptonshire;Gayton;;W0.97;N52.18;10;
2;England;Northamptonshire;Geddington;;W0.69;N52.43;10;
2;England;Northamptonshire;Glapthorn;;W0.49;N52.49;10;
2;England;Northamptonshire;Grafton Regis;;W0.90;N52.10;10;
2;England;Northamptonshire;Grafton Underwood;;W0.64;N52.41;10;
2;England;Northamptonshire;Grand Union Canal;;W1.05;N52.21;10;
2;England;Northamptonshire;Great Addington;;W0.60;N52.35;10;
2;England;Northamptonshire;Great Billing;;W0.81;N52.25;10;
2;England;Northamptonshire;Great Brington;;W1.03;N52.27;10;
2;England;Northamptonshire;Great Cransley;;W0.78;N52.37;10;
2;England;Northamptonshire;Great Doddington;;W0.71;N52.26;10;
2;England;Northamptonshire;Great Gidding;;W0.36;N52.43;10;
2;England;Northamptonshire;Great Harrowden;;W0.72;N52.32;10;
2;England;Northamptonshire;Great Houghton;;W0.84;N52.21;10;
2;England;Northamptonshire;Great Oakley;;W0.72;N52.45;10;
2;England;Northamptonshire;Great Ouse;;W0.90;N52.02;10;
2;England;Northamptonshire;Great Oxendon;;W0.92;N52.44;10;
2;England;Northamptonshire;Great Purston;;W1.25;N52.04;10;
2;England;Northamptonshire;Greatworth;;W1.19;N52.07;10;
2;England;Northamptonshire;Greens Norton;;W1.03;N52.13;10;
2;England;Northamptonshire;Grendon;;W0.72;N52.23;10;
2;England;Northamptonshire;Gretton;;W0.68;N52.53;10;
2;England;Northamptonshire;Grimscote;;W1.05;N52.17;10;
2;England;Northamptonshire;Guilsborough;;W1.01;N52.35;10;
2;England;Northamptonshire;Hackleton;;W0.83;N52.18;10;
2;England;Northamptonshire;Halse;;W1.18;N52.05;10;
2;England;Northamptonshire;Hanging Houghton;;W0.90;N52.35;10;
2;England;Northamptonshire;Hannington;;W0.81;N52.33;10;
2;England;Northamptonshire;Hardingstone;;W0.88;N52.20;10;
2;England;Northamptonshire;Hardwick;;W0.75;N52.31;10;
2;England;Northamptonshire;Harlestone;;W0.97;N52.27;10;
2;England;Northamptonshire;Harper's Brook;;W0.64;N52.47;10;
2;England;Northamptonshire;Harpole;;W0.99;N52.23;10;
2;England;Northamptonshire;Harrington;;W0.86;N52.41;10;
2;England;Northamptonshire;Harringworth;;W0.65;N52.56;10;
2;England;Northamptonshire;Hartwell;;W0.86;N52.14;10;
2;England;Northamptonshire;Haselbech;;W0.95;N52.38;10;
2;England;Northamptonshire;Hatton Park;;W0.71;N52.30;10;
2;England;Northamptonshire;Hellidon;;W1.25;N52.21;10;
2;England;Northamptonshire;Helmdon;;W1.15;N52.08;10;
2;England;Northamptonshire;Hemington;;W0.39;N52.45;10;
2;England;Northamptonshire;Higham Ferrers;;W0.59;N52.30;10;
2;England;Northamptonshire;Hinton;;W1.22;N52.16;10;
2;England;Northamptonshire;Hinton-in-the-Hedges;;W1.19;N52.01;10;
2;England;Northamptonshire;Holcot;;W0.84;N52.31;10;
2;England;Northamptonshire;Holdenby;;W0.98;N52.29;10;
2;England;Northamptonshire;Hollowell;;W1.00;N52.33;10;
2;England;Northamptonshire;Horton;;W0.81;N52.17;10;
2;England;Northamptonshire;Hulcote;;W0.97;N52.13;10;
2;England;Northamptonshire;Irchester;;W0.65;N52.27;10;
2;England;Northamptonshire;Irthlingborough;;W0.62;N52.32;10;
2;England;Northamptonshire;Ise;;W0.89;N52.41;10;
2;England;Northamptonshire;Isham;;W0.70;N52.34;10;
2;England;Northamptonshire;Islip;;W0.56;N52.40;10;
2;England;Northamptonshire;Kelmarsh;;W0.92;N52.40;10;
2;England;Northamptonshire;Kettering;;W0.72;N52.39;10;
2;England;Northamptonshire;Kilsby;;W1.17;N52.33;10;
2;England;Northamptonshire;King's Cliffe;;W0.52;N52.56;10;
2;England;Northamptonshire;King's Heath;;W0.93;N52.25;10;
2;England;Northamptonshire;Kings Sutton;;W1.27;N52.02;10;
2;England;Northamptonshire;Kingsley Park;;W0.88;N52.25;10;
2;England;Northamptonshire;Kingsthorpe;;W0.90;N52.26;10;
2;England;Northamptonshire;Kingsthorpe Hollow;;W0.90;N52.25;10;
2;England;Northamptonshire;Kislingbury;;W0.99;N52.22;10;
2;England;Northamptonshire;Knuston;;W0.63;N52.28;10;
2;England;Northamptonshire;Lamport;;W0.90;N52.35;10;
2;England;Northamptonshire;Laxton;;W0.61;N52.55;10;
2;England;Northamptonshire;Leam;;W1.24;N52.24;10;
2;England;Northamptonshire;Lilbourne;;W1.17;N52.37;10;
2;England;Northamptonshire;Litchborough;;W1.07;N52.18;10;
2;England;Northamptonshire;Little Addington;;W0.60;N52.34;10;
2;England;Northamptonshire;Little Billing;;W0.82;N52.25;10;
2;England;Northamptonshire;Little Brington;;W1.03;N52.26;10;
2;England;Northamptonshire;Little Cransley;;W0.78;N52.37;10;
2;England;Northamptonshire;Little Creaton;;W0.97;N52.33;10;
2;England;Northamptonshire;Little Everdon;;W1.13;N52.21;10;
2;England;Northamptonshire;Little Harrowden;;W0.73;N52.33;10;
2;England;Northamptonshire;Little Houghton;;W0.83;N52.22;10;
2;England;Northamptonshire;Little Irchester;;W0.68;N52.28;10;
2;England;Northamptonshire;Little Oakley;;W0.69;N52.45;10;
2;England;Northamptonshire;Loddington;;W0.81;N52.39;10;
2;England;Northamptonshire;Long Buckby;;W1.09;N52.29;10;
2;England;Northamptonshire;Long Buckby Wharf;;W1.10;N52.28;10;
2;England;Northamptonshire;Lower Benefield;;W0.55;N52.48;10;
2;England;Northamptonshire;Lower Boddington;;W1.29;N52.16;10;
2;England;Northamptonshire;Lower Catesby;;W1.25;N52.22;10;
2;England;Northamptonshire;Lower End;;W0.86;N52.14;10;
2;England;Northamptonshire;Lower End;;W0.81;N52.22;10;
2;England;Northamptonshire;Lower End;;W0.71;N52.24;10;
2;England;Northamptonshire;Lower Middleton Cheney;;W1.27;N52.06;10;
2;England;Northamptonshire;Lower Thorpe;;W1.22;N52.10;10;
2;England;Northamptonshire;Lower Weedon;;W1.09;N52.22;10;
2;England;Northamptonshire;Lowick;;W0.57;N52.40;10;
2;England;Northamptonshire;Luddington in the Brook;;W0.38;N52.43;10;
2;England;Northamptonshire;Lutton;;W0.36;N52.46;10;
2;England;Northamptonshire;Maidford;;W1.12;N52.16;10;
2;England;Northamptonshire;Maidwell;;W0.91;N52.37;10;
2;England;Northamptonshire;Marston St Lawrence;;W1.22;N52.07;10;
2;England;Northamptonshire;Marston Trussell;;W0.98;N52.45;10;
2;England;Northamptonshire;Mears Ashby;;W0.78;N52.28;10;
2;England;Northamptonshire;Middleton;;W0.77;N52.50;10;
2;England;Northamptonshire;Middleton Cheney;;W1.27;N52.06;10;
2;England;Northamptonshire;Milthorpe;;W1.13;N52.10;10;
2;England;Northamptonshire;Milton Malsor;;W0.93;N52.18;10;
2;England;Northamptonshire;Moreton Pinkney;;W1.16;N52.13;10;
2;England;Northamptonshire;Moulton;;W0.85;N52.28;10;
2;England;Northamptonshire;Moulton Park;;W0.87;N52.26;10;
2;England;Northamptonshire;Muscott;;W1.09;N52.26;10;
2;England;Northamptonshire;Naseby;;W1.00;N52.38;10;
2;England;Northamptonshire;Nassington;;W0.43;N52.55;10;
2;England;Northamptonshire;Nene;;W0.58;N52.33;10;
2;England;Northamptonshire;Nether Heyford;;W1.03;N52.21;10;
2;England;Northamptonshire;New Barton;;W0.75;N52.26;10;
2;England;Northamptonshire;New Duston;;W0.96;N52.25;10;
2;England;Northamptonshire;Newbottle;;W1.24;N52.02;10;
2;England;Northamptonshire;Newnham;;W1.16;N52.22;10;
2;England;Northamptonshire;Newton;;W0.70;N52.43;10;
2;England;Northamptonshire;Newton Bromswold;;W0.55;N52.27;10;
2;England;Northamptonshire;Nobottle;;W1.01;N52.26;10;
2;England;Northamptonshire;Northampton;;W0.90;N52.24;10;
2;England;Northamptonshire;Northfield;;W0.68;N52.52;10;
2;England;Northamptonshire;Norton;;W1.12;N52.26;10;
2;England;Northamptonshire;Old;;W0.85;N52.34;10;
2;England;Northamptonshire;Old Stratford;;W0.87;N52.06;10;
2;England;Northamptonshire;Orlingbury;;W0.73;N52.33;10;
2;England;Northamptonshire;Orton;;W0.82;N52.40;10;
2;England;Northamptonshire;Oundle;;W0.48;N52.48;10;
2;England;Northamptonshire;Overstone;;W0.82;N52.28;10;
2;England;Northamptonshire;Overthorpe;;W1.30;N52.05;10;
2;England;Northamptonshire;Papley;;W0.38;N52.48;10;
2;England;Northamptonshire;Pattishall;;W1.02;N52.18;10;
2;England;Northamptonshire;Paulerspury;;W0.96;N52.09;10;
2;England;Northamptonshire;Piddington;;W0.83;N52.17;10;
2;England;Northamptonshire;Pilton;;W0.50;N52.44;10;
2;England;Northamptonshire;Pipewell;;W0.77;N52.45;10;
2;England;Northamptonshire;Pitsford;;W0.90;N52.30;10;
2;England;Northamptonshire;Pitsford Reservoir;;W0.88;N52.31;10;
2;England;Northamptonshire;Plumpton;;W1.13;N52.12;10;
2;England;Northamptonshire;Plumpton End;;W0.95;N52.09;10;
2;England;Northamptonshire;Polebrook;;W0.44;N52.47;10;
2;England;Northamptonshire;Polopit;;W0.50;N52.39;10;
2;England;Northamptonshire;Potterspury;;W0.90;N52.08;10;
2;England;Northamptonshire;Preston Capes;;W1.16;N52.18;10;
2;England;Northamptonshire;Preston Deanery;;W0.86;N52.18;10;
2;England;Northamptonshire;Pury End;;W0.97;N52.09;10;
2;England;Northamptonshire;Puxley;;W0.90;N52.06;10;
2;England;Northamptonshire;Pytchley;;W0.75;N52.35;10;
2;England;Northamptonshire;Queen's Park;;W0.90;N52.25;10;
2;England;Northamptonshire;Quinbury End;;W1.09;N52.14;10;
2;England;Northamptonshire;Quinton;;W0.87;N52.17;10;
2;England;Northamptonshire;Radstone;;W1.15;N52.05;10;
2;England;Northamptonshire;Raunds;;W0.54;N52.33;10;
2;England;Northamptonshire;Ravensthorpe;;W1.03;N52.32;10;
2;England;Northamptonshire;Ringstead;;W0.56;N52.36;10;
2;England;Northamptonshire;Road Weedon;;W1.07;N52.22;10;
2;England;Northamptonshire;Roade;;W0.90;N52.15;10;
2;England;Northamptonshire;Rockingham;;W0.73;N52.51;10;
2;England;Northamptonshire;Rothersthorpe;;W0.96;N52.19;10;
2;England;Northamptonshire;Rothwell;;W0.81;N52.42;10;
2;England;Northamptonshire;Round Spinney;;W0.84;N52.27;10;
2;England;Northamptonshire;Rushden;;W0.60;N52.28;10;
2;England;Northamptonshire;Rushton;;W0.76;N52.42;10;
2;England;Northamptonshire;Scaldwell;;W0.88;N52.34;10;
2;England;Northamptonshire;Shelfleys;;W0.93;N52.20;10;
2;England;Northamptonshire;Shotley;;W0.64;N52.56;10;
2;England;Northamptonshire;Shutlanger;;W0.94;N52.13;10;
2;England;Northamptonshire;Sibbertoft;;W1.00;N52.43;10;
2;England;Northamptonshire;Silverstone;;W1.03;N52.09;10;
2;England;Northamptonshire;Slapton;;W1.06;N52.10;10;
2;England;Northamptonshire;Slipton;;W0.60;N52.40;10;
2;England;Northamptonshire;Southwick;;W0.51;N52.51;10;
2;England;Northamptonshire;Spinney Hill;;W0.87;N52.26;10;
2;England;Northamptonshire;Spratton;;W0.95;N52.32;10;
2;England;Northamptonshire;St James's End;;W0.91;N52.23;10;
2;England;Northamptonshire;Stanford on Avon;;W1.14;N52.39;10;
2;England;Northamptonshire;Stanion;;W0.66;N52.46;10;
2;England;Northamptonshire;Stanwick;;W0.57;N52.32;10;
2;England;Northamptonshire;Staverton;;W1.22;N52.24;10;
2;England;Northamptonshire;Stoke Albany;;W0.82;N52.47;10;
2;England;Northamptonshire;Stoke Bruerne;;W0.92;N52.13;10;
2;England;Northamptonshire;Stoke Doyle;;W0.49;N52.46;10;
2;England;Northamptonshire;Strixton;;W0.68;N52.24;10;
2;England;Northamptonshire;Sudborough;;W0.58;N52.42;10;
2;England;Northamptonshire;Sulgrave;;W1.19;N52.10;10;
2;England;Northamptonshire;Sutton Bassett;;W0.86;N52.50;10;
2;England;Northamptonshire;Syresham;;W1.09;N52.06;10;
2;England;Northamptonshire;Sywell;;W0.79;N52.29;10;
2;England;Northamptonshire;Tansor;;W0.45;N52.50;10;
2;England;Northamptonshire;Teeton;;W0.98;N52.32;10;
2;England;Northamptonshire;The Green;;W0.84;N52.07;10;
2;England;Northamptonshire;Thenford;;W1.25;N52.06;10;
2;England;Northamptonshire;Thornby;;W1.03;N52.36;10;
2;England;Northamptonshire;Thorpe Malsor;;W0.78;N52.40;10;
2;England;Northamptonshire;Thorpe Mandeville;;W1.22;N52.09;10;
2;England;Northamptonshire;Thorpe Underwood;;W0.85;N52.42;10;
2;England;Northamptonshire;Thorpe Waterville;;W0.50;N52.41;10;
2;England;Northamptonshire;Thrapston;;W0.54;N52.39;10;
2;England;Northamptonshire;Thurning;;W0.41;N52.43;10;
2;England;Northamptonshire;Tiffield;;W0.99;N52.15;10;
2;England;Northamptonshire;Til;;W0.55;N52.27;10;
2;England;Northamptonshire;Titchmarsh;;W0.50;N52.39;10;
2;England;Northamptonshire;Tove;;W0.89;N52.11;10;
2;England;Northamptonshire;Towcester;;W0.99;N52.12;10;
2;England;Northamptonshire;Twywell;;W0.60;N52.39;10;
2;England;Northamptonshire;Upper Astrop;;W1.25;N52.02;10;
2;England;Northamptonshire;Upper Benefield;;W0.55;N52.49;10;
2;England;Northamptonshire;Upper Boddington;;W1.29;N52.17;10;
2;England;Northamptonshire;Upper Catesby;;W1.24;N52.22;10;
2;England;Northamptonshire;Upper Heyford;;W1.03;N52.22;10;
2;England;Northamptonshire;Upper Stowe;;W1.06;N52.19;10;
2;England;Northamptonshire;Upper Weedon;;W1.09;N52.21;10;
2;England;Northamptonshire;Upton;;W0.96;N52.23;10;
2;England;Northamptonshire;Wadenhoe;;W0.51;N52.43;10;
2;England;Northamptonshire;Wakerley;;W0.59;N52.58;10;
2;England;Northamptonshire;Walgrave;;W0.82;N52.34;10;
2;England;Northamptonshire;Walton Grounds;;W1.27;N52.00;10;
2;England;Northamptonshire;Wansford;;W0.42;N52.57;10;
2;England;Northamptonshire;Wappenham;;W1.09;N52.10;10;
2;England;Northamptonshire;Warkton;;W0.69;N52.40;10;
2;England;Northamptonshire;Warkworth;;W1.30;N52.05;10;
2;England;Northamptonshire;Warmington;;W0.42;N52.50;10;
2;England;Northamptonshire;Warmonds Hill;;W0.60;N52.30;10;
2;England;Northamptonshire;Watford;;W1.12;N52.30;10;
2;England;Northamptonshire;Weedon Bec;;W1.09;N52.22;10;
2;England;Northamptonshire;Weedon Lois;;W1.12;N52.11;10;
2;England;Northamptonshire;Weekley;;W0.70;N52.41;10;
2;England;Northamptonshire;Weldon;;W0.64;N52.49;10;
2;England;Northamptonshire;Welford;;W1.06;N52.41;10;
2;England;Northamptonshire;Welland;;W0.57;N52.58;10;
2;England;Northamptonshire;Wellingborough;;W0.69;N52.29;10;
2;England;Northamptonshire;Welton;;W1.15;N52.28;10;
2;England;Northamptonshire;West Farndon;;W1.24;N52.15;10;
2;England;Northamptonshire;West Haddon;;W1.07;N52.33;10;
2;England;Northamptonshire;Westhorp;;W1.25;N52.17;10;
2;England;Northamptonshire;Weston;;W1.15;N52.10;10;
2;England;Northamptonshire;Weston by Welland;;W0.86;N52.51;10;
2;England;Northamptonshire;Weston Favell;;W0.84;N52.25;10;
2;England;Northamptonshire;Whilton;;W1.07;N52.27;10;
2;England;Northamptonshire;Whilton Locks;;W1.10;N52.27;10;
2;England;Northamptonshire;Whiston;;W0.77;N52.23;10;
2;England;Northamptonshire;White Hills;;W0.91;N52.26;10;
2;England;Northamptonshire;Whitfield;;W1.12;N52.04;10;
2;England;Northamptonshire;Whittlebury;;W0.99;N52.08;10;
2;England;Northamptonshire;Wicken;;W0.92;N52.04;10;
2;England;Northamptonshire;Wigsthorpe;;W0.47;N52.42;10;
2;England;Northamptonshire;Wilbarston;;W0.80;N52.48;10;
2;England;Northamptonshire;Wilby;;W0.74;N52.28;10;
2;England;Northamptonshire;Willow Brook;;W0.67;N52.50;10;
2;England;Northamptonshire;Winwick;;W1.09;N52.35;10;
2;England;Northamptonshire;Wollaston;;W0.66;N52.24;10;
2;England;Northamptonshire;Wood Burcote;;W0.99;N52.10;10;
2;England;Northamptonshire;Woodend;;W1.11;N52.13;10;
2;England;Northamptonshire;Woodford;;W0.59;N52.38;10;
2;England;Northamptonshire;Woodford Halse;;W1.21;N52.16;10;
2;England;Northamptonshire;Woodnewton;;W0.48;N52.53;10;
2;England;Northamptonshire;Woodwell;;W0.60;N52.38;10;
2;England;Northamptonshire;Wootton;;W0.88;N52.19;10;
2;England;Northamptonshire;Wothorpe;;W0.49;N52.63;10;
2;England;Northamptonshire;Yardley Gobion;;W0.89;N52.08;10;
2;England;Northamptonshire;Yardley Hastings;;W0.74;N52.19;10;
2;England;Northamptonshire;Yarwell;;W0.43;N52.56;10;
2;England;Northamptonshire;Yelvertoft;;W1.13;N52.37;10;