"Level";"Country";"County";"Place";"void";"Longitude";"Latitude";"ZoomLevel";"Icon"
2;England;Dorset;Abbotsbury;;W2.60;N50.66;10;
2;England;Dorset;Acton;;W2.02;N50.60;10;
2;England;Dorset;Adam's Green;;W2.65;N50.86;10;
2;England;Dorset;Adber;;W2.58;N50.97;10;
2;England;Dorset;Affpuddle;;W2.28;N50.73;10;
2;England;Dorset;Alcester;;W2.21;N50.99;10;
2;England;Dorset;Alderholt;;W1.83;N50.90;10;
2;England;Dorset;Alderney;;W1.94;N50.74;10;
2;England;Dorset;Allen;;W1.98;N50.88;10;
2;England;Dorset;Aller;;W2.34;N50.81;10;
2;England;Dorset;Allington;;W2.76;N50.73;10;
2;England;Dorset;Almer;;W2.12;N50.78;10;
2;England;Dorset;Alton Pancras;;W2.44;N50.81;10;
2;England;Dorset;Alweston;;W2.48;N50.92;10;
2;England;Dorset;Ameysford;;W1.90;N50.81;10;
2;England;Dorset;Ammerham;;W2.91;N50.84;10;
2;England;Dorset;Anderson;;W2.18;N50.77;10;
2;England;Dorset;Ansty Cross;;W2.34;N50.82;10;
2;England;Dorset;Arne;;W2.04;N50.69;10;
2;England;Dorset;Ash (near Salway);;W2.76;N50.76;10;
2;England;Dorset;Ash (near Stourpaine);;W2.20;N50.88;10;
2;England;Dorset;Ashford;;W1.81;N50.92;10;
2;England;Dorset;Ashington;;W2.00;N50.78;10;
2;England;Dorset;Ashley;;W1.81;N50.83;10;
2;England;Dorset;Ashley Heath;;W1.84;N50.83;10;
2;England;Dorset;Ashmore;;W2.12;N50.95;10;
2;England;Dorset;Askerswell;;W2.68;N50.72;10;
2;England;Dorset;Athelhampton;;W2.32;N50.74;10;
2;England;Dorset;Atrim;;W2.79;N50.75;10;
2;England;Dorset;Avon;;W1.79;N50.77;10;
2;England;Dorset;Avon;;W1.80;N50.78;10;
2;England;Dorset;Axe;;W2.81;N50.84;10;
2;England;Dorset;Bagber;;W2.35;N50.91;10;
2;England;Dorset;Barrow Hill;;W2.07;N50.76;10;
2;England;Dorset;Batcombe;;W2.55;N50.83;10;
2;England;Dorset;Bay;;W2.27;N51.03;10;
2;England;Dorset;Beacon Hill;;W2.04;N50.74;10;
2;England;Dorset;Beaminster;;W2.75;N50.80;10;
2;England;Dorset;Bear Cross;;W1.93;N50.76;10;
2;England;Dorset;Bearwood;;W1.93;N50.77;10;
2;England;Dorset;Beaulieu Wood;;W2.42;N50.85;10;
2;England;Dorset;Bedchester;;W2.21;N50.95;10;
2;England;Dorset;Beer Hackett;;W2.58;N50.89;10;
2;England;Dorset;Belchalwell;;W2.29;N50.88;10;
2;England;Dorset;Belchalwell Street;;W2.29;N50.88;10;
2;England;Dorset;Benville;;W2.65;N50.82;10;
2;England;Dorset;Bere Regis;;W2.22;N50.75;10;
2;England;Dorset;Bettiscombe;;W2.86;N50.79;10;
2;England;Dorset;Bill Of Portland;;W2.45;N50.51;10;
2;England;Dorset;Bincombe;;W2.45;N50.65;10;
2;England;Dorset;Binnegar;;W2.18;N50.68;10;
2;England;Dorset;Birdsmoorgate;;W2.86;N50.79;10;
2;England;Dorset;Bishop's Caundle;;W2.44;N50.91;10;
2;England;Dorset;Bishop's Down;;W2.47;N50.90;10;
2;England;Dorset;Bittles Green;;W2.21;N51.01;10;
2;England;Dorset;Blackdown;;W2.86;N50.82;10;
2;England;Dorset;Blackney;;W2.82;N50.78;10;
2;England;Dorset;Blacknoll;;W2.28;N50.67;10;
2;England;Dorset;Blandford Camp;;W2.11;N50.87;10;
2;England;Dorset;Blandford Forum;;W2.17;N50.85;10;
2;England;Dorset;Blandford St Mary;;W2.17;N50.84;10;
2;England;Dorset;Bloxworth;;W2.17;N50.74;10;
2;England;Dorset;Bluntshay;;W2.83;N50.76;10;
2;England;Dorset;Bookham;;W2.42;N50.83;10;
2;England;Dorset;Borough The;;W2.42;N50.89;10;
2;England;Dorset;Bothenhampton;;W2.76;N50.71;10;
2;England;Dorset;Bourne Valley;;W1.91;N50.73;10;
2;England;Dorset;Bourton;;W2.34;N51.06;10;
2;England;Dorset;Boveridge;;W1.91;N50.92;10;
2;England;Dorset;Bovington Camp;;W2.24;N50.70;10;
2;England;Dorset;Bowden;;W2.32;N51.00;10;
2;England;Dorset;Bowridge Hill;;W2.27;N51.04;10;
2;England;Dorset;Boys Hill;;W2.47;N50.88;10;
2;England;Dorset;Bradford Abbas;;W2.59;N50.92;10;
2;England;Dorset;Bradford Peverell;;W2.49;N50.72;10;
2;England;Dorset;Bradpole;;W2.75;N50.74;10;
2;England;Dorset;Bramblecombe;;W2.32;N50.79;10;
2;England;Dorset;Branksome;;W1.93;N50.72;10;
2;England;Dorset;Branksome Park;;W1.93;N50.70;10;
2;England;Dorset;Bransgore;;W1.74;N50.77;10;
2;England;Dorset;Braytown;;W2.24;N50.67;10;
2;England;Dorset;Briantspuddle;;W2.27;N50.73;10;
2;England;Dorset;Bridge;;W2.91;N50.84;10;
2;England;Dorset;Bridport;;W2.76;N50.72;10;
2;England;Dorset;Broad Oak;;W2.31;N50.90;10;
2;England;Dorset;Broadmayne;;W2.39;N50.67;10;
2;England;Dorset;Broadoak;;W2.80;N50.76;10;
2;England;Dorset;Broadstone;;W2.00;N50.75;10;
2;England;Dorset;Broadwey;;W2.48;N50.64;10;
2;England;Dorset;Broadwindsor;;W2.81;N50.81;10;
2;England;Dorset;Brockhampton Green;;W2.41;N50.85;10;
2;England;Dorset;Broom Hill;;W1.95;N50.81;10;
2;England;Dorset;Brownsea Island;;W1.97;N50.69;10;
2;England;Dorset;Bryanston;;W2.18;N50.85;10;
2;England;Dorset;Buckham;;W2.75;N50.82;10;
2;England;Dorset;Buckhorn Weston;;W2.35;N51.01;10;
2;England;Dorset;Buckland Newton;;W2.44;N50.84;10;
2;England;Dorset;Buckland Ripers;;W2.51;N50.63;10;
2;England;Dorset;Bugley;;W2.31;N51.01;10;
2;England;Dorset;Burleston;;W2.32;N50.74;10;
2;England;Dorset;Burstock;;W2.82;N50.82;10;
2;England;Dorset;Burton;;W2.45;N50.71;10;
2;England;Dorset;Burton;;W1.77;N50.74;10;
2;England;Dorset;Burton Bradstock;;W2.73;N50.69;10;
2;England;Dorset;Bushey;;W2.02;N50.64;10;
2;England;Dorset;Cale;;W2.34;N50.97;10;
2;England;Dorset;Camel Green;;W1.83;N50.90;10;
2;England;Dorset;Camesworth;;W2.75;N50.77;10;
2;England;Dorset;Canford Cliffs;;W1.93;N50.70;10;
2;England;Dorset;Canford Heath;;W1.97;N50.74;10;
2;England;Dorset;Canford Magna;;W1.95;N50.78;10;
2;England;Dorset;Cann;;W2.18;N50.98;10;
2;England;Dorset;Cann Common;;W2.17;N50.98;10;
2;England;Dorset;Cashmoor;;W2.04;N50.91;10;
2;England;Dorset;Castletown;;W2.45;N50.56;10;
2;England;Dorset;Catherston Leweston;;W2.89;N50.74;10;
2;England;Dorset;Cattistock;;W2.58;N50.78;10;
2;England;Dorset;Caundle Marsh;;W2.47;N50.91;10;
2;England;Dorset;Cerne;;W2.46;N50.78;10;
2;England;Dorset;Cerne Abbas;;W2.48;N50.80;10;
2;England;Dorset;Chalbury;;W1.98;N50.85;10;
2;England;Dorset;Chalbury Common;;W1.97;N50.85;10;
2;England;Dorset;Chaldon Herring (East Chaldon);;W2.29;N50.64;10;
2;England;Dorset;Chalmington;;W2.58;N50.79;10;
2;England;Dorset;Champernhayes Marsh;;W2.92;N50.76;10;
2;England;Dorset;Char;;W2.81;N50.77;10;
2;England;Dorset;Chard Junction;;W2.93;N50.83;10;
2;England;Dorset;Charlestown;;W2.51;N50.60;10;
2;England;Dorset;Charlton Marshall;;W2.14;N50.82;10;
2;England;Dorset;Charlton on the Hill;;W2.15;N50.82;10;
2;England;Dorset;Charminster;;W2.45;N50.72;10;
2;England;Dorset;Charmouth;;W2.90;N50.73;10;
2;England;Dorset;Chedington;;W2.73;N50.84;10;
2;England;Dorset;Cheselbourne;;W2.34;N50.79;10;
2;England;Dorset;Chesil;;W2.45;N50.55;10;
2;England;Dorset;Chesil Beach;;W2.53;N50.61;10;
2;England;Dorset;Chetnole;;W2.56;N50.87;10;
2;England;Dorset;Chettle;;W2.07;N50.91;10;
2;England;Dorset;Chickerell;;W2.51;N50.61;10;
2;England;Dorset;Chideock;;W2.82;N50.72;10;
2;England;Dorset;Chilbridge;;W2.01;N50.80;10;
2;England;Dorset;Chilcombe;;W2.68;N50.71;10;
2;England;Dorset;Child Okeford;;W2.24;N50.90;10;
2;England;Dorset;Chilfrome;;W2.59;N50.78;10;
2;England;Dorset;Church Knowle;;W2.10;N50.62;10;
2;England;Dorset;Clapgate;;W1.98;N50.81;10;
2;England;Dorset;Clifton Maybank;;W2.61;N50.91;10;
2;England;Dorset;Cobley;;W1.97;N50.97;10;
2;England;Dorset;Cocknowle;;W2.10;N50.62;10;
2;England;Dorset;Cold Harbour;;W2.14;N50.70;10;
2;England;Dorset;Coldharbour;;W2.49;N50.62;10;
2;England;Dorset;Colehill;;W1.97;N50.79;10;
2;England;Dorset;Cole's Cross;;W2.86;N50.81;10;
2;England;Dorset;Colesbrook;;W2.28;N51.04;10;
2;England;Dorset;Combe Almer;;W2.07;N50.77;10;
2;England;Dorset;Compton Abbas;;W2.18;N50.96;10;
2;England;Dorset;Compton Valence;;W2.58;N50.73;10;
2;England;Dorset;Coneygar;;W2.76;N50.73;10;
2;England;Dorset;Coombe;;W2.90;N50.76;10;
2;England;Dorset;Coombe Keynes;;W2.22;N50.65;10;
2;England;Dorset;Corfe;;W2.05;N50.64;10;
2;England;Dorset;Corfe Castle;;W2.05;N50.62;10;
2;England;Dorset;Corfe Mullen;;W2.02;N50.77;10;
2;England;Dorset;Corscombe;;W2.69;N50.84;10;
2;England;Dorset;Coryates;;W2.53;N50.66;10;
2;England;Dorset;Cosmore;;W2.47;N50.84;10;
2;England;Dorset;Court Orchard;;W2.76;N50.73;10;
2;England;Dorset;Cowgrove;;W2.02;N50.79;10;
2;England;Dorset;Crab Orchard;;W1.88;N50.85;10;
2;England;Dorset;Cranborne;;W1.93;N50.91;10;
2;England;Dorset;Cranborne Chase;;W2.11;N50.93;10;
2;England;Dorset;Creech;;W2.12;N50.64;10;
2;England;Dorset;Creech Bottom;;W2.11;N50.65;10;
2;England;Dorset;Creekmoor;;W2.00;N50.73;10;
2;England;Dorset;Crendell;;W1.88;N50.91;10;
2;England;Dorset;Cripplestyle;;W1.87;N50.90;10;
2;England;Dorset;Crooked Withies;;W1.93;N50.84;10;
2;England;Dorset;Cross Lanes;;W2.34;N50.81;10;
2;England;Dorset;Crossways;;W2.32;N50.69;10;
2;England;Dorset;Crouch Hill;;W2.42;N50.88;10;
2;England;Dorset;Cruxton;;W2.56;N50.76;10;
2;England;Dorset;Daggons;;W1.85;N50.90;10;
2;England;Dorset;Dean;;W2.04;N50.93;10;
2;England;Dorset;Deanend;;W2.04;N50.95;10;
2;England;Dorset;Deanland;;W2.01;N50.96;10;
2;England;Dorset;Dewlands Common;;W1.90;N50.87;10;
2;England;Dorset;Dewlish;;W2.32;N50.78;10;
2;England;Dorset;Dibberford;;W2.78;N50.82;10;
2;England;Dorset;Dorchester;;W2.45;N50.70;10;
2;England;Dorset;Dottery;;W2.78;N50.75;10;
2;England;Dorset;Dragon's Hill;;W2.93;N50.73;10;
2;England;Dorset;Drimpton;;W2.83;N50.84;10;
2;England;Dorset;Drive End;;W2.61;N50.86;10;
2;England;Dorset;Droop;;W2.35;N50.87;10;
2;England;Dorset;Dudsbury;;W1.90;N50.78;10;
2;England;Dorset;Duntish;;W2.44;N50.85;10;
2;England;Dorset;Durlston Head;;W1.96;N50.59;10;
2;England;Dorset;Durweston;;W2.21;N50.87;10;
2;England;Dorset;East Bloxworth;;W2.15;N50.74;10;
2;England;Dorset;East Burton;;W2.24;N50.67;10;
2;England;Dorset;East Chaldon (Chaldon Herring);;W2.29;N50.64;10;
2;England;Dorset;East Chelborough;;W2.64;N50.84;10;
2;England;Dorset;East Compton;;W2.18;N50.96;10;
2;England;Dorset;East Creech;;W2.11;N50.63;10;
2;England;Dorset;East End;;W2.01;N50.78;10;
2;England;Dorset;East Fleet;;W2.52;N50.61;10;
2;England;Dorset;East Holme;;W2.15;N50.67;10;
2;England;Dorset;East Holton;;W2.05;N50.71;10;
2;England;Dorset;East Knighton;;W2.27;N50.66;10;
2;England;Dorset;East Lulworth;;W2.19;N50.63;10;
2;England;Dorset;East Melbury;;W2.17;N50.97;10;
2;England;Dorset;East Morden;;W2.12;N50.75;10;
2;England;Dorset;East Orchard;;W2.24;N50.95;10;
2;England;Dorset;East Parley;;W1.85;N50.77;10;
2;England;Dorset;East Pulham;;W2.39;N50.87;10;
2;England;Dorset;East Stoke;;W2.18;N50.67;10;
2;England;Dorset;East Stour;;W2.30;N50.99;10;
2;England;Dorset;East Stour Common;;W2.27;N51.00;10;
2;England;Dorset;Easton;;W2.43;N50.53;10;
2;England;Dorset;Ebblake;;W1.85;N50.86;10;
2;England;Dorset;Eccliffe;;W2.30;N51.02;10;
2;England;Dorset;Edmondsham;;W1.91;N50.89;10;
2;England;Dorset;Elm Hill;;W2.22;N51.03;10;
2;England;Dorset;Elwell;;W2.48;N50.65;10;
2;England;Dorset;Enmore Green;;W2.21;N51.00;10;
2;England;Dorset;Evershot;;W2.61;N50.83;10;
2;England;Dorset;Eype's Mouth;;W2.79;N50.71;10;
2;England;Dorset;Fairmile;;W1.78;N50.74;10;
2;England;Dorset;Farnham;;W2.07;N50.93;10;
2;England;Dorset;Farrington;;W2.22;N50.93;10;
2;England;Dorset;Ferndown;;W1.90;N50.79;10;
2;England;Dorset;Fiddleford;;W2.28;N50.91;10;
2;England;Dorset;Fifehead Magdalen;;W2.31;N50.98;10;
2;England;Dorset;Fifehead Neville;;W2.34;N50.88;10;
2;England;Dorset;Fifehead St Quintin;;W2.32;N50.88;10;
2;England;Dorset;Filford;;W2.79;N50.77;10;
2;England;Dorset;Fishpond Bottom;;W2.90;N50.77;10;
2;England;Dorset;Fleet;;W2.52;N50.61;10;
2;England;Dorset;Folke;;W2.49;N50.91;10;
2;England;Dorset;Folly;;W2.39;N50.82;10;
2;England;Dorset;Fontmell Magna;;W2.20;N50.94;10;
2;England;Dorset;Fontmell Parva;;W2.25;N50.92;10;
2;England;Dorset;Forston;;W2.48;N50.75;10;
2;England;Dorset;Fortuneswell;;W2.45;N50.55;10;
2;England;Dorset;Frampton;;W2.54;N50.75;10;
2;England;Dorset;Friars Cliff;;W1.73;N50.72;10;
2;England;Dorset;Frome;;W2.42;N50.71;10;
2;England;Dorset;Frome St Quintin;;W2.58;N50.81;10;
2;England;Dorset;Furleigh Cross;;W2.78;N50.77;10;
2;England;Dorset;Furzebrook;;W2.10;N50.64;10;
2;England;Dorset;Furzehill;;W1.98;N50.81;10;
2;England;Dorset;Furzey Island;;W1.98;N50.68;10;
2;England;Dorset;Gannetts;;W2.30;N50.97;10;
2;England;Dorset;Gaunt's Common;;W1.97;N50.84;10;
2;England;Dorset;Giddy Green;;W2.24;N50.67;10;
2;England;Dorset;Gillingham;;W2.28;N51.03;10;
2;England;Dorset;Glanvilles Wootton;;W2.47;N50.87;10;
2;England;Dorset;Goathill;;W2.47;N50.95;10;
2;England;Dorset;Godmanstone;;W2.48;N50.77;10;
2;England;Dorset;God's Blessing Green;;W1.95;N50.82;10;
2;England;Dorset;Gold Hill;;W2.25;N50.91;10;
2;England;Dorset;Gore;;W2.58;N50.96;10;
2;England;Dorset;Gotham;;W1.88;N50.89;10;
2;England;Dorset;Grange;;W1.98;N50.81;10;
2;England;Dorset;Grange Estate;;W1.84;N50.80;10;
2;England;Dorset;Greenham;;W2.85;N50.83;10;
2;England;Dorset;Gribb;;W2.89;N50.82;10;
2;England;Dorset;Grimstone;;W2.51;N50.74;10;
2;England;Dorset;Grove;;W2.43;N50.54;10;
2;England;Dorset;Gussage All Saints;;W2.00;N50.88;10;
2;England;Dorset;Gussage St Andrew;;W2.04;N50.92;10;
2;England;Dorset;Gussage St Michael;;W2.02;N50.89;10;
2;England;Dorset;Guy's Marsh;;W2.22;N50.97;10;
2;England;Dorset;Hains;;W2.32;N50.97;10;
2;England;Dorset;Halstock;;W2.66;N50.86;10;
2;England;Dorset;Ham Common;;W2.27;N51.02;10;
2;England;Dorset;Hamlet;;W2.58;N50.87;10;
2;England;Dorset;Hammoon;;W2.27;N50.92;10;
2;England;Dorset;Hampreston;;W1.93;N50.78;10;
2;England;Dorset;Hamworthy;;W2.01;N50.71;10;
2;England;Dorset;Hanford;;W2.22;N50.89;10;
2;England;Dorset;Harman's Cross;;W2.02;N50.61;10;
2;England;Dorset;Hartgrove;;W2.22;N50.96;10;
2;England;Dorset;Hartmoor;;W2.34;N51.01;10;
2;England;Dorset;Haydon;;W2.47;N50.93;10;
2;England;Dorset;Haythorne;;W1.95;N50.86;10;
2;England;Dorset;Hazelbury Bryan;;W2.37;N50.87;10;
2;England;Dorset;Hedge End;;W2.25;N50.85;10;
2;England;Dorset;Hemsworth;;W2.05;N50.84;10;
2;England;Dorset;Henbury;;W2.07;N50.78;10;
2;England;Dorset;Hengistbury Head;;W1.74;N50.71;10;
2;England;Dorset;Henley;;W2.44;N50.83;10;
2;England;Dorset;Hermitage;;W2.51;N50.86;10;
2;England;Dorset;Herston;;W1.98;N50.60;10;
2;England;Dorset;Hewood;;W2.92;N50.81;10;
2;England;Dorset;Highcliffe;;W1.70;N50.73;10;
2;England;Dorset;Higher Ansty;;W2.34;N50.82;10;
2;England;Dorset;Higher Bockhampton;;W2.39;N50.72;10;
2;England;Dorset;Higher Chalmington;;W2.58;N50.80;10;
2;England;Dorset;Higher Eype;;W2.79;N50.72;10;
2;England;Dorset;Higher Halstock Leigh;;W2.69;N50.86;10;
2;England;Dorset;Higher Kingcombe;;W2.65;N50.78;10;
2;England;Dorset;Higher Melcombe;;W2.37;N50.81;10;
2;England;Dorset;Higher Row;;W1.94;N50.83;10;
2;England;Dorset;Higher Sandford;;W2.54;N50.97;10;
2;England;Dorset;Higher Totnell;;W2.54;N50.87;10;
2;England;Dorset;Higher Whatcombe;;W2.24;N50.80;10;
2;England;Dorset;Higher Woodsford;;W2.34;N50.70;10;
2;England;Dorset;Higher Wraxall;;W2.62;N50.80;10;
2;England;Dorset;Highlands;;W2.78;N50.71;10;
2;England;Dorset;Highwood;;W2.19;N50.66;10;
2;England;Dorset;Hilfield;;W2.52;N50.83;10;
2;England;Dorset;Hill View;;W2.02;N50.75;10;
2;England;Dorset;Hillbourne;;W2.00;N50.74;10;
2;England;Dorset;Hillbutts;;W2.01;N50.80;10;
2;England;Dorset;Hilton;;W2.31;N50.82;10;
2;England;Dorset;Hincknowle;;W2.72;N50.77;10;
2;England;Dorset;Hinton Martell;;W1.98;N50.85;10;
2;England;Dorset;Hinton Parva;;W2.01;N50.83;10;
2;England;Dorset;Hinton St Mary;;W2.31;N50.94;10;
2;England;Dorset;Hogstock;;W2.07;N50.85;10;
2;England;Dorset;Holditch;;W2.93;N50.81;10;
2;England;Dorset;Hollow Oak;;W2.22;N50.73;10;
2;England;Dorset;Holmbush;;W2.90;N50.81;10;
2;England;Dorset;Holmebridge;;W2.15;N50.67;10;
2;England;Dorset;Holnest;;W2.49;N50.87;10;
2;England;Dorset;Holt;;W1.97;N50.82;10;
2;England;Dorset;Holt Heath;;W1.91;N50.83;10;
2;England;Dorset;Holt Wood;;W1.95;N50.84;10;
2;England;Dorset;Holway;;W2.88;N50.82;10;
2;England;Dorset;Holway;;W2.52;N50.97;10;
2;England;Dorset;Holwell;;W2.42;N50.89;10;
2;England;Dorset;Holywell;;W2.58;N50.83;10;
2;England;Dorset;Hooke;;W2.60;N50.77;10;
2;England;Dorset;Hooke;;W2.66;N50.79;10;
2;England;Dorset;Horn Ash;;W2.86;N50.83;10;
2;England;Dorset;Horton;;W1.95;N50.86;10;
2;England;Dorset;Horton Common;;W1.90;N50.85;10;
2;England;Dorset;Horton Heath;;W1.91;N50.85;10;
2;England;Dorset;Hound Hill;;W2.01;N50.80;10;
2;England;Dorset;Huntingford;;W2.28;N51.06;10;
2;England;Dorset;Hurn;;W1.83;N50.76;10;
2;England;Dorset;Hursey;;W2.81;N50.81;10;
2;England;Dorset;Hurst;;W2.29;N50.70;10;
2;England;Dorset;Hyde;;W2.75;N50.72;10;
2;England;Dorset;Ibberton;;W2.31;N50.86;10;
2;England;Dorset;Isle of Portland;;W2.43;N50.54;10;
2;England;Dorset;Isle of Purbeck;;W2.03;N50.63;10;
2;England;Dorset;Ivy Cross;;W2.20;N51.00;10;
2;England;Dorset;Iwerne Courtney (Shroton);;W2.21;N50.90;10;
2;England;Dorset;Iwerne Minster;;W2.20;N50.92;10;
2;England;Dorset;Jumpers Common;;W1.80;N50.74;10;
2;England;Dorset;Kimmeridge;;W2.12;N50.61;10;
2;England;Dorset;King's Stag;;W2.39;N50.88;10;
2;England;Dorset;Kingsland;;W2.78;N50.77;10;
2;England;Dorset;Kingston;;W2.07;N50.61;10;
2;England;Dorset;Kingston;;W2.35;N50.88;10;
2;England;Dorset;Kingston Maurward;;W2.41;N50.71;10;
2;England;Dorset;Kingston Russell;;W2.59;N50.71;10;
2;England;Dorset;Kington Magna;;W2.34;N51.00;10;
2;England;Dorset;Kit Hill;;W2.22;N50.97;10;
2;England;Dorset;Kittwhistle;;W2.86;N50.82;10;
2;England;Dorset;Knapp Hill;;W2.21;N51.04;10;
2;England;Dorset;Knighton;;W2.55;N50.89;10;
2;England;Dorset;Knighton;;W1.94;N50.77;10;
2;England;Dorset;Knowlton;;W1.97;N50.88;10;
2;England;Dorset;Lake;;W2.02;N50.70;10;
2;England;Dorset;Lambrook;;W2.75;N50.76;10;
2;England;Dorset;Lambs Green;;W2.01;N50.78;10;
2;England;Dorset;Lane End;;W2.22;N50.72;10;
2;England;Dorset;Lanehouse;;W2.49;N50.60;10;
2;England;Dorset;Langham;;W2.32;N51.02;10;
2;England;Dorset;Langton Herring;;W2.55;N50.63;10;
2;England;Dorset;Langton Long Blandford;;W2.15;N50.84;10;
2;England;Dorset;Langton Matravers;;W2.01;N50.60;10;
2;England;Dorset;Laymore;;W2.88;N50.83;10;
2;England;Dorset;Leigh;;W2.31;N50.87;10;
2;England;Dorset;Leigh;;W2.55;N50.87;10;
2;England;Dorset;Leigh;;W1.97;N50.79;10;
2;England;Dorset;Lewcombe;;W2.64;N50.86;10;
2;England;Dorset;Lillington;;W2.54;N50.90;10;
2;England;Dorset;Lilliput;;W1.94;N50.70;10;
2;England;Dorset;Little Ansty (Pleck);;W2.34;N50.83;10;
2;England;Dorset;Little Canford;;W1.94;N50.79;10;
2;England;Dorset;Little Woolgarston;;W2.04;N50.62;10;
2;England;Dorset;Littlebredy;;W2.59;N50.69;10;
2;England;Dorset;Littlemoor;;W2.45;N50.63;10;
2;England;Dorset;Littleton;;W2.15;N50.83;10;
2;England;Dorset;Littlewindsor;;W2.79;N50.83;10;
2;England;Dorset;Litton Cheney;;W2.63;N50.70;10;
2;England;Dorset;Loders;;W2.72;N50.74;10;
2;England;Dorset;Long Bredy;;W2.62;N50.70;10;
2;England;Dorset;Long Crichel;;W2.04;N50.88;10;
2;England;Dorset;Longburton;;W2.51;N50.90;10;
2;England;Dorset;Longfleet;;W1.98;N50.71;10;
2;England;Dorset;Longham;;W1.91;N50.78;10;
2;England;Dorset;Loscombe;;W2.71;N50.77;10;
2;England;Dorset;Lower Ansty;;W2.34;N50.82;10;
2;England;Dorset;Lower Blandford St Mary;;W2.15;N50.84;10;
2;England;Dorset;Lower Bockhampton;;W2.39;N50.70;10;
2;England;Dorset;Lower Daggons;;W1.87;N50.91;10;
2;England;Dorset;Lower Eype;;W2.79;N50.71;10;
2;England;Dorset;Lower Halstock Leigh;;W2.68;N50.86;10;
2;England;Dorset;Lower Hamworthy;;W2.00;N50.70;10;
2;England;Dorset;Lower Holwell;;W1.90;N50.90;10;
2;England;Dorset;Lower Kingcombe;;W2.63;N50.78;10;
2;England;Dorset;Lower Mannington;;W1.91;N50.84;10;
2;England;Dorset;Lower Row;;W1.94;N50.83;10;
2;England;Dorset;Lower Strode;;W2.78;N50.78;10;
2;England;Dorset;Lower Whatcombe;;W2.22;N50.80;10;
2;England;Dorset;Lower Wraxall;;W2.61;N50.79;10;
2;England;Dorset;Lulworth Camp;;W2.24;N50.62;10;
2;England;Dorset;Lydden;;W2.38;N50.88;10;
2;England;Dorset;Lydlinch;;W2.37;N50.91;10;
2;England;Dorset;Lyme Regis;;W2.93;N50.72;10;
2;England;Dorset;Lyon's Gate;;W2.48;N50.84;10;
2;England;Dorset;Lytchett Matravers;;W2.08;N50.75;10;
2;England;Dorset;Lytchett Minster;;W2.07;N50.72;10;
2;England;Dorset;Madjeston;;W2.28;N51.02;10;
2;England;Dorset;Maiden Newton;;W2.58;N50.77;10;
2;England;Dorset;Mangerton;;W2.73;N50.75;10;
2;England;Dorset;Mannington;;W1.91;N50.84;10;
2;England;Dorset;Manston;;W2.27;N50.93;10;
2;England;Dorset;Manswood;;W2.04;N50.87;10;
2;England;Dorset;Mapperton;;W2.14;N50.78;10;
2;England;Dorset;Mapperton;;W2.71;N50.78;10;
2;England;Dorset;Mappowder;;W2.38;N50.85;10;
2;England;Dorset;Margaret Marsh;;W2.25;N50.96;10;
2;England;Dorset;Marnhull;;W2.32;N50.96;10;
2;England;Dorset;Marshalsea;;W2.88;N50.79;10;
2;England;Dorset;Marshwood;;W2.88;N50.78;10;
2;England;Dorset;Martinstown;;W2.51;N50.69;10;
2;England;Dorset;Maudlin;;W2.88;N50.84;10;
2;England;Dorset;Maudlin Cross;;W2.88;N50.84;10;
2;England;Dorset;Meerhay;;W2.73;N50.81;10;
2;England;Dorset;Melbury Abbas;;W2.17;N50.97;10;
2;England;Dorset;Melbury Bubb;;W2.58;N50.85;10;
2;England;Dorset;Melbury Osmond;;W2.61;N50.86;10;
2;England;Dorset;Melbury Sampford;;W2.61;N50.85;10;
2;England;Dorset;Melcombe Bingham;;W2.34;N50.81;10;
2;England;Dorset;Melcombe Regis;;W2.45;N50.61;10;
2;England;Dorset;Melplash;;W2.73;N50.77;10;
2;England;Dorset;Merley;;W1.97;N50.78;10;
2;England;Dorset;Merriott;;W2.69;N50.75;10;
2;England;Dorset;Merritown;;W1.84;N50.77;10;
2;England;Dorset;Merry Field Hill;;W1.97;N50.80;10;
2;England;Dorset;Middle Bockhampton;;W1.76;N50.76;10;
2;England;Dorset;Middlemarsh;;W2.47;N50.86;10;
2;England;Dorset;Milborne St Andrew;;W2.28;N50.77;10;
2;England;Dorset;Miles Cross;;W2.79;N50.73;10;
2;England;Dorset;Milton Abbas;;W2.28;N50.80;10;
2;England;Dorset;Milton on Stour;;W2.28;N51.05;10;
2;England;Dorset;Minchington;;W2.05;N50.92;10;
2;England;Dorset;Minterne Magna;;W2.49;N50.83;10;
2;England;Dorset;Minterne Parva;;W2.48;N50.82;10;
2;England;Dorset;Monkton Up Wimborne;;W1.98;N50.91;10;
2;England;Dorset;Monkwood;;W2.82;N50.77;10;
2;England;Dorset;Moorbath;;W2.80;N50.75;10;
2;England;Dorset;Moorside;;W2.30;N50.97;10;
2;England;Dorset;Morcombelake;;W2.86;N50.74;10;
2;England;Dorset;Morden;;W2.12;N50.75;10;
2;England;Dorset;More Crichel;;W2.01;N50.87;10;
2;England;Dorset;Moreton;;W2.28;N50.70;10;
2;England;Dorset;Mosterton;;W2.78;N50.84;10;
2;England;Dorset;Motcombe;;W2.22;N51.02;10;
2;England;Dorset;Mounters;;W2.32;N50.96;10;
2;England;Dorset;Muckleford;;W2.51;N50.73;10;
2;England;Dorset;Mudeford;;W1.74;N50.72;10;
2;England;Dorset;Neacroft;;W1.74;N50.76;10;
2;England;Dorset;Nether Cerne;;W2.48;N50.78;10;
2;England;Dorset;Nether Compton;;W2.58;N50.95;10;
2;England;Dorset;Netherbury;;W2.76;N50.78;10;
2;England;Dorset;Netherlay;;W2.83;N50.84;10;
2;England;Dorset;Netherstoke;;W2.65;N50.87;10;
2;England;Dorset;Nettlecombe;;W2.69;N50.75;10;
2;England;Dorset;New Buildings;;W2.01;N50.61;10;
2;England;Dorset;New Swanage;;W1.97;N50.61;10;
2;England;Dorset;New Town;;W2.01;N50.86;10;
2;England;Dorset;New Town;;W2.08;N50.93;10;
2;England;Dorset;New Town;;W2.02;N50.96;10;
2;England;Dorset;New Town;;W2.48;N50.96;10;
2;England;Dorset;New Town;;W2.34;N50.99;10;
2;England;Dorset;Newport;;W2.17;N50.74;10;
2;England;Dorset;Newton;;W2.32;N50.91;10;
2;England;Dorset;Newton Peveril;;W2.10;N50.79;10;
2;England;Dorset;Newtown;;W2.73;N50.81;10;
2;England;Dorset;Newtown;;W1.94;N50.73;10;
2;England;Dorset;Norden;;W2.08;N50.64;10;
2;England;Dorset;North Bockhampton;;W1.76;N50.77;10;
2;England;Dorset;North Bowood;;W2.79;N50.78;10;
2;England;Dorset;North Chideock;;W2.82;N50.74;10;
2;England;Dorset;North End;;W2.22;N51.04;10;
2;England;Dorset;North Poorton;;W2.69;N50.77;10;
2;England;Dorset;North Wootton;;W2.49;N50.92;10;
2;England;Dorset;Northbrook;;W2.35;N50.74;10;
2;England;Dorset;Northport;;W2.11;N50.69;10;
2;England;Dorset;Norwood;;W2.66;N50.84;10;
2;England;Dorset;Nottington;;W2.48;N50.63;10;
2;England;Dorset;Oakdale;;W1.97;N50.72;10;
2;England;Dorset;Oakley;;W1.98;N50.78;10;
2;England;Dorset;Oathill;;W2.85;N50.84;10;
2;England;Dorset;Oborne;;W2.49;N50.96;10;
2;England;Dorset;Okeford Fitzpaine;;W2.28;N50.88;10;
2;England;Dorset;Organford;;W2.10;N50.72;10;
2;England;Dorset;Osehill Green;;W2.48;N50.87;10;
2;England;Dorset;Osmington;;W2.39;N50.64;10;
2;England;Dorset;Osmington Mills;;W2.38;N50.62;10;
2;England;Dorset;Over Compton;;W2.58;N50.94;10;
2;England;Dorset;Overcombe;;W2.43;N50.63;10;
2;England;Dorset;Owermoigne;;W2.34;N50.66;10;
2;England;Dorset;Oxbridge;;W2.75;N50.77;10;
2;England;Dorset;Packers Hill;;W2.41;N50.88;10;
2;England;Dorset;Pallington;;W2.31;N50.71;10;
2;England;Dorset;Pamphill;;W2.01;N50.79;10;
2;England;Dorset;Park Gate;;W2.37;N50.86;10;
2;England;Dorset;Parkstone;;W1.95;N50.71;10;
2;England;Dorset;Parley Green;;W1.87;N50.77;10;
2;England;Dorset;Peacemarsh;;W2.28;N51.04;10;
2;England;Dorset;Penn;;W2.93;N50.75;10;
2;England;Dorset;Pentridge;;W1.95;N50.95;10;
2;England;Dorset;Piddle (Trent);;W2.28;N50.74;10;
2;England;Dorset;Piddlehinton;;W2.41;N50.77;10;
2;England;Dorset;Piddletrenthide;;W2.42;N50.78;10;
2;England;Dorset;Pidney;;W2.37;N50.87;10;
2;England;Dorset;Pig Oak;;W1.97;N50.82;10;
2;England;Dorset;Pilford;;W1.95;N50.80;10;
2;England;Dorset;Pillwell;;W2.31;N50.97;10;
2;England;Dorset;Pilsdon;;W2.83;N50.78;10;
2;England;Dorset;Pimperne;;W2.61;N50.87;10;
2;England;Dorset;Pimperne;;W2.14;N50.88;10;
2;England;Dorset;Pleck;;W2.42;N50.88;10;
2;England;Dorset;Pleck;;W2.32;N50.95;10;
2;England;Dorset;Pleck (Little Ansty);;W2.34;N50.83;10;
2;England;Dorset;Plush;;W2.41;N50.81;10;
2;England;Dorset;Poole;;W1.98;N50.71;10;
2;England;Dorset;Poolestown;;W2.38;N50.94;10;
2;England;Dorset;Portesham;;W2.56;N50.66;10;
2;England;Dorset;Portway;;W2.28;N50.66;10;
2;England;Dorset;Post Green;;W2.07;N50.73;10;
2;England;Dorset;Powerstock;;W2.69;N50.76;10;
2;England;Dorset;Poyntington;;W2.49;N50.97;10;
2;England;Dorset;Preston;;W2.42;N50.64;10;
2;England;Dorset;Puddletown;;W2.35;N50.74;10;
2;England;Dorset;Pulham;;W2.42;N50.87;10;
2;England;Dorset;Puncknowle;;W2.66;N50.68;10;
2;England;Dorset;Purse Caundle;;W2.44;N50.95;10;
2;England;Dorset;Putton;;W2.49;N50.61;10;
2;England;Dorset;Puxey;;W2.34;N50.90;10;
2;England;Dorset;Pymore;;W2.76;N50.74;10;
2;England;Dorset;Queen Oak;;W2.32;N51.06;10;
2;England;Dorset;Radipole;;W2.48;N50.62;10;
2;England;Dorset;Rampisham;;W2.62;N50.81;10;
2;England;Dorset;Redbridge;;W2.31;N50.69;10;
2;England;Dorset;Redford;;W2.56;N50.84;10;
2;England;Dorset;Redlands;;W2.48;N50.63;10;
2;England;Dorset;Rew;;W2.44;N50.84;10;
2;England;Dorset;Ridge;;W2.10;N50.67;10;
2;England;Dorset;Rivers' Corner;;W2.32;N50.90;10;
2;England;Dorset;Rixon;;W2.30;N50.92;10;
2;England;Dorset;Rodden;;W2.55;N50.65;10;
2;England;Dorset;Rodwell;;W2.46;N50.60;10;
2;England;Dorset;Rolls Mill;;W2.32;N50.91;10;
2;England;Dorset;Romford;;W1.90;N50.88;10;
2;England;Dorset;Rossmore;;W1.93;N50.73;10;
2;England;Dorset;Rushcombe Bottom;;W2.01;N50.77;10;
2;England;Dorset;Rushton;;W2.18;N50.67;10;
2;England;Dorset;Ryall;;W2.85;N50.74;10;
2;England;Dorset;Ryme Intrinseca;;W2.59;N50.88;10;
2;England;Dorset;Saddle Street;;W2.88;N50.82;10;
2;England;Dorset;Salwayash;;W2.78;N50.76;10;
2;England;Dorset;Sandbanks;;W1.94;N50.68;10;
2;England;Dorset;Sandford;;W2.11;N50.70;10;
2;England;Dorset;Sandford Orcas;;W2.54;N50.97;10;
2;England;Dorset;Sandhills;;W2.59;N50.79;10;
2;England;Dorset;Sandhills;;W2.45;N50.88;10;
2;England;Dorset;Sandleheath;;W1.83;N50.92;10;
2;England;Dorset;Sandpit;;W2.82;N50.83;10;
2;England;Dorset;School House;;W2.90;N50.81;10;
2;England;Dorset;Seaborough;;W2.82;N50.85;10;
2;England;Dorset;Seatown;;W2.82;N50.71;10;
2;England;Dorset;Shaftesbury;;W2.20;N50.99;10;
2;England;Dorset;Shaggs;;W2.21;N50.64;10;
2;England;Dorset;Shapwick;;W2.10;N50.80;10;
2;England;Dorset;Sharnhill Green;;W2.42;N50.84;10;
2;England;Dorset;Sherborne;;W2.52;N50.94;10;
2;England;Dorset;Sherford;;W2.12;N50.73;10;
2;England;Dorset;Shillingstone;;W2.25;N50.89;10;
2;England;Dorset;Shipton Gorge;;W2.72;N50.71;10;
2;England;Dorset;Shortmoor;;W2.73;N50.80;10;
2;England;Dorset;Shroton (Iwerne Courtney);;W2.21;N50.90;10;
2;England;Dorset;Silton;;W2.31;N51.06;10;
2;England;Dorset;Sitterton;;W2.22;N50.74;10;
2;England;Dorset;Sixpenny Handley;;W2.01;N50.95;10;
2;England;Dorset;Skilling;;W2.76;N50.72;10;
2;England;Dorset;Sleight;;W2.02;N50.78;10;
2;England;Dorset;Slepe;;W2.11;N50.73;10;
2;England;Dorset;Sockety;;W2.74;N50.85;10;
2;England;Dorset;Somerford;;W1.76;N50.73;10;
2;England;Dorset;South Bockhampton;;W1.76;N50.75;10;
2;England;Dorset;South Bowood;;W2.79;N50.77;10;
2;England;Dorset;South Perrott;;W2.75;N50.85;10;
2;England;Dorset;South Poorton;;W2.69;N50.77;10;
2;England;Dorset;Southill;;W2.48;N50.61;10;
2;England;Dorset;Southlands;;W2.46;N50.59;10;
2;England;Dorset;Southover;;W2.73;N50.69;10;
2;England;Dorset;Southover;;W2.54;N50.74;10;
2;England;Dorset;Southwell;;W2.45;N50.52;10;
2;England;Dorset;Spetisbury;;W2.12;N50.81;10;
2;England;Dorset;Spyway;;W2.68;N50.73;10;
2;England;Dorset;St Alban's Head (St Aldhelm's);;W2.05;N50.57;10;
2;England;Dorset;St Aldhelm's (St Alban's Head);;W2.05;N50.57;10;
2;England;Dorset;St Andrew's Well;;W2.75;N50.73;10;
2;England;Dorset;St Catherine's Hill;;W1.80;N50.75;10;
2;England;Dorset;St Ives;;W1.83;N50.83;10;
2;England;Dorset;St James;;W2.20;N50.99;10;
2;England;Dorset;St Leonards;;W1.84;N50.82;10;
2;England;Dorset;Stafford's Green;;W2.52;N50.98;10;
2;England;Dorset;Stalbridge;;W2.38;N50.95;10;
2;England;Dorset;Stalbridge Weston;;W2.41;N50.94;10;
2;England;Dorset;Stallen;;W2.57;N50.94;10;
2;England;Dorset;Stanbridge;;W2.00;N50.82;10;
2;England;Dorset;Stanley Green;;W1.98;N50.72;10;
2;England;Dorset;Stanpit;;W1.76;N50.72;10;
2;England;Dorset;Stapehill;;W1.93;N50.79;10;
2;England;Dorset;Steeple;;W2.12;N50.62;10;
2;England;Dorset;Sterte;;W2.00;N50.71;10;
2;England;Dorset;Stinsford;;W2.41;N50.71;10;
2;England;Dorset;Stoborough;;W2.11;N50.67;10;
2;England;Dorset;Stoborough Green;;W2.11;N50.66;10;
2;England;Dorset;Stockwood;;W2.59;N50.85;10;
2;England;Dorset;Stoke Abbott;;W2.78;N50.79;10;
2;England;Dorset;Stoke Wake;;W2.34;N50.85;10;
2;England;Dorset;Stoke Water;;W2.76;N50.79;10;
2;England;Dorset;Stokeford;;W2.19;N50.68;10;
2;England;Dorset;Stony Knaps;;W2.86;N50.83;10;
2;England;Dorset;Stour;;W1.81;N50.74;10;
2;England;Dorset;Stour Provost;;W2.30;N50.98;10;
2;England;Dorset;Stour Row;;W2.25;N50.98;10;
2;England;Dorset;Stourpaine;;W2.20;N50.88;10;
2;England;Dorset;Stourton Caundle;;W2.41;N50.93;10;
2;England;Dorset;Stratton;;W2.49;N50.73;10;
2;England;Dorset;Stubhampton;;W2.12;N50.91;10;
2;England;Dorset;Studland;;W1.95;N50.63;10;
2;England;Dorset;Sturminster Common;;W2.30;N50.90;10;
2;England;Dorset;Sturminster Marshall;;W2.08;N50.79;10;
2;England;Dorset;Sturminster Newton;;W2.31;N50.92;10;
2;England;Dorset;Sutton Holms;;W1.93;N50.88;10;
2;England;Dorset;Sutton Poyntz;;W2.42;N50.64;10;
2;England;Dorset;Sutton Waldron;;W2.20;N50.93;10;
2;England;Dorset;Swanage;;W1.97;N50.60;10;
2;England;Dorset;Swyre;;W2.68;N50.68;10;
2;England;Dorset;Sydling St Nicholas;;W2.52;N50.78;10;
2;England;Dorset;Symondsbury;;W2.79;N50.73;10;
2;England;Dorset;Synderford;;W2.88;N50.82;10;
2;England;Dorset;Tadden;;W2.02;N50.80;10;
2;England;Dorset;Tadnoll;;W2.29;N50.67;10;
2;England;Dorset;Talbot Heath;;W1.91;N50.73;10;
2;England;Dorset;Tarrant Crawford;;W2.11;N50.82;10;
2;England;Dorset;Tarrant Gunville;;W2.11;N50.90;10;
2;England;Dorset;Tarrant Hinton;;W2.10;N50.89;10;
2;England;Dorset;Tarrant Keyneston;;W2.11;N50.83;10;
2;England;Dorset;Tarrant Launceston;;W2.08;N50.88;10;
2;England;Dorset;Tarrant Monkton;;W2.08;N50.87;10;
2;England;Dorset;Tarrant Rushton;;W2.10;N50.84;10;
2;England;Dorset;Templeman's Ash;;W2.85;N50.79;10;
2;England;Dorset;The Bridge;;W2.31;N50.91;10;
2;England;Dorset;The Common;;W2.31;N50.88;10;
2;England;Dorset;The Mount;;W2.73;N50.76;10;
2;England;Dorset;Thorncombe;;W2.89;N50.82;10;
2;England;Dorset;Thornford;;W2.57;N50.91;10;
2;England;Dorset;Thornicombe;;W2.18;N50.82;10;
2;England;Dorset;Three Gates;;W2.52;N50.86;10;
2;England;Dorset;Three Legged Cross;;W1.88;N50.84;10;
2;England;Dorset;Throop;;W2.25;N50.73;10;
2;England;Dorset;Tiley;;W2.47;N50.85;10;
2;England;Dorset;Tincleton;;W2.32;N50.71;10;
2;England;Dorset;Todber;;W2.30;N50.97;10;
2;England;Dorset;Tollard Farnham;;W2.08;N50.93;10;
2;England;Dorset;Toller Fratrum;;W2.61;N50.77;10;
2;England;Dorset;Toller Porcorum;;W2.62;N50.78;10;
2;England;Dorset;Toller Whelme;;W2.69;N50.80;10;
2;England;Dorset;Tollerford;;W2.58;N50.77;10;
2;England;Dorset;Tolpuddle;;W2.29;N50.74;10;
2;England;Dorset;Totnell;;W2.54;N50.87;10;
2;England;Dorset;Town's End;;W2.05;N50.62;10;
2;England;Dorset;Town's End;;W2.21;N50.75;10;
2;England;Dorset;Town's End;;W2.61;N50.86;10;
2;England;Dorset;Trent;;W2.58;N50.96;10;
2;England;Dorset;Trent (Piddle);;W2.28;N50.74;10;
2;England;Dorset;Trickett's Cross;;W1.88;N50.80;10;
2;England;Dorset;Turbary Common;;W1.93;N50.74;10;
2;England;Dorset;Turlin Moor;;W2.02;N50.71;10;
2;England;Dorset;Turners Puddle;;W2.24;N50.73;10;
2;England;Dorset;Turnworth;;W2.27;N50.86;10;
2;England;Dorset;Twyford;;W2.21;N50.96;10;
2;England;Dorset;Tyneham;;W2.17;N50.61;10;
2;England;Dorset;Ulwell;;W1.97;N50.61;10;
2;England;Dorset;Up Cerne;;W2.49;N50.81;10;
2;England;Dorset;Up Sydling;;W2.54;N50.80;10;
2;England;Dorset;Uphall;;W2.64;N50.81;10;
2;England;Dorset;Uploders;;W2.70;N50.73;10;
2;England;Dorset;Uppington;;W1.98;N50.85;10;
2;England;Dorset;Upton;;W2.02;N50.73;10;
2;England;Dorset;Upwey;;W2.48;N50.65;10;
2;England;Dorset;Verwood;;W1.88;N50.87;10;
2;England;Dorset;Walditch;;W2.73;N50.72;10;
2;England;Dorset;Walkford;;W1.70;N50.74;10;
2;England;Dorset;Wallisdown;;W1.93;N50.73;10;
2;England;Dorset;Walton Elm;;W2.31;N50.95;10;
2;England;Dorset;Wareham;;W2.11;N50.68;10;
2;England;Dorset;Wareham Forest;;W2.15;N50.72;10;
2;England;Dorset;Warmwell;;W2.35;N50.66;10;
2;England;Dorset;Warren;;W2.21;N50.71;10;
2;England;Dorset;Waterditch;;W1.74;N50.76;10;
2;England;Dorset;Waterloo;;W1.98;N50.74;10;
2;England;Dorset;Watton;;W2.78;N50.71;10;
2;England;Dorset;Waytown;;W2.76;N50.77;10;
2;England;Dorset;Well Bottom;;W2.12;N50.94;10;
2;England;Dorset;West Bay;;W2.76;N50.70;10;
2;England;Dorset;West Bexington;;W2.66;N50.67;10;
2;England;Dorset;West Bourton;;W2.34;N51.06;10;
2;England;Dorset;West Chelborough;;W2.65;N50.84;10;
2;England;Dorset;West Cliff;;W1.90;N50.70;10;
2;England;Dorset;West Compton;;W2.62;N50.74;10;
2;England;Dorset;West End;;W2.14;N50.81;10;
2;England;Dorset;West Holme;;W2.17;N50.66;10;
2;England;Dorset;West Knighton;;W2.38;N50.68;10;
2;England;Dorset;West Lulworth;;W2.25;N50.61;10;
2;England;Dorset;West Melbury;;W2.20;N50.97;10;
2;England;Dorset;West Milton;;W2.71;N50.76;10;
2;England;Dorset;West Moors;;W1.88;N50.81;10;
2;England;Dorset;West Morden;;W2.14;N50.75;10;
2;England;Dorset;West Orchard;;W2.25;N50.94;10;
2;England;Dorset;West Pulham;;W2.42;N50.87;10;
2;England;Dorset;West Stafford;;W2.39;N50.70;10;
2;England;Dorset;West Stour;;W2.31;N50.99;10;
2;England;Dorset;Westfields;;W2.39;N50.85;10;
2;England;Dorset;Westham;;W2.48;N50.60;10;
2;England;Dorset;Weston;;W2.45;N50.53;10;
2;England;Dorset;Weston;;W2.71;N50.84;10;
2;England;Dorset;Weymouth;;W2.46;N50.60;10;
2;England;Dorset;Whetley Cross;;W2.78;N50.83;10;
2;England;Dorset;Whitchurch Canonicorum;;W2.86;N50.75;10;
2;England;Dorset;Whitcombe;;W2.41;N50.69;10;
2;England;Dorset;White Hill;;W2.27;N51.06;10;
2;England;Dorset;White Lackington;;W2.41;N50.78;10;
2;England;Dorset;Whitecross;;W2.76;N50.78;10;
2;England;Dorset;Whitefield;;W2.14;N50.74;10;
2;England;Dorset;Whiteway;;W2.18;N50.63;10;
2;England;Dorset;Whitmore;;W1.93;N50.88;10;
2;England;Dorset;Wigbeth;;W1.94;N50.86;10;
2;England;Dorset;Wimborne Minster;;W1.98;N50.79;10;
2;England;Dorset;Wimborne St Giles;;W1.95;N50.90;10;
2;England;Dorset;Winfrith Newburgh;;W2.28;N50.65;10;
2;England;Dorset;Winkton;;W1.77;N50.76;10;
2;England;Dorset;Winterborne Came;;W2.42;N50.69;10;
2;England;Dorset;Winterborne Clenston;;W2.24;N50.81;10;
2;England;Dorset;Winterborne Herringston;;W2.45;N50.69;10;
2;England;Dorset;Winterborne Houghton;;W2.27;N50.83;10;
2;England;Dorset;Winterborne Kingston;;W2.19;N50.77;10;
2;England;Dorset;Winterborne Monkton;;W2.46;N50.68;10;
2;England;Dorset;Winterborne Muston;;W2.18;N50.77;10;
2;England;Dorset;Winterborne Stickland;;W2.24;N50.83;10;
2;England;Dorset;Winterborne Tomson;;W2.17;N50.77;10;
2;England;Dorset;Winterborne Whitechurch;;W2.24;N50.79;10;
2;England;Dorset;Winterborne Zelston;;W2.15;N50.77;10;
2;England;Dorset;Winterbourne Abbas;;W2.55;N50.70;10;
2;England;Dorset;Winterbourne Steepleton;;W2.53;N50.69;10;
2;England;Dorset;Winyard's Gap;;W2.72;N50.85;10;
2;England;Dorset;Witchampton;;W2.02;N50.85;10;
2;England;Dorset;Wolverton;;W2.31;N51.07;10;
2;England;Dorset;Wonston;;W2.37;N50.87;10;
2;England;Dorset;Woodbridge;;W2.21;N50.96;10;
2;England;Dorset;Woodcutts;;W2.04;N50.95;10;
2;England;Dorset;Woodlake;;W2.17;N50.74;10;
2;England;Dorset;Woodlands;;W1.93;N50.88;10;
2;England;Dorset;Woodlands Common;;W1.91;N50.87;10;
2;England;Dorset;Woodrow;;W2.35;N50.88;10;
2;England;Dorset;Woodrow;;W2.38;N50.88;10;
2;England;Dorset;Woodsford;;W2.34;N50.70;10;
2;England;Dorset;Woodville;;W2.28;N50.98;10;
2;England;Dorset;Woodyates;;W1.97;N50.97;10;
2;England;Dorset;Wool;;W2.22;N50.67;10;
2;England;Dorset;Woolford's Water;;W2.44;N50.84;10;
2;England;Dorset;Woolgarston;;W2.02;N50.62;10;
2;England;Dorset;Woolland;;W2.32;N50.85;10;
2;England;Dorset;Woolsbridge;;W1.87;N50.84;10;
2;England;Dorset;Wooth;;W2.75;N50.75;10;
2;England;Dorset;Wootton Fitzpaine;;W2.90;N50.75;10;
2;England;Dorset;Worbarrow;;W2.18;N50.61;10;
2;England;Dorset;Worgret;;W2.14;N50.67;10;
2;England;Dorset;Worth Matravers;;W2.04;N50.59;10;
2;England;Dorset;Wraxall;;W2.62;N50.80;10;
2;England;Dorset;Wyke;;W2.30;N51.03;10;
2;England;Dorset;Wyke Regis;;W2.48;N50.59;10;
2;England;Dorset;Wynford Eagle;;W2.59;N50.75;10;
2;England;Dorset;Yeo;;W2.55;N50.92;10;
2;England;Dorset;Yetminster;;W2.58;N50.88;10;
2;England;Dorset;Yondover;;W2.72;N50.73;10;
2;England;Dorset;Zeals;;W2.31;N51.07;10;