"Level";"Country";"State";"County";"Place";"Longitude";"Latitude";"ZoomLevel";"Icon"
2;Nederland;Friesland;Achtkarspelen;;E6.05;N53.22;11;places/NLD/flags/FR/Achtkarspelen.jpg
3;Nederland;Friesland;Achtkarspelen;Augustinusga;E6.163;N53.217;12;
3;Nederland;Friesland;Achtkarspelen;Blauwverlaat;E6.174;N53.225;12;
3;Nederland;Friesland;Achtkarspelen;Boelenslaan;E6.14;N53.16;12;
3;Nederland;Friesland;Achtkarspelen;Buitenpost;E6.14;N53.25;12;
3;Nederland;Friesland;Achtkarspelen;Drogeham;E6.11;N53.20;12;
3;Nederland;Friesland;Achtkarspelen;Gerkesklooster;E6.20;N53.24;12;
3;Nederland;Friesland;Achtkarspelen;Harkema;E6.133;N53.184;12;
3;Nederland;Friesland;Achtkarspelen;Kootstertille;E6.095;N53.213;12;
3;Nederland;Friesland;Achtkarspelen;Stroobos;E6.210;N53.239;12;
3;Nederland;Friesland;Achtkarspelen;Surhuisterveen;E6.17;N53.18;12;
3;Nederland;Friesland;Achtkarspelen;Surhuizum;E6.180;N53.206;12;
3;Nederland;Friesland;Achtkarspelen;Twijzel;E6.090;N53.231;12;
3;Nederland;Friesland;Achtkarspelen;Twijzelerheide;E6.05;N53.24;12;
2;Nederland;Friesland;Ameland;;E5.774;N53.45;11;places/NLD/flags/FR/Ameland.jpg
3;Nederland;Friesland;Ameland;Ameland;E5.78;N53.45;11;
3;Nederland;Friesland;Ameland;Ballum;E5.689;N53.445;12;
3;Nederland;Friesland;Ameland;Buren;E5.80;N53.45;12;
3;Nederland;Friesland;Ameland;Hollum;E5.64;N53.44;12;
3;Nederland;Friesland;Ameland;Nes;E5.774;N53.445;12;
2;Nederland;Friesland;Bolsward;;E5.52;N53.05;11;places/NLD/flags/FR/Bolsward.gif
3;Nederland;Friesland;Bolsward;Bolsward;E5.52;N53.06;12;
2;Nederland;Friesland;Boornsterhem;;E5.85;N53.11;10;places/NLD/flags/FR/Boarnsterhim.jpg
3;Nederland;Friesland;Boornsterhem;Abbengawier;E5.789;N53.064;12;
3;Nederland;Friesland;Boornsterhem;Aegum;E5.83;N53.13;12;
3;Nederland;Friesland;Boornsterhem;Akkrum;E5.83;N53.05;12;
3;Nederland;Friesland;Boornsterhem;Aldeboarn;E5.896;N53.048;12;
3;Nederland;Friesland;Boornsterhem;Bokkum;E5.840;N53.061;13;
3;Nederland;Friesland;Boornsterhem;Dearsum;E5.714;N53.087;13;
3;Nederland;Friesland;Boornsterhem;Deersum;E5.716;N53.086;12;
3;Nederland;Friesland;Boornsterhem;Eagum;E5.83;N53.13;12;
3;Nederland;Friesland;Boornsterhem;Friens;E5.798;N53.098;12;
3;Nederland;Friesland;Boornsterhem;Grou;E5.84;N53.09;12;
3;Nederland;Friesland;Boornsterhem;Grouw;E5.84;N53.09;12;
3;Nederland;Friesland;Boornsterhem;Idaard;E5.81;N53.12;12;
3;Nederland;Friesland;Boornsterhem;Idaerd;E5.81;N53.12;12;
3;Nederland;Friesland;Boornsterhem;Irnsum;E5.79;N53.08;12;
3;Nederland;Friesland;Boornsterhem;Jirnsum;E5.79;N53.08;12;
3;Nederland;Friesland;Boornsterhem;Nes;E5.85;N53.05;12;
3;Nederland;Friesland;Boornsterhem;Oldeboorn;E5.896;N53.048;12;
3;Nederland;Friesland;Boornsterhem;Poppenwier;E5.744;N53.084;12;
3;Nederland;Friesland;Boornsterhem;Poppingawier;E5.748;N53.083;12;
3;Nederland;Friesland;Boornsterhem;Raerd;E5.759;N53.098;12;
3;Nederland;Friesland;Boornsterhem;Rauwerd;E5.759;N53.098;12;
3;Nederland;Friesland;Boornsterhem;Reduzum;;;12;
3;Nederland;Friesland;Boornsterhem;Roordahuizum;E5.784;N53.118;12;
3;Nederland;Friesland;Boornsterhem;Sibrandabuorren;E5.72;N53.07;12;
3;Nederland;Friesland;Boornsterhem;Sijbrandaburen;E5.718;N53.068;12;
3;Nederland;Friesland;Boornsterhem;Terherne;E5.783;N53.037;12;
3;Nederland;Friesland;Boornsterhem;Terhorne;E5.779;N53.037;12;
3;Nederland;Friesland;Boornsterhem;Tersoal;E5.737;N53.075;12;
3;Nederland;Friesland;Boornsterhem;Terzool;E5.737;N53.075;12;
3;Nederland;Friesland;Boornsterhem;Warga;E5.84;N53.15;12;
3;Nederland;Friesland;Boornsterhem;Warstiens;E5.863;N53.162;12;
3;Nederland;Friesland;Boornsterhem;Warten;E5.90;N53.15;12;
3;Nederland;Friesland;Boornsterhem;Wartena;E5.90;N53.15;12;
3;Nederland;Friesland;Boornsterhem;Wergea;E5.85;N53.15;12;
2;Nederland;Friesland;Dantumadeel;;E6.040;N53.27;11;places/NLD/flags/FR/Dantumadeel.png
3;Nederland;Friesland;Dantumadeel;Akkerwoude;E5.970;N53.280;12;
3;Nederland;Friesland;Dantumadeel;Akkerwoudsterbroek;;;12;
3;Nederland;Friesland;Dantumadeel;Broeksterwoude;E5.998;N53.274;12;
3;Nederland;Friesland;Dantumadeel;Damwoude;E6.00;N53.29;12;
3;Nederland;Friesland;Dantumadeel;De Valom;E6.006;N53.267;12;
3;Nederland;Friesland;Dantumadeel;Driesum;E6.045;N53.298;12;
3;Nederland;Friesland;Dantumadeel;Rinsumageest;E5.95;N53.30;12;
3;Nederland;Friesland;Dantumadeel;Roodkerk;E5.935;N53.257;13;
3;Nederland;Friesland;Dantumadeel;Sijbrandahuis;E5.940;N53.310;12;
3;Nederland;Friesland;Dantumadeel;Veenwouden;E5.990;N53.236;12;
3;Nederland;Friesland;Dantumadeel;Veenwoudsterwal;E5.973;N53.227;12;
3;Nederland;Friesland;Dantumadeel;Wouterswoude;E6.03;N53.30;12;
3;Nederland;Friesland;Dantumadeel;Zwaagwesteinde;E6.040;N53.254;12;
2;Nederland;Friesland;Dongeradeel;;E6.02;N53.36;11;places/NLD/flags/FR/Dongeradeel.jpg
3;Nederland;Friesland;Dongeradeel;Aalsum;E6.00;N53.33;12;
3;Nederland;Friesland;Dongeradeel;Anjum;E6.126;N53.373;12;
3;Nederland;Friesland;Dongeradeel;Bollingawier;E6.05;N53.38;12;
3;Nederland;Friesland;Dongeradeel;Bornwird;E5.955;N53.334;12;
3;Nederland;Friesland;Dongeradeel;Brantgum;E5.93;N53.35;12;
3;Nederland;Friesland;Dongeradeel;De Bult;;;12;
3;Nederland;Friesland;Dongeradeel;Dokkum;E6.00;N53.32;12;
3;Nederland;Friesland;Dongeradeel;Dokkumer Nieuwe Zijlen;E6.160;N53.316;12;
3;Nederland;Friesland;Dongeradeel;Ee;E6.10;N53.33;12;
3;Nederland;Friesland;Dongeradeel;Engwierum;E6.13;N53.32;12;
3;Nederland;Friesland;Dongeradeel;Ezumazijl;E6.15;N53.36;12;
3;Nederland;Friesland;Dongeradeel;Foudgum;E5.944;N53.345;12;
3;Nederland;Friesland;Dongeradeel;Hantum;E5.964;N53.362;12;
3;Nederland;Friesland;Dongeradeel;Hantumeruitburen;E6.00;N53.36;12;
3;Nederland;Friesland;Dongeradeel;Hantumhuizen;E5.997;N53.372;12;
3;Nederland;Friesland;Dongeradeel;Hiaure;E5.971;N53.347;12;
3;Nederland;Friesland;Dongeradeel;Holwerd;E5.90;N53.37;12;
3;Nederland;Friesland;Dongeradeel;Jouswier;E6.05;N53.35;12;
3;Nederland;Friesland;Dongeradeel;Lioessens;E6.08;N53.38;12;
3;Nederland;Friesland;Dongeradeel;Metslawier;E6.07;N53.36;12;
3;Nederland;Friesland;Dongeradeel;Moddergat;E6.082;N53.403;13;
3;Nederland;Friesland;Dongeradeel;Morra;E6.09;N53.37;12;
3;Nederland;Friesland;Dongeradeel;Nes;E6.048;N53.397;12;
3;Nederland;Friesland;Dongeradeel;Niawier;E6.049;N53.363;13;
3;Nederland;Friesland;Dongeradeel;Nijkerk;E6.05;N53.38;12;
3;Nederland;Friesland;Dongeradeel;Oosternijkerk;E6.05;N53.38;13;
3;Nederland;Friesland;Dongeradeel;Oostmahorn;E6.16;N53.38;12;
3;Nederland;Friesland;Dongeradeel;Oostrum;E6.061;N53.331;12;
3;Nederland;Friesland;Dongeradeel;Paesens;E6.085;N53.401;13;
3;Nederland;Friesland;Dongeradeel;Raard;E5.945;N53.326;12;
3;Nederland;Friesland;Dongeradeel;Ternaard;E5.97;N53.38;13;
3;Nederland;Friesland;Dongeradeel;Tibma;E6.109;N53.334;12;
3;Nederland;Friesland;Dongeradeel;Waaxens;E5.921;N53.356;13;
3;Nederland;Friesland;Dongeradeel;Wetsens;E6.035;N53.347;12;
3;Nederland;Friesland;Dongeradeel;Wetzens;E6.031;N53.348;12;
3;Nederland;Friesland;Dongeradeel;Wierum;E6.02;N53.40;12;
2;Nederland;Friesland;Ferwerderadeel;;E5.847;N53.324;11;places/NLD/flags/FR/Ferwerderadeel.png
3;Nederland;Friesland;Ferwerderadeel;Bartlehiem;E5.843;N53.277;12;
3;Nederland;Friesland;Ferwerderadeel;Birdaard;E5.878;N53.294;12;
3;Nederland;Friesland;Ferwerderadeel;Blija;E5.862;N53.352;12;
3;Nederland;Friesland;Ferwerderadeel;Ferwerd;E5.826;N53.338;12;
3;Nederland;Friesland;Ferwerderadeel;Genum;E5.874;N53.322;12;
3;Nederland;Friesland;Ferwerderadeel;Hallum;E5.786;N53.306;12;
3;Nederland;Friesland;Ferwerderadeel;Hogebeintum;E5.847;N53.337;12;
3;Nederland;Friesland;Ferwerderadeel;Janum;E5.908;N53.313;12;
3;Nederland;Friesland;Ferwerderadeel;Jislum;E5.877;N53.313;12;
3;Nederland;Friesland;Ferwerderadeel;Lichtaard;E5.911;N53.325;12;
3;Nederland;Friesland;Ferwerderadeel;Marrum;E5.799;N53.324;12;
3;Nederland;Friesland;Ferwerderadeel;Nieuwe Bildtzijl;E5.721;N53.316;12;
3;Nederland;Friesland;Ferwerderadeel;Reitsum;E5.889;N53.321;13;
3;Nederland;Friesland;Ferwerderadeel;Tergracht;E5.844;N53.286;12;
3;Nederland;Friesland;Ferwerderadeel;Wanswerd;E5.847;N53.301;12;
2;Nederland;Friesland;Franekeradeel;;E5.607;N53.204;11;places/NLD/flags/FR/Franekeradeel.jpg
3;Nederland;Friesland;Franekeradeel;Achlum;E5.483;N53.148;12;
3;Nederland;Friesland;Franekeradeel;Arkens;E5.554;N53.191;12;
3;Nederland;Friesland;Franekeradeel;Boer;E5.564;N53.215;12;
3;Nederland;Friesland;Franekeradeel;Dongjum;E5.542;N53.209;12;
3;Nederland;Friesland;Franekeradeel;Firdgum;E5.559;N53.249;12;
3;Nederland;Friesland;Franekeradeel;Franeker;E5.538;N53.187;12;
3;Nederland;Friesland;Franekeradeel;Herbaijum;E5.500;N53.183;12;
3;Nederland;Friesland;Franekeradeel;Hitzum;E5.517;N53.167;12;
3;Nederland;Friesland;Franekeradeel;Klooster-Lidlum;E5.522;N53.230;12;
3;Nederland;Friesland;Franekeradeel;Oosterbierum;E5.517;N53.233;12;
3;Nederland;Friesland;Franekeradeel;Peins;E5.594;N53.205;12;
3;Nederland;Friesland;Franekeradeel;Pietersbierum;E5.479;N53.216;12;
3;Nederland;Friesland;Franekeradeel;Ried;E5.592;N53.224;12;
3;Nederland;Friesland;Franekeradeel;Schalsum;E5.572;N53.197;12;
3;Nederland;Friesland;Franekeradeel;Sexbierum;E5.486;N53.219;13;
3;Nederland;Friesland;Franekeradeel;Tzum;E5.564;N53.158;12;
3;Nederland;Friesland;Franekeradeel;Tzummarum;E5.543;N53.237;12;
3;Nederland;Friesland;Franekeradeel;Zweins;E5.607;N53.190;12;
2;Nederland;Friesland;Gaasterland-Sloten;;E5.624;N52.887;11;places/NLD/flags/FR/Gaasterland.jpg
3;Nederland;Friesland;Gaasterland-Sloten;Bakhuizen;E5.450;N52.867;12;
3;Nederland;Friesland;Gaasterland-Sloten;Balk;E5.583;N52.897;12;
3;Nederland;Friesland;Gaasterland-Sloten;Elahuizen;E5.537;N52.922;12;
3;Nederland;Friesland;Gaasterland-Sloten;Harich;E5.567;N52.902;12;
3;Nederland;Friesland;Gaasterland-Sloten;Kolderwolde;E5.508;N52.897;12;
3;Nederland;Friesland;Gaasterland-Sloten;Mirns;E5.461;N52.862;12;
3;Nederland;Friesland;Gaasterland-Sloten;Nijemirdum;E5.570;N52.856;12;
3;Nederland;Friesland;Gaasterland-Sloten;Oudega;E5.523;N52.904;12;
3;Nederland;Friesland;Gaasterland-Sloten;Oudemirdum;E5.533;N52.850;12;
3;Nederland;Friesland;Gaasterland-Sloten;Rijs;E5.496;N52.863;12;
3;Nederland;Friesland;Gaasterland-Sloten;Ruigahuizen;E5.567;N52.883;12;
3;Nederland;Friesland;Gaasterland-Sloten;Sloten;E5.646;N52.894;12;
3;Nederland;Friesland;Gaasterland-Sloten;Sondel;E5.596;N52.872;12;
3;Nederland;Friesland;Gaasterland-Sloten;Wijckel;E5.624;N52.888;12;
2;Nederland;Friesland;Harlingen;;E5.461;N53.18;12;places/NLD/flags/FR/Harlingen.jpg
3;Nederland;Friesland;Harlingen;Almenum;E5.438;N53.184;13;
3;Nederland;Friesland;Harlingen;Harlingen;E5.42;N53.17;12;
3;Nederland;Friesland;Harlingen;Midlum;E5.45;N53.18;12;
3;Nederland;Friesland;Harlingen;Wijnaldum;E5.461;N53.195;12;
2;Nederland;Friesland;Heerenveen;;E5.943;N52.973;11;places/NLD/flags/FR/Heerenveen.jpg
3;Nederland;Friesland;Heerenveen;Annaburen;;;12;
3;Nederland;Friesland;Heerenveen;Benedenknijpe;E5.967;N52.967;13;
3;Nederland;Friesland;Heerenveen;Bontebok;E6.027;N52.962;12;
3;Nederland;Friesland;Heerenveen;Brongerga;E5.983;N52.950;12;
3;Nederland;Friesland;Heerenveen;De Knijpe;E5.971;N52.968;12;
3;Nederland;Friesland;Heerenveen;De Knipe;E5.971;N52.967;12;
3;Nederland;Friesland;Heerenveen;Gersloot;E5.964;N53.005;12;
3;Nederland;Friesland;Heerenveen;Heerenveen;E5.926;N52.954;12;
3;Nederland;Friesland;Heerenveen;Hoornsterzwaag;E6.167;N53.000;12;
3;Nederland;Friesland;Heerenveen;Jubbega;E6.120;N53.003;12;
3;Nederland;Friesland;Heerenveen;Katlijk;E6.012;N52.947;12;
3;Nederland;Friesland;Heerenveen;Luinjeberd;E5.922;N52.990;12;
3;Nederland;Friesland;Heerenveen;Mildam;E6.000;N52.933;12;
3;Nederland;Friesland;Heerenveen;Nieuwehorne;E6.058;N52.950;12;
3;Nederland;Friesland;Heerenveen;Nieuweschoot;E5.933;N52.933;12;
3;Nederland;Friesland;Heerenveen;Oranjewoud;E5.950;N52.946;12;
3;Nederland;Friesland;Heerenveen;Oudehorne;E6.080;N52.962;12;
3;Nederland;Friesland;Heerenveen;Oudeschoot;E5.967;N52.933;12;
3;Nederland;Friesland;Heerenveen;Terband;E5.904;N52.996;12;
3;Nederland;Friesland;Heerenveen;Tjalleberd;E5.943;N52.997;12;
2;Nederland;Friesland;het Bildt;;E5.557;N53.277;11;places/NLD/flags/FR/Het_Bildt.png
3;Nederland;Friesland;het Bildt;Minnertsga;E5.594;N53.251;12;
3;Nederland;Friesland;het Bildt;Oude Bildtzijl;E5.717;N53.300;12;
3;Nederland;Friesland;het Bildt;Sint Annaparochie;E5.661;N53.277;12;
3;Nederland;Friesland;het Bildt;Sint Jacobiparochie;E5.607;N53.273;12;
3;Nederland;Friesland;het Bildt;Vrouwenparochie;E5.700;N53.280;12;
3;Nederland;Friesland;het Bildt;Westhoek;E5.557;N53.272;12;
2;Nederland;Friesland;Kollumerland en Nieuwkruisland;;E6.045;N53.285;11;places/NLD/flags/FR/Kollumerland.png
3;Nederland;Friesland;Kollumerland en Nieuwkruisland;Augsbuurt;E6.162;N53.266;12;
3;Nederland;Friesland;Kollumerland en Nieuwkruisland;Burum;E6.230;N53.272;12;
3;Nederland;Friesland;Kollumerland en Nieuwkruisland;Kollum;E6.145;N53.280;12;
3;Nederland;Friesland;Kollumerland en Nieuwkruisland;Kollumerpomp;E6.188;N53.305;12;
3;Nederland;Friesland;Kollumerland en Nieuwkruisland;Kollumerzwaag;E6.074;N53.263;13;
3;Nederland;Friesland;Kollumerland en Nieuwkruisland;Munnekezijl;E6.275;N53.303;12;
3;Nederland;Friesland;Kollumerland en Nieuwkruisland;Oudwoude;E6.113;N53.280;12;
3;Nederland;Friesland;Kollumerland en Nieuwkruisland;Triemen;E6.086;N53.278;12;
3;Nederland;Friesland;Kollumerland en Nieuwkruisland;Veenklooster;E6.107;N53.265;13;
3;Nederland;Friesland;Kollumerland en Nieuwkruisland;Warfstermolen;E6.231;N53.296;12;
3;Nederland;Friesland;Kollumerland en Nieuwkruisland;Westergeest;E6.085;N53.289;12;
3;Nederland;Friesland;Kollumerland en Nieuwkruisland;Zwagerbosch;E6.045;N53.248;12;
2;Nederland;Friesland;Leeuwarden;;E5.784;N53.197;11;places/NLD/flags/FR/Leeuwarden.png
3;Nederland;Friesland;Leeuwarden;Goutum;E5.805;N53.178;12;
3;Nederland;Friesland;Leeuwarden;Hempens;E5.841;N53.178;12;
3;Nederland;Friesland;Leeuwarden;Leeuwarden;E5.793;N53.197;12;
3;Nederland;Friesland;Leeuwarden;Lekkum;E5.820;N53.224;12;
3;Nederland;Friesland;Leeuwarden;Miedum;E5.838;N53.236;12;
3;Nederland;Friesland;Leeuwarden;Snakkerburen;E5.800;N53.217;12;
3;Nederland;Friesland;Leeuwarden;Swichum;E5.817;N53.150;12;
3;Nederland;Friesland;Leeuwarden;Teerns;E5.834;N53.181;13;
3;Nederland;Friesland;Leeuwarden;Wirdum;E5.802;N53.150;12;
3;Nederland;Friesland;Leeuwarden;Wytgaard;E5.784;N53.141;12;
2;Nederland;Friesland;Leeuwarderadeel;;E5.760;N53.264;11;places/NLD/flags/FR/Leeuwarderadeel.jpg
3;Nederland;Friesland;Leeuwarderadeel;Bartlehiem;E5.840;N53.276;12;
3;Nederland;Friesland;Leeuwarderadeel;Britsum;E5.781;N53.252;12;
3;Nederland;Friesland;Leeuwarderadeel;Cornjum;E5.780;N53.243;12;
3;Nederland;Friesland;Leeuwarderadeel;Finkum;E5.759;N53.278;12;
3;Nederland;Friesland;Leeuwarderadeel;Hijum;E5.767;N53.291;12;
3;Nederland;Friesland;Leeuwarderadeel;Jelsum;E5.780;N53.233;12;
3;Nederland;Friesland;Leeuwarderadeel;Oude Leije;E5.728;N53.289;12;
3;Nederland;Friesland;Leeuwarderadeel;Stiens;E5.760;N53.262;12;
2;Nederland;Friesland;Lemsterland;;E5.775;N52.855;11;places/NLD/flags/FR/Lemsterland.png
3;Nederland;Friesland;Lemsterland;Bantega;E5.797;N52.841;12;
3;Nederland;Friesland;Lemsterland;Brakkenpolder;E5.693;N52.853;13;
3;Nederland;Friesland;Lemsterland;Delfstrahuizen;E5.822;N52.873;12;
3;Nederland;Friesland;Lemsterland;Echten;E5.798;N52.874;12;
3;Nederland;Friesland;Lemsterland;Echtenerbrug;E5.822;N52.871;13;
3;Nederland;Friesland;Lemsterland;Eesterga;E5.727;N52.865;13;
3;Nederland;Friesland;Lemsterland;Follega;E5.733;N52.883;12;
3;Nederland;Friesland;Lemsterland;Lemmer;E5.710;N52.844;12;
3;Nederland;Friesland;Lemsterland;Oosterzee;E5.775;N52.873;12;
2;Nederland;Friesland;Littenseradeel;;E5.587;N53.132;11;places/NLD/flags/FR/Littenseradiel.jpg
3;Nederland;Friesland;Littenseradeel;Baard;E5.669;N53.143;12;
3;Nederland;Friesland;Littenseradeel;Baijum;E5.630;N53.164;12;
3;Nederland;Friesland;Littenseradeel;Beers;E5.735;N53.155;12;
3;Nederland;Friesland;Littenseradeel;Boazum;E5.692;N53.087;12;
3;Nederland;Friesland;Littenseradeel;Bozum;E5.696;N53.088;12;
3;Nederland;Friesland;Littenseradeel;Britswerd;E5.675;N53.113;13;
3;Nederland;Friesland;Littenseradeel;Edens;E5.613;N53.121;12;
3;Nederland;Friesland;Littenseradeel;Hennaard;E5.629;N53.116;12;
3;Nederland;Friesland;Littenseradeel;Hidaard;E5.604;N53.080;12;
3;Nederland;Friesland;Littenseradeel;Hijlaard;E5.711;N53.165;12;
3;Nederland;Friesland;Littenseradeel;Hilaard;E5.711;N53.165;12;
3;Nederland;Friesland;Littenseradeel;Hinnaard;E5.629;N53.115;12;
3;Nederland;Friesland;Littenseradeel;Huins;E5.669;N53.159;12;
3;Nederland;Friesland;Littenseradeel;Itens;E5.641;N53.102;12;
3;Nederland;Friesland;Littenseradeel;Jellum;E5.745;N53.161;12;
3;Nederland;Friesland;Littenseradeel;Jorwerd;E5.713;N53.143;12;
3;Nederland;Friesland;Littenseradeel;Kubaard;E5.567;N53.117;12;
3;Nederland;Friesland;Littenseradeel;Lions;E5.676;N53.151;12;
3;Nederland;Friesland;Littenseradeel;Lutkewierum;E5.664;N53.088;12;
3;Nederland;Friesland;Littenseradeel;Mantgum;E5.717;N53.133;12;
3;Nederland;Friesland;Littenseradeel;Oosterend;E5.620;N53.095;12;
3;Nederland;Friesland;Littenseradeel;Oosterlittens;E5.650;N53.133;12;
3;Nederland;Friesland;Littenseradeel;Oosterwierum;E5.733;N53.109;12;
3;Nederland;Friesland;Littenseradeel;Rien;E5.656;N53.095;12;
3;Nederland;Friesland;Littenseradeel;Roodhuis;E5.635;N53.076;12;
3;Nederland;Friesland;Littenseradeel;Spannum;E5.607;N53.142;12;
3;Nederland;Friesland;Littenseradeel;Waaxens;E5.535;N53.109;12;
3;Nederland;Friesland;Littenseradeel;Weidum;E5.744;N53.146;12;
3;Nederland;Friesland;Littenseradeel;Welsrijp;E5.607;N53.166;12;
3;Nederland;Friesland;Littenseradeel;Wieuwerd;E5.689;N53.109;12;
3;Nederland;Friesland;Littenseradeel;Winsum;E5.633;N53.150;12;
3;Nederland;Friesland;Littenseradeel;Wommels;E5.587;N53.108;12;
2;Nederland;Friesland;Menaldumadeel;;E5.624;N53.226;11;places/NLD/flags/FR/Menaldumadeel.jpg
3;Nederland;Friesland;Menaldumadeel;Beetgum;E5.688;N53.236;13;
3;Nederland;Friesland;Menaldumadeel;Beetgumermolen;E5.702;N53.234;12;
3;Nederland;Friesland;Menaldumadeel;Berlikum;E5.650;N53.243;12;
3;Nederland;Friesland;Menaldumadeel;Blessum;E5.710;N53.182;12;
3;Nederland;Friesland;Menaldumadeel;Boksum;E5.727;N53.177;12;
3;Nederland;Friesland;Menaldumadeel;Deinum;E5.724;N53.192;12;
3;Nederland;Friesland;Menaldumadeel;Dronrijp;E5.645;N53.192;12;
3;Nederland;Friesland;Menaldumadeel;Engelum;E5.715;N53.225;12;
3;Nederland;Friesland;Menaldumadeel;Marssum;E5.729;N53.211;12;
3;Nederland;Friesland;Menaldumadeel;Menaldum;E5.663;N53.216;12;
3;Nederland;Friesland;Menaldumadeel;Schingen;E5.617;N53.200;12;
3;Nederland;Friesland;Menaldumadeel;Slappeterp;E5.620;N53.212;12;
3;Nederland;Friesland;Menaldumadeel;Wier;E5.624;N53.252;12;
2;Nederland;Friesland;Nijefurd;;E5.447;N52.935;11;places/NLD/flags/FR/Nijefurd.jpg
3;Nederland;Friesland;Nijefurd;Brandeburen;E5.502;N52.948;13;
3;Nederland;Friesland;Nijefurd;Hemelum;E5.456;N52.882;12;
3;Nederland;Friesland;Nijefurd;Hindeloopen;E5.403;N52.941;12;
3;Nederland;Friesland;Nijefurd;It Heidenskip;E5.499;N52.949;12;
3;Nederland;Friesland;Nijefurd;Koudum;E5.448;N52.914;12;
3;Nederland;Friesland;Nijefurd;Molkwerum;E5.400;N52.900;12;
3;Nederland;Friesland;Nijefurd;Nijhuizum;E5.484;N52.980;12;
3;Nederland;Friesland;Nijefurd;Stavoren;E5.361;N52.885;12;
3;Nederland;Friesland;Nijefurd;Warns;E5.404;N52.882;12;
3;Nederland;Friesland;Nijefurd;Workum;E5.447;N52.978;12;
2;Nederland;Friesland;Ooststellingwerf;;E6.278;N53.000;10;places/NLD/flags/FR/Ooststellingwerf.jpg
3;Nederland;Friesland;Ooststellingwerf;Aekinga;E6.325;N52.952;12;
3;Nederland;Friesland;Ooststellingwerf;Appelscha;E6.354;N52.956;12;
3;Nederland;Friesland;Ooststellingwerf;Buttinga;E6.283;N52.983;12;
3;Nederland;Friesland;Ooststellingwerf;Donkerbroek;E6.233;N53.017;12;
3;Nederland;Friesland;Ooststellingwerf;Een-West;;;12;
3;Nederland;Friesland;Ooststellingwerf;Elsloo;E6.237;N52.944;12;
3;Nederland;Friesland;Ooststellingwerf;Fochteloo;E6.338;N52.992;12;
3;Nederland;Friesland;Ooststellingwerf;Haule;E6.300;N53.033;12;
3;Nederland;Friesland;Ooststellingwerf;Haulerwijk;E6.330;N53.064;12;
3;Nederland;Friesland;Ooststellingwerf;Langedijke;E6.291;N52.964;12;
3;Nederland;Friesland;Ooststellingwerf;Makkinga;E6.215;N52.979;12;
3;Nederland;Friesland;Ooststellingwerf;Nijeberkoop;E6.190;N52.958;12;
3;Nederland;Friesland;Ooststellingwerf;Oldeberkoop;E6.131;N52.937;12;
3;Nederland;Friesland;Ooststellingwerf;Oosterwolde;E6.293;N52.991;12;
3;Nederland;Friesland;Ooststellingwerf;Ravenswoud;E6.379;N52.964;12;
3;Nederland;Friesland;Ooststellingwerf;Waskemeer;E6.278;N53.056;12;
2;Nederland;Friesland;Opsterland;;E6.208;N53.066;10;places/NLD/flags/FR/Opsterland.png
3;Nederland;Friesland;Opsterland;Allardsoog;E6.294;N53.095;12;
3;Nederland;Friesland;Opsterland;Bakkeveen;E6.259;N53.080;13;
3;Nederland;Friesland;Opsterland;Beets;E5.996;N53.068;12;
3;Nederland;Friesland;Opsterland;Beetsterzwaag;E6.080;N53.060;12;
3;Nederland;Friesland;Opsterland;Frieschepalen;E6.205;N53.109;12;
3;Nederland;Friesland;Opsterland;Gorredijk;E6.067;N53.000;12;
3;Nederland;Friesland;Opsterland;Hemrik;E6.136;N53.031;12;
3;Nederland;Friesland;Opsterland;Jonkersland;E6.042;N52.979;12;
3;Nederland;Friesland;Opsterland;Langezwaag;E6.000;N52.983;12;
3;Nederland;Friesland;Opsterland;Lippenhuizen;E6.091;N53.017;12;
3;Nederland;Friesland;Opsterland;Luxwoude;E5.981;N52.996;12;
3;Nederland;Friesland;Opsterland;Nij Beets;E6.002;N53.071;13;
3;Nederland;Friesland;Opsterland;Olterterp;E6.100;N53.067;12;
3;Nederland;Friesland;Opsterland;Siegerswoude;E6.245;N53.100;12;
3;Nederland;Friesland;Opsterland;Terwispel;E6.050;N53.017;12;
3;Nederland;Friesland;Opsterland;Tijnje;E5.988;N53.031;12;
3;Nederland;Friesland;Opsterland;Ureterp;E6.170;N53.095;12;
3;Nederland;Friesland;Opsterland;Wijnjewoude;E6.208;N53.055;12;
2;Nederland;Friesland;Scharsterland;;E5.867;N52.977;10;places/NLD/flags/FR/Skarsterlan.gif
3;Nederland;Friesland;Scharsterland;Akmarijp;E5.789;N53.004;12;
3;Nederland;Friesland;Scharsterland;Boornzwaag;E5.745;N52.958;12;
3;Nederland;Friesland;Scharsterland;Broek;E5.777;N52.983;12;
3;Nederland;Friesland;Scharsterland;Dijken;E5.710;N52.954;12;
3;Nederland;Friesland;Scharsterland;Doniaga;E5.746;N52.907;12;
3;Nederland;Friesland;Scharsterland;Goingarijp;E5.772;N53.010;12;
3;Nederland;Friesland;Scharsterland;Haskerdijken;E5.879;N52.993;13;
3;Nederland;Friesland;Scharsterland;Haskerhorne;E5.833;N52.950;12;
3;Nederland;Friesland;Scharsterland;Idskenhuizen;E5.712;N52.929;12;
3;Nederland;Friesland;Scharsterland;Joure;E5.799;N52.964;12;
3;Nederland;Friesland;Scharsterland;Langweer;E5.722;N52.957;13;
3;Nederland;Friesland;Scharsterland;Legemeer;E5.729;N52.941;12;
3;Nederland;Friesland;Scharsterland;Nieuwebrug;E5.885;N52.989;12;
3;Nederland;Friesland;Scharsterland;Nijehaske;E5.895;N52.961;12;
3;Nederland;Friesland;Scharsterland;Oldeouwer;E5.800;N52.917;12;
3;Nederland;Friesland;Scharsterland;Oudehaske;E5.871;N52.956;12;
3;Nederland;Friesland;Scharsterland;Ouwster-Nijega;E5.806;N52.931;12;
3;Nederland;Friesland;Scharsterland;Ouwsterhaule;E5.811;N52.937;12;
3;Nederland;Friesland;Scharsterland;Rohel;E5.833;N52.917;12;
3;Nederland;Friesland;Scharsterland;Rotstergaast;E5.900;N52.900;12;
3;Nederland;Friesland;Scharsterland;Rotstergast;E5.891;N52.900;12;
3;Nederland;Friesland;Scharsterland;Rotsterhaule;E5.851;N52.919;12;
3;Nederland;Friesland;Scharsterland;Rottum;E5.890;N52.936;12;
3;Nederland;Friesland;Scharsterland;Scharsterbrug;E5.778;N52.943;12;
3;Nederland;Friesland;Scharsterland;Sint Nicolaasga;E5.741;N52.922;12;
3;Nederland;Friesland;Scharsterland;Sintjohannesga;E5.856;N52.931;12;
3;Nederland;Friesland;Scharsterland;Snikzwaag;E5.790;N52.982;13;
3;Nederland;Friesland;Scharsterland;Terkaple;E5.783;N53.017;12;
3;Nederland;Friesland;Scharsterland;Teroele;E5.693;N52.935;12;
3;Nederland;Friesland;Scharsterland;Tjerkgaast;E5.678;N52.903;12;
3;Nederland;Friesland;Scharsterland;Vegelinsoord;E5.867;N53.000;12;
2;Nederland;Friesland;Schiermonnikoog;;E6.161;N53.488;11;places/NLD/flags/FR/Schiermonnikoog.png
3;Nederland;Friesland;Schiermonnikoog;Schiermonnikoog;E6.161;N53.479;12;
2;Nederland;Friesland;Smallingerland;;E6.021;N53.125;11;places/NLD/flags/FR/Smallingerland.jpg
3;Nederland;Friesland;Smallingerland;Boornbergum;E6.050;N53.083;12;
3;Nederland;Friesland;Smallingerland;Buitenstverlaat;E6.050;N53.100;12;
3;Nederland;Friesland;Smallingerland;De Tike;E6.038;N53.152;12;
3;Nederland;Friesland;Smallingerland;De Veenhoop;E5.950;N53.097;12;
3;Nederland;Friesland;Smallingerland;De Wilgen;E6.033;N53.100;13;
3;Nederland;Friesland;Smallingerland;Drachten;E6.088;N53.108;12;
3;Nederland;Friesland;Smallingerland;Drachtstercompagnie;E6.133;N53.133;12;
3;Nederland;Friesland;Smallingerland;Goëngahuizen;E5.887;N53.078;12;
3;Nederland;Friesland;Smallingerland;Houtigehage;E6.142;N53.153;12;
3;Nederland;Friesland;Smallingerland;Kortehemmen;E6.077;N53.076;12;
3;Nederland;Friesland;Smallingerland;Nijega;E6.025;N53.141;12;
3;Nederland;Friesland;Smallingerland;Opeinde;E6.056;N53.132;11;
3;Nederland;Friesland;Smallingerland;Oudega;E5.999;N53.125;12;
3;Nederland;Friesland;Smallingerland;Rottevalle;E6.105;N53.145;12;
3;Nederland;Friesland;Smallingerland;Smalle Ee;E6.021;N53.104;13;
2;Nederland;Friesland;Sneek;;E5.661;N53.031;12;places/NLD/flags/FR/Sneek.png
3;Nederland;Friesland;Sneek;IJsbrechtum;E5.632;N53.042;13;
3;Nederland;Friesland;Sneek;Loënga;E5.680;N53.050;13;
3;Nederland;Friesland;Sneek;Offingawier;E5.695;N53.032;13;
3;Nederland;Friesland;Sneek;Sneek;E5.661;N53.032;12;
2;Nederland;Friesland;Terschelling;;E5.215;N53.400;10;places/NLD/flags/FR/Terschelling.png
3;Nederland;Friesland;Terschelling;Baaiduinen;E5.274;N53.378;13;
3;Nederland;Friesland;Terschelling;Formerum;E5.311;N53.390;13;
3;Nederland;Friesland;Terschelling;Hee;E5.254;N53.375;13;
3;Nederland;Friesland;Terschelling;Hoorn;E5.346;N53.398;13;
3;Nederland;Friesland;Terschelling;Horp;;;12;
3;Nederland;Friesland;Terschelling;Kaart;E5.274;N53.376;12;
3;Nederland;Friesland;Terschelling;Kinnum;E5.275;N53.375;13;
3;Nederland;Friesland;Terschelling;Landerum;E5.298;N53.387;13;
3;Nederland;Friesland;Terschelling;Lies;E5.325;N53.394;13;
3;Nederland;Friesland;Terschelling;Midsland;E5.285;N53.382;13;
3;Nederland;Friesland;Terschelling;Midsland aan Zee;E5.283;N53.400;13;
3;Nederland;Friesland;Terschelling;Oosterend;E5.377;N53.405;13;
3;Nederland;Friesland;Terschelling;Seerijp;E5.300;N53.376;13;
3;Nederland;Friesland;Terschelling;Terschelling;E5.217;N53.365;13;
3;Nederland;Friesland;Terschelling;West-Terschelling;E5.215;N53.360;12;
2;Nederland;Friesland;Tietjerksteradeel;;E5.833;N53.224;10;places/NLD/flags/FR/Tytsjerksteradiel.jpg
3;Nederland;Friesland;Tietjerksteradeel;Bartlehiem;E5.843;N53.277;12;
3;Nederland;Friesland;Tietjerksteradeel;Bergum;E5.994;N53.194;12;
3;Nederland;Friesland;Tietjerksteradeel;Bergumerdam;E5.989;N53.194;13;
3;Nederland;Friesland;Tietjerksteradeel;Eernewoude;E5.941;N53.132;13;
3;Nederland;Friesland;Tietjerksteradeel;Eestrum;E6.067;N53.212;12;
3;Nederland;Friesland;Tietjerksteradeel;Garijp;E5.967;N53.167;12;
3;Nederland;Friesland;Tietjerksteradeel;Giekerk;E5.893;N53.240;12;
3;Nederland;Friesland;Tietjerksteradeel;Hardegarijp;E5.938;N53.215;12;
3;Nederland;Friesland;Tietjerksteradeel;Molenend;E5.921;N53.252;12;
3;Nederland;Friesland;Tietjerksteradeel;Noordbergum;E6.005;N53.222;12;
3;Nederland;Friesland;Tietjerksteradeel;Oenkerk;E5.895;N53.254;12;
3;Nederland;Friesland;Tietjerksteradeel;Oostermeer;E6.058;N53.174;12;
3;Nederland;Friesland;Tietjerksteradeel;Oudkerk;E5.890;N53.263;12;
3;Nederland;Friesland;Tietjerksteradeel;Rijperkerk;E5.914;N53.222;12;
3;Nederland;Friesland;Tietjerksteradeel;Schuilenburg;E6.069;N53.193;12;
3;Nederland;Friesland;Tietjerksteradeel;Suameer;E5.996;N53.178;12;
3;Nederland;Friesland;Tietjerksteradeel;Suawoude;E5.927;N53.178;12;
3;Nederland;Friesland;Tietjerksteradeel;Tergracht;E5.850;N53.283;12;
3;Nederland;Friesland;Tietjerksteradeel;Tietjerk;E5.912;N53.213;12;
3;Nederland;Friesland;Tietjerksteradeel;Wijns;E5.833;N53.250;12;
2;Nederland;Friesland;Vlieland;;E5.074;N53.256;11;places/NLD/flags/FR/Vlieland.jpg
3;Nederland;Friesland;Vlieland;Oost-Vlieland;E5.087;N53.297;13;
3;Nederland;Friesland;Vlieland;Vlieland;E5.074;N53.296;13;
2;Nederland;Friesland;Weststellingwerf;;E6.151;N52.873;10;places/NLD/flags/FR/Weststellingwerf.jpg
3;Nederland;Friesland;Weststellingwerf;Blesdijke;E6.014;N52.831;12;
3;Nederland;Friesland;Weststellingwerf;Boijl;E6.200;N52.910;12;
3;Nederland;Friesland;Weststellingwerf;De Blesse;E6.040;N52.843;12;
3;Nederland;Friesland;Weststellingwerf;De Hoeve;E6.088;N52.886;12;
3;Nederland;Friesland;Weststellingwerf;Langelille;E5.842;N52.842;12;
3;Nederland;Friesland;Weststellingwerf;Munnekeburen;E5.887;N52.848;12;
3;Nederland;Friesland;Weststellingwerf;Nijeholtpade;E6.078;N52.913;12;
3;Nederland;Friesland;Weststellingwerf;Nijeholtwolde;E5.986;N52.895;12;
3;Nederland;Friesland;Weststellingwerf;Nijelamer;E5.954;N52.885;12;
3;Nederland;Friesland;Weststellingwerf;Nijetrijne;E5.908;N52.842;12;
3;Nederland;Friesland;Weststellingwerf;Noordwolde;E6.141;N52.890;12;
3;Nederland;Friesland;Weststellingwerf;Oldeholtpade;E6.049;N52.892;12;
3;Nederland;Friesland;Weststellingwerf;Oldeholtwolde;E6.010;N52.905;12;
3;Nederland;Friesland;Weststellingwerf;Oldelamer;E5.930;N52.872;12;
3;Nederland;Friesland;Weststellingwerf;Oldetrijne;E5.947;N52.863;13;
3;Nederland;Friesland;Weststellingwerf;Oosterstreek;E6.158;N52.897;13;
3;Nederland;Friesland;Weststellingwerf;Peperga;E6.054;N52.849;12;
3;Nederland;Friesland;Weststellingwerf;Scherpenzeel;E5.876;N52.832;12;
3;Nederland;Friesland;Weststellingwerf;Schoterzijl;E5.817;N52.817;12;
3;Nederland;Friesland;Weststellingwerf;Slijkenburg;E5.844;N52.806;12;
3;Nederland;Friesland;Weststellingwerf;Sonnega;E5.960;N52.867;12;
3;Nederland;Friesland;Weststellingwerf;Spanga;E5.885;N52.818;12;
3;Nederland;Friesland;Weststellingwerf;Steggerda;E6.074;N52.856;12;
3;Nederland;Friesland;Weststellingwerf;Ter Idzard;E6.033;N52.900;12;
3;Nederland;Friesland;Weststellingwerf;Vinkega;E6.116;N52.873;12;
3;Nederland;Friesland;Weststellingwerf;Wolvega;E5.998;N52.877;12;
3;Nederland;Friesland;Weststellingwerf;Zandhuizen;E6.151;N52.910;12;
2;Nederland;Friesland;Wonseradeel;;E5.397;N53.078;10;places/NLD/flags/FR/Wonseradeel.png
3;Nederland;Friesland;Wonseradeel;Allenga;;;12;
3;Nederland;Friesland;Wonseradeel;Allingawier;E5.445;N53.047;12;
3;Nederland;Friesland;Wonseradeel;Arkum;E5.501;N53.030;13;
3;Nederland;Friesland;Wonseradeel;Arum;E5.475;N53.129;12;
3;Nederland;Friesland;Wonseradeel;Atzeburen;E5.500;N53.017;13;
3;Nederland;Friesland;Wonseradeel;Baarderburen;E5.489;N53.129;13;
3;Nederland;Friesland;Wonseradeel;Baburen;E5.499;N53.045;13;
3;Nederland;Friesland;Wonseradeel;Breezanddijk;E5.209;N53.021;12;
3;Nederland;Friesland;Wonseradeel;Burgwerd;E5.546;N53.088;12;
3;Nederland;Friesland;Wonseradeel;Cornwerd;E5.391;N53.082;12;
3;Nederland;Friesland;Wonseradeel;De Blokken;E5.433;N53.133;13;
3;Nederland;Friesland;Wonseradeel;Dedgum;E5.483;N53.017;12;
3;Nederland;Friesland;Wonseradeel;Dijksterburen;E5.418;N53.134;13;
3;Nederland;Friesland;Wonseradeel;Doniaburen;E5.428;N53.000;13;
3;Nederland;Friesland;Wonseradeel;Eemswoude;E5.516;N53.048;13;
3;Nederland;Friesland;Wonseradeel;Engwier;E5.412;N53.068;13;
3;Nederland;Friesland;Wonseradeel;Exmorra;E5.463;N53.056;12;
3;Nederland;Friesland;Wonseradeel;Exmorrazijl;E5.467;N53.065;13;
3;Nederland;Friesland;Wonseradeel;Ferwoude;E5.433;N53.005;12;
3;Nederland;Friesland;Wonseradeel;Gaast;E5.410;N53.017;12;
3;Nederland;Friesland;Wonseradeel;Gooium;E5.400;N53.100;13;
3;Nederland;Friesland;Wonseradeel;Grauwe Kat;E5.487;N53.114;12;
3;Nederland;Friesland;Wonseradeel;Harkezijl;E5.450;N53.100;13;
3;Nederland;Friesland;Wonseradeel;Hartwerd;E5.567;N53.067;12;
3;Nederland;Friesland;Wonseradeel;Hayum;E5.417;N53.100;13;
3;Nederland;Friesland;Wonseradeel;Hemert;E5.525;N53.098;13;
3;Nederland;Friesland;Wonseradeel;Hichtum;E5.523;N53.081;12;
3;Nederland;Friesland;Wonseradeel;Hieslum;E5.487;N53.008;12;
3;Nederland;Friesland;Wonseradeel;Idsegahuizum;E5.418;N53.043;13;
3;Nederland;Friesland;Wonseradeel;Idserdaburen;E5.483;N53.000;13;
3;Nederland;Friesland;Wonseradeel;It Fliet;;;12;
3;Nederland;Friesland;Wonseradeel;Jonkershuizen;E5.517;N53.033;13;
3;Nederland;Friesland;Wonseradeel;Jousterp;E5.483;N53.033;13;
3;Nederland;Friesland;Wonseradeel;Kampen;E5.455;N53.102;13;
3;Nederland;Friesland;Wonseradeel;Kimswerd;E5.437;N53.140;12;
3;Nederland;Friesland;Wonseradeel;Kooihuizen;E5.417;N53.033;13;
3;Nederland;Friesland;Wonseradeel;Kornwerderzand;E5.335;N53.074;12;
3;Nederland;Friesland;Wonseradeel;Koudehuizum;E5.450;N53.100;13;
3;Nederland;Friesland;Wonseradeel;Lollum;E5.532;N53.125;12;
3;Nederland;Friesland;Wonseradeel;Longerhouw;E5.483;N53.067;12;
3;Nederland;Friesland;Wonseradeel;Makkum;E5.400;N53.050;12;
3;Nederland;Friesland;Wonseradeel;Oosthem;E5.600;N53.017;12;
3;Nederland;Friesland;Wonseradeel;Parrega;E5.477;N53.018;13;
3;Nederland;Friesland;Wonseradeel;Piaam;E5.405;N53.037;12;
3;Nederland;Friesland;Wonseradeel;Pingjum;E5.442;N53.115;12;
3;Nederland;Friesland;Wonseradeel;Rijtseterp;E5.483;N53.033;13;
3;Nederland;Friesland;Wonseradeel;Scharneburen;E5.433;N53.000;13;
3;Nederland;Friesland;Wonseradeel;Schettens;E5.483;N53.083;12;
3;Nederland;Friesland;Wonseradeel;Schraard;E5.450;N53.081;12;
3;Nederland;Friesland;Wonseradeel;Strand;E5.402;N53.117;13;
3;Nederland;Friesland;Wonseradeel;Tjerkwerd;E5.498;N53.042;12;
3;Nederland;Friesland;Wonseradeel;Vierhuizen;E5.450;N53.050;13;
3;Nederland;Friesland;Wonseradeel;Witmarsum;E5.467;N53.100;12;
3;Nederland;Friesland;Wonseradeel;Wonneburen;E5.433;N53.017;12;
3;Nederland;Friesland;Wonseradeel;Wons;E5.424;N53.083;12;
3;Nederland;Friesland;Wonseradeel;Zurich;E5.397;N53.112;12;
2;Nederland;Friesland;Wymbritseradeel;;E5.604;N52.995;10;places/NLD/flags/FR/Wymbritseradiel.jpg
3;Nederland;Friesland;Wymbritseradeel;Abbega;E5.573;N53.018;12;
3;Nederland;Friesland;Wymbritseradeel;Blauwhuis;E5.533;N53.022;12;
3;Nederland;Friesland;Wymbritseradeel;Folsgare;E5.606;N53.036;12;
3;Nederland;Friesland;Wymbritseradeel;Gaastmeer;E5.544;N52.966;12;
3;Nederland;Friesland;Wymbritseradeel;Gauw;E5.713;N53.058;12;
3;Nederland;Friesland;Wymbritseradeel;Goënga;E5.695;N53.054;12;
3;Nederland;Friesland;Wymbritseradeel;Greonterp;E5.521;N53.015;12;
3;Nederland;Friesland;Wymbritseradeel;Heeg;E5.609;N52.967;12;
3;Nederland;Friesland;Wymbritseradeel;Hommerts;E5.646;N52.980;12;
3;Nederland;Friesland;Wymbritseradeel;Idzega;E5.553;N52.978;12;
3;Nederland;Friesland;Wymbritseradeel;IJlst;E5.630;N53.009;12;
3;Nederland;Friesland;Wymbritseradeel;Indijk;E5.602;N52.946;12;
3;Nederland;Friesland;Wymbritseradeel;Jutrijp;E5.649;N52.996;12;
3;Nederland;Friesland;Wymbritseradeel;Koufurderigge;E5.654;N52.951;12;
3;Nederland;Friesland;Wymbritseradeel;Koufurdurigge;E5.653;N52.951;12;
3;Nederland;Friesland;Wymbritseradeel;Nijezijl;E5.608;N53.008;12;
3;Nederland;Friesland;Wymbritseradeel;Nijland;E5.576;N53.050;12;
3;Nederland;Friesland;Wymbritseradeel;Oosthem;E5.600;N53.017;12;
3;Nederland;Friesland;Wymbritseradeel;Oppenhuizen;E5.696;N53.013;12;
3;Nederland;Friesland;Wymbritseradeel;Osingahuizen;E5.621;N52.977;13;
3;Nederland;Friesland;Wymbritseradeel;Oudega;E5.550;N53.000;12;
3;Nederland;Friesland;Wymbritseradeel;Sandfirden;E5.521;N52.989;12;
3;Nederland;Friesland;Wymbritseradeel;Scharnegoutum;E5.679;N53.061;12;
3;Nederland;Friesland;Wymbritseradeel;Smallebrugge;E5.638;N52.958;12;
3;Nederland;Friesland;Wymbritseradeel;Tirns;E5.626;N53.059;12;
3;Nederland;Friesland;Wymbritseradeel;Tjalhuizum;E5.614;N53.045;12;
3;Nederland;Friesland;Wymbritseradeel;Uitwellingerga;E5.707;N53.002;12;
3;Nederland;Friesland;Wymbritseradeel;Westhem;E5.550;N53.017;12;
3;Nederland;Friesland;Wymbritseradeel;Wolsum;E5.545;N53.036;12;
3;Nederland;Friesland;Wymbritseradeel;Woudsend;E5.626;N52.943;12;
3;Nederland;Friesland;Wymbritseradeel;Ypecolsga;E5.604;N52.930;12;
