"Level";"Country";"State";"County";"Place";"Longitude";"Latitude";"ZoomLevel";"Icon"
2;NLD;Zeeland;Borsele;;E3.824;N51.443;11;places/NLD/flags/ZL/Borsele.gif
3;NLD;Zeeland;Borsele;'s-Gravenpolder;E3.902;N51.460;12;
3;NLD;Zeeland;Borsele;'s-Heer Abtskerke;E3.883;N51.467;12;
3;NLD;Zeeland;Borsele;'s-Heerenhoek;E3.767;N51.450;12;
3;NLD;Zeeland;Borsele;Baarland;E3.884;N51.408;12;
3;NLD;Zeeland;Borsele;Baarsdorp;E3.833;N51.483;12;
3;NLD;Zeeland;Borsele;Bakendorp;E3.905;N51.409;13;
3;NLD;Zeeland;Borsele;Borssele;E3.736;N51.424;12;
3;NLD;Zeeland;Borsele;Coudorpe;E3.779;N51.410;12;
3;NLD;Zeeland;Borsele;Driewegen;E3.800;N51.417;12;
3;NLD;Zeeland;Borsele;Ellewoutsdijk;E3.813;N51.387;12;
3;NLD;Zeeland;Borsele;Heinkenszand;E3.816;N51.471;12;
3;NLD;Zeeland;Borsele;Hoedekenskerke;E3.912;N51.422;12;
3;NLD;Zeeland;Borsele;Kwadendamme;E3.876;N51.433;12;
3;NLD;Zeeland;Borsele;Lewedorp;E3.752;N51.495;12;
3;NLD;Zeeland;Borsele;Nieuwdorp;E3.733;N51.467;12;
3;NLD;Zeeland;Borsele;Nisse;E3.853;N51.456;13;
3;NLD;Zeeland;Borsele;Oudelande;E3.853;N51.408;12;
3;NLD;Zeeland;Borsele;Ovezande;E3.821;N51.429;12;
2;NLD;Zeeland;Goes;;E3.871;N51.513;11;places/NLD/flags/ZL/Goes.gif
3;NLD;Zeeland;Goes;'s-Heer Arendskerke;E3.822;N51.491;12;
3;NLD;Zeeland;Goes;'s-Heer Hendrikskinderen;E3.862;N51.502;13;
3;NLD;Zeeland;Goes;Goes;E3.883;N51.500;12;
3;NLD;Zeeland;Goes;Kattendijke;E3.946;N51.521;12;
3;NLD;Zeeland;Goes;Kloetinge;E3.913;N51.498;12;
3;NLD;Zeeland;Goes;Oud Sabbinge;E3.800;N51.533;13;
3;NLD;Zeeland;Goes;Wilhelminadorp;E3.895;N51.528;12;
3;NLD;Zeeland;Goes;Wolphaartsdijk;E3.818;N51.531;12;
2;NLD;Zeeland;Hulst;;E4.058;N51.332;10;places/NLD/flags/ZL/Hulst.gif
3;NLD;Zeeland;Hulst;Absdale;E4.000;N51.267;12;
3;NLD;Zeeland;Hulst;Boschkapelle;;;12;
3;NLD;Zeeland;Hulst;Clinge;E4.089;N51.271;12;
3;NLD;Zeeland;Hulst;Graauw;E4.104;N51.328;12;
3;NLD;Zeeland;Hulst;Heikant;E4.026;N51.252;12;
3;NLD;Zeeland;Hulst;Hengstdijk;E3.994;N51.344;12;
3;NLD;Zeeland;Hulst;Hulst;E4.053;N51.278;10;
3;NLD;Zeeland;Hulst;Kapellebrug;E4.066;N51.254;12;
3;NLD;Zeeland;Hulst;Kloosterzande;E4.011;N51.370;12;
3;NLD;Zeeland;Hulst;Kuitaart;E4.034;N51.341;12;
3;NLD;Zeeland;Hulst;Lamswaarde;E4,05;N51,35;12;
3;NLD;Zeeland;Hulst;Nieuw-Namen;E4.164;N51.293;12;
3;NLD;Zeeland;Hulst;Ossenisse;E3.980;N51.387;12;
3;NLD;Zeeland;Hulst;Paal;E4.108;N51.352;12;
3;NLD;Zeeland;Hulst;Sint Jansteen;E4.051;N51.264;12;
3;NLD;Zeeland;Hulst;Terhole;E4.035;N51.315;12;
3;NLD;Zeeland;Hulst;Vogelwaarde;E3.974;N51.325;12;
3;NLD;Zeeland;Hulst;Walsoorden;E4.029;N51.380;12;
3;NLD;Zeeland;Hulst;Zandberg;E4.102;N51.306;12;
2;NLD;Zeeland;Kapelle;;E3.970;N51.499;11;places/NLD/flags/ZL/Kapelle.gif
3;NLD;Zeeland;Kapelle;Biezelinge;E3.963;N51.474;12;
3;NLD;Zeeland;Kapelle;Biezelingseham;;;12;
3;NLD;Zeeland;Kapelle;Kapelle;E3.972;N51.643;12;
3;NLD;Zeeland;Kapelle;Kloetinge;E3.912;N51.500;12;
3;NLD;Zeeland;Kapelle;Schore;E4.000;N51.462;12;
3;NLD;Zeeland;Kapelle;Wemeldinge;E4.000;N51.518;12;
2;NLD;Zeeland;Middelburg;;E3.639;N51.513;11;places/NLD/flags/ZL/Middelburg.gif
3;NLD;Zeeland;Middelburg;Arnemuiden;E3.673;N51.502;12;
3;NLD;Zeeland;Middelburg;Brigdamme;E3.602;N51.516;12;
3;NLD;Zeeland;Middelburg;Colijnsplaat;;;12;
3;NLD;Zeeland;Middelburg;Kleverskerke;E3.664;N51.519;12;
3;NLD;Zeeland;Middelburg;Middelburg;E3.613;N51.495;12;
3;NLD;Zeeland;Middelburg;Nieuw- en Sint Joosland;E3.657;N51.481;12;
3;NLD;Zeeland;Middelburg;Sint Laurens;E3.605;N51.526;12;
2;NLD;Zeeland;Noord-Beveland;;E3.805;N51.577;11;places/NLD/flags/ZL/Noord-Beveland.gif
3;NLD;Zeeland;Noord-Beveland;Colijnsplaat;E3.847;N51.597;12;
3;NLD;Zeeland;Noord-Beveland;Geersdijk;E3.769;N51.565;12;
3;NLD;Zeeland;Noord-Beveland;Kamperland;E3.706;N51.571;12;
3;NLD;Zeeland;Noord-Beveland;Kats;E3.886;N51.568;12;
3;NLD;Zeeland;Noord-Beveland;Kortgene;E3.799;N51.557;12;
3;NLD;Zeeland;Noord-Beveland;Wissenkerke;E3.747;N51.582;12;
2;NLD;Zeeland;Reimerswaal;;E4.086;N51.457;11;places/NLD/flags/ZL/Reimerswaal.gif
3;NLD;Zeeland;Reimerswaal;Bath;E4.210;N51.401;12;
3;NLD;Zeeland;Reimerswaal;Hansweert;E4.001;N51.448;12;
3;NLD;Zeeland;Reimerswaal;Krabbendijke;E4.111;N51.431;12;
3;NLD;Zeeland;Reimerswaal;Kruiningen;E4.032;N51.448;12;
3;NLD;Zeeland;Reimerswaal;Oostdijk;E4.079;N51.443;12;
3;NLD;Zeeland;Reimerswaal;Rilland;E4.179;N51.417;12;
3;NLD;Zeeland;Reimerswaal;Waarde;E4.067;N51.417;12;
3;NLD;Zeeland;Reimerswaal;Yerseke;E4.047;N51.493;12;
2;NLD;Zeeland;Schouwen-Duiveland;;E3.903;N51.707;10;places/NLD/flags/ZL/Schouwen-Duiveland.gif
3;NLD;Zeeland;Schouwen-Duiveland;Brijdorpe;E3.872;N51.719;12;
3;NLD;Zeeland;Schouwen-Duiveland;Brouwershaven;E3.912;N51.726;13;
3;NLD;Zeeland;Schouwen-Duiveland;Bruinisse;E4.094;N51.661;12;
3;NLD;Zeeland;Schouwen-Duiveland;Burgh;E3.731;N51.690;12;
3;NLD;Zeeland;Schouwen-Duiveland;Burgh-Haamstede;E3.744;N51.699;13;
3;NLD;Zeeland;Schouwen-Duiveland;Burghsluis;E3.752;N51.675;12;
3;NLD;Zeeland;Schouwen-Duiveland;Capelle Duiveland;E3.979;N51.643;12;
3;NLD;Zeeland;Schouwen-Duiveland;Dreischor;E3.982;N51.688;12;
3;NLD;Zeeland;Schouwen-Duiveland;Elkerzee;E3.845;N51.724;13;
3;NLD;Zeeland;Schouwen-Duiveland;Ellemeet;E3.815;N51.729;12;
3;NLD;Zeeland;Schouwen-Duiveland;Haamstede;E3.743;N51.695;12;
3;NLD;Zeeland;Schouwen-Duiveland;Kerkwerve;E3.897;N51.686;12;
3;NLD;Zeeland;Schouwen-Duiveland;Looperskapelle;E3.866;N51.727;13;
3;NLD;Zeeland;Schouwen-Duiveland;Moriaanshoofd;E3.851;N51.686;12;
3;NLD;Zeeland;Schouwen-Duiveland;Nieuwerkerk;E4.003;N51.648;12;
3;NLD;Zeeland;Schouwen-Duiveland;Nieuwerkerke;E3.891;N51.700;12;
3;NLD;Zeeland;Schouwen-Duiveland;Noordgouwe;E3.937;N51.693;12;
3;NLD;Zeeland;Schouwen-Duiveland;Noordwelle;E3.796;N51.718;12;
3;NLD;Zeeland;Schouwen-Duiveland;Oosterland;E4.039;N51.649;12;
3;NLD;Zeeland;Schouwen-Duiveland;Ouwerkerk;E3.984;N51.625;12;
3;NLD;Zeeland;Schouwen-Duiveland;Renesse;E3.770;N51.731;12;
3;NLD;Zeeland;Schouwen-Duiveland;Scharendijke;E3.843;N51.736;12;
3;NLD;Zeeland;Schouwen-Duiveland;Schuddebeurs;E3.943;N51.674;12;
3;NLD;Zeeland;Schouwen-Duiveland;Schuddebeurs Schouwen;;;12;
3;NLD;Zeeland;Schouwen-Duiveland;Serooskerke;E3.596;N51.548;12;
3;NLD;Zeeland;Schouwen-Duiveland;Sirjansland;E4.031;N51.676;12;
3;NLD;Zeeland;Schouwen-Duiveland;Westenschouwen;E3.711;N51.677;12;
3;NLD;Zeeland;Schouwen-Duiveland;Zierikzee;E3.917;N51.649;12;
3;NLD;Zeeland;Schouwen-Duiveland;Zonnemaire;E3.951;N51.713;12;
2;NLD;Zeeland;Sluis;;E3.476;N51.337;10;places/NLD/flags/ZL/Sluis.gif
3;NLD;Zeeland;Sluis;Aardenburg;E3.443;N51.273;12;
3;NLD;Zeeland;Sluis;Biervliet;E3.686;N51.328;12;
3;NLD;Zeeland;Sluis;Breskens;E3.553;N51.397;12;
3;NLD;Zeeland;Sluis;Cadzand;E3.410;N51.368;12;
3;NLD;Zeeland;Sluis;Draaibrug;E3.427;N51.298;12;
3;NLD;Zeeland;Sluis;Eede;E3.444;N51.247;12;
3;NLD;Zeeland;Sluis;Groede;E3.507;N51.378;12;
3;NLD;Zeeland;Sluis;Heille;E3.414;N51.267;12;
3;NLD;Zeeland;Sluis;Hoofdplaat;E3.659;N51.369;12;
3;NLD;Zeeland;Sluis;IJzendijke;E3.616;N51.321;12;
3;NLD;Zeeland;Sluis;Kruisdijk;E3.548;N51.378;12;
3;NLD;Zeeland;Sluis;Nieuwvliet;E3.472;N51.370;12;
3;NLD;Zeeland;Sluis;Oostburg;E3.492;N51.326;12;
3;NLD;Zeeland;Sluis;Retranchement;E3.386;N51.347;12;
3;NLD;Zeeland;Sluis;Sasput;E3.601;N51.372;12;
3;NLD;Zeeland;Sluis;Schoondijke;E3,55;N51,35;12;
3;NLD;Zeeland;Sluis;Sint Anna ter Muiden;E3.368;N51.314;12;
3;NLD;Zeeland;Sluis;Sint Kruis;E3.494;N51.271;12;
3;NLD;Zeeland;Sluis;Sluis;E3.384;N51.307;11;
3;NLD;Zeeland;Sluis;Terhofstede;E3.392;N51.338;12;
3;NLD;Zeeland;Sluis;Waterlandkerkje;E3.556;N51.317;12;
3;NLD;Zeeland;Sluis;Zuidzande;E3.452;N51.341;13;
3;NLD;Zeeland;Sluis;Zwindorp;;;12;
2;NLD;Zeeland;Terneuzen;;E3.862;N51.266;10;places/NLD/flags/ZL/Terneuzen.gif
3;NLD;Zeeland;Terneuzen;Axel;E3.911;N51.265;12;
3;NLD;Zeeland;Terneuzen;Biervliet;E3.688;N51.328;12;
3;NLD;Zeeland;Terneuzen;Bouchauterhaven;E3.733;N51.283;12;
3;NLD;Zeeland;Terneuzen;Driewegen;E3.850;N51.317;12;
3;NLD;Zeeland;Terneuzen;Hoek;E3.779;N51.312;12;
3;NLD;Zeeland;Terneuzen;Kijkuit;E3.971;N51.279;12;
3;NLD;Zeeland;Terneuzen;Koewacht;E3.972;N51.228;12;
3;NLD;Zeeland;Terneuzen;Othene;E3.865;N51.328;12;
3;NLD;Zeeland;Terneuzen;Overslag;E3.888;N51.201;12;
3;NLD;Zeeland;Terneuzen;Philippine;E3.759;N51.283;12;
3;NLD;Zeeland;Terneuzen;Sas van Gent;E3.795;N51.226;12;
3;NLD;Zeeland;Terneuzen;Sluiskil;E3.836;N51.278;12;
3;NLD;Zeeland;Terneuzen;Spui;E3.880;N51.298;12;
3;NLD;Zeeland;Terneuzen;Terneuzen;E3.831;N51.331;12;
3;NLD;Zeeland;Terneuzen;Westdorpe;E3.828;N51.231;12;
3;NLD;Zeeland;Terneuzen;Zaamslag;E3.914;N51.312;12;
3;NLD;Zeeland;Terneuzen;Zandstraat;E3.813;N51.264;12;
3;NLD;Zeeland;Terneuzen;Zuiddorpe;E3.901;N51.234;12;
2;NLD;Zeeland;Tholen;;E4.157;N51.586;11;places/NLD/flags/ZL/Tholen.gif
3;NLD;Zeeland;Tholen;Anna Jacobapolder;E4.130;N51.638;13;
3;NLD;Zeeland;Tholen;Botshoofd;E4.228;N51.556;12;
3;NLD;Zeeland;Tholen;De Sluis;E3.750;N51.517;13;
3;NLD;Zeeland;Tholen;Oud-Vossemeer;E4.197;N51.567;12;
3;NLD;Zeeland;Tholen;Poortvliet;E4.146;N51.543;12;
3;NLD;Zeeland;Tholen;Scherpenisse;E4.104;N51.548;13;
3;NLD;Zeeland;Tholen;Sint Annaland;E4.103;N51.597;12;
3;NLD;Zeeland;Tholen;Sint Maartensdijk;E4.080;N51.548;12;
3;NLD;Zeeland;Tholen;Sint Philipsland;E4.170;N51.617;12;
3;NLD;Zeeland;Tholen;Stavenisse;E4.011;N51.585;12;
3;NLD;Zeeland;Tholen;Tholen;E4.222;N51.531;12;
2;NLD;Zeeland;Veere;;E3.558;N51.527;11;
3;NLD;Zeeland;Veere;Aagtekerke;E3.509;N51.546;12;
3;NLD;Zeeland;Veere;Biggekerke;E3.521;N51.498;12;
3;NLD;Zeeland;Veere;Buttinge;E3.574;N51.518;12;
3;NLD;Zeeland;Veere;Dishoek;E3.524;N51.471;12;
3;NLD;Zeeland;Veere;Domburg;E3.498;N51.561;12;
3;NLD;Zeeland;Veere;Gapinge;E3.624;N51.543;12;
3;NLD;Zeeland;Veere;Grijpskerke;E3.561;N51.533;12;
3;NLD;Zeeland;Veere;Koudekerke;E3.553;N51.480;12;
3;NLD;Zeeland;Veere;Mariekerke;E3.533;N51.517;13;
3;NLD;Zeeland;Veere;Meliskerke;E3.510;N51.514;12;
3;NLD;Zeeland;Veere;Oostkapelle;E3.550;N51.566;12;
3;NLD;Zeeland;Veere;Serooskerke;E3.811;N51.700;12;
3;NLD;Zeeland;Veere;Valkenisse;E3.510;N51.490;12;
3;NLD;Zeeland;Veere;Veere;E3.665;N51.545;12;
3;NLD;Zeeland;Veere;Vrouwenpolder;E3.617;N51.575;12;
3;NLD;Zeeland;Veere;Westkapelle;E3.439;N51.529;12;
3;NLD;Zeeland;Veere;Zoutelande;E3.486;N51.501;12;
2;NLD;Zeeland;Vlissingen;;E3.594;N51.456;12;places/NLD/flags/ZL/Vlissingen.gif
3;NLD;Zeeland;Vlissingen;Oost-Souburg;E3.601;N51.462;12;
3;NLD;Zeeland;Vlissingen;Ritthem;E3.627;N51.451;12;
3;NLD;Zeeland;Vlissingen;Vlissingen;E3.575;N51.453;12;
3;NLD;Zeeland;Vlissingen;West-Souburg;E3.586;N51.465;12;
