Level;Country;State;County;Place;Longitude;Latitude;ZoomLevel;Icon
2;ESP;Castellón;Aín;;W0.34;N39.89;12;
2;ESP;Castellón;Albocàsser;;E0.03;N40.40;12;
2;ESP;Castellón;Alcalà de Xivert;;E0.27;N40.26;12;
2;ESP;Castellón;l'Alcora;;W0.22;N40.06;12;
2;ESP;Castellón;Alcudia de Veo;;W0.35;N39.92;12;
2;ESP;Castellón;Alfondeguilla;;W0.27;N39.83;12;
2;ESP;Castellón;Algimia de Almonacid;;W0.42;N39.92;12;
2;ESP;Castellón;Almazora/Almassora;;W0.07;N39.95;12;
2;ESP;Castellón;Almedíjar;;W0.40;N39.87;12;
2;ESP;Castellón;Almenara;;W0.23;N39.75;12;
2;ESP;Castellón;Alquerías del Niño Perdido;;W0.13;N39.89;12;
2;ESP;Castellón;Altura;;W0.56;N39.83;12;
2;ESP;Castellón;Arañuel;;W0.48;N40.09;12;
2;ESP;Castellón;Ares del Maestre;;W0.09;N40.44;12;
2;ESP;Castellón;Argelita;;W0.34;N40.07;12;
2;ESP;Castellón;Artana;;W0.25;N39.90;12;
2;ESP;Castellón;Atzeneta del Maestrat;;W0.15;N40.23;12;
2;ESP;Castellón;Ayódar;;W0.38;N39.99;12;
2;ESP;Castellón;Azuébar;;W0.36;N39.85;12;
2;ESP;Castellón;Barracas;;W0.69;N39.98;12;
2;ESP;Castellón;Bejís;;W0.74;N39.90;12;
2;ESP;Castellón;Benafer;;W0.60;N39.97;12;
2;ESP;Castellón;Benafigos;;W0.18;N40.28;12;
2;ESP;Castellón;Benasal;;W0.19;N40.38;12;
2;ESP;Castellón;Benicarló;;E0.41;N40.45;12;
2;ESP;Castellón;Benicasim/Benicàssim;;E0.06;N40.05;12;
2;ESP;Castellón;Benlloch;;E0.07;N40.21;12;
2;ESP;Castellón;Betxí;;W0.20;N39.92;12;
2;ESP;Castellón;Borriol;;W0.08;N40.04;12;
2;ESP;Castellón;Burriana;;W0.08;N39.89;12;
2;ESP;Castellón;Cabanes;;E0.12;N40.15;12;
2;ESP;Castellón;Càlig;;E0.35;N40.46;12;
2;ESP;Castellón;Canet lo Roig;;E0.24;N40.58;12;
2;ESP;Castellón;Castell de Cabres;;E0.03;N40.67;12;
2;ESP;Castellón;Castellfort;;W0.21;N40.52;12;
2;ESP;Castellón;Castellnovo;;W0.45;N39.85;12;
2;ESP;Castellón;Castellón de la Plana/Castelló de la Plana;;E0.24;N39.95;12;
2;ESP;Castellón;Castillo de Villamalefa;;W0.37;N40.16;12;
2;ESP;Castellón;Catí;;E0.02;N40.47;12;
2;ESP;Castellón;Caudiel;;W0.59;N39.99;12;
2;ESP;Castellón;Cervera del Maestre;;E0.29;N40.43;12;
2;ESP;Castellón;Chert/Xert;;E0.12;N40.53;12;
2;ESP;Castellón;Chilches/Xilxes;;W0.17;N39.78;12;
2;ESP;Castellón;Chodos/Xodos;;W0.31;N40.24;12;
2;ESP;Castellón;Chóvar;;W0.33;N39.85;12;
2;ESP;Castellón;Cinctorres;;W0.22;N40.57;12;
2;ESP;Castellón;Cirat;;W0.46;N40.05;12;
2;ESP;Castellón;Cortes de Arenoso;;W0.53;N40.16;12;
2;ESP;Castellón;Costur;;W0.16;N40.13;12;
2;ESP;Castellón;les Coves de Vinromà;;E0.10;N40.32;12;
2;ESP;Castellón;Culla;;W0.13;N40.31;12;
2;ESP;Castellón;Eslida;;W0.31;N39.88;12;
2;ESP;Castellón;Espadilla;;W0.36;N40.03;12;
2;ESP;Castellón;Fanzara;;W0.31;N40.02;12;
2;ESP;Castellón;Figueroles;;W0.21;N40.13;12;
2;ESP;Castellón;Forcall;;W0.21;N40.66;12;
2;ESP;Castellón;Fuente la Reina;;W0.61;N40.06;12;
2;ESP;Castellón;Fuentes de Ayódar;;W0.43;N40.02;12;
2;ESP;Castellón;Gaibiel;;W0.51;N39.93;12;
2;ESP;Castellón;Geldo;;W0.46;N39.84;12;
2;ESP;Castellón;Herbés;;W0.02;N40.71;12;
2;ESP;Castellón;Higueras;;W0.50;N39.99;12;
2;ESP;Castellón;la Jana;;E0.23;N40.50;12;
2;ESP;Castellón;Jérica;;W0.59;N39.90;12;
2;ESP;Castellón;la Llosa;;W0.19;N39.76;12;
2;ESP;Castellón;Lucena del Cid;;W0.29;N40.14;12;
2;ESP;Castellón;Ludiente;;W0.37;N40.10;12;
2;ESP;Castellón;la Mata de Morella;;W0.27;N40.61;12;
2;ESP;Castellón;Matet;;W0.46;N39.95;12;
2;ESP;Castellón;Moncofa;;W0.15;N39.80;12;
2;ESP;Castellón;Montán;;W0.55;N40.03;12;
2;ESP;Castellón;Montanejos;;W0.53;N40.07;12;
2;ESP;Castellón;Morella;;W0.08;N40.58;12;
2;ESP;Castellón;Navajas;;W0.50;N39.88;12;
2;ESP;Castellón;Nules;;W0.17;N39.86;12;
2;ESP;Castellón;Olocau del Rey;;W0.34;N40.64;12;
2;ESP;Castellón;Onda;;W0.23;N39.99;12;
2;ESP;Castellón;Oropesa del Mar/Orpesa;;E0.13;N40.08;12;
2;ESP;Castellón;Palanques;;W0.18;N40.71;12;
2;ESP;Castellón;Pavías;;W0.47;N39.97;12;
2;ESP;Castellón;Peñíscola;;E0.36;N40.34;12;
2;ESP;Castellón;Pina de Montalgrao;;W0.66;N40.03;12;
2;ESP;Castellón;la Pobla de Benifassà;;E0.20;N40.69;12;
2;ESP;Castellón;la Pobla Tornesa;;W0.01;N40.11;12;
2;ESP;Castellón;Portell de Morella;;W0.26;N40.53;12;
2;ESP;Castellón;Puebla de Arenoso;;W0.57;N40.11;12;
2;ESP;Castellón;Ribesalbes;;W0.27;N40.02;12;
2;ESP;Castellón;Rossell;;E0.23;N40.62;12;
2;ESP;Castellón;Sacañet;;W0.73;N39.85;12;
2;ESP;Castellón;la Salzadella;;E0.13;N40.43;12;
2;ESP;Castellón;San Rafael del Río;;E0.35;N40.60;12;
2;ESP;Castellón;Sant Joan de Moró;;W0.12;N40.08;12;
2;ESP;Castellón;Sant Jordi/San Jorge;;E0.36;N40.53;12;
2;ESP;Castellón;Sant Mateu;;E0.16;N40.48;12;
2;ESP;Castellón;Santa Magdalena de Pulpis;;E0.28;N40.38;12;
2;ESP;Castellón;Sarratella;;E0.02;N40.30;12;
2;ESP;Castellón;Segorbe;;W0.45;N39.81;12;
2;ESP;Castellón;Sierra Engarcerán;;W0.02;N40.27;12;
2;ESP;Castellón;Soneja;;W0.38;N39.82;12;
2;ESP;Castellón;Sot de Ferrer;;W0.40;N39.79;12;
2;ESP;Castellón;Sueras/Suera;;W0.36;N39.95;12;
2;ESP;Castellón;Tales;;W0.30;N39.94;12;
2;ESP;Castellón;Teresa;;W0.68;N39.88;12;
2;ESP;Castellón;Tírig;;E0.07;N40.43;12;
2;ESP;Castellón;Todolella;;W0.26;N40.65;12;
2;ESP;Castellón;Toga;;W0.37;N40.05;12;
2;ESP;Castellón;Torás;;W0.70;N39.93;12;
2;ESP;Castellón;El Toro;;W0.77;N39.97;12;
2;ESP;Castellón;Torralba del Pinar;;W0.45;N40.00;12;
2;ESP;Castellón;la Torre d'En Besora;;W0.07;N40.33;12;
2;ESP;Castellón;Torre Endoménech;;E0.07;N40.27;12;
2;ESP;Castellón;Torreblanca;;E0.22;N40.20;12;
2;ESP;Castellón;Torrechiva;;W0.40;N40.05;12;
2;ESP;Castellón;Traiguera;;E0.33;N40.57;12;
2;ESP;Castellón;Useras/les Useres;;W0.14;N40.18;12;
2;ESP;Castellón;Vall d'Alba;;W0.03;N40.18;12;
2;ESP;Castellón;Vall de Almonacid;;W0.45;N39.90;12;
2;ESP;Castellón;la Vall d'Uixó;;W0.25;N39.82;12;
2;ESP;Castellón;Vallat;;W0.34;N40.04;12;
2;ESP;Castellón;Vallibona;;E0.08;N40.60;12;
2;ESP;Castellón;Vilafamés;;W0.08;N40.11;12;
2;ESP;Castellón;Vilanova d'Alcolea;;E0.09;N40.25;12;
2;ESP;Castellón;Vilar de Canes;;W0.07;N40.35;12;
2;ESP;Castellón;Vila-real;;W0.10;N39.93;12;
2;ESP;Castellón;la Vilavella;;W0.19;N39.86;12;
2;ESP;Castellón;Villafranca del Cid/Vilafranca;;W0.27;N40.43;12;
2;ESP;Castellón;Villahermosa del Río;;W0.42;N40.20;12;
2;ESP;Castellón;Villamalur;;W0.40;N39.96;12;
2;ESP;Castellón;Villanueva de Viver;;W0.63;N40.06;12;
2;ESP;Castellón;Villores;;W0.21;N40.68;12;
2;ESP;Castellón;Vinaròs;;E0.46;N40.50;12;
2;ESP;Castellón;Vistabella del Maestrazgo;;W0.30;N40.32;12;
2;ESP;Castellón;Viver;;W0.63;N39.94;12;
2;ESP;Castellón;Zorita del Maestrazgo;;W0.17;N40.74;12;
2;ESP;Castellón;Zucaina;;W0.43;N40.13;12;
