Level;Country;State;County;Place;Longitude;Latitude;ZoomLevel;Icon
2;ESP;Tarragona;Aiguamúrcia;;E1.42;N41.37;12;
2;ESP;Tarragona;Albinyana;;E1.50;N41.24;12;
2;ESP;Tarragona;L'Albiol;;E1.12;N41.25;12;
2;ESP;Tarragona;Alcanar;;E0.48;N40.54;12;
2;ESP;Tarragona;Alcover;;E1.17;N41.27;12;
2;ESP;Tarragona;L'Aldea;;E0.61;N40.76;12;
2;ESP;Tarragona;Aldover;;E0.47;N40.87;12;
2;ESP;Tarragona;L'Aleixar;;E1.07;N41.21;12;
2;ESP;Tarragona;Alfara de Carles;;E0.33;N40.83;12;
2;ESP;Tarragona;Alforja;;E0.95;N41.21;12;
2;ESP;Tarragona;Alió;;E1.31;N41.30;12;
2;ESP;Tarragona;Almoster;;E1.10;N41.20;12;
2;ESP;Tarragona;Altafulla;;E1.38;N41.15;12;
2;ESP;Tarragona;L'Ametlla de Mar;;E0.79;N40.90;12;
2;ESP;Tarragona;L'Ampolla;;E0.69;N40.83;12;
2;ESP;Tarragona;Amposta;;E0.58;N40.71;12;
2;ESP;Tarragona;L'Arboç;;E1.61;N41.28;12;
2;ESP;Tarragona;Arbolí;;E0.96;N41.24;12;
2;ESP;Tarragona;L'Argentera;;E0.90;N41.13;12;
2;ESP;Tarragona;Arnes;;E0.26;N40.91;12;
2;ESP;Tarragona;Ascó;;E0.55;N41.16;12;
2;ESP;Tarragona;Banyeres del Penedès;;E1.56;N41.27;12;
2;ESP;Tarragona;Barberà de la Conca;;E1.22;N41.42;12;
2;ESP;Tarragona;Batea;;E0.30;N41.11;12;
2;ESP;Tarragona;Bellmunt del Priorat;;E0.76;N41.16;12;
2;ESP;Tarragona;Bellvei;;E1.57;N41.24;12;
2;ESP;Tarragona;Benifallet;;E0.52;N40.97;12;
2;ESP;Tarragona;Benissanet;;E0.58;N41.07;12;
2;ESP;Tarragona;La Bisbal de Falset;;E0.72;N41.28;12;
2;ESP;Tarragona;La Bisbal del Penedès;;E1.48;N41.28;12;
2;ESP;Tarragona;Blancafort;;E1.16;N41.44;12;
2;ESP;Tarragona;Bonastre;;E1.44;N41.22;12;
2;ESP;Tarragona;Les Borges del Camp;;E1.02;N41.18;12;
2;ESP;Tarragona;Bot;;E0.37;N41.02;12;
2;ESP;Tarragona;Botarell;;E1.01;N41.15;12;
2;ESP;Tarragona;Bràfim;;E1.34;N41.28;12;
2;ESP;Tarragona;Cabacés;;E0.73;N41.25;12;
2;ESP;Tarragona;Cabra del Camp;;E1.31;N41.40;12;
2;ESP;Tarragona;Calafell;;E1.57;N41.20;12;
2;ESP;Tarragona;Camarles;;E0.64;N40.79;12;
2;ESP;Tarragona;Cambrils;;E1.05;N41.08;12;
2;ESP;Tarragona;Capafonts;;E1.03;N41.30;12;
2;ESP;Tarragona;Capçanes;;E0.81;N41.10;12;
2;ESP;Tarragona;Caseres;;E0.28;N41.04;12;
2;ESP;Tarragona;Castellvell del Camp;;E1.09;N41.19;12;
2;ESP;Tarragona;El Catllar;;E1.31;N41.18;12;
2;ESP;Tarragona;Colldejou;;E0.88;N41.10;12;
2;ESP;Tarragona;Conesa;;E1.28;N41.52;12;
2;ESP;Tarragona;Constantí;;E1.21;N41.15;12;
2;ESP;Tarragona;Corbera d'Ebre;;E0.47;N41.11;12;
2;ESP;Tarragona;Cornudella de Montsant;;E0.93;N41.26;12;
2;ESP;Tarragona;Creixell;;E1.43;N41.18;12;
2;ESP;Tarragona;Cunit;;E1.63;N41.20;12;
2;ESP;Tarragona;Deltebre;;E0.79;N40.75;12;
2;ESP;Tarragona;Duesaigües;;E0.93;N41.16;12;
2;ESP;Tarragona;L'Espluga de Francolí;;E1.10;N41.42;12;
2;ESP;Tarragona;Falset;;E0.82;N41.17;12;
2;ESP;Tarragona;La Fatarella;;E0.49;N41.16;12;
2;ESP;Tarragona;La Febró;;E1.00;N41.27;12;
2;ESP;Tarragona;La Figuera;;E0.71;N41.21;12;
2;ESP;Tarragona;Figuerola del Camp;;E1.26;N41.36;12;
2;ESP;Tarragona;Flix;;E0.62;N41.28;12;
2;ESP;Tarragona;Forès;;E1.24;N41.50;12;
2;ESP;Tarragona;Freginals;;E0.52;N40.65;12;
2;ESP;Tarragona;La Galera;;E0.45;N40.70;12;
2;ESP;Tarragona;Gandesa;;E0.43;N41.05;12;
2;ESP;Tarragona;Garcia;;E0.65;N41.14;12;
2;ESP;Tarragona;Els Garidells;;E1.24;N41.21;12;
2;ESP;Tarragona;Ginestar;;E0.63;N41.03;12;
2;ESP;Tarragona;Godall;;E0.46;N40.67;12;
2;ESP;Tarragona;Gratallops;;E0.77;N41.19;12;
2;ESP;Tarragona;Els Guiamets;;E0.75;N41.11;12;
2;ESP;Tarragona;Horta de Sant Joan;;E0.32;N40.94;12;
2;ESP;Tarragona;El Lloar;;E0.74;N41.19;12;
2;ESP;Tarragona;Llorac;;E1.33;N41.56;12;
2;ESP;Tarragona;Llorenç del Penedès;;E1.54;N41.29;12;
2;ESP;Tarragona;Marçà;;E0.81;N41.12;12;
2;ESP;Tarragona;Margalef;;E0.78;N41.30;12;
2;ESP;Tarragona;Mas de Barberans;;E0.36;N40.72;12;
2;ESP;Tarragona;Masdenverge;;E0.53;N40.72;12;
2;ESP;Tarragona;Masllorenç;;E1.44;N41.27;12;
2;ESP;Tarragona;La Masó;;E1.22;N41.24;12;
2;ESP;Tarragona;Maspujols;;E1.03;N41.19;12;
2;ESP;Tarragona;El Masroig;;E0.73;N41.13;12;
2;ESP;Tarragona;El Milà;;E1.21;N41.25;12;
2;ESP;Tarragona;Miravet;;E0.58;N41.04;12;
2;ESP;Tarragona;El Molar;;E0.71;N41.17;12;
2;ESP;Tarragona;Montblanc;;E1.14;N41.35;12;
2;ESP;Tarragona;Montbrió del Camp;;E0.99;N41.12;12;
2;ESP;Tarragona;Montferri;;E1.38;N41.26;12;
2;ESP;Tarragona;El Montmell;;E1.50;N41.34;12;
2;ESP;Tarragona;Mont-ral;;E1.11;N41.30;12;
2;ESP;Tarragona;Mont-roig del Camp;;E0.96;N41.05;12;
2;ESP;Tarragona;Móra d'Ebre;;E0.60;N41.10;12;
2;ESP;Tarragona;Móra la Nova;;E0.66;N41.10;12;
2;ESP;Tarragona;El Morell;;E1.21;N41.20;12;
2;ESP;Tarragona;La Morera de Montsant;;E0.84;N41.26;12;
2;ESP;Tarragona;La Nou de Gaià;;E1.38;N41.19;12;
2;ESP;Tarragona;Nulles;;E1.29;N41.25;12;
2;ESP;Tarragona;Els Pallaresos;;E1.26;N41.17;12;
2;ESP;Tarragona;La Palma d'Ebre;;E0.67;N41.27;12;
2;ESP;Tarragona;Passanant i Belltall;;E1.19;N41.53;12;
2;ESP;Tarragona;Paüls;;E0.41;N40.94;12;
2;ESP;Tarragona;Perafort;;E1.22;N41.19;12;
2;ESP;Tarragona;El Perelló;;E0.69;N40.86;12;
2;ESP;Tarragona;Les Piles;;E1.35;N41.50;12;
2;ESP;Tarragona;El Pinell de Brai;;E0.50;N41.02;12;
2;ESP;Tarragona;Pira;;E1.20;N41.42;12;
2;ESP;Tarragona;El Pla de Santa Maria;;E1.30;N41.34;12;
2;ESP;Tarragona;La Pobla de Mafumet;;E1.21;N41.18;12;
2;ESP;Tarragona;La Pobla de Massaluca;;E0.36;N41.19;12;
2;ESP;Tarragona;La Pobla de Montornès;;E1.41;N41.19;12;
2;ESP;Tarragona;Poboleda;;E0.83;N41.23;12;
2;ESP;Tarragona;El Pont d'Armentera;;E1.34;N41.41;12;
2;ESP;Tarragona;Pontils;;E1.39;N41.47;12;
2;ESP;Tarragona;Porrera;;E0.85;N41.19;12;
2;ESP;Tarragona;Pradell de la Teixeta;;E0.87;N41.15;12;
2;ESP;Tarragona;Prades;;E1.02;N41.32;12;
2;ESP;Tarragona;Prat de Comte;;E0.41;N40.98;12;
2;ESP;Tarragona;Pratdip;;E0.87;N41.05;12;
2;ESP;Tarragona;Puigpelat;;E1.30;N41.28;12;
2;ESP;Tarragona;Querol;;E1.44;N41.42;12;
2;ESP;Tarragona;Rasquera;;E0.61;N40.98;12;
2;ESP;Tarragona;Renau;;E1.32;N41.22;12;
2;ESP;Tarragona;Reus;;E1.11;N41.16;12;
2;ESP;Tarragona;La Riba;;E1.17;N41.31;12;
2;ESP;Tarragona;Riba-roja d'Ebre;;E0.45;N41.25;12;
2;ESP;Tarragona;La Riera de Gaià;;E1.36;N41.16;12;
2;ESP;Tarragona;Riudecanyes;;E0.95;N41.13;12;
2;ESP;Tarragona;Riudecols;;E0.96;N41.18;12;
2;ESP;Tarragona;Riudoms;;E1.06;N41.14;12;
2;ESP;Tarragona;Rocafort de Queralt;;E1.27;N41.48;12;
2;ESP;Tarragona;Roda de Barà;;E1.47;N41.18;12;
2;ESP;Tarragona;Rodonyà;;E1.41;N41.28;12;
2;ESP;Tarragona;Roquetes;;E0.41;N40.79;12;
2;ESP;Tarragona;El Rourell;;E1.22;N41.22;12;
2;ESP;Tarragona;Salomó;;E1.36;N41.24;12;
2;ESP;Tarragona;Salou;;E1.15;N41.08;12;
2;ESP;Tarragona;Sant Carles de la Ràpita;;E0.64;N40.60;12;
2;ESP;Tarragona;Sant Jaume dels Domenys;;E1.56;N41.30;12;
2;ESP;Tarragona;Sant Jaume d'Enveja;;E0.80;N40.70;12;
2;ESP;Tarragona;Santa Bàrbara;;E0.49;N40.73;12;
2;ESP;Tarragona;Santa Coloma de Queralt;;E1.39;N41.55;12;
2;ESP;Tarragona;Santa Oliva;;E1.53;N41.25;12;
2;ESP;Tarragona;Sarral;;E1.28;N41.46;12;
2;ESP;Tarragona;Savallà del Comtat;;E1.29;N41.54;12;
2;ESP;Tarragona;La Secuita;;E1.28;N41.22;12;
2;ESP;Tarragona;La Selva del Camp;;E1.13;N41.21;12;
2;ESP;Tarragona;Senan;;E1.07;N41.48;12;
2;ESP;Tarragona;La Sénia;;E0.26;N40.72;12;
2;ESP;Tarragona;Solivella;;E1.19;N41.47;12;
2;ESP;Tarragona;Tarragona;;E1.25;N41.12;10;
2;ESP;Tarragona;Tivenys;;E0.57;N40.91;12;
2;ESP;Tarragona;Tivissa;;E0.76;N41.03;12;
2;ESP;Tarragona;La Torre de Fontaubella;;E0.87;N41.13;12;
2;ESP;Tarragona;La Torre de l'Espanyol;;E0.66;N41.21;12;
2;ESP;Tarragona;Torredembarra;;E1.41;N41.15;12;
2;ESP;Tarragona;Torroja del Priorat;;E0.82;N41.23;12;
2;ESP;Tarragona;Tortosa;;E0.50;N40.83;12;
2;ESP;Tarragona;Ulldecona;;E0.45;N40.60;12;
2;ESP;Tarragona;Ulldemolins;;E0.85;N41.32;12;
2;ESP;Tarragona;Vallclara;;E0.99;N41.37;12;
2;ESP;Tarragona;Vallfogona de Riucorb;;E1.24;N41.56;12;
2;ESP;Tarragona;Vallmoll;;E1.25;N41.25;12;
2;ESP;Tarragona;Valls;;E1.24;N41.29;12;
2;ESP;Tarragona;Vandellòs i l'Hospitalet de l'Infant;;E0.86;N40.99;12;
2;ESP;Tarragona;El Vendrell;;E1.53;N41.21;12;
2;ESP;Tarragona;Vespella de Gaià;;E1.35;N41.21;12;
2;ESP;Tarragona;Vilabella;;E1.33;N41.24;12;
2;ESP;Tarragona;Vilalba dels Arcs;;E0.39;N41.16;12;
2;ESP;Tarragona;Vilallonga del Camp;;E1.20;N41.21;12;
2;ESP;Tarragona;Vilanova de Prades;;E0.95;N41.34;12;
2;ESP;Tarragona;Vilanova d'Escornalbou;;E0.93;N41.11;12;
2;ESP;Tarragona;Vilaplana;;E1.02;N41.25;12;
2;ESP;Tarragona;Vila-rodona;;E1.37;N41.31;12;
2;ESP;Tarragona;Vila-seca;;E1.15;N41.09;12;
2;ESP;Tarragona;Vilaverd;;E1.17;N41.33;12;
2;ESP;Tarragona;La Vilella Alta;;E0.78;N41.23;12;
2;ESP;Tarragona;La Vilella Baixa;;E0.76;N41.22;12;
2;ESP;Tarragona;Vimbodí i Poblet;;E1.05;N41.36;12;
2;ESP;Tarragona;Vinebre;;E0.63;N41.22;12;
2;ESP;Tarragona;Vinyols i els Arcs;;E1.06;N41.09;12;
2;ESP;Tarragona;Xerta;;E0.47;N40.90;12;
