Level;Country;State;County;Place;Longitude;Latitude;ZoomLevel;Icon
2;ESP;Guipúzcoa;Abaltzisketa;;W2.11;N43.05;12;
2;ESP;Guipúzcoa;Aduna;;W2.04998;N43.219438;10;
2;ESP;Guipúzcoa;Aia;;W2.15;N43.25;12;
2;ESP;Guipúzcoa;Aizarnazabal;;W2.23;N43.27;12;
2;ESP;Guipúzcoa;Albiztur;;W2.137184;N43.145587;10;
2;ESP;Guipúzcoa;Alegia;;W2.10;N43.10;12;
2;ESP;Guipúzcoa;Alkiza;;W2.11;N43.17;12;
2;ESP;Guipúzcoa;Altzaga;;W2.15;N43.07;12;
2;ESP;Guipúzcoa;Altzo;;W2.083;N43.101;10;
2;ESP;Guipúzcoa;Amezketa;;W2.07;N43.06;12;
2;ESP;Guipúzcoa;Andoain;;W2.02;N43.22;10;
2;ESP;Guipúzcoa;Anoeta;;W2.07;N43.17;12;
2;ESP;Guipúzcoa;Antzuola;;W2.37;N43.10;12;
2;ESP;Guipúzcoa;Arama;;W2.17;N43.06;12;
2;ESP;Guipúzcoa;Aretxabaleta;;W2.49;N43.03;12;
2;ESP;Guipúzcoa;Arrasate/Mondragón;;W2.48;N43.07;12;
2;ESP;Guipúzcoa;Asteasu;;W2.096;N43.194;10;
2;ESP;Guipúzcoa;Astigarraga;;W1.95;N43.282;10;
2;ESP;Guipúzcoa;Ataun;;W2.173;N43.009;10;
2;ESP;Guipúzcoa;Azkoitia;;W2.33;N43.17;12;
2;ESP;Guipúzcoa;Azpeitia;;W2.264;N43.182;10;
2;ESP;Guipúzcoa;Baliarrain;;W2.13;N43.07;12;
2;ESP;Guipúzcoa;Beasain;;W2.205;N43.047;10;
2;ESP;Guipúzcoa;Beizama;;W2.21;N43.13;12;
2;ESP;Guipúzcoa;Belauntza;;W2.04;N43.14;12;
2;ESP;Guipúzcoa;Berastegi;;W1.97;N43.15;12;
2;ESP;Guipúzcoa;Bergara;;W2.415;N43.122;10;
2;ESP;Guipúzcoa;Berrobi;;W2.027;N43.145;10;
2;ESP;Guipúzcoa;Bidegoian;;W2.17;N43.13;10;
2;ESP;Guipúzcoa;Deba;;W2.33;N43.27;12;
2;ESP;Guipúzcoa;Donostia-San Sebastián;;W1.99;N43.29;12;
2;ESP;Guipúzcoa;Eibar;;W2.471;N43.188;10;
2;ESP;Guipúzcoa;Elduain;;W1.96;N43.16;12;
2;ESP;Guipúzcoa;Elgeta;;W2.49;N43.16;12;
2;ESP;Guipúzcoa;Elgoibar;;W2.41;N43.21;12;
2;ESP;Guipúzcoa;Errenteria;;W1.89;N43.26;12;
2;ESP;Guipúzcoa;Errezil;;W2.19;N43.18;12;
2;ESP;Guipúzcoa;Eskoriatza;;W2.54;N43.00;12;
2;ESP;Guipúzcoa;Ezkio-Itsaso;;W2.27;N43.08;12;
2;ESP;Guipúzcoa;Gabiria;;W2.29;N43.06;12;
2;ESP;Guipúzcoa;Gaintza;;W2.13;N43.06;12;
2;ESP;Guipúzcoa;Gaztelu;;W2.023;N43.119;10;
2;ESP;Guipúzcoa;Getaria;;W2.21;N43.30;12;
2;ESP;Guipúzcoa;Hernani;;W1.97;N43.27;10;
2;ESP;Guipúzcoa;Hernialde;;W2.09;N43.15;12;
2;ESP;Guipúzcoa;Hondarribia;;W1.82;N43.37;12;
2;ESP;Guipúzcoa;Ibarra;;W2.065;N43.132;10;
2;ESP;Guipúzcoa;Idiazabal;;W2.23;N43.00;12;
2;ESP;Guipúzcoa;Ikaztegieta;;W2.12;N43.09;12;
2;ESP;Guipúzcoa;Irun;;W1.77;N43.32;12;
2;ESP;Guipúzcoa;Irura;;W2.069;N43.168;10;
2;ESP;Guipúzcoa;Itsasondo;;W2.17;N43.08;12;
2;ESP;Guipúzcoa;Larraul;;W2.104;N43.187;10;
2;ESP;Guipúzcoa;Lasarte-Oria;;W2.02;N43.268;10;
2;ESP;Guipúzcoa;Lazkao;;W2.17;N43.02;12;
2;ESP;Guipúzcoa;Leaburu;;W2.06;N43.12;12;
2;ESP;Guipúzcoa;Legazpi;;W2.34;N43.03;12;
2;ESP;Guipúzcoa;Legorreta;;W2.15;N43.09;12;
2;ESP;Guipúzcoa;Leintz-Gatzaga;;W2.57;N42.98;12;
2;ESP;Guipúzcoa;Lezo;;W1.898;N43.321;10;
2;ESP;Guipúzcoa;Lizartza;;W2.02;N43.09;12;
2;ESP;Guipúzcoa;Mendaro;;W2.38;N43.25;12;
2;ESP;Guipúzcoa;Mutiloa;;W2.27;N43.03;12;
2;ESP;Guipúzcoa;Mutriku;;W2.38;N43.30;12;
2;ESP;Guipúzcoa;Oiartzun;;W1.85;N43.25;12;
2;ESP;Guipúzcoa;Olaberria;;W2.21;N43.03;12;
2;ESP;Guipúzcoa;Oñati;;W2.41;N43.02;12;
2;ESP;Guipúzcoa;Ordizia;;W2.178;N43.055;10;
2;ESP;Guipúzcoa;Orendain;;W2.10;N43.08;12;
2;ESP;Guipúzcoa;Orexa;;W2.00;N43.09;12;
2;ESP;Guipúzcoa;Orio;;W2.11;N43.29;12;
2;ESP;Guipúzcoa;Ormaiztegi;;W2.25;N43.04;12;
2;ESP;Guipúzcoa;Pasaia;;W1.90;N43.34;12;
2;ESP;Guipúzcoa;Segura;;W2.254;N43.010;10;
2;ESP;Guipúzcoa;Soraluze/Placencia de las Armas;;W2.41;N43.18;12;
2;ESP;Guipúzcoa;Tolosa;;W2.076;N43.135;10;
2;ESP;Guipúzcoa;Urnieta;;W1.995;N43.249;10;
2;ESP;Guipúzcoa;Urretxu;;W2.32;N43.10;12;
2;ESP;Guipúzcoa;Usurbil;;W2.05;N43.27;12;
2;ESP;Guipúzcoa;Villabona;;W2.053;N43.191;10;
2;ESP;Guipúzcoa;Zaldibia;;W2.14;N43.02;12;
2;ESP;Guipúzcoa;Zarautz;;W2.167;N43.281;10;
2;ESP;Guipúzcoa;Zegama;;W2.29;N42.976;10;
2;ESP;Guipúzcoa;Zerain;;W2.273;N43.012;10;
2;ESP;Guipúzcoa;Zestoa;;W2.259;N43.241;10;
2;ESP;Guipúzcoa;Zizurkil;;W2.08;N43.21;12;
2;ESP;Guipúzcoa;Zumaia;;W2.25;N43.29;12;
2;ESP;Guipúzcoa;Zumarraga;;W2.32;N43.10;12;
