Level;Country;State;County;Place;Longitude;Latitude;ZoomLevel;Icon
2;España;Girona;Agullana;;E2.84;N42.41;12;
2;España;Girona;Aiguaviva;;E2.78;N41.93;12;
2;España;Girona;Albanyà;;E2.72;N42.30;12;
2;España;Girona;Albons;;E3.08;N42.11;12;
2;España;Girona;Alp;;E1.95;N42.35;12;
2;España;Girona;Amer;;E2.60;N42.01;12;
2;España;Girona;Anglès;;E2.64;N41.96;12;
2;España;Girona;Arbúcies;;E2.49;N41.83;12;
2;España;Girona;Argelaguer;;E2.63;N42.21;12;
2;España;Girona;L'Armentera;;E3.09;N42.17;12;
2;España;Girona;Avinyonet de Puigventós;;E2.91;N42.25;12;
2;España;Girona;Banyoles;;E2.77;N42.13;12;
2;España;Girona;Bàscara;;E2.92;N42.14;12;
2;España;Girona;Begur;;E3.21;N41.96;12;
2;España;Girona;Bellcaire d'Empordà;;E3.10;N42.08;12;
2;España;Girona;Besalú;;E2.70;N42.20;12;
2;España;Girona;Bescanó;;E2.72;N41.96;12;
2;España;Girona;Beuda;;E2.70;N42.24;12;
2;España;Girona;La Bisbal d'Empordà;;E3.04;N41.95;12;
2;España;Girona;Biure;;E2.90;N42.34;12;
2;España;Girona;Blanes;;E2.79;N41.68;12;
2;España;Girona;Boadella i les Escaules;;E2.85;N42.33;12;
2;España;Girona;Bolvir;;E1.88;N42.42;12;
2;España;Girona;Bordils;;E2.91;N42.05;12;
2;España;Girona;Borrassà;;E2.93;N42.22;12;
2;España;Girona;Breda;;E2.56;N41.75;12;
2;España;Girona;Brunyola;;E2.66;N41.92;12;
2;España;Girona;Cabanelles;;E2.81;N42.23;12;
2;España;Girona;Cabanes;;E2.97;N42.31;12;
2;España;Girona;Cadaqués;;E3.29;N42.30;12;
2;España;Girona;Caldes de Malavella;;E2.81;N41.84;12;
2;España;Girona;Calonge;;E3.08;N41.86;12;
2;España;Girona;Camós;;E2.77;N42.08;12;
2;España;Girona;Campdevànol;;E2.14;N42.24;12;
2;España;Girona;Campelles;;E2.14;N42.29;12;
2;España;Girona;Campllong;;E2.83;N41.90;12;
2;España;Girona;Camprodon;;E2.36;N42.31;12;
2;España;Girona;Canet d'Adri;;E2.73;N42.03;12;
2;España;Girona;Cantallops;;E2.93;N42.43;12;
2;España;Girona;Capmany;;E2.90;N42.37;12;
2;España;Girona;Cassà de la Selva;;E2.87;N41.88;12;
2;España;Girona;Castellfollit de la Roca;;E2.54;N42.22;12;
2;España;Girona;Castelló d'Empúries;;E3.08;N42.25;12;
2;España;Girona;Castell-Platja d'Aro;;E3.05;N41.81;12;
2;España;Girona;La Cellera de Ter;;E2.60;N41.97;12;
2;España;Girona;Celrà;;E2.87;N42.02;12;
2;España;Girona;Cervià de Ter;;E2.91;N42.07;12;
2;España;Girona;Cistella;;E2.84;N42.27;12;
2;España;Girona;Colera;;E3.14;N42.40;12;
2;España;Girona;Colomers;;E2.99;N42.09;12;
2;España;Girona;Corçà;;E3.01;N42.00;12;
2;España;Girona;Cornellà del Terri;;E2.83;N42.09;12;
2;España;Girona;Crespià;;E2.80;N42.20;12;
2;España;Girona;Cruïlles, Monells i Sant Sadurní de l'Heura;;E3.02;N41.95;12;
2;España;Girona;Darnius;;E2.83;N42.37;12;
2;España;Girona;Das;;E1.87;N42.36;12;
2;España;Girona;L'Escala;;E3.13;N42.13;12;
2;España;Girona;Espinelves;;E2.42;N41.88;12;
2;España;Girona;Espolla;;E3.01;N42.43;12;
2;España;Girona;Esponellà;;E2.80;N42.17;12;
2;España;Girona;El Far d'Empordà;;E2.99;N42.25;12;
2;España;Girona;Figueres;;E2.98;N42.27;12;
2;España;Girona;Flaçà;;E2.96;N42.05;12;
2;España;Girona;Foixà;;E3.00;N42.04;12;
2;España;Girona;Fontanals de Cerdanya;;E1.92;N42.38;12;
2;España;Girona;Fontanilles;;E3.10;N42.02;12;
2;España;Girona;Fontcoberta;;E2.81;N42.14;12;
2;España;Girona;Forallac;;E3.08;N41.95;12;
2;España;Girona;Fornells de la Selva;;E2.82;N41.93;12;
2;España;Girona;Fortià;;E3.03;N42.24;12;
2;España;Girona;Garrigàs;;E2.96;N42.18;12;
2;España;Girona;Garrigoles;;E3.02;N42.10;12;
2;España;Girona;Garriguella;;E3.06;N42.34;12;
2;España;Girona;Ger;;E1.82;N42.44;12;
2;España;Girona;Girona;;E2.83;N41.98;12;
2;España;Girona;Gombrèn;;E2.06;N42.25;12;
2;España;Girona;Gualta;;E3.12;N42.02;12;
2;España;Girona;Guils de Cerdanya;;E1.86;N42.46;12;
2;España;Girona;Hostalric;;E2.64;N41.74;12;
2;España;Girona;Isòvol;;E1.83;N42.39;12;
2;España;Girona;Jafre;;E3.01;N42.07;12;
2;España;Girona;La Jonquera;;E2.87;N42.42;12;
2;España;Girona;Juià;;E2.91;N42.02;12;
2;España;Girona;Lladó;;E2.82;N42.25;12;
2;España;Girona;Llagostera;;E2.91;N41.83;12;
2;España;Girona;Llambilles;;E2.87;N41.92;12;
2;España;Girona;Llanars;;E2.35;N42.34;12;
2;España;Girona;Llançà;;E3.14;N42.37;12;
2;España;Girona;Llers;;E2.92;N42.30;12;
2;España;Girona;Llívia;;E1.98;N42.46;12;
2;España;Girona;Lloret de Mar;;E2.85;N41.70;12;
2;España;Girona;Les Llosses;;E2.08;N42.16;12;
2;España;Girona;Maçanet de Cabrenys;;E2.74;N42.38;12;
2;España;Girona;Maçanet de la Selva;;E2.73;N41.77;12;
2;España;Girona;Madremanya;;E2.94;N41.98;12;
2;España;Girona;Maià de Montcal;;E2.75;N42.21;12;
2;España;Girona;Masarac;;E2.97;N42.34;12;
2;España;Girona;Massanes;;E2.66;N41.78;12;
2;España;Girona;Meranges;;E1.77;N42.46;12;
2;España;Girona;Mieres;;E2.63;N42.12;12;
2;España;Girona;Mollet de Peralada;;E3.01;N42.35;12;
2;España;Girona;Molló;;E2.40;N42.35;12;
2;España;Girona;Montagut i Oix;;E2.59;N42.23;12;
2;España;Girona;Mont-ras;;E3.16;N41.89;12;
2;España;Girona;Navata;;E2.86;N42.22;12;
2;España;Girona;Ogassa;;E2.26;N42.26;12;
2;España;Girona;Olot;;E2.49;N42.18;12;
2;España;Girona;Ordis;;E2.90;N42.22;12;
2;España;Girona;Osor;;E2.57;N41.95;12;
2;España;Girona;Palafrugell;;E3.19;N41.91;12;
2;España;Girona;Palamós;;E3.14;N41.86;12;
2;España;Girona;Palau de Santa Eulàlia;;E2.98;N42.18;12;
2;España;Girona;Palau-sator;;E3.12;N41.98;12;
2;España;Girona;Palau-saverdera;;E3.14;N42.30;12;
2;España;Girona;Palol de Revardit;;E2.80;N42.06;12;
2;España;Girona;Pals;;E3.18;N41.98;12;
2;España;Girona;Pardines;;E2.23;N42.31;12;
2;España;Girona;Parlavà;;E3.04;N42.02;12;
2;España;Girona;Pau;;E3.11;N42.31;12;
2;España;Girona;Pedret i Marzà;;E3.07;N42.31;12;
2;España;Girona;La Pera;;E2.97;N42.02;12;
2;España;Girona;Peralada;;E3.03;N42.31;12;
2;España;Girona;Les Planes d'Hostoles;;E2.55;N42.07;12;
2;España;Girona;Planoles;;E2.10;N42.33;12;
2;España;Girona;Pont de Molins;;E2.92;N42.32;12;
2;España;Girona;Pontós;;E2.91;N42.19;12;
2;España;Girona;Porqueres;;E2.74;N42.13;12;
2;España;Girona;El Port de la Selva;;E3.22;N42.34;12;
2;España;Girona;Portbou;;E3.15;N42.43;12;
2;España;Girona;Les Preses;;E2.47;N42.15;12;
2;España;Girona;Puigcerdà;;E1.93;N42.43;12;
2;España;Girona;Quart;;E2.88;N41.95;12;
2;España;Girona;Queralbs;;E2.16;N42.38;12;
2;España;Girona;Rabós;;E3.05;N42.40;12;
2;España;Girona;Regencós;;E3.17;N41.95;12;
2;España;Girona;Ribes de Freser;;E2.17;N42.30;12;
2;España;Girona;Riells i Viabrea;;E2.54;N41.75;12;
2;España;Girona;Ripoll;;E2.19;N42.20;12;
2;España;Girona;Riudarenes;;E2.68;N41.83;12;
2;España;Girona;Riudaura;;E2.39;N42.19;12;
2;España;Girona;Riudellots de la Selva;;E2.80;N41.89;12;
2;España;Girona;Riumors;;E3.05;N42.22;12;
2;España;Girona;Roses;;E3.21;N42.26;12;
2;España;Girona;Rupià;;E3.01;N42.02;12;
2;España;Girona;Sales de Llierca;;E2.64;N42.26;12;
2;España;Girona;Salt;;E2.78;N41.97;12;
2;España;Girona;Sant Andreu Salou;;E2.82;N41.87;12;
2;España;Girona;Sant Aniol de Finestres;;E2.61;N42.07;12;
2;España;Girona;Sant Climent Sescebes;;E2.96;N42.40;12;
2;España;Girona;Sant Feliu de Buixalleu;;E2.58;N41.78;12;
2;España;Girona;Sant Feliu de Guíxols;;E3.03;N41.78;12;
2;España;Girona;Sant Feliu de Pallerols;;E2.51;N42.10;12;
2;España;Girona;Sant Ferriol;;E2.67;N42.19;12;
2;España;Girona;Sant Gregori;;E2.73;N42.00;12;
2;España;Girona;Sant Hilari Sacalm;;E2.49;N41.91;12;
2;España;Girona;Sant Jaume de Llierca;;E2.59;N42.21;12;
2;España;Girona;Sant Joan de les Abadesses;;E2.28;N42.23;12;
2;España;Girona;Sant Joan de Mollet;;E2.94;N42.05;12;
2;España;Girona;Sant Joan les Fonts;;E2.54;N42.20;12;
2;España;Girona;Sant Jordi Desvalls;;E2.96;N42.07;12;
2;España;Girona;Sant Julià de Ramis;;E2.85;N42.05;12;
2;España;Girona;Sant Julià del Llor i Bonmatí;;E2.66;N41.98;12;
2;España;Girona;Sant Llorenç de la Muga;;E2.76;N42.33;12;
2;España;Girona;Sant Martí de Llémena;;E2.67;N42.04;12;
2;España;Girona;Sant Martí Vell;;E2.93;N42.00;12;
2;España;Girona;Sant Miquel de Campmajor;;E2.68;N42.13;12;
2;España;Girona;Sant Miquel de Fluvià;;E3.00;N42.18;12;
2;España;Girona;Sant Mori;;E2.98;N42.15;12;
2;España;Girona;Sant Pau de Segúries;;E2.36;N42.26;12;
2;España;Girona;Sant Pere Pescador;;E3.09;N42.18;12;
2;España;Girona;Santa Coloma de Farners;;E2.62;N41.87;12;
2;España;Girona;Santa Cristina d'Aro;;E2.98;N41.81;12;
2;España;Girona;Santa Llogaia d'Àlguema;;E2.95;N42.23;12;
2;España;Girona;Santa Pau;;E2.57;N42.15;12;
2;España;Girona;Sarrià de Ter;;E2.81;N42.02;12;
2;España;Girona;Saus, Camallera i Llampaies;;E2.96;N42.13;12;
2;España;Girona;La Selva de Mar;;E3.19;N42.32;12;
2;España;Girona;Serinyà;;E2.74;N42.17;12;
2;España;Girona;Serra de Daró;;E3.07;N42.03;12;
2;España;Girona;Setcases;;E2.30;N42.38;12;
2;España;Girona;Sils;;E2.74;N41.83;12;
2;España;Girona;Siurana;;E3.01;N42.21;12;
2;España;Girona;Susqueda;;E2.52;N41.99;12;
2;España;Girona;La Tallada d'Empordà;;E3.07;N42.08;12;
2;España;Girona;Terrades;;E2.85;N42.31;12;
2;España;Girona;Torrent;;E3.13;N41.95;12;
2;España;Girona;Torroella de Fluvià;;E3.04;N42.19;12;
2;España;Girona;Torroella de Montgrí;;E3.19;N42.07;12;
2;España;Girona;Tortellà;;E2.62;N42.24;12;
2;España;Girona;Toses;;E2.04;N42.33;12;
2;España;Girona;Tossa de Mar;;E2.93;N41.73;12;
2;España;Girona;Ullà;;E3.11;N42.05;12;
2;España;Girona;Ullastret;;E3.08;N42.00;12;
2;España;Girona;Ultramort;;E3.04;N42.04;12;
2;España;Girona;Urús;;E1.86;N42.33;12;
2;España;Girona;La Vajol;;E2.80;N42.41;12;
2;España;Girona;La Vall de Bianya;;E2.46;N42.22;12;
2;España;Girona;La Vall d'en Bas;;E2.44;N42.14;12;
2;España;Girona;Vallfogona de Ripollès;;E2.30;N42.18;12;
2;España;Girona;Vall-llobrega;;E3.13;N41.88;12;
2;España;Girona;Ventalló;;E3.05;N42.15;12;
2;España;Girona;Verges;;E3.05;N42.07;12;
2;España;Girona;Vidrà;;E2.31;N42.12;12;
2;España;Girona;Vidreres;;E2.81;N41.77;12;
2;España;Girona;Vilabertran;;E2.98;N42.28;12;
2;España;Girona;Vilablareix;;E2.79;N41.96;12;
2;España;Girona;Viladamat;;E3.07;N42.13;12;
2;España;Girona;Viladasens;;E2.92;N42.10;12;
2;España;Girona;Vilademuls;;E2.86;N42.13;12;
2;España;Girona;Viladrau;;E2.37;N41.85;12;
2;España;Girona;Vilafant;;E2.95;N42.25;12;
2;España;Girona;Vilajuïga;;E3.10;N42.33;12;
2;España;Girona;Vilallonga de Ter;;E2.28;N42.34;12;
2;España;Girona;Vilamacolum;;E3.06;N42.20;12;
2;España;Girona;Vilamalla;;E2.98;N42.22;12;
2;España;Girona;Vilamaniscle;;E3.07;N42.38;12;
2;España;Girona;Vilanant;;E2.88;N42.25;12;
2;España;Girona;Vila-sacra;;E3.02;N42.26;12;
2;España;Girona;Vilaür;;E2.96;N42.14;12;
2;España;Girona;Vilobí d'Onyar;;E2.73;N41.89;12;
2;España;Girona;Vilopriu;;E2.99;N42.11;12;
