Level;Country;State;County;Place;Longitude;Latitude;ZoomLevel;Icon
2;España;Zamora;Abezames;;W5.43;N41.64;12;
2;España;Zamora;Alcañices;;W6.36;N41.69;12;
2;España;Zamora;Alcubilla de Nogales;;W5.91;N42.13;12;
2;España;Zamora;Alfaraz de Sayago;;W5.96;N41.22;12;
2;España;Zamora;Algodre;;W5.60;N41.57;12;
2;España;Zamora;Almaraz de Duero;;W5.90;N41.49;12;
2;España;Zamora;Almeida de Sayago;;W6.04;N41.26;12;
2;España;Zamora;Andavías;;W5.85;N41.59;12;
2;España;Zamora;Arcenillas;;W5.70;N41.47;12;
2;España;Zamora;Arcos de la Polvorosa;;W5.71;N41.94;12;
2;España;Zamora;Argañín;;W6.21;N41.44;12;
2;España;Zamora;Argujillo;;W5.59;N41.30;12;
2;España;Zamora;Arquillinos;;W5.64;N41.71;12;
2;España;Zamora;Arrabalde;;W5.90;N42.12;12;
2;España;Zamora;Aspariegos;;W5.59;N41.67;12;
2;España;Zamora;Asturianos;;W6.48;N42.05;12;
2;España;Zamora;Ayoó de Vidriales;;W6.08;N42.13;12;
2;España;Zamora;Barcial del Barco;;W5.65;N41.93;12;
2;España;Zamora;Belver de los Montes;;W5.45;N41.72;12;
2;España;Zamora;Benavente;;W5.68;N42.01;12;
2;España;Zamora;Benegiles;;W5.61;N41.63;12;
2;España;Zamora;Bermillo de Sayago;;W6.07;N41.37;12;
2;España;Zamora;La Bóveda de Toro;;W5.40;N41.33;12;
2;España;Zamora;Bretó;;W5.75;N41.87;12;
2;España;Zamora;Bretocino;;W5.77;N41.88;12;
2;España;Zamora;Brime de Sog;;W6.05;N42.06;12;
2;España;Zamora;Brime de Urz;;W5.87;N42.04;12;
2;España;Zamora;Burganes de Valverde;;W5.78;N41.92;12;
2;España;Zamora;Bustillo del Oro;;W5.45;N41.68;12;
2;España;Zamora;Cabañas de Sayago;;W5.81;N41.32;12;
2;España;Zamora;Calzadilla de Tera;;W6.10;N41.97;12;
2;España;Zamora;Camarzana de Tera;;W6.00;N42.01;12;
2;España;Zamora;Cañizal;;W5.37;N41.17;12;
2;España;Zamora;Cañizo;;W5.51;N41.75;12;
2;España;Zamora;Carbajales de Alba;;W5.99;N41.64;12;
2;España;Zamora;Carbellino;;W6.14;N41.23;12;
2;España;Zamora;Casaseca de Campeán;;W5.76;N41.37;12;
2;España;Zamora;Casaseca de las Chanas;;W5.67;N41.43;12;
2;España;Zamora;Castrillo de la Guareña;;W5.32;N41.23;12;
2;España;Zamora;Castrogonzalo;;W5.60;N41.99;12;
2;España;Zamora;Castronuevo;;W5.55;N41.72;12;
2;España;Zamora;Castroverde de Campos;;W5.35;N41.99;12;
2;España;Zamora;Cazurra;;W5.70;N41.41;12;
2;España;Zamora;Cerecinos de Campos;;W5.48;N41.90;12;
2;España;Zamora;Cerecinos del Carrizal;;W5.66;N41.68;12;
2;España;Zamora;Cernadilla;;W6.41;N42.01;12;
2;España;Zamora;Cobreros;;W6.68;N42.07;12;
2;España;Zamora;Coomonte;;W5.82;N42.11;12;
2;España;Zamora;Coreses;;W5.61;N41.54;12;
2;España;Zamora;Corrales;;W5.72;N41.32;12;
2;España;Zamora;Cotanes del Monte;;W5.31;N41.81;12;
2;España;Zamora;Cubillos;;W5.75;N41.58;12;
2;España;Zamora;Cubo de Benavente;;W6.16;N42.13;12;
2;España;Zamora;El Cubo de Tierra del Vino;;W5.71;N41.25;12;
2;España;Zamora;Cuelgamures;;W5.66;N41.30;12;
2;España;Zamora;Entrala;;W5.76;N41.44;12;
2;España;Zamora;Espadañedo;;W6.42;N42.14;12;
2;España;Zamora;Faramontanos de Tábara;;W5.86;N41.86;12;
2;España;Zamora;Fariza;;W6.26;N41.42;12;
2;España;Zamora;Fermoselle;;W6.40;N41.31;12;
2;España;Zamora;Ferreras de Abajo;;W6.06;N41.91;12;
2;España;Zamora;Ferreras de Arriba;;W6.21;N41.92;12;
2;España;Zamora;Ferreruela;;W6.04;N41.79;12;
2;España;Zamora;Figueruela de Arriba;;W6.46;N41.86;12;
2;España;Zamora;Fonfría;;W1.09;N40.99;12;
2;España;Zamora;Fresno de la Polvorosa;;W5.77;N42.09;12;
2;España;Zamora;Fresno de la Ribera;;W5.56;N41.55;12;
2;España;Zamora;Fresno de Sayago;;W5.98;N41.32;12;
2;España;Zamora;Friera de Valverde;;W5.86;N41.90;12;
2;España;Zamora;Fuente Encalada;;W6.00;N42.12;12;
2;España;Zamora;Fuentelapeña;;W5.39;N41.25;12;
2;España;Zamora;Fuentes de Ropel;;W5.57;N42.02;12;
2;España;Zamora;Fuentesaúco;;W5.50;N41.24;12;
2;España;Zamora;Fuentesecas;;W5.48;N41.63;12;
2;España;Zamora;Fuentespreadas;;W5.63;N41.33;12;
2;España;Zamora;Galende;;W6.70;N42.12;12;
2;España;Zamora;Gallegos del Pan;;W5.58;N41.60;12;
2;España;Zamora;Gallegos del Río;;W6.17;N41.74;12;
2;España;Zamora;Gamones;;W6.18;N41.47;12;
2;España;Zamora;Gema;;W5.63;N41.40;12;
2;España;Zamora;Granja de Moreruela;;W5.75;N41.82;12;
2;España;Zamora;Granucillo;;W5.92;N42.05;12;
2;España;Zamora;Guarrate;;W5.49;N41.30;12;
2;España;Zamora;Hermisende;;W6.91;N41.98;12;
2;España;Zamora;La Hiniesta;;W5.82;N41.57;12;
2;España;Zamora;Jambrina;;W5.65;N41.39;12;
2;España;Zamora;Justel;;W6.27;N42.15;12;
2;España;Zamora;Losacino;;W6.07;N41.67;12;
2;España;Zamora;Losacio;;W6.04;N41.72;12;
2;España;Zamora;Lubián;;W6.90;N42.06;12;
2;España;Zamora;Luelmo;;W6.14;N41.43;12;
2;España;Zamora;El Maderal;;W5.63;N41.27;12;
2;España;Zamora;Madridanos;;W5.59;N41.47;12;
2;España;Zamora;Mahide;;W6.36;N41.89;12;
2;España;Zamora;Maire de Castroponce;;W5.78;N42.11;12;
2;España;Zamora;Malva;;W5.49;N41.66;12;
2;España;Zamora;Manganeses de la Lampreana;;W5.72;N41.76;12;
2;España;Zamora;Manganeses de la Polvorosa;;W5.75;N42.04;12;
2;España;Zamora;Manzanal de Arriba;;W6.44;N41.98;12;
2;España;Zamora;Manzanal de los Infantes;;W6.36;N42.06;12;
2;España;Zamora;Manzanal del Barco;;W5.93;N41.63;12;
2;España;Zamora;Matilla de Arzón;;W5.61;N42.10;12;
2;España;Zamora;Matilla la Seca;;W5.50;N41.58;12;
2;España;Zamora;Mayalde;;W5.80;N41.24;12;
2;España;Zamora;Melgar de Tera;;W6.03;N41.96;12;
2;España;Zamora;Micereces de Tera;;W5.86;N41.98;12;
2;España;Zamora;Milles de la Polvorosa;;W5.74;N41.92;12;
2;España;Zamora;Molacillos;;W5.67;N41.59;12;
2;España;Zamora;Molezuelas de la Carballeda;;W6.20;N42.08;12;
2;España;Zamora;Mombuey;;W6.33;N42.00;12;
2;España;Zamora;Monfarracinos;;W5.70;N41.56;12;
2;España;Zamora;Montamarta;;W5.82;N41.66;12;
2;España;Zamora;Moral de Sayago;;W6.05;N41.46;12;
2;España;Zamora;Moraleja de Sayago;;W5.98;N41.17;12;
2;España;Zamora;Moraleja del Vino;;W5.65;N41.46;12;
2;España;Zamora;Morales de Rey;;W5.77;N42.07;12;
2;España;Zamora;Morales de Toro;;W5.30;N41.54;12;
2;España;Zamora;Morales de Valverde;;W5.88;N41.94;12;
2;España;Zamora;Morales del Vino;;W5.73;N41.44;12;
2;España;Zamora;Moralina;;W6.14;N41.50;12;
2;España;Zamora;Moreruela de los Infanzones;;W5.73;N41.63;12;
2;España;Zamora;Moreruela de Tábara;;W5.83;N41.81;12;
2;España;Zamora;Muelas de los Caballeros;;W6.33;N42.15;12;
2;España;Zamora;Muelas del Pan;;W6.00;N41.56;12;
2;España;Zamora;Muga de Sayago;;W6.22;N41.37;12;
2;España;Zamora;Navianos de Valverde;;W5.81;N41.95;12;
2;España;Zamora;Olmillos de Castro;;W5.97;N41.73;12;
2;España;Zamora;Otero de Bodas;;W6.18;N41.96;12;
2;España;Zamora;Pajares de la Lampreana;;W5.68;N41.71;12;
2;España;Zamora;Palacios de Sanabria;;W6.55;N42.04;12;
2;España;Zamora;Palacios del Pan;;W5.89;N41.61;12;
2;España;Zamora;Pedralba de la Pradería;;W6.68;N41.99;12;
2;España;Zamora;El Pego;;W5.48;N41.35;12;
2;España;Zamora;Peleagonzalo;;W5.48;N41.49;12;
2;España;Zamora;Peleas de Abajo;;W5.69;N41.39;12;
2;España;Zamora;Peñausende;;W5.89;N41.28;12;
2;España;Zamora;Peque;;W6.26;N42.07;12;
2;España;Zamora;El Perdigón;;W5.80;N41.42;12;
2;España;Zamora;Pereruela;;W5.88;N41.42;12;
2;España;Zamora;Perilla de Castro;;W5.84;N41.73;12;
2;España;Zamora;Pías;;W6.98;N42.10;12;
2;España;Zamora;Piedrahita de Castro;;W5.74;N41.67;12;
2;España;Zamora;Pinilla de Toro;;W5.36;N41.62;12;
2;España;Zamora;Pino del Oro;;W6.12;N41.58;12;
2;España;Zamora;El Piñero;;W5.59;N41.37;12;
2;España;Zamora;Pobladura de Valderaduey;;W5.53;N41.70;12;
2;España;Zamora;Pobladura del Valle;;W5.73;N42.10;12;
2;España;Zamora;Porto;;W6.84;N42.17;12;
2;España;Zamora;Pozoantiguo;;W5.44;N41.59;12;
2;España;Zamora;Pozuelo de Tábara;;W5.90;N41.78;12;
2;España;Zamora;Prado;;W5.42;N41.93;12;
2;España;Zamora;Puebla de Sanabria;;W6.635;N42.054;10;
2;España;Zamora;Pueblica de Valverde;;W5.92;N41.91;12;
2;España;Zamora;Quintanilla de Urz;;W5.85;N42.04;12;
2;España;Zamora;Quintanilla del Monte;;W5.34;N41.86;12;
2;España;Zamora;Quintanilla del Olmo;;W5.41;N41.91;12;
2;España;Zamora;Quiruelas de Vidriales;;W5.83;N42.01;12;
2;España;Zamora;Rabanales;;W6.27;N41.74;12;
2;España;Zamora;Rábano de Aliste;;W6.43;N41.73;12;
2;España;Zamora;Requejo;;W6.77;N42.02;12;
2;España;Zamora;Revellinos;;W5.55;N41.88;12;
2;España;Zamora;Riofrío de Aliste;;W6.20;N41.83;12;
2;España;Zamora;Rionegro del Puente;;W6.21;N42.00;12;
2;España;Zamora;Roales;;W5.78;N41.55;12;
2;España;Zamora;Robleda-Cervantes;;W6.61;N42.08;12;
2;España;Zamora;Roelos de Sayago;;W6.18;N41.27;12;
2;España;Zamora;Rosinos de la Requejada;;W6.51;N42.14;12;
2;España;Zamora;Salce;;W6.22;N41.28;12;
2;España;Zamora;Samir de los Caños;;W6.15;N41.67;12;
2;España;Zamora;San Agustín del Pozo;;W5.61;N41.90;12;
2;España;Zamora;San Cebrián de Castro;;W5.79;N41.72;12;
2;España;Zamora;San Cristóbal de Entreviñas;;W5.63;N42.05;12;
2;España;Zamora;San Esteban del Molar;;W5.55;N41.94;12;
2;España;Zamora;San Justo;;W6.64;N42.17;12;
2;España;Zamora;San Martín de Valderaduey;;W5.48;N41.80;12;
2;España;Zamora;San Miguel de la Ribera;;W5.56;N41.34;12;
2;España;Zamora;San Miguel del Valle;;W5.50;N42.04;12;
2;España;Zamora;San Pedro de Ceque;;W6.11;N42.05;12;
2;España;Zamora;San Pedro de la Nave-Almendra;;W5.93;N41.58;12;
2;España;Zamora;San Vicente de la Cabeza;;W6.24;N41.81;12;
2;España;Zamora;San Vitero;;W6.36;N41.78;12;
2;España;Zamora;Santa Clara de Avedillo;;W5.67;N41.34;12;
2;España;Zamora;Santa Colomba de las Monjas;;W5.68;N41.96;12;
2;España;Zamora;Santa Cristina de la Polvorosa;;W5.74;N41.99;12;
2;España;Zamora;Santa Croya de Tera;;W5.97;N41.97;12;
2;España;Zamora;Santa Eufemia del Barco;;W5.89;N41.69;12;
2;España;Zamora;Santa María de la Vega;;W5.81;N42.08;12;
2;España;Zamora;Santa María de Valverde;;W5.93;N41.94;12;
2;España;Zamora;Santibáñez de Tera;;W5.92;N42.00;12;
2;España;Zamora;Santibáñez de Vidriales;;W5.99;N42.08;12;
2;España;Zamora;Santovenia;;W5.71;N41.87;12;
2;España;Zamora;Sanzoles;;W5.56;N41.42;12;
2;España;Zamora;Tábara;;W5.97;N41.85;12;
2;España;Zamora;Tapioles;;W5.49;N41.85;12;
2;España;Zamora;Toro;;W5.39;N41.53;10;
2;España;Zamora;La Torre del Valle;;W5.71;N42.09;12;
2;España;Zamora;Torregamones;;W6.22;N41.49;12;
2;España;Zamora;Torres del Carrizal;;W5.68;N41.63;12;
2;España;Zamora;Trabazos;;W6.52;N41.74;12;
2;España;Zamora;Trefacio;;W6.67;N42.14;12;
2;España;Zamora;Uña de Quintana;;W6.14;N42.09;12;
2;España;Zamora;Vadillo de la Guareña;;W5.34;N41.30;12;
2;España;Zamora;Valcabado;;W5.75;N41.55;12;
2;España;Zamora;Valdefinjas;;W5.46;N41.43;12;
2;España;Zamora;Valdescorriel;;W5.53;N42.04;12;
2;España;Zamora;Vallesa de la Guareña;;W5.31;N41.15;12;
2;España;Zamora;Vega de Tera;;W6.12;N42.00;12;
2;España;Zamora;Vega de Villalobos;;W5.47;N41.98;12;
2;España;Zamora;Vegalatrave;;W6.10;N41.71;12;
2;España;Zamora;Venialbo;;W5.54;N41.39;12;
2;España;Zamora;Vezdemarbán;;W5.37;N41.68;12;
2;España;Zamora;Vidayanes;;W5.59;N41.92;12;
2;España;Zamora;Videmala;;W6.02;N41.61;12;
2;España;Zamora;Villabrázaro;;W5.72;N42.06;12;
2;España;Zamora;Villabuena del Puente;;W5.38;N41.38;12;
2;España;Zamora;Villadepera;;W6.14;N41.54;12;
2;España;Zamora;Villaescusa;;W3.85;N43.36;12;
2;España;Zamora;Villafáfila;;W5.60;N41.84;12;
2;España;Zamora;Villaferrueña;;W5.87;N42.09;12;
2;España;Zamora;Villageriz;;W5.95;N42.12;12;
2;España;Zamora;Villalazán;;W5.59;N41.50;12;
2;España;Zamora;Villalba de la Lampreana;;W5.62;N41.75;12;
2;España;Zamora;Villalcampo;;W6.05;N41.52;12;
2;España;Zamora;Villalobos;;W5.49;N41.95;12;
2;España;Zamora;Villalonso;;W5.30;N41.59;12;
2;España;Zamora;Villalpando;;W5.42;N41.82;12;
2;España;Zamora;Villalube;;W5.54;N41.62;12;
2;España;Zamora;Villamayor de Campos;;W5.36;N41.91;12;
2;España;Zamora;Villamor de los Escuderos;;W5.57;N41.25;12;
2;España;Zamora;Villanázar;;W5.78;N41.97;12;
2;España;Zamora;Villanueva de Azoague;;W5.65;N41.97;12;
2;España;Zamora;Villanueva de Campeán;;W5.78;N41.35;12;
2;España;Zamora;Villanueva de las Peras;;W5.99;N41.93;12;
2;España;Zamora;Villanueva del Campo;;W5.39;N41.99;12;
2;España;Zamora;Villar de Fallaves;;W5.34;N41.93;12;
2;España;Zamora;Villar del Buey;;W6.27;N41.34;12;
2;España;Zamora;Villaralbo;;W5.66;N41.50;12;
2;España;Zamora;Villardeciervos;;W6.30;N41.95;12;
2;España;Zamora;Villardiegua de la Ribera;;W6.20;N41.54;12;
2;España;Zamora;Villárdiga;;W5.49;N41.82;12;
2;España;Zamora;Villardondiego;;W5.40;N41.57;12;
2;España;Zamora;Villarrín de Campos;;W5.66;N41.79;12;
2;España;Zamora;Villaseco del Pan;;W5.99;N41.47;12;
2;España;Zamora;Villavendimio;;W5.33;N41.58;12;
2;España;Zamora;Villaveza de Valverde;;W5.86;N41.93;12;
2;España;Zamora;Villaveza del Agua;;W5.67;N41.91;12;
2;España;Zamora;Viñas;;W6.45;N41.78;12;
2;España;Zamora;Zamora;;W5.75;N41.51;10;
