Level;Country;State;County;Place;Longitude;Latitude;ZoomLevel;Icon
2;España;Soria;Abejar;;W2.78;N41.80;12;
2;España;Soria;Adradas;;W2.48;N41.34;12;
2;España;Soria;Ágreda;;W1.89;N41.86;12;
2;España;Soria;Alconaba;;W2.40;N41.73;12;
2;España;Soria;Alcubilla de Avellaneda;;W3.30;N41.71;12;
2;España;Soria;Alcubilla de las Peñas;;W2.51;N41.28;12;
2;España;Soria;Aldealafuente;;W2.33;N41.64;12;
2;España;Soria;Aldealices;;W2.29;N41.92;12;
2;España;Soria;Aldealpozo;;W2.19;N41.79;12;
2;España;Soria;Aldealseñor;;W2.31;N41.89;12;
2;España;Soria;Aldehuela de Periáñez;;W2.33;N41.81;12;
2;España;Soria;Las Aldehuelas;;W2.37;N42.01;12;
2;España;Soria;Alentisque;;W2.34;N41.40;12;
2;España;Soria;Aliud;;W2.25;N41.66;12;
2;España;Soria;Almajano;;W2.34;N41.85;12;
2;España;Soria;Almaluez;;W2.31;N41.31;12;
2;España;Soria;Almarza;;W2.47;N41.94;12;
2;España;Soria;Almazán;;W2.54;N41.50;12;
2;España;Soria;Almazul;;W2.16;N41.57;12;
2;España;Soria;Almenar de Soria;;W2.14;N41.68;12;
2;España;Soria;Alpanseque;;W2.70;N41.27;12;
2;España;Soria;Arancón;;W2.25;N41.78;12;
2;España;Soria;Arcos de Jalón;;W2.28;N41.19;12;
2;España;Soria;Arenillas;;W2.84;N41.34;12;
2;España;Soria;Arévalo de la Sierra;;W2.41;N41.96;12;
2;España;Soria;Ausejo de la Sierra;;W2.36;N41.91;12;
2;España;Soria;Baraona;;W2.62;N41.29;12;
2;España;Soria;Barca;;W2.64;N41.46;12;
2;España;Soria;Barcones;;W2.81;N41.29;12;
2;España;Soria;Bayubas de Abajo;;W2.91;N41.52;12;
2;España;Soria;Bayubas de Arriba;;W2.89;N41.56;12;
2;España;Soria;Beratón;;W1.82;N41.72;12;
2;España;Soria;Berlanga de Duero;;W2.86;N41.47;12;
2;España;Soria;Blacos;;W2.87;N41.70;12;
2;España;Soria;Bliecos;;W2.26;N41.53;12;
2;España;Soria;Borjabad;;W2.40;N41.56;12;
2;España;Soria;Borobia;;W1.88;N41.68;12;
2;España;Soria;Buberos;;W2.17;N41.65;12;
2;España;Soria;Buitrago;;W2.40;N41.84;12;
2;España;Soria;Burgo de Osma-Ciudad de Osma;;W3.07;N41.60;12;
2;España;Soria;Cabrejas del Campo;;W2.28;N41.69;12;
2;España;Soria;Cabrejas del Pinar;;W2.88;N41.77;12;
2;España;Soria;Calatañazor;;W2.80;N41.73;12;
2;España;Soria;Caltojar;;W2.74;N41.40;12;
2;España;Soria;Candilichera;;W2.30;N41.73;12;
2;España;Soria;Cañamaque;;W2.22;N41.45;12;
2;España;Soria;Carabantes;;W1.99;N41.55;12;
2;España;Soria;Caracena;;W3.10;N41.39;12;
2;España;Soria;Carrascosa de Abajo;;W3.09;N41.43;12;
2;España;Soria;Carrascosa de la Sierra;;W2.26;N41.91;12;
2;España;Soria;Casarejos;;W3.05;N41.82;12;
2;España;Soria;Castilfrío de la Sierra;;W2.29;N41.93;12;
2;España;Soria;Castillejo de Robledo;;W3.50;N41.57;12;
2;España;Soria;Castilruiz;;W2.02;N41.89;12;
2;España;Soria;Centenera de Andaluz;;W2.74;N41.50;12;
2;España;Soria;Cerbón;;W2.16;N41.95;12;
2;España;Soria;Cidones;;W2.67;N41.82;12;
2;España;Soria;Cigudosa;;W2.07;N41.93;12;
2;España;Soria;Cihuela;;W1.99;N41.42;12;
2;España;Soria;Ciria;;W1.96;N41.64;12;
2;España;Soria;Cirujales del Río;;W2.33;N41.87;12;
2;España;Soria;Coscurita;;W2.48;N41.44;12;
2;España;Soria;Covaleda;;W2.87;N41.95;12;
2;España;Soria;Cubilla;;W2.94;N41.73;12;
2;España;Soria;Cubo de la Solana;;W2.47;N41.61;12;
2;España;Soria;Cueva de Ágreda;;W1.88;N41.76;12;
2;España;Soria;Dévanos;;W1.94;N41.92;12;
2;España;Soria;Deza;;W2.02;N41.48;12;
2;España;Soria;Duruelo de la Sierra;;W2.93;N41.97;12;
2;España;Soria;Escobosa de Almazán;;W2.37;N41.49;12;
2;España;Soria;Espeja de San Marcelino;;W3.24;N41.78;12;
2;España;Soria;Espejón;;W3.27;N41.86;12;
2;España;Soria;Estepa de San Juan;;W2.32;N41.94;12;
2;España;Soria;Frechilla de Almazán;;W2.52;N41.42;12;
2;España;Soria;Fresno de Caracena;;W3.10;N41.46;12;
2;España;Soria;Fuentearmegil;;W3.19;N41.72;12;
2;España;Soria;Fuentecambrón;;W3.34;N41.49;12;
2;España;Soria;Fuentecantos;;W2.43;N41.84;12;
2;España;Soria;Fuentelmonge;;W2.18;N41.41;12;
2;España;Soria;Fuentelsaz de Soria;;W2.43;N41.87;12;
2;España;Soria;Fuentepinilla;;W2.75;N41.55;12;
2;España;Soria;Fuentes de Magaña;;W2.20;N41.93;12;
2;España;Soria;Fuentestrún;;W2.09;N41.86;12;
2;España;Soria;Garray;;W2.50;N41.84;12;
2;España;Soria;Golmayo;;W2.65;N41.72;12;
2;España;Soria;Gómara;;W2.22;N41.59;12;
2;España;Soria;Gormaz;;W3.01;N41.51;12;
2;España;Soria;Herrera de Soria;;W3.04;N41.76;12;
2;España;Soria;Hinojosa del Campo;;W2.08;N41.75;12;
2;España;Soria;Langa de Duero;;W3.37;N41.62;12;
2;España;Soria;Liceras;;W3.23;N41.40;12;
2;España;Soria;La Losilla;;W2.26;N41.88;12;
2;España;Soria;Magaña;;W2.18;N41.89;12;
2;España;Soria;Maján;;W2.30;N41.47;12;
2;España;Soria;Matalebreras;;W2.05;N41.83;12;
2;España;Soria;Matamala de Almazán;;W2.63;N41.49;12;
2;España;Soria;Medinaceli;;W2.42;N41.16;12;
2;España;Soria;Miño de Medinaceli;;W2.55;N41.17;12;
2;España;Soria;Miño de San Esteban;;W3.34;N41.55;12;
2;España;Soria;Molinos de Duero;;W2.83;N41.88;12;
2;España;Soria;Momblona;;W2.32;N41.44;12;
2;España;Soria;Monteagudo de las Vicarías;;W2.20;N41.38;12;
2;España;Soria;Montejo de Tiermes;;W3.21;N41.38;12;
2;España;Soria;Montenegro de Cameros;;W2.75;N42.09;12;
2;España;Soria;Morón de Almazán;;W2.39;N41.40;12;
2;España;Soria;Muriel de la Fuente;;W2.87;N41.73;12;
2;España;Soria;Muriel Viejo;;W2.91;N41.78;12;
2;España;Soria;Nafría de Ucero;;W3.10;N41.72;12;
2;España;Soria;Narros;;W2.28;N41.85;12;
2;España;Soria;Navaleno;;W3.01;N41.85;12;
2;España;Soria;Nepas;;W2.41;N41.51;12;
2;España;Soria;Nolay;;W2.35;N41.52;12;
2;España;Soria;Noviercas;;W1.99;N41.69;12;
2;España;Soria;Ólvega;;W1.98;N41.79;12;
2;España;Soria;Oncala;;W2.29;N41.97;12;
2;España;Soria;Pinilla del Campo;;W2.11;N41.71;12;
2;España;Soria;Portillo de Soria;;W2.12;N41.63;12;
2;España;Soria;La Póveda de Soria;;W2.52;N42.02;12;
2;España;Soria;Pozalmuro;;W2.10;N41.77;12;
2;España;Soria;Quintana Redonda;;W2.65;N41.62;12;
2;España;Soria;Quintanas de Gormaz;;W2.96;N41.50;12;
2;España;Soria;Quiñonería;;W2.05;N41.56;12;
2;España;Soria;Los Rábanos;;W2.48;N41.69;12;
2;España;Soria;Rebollar;;W5.91;N40.16;12;
2;España;Soria;Recuerda;;W2.99;N41.44;12;
2;España;Soria;Rello;;W2.75;N41.33;12;
2;España;Soria;Renieblas;;W2.37;N41.80;12;
2;España;Soria;Retortillo de Soria;;W3.02;N41.33;12;
2;España;Soria;Reznos;;W2.01;N41.59;12;
2;España;Soria;La Riba de Escalote;;W2.80;N41.34;12;
2;España;Soria;Rioseco de Soria;;W2.88;N41.65;12;
2;España;Soria;Rollamienta;;W2.53;N41.93;12;
2;España;Soria;El Royo;;W2.67;N41.92;12;
2;España;Soria;Salduero;;W2.81;N41.90;12;
2;España;Soria;San Esteban de Gormaz;;W3.23;N41.55;12;
2;España;Soria;San Felices;;W2.01;N41.92;12;
2;España;Soria;San Leonardo de Yagüe;;W3.08;N41.83;12;
2;España;Soria;San Pedro Manrique;;W2.18;N42.04;12;
2;España;Soria;Santa Cruz de Yanguas;;W2.47;N42.07;12;
2;España;Soria;Santa María de Huerta;;W2.16;N41.22;12;
2;España;Soria;Santa María de las Hoyas;;W3.13;N41.78;12;
2;España;Soria;Serón de Nágima;;W2.20;N41.51;12;
2;España;Soria;Soliedra;;W2.39;N41.46;12;
2;España;Soria;Soria;;W2.46;N41.77;10;
2;España;Soria;Sotillo del Rincón;;W2.61;N41.96;12;
2;España;Soria;Suellacabras;;W2.20;N41.86;12;
2;España;Soria;Tajahuerce;;W2.16;N41.75;12;
2;España;Soria;Tajueco;;W2.85;N41.54;12;
2;España;Soria;Talveila;;W2.96;N41.73;12;
2;España;Soria;Tardelcuende;;W2.63;N41.59;12;
2;España;Soria;Taroda;;W2.43;N41.33;12;
2;España;Soria;Tejado;;W2.30;N41.58;12;
2;España;Soria;Torlengua;;W2.13;N41.46;12;
2;España;Soria;Torreblacos;;W2.89;N41.67;12;
2;España;Soria;Torrubia de Soria;;W2.06;N41.63;12;
2;España;Soria;Trévago;;W2.12;N41.86;12;
2;España;Soria;Ucero;;W3.06;N41.72;12;
2;España;Soria;Vadillo;;W3.00;N41.82;12;
2;España;Soria;Valdeavellano de Tera;;W2.58;N41.94;12;
2;España;Soria;Valdegeña;;W2.16;N41.82;12;
2;España;Soria;Valdelagua del Cerro;;W2.11;N41.89;12;
2;España;Soria;Valdemaluque;;W3.04;N41.69;12;
2;España;Soria;Valdenebro;;W2.93;N41.59;12;
2;España;Soria;Valdeprado;;W2.13;N41.95;12;
2;España;Soria;Valderrodilla;;W2.81;N41.57;12;
2;España;Soria;Valtajeros;;W2.23;N41.94;12;
2;España;Soria;Velamazán;;W2.73;N41.48;12;
2;España;Soria;Velilla de la Sierra;;W2.40;N41.80;12;
2;España;Soria;Velilla de los Ajos;;W2.28;N41.50;12;
2;España;Soria;Viana de Duero;;W2.46;N41.53;12;
2;España;Soria;Villaciervos;;W2.66;N41.77;12;
2;España;Soria;Villanueva de Gormaz;;W3.06;N41.47;12;
2;España;Soria;Villar del Ala;;W2.56;N41.91;12;
2;España;Soria;Villar del Campo;;W2.15;N41.80;12;
2;España;Soria;Villar del Río;;W2.40;N42.06;12;
2;España;Soria;Los Villares de Soria;;W2.36;N41.88;12;
2;España;Soria;Villasayas;;W2.62;N41.36;12;
2;España;Soria;Villaseca de Arciel;;W2.15;N41.62;12;
2;España;Soria;Vinuesa;;W2.77;N41.95;12;
2;España;Soria;Vizmanos;;W2.41;N42.04;12;
2;España;Soria;Vozmediano;;W1.84;N41.84;12;
2;España;Soria;Yanguas;;W2.33;N42.12;12;
2;España;Soria;Yelo;;W2.54;N41.22;12;
