Level;Country;State;County;Place;Longitude;Latitude;ZoomLevel;Icon
2;España;Cuenca;Abia de la Obispalía;;W2.37;N40.05;12;
2;España;Cuenca;El Acebrón;;W2.98;N39.89;12;
2;España;Cuenca;Alarcón;;W2.08;N39.51;12;
2;España;Cuenca;Albaladejo del Cuende;;W2.25;N39.81;12;
2;España;Cuenca;Albalate de las Nogueras;;W2.29;N40.37;12;
2;España;Cuenca;Albendea;;W2.40;N40.47;12;
2;España;Cuenca;La Alberca de Záncara;;W2.50;N39.51;12;
2;España;Cuenca;Alcalá de la Vega;;W1.52;N40.03;12;
2;España;Cuenca;Alcantud;;W2.33;N40.54;12;
2;España;Cuenca;Alcázar del Rey;;W2.81;N40.06;12;
2;España;Cuenca;Alcohujate;;W2.59;N40.44;12;
2;España;Cuenca;Alconchel de la Estrella;;W2.60;N39.73;12;
2;España;Cuenca;Algarra;;W1.44;N40.02;12;
2;España;Cuenca;Aliaguilla;;W1.32;N39.75;12;
2;España;Cuenca;La Almarcha;;W2.40;N39.69;12;
2;España;Cuenca;Almendros;;W2.86;N39.86;12;
2;España;Cuenca;Almodóvar del Pinar;;W1.91;N39.73;12;
2;España;Cuenca;Almonacid del Marquesado;;W2.78;N39.82;12;
2;España;Cuenca;Altarejos;;W2.39;N39.92;12;
2;España;Cuenca;Arandilla del Arroyo;;W2.37;N40.51;12;
2;España;Cuenca;Arcas del Villar;;W2.09;N39.96;12;
2;España;Cuenca;Arcos de la Sierra;;W2.08;N40.35;12;
2;España;Cuenca;Arguisuelas;;W1.83;N39.81;12;
2;España;Cuenca;Arrancacepas;;W2.35;N40.31;12;
2;España;Cuenca;Atalaya del Cañavate;;W2.24;N39.52;12;
2;España;Cuenca;Barajas de Melo;;W2.99;N40.12;12;
2;España;Cuenca;Barchín del Hoyo;;W2.02;N39.69;12;
2;España;Cuenca;Bascuñana de San Pedro;;W2.22;N40.21;12;
2;España;Cuenca;Beamud;;W1.82;N40.21;12;
2;España;Cuenca;Belinchón;;W3.03;N40.05;12;
2;España;Cuenca;Belmonte;;W2.70;N39.58;12;
2;España;Cuenca;Belmontejo;;W2.31;N39.82;12;
2;España;Cuenca;Beteta;;W2.00;N40.56;12;
2;España;Cuenca;Boniches;;W1.61;N39.99;12;
2;España;Cuenca;Buciegas;;W2.47;N40.34;12;
2;España;Cuenca;Buenache de Alarcón;;W2.17;N39.64;12;
2;España;Cuenca;Buenache de la Sierra;;W2.00;N40.13;12;
2;España;Cuenca;Buendía;;W2.77;N40.39;12;
2;España;Cuenca;Campillo de Altobuey;;W1.77;N39.63;12;
2;España;Cuenca;Campillos-Paravientos;;W1.54;N39.97;12;
2;España;Cuenca;Campillos-Sierra;;W1.68;N40.09;12;
2;España;Cuenca;Campos del Paraíso;;W2.71;N40.02;12;
2;España;Cuenca;Canalejas del Arroyo;;W2.47;N40.40;12;
2;España;Cuenca;Cañada del Hoyo;;W1.89;N39.99;12;
2;España;Cuenca;Cañada Juncosa;;W2.22;N39.56;12;
2;España;Cuenca;Cañamares;;W2.25;N40.45;12;
2;España;Cuenca;El Cañavate;;W2.32;N39.55;12;
2;España;Cuenca;Cañaveras;;W2.40;N40.36;12;
2;España;Cuenca;Cañaveruelas;;W2.66;N40.43;12;
2;España;Cuenca;Cañete;;W1.64;N40.05;12;
2;España;Cuenca;Cañizares;;W2.20;N40.53;12;
2;España;Cuenca;Carboneras de Guadazaón;;W1.82;N39.91;12;
2;España;Cuenca;Cardenete;;W1.70;N39.81;12;
2;España;Cuenca;Carrascosa;;W2.20;N40.56;12;
2;España;Cuenca;Carrascosa de Haro;;W2.54;N39.59;12;
2;España;Cuenca;Casas de Benítez;;W2.10;N39.32;12;
2;España;Cuenca;Casas de Fernando Alonso;;W2.34;N39.34;12;
2;España;Cuenca;Casas de Garcimolina;;W1.42;N40.01;12;
2;España;Cuenca;Casas de Guijarro;;W2.15;N39.34;12;
2;España;Cuenca;Casas de Haro;;W2.26;N39.29;12;
2;España;Cuenca;Casas de los Pinos;;W2.37;N39.29;12;
2;España;Cuenca;Casasimarro;;W2.07;N39.39;12;
2;España;Cuenca;Castejón;;W2.54;N40.41;12;
2;España;Cuenca;Castillejo de Iniesta;;W1.75;N39.54;12;
2;España;Cuenca;Castillejo-Sierra;;W2.09;N40.38;12;
2;España;Cuenca;Castillo de Garcimuñoz;;W2.36;N39.68;12;
2;España;Cuenca;Castillo-Albaráñez;;W2.39;N40.29;12;
2;España;Cuenca;Cervera del Llano;;W2.43;N39.79;12;
2;España;Cuenca;Chillarón de Cuenca;;W2.22;N40.13;12;
2;España;Cuenca;Chumillas;;W2.03;N39.77;12;
2;España;Cuenca;La Cierva;;W1.86;N40.05;12;
2;España;Cuenca;Cuenca;;W1.99;N40.22;12;
2;España;Cuenca;Cueva del Hierro;;W2.00;N40.57;12;
2;España;Cuenca;Enguídanos;;W1.62;N39.69;12;
2;España;Cuenca;Fresneda de Altarejos;;W2.29;N39.93;12;
2;España;Cuenca;Fresneda de la Sierra;;W2.12;N40.41;12;
2;España;Cuenca;La Frontera;;W2.21;N40.41;12;
2;España;Cuenca;Fuente de Pedro Naharro;;W3.05;N39.93;12;
2;España;Cuenca;Fuentelespino de Haro;;W2.64;N39.69;12;
2;España;Cuenca;Fuentelespino de Moya;;W1.47;N39.94;12;
2;España;Cuenca;Fuentenava de Jábaga;;W2.30;N40.12;12;
2;España;Cuenca;Fuentes;;W2.01;N39.94;12;
2;España;Cuenca;Fuertescusa;;W2.14;N40.46;12;
2;España;Cuenca;Gabaldón;;W1.96;N39.64;12;
2;España;Cuenca;Garaballa;;W1.39;N39.80;12;
2;España;Cuenca;Gascueña;;W2.52;N40.30;12;
2;España;Cuenca;Graja de Campalbo;;W1.27;N39.90;12;
2;España;Cuenca;Graja de Iniesta;;W1.67;N39.52;12;
2;España;Cuenca;Henarejos;;W1.45;N39.82;12;
2;España;Cuenca;El Herrumblar;;W1.60;N39.41;12;
2;España;Cuenca;La Hinojosa;;W2.43;N39.73;12;
2;España;Cuenca;Los Hinojosos;;W2.86;N39.60;12;
2;España;Cuenca;El Hito;;W2.71;N39.85;12;
2;España;Cuenca;Honrubia;;W2.25;N39.61;12;
2;España;Cuenca;Hontanaya;;W2.83;N39.71;12;
2;España;Cuenca;Hontecillas;;W2.20;N39.69;12;
2;España;Cuenca;Horcajo de Santiago;;W3.02;N39.84;12;
2;España;Cuenca;Huélamo;;W1.80;N40.29;12;
2;España;Cuenca;Huelves;;W2.90;N40.05;12;
2;España;Cuenca;Huérguina;;W1.60;N40.04;12;
2;España;Cuenca;Huerta de la Obispalía;;W2.48;N39.98;12;
2;España;Cuenca;Huerta del Marquesado;;W1.71;N40.16;12;
2;España;Cuenca;Huete;;W2.64;N40.10;12;
2;España;Cuenca;Iniesta;;W1.62;N39.44;12;
2;España;Cuenca;Laguna del Marquesado;;W1.67;N40.19;12;
2;España;Cuenca;Lagunaseca;;W1.98;N40.51;12;
2;España;Cuenca;Landete;;W1.35;N39.90;12;
2;España;Cuenca;Ledaña;;W1.71;N39.36;12;
2;España;Cuenca;Leganiel;;W2.98;N40.16;12;
2;España;Cuenca;Las Majadas;;W1.99;N40.29;12;
2;España;Cuenca;Mariana;;W2.12;N40.17;12;
2;España;Cuenca;Masegosa;;W1.98;N40.54;12;
2;España;Cuenca;Las Mesas;;W2.75;N39.37;12;
2;España;Cuenca;Minglanilla;;W1.56;N39.50;12;
2;España;Cuenca;Mira;;W1.50;N39.67;12;
2;España;Cuenca;Monreal del Llano;;W2.77;N39.56;12;
2;España;Cuenca;Montalbanejo;;W2.49;N39.75;12;
2;España;Cuenca;Montalbo;;W2.67;N39.86;12;
2;España;Cuenca;Monteagudo de las Salinas;;W1.91;N39.82;12;
2;España;Cuenca;Mota de Altarejos;;W2.30;N39.87;12;
2;España;Cuenca;Mota del Cuervo;;W2.87;N39.42;12;
2;España;Cuenca;Motilla del Palancar;;W1.91;N39.57;12;
2;España;Cuenca;Moya;;W15.57;N28.12;12;
2;España;Cuenca;Narboneta;;W1.49;N39.76;12;
2;España;Cuenca;Olivares de Júcar;;W2.33;N39.76;12;
2;España;Cuenca;Olmeda de la Cuesta;;W2.47;N40.31;12;
2;España;Cuenca;Olmeda del Rey;;W2.06;N39.84;12;
2;España;Cuenca;Olmedilla de Alarcón;;W2.12;N39.61;12;
2;España;Cuenca;Olmedilla de Eliz;;W2.42;N40.30;12;
2;España;Cuenca;Osa de la Vega;;W2.77;N39.65;12;
2;España;Cuenca;Pajarón;;W1.82;N39.99;12;
2;España;Cuenca;Pajaroncillo;;W1.73;N39.95;12;
2;España;Cuenca;Palomares del Campo;;W2.63;N39.94;12;
2;España;Cuenca;Palomera;;W2.05;N40.07;12;
2;España;Cuenca;Paracuellos;;W1.74;N39.74;12;
2;España;Cuenca;Paredes;;W2.85;N40.08;12;
2;España;Cuenca;La Parra de las Vegas;;W2.24;N39.87;12;
2;España;Cuenca;El Pedernoso;;W2.77;N39.48;12;
2;España;Cuenca;Las Pedroñeras;;W2.63;N39.44;12;
2;España;Cuenca;El Peral;;W1.88;N39.51;12;
2;España;Cuenca;La Peraleja;;W2.55;N40.24;12;
2;España;Cuenca;La Pesquera;;W1.54;N39.58;12;
2;España;Cuenca;El Picazo;;W2.09;N39.45;12;
2;España;Cuenca;Pinarejo;;W2.41;N39.62;12;
2;España;Cuenca;Pineda de Gigüela;;W2.53;N40.09;12;
2;España;Cuenca;Piqueras del Castillo;;W2.10;N39.71;12;
2;España;Cuenca;Portalrubio de Guadamejud;;W2.61;N40.28;12;
2;España;Cuenca;Portilla;;W2.08;N40.32;12;
2;España;Cuenca;Poyatos;;W2.07;N40.43;12;
2;España;Cuenca;Pozoamargo;;W2.20;N39.33;12;
2;España;Cuenca;Pozorrubielos de la Mancha;;W2.04;N39.49;12;
2;España;Cuenca;Pozorrubio;;W2.94;N39.80;12;
2;España;Cuenca;El Pozuelo;;W2.27;N40.60;12;
2;España;Cuenca;Priego;;W2.32;N40.47;12;
2;España;Cuenca;El Provencio;;W2.58;N39.39;12;
2;España;Cuenca;Puebla de Almenara;;W2.81;N39.79;12;
2;España;Cuenca;Puebla de Don Francisco;;W2.77;N40.23;12;
2;España;Cuenca;Puebla del Salvador;;W1.65;N39.57;12;
2;España;Cuenca;Quintanar del Rey;;W1.94;N39.34;12;
2;España;Cuenca;Rada de Haro;;W2.62;N39.58;12;
2;España;Cuenca;Reíllo;;W1.89;N39.88;12;
2;España;Cuenca;Rozalén del Monte;;W2.80;N39.99;12;
2;España;Cuenca;Saceda-Trasierra;;W2.85;N40.16;12;
2;España;Cuenca;Saelices;;W2.81;N39.90;12;
2;España;Cuenca;Salinas del Manzano;;W1.55;N40.08;12;
2;España;Cuenca;Salmeroncillos;;W2.53;N40.50;12;
2;España;Cuenca;Salvacañete;;W1.50;N40.14;12;
2;España;Cuenca;San Clemente;;W2.44;N39.43;12;
2;España;Cuenca;San Lorenzo de la Parrilla;;W2.37;N39.85;12;
2;España;Cuenca;San Martín de Boniches;;W1.56;N39.91;12;
2;España;Cuenca;San Pedro Palmiches;;W2.41;N40.44;12;
2;España;Cuenca;Santa Cruz de Moya;;W1.23;N39.94;12;
2;España;Cuenca;Santa María de los Llanos;;W2.80;N39.48;12;
2;España;Cuenca;Santa María del Campo Rus;;W2.43;N39.56;12;
2;España;Cuenca;Santa María del Val;;W2.07;N40.50;12;
2;España;Cuenca;Sisante;;W2.13;N39.38;12;
2;España;Cuenca;Solera de Gabaldón;;W1.97;N39.75;12;
2;España;Cuenca;Sotorribas;;W2.16;N40.26;12;
2;España;Cuenca;Talayuelas;;W1.28;N39.83;12;
2;España;Cuenca;Tarancón;;W3.00;N40.01;12;
2;España;Cuenca;Tébar;;W2.15;N39.52;12;
2;España;Cuenca;Tejadillos;;W1.61;N40.14;12;
2;España;Cuenca;Tinajas;;W2.57;N40.34;12;
2;España;Cuenca;Torralba;;W2.29;N40.30;12;
2;España;Cuenca;Torrejoncillo del Rey;;W2.54;N40.01;12;
2;España;Cuenca;Torrubia del Campo;;W2.94;N39.88;12;
2;España;Cuenca;Torrubia del Castillo;;W2.29;N39.67;12;
2;España;Cuenca;Tragacete;;W1.85;N40.35;12;
2;España;Cuenca;Tresjuncos;;W2.74;N39.71;12;
2;España;Cuenca;Tribaldos;;W2.91;N39.98;12;
2;España;Cuenca;Uclés;;W2.87;N39.92;12;
2;España;Cuenca;Uña;;W1.98;N40.23;12;
2;España;Cuenca;Los Valdecolmenas;;W2.47;N40.12;12;
2;España;Cuenca;Valdemeca;;W1.73;N40.23;12;
2;España;Cuenca;Valdemorillo de la Sierra;;W1.79;N40.04;12;
2;España;Cuenca;Valdemoro-Sierra;;W1.78;N40.13;12;
2;España;Cuenca;Valdeolivas;;W2.45;N40.50;12;
2;España;Cuenca;Valdetórtola;;W2.18;N39.93;12;
2;España;Cuenca;Las Valeras;;W2.15;N39.81;12;
2;España;Cuenca;Valhermoso de la Fuente;;W2.00;N39.54;12;
2;España;Cuenca;Valsalobre;;W2.12;N40.64;12;
2;España;Cuenca;Valverde de Júcar;;W2.24;N39.70;12;
2;España;Cuenca;Valverdejo;;W2.03;N39.63;12;
2;España;Cuenca;Vara de Rey;;W2.28;N39.42;12;
2;España;Cuenca;Vega del Codorno;;W1.95;N40.43;12;
2;España;Cuenca;Vellisca;;W2.81;N40.13;12;
2;España;Cuenca;Villaconejos de Trabaque;;W2.33;N40.40;12;
2;España;Cuenca;Villaescusa de Haro;;W2.60;N39.61;12;
2;España;Cuenca;Villagarcía del Llano;;W1.83;N39.34;12;
2;España;Cuenca;Villalba de la Sierra;;W2.08;N40.23;12;
2;España;Cuenca;Villalba del Rey;;W2.68;N40.36;12;
2;España;Cuenca;Villalgordo del Marquesado;;W2.51;N39.68;12;
2;España;Cuenca;Villalpardo;;W1.61;N39.47;12;
2;España;Cuenca;Villamayor de Santiago;;W2.90;N39.75;12;
2;España;Cuenca;Villanueva de Guadamejud;;W2.50;N40.22;12;
2;España;Cuenca;Villanueva de la Jara;;W2.01;N39.42;12;
2;España;Cuenca;Villar de Cañas;;W2.59;N39.81;12;
2;España;Cuenca;Villar de Domingo García;;W2.27;N40.20;12;
2;España;Cuenca;Villar de la Encina;;W2.53;N39.63;12;
2;España;Cuenca;Villar de Olalla;;W2.24;N40.00;12;
2;España;Cuenca;Villar del Humo;;W1.64;N39.86;12;
2;España;Cuenca;Villar del Infantado;;W2.49;N40.44;12;
2;España;Cuenca;Villar y Velasco;;W2.39;N40.14;12;
2;España;Cuenca;Villarejo de Fuentes;;W2.68;N39.76;12;
2;España;Cuenca;Villarejo de la Peñuela;;W2.40;N40.08;12;
2;España;Cuenca;Villarejo-Periesteban;;W2.45;N39.89;12;
2;España;Cuenca;Villares del Saz;;W2.52;N39.83;12;
2;España;Cuenca;Villarrubio;;W2.89;N39.95;12;
2;España;Cuenca;Villarta;;W1.61;N39.44;12;
2;España;Cuenca;Villas de la Ventosa;;W2.42;N40.24;12;
2;España;Cuenca;Villaverde y Pasaconsol;;W2.28;N39.78;12;
2;España;Cuenca;Víllora;;W1.60;N39.74;12;
2;España;Cuenca;Vindel;;W2.38;N40.58;12;
2;España;Cuenca;Yémeda;;W1.73;N39.75;12;
2;España;Cuenca;Zafra de Záncara;;W2.53;N39.90;12;
2;España;Cuenca;Zafrilla;;W1.64;N40.23;12;
2;España;Cuenca;Zarza de Tajo;;W3.12;N40.03;12;
2;España;Cuenca;Zarzuela;;W2.14;N40.26;12;
