Level;Country;State;County;Place;Longitude;Latitude;ZoomLevel;Icon
2;España;Segovia;Abades;;W4.27;N40.91;12;
2;España;Segovia;Adrada de Pirón;;W4.05;N41.06;12;
2;España;Segovia;Adrados;;W4.11;N41.37;12;
2;España;Segovia;Aguilafuente;;W4.09;N41.25;12;
2;España;Segovia;Alconada de Maderuelo;;W3.49;N41.45;12;
2;España;Segovia;Aldea Real;;W4.18;N41.18;12;
2;España;Segovia;Aldealcorvo;;W3.79;N41.26;12;
2;España;Segovia;Aldealengua de Pedraza;;W3.81;N41.05;12;
2;España;Segovia;Aldealengua de Santa María;;W3.46;N41.47;12;
2;España;Segovia;Aldeanueva de la Serrezuela;;W3.77;N41.46;12;
2;España;Segovia;Aldeanueva del Codonal;;W4.52;N41.09;12;
2;España;Segovia;Aldeasoña;;W4.06;N41.48;12;
2;España;Segovia;Aldehorno;;W3.78;N41.52;12;
2;España;Segovia;Aldehuela del Codonal;;W4.53;N41.05;12;
2;España;Segovia;Aldeonte;;W3.69;N41.34;12;
2;España;Segovia;Anaya;;W4.31;N40.99;12;
2;España;Segovia;Añe;;W4.29;N41.04;12;
2;España;Segovia;Arahuetes;;W3.86;N41.15;12;
2;España;Segovia;Arcones;;W3.71;N41.11;12;
2;España;Segovia;Arevalillo de Cega;;W3.89;N41.17;12;
2;España;Segovia;Armuña;;W4.29;N41.07;12;
2;España;Segovia;Ayllón;;W3.34;N41.36;12;
2;España;Segovia;Barbolla;;W3.66;N41.31;12;
2;España;Segovia;Basardilla;;W3.97;N41.00;12;
2;España;Segovia;Bercial;;W4.43;N40.89;12;
2;España;Segovia;Bercimuel;;W3.56;N41.40;12;
2;España;Segovia;Bernardos;;W4.33;N41.13;12;
2;España;Segovia;Bernuy de Porreros;;W4.11;N41.00;12;
2;España;Segovia;Boceguillas;;W3.60;N41.32;12;
2;España;Segovia;Brieva;;W4.04;N41.04;12;
2;España;Segovia;Caballar;;W3.96;N41.13;12;
2;España;Segovia;Cabañas de Polendos;;W4.10;N41.05;12;
2;España;Segovia;Cabezuela;;W3.98;N41.23;12;
2;España;Segovia;Calabazas de Fuentidueña;;W4.01;N41.45;12;
2;España;Segovia;Campo de San Pedro;;W3.55;N41.46;12;
2;España;Segovia;Cantalejo;;W3.92;N41.26;12;
2;España;Segovia;Cantimpalos;;W4.161;N41.074;10;
2;España;Segovia;Carbonero el Mayor;;W4.29;N41.15;12;
2;España;Segovia;Carrascal del Río;;W3.88;N41.35;12;
2;España;Segovia;Casla;;W3.65;N41.16;12;
2;España;Segovia;Castillejo de Mesleón;;W3.59;N41.28;12;
2;España;Segovia;Castro de Fuentidueña;;W3.86;N41.42;12;
2;España;Segovia;Castrojimeno;;W3.84;N41.41;12;
2;España;Segovia;Castroserna de Abajo;;W3.73;N41.21;12;
2;España;Segovia;Castroserracín;;W3.80;N41.41;12;
2;España;Segovia;Cedillo de la Torre;;W3.63;N41.43;12;
2;España;Segovia;Cerezo de Abajo;;W3.58;N41.22;12;
2;España;Segovia;Cerezo de Arriba;;W3.52;N41.22;12;
2;España;Segovia;Chañe;;W4.43;N41.35;12;
2;España;Segovia;Cilleruelo de San Mamés;;W3.59;N41.44;12;
2;España;Segovia;Cobos de Fuentidueña;;W3.92;N41.39;12;
2;España;Segovia;Coca;;W4.53;N41.22;12;
2;España;Segovia;Codorniz;;W4.61;N41.06;12;
2;España;Segovia;Collado Hermoso;;W3.91;N41.02;12;
2;España;Segovia;Condado de Castilnovo;;W3.75;N41.25;12;
2;España;Segovia;Corral de Ayllón;;W3.45;N41.39;12;
2;España;Segovia;Cozuelos de Fuentidueña;;W4.08;N41.40;12;
2;España;Segovia;Cubillo;;W3.92;N41.11;12;
2;España;Segovia;Cuéllar;;W4.31;N41.37;12;
2;España;Segovia;Cuevas de Provanco;;W3.94;N41.54;12;
2;España;Segovia;Domingo García;;W4.39;N41.12;12;
2;España;Segovia;Donhierro;;W4.70;N41.11;12;
2;España;Segovia;Duruelo;;W3.64;N41.22;12;
2;España;Segovia;Encinas;;W3.68;N41.40;12;
2;España;Segovia;Encinillas;;W4.15;N41.03;12;
2;España;Segovia;Escalona del Prado;;W4.11;N41.17;12;
2;España;Segovia;Escarabajosa de Cabezas;;W4.18;N41.11;12;
2;España;Segovia;Escobar de Polendos;;W4.11;N41.10;12;
2;España;Segovia;El Espinar;;W4.21;N40.73;12;
2;España;Segovia;Espirdo;;W4.07;N41.00;12;
2;España;Segovia;Fresneda de Cuéllar;;W4.46;N41.30;12;
2;España;Segovia;Fresno de Cantespino;;W3.49;N41.36;12;
2;España;Segovia;Fresno de la Fuente;;W3.64;N41.40;12;
2;España;Segovia;Frumales;;W4.19;N41.37;12;
2;España;Segovia;Fuente de Santa Cruz;;W4.62;N41.21;12;
2;España;Segovia;Fuente el Olmo de Fuentidueña;;W3.99;N41.40;12;
2;España;Segovia;Fuente el Olmo de Íscar;;W4.49;N41.29;12;
2;España;Segovia;Fuentepelayo;;W4.17;N41.23;12;
2;España;Segovia;Fuentepiñel;;W4.04;N41.41;12;
2;España;Segovia;Fuenterrebollo;;W3.94;N41.32;12;
2;España;Segovia;Fuentesaúco de Fuentidueña;;W4.06;N41.43;12;
2;España;Segovia;Fuentesoto;;W3.91;N41.45;12;
2;España;Segovia;Fuentidueña;;W3.98;N41.40;12;
2;España;Segovia;Gallegos;;W3.77;N41.07;12;
2;España;Segovia;Garcillán;;W4.27;N40.99;12;
2;España;Segovia;Gomezserracín;;W4.29;N41.29;12;
2;España;Segovia;Grajera;;W3.61;N41.37;12;
2;España;Segovia;Honrubia de la Cuesta;;W3.70;N41.50;12;
2;España;Segovia;Hontalbilla;;W4.12;N41.34;12;
2;España;Segovia;Hontanares de Eresma;;W4.20;N40.98;12;
2;España;Segovia;Los Huertos;;W4.21;N41.00;12;
2;España;Segovia;Ituero y Lama;;W4.37;N40.80;12;
2;España;Segovia;Juarros de Riomoros;;W4.32;N40.93;12;
2;España;Segovia;Juarros de Voltoya;;W4.51;N41.05;12;
2;España;Segovia;Labajos;;W4.52;N40.85;12;
2;España;Segovia;Laguna de Contreras;;W4.02;N41.49;12;
2;España;Segovia;Languilla;;W3.41;N41.45;12;
2;España;Segovia;Lastras de Cuéllar;;W4.08;N41.28;12;
2;España;Segovia;Lastras del Pozo;;W4.31;N40.87;12;
2;España;Segovia;La Lastrilla;;W4.09;N40.97;12;
2;España;Segovia;La Losa;;W4.15;N40.84;12;
2;España;Segovia;Maderuelo;;W3.52;N41.51;12;
2;España;Segovia;Marazoleja;;W4.34;N40.94;12;
2;España;Segovia;Marazuela;;W4.36;N40.98;12;
2;España;Segovia;Martín Miguel;;W4.28;N40.96;12;
2;España;Segovia;Martín Muñoz de la Dehesa;;W4.68;N41.07;12;
2;España;Segovia;Martín Muñoz de las Posadas;;W4.55;N40.99;12;
2;España;Segovia;Marugán;;W4.39;N40.90;12;
2;España;Segovia;Mata de Cuéllar;;W4.48;N41.40;12;
2;España;Segovia;Matabuena;;W3.75;N41.09;12;
2;España;Segovia;La Matilla;;W3.81;N41.18;12;
2;España;Segovia;Melque de Cercos;;W4.47;N41.05;12;
2;España;Segovia;Membibre de la Hoz;;W4.10;N41.46;12;
2;España;Segovia;Migueláñez;;W4.38;N41.14;12;
2;España;Segovia;Montejo de Arévalo;;W4.67;N41.15;12;
2;España;Segovia;Montejo de la Vega de la Serrezuela;;W3.62;N41.55;12;
2;España;Segovia;Monterrubio;;W4.37;N40.84;12;
2;España;Segovia;Moral de Hornuez;;W3.61;N41.47;12;
2;España;Segovia;Mozoncillo;;W4.19;N41.15;12;
2;España;Segovia;Muñopedro;;W4.49;N40.88;12;
2;España;Segovia;Muñoveros;;W3.95;N41.18;12;
2;España;Segovia;Nava de la Asunción;;W4.49;N41.15;12;
2;España;Segovia;Navafría;;W3.83;N41.03;12;
2;España;Segovia;Navalilla;;W3.94;N41.34;12;
2;España;Segovia;Navalmanzano;;W4.25;N41.22;12;
2;España;Segovia;Navares de Ayuso;;W3.70;N41.37;12;
2;España;Segovia;Navares de Enmedio;;W3.73;N41.42;12;
2;España;Segovia;Navares de las Cuevas;;W3.75;N41.42;12;
2;España;Segovia;Navas de Oro;;W4.42;N41.21;12;
2;España;Segovia;Navas de Riofrío;;W4.11;N40.85;12;
2;España;Segovia;Navas de San Antonio;;W4.35;N40.72;12;
2;España;Segovia;Nieva;;W4.45;N41.09;12;
2;España;Segovia;Olombrada;;W4.15;N41.43;12;
2;España;Segovia;Orejana;;W3.77;N41.16;12;
2;España;Segovia;Ortigosa de Pestaño;;W4.39;N41.09;12;
2;España;Segovia;Ortigosa del Monte;;W4.17;N40.83;12;
2;España;Segovia;Otero de Herreros;;W4.21;N40.82;12;
2;España;Segovia;Pajarejos;;W3.59;N41.39;12;
2;España;Segovia;Palazuelos de Eresma;;W4.02;N40.92;12;
2;España;Segovia;Pedraza;;W3.81;N41.13;12;
2;España;Segovia;Pelayos del Arroyo;;W3.95;N41.06;12;
2;España;Segovia;Perosillo;;W4.14;N41.39;12;
2;España;Segovia;Pinarejos;;W4.28;N41.25;12;
2;España;Segovia;Pinarnegrillo;;W4.28;N41.19;12;
2;España;Segovia;Pradales;;W3.69;N41.45;12;
2;España;Segovia;Prádena;;W3.69;N41.15;12;
2;España;Segovia;Puebla de Pedraza;;W3.92;N41.20;12;
2;España;Segovia;Rapariegos;;W4.63;N41.09;12;
2;España;Segovia;Rebollo;;W3.86;N41.19;12;
2;España;Segovia;Remondo;;W4.49;N41.35;12;
2;España;Segovia;Riaguas de San Bartolomé;;W3.49;N41.43;12;
2;España;Segovia;Riaza;;W3.481;N41.276;10;
2;España;Segovia;Ribota;;W3.43;N41.35;12;
2;España;Segovia;Riofrío de Riaza;;W3.43;N41.24;12;
2;España;Segovia;Roda de Eresma;;W4.18;N41.03;12;
2;España;Segovia;Sacramenia;;W3.94;N41.52;12;
2;España;Segovia;Samboal;;W4.43;N41.27;12;
2;España;Segovia;San Cristóbal de Cuéllar;;W4.39;N41.43;12;
2;España;Segovia;San Cristóbal de la Vega;;W4.62;N41.12;12;
2;España;Segovia;San Cristóbal de Segovia;;W4.08;N40.95;12;
2;España;Segovia;San Ildefonso;;W4.03;N40.86;12;
2;España;Segovia;San Martín y Mudrián;;W4.36;N41.22;12;
2;España;Segovia;San Miguel de Bernuy;;W3.94;N41.40;12;
2;España;Segovia;San Pedro de Gaíllos;;W3.82;N41.23;12;
2;España;Segovia;Sanchonuño;;W4.28;N41.33;12;
2;España;Segovia;Sangarcía;;W4.43;N40.95;12;
2;España;Segovia;Santa María la Real de Nieva;;W4.42;N41.01;12;
2;España;Segovia;Santa Marta del Cerro;;W3.68;N41.21;12;
2;España;Segovia;Santiuste de Pedraza;;W3.88;N41.09;12;
2;España;Segovia;Santiuste de San Juan Bautista;;W4.56;N41.16;12;
2;España;Segovia;Santo Domingo de Pirón;;W3.96;N41.01;12;
2;España;Segovia;Santo Tomé del Puerto;;W3.58;N41.19;12;
2;España;Segovia;Sauquillo de Cabezas;;W4.06;N41.20;12;
2;España;Segovia;Sebúlcor;;W3.86;N41.29;12;
2;España;Segovia;Segovia;;W4.12;N40.95;10;
2;España;Segovia;Sepúlveda;;W3.75;N41.299;10;
2;España;Segovia;Sequera de Fresno;;W3.55;N41.36;12;
2;España;Segovia;Sotillo;;W3.65;N41.26;12;
2;España;Segovia;Sotosalbos;;W3.93;N41.03;12;
2;España;Segovia;Tabanera la Luenga;;W4.25;N41.10;12;
2;España;Segovia;Tolocirio;;W4.63;N41.14;12;
2;España;Segovia;Torre Val de San Pedro;;W3.87;N41.04;12;
2;España;Segovia;Torreadrada;;W3.83;N41.46;12;
2;España;Segovia;Torrecaballeros;;W3.98;N40.98;12;
2;España;Segovia;Torrecilla del Pinar;;W4.05;N41.36;12;
2;España;Segovia;Torreiglesias;;W4.04;N41.10;12;
2;España;Segovia;Trescasas;;W4.01;N40.95;12;
2;España;Segovia;Turégano;;W3.99;N41.14;12;
2;España;Segovia;Urueñas;;W3.76;N41.36;12;
2;España;Segovia;Valdeprados;;W4.28;N40.82;12;
2;España;Segovia;Valdevacas de Montejo;;W3.63;N41.52;12;
2;España;Segovia;Valdevacas y Guijar;;W3.92;N41.15;12;
2;España;Segovia;Valle de Tabladillo;;W3.83;N41.37;12;
2;España;Segovia;Vallelado;;W4.42;N41.39;12;
2;España;Segovia;Valleruela de Pedraza;;W3.82;N41.17;12;
2;España;Segovia;Valleruela de Sepúlveda;;W3.77;N41.19;12;
2;España;Segovia;Valseca;;W4.17;N41.00;12;
2;España;Segovia;Valtiendas;;W3.91;N41.49;12;
2;España;Segovia;Valverde del Majano;;W4.21;N40.95;12;
2;España;Segovia;Veganzones;;W4.00;N41.21;12;
2;España;Segovia;Vegas de Matute;;W4.27;N40.79;12;
2;España;Segovia;Ventosilla y Tejadilla;;W3.69;N41.18;12;
2;España;Segovia;Villacastín;;W4.42;N40.76;12;
2;España;Segovia;Villaverde de Íscar;;W4.56;N41.30;12;
2;España;Segovia;Villaverde de Montejo;;W3.67;N41.51;12;
2;España;Segovia;Villeguillo;;W4.58;N41.25;12;
2;España;Segovia;Yanguas de Eresma;;W4.25;N41.07;12;
2;España;Segovia;Zarzuela del Monte;;W4.33;N40.81;12;
2;España;Segovia;Zarzuela del Pinar;;W4.18;N41.27;12;
