Level;Country;State;County;Place;Longitude;Latitude;ZoomLevel;Icon
2;España;Valladolid;Adalia;;W5.13;N41.64;12;
2;España;Valladolid;Aguasal;;W4.63;N41.30;12;
2;España;Valladolid;Aguilar de Campos;;W5.20;N41.98;12;
2;España;Valladolid;Alaejos;;W5.22;N41.31;10;
2;España;Valladolid;Alcazarén;;W4.67;N41.38;12;
2;España;Valladolid;Aldea de San Miguel;;W4.61;N41.45;12;
2;España;Valladolid;Aldeamayor de San Martín;;W4.64;N41.53;12;
2;España;Valladolid;Almenara de Adaja;;W4.68;N41.21;12;
2;España;Valladolid;Amusquillo;;W4.29;N41.75;12;
2;España;Valladolid;Arroyo de la Encomienda;;W4.79;N41.62;12;
2;España;Valladolid;Ataquines;;W4.78;N41.19;12;
2;España;Valladolid;Bahabón;;W4.28;N41.48;12;
2;España;Valladolid;Barcial de la Loma;;W5.28;N41.95;12;
2;España;Valladolid;Barruelo del Valle;;W5.08;N41.68;12;
2;España;Valladolid;Becilla de Valderaduey;;W5.20;N42.10;12;
2;España;Valladolid;Benafarces;;W5.28;N41.62;12;
2;España;Valladolid;Bercero;;W5.07;N41.56;12;
2;España;Valladolid;Berceruelo;;W5.02;N41.59;12;
2;España;Valladolid;Berrueces;;W5.10;N41.95;12;
2;España;Valladolid;Bobadilla del Campo;;W5.04;N41.18;12;
2;España;Valladolid;Bocigas;;W4.69;N41.24;12;
2;España;Valladolid;Bocos de Duero;;W4.06;N41.62;12;
2;España;Valladolid;Boecillo;;W4.73;N41.54;12;
2;España;Valladolid;Bolaños de Campos;;W5.27;N42.01;12;
2;España;Valladolid;Brahojos de Medina;;W5.04;N41.22;12;
2;España;Valladolid;Bustillo de Chaves;;W5.11;N42.12;12;
2;España;Valladolid;Cabezón de Pisuerga;;W4.646;N41.736;10;
2;España;Valladolid;Cabezón de Valderaduey;;W5.17;N42.17;12;
2;España;Valladolid;Cabreros del Monte;;W5.28;N41.84;12;
2;España;Valladolid;Campaspero;;W4.23;N41.50;12;
2;España;Valladolid;El Campillo;;W6.64;N37.69;12;
2;España;Valladolid;Camporredondo;;W4.51;N41.47;12;
2;España;Valladolid;Canalejas de Peñafiel;;W4.11;N41.52;12;
2;España;Valladolid;Canillas de Esgueva;;W4.14;N41.76;12;
2;España;Valladolid;Carpio;;W5.11;N41.22;12;
2;España;Valladolid;Casasola de Arión;;W5.25;N41.58;12;
2;España;Valladolid;Castrejón de Trabancos;;W5.18;N41.25;12;
2;España;Valladolid;Castrillo de Duero;;W4.01;N41.58;12;
2;España;Valladolid;Castrillo-Tejeriego;;W4.37;N41.69;12;
2;España;Valladolid;Castrobol;;W5.31;N42.14;12;
2;España;Valladolid;Castrodeza;;W4.95;N41.65;12;
2;España;Valladolid;Castromembibre;;W5.31;N41.68;12;
2;España;Valladolid;Castromonte;;W5.06;N41.76;12;
2;España;Valladolid;Castronuevo de Esgueva;;W4.59;N41.67;12;
2;España;Valladolid;Castronuño;;W5.25;N41.41;12;
2;España;Valladolid;Castroponce;;W5.17;N42.12;12;
2;España;Valladolid;Castroverde de Cerrato;;W4.24;N41.75;12;
2;España;Valladolid;Ceinos de Campos;;W5.15;N42.03;12;
2;España;Valladolid;Cervillego de la Cruz;;W4.97;N41.18;12;
2;España;Valladolid;Cigales;;W4.72;N41.78;12;
2;España;Valladolid;Ciguñuela;;W4.86;N41.64;12;
2;España;Valladolid;Cistérniga;;W4.65;N41.59;12;
2;España;Valladolid;Cogeces de Íscar;;W4.54;N41.41;12;
2;España;Valladolid;Cogeces del Monte;;W4.33;N41.54;12;
2;España;Valladolid;Corcos;;W4.66;N41.79;12;
2;España;Valladolid;Corrales de Duero;;W4.06;N41.68;12;
2;España;Valladolid;Cubillas de Santa Marta;;W4.60;N41.82;12;
2;España;Valladolid;Cuenca de Campos;;W5.05;N42.04;12;
2;España;Valladolid;Curiel de Duero;;W4.09;N41.65;12;
2;España;Valladolid;Encinas de Esgueva;;W4.08;N41.76;12;
2;España;Valladolid;Esguevillas de Esgueva;;W4.38;N41.75;12;
2;España;Valladolid;Fombellida;;W4.19;N41.75;12;
2;España;Valladolid;Fompedraza;;W4.14;N41.52;12;
2;España;Valladolid;Fontihoyuelo;;W5.05;N42.17;12;
2;España;Valladolid;Fresno el Viejo;;W5.16;N41.18;12;
2;España;Valladolid;Fuensaldaña;;W4.75;N41.71;12;
2;España;Valladolid;Fuente el Sol;;W4.93;N41.17;12;
2;España;Valladolid;Fuente-Olmedo;;W4.64;N41.25;12;
2;España;Valladolid;Gallegos de Hornija;;W5.09;N41.61;12;
2;España;Valladolid;Gatón de Campos;;W4.98;N42.04;12;
2;España;Valladolid;Geria;;W4.89;N41.58;12;
2;España;Valladolid;Herrín de Campos;;W4.96;N42.13;12;
2;España;Valladolid;Hornillos de Eresma;;W4.72;N41.36;12;
2;España;Valladolid;Íscar;;W4.52;N41.34;12;
2;España;Valladolid;Laguna de Duero;;W4.72;N41.57;12;
2;España;Valladolid;Langayo;;W4.25;N41.56;12;
2;España;Valladolid;Llano de Olmedo;;W4.60;N41.28;12;
2;España;Valladolid;Lomoviejo;;W4.89;N41.16;12;
2;España;Valladolid;Manzanillo;;W4.21;N41.59;12;
2;España;Valladolid;Marzales;;W5.14;N41.58;12;
2;España;Valladolid;Matapozuelos;;W4.77;N41.41;12;
2;España;Valladolid;Matilla de los Caños;;W4.95;N41.55;12;
2;España;Valladolid;Mayorga;;W5.30;N42.16;12;
2;España;Valladolid;Medina de Rioseco;;W5.00;N41.86;12;
2;España;Valladolid;Medina del Campo;;W4.91;N41.31;10;
2;España;Valladolid;Megeces;;W4.59;N41.41;12;
2;España;Valladolid;Melgar de Abajo;;W5.15;N42.25;12;
2;España;Valladolid;Melgar de Arriba;;W5.10;N42.27;12;
2;España;Valladolid;Mojados;;W4.67;N41.43;12;
2;España;Valladolid;Monasterio de Vega;;W5.21;N42.25;12;
2;España;Valladolid;Montealegre de Campos;;W4.91;N41.89;12;
2;España;Valladolid;Montemayor de Pililla;;W4.44;N41.51;12;
2;España;Valladolid;Moral de la Reina;;W5.08;N41.97;12;
2;España;Valladolid;Moraleja de las Panaderas;;W4.82;N41.28;12;
2;España;Valladolid;Morales de Campos;;W5.17;N41.86;12;
2;España;Valladolid;Mota del Marqués;;W5.18;N41.63;12;
2;España;Valladolid;Mucientes;;W4.78;N41.76;12;
2;España;Valladolid;La Mudarra;;W4.94;N41.78;12;
2;España;Valladolid;Muriel;;W4.85;N41.13;12;
2;España;Valladolid;Nava del Rey;;W5.10;N41.38;12;
2;España;Valladolid;Nueva Villa de las Torres;;W5.10;N41.27;12;
2;España;Valladolid;Olivares de Duero;;W4.37;N41.65;12;
2;España;Valladolid;Olmedo;;W4.71;N41.30;12;
2;España;Valladolid;Olmos de Esgueva;;W4.51;N41.69;12;
2;España;Valladolid;Olmos de Peñafiel;;W4.02;N41.57;12;
2;España;Valladolid;Palazuelo de Vedija;;W5.14;N41.93;12;
2;España;Valladolid;La Parrilla;;W4.54;N41.54;12;
2;España;Valladolid;La Pedraja de Portillo;;W4.70;N41.48;12;
2;España;Valladolid;Pedrajas de San Esteban;;W4.59;N41.36;12;
2;España;Valladolid;Pedrosa del Rey;;W5.21;N41.53;12;
2;España;Valladolid;Peñafiel;;W4.13;N41.60;12;
2;España;Valladolid;Peñaflor de Hornija;;W4.97;N41.73;12;
2;España;Valladolid;Pesquera de Duero;;W4.21;N41.66;12;
2;España;Valladolid;Piña de Esgueva;;W4.43;N41.73;12;
2;España;Valladolid;Piñel de Abajo;;W4.17;N41.70;12;
2;España;Valladolid;Piñel de Arriba;;W4.15;N41.71;12;
2;España;Valladolid;Pollos;;W5.13;N41.44;12;
2;España;Valladolid;Portillo;;W4.57;N41.48;12;
2;España;Valladolid;Pozal de Gallinas;;W4.83;N41.33;12;
2;España;Valladolid;Pozaldez;;W4.83;N41.37;12;
2;España;Valladolid;Pozuelo de la Orden;;W5.27;N41.81;12;
2;España;Valladolid;Puras;;W4.66;N41.19;12;
2;España;Valladolid;Quintanilla de Arriba;;W4.26;N41.61;12;
2;España;Valladolid;Quintanilla de Onésimo;;W4.35;N41.61;12;
2;España;Valladolid;Quintanilla de Trigueros;;W4.66;N41.87;12;
2;España;Valladolid;Quintanilla del Molar;;W5.46;N41.99;12;
2;España;Valladolid;Rábano;;W4.05;N41.53;12;
2;España;Valladolid;Ramiro;;W4.78;N41.23;12;
2;España;Valladolid;Renedo de Esgueva;;W4.63;N41.65;12;
2;España;Valladolid;Roales de Campos;;W5.49;N42.06;12;
2;España;Valladolid;Robladillo;;W4.90;N41.61;12;
2;España;Valladolid;Roturas;;W4.11;N41.67;12;
2;España;Valladolid;Rubí de Bracamonte;;W4.91;N41.22;12;
2;España;Valladolid;Rueda;;W4.99;N41.41;10;
2;España;Valladolid;Saelices de Mayorga;;W5.21;N42.21;12;
2;España;Valladolid;Salvador de Zapardiel;;W4.86;N41.14;12;
2;España;Valladolid;San Cebrián de Mazote;;W5.15;N41.68;12;
2;España;Valladolid;San Llorente;;W4.07;N41.69;12;
2;España;Valladolid;San Martín de Valvení;;W4.55;N41.76;12;
2;España;Valladolid;San Miguel del Arroyo;;W4.47;N41.44;12;
2;España;Valladolid;San Miguel del Pino;;W4.91;N41.52;12;
2;España;Valladolid;San Pablo de la Moraleja;;W4.77;N41.16;12;
2;España;Valladolid;San Pedro de Latarce;;W5.34;N41.74;12;
2;España;Valladolid;San Pelayo;;W5.03;N41.69;12;
2;España;Valladolid;San Román de Hornija;;W5.29;N41.47;12;
2;España;Valladolid;San Salvador;;W5.08;N41.62;12;
2;España;Valladolid;San Vicente del Palacio;;W4.88;N41.23;12;
2;España;Valladolid;Santa Eufemia del Arroyo;;W5.27;N41.90;12;
2;España;Valladolid;Santervás de Campos;;W5.06;N42.24;12;
2;España;Valladolid;Santibáñez de Valcorba;;W4.42;N41.56;12;
2;España;Valladolid;Santovenia de Pisuerga;;W4.67;N41.70;12;
2;España;Valladolid;Sardón de Duero;;W4.42;N41.61;12;
2;España;Valladolid;La Seca;;W4.92;N41.44;12;
2;España;Valladolid;Serrada;;W4.85;N41.47;12;
2;España;Valladolid;Siete Iglesias de Trabancos;;W5.18;N41.38;12;
2;España;Valladolid;Simancas;;W4.82;N41.59;12;
2;España;Valladolid;Tamariz de Campos;;W5.02;N41.98;12;
2;España;Valladolid;Tiedra;;W5.25;N41.65;12;
2;España;Valladolid;Tordehumos;;W5.16;N41.80;10;
2;España;Valladolid;Tordesillas;;W5.002;N41.504;10;
2;España;Valladolid;Torre de Esgueva;;W4.23;N41.78;12;
2;España;Valladolid;Torre de Peñafiel;;W4.12;N41.54;12;
2;España;Valladolid;Torrecilla de la Abadesa;;W5.14;N41.48;12;
2;España;Valladolid;Torrecilla de la Orden;;W5.27;N41.22;12;
2;España;Valladolid;Torrecilla de la Torre;;W5.05;N41.68;12;
2;España;Valladolid;Torrelobatón;;W5.026;N41.650;10;
2;España;Valladolid;Torrescárcela;;W4.35;N41.48;12;
2;España;Valladolid;Traspinedo;;W4.48;N41.59;12;
2;España;Valladolid;Trigueros del Valle;;W4.66;N41.82;12;
2;España;Valladolid;Tudela de Duero;;W4.60;N41.59;12;
2;España;Valladolid;La Unión de Campos;;W5.34;N42.09;12;
2;España;Valladolid;Urones de Castroponce;;W5.29;N42.11;12;
2;España;Valladolid;Urueña;;W5.18;N41.74;12;
2;España;Valladolid;Valbuena de Duero;;W4.28;N41.67;12;
2;España;Valladolid;Valdearcos de la Vega;;W4.06;N41.64;12;
2;España;Valladolid;Valdenebro de los Valles;;W4.96;N41.84;12;
2;España;Valladolid;Valdestillas;;W4.79;N41.49;12;
2;España;Valladolid;Valdunquillo;;W5.33;N42.04;12;
2;España;Valladolid;Valladolid;;W4.73;N41.65;10;
2;España;Valladolid;Valoria la Buena;;W4.53;N41.81;12;
2;España;Valladolid;Valverde de Campos;;W5.03;N41.83;12;
2;España;Valladolid;Vega de Ruiponce;;W5.12;N42.19;12;
2;España;Valladolid;Vega de Valdetronco;;W5.11;N41.60;12;
2;España;Valladolid;Velascálvaro;;W4.96;N41.24;12;
2;España;Valladolid;Velilla;;W5.00;N41.57;12;
2;España;Valladolid;Velliza;;W4.94;N41.58;12;
2;España;Valladolid;Ventosa de la Cuesta;;W4.83;N41.42;12;
2;España;Valladolid;Viana de Cega;;W4.77;N41.53;12;
2;España;Valladolid;Villabáñez;;W4.52;N41.63;12;
2;España;Valladolid;Villabaruz de Campos;;W5.00;N42.01;12;
2;España;Valladolid;Villabrágima;;W5.11;N41.84;12;
2;España;Valladolid;Villacarralón;;W5.04;N42.19;12;
2;España;Valladolid;Villacid de Campos;;W5.12;N42.08;12;
2;España;Valladolid;Villaco;;W4.27;N41.73;12;
2;España;Valladolid;Villafrades de Campos;;W4.96;N42.08;12;
2;España;Valladolid;Villafranca de Duero;;W5.32;N41.44;12;
2;España;Valladolid;Villafrechós;;W5.21;N41.90;12;
2;España;Valladolid;Villafuerte;;W4.32;N41.73;12;
2;España;Valladolid;Villagarcía de Campos;;W5.17;N41.77;12;
2;España;Valladolid;Villagómez la Nueva;;W5.15;N42.15;12;
2;España;Valladolid;Villalán de Campos;;W5.21;N42.02;12;
2;España;Valladolid;Villalar de los Comuneros;;W5.15;N41.54;12;
2;España;Valladolid;Villalba de la Loma;;W5.19;N42.18;12;
2;España;Valladolid;Villalba de los Alcores;;W4.86;N41.84;12;
2;España;Valladolid;Villalbarba;;W5.20;N41.61;12;
2;España;Valladolid;Villalón de Campos;;W5.04;N42.12;12;
2;España;Valladolid;Villamuriel de Campos;;W5.20;N41.95;12;
2;España;Valladolid;Villán de Tordesillas;;W4.92;N41.60;12;
2;España;Valladolid;Villanubla;;W4.842;N41.700;10;
2;España;Valladolid;Villanueva de Duero;;W4.85;N41.51;12;
2;España;Valladolid;Villanueva de la Condesa;;W5.10;N42.15;12;
2;España;Valladolid;Villanueva de los Caballeros;;W5.28;N41.77;12;
2;España;Valladolid;Villanueva de los Infantes;;W3.03;N38.71;12;
2;España;Valladolid;Villanueva de San Mancio;;W5.01;N41.93;12;
2;España;Valladolid;Villardefrades;;W5.26;N41.72;12;
2;España;Valladolid;Villarmentero de Esgueva;;W4.55;N41.69;12;
2;España;Valladolid;Villasexmir;;W5.06;N41.63;12;
2;España;Valladolid;Villavaquerín;;W4.44;N41.66;12;
2;España;Valladolid;Villavellid;;W5.27;N41.70;12;
2;España;Valladolid;Villaverde de Medina;;W5.02;N41.32;12;
2;España;Valladolid;Villavicencio de los Caballeros;;W5.23;N42.05;12;
2;España;Valladolid;Viloria;;W4.38;N41.45;12;
2;España;Valladolid;Wamba;;W4.91;N41.68;12;
2;España;Valladolid;Zaratán;;W4.79;N41.66;12;
2;España;Valladolid;La Zarza;;W6.27;N38.80;12;
