Level;Country;State;County;Place;Longitude;Latitude;ZoomLevel;Icon
2;ESP;Lleida;Abella de la Conca;;E1.12;N42.17;12;
2;ESP;Lleida;Àger;;E0.76;N42.01;12;
2;ESP;Lleida;Agramunt;;E1.07;N41.80;12;
2;ESP;Lleida;Aitona;;E0.48;N41.48;12;
2;ESP;Lleida;Els Alamús;;E0.76;N41.61;12;
2;ESP;Lleida;Alàs i Cerc;;E1.52;N42.34;12;
2;ESP;Lleida;L'Albagés;;E0.76;N41.45;12;
2;ESP;Lleida;Albatàrrec;;E0.61;N41.57;12;
2;ESP;Lleida;Albesa;;E0.67;N41.76;12;
2;ESP;Lleida;L'Albi;;E0.92;N41.43;12;
2;ESP;Lleida;Alcanó;;E0.63;N41.48;12;
2;ESP;Lleida;Alcarràs;;E0.47;N41.60;12;
2;ESP;Lleida;Alcoletge;;E0.70;N41.65;12;
2;ESP;Lleida;Alfarràs;;E0.57;N41.83;12;
2;ESP;Lleida;Alfés;;E0.63;N41.51;12;
2;ESP;Lleida;Algerri;;E0.63;N41.83;12;
2;ESP;Lleida;Alguaire;;E0.58;N41.74;12;
2;ESP;Lleida;Alins;;E1.36;N42.58;12;
2;ESP;Lleida;Almacelles;;E0.46;N41.73;12;
2;ESP;Lleida;Almatret;;E0.40;N41.34;12;
2;ESP;Lleida;Almenar;;E0.55;N41.78;12;
2;ESP;Lleida;Alòs de Balaguer;;E0.95;N41.92;12;
2;ESP;Lleida;Alpicat;;E0.57;N41.67;12;
2;ESP;Lleida;Alt Àneu;;E1.07;N42.68;12;
2;ESP;Lleida;Anglesola;;E1.06;N41.67;12;
2;ESP;Lleida;Arbeca;;E0.94;N41.54;12;
2;ESP;Lleida;Arres;;E0.70;N42.76;12;
2;ESP;Lleida;Arsèguel;;E1.58;N42.35;12;
2;ESP;Lleida;Artesa de Lleida;;E0.70;N41.55;12;
2;ESP;Lleida;Artesa de Segre;;E1.08;N41.95;12;
2;ESP;Lleida;Aspa;;E0.68;N41.49;12;
2;ESP;Lleida;Les Avellanes i Santa Linya;;E0.80;N41.92;12;
2;ESP;Lleida;Baix Pallars;;E1.07;N42.33;12;
2;ESP;Lleida;Balaguer;;E0.82;N41.79;12;
2;ESP;Lleida;Barbens;;E1.04;N41.68;12;
2;ESP;Lleida;La Baronia de Rialb;;E1.18;N42.03;12;
2;ESP;Lleida;Bassella;;E1.31;N42.01;12;
2;ESP;Lleida;Bausen;;E0.70;N42.84;12;
2;ESP;Lleida;Belianes;;E1.00;N41.57;12;
2;ESP;Lleida;Bellaguarda;;E0.73;N41.33;12;
2;ESP;Lleida;Bellcaire d'Urgell;;E0.89;N41.77;12;
2;ESP;Lleida;Bell-lloc d'Urgell;;E0.78;N41.63;12;
2;ESP;Lleida;Bellmunt d'Urgell;;E0.95;N41.76;12;
2;ESP;Lleida;Bellpuig;;E1.01;N41.63;12;
2;ESP;Lleida;Bellver de Cerdanya;;E1.76;N42.38;12;
2;ESP;Lleida;Bellvís;;E0.83;N41.69;12;
2;ESP;Lleida;Benavent de Segrià;;E0.64;N41.70;12;
2;ESP;Lleida;Biosca;;E1.37;N41.88;12;
2;ESP;Lleida;Es Bòrdes;;E0.71;N42.72;12;
2;ESP;Lleida;Les Borges Blanques;;E0.85;N41.51;12;
2;ESP;Lleida;Bossòst;;E0.68;N42.78;12;
2;ESP;Lleida;Bovera;;E0.64;N41.32;12;
2;ESP;Lleida;Cabanabona;;E1.22;N41.85;12;
2;ESP;Lleida;Cabó;;E1.24;N42.24;12;
2;ESP;Lleida;Camarasa;;E0.86;N41.95;12;
2;ESP;Lleida;Canejan;;E0.79;N42.82;12;
2;ESP;Lleida;Castell de Mur;;E0.85;N42.10;12;
2;ESP;Lleida;Castellar de la Ribera;;E1.40;N42.02;12;
2;ESP;Lleida;Castelldans;;E0.77;N41.49;12;
2;ESP;Lleida;Castellnou de Seana;;E0.98;N41.65;12;
2;ESP;Lleida;Castelló de Farfanya;;E0.72;N41.81;12;
2;ESP;Lleida;Castellserà;;E0.98;N41.76;12;
2;ESP;Lleida;Cava;;E1.61;N42.32;12;
2;ESP;Lleida;Cervera;;E1.27;N41.67;12;
2;ESP;Lleida;Cervià de les Garrigues;;E0.84;N41.43;12;
2;ESP;Lleida;Ciutadilla;;E1.15;N41.54;12;
2;ESP;Lleida;Clariana de Cardener;;E1.60;N41.94;12;
2;ESP;Lleida;El Cogul;;E0.70;N41.45;12;
2;ESP;Lleida;Coll de Nargó;;E1.32;N42.17;12;
2;ESP;Lleida;La Coma i la Pedra;;E1.59;N42.17;12;
2;ESP;Lleida;Conca de Dalt;;E1.00;N42.25;12;
2;ESP;Lleida;Corbins;;E0.67;N41.69;12;
2;ESP;Lleida;Cubells;;E0.95;N41.83;12;
2;ESP;Lleida;L'Espluga Calba;;E1.01;N41.50;12;
2;ESP;Lleida;Espot;;E1.04;N42.57;12;
2;ESP;Lleida;Estamariu;;E1.53;N42.38;12;
2;ESP;Lleida;Estaràs;;E1.38;N41.70;12;
2;ESP;Lleida;Esterri d'Àneu;;E1.12;N42.62;12;
2;ESP;Lleida;Esterri de Cardós;;E1.27;N42.59;12;
2;ESP;Lleida;Farrera;;E1.31;N42.48;12;
2;ESP;Lleida;Fígols i Alinyà;;E1.39;N42.21;12;
2;ESP;Lleida;La Floresta;;E0.93;N41.50;12;
2;ESP;Lleida;Fondarella;;E0.87;N41.63;12;
2;ESP;Lleida;Foradada;;E1.02;N41.87;12;
2;ESP;Lleida;La Fuliola;;E1.00;N41.72;12;
2;ESP;Lleida;Fulleda;;E1.04;N41.46;12;
2;ESP;Lleida;Gavet de la Conca;;E0.97;N42.08;12;
2;ESP;Lleida;Gimenells i el Pla de la Font;;E0.39;N41.66;12;
2;ESP;Lleida;Golmés;;E0.92;N41.62;12;
2;ESP;Lleida;Gósol;;E1.68;N42.20;12;
2;ESP;Lleida;La Granadella;;E0.66;N41.35;12;
2;ESP;Lleida;La Granja d'Escarp;;E0.38;N41.41;12;
2;ESP;Lleida;Granyanella;;E1.21;N41.66;12;
2;ESP;Lleida;Granyena de les Garrigues;;E0.65;N41.44;12;
2;ESP;Lleida;Granyena de Segarra;;E1.22;N41.62;12;
2;ESP;Lleida;Guimerà;;E1.18;N41.56;12;
2;ESP;Lleida;La Guingueta d'Àneu;;E1.15;N42.61;12;
2;ESP;Lleida;Guissona;;E1.29;N41.79;12;
2;ESP;Lleida;Guixers;;E1.64;N42.14;12;
2;ESP;Lleida;Isona i Conca Dellà;;E1.04;N42.13;12;
2;ESP;Lleida;Ivars de Noguera;;E0.61;N41.87;12;
2;ESP;Lleida;Ivars d'Urgell;;E0.96;N41.69;12;
2;ESP;Lleida;Ivorra;;E1.39;N41.78;12;
2;ESP;Lleida;Josa i Tuixén;;E1.61;N42.25;12;
2;ESP;Lleida;Juncosa;;E0.80;N41.38;12;
2;ESP;Lleida;Juneda;;E0.83;N41.54;12;
2;ESP;Lleida;Les;;E0.72;N42.81;12;
2;ESP;Lleida;Linyola;;E0.89;N41.71;12;
2;ESP;Lleida;Lladorre;;E1.28;N42.68;12;
2;ESP;Lleida;Lladurs;;E1.47;N42.07;12;
2;ESP;Lleida;Llardecans;;E0.54;N41.39;12;
2;ESP;Lleida;Llavorsí;;E1.19;N42.49;12;
2;ESP;Lleida;Lleida;;E0.60;N41.63;12;
2;ESP;Lleida;Lles de Cerdanya;;E1.67;N42.44;12;
2;ESP;Lleida;Llimiana;;E0.94;N42.07;12;
2;ESP;Lleida;Llobera;;E1.45;N41.93;12;
2;ESP;Lleida;Maials;;E0.50;N41.33;12;
2;ESP;Lleida;Maldà;;E1.03;N41.54;12;
2;ESP;Lleida;Massalcoreig;;E0.36;N41.45;12;
2;ESP;Lleida;Massoteres;;E1.33;N41.80;12;
2;ESP;Lleida;Menàrguens;;E0.74;N41.74;12;
2;ESP;Lleida;Miralcamp;;E0.89;N41.60;12;
2;ESP;Lleida;Mollerussa;;E0.89;N41.62;12;
2;ESP;Lleida;La Molsosa;;E1.52;N41.78;12;
2;ESP;Lleida;Montellà i Martinet;;E1.70;N42.33;12;
2;ESP;Lleida;Montferrer i Castellbò;;E1.33;N42.40;12;
2;ESP;Lleida;Montgai;;E0.97;N41.80;12;
2;ESP;Lleida;Montoliu de Lleida;;E0.60;N41.56;12;
2;ESP;Lleida;Montoliu de Segarra;;E1.28;N41.59;12;
2;ESP;Lleida;Montornès de Segarra;;E1.21;N41.61;12;
2;ESP;Lleida;Nalec;;E1.12;N41.55;12;
2;ESP;Lleida;Naut Aran;;E0.91;N42.69;12;
2;ESP;Lleida;Navès;;E1.63;N41.99;12;
2;ESP;Lleida;Odèn;;E1.44;N42.12;12;
2;ESP;Lleida;Oliana;;E1.32;N42.10;12;
2;ESP;Lleida;Oliola;;E1.18;N41.86;12;
2;ESP;Lleida;Olius;;E1.51;N41.99;12;
2;ESP;Lleida;Les Oluges;;E1.34;N41.69;12;
2;ESP;Lleida;Els Omellons;;E0.97;N41.50;12;
2;ESP;Lleida;Els Omells de na Gaia;;E1.07;N41.49;12;
2;ESP;Lleida;Organyà;;E1.32;N42.21;12;
2;ESP;Lleida;Os de Balaguer;;E0.70;N41.89;12;
2;ESP;Lleida;Ossó de Sió;;E1.15;N41.75;12;
2;ESP;Lleida;El Palau d'Anglesola;;E0.87;N41.65;12;
2;ESP;Lleida;Penelles;;E0.95;N41.74;12;
2;ESP;Lleida;Peramola;;E1.27;N42.08;12;
2;ESP;Lleida;Pinell de Solsonès;;E1.37;N41.95;12;
2;ESP;Lleida;Pinós;;E1.57;N41.86;12;
2;ESP;Lleida;Els Plans de Sió;;E1.20;N41.73;12;
2;ESP;Lleida;El Poal;;E0.88;N41.68;12;
2;ESP;Lleida;La Pobla de Cérvoles;;E0.88;N41.39;12;
2;ESP;Lleida;La Pobla de Segur;;E0.99;N42.27;12;
2;ESP;Lleida;El Pont de Bar;;E1.62;N42.37;12;
2;ESP;Lleida;El Pont de Suert;;E0.74;N42.41;12;
2;ESP;Lleida;Ponts;;E1.18;N41.92;12;
2;ESP;Lleida;La Portella;;E0.64;N41.74;12;
2;ESP;Lleida;Prats i Sansor;;E1.83;N42.37;12;
2;ESP;Lleida;Preixana;;E1.05;N41.60;12;
2;ESP;Lleida;Preixens;;E1.03;N41.81;12;
2;ESP;Lleida;Prullans;;E1.72;N42.38;12;
2;ESP;Lleida;Puiggròs;;E0.88;N41.56;12;
2;ESP;Lleida;Puigverd d'Agramunt;;E1.11;N41.75;12;
2;ESP;Lleida;Puigverd de Lleida;;E0.74;N41.54;12;
2;ESP;Lleida;Rialp;;E1.13;N42.47;12;
2;ESP;Lleida;Ribera d'Ondara;;E1.32;N41.63;12;
2;ESP;Lleida;Ribera d'Urgellet;;E1.38;N42.28;12;
2;ESP;Lleida;Riner;;E1.56;N41.93;12;
2;ESP;Lleida;Riu de Cerdanya;;E1.83;N42.33;12;
2;ESP;Lleida;Rosselló;;E0.60;N41.69;12;
2;ESP;Lleida;Salàs de Pallars;;E0.91;N42.23;12;
2;ESP;Lleida;Sanaüja;;E1.31;N41.87;12;
2;ESP;Lleida;Sant Esteve de la Sarga;;E0.77;N42.09;12;
2;ESP;Lleida;Sant Guim de Freixenet;;E1.41;N41.66;12;
2;ESP;Lleida;Sant Guim de la Plana;;E1.34;N41.77;12;
2;ESP;Lleida;Sant Llorenç de Morunys;;E1.59;N42.13;12;
2;ESP;Lleida;Sant Martí de Riucorb;;E1.06;N41.56;12;
2;ESP;Lleida;Sant Ramon;;E1.36;N41.73;12;
2;ESP;Lleida;Sarroca de Bellera;;E0.90;N42.41;12;
2;ESP;Lleida;Sarroca de Lleida;;E0.55;N41.47;12;
2;ESP;Lleida;Senterada;;E0.92;N42.34;12;
2;ESP;Lleida;La Sentiu de Sió;;E0.87;N41.80;12;
2;ESP;Lleida;Seròs;;E0.41;N41.40;12;
2;ESP;Lleida;La Seu d'Urgell;;E1.48;N42.36;12;
2;ESP;Lleida;Sidamon;;E0.83;N41.63;12;
2;ESP;Lleida;El Soleràs;;E0.70;N41.42;12;
2;ESP;Lleida;Solsona;;E1.51;N41.99;12;
2;ESP;Lleida;Soriguera;;E1.13;N42.38;12;
2;ESP;Lleida;Sort;;E1.08;N42.45;12;
2;ESP;Lleida;Soses;;E0.46;N41.54;12;
2;ESP;Lleida;Sudanell;;E0.57;N41.56;12;
2;ESP;Lleida;Sunyer;;E0.59;N41.52;12;
2;ESP;Lleida;Talarn;;E0.90;N42.19;12;
2;ESP;Lleida;Talavera;;E1.35;N41.59;12;
2;ESP;Lleida;Tàrrega;;E1.14;N41.65;12;
2;ESP;Lleida;Tarrés;;E1.02;N41.43;12;
2;ESP;Lleida;Tarroja de Segarra;;E1.28;N41.72;12;
2;ESP;Lleida;Térmens;;E0.78;N41.72;12;
2;ESP;Lleida;Tírvia;;E1.23;N42.52;12;
2;ESP;Lleida;Tiurana;;E1.24;N41.96;12;
2;ESP;Lleida;Torà;;E1.44;N41.83;12;
2;ESP;Lleida;Els Torms;;E0.72;N41.40;12;
2;ESP;Lleida;Tornabous;;E1.06;N41.72;12;
2;ESP;Lleida;La Torre de Cabdella;;E0.97;N42.45;12;
2;ESP;Lleida;Torrebesses;;E0.60;N41.42;12;
2;ESP;Lleida;Torrefarrera;;E0.58;N41.69;12;
2;ESP;Lleida;Torrefeta i Florejacs;;E1.27;N41.81;12;
2;ESP;Lleida;Torregrossa;;E0.82;N41.59;12;
2;ESP;Lleida;Torrelameu;;E0.71;N41.71;12;
2;ESP;Lleida;Torres de Segre;;E0.52;N41.53;12;
2;ESP;Lleida;Torre-serona;;E0.64;N41.68;12;
2;ESP;Lleida;Tremp;;E0.89;N42.17;12;
2;ESP;Lleida;La Vall de Boí;;E0.80;N42.50;12;
2;ESP;Lleida;Vall de Cardós;;E1.22;N42.59;12;
2;ESP;Lleida;Vallbona de les Monges;;E1.09;N41.53;12;
2;ESP;Lleida;Vallfogona de Balaguer;;E0.83;N41.75;12;
2;ESP;Lleida;Les Valls d'Aguilar;;E1.26;N42.30;12;
2;ESP;Lleida;Les Valls de Valira;;E1.46;N42.45;12;
2;ESP;Lleida;La Vansa i Fórnols;;E1.49;N42.24;12;
2;ESP;Lleida;Verdú;;E1.14;N41.61;12;
2;ESP;Lleida;Vielha e Mijaran;;E0.77;N42.68;12;
2;ESP;Lleida;Vilagrassa;;E1.08;N41.64;12;
2;ESP;Lleida;Vilaller;;E0.72;N42.48;12;
2;ESP;Lleida;Vilamòs;;E0.72;N42.75;12;
2;ESP;Lleida;Vilanova de Bellpuig;;E0.96;N41.60;12;
2;ESP;Lleida;Vilanova de la Barca;;E0.73;N41.69;12;
2;ESP;Lleida;Vilanova de l'Aguda;;E1.25;N41.88;12;
2;ESP;Lleida;Vilanova de Meià;;E1.00;N41.99;12;
2;ESP;Lleida;Vilanova de Segrià;;E0.62;N41.71;12;
2;ESP;Lleida;Vila-sana;;E0.91;N41.67;12;
2;ESP;Lleida;El Vilosell;;E0.95;N41.39;12;
2;ESP;Lleida;Vinaixa;;E0.98;N41.44;12;
