Level;Country;State;County;Place;Longitude;Latitude;ZoomLevel;Icon
2;España;Burgos;Abajas;;W3.58;N42.62;12;
2;España;Burgos;Adrada de Haza;;W3.82;N41.60;12;
2;España;Burgos;Aguas Cándidas;;W3.50;N42.73;12;
2;España;Burgos;Aguilar de Bureba;;W3.33;N42.59;12;
2;España;Burgos;Albillos;;W3.79;N42.28;12;
2;España;Burgos;Alcocero de Mola;;W3.36;N42.47;12;
2;España;Burgos;Alfoz de Bricia;;W3.88;N42.90;12;
2;España;Burgos;Alfoz de Quintanadueñas;;W3.75;N42.41;12;
2;España;Burgos;Alfoz de Santa Gadea;;W3.94;N42.94;12;
2;España;Burgos;Altable;;W3.08;N42.60;12;
2;España;Burgos;Los Altos;;W3.66;N42.81;12;
2;España;Burgos;Ameyugo;;W3.063;N42.659;10;
2;España;Burgos;Anguix;;W3.92;N41.75;12;
2;España;Burgos;Aranda de Duero;;W3.68;N41.69;12;
2;España;Burgos;Arandilla;;W3.42;N41.73;12;
2;España;Burgos;Arauzo de Miel;;W3.37;N41.87;12;
2;España;Burgos;Arauzo de Salce;;W3.40;N41.82;12;
2;España;Burgos;Arauzo de Torre;;W3.42;N41.80;12;
2;España;Burgos;Arcos;;W3.76;N42.25;12;
2;España;Burgos;Arenillas de Riopisuerga;;W4.22;N42.35;12;
2;España;Burgos;Arija;;W3.95;N42.98;12;
2;España;Burgos;Arlanzón;;W3.41;N42.35;12;
2;España;Burgos;Arraya de Oca;;W3.39;N42.40;12;
2;España;Burgos;Atapuerca;;W3.507;N42.379;10;
2;España;Burgos;Los Ausines;;W3.58;N42.22;12;
2;España;Burgos;Avellanosa de Muñó;;W3.86;N41.99;12;
2;España;Burgos;Bahabón de Esgueva;;W3.72;N41.87;12;
2;España;Burgos;Los Balbases;;W4.06;N42.21;12;
2;España;Burgos;Baños de Valdearados;;W3.55;N41.77;12;
2;España;Burgos;Bañuelos de Bureba;;W3.27;N42.50;12;
2;España;Burgos;Barbadillo de Herreros;;W3.16;N42.19;12;
2;España;Burgos;Barbadillo del Mercado;;W3.37;N42.05;12;
2;España;Burgos;Barbadillo del Pez;;W3.23;N42.13;12;
2;España;Burgos;Barrio de Muñó;;W4.00;N42.18;12;
2;España;Burgos;Los Barrios de Bureba;;W3.37;N42.65;12;
2;España;Burgos;Barrios de Colina;;W3.43;N42.38;12;
2;España;Burgos;Basconcillos del Tozo;;W3.94;N42.69;12;
2;España;Burgos;Bascuñana;;W3.10;N42.41;12;
2;España;Burgos;Belbimbre;;W4.01;N42.16;12;
2;España;Burgos;Belorado;;W3.17;N42.40;12;
2;España;Burgos;Berberana;;W3.05;N42.92;12;
2;España;Burgos;Berlangas de Roa;;W3.86;N41.69;12;
2;España;Burgos;Berzosa de Bureba;;W3.27;N42.63;12;
2;España;Burgos;Bozoó;;W3.09;N42.75;12;
2;España;Burgos;Brazacorta;;W3.40;N41.69;12;
2;España;Burgos;Briviesca;;W3.32;N42.53;12;
2;España;Burgos;Bugedo;;W3.02;N42.66;12;
2;España;Burgos;Buniel;;W3.81;N42.31;12;
2;España;Burgos;Burgos;;W3.68;N42.35;10;
2;España;Burgos;Busto de Bureba;;W3.25;N42.66;12;
2;España;Burgos;Cabañes de Esgueva;;W3.79;N41.84;12;
2;España;Burgos;Cabezón de la Sierra;;W3.25;N41.93;12;
2;España;Burgos;Caleruega;;W3.48;N41.81;12;
2;España;Burgos;Campillo de Aranda;;W3.73;N41.61;12;
2;España;Burgos;Campolara;;W3.42;N42.12;12;
2;España;Burgos;Canicosa de la Sierra;;W3.03;N41.93;12;
2;España;Burgos;Cantabrana;;W3.47;N42.74;12;
2;España;Burgos;Carazo;;W3.35;N41.97;12;
2;España;Burgos;Carcedo de Bureba;;W3.50;N42.58;12;
2;España;Burgos;Carcedo de Burgos;;W3.62;N42.28;12;
2;España;Burgos;Cardeñadijo;;W3.66;N42.30;12;
2;España;Burgos;Cardeñajimeno;;W3.61;N42.33;12;
2;España;Burgos;Cardeñuela Riopico;;W3.55;N42.37;12;
2;España;Burgos;Carrias;;W3.30;N42.48;12;
2;España;Burgos;Cascajares de Bureba;;W3.23;N42.68;12;
2;España;Burgos;Cascajares de la Sierra;;W3.39;N42.07;12;
2;España;Burgos;Castellanos de Castro;;W4.03;N42.33;12;
2;España;Burgos;Castil de Peones;;W3.38;N42.47;12;
2;España;Burgos;Castildelgado;;W3.09;N42.44;12;
2;España;Burgos;Castrillo de la Reina;;W3.23;N41.98;12;
2;España;Burgos;Castrillo de la Vega;;W3.77;N41.65;12;
2;España;Burgos;Castrillo de Riopisuerga;;W4.27;N42.54;12;
2;España;Burgos;Castrillo del Val;;W3.58;N42.32;12;
2;España;Burgos;Castrillo Matajudíos;;W4.18;N42.30;12;
2;España;Burgos;Castrojeriz;;W4.15;N42.26;12;
2;España;Burgos;Cavia;;W3.84;N42.28;12;
2;España;Burgos;Cayuela;;W3.80;N42.27;12;
2;España;Burgos;Cebrecos;;W3.59;N42.01;12;
2;España;Burgos;Celada del Camino;;W3.94;N42.27;12;
2;España;Burgos;Cerezo de Río Tirón;;W3.14;N42.50;12;
2;España;Burgos;Cerratón de Juarros;;W3.37;N42.42;12;
2;España;Burgos;Ciadoncha;;W3.93;N42.17;12;
2;España;Burgos;Cillaperlata;;W3.38;N42.78;12;
2;España;Burgos;Cilleruelo de Abajo;;W3.79;N41.89;12;
2;España;Burgos;Cilleruelo de Arriba;;W3.65;N41.91;12;
2;España;Burgos;Ciruelos de Cervera;;W3.53;N41.92;12;
2;España;Burgos;Cogollos;;W3.70;N42.20;12;
2;España;Burgos;Condado de Treviño;;W2.70;N42.70;12;
2;España;Burgos;Contreras;;W3.43;N42.03;12;
2;España;Burgos;Coruña del Conde;;W3.40;N41.76;12;
2;España;Burgos;Covarrubias;;W3.55;N42.04;12;
2;España;Burgos;Cubillo del Campo;;W3.60;N42.16;12;
2;España;Burgos;Cubo de Bureba;;W3.21;N42.64;12;
2;España;Burgos;La Cueva de Roa;;W3.94;N41.66;12;
2;España;Burgos;Cuevas de San Clemente;;W3.58;N42.13;12;
2;España;Burgos;Encío;;W3.10;N42.68;12;
2;España;Burgos;Espinosa de Cervera;;W3.47;N41.90;12;
2;España;Burgos;Espinosa de los Monteros;;W3.60;N43.12;12;
2;España;Burgos;Espinosa del Camino;;W3.28;N42.40;12;
2;España;Burgos;Estépar;;W3.88;N42.27;12;
2;España;Burgos;Fontioso;;W3.75;N41.92;12;
2;España;Burgos;Frandovínez;;W3.84;N42.31;12;
2;España;Burgos;Fresneda de la Sierra Tirón;;W3.13;N42.28;12;
2;España;Burgos;Fresneña;;W3.13;N42.41;12;
2;España;Burgos;Fresnillo de las Dueñas;;W3.63;N41.64;12;
2;España;Burgos;Fresno de Río Tirón;;W3.19;N42.46;12;
2;España;Burgos;Fresno de Rodilla;;W3.48;N42.42;12;
2;España;Burgos;Frías;;W3.28;N42.75;12;
2;España;Burgos;Fuentebureba;;W3.23;N42.63;12;
2;España;Burgos;Fuentecén;;W3.87;N41.63;12;
2;España;Burgos;Fuentelcésped;;W3.64;N41.60;12;
2;España;Burgos;Fuentelisendo;;W3.90;N41.62;12;
2;España;Burgos;Fuentemolinos;;W3.85;N41.61;12;
2;España;Burgos;Fuentenebro;;W3.75;N41.51;12;
2;España;Burgos;Fuentespina;;W3.68;N41.63;12;
2;España;Burgos;Galbarros;;W3.45;N42.52;12;
2;España;Burgos;La Gallega;;W3.26;N41.89;12;
2;España;Burgos;Grijalba;;W4.13;N42.43;12;
2;España;Burgos;Grisaleña;;W3.26;N42.60;12;
2;España;Burgos;Gumiel de Izán;;W3.68;N41.77;12;
2;España;Burgos;Gumiel de Mercado;;W3.80;N41.74;12;
2;España;Burgos;Hacinas;;W3.29;N41.98;12;
2;España;Burgos;Haza;;W3.84;N41.58;12;
2;España;Burgos;Hontanas;;W4.04;N42.31;12;
2;España;Burgos;Hontangas;;W3.79;N41.59;12;
2;España;Burgos;Hontoria de la Cantera;;W3.63;N42.19;12;
2;España;Burgos;Hontoria de Valdearados;;W3.50;N41.76;12;
2;España;Burgos;Hontoria del Pinar;;W3.14;N41.87;12;
2;España;Burgos;Las Hormazas;;W3.89;N42.53;12;
2;España;Burgos;Hornillos del Camino;;W3.93;N42.34;12;
2;España;Burgos;La Horra;;W3.88;N41.75;12;
2;España;Burgos;Hortigüela;;W3.45;N42.06;12;
2;España;Burgos;Hoyales de Roa;;W3.84;N41.66;12;
2;España;Burgos;Huérmeces;;W3.79;N42.55;12;
2;España;Burgos;Huerta de Arriba;;W3.09;N42.10;12;
2;España;Burgos;Huerta de Rey;;W3.33;N41.83;12;
2;España;Burgos;Humada;;W4.08;N42.66;12;
2;España;Burgos;Hurones;;W3.61;N42.41;12;
2;España;Burgos;Ibeas de Juarros;;W3.48;N42.26;12;
2;España;Burgos;Ibrillos;;W3.08;N42.46;12;
2;España;Burgos;Iglesiarrubia;;W3.85;N41.97;12;
2;España;Burgos;Iglesias;;W4.00;N42.31;12;
2;España;Burgos;Isar;;W3.93;N42.40;12;
2;España;Burgos;Itero del Castillo;;W4.24;N42.28;12;
2;España;Burgos;Jaramillo de la Fuente;;W3.32;N42.12;12;
2;España;Burgos;Jaramillo Quemado;;W3.36;N42.10;12;
2;España;Burgos;Junta de Traslaloma;;W3.41;N43.03;12;
2;España;Burgos;Junta de Villalba de Losa;;W3.07;N42.95;12;
2;España;Burgos;Jurisdicción de Lara;;W3.46;N42.14;12;
2;España;Burgos;Jurisdicción de San Zadornil;;W3.16;N42.84;12;
2;España;Burgos;Lerma;;W3.77;N42.00;12;
2;España;Burgos;Llano de Bureba;;W3.44;N42.63;12;
2;España;Burgos;Madrigal del Monte;;W3.66;N42.14;12;
2;España;Burgos;Madrigalejo del Monte;;W3.73;N42.15;12;
2;España;Burgos;Mahamud;;W3.91;N42.13;12;
2;España;Burgos;Mambrilla de Castrejón;;W3.99;N41.67;12;
2;España;Burgos;Mambrillas de Lara;;W3.50;N42.12;12;
2;España;Burgos;Mamolar;;W3.35;N41.91;12;
2;España;Burgos;Manciles;;W3.95;N42.46;12;
2;España;Burgos;Mazuela;;W3.91;N42.21;12;
2;España;Burgos;Mecerreyes;;W3.61;N42.10;12;
2;España;Burgos;Medina de Pomar;;W3.489;N42.934;10;
2;España;Burgos;Melgar de Fernamental;;W4.26;N42.44;12;
2;España;Burgos;Merindad de Cuesta-Urria;;W3.38;N42.86;12;
2;España;Burgos;Merindad de Montija;;W3.48;N43.06;12;
2;España;Burgos;Merindad de Río Ubierna;;W3.68;N42.52;12;
2;España;Burgos;Merindad de Sotoscueva;;W3.65;N43.03;12;
2;España;Burgos;Merindad de Valdeporres;;W3.76;N43.01;12;
2;España;Burgos;Merindad de Valdivielso;;W3.54;N42.82;12;
2;España;Burgos;Milagros;;W3.68;N41.59;12;
2;España;Burgos;Miranda de Ebro;;W2.95;N42.69;10;
2;España;Burgos;Miraveche;;W3.19;N42.68;12;
2;España;Burgos;Modúbar de la Emparedada;;W3.66;N42.27;12;
2;España;Burgos;Monasterio de la Sierra;;W3.18;N42.05;12;
2;España;Burgos;Monasterio de Rodilla;;W3.49;N42.46;12;
2;España;Burgos;Moncalvillo;;W3.19;N41.96;12;
2;España;Burgos;Monterrubio de la Demanda;;W3.11;N42.15;12;
2;España;Burgos;Montorio;;W3.77;N42.59;12;
2;España;Burgos;Moradillo de Roa;;W3.78;N41.55;12;
2;España;Burgos;Nava de Roa;;W3.96;N41.62;12;
2;España;Burgos;Navas de Bureba;;W3.33;N42.69;12;
2;España;Burgos;Nebreda;;W3.62;N41.96;12;
2;España;Burgos;Neila;;W2.98;N42.05;12;
2;España;Burgos;Olmedillo de Roa;;W3.92;N41.78;12;
2;España;Burgos;Olmillos de Muñó;;W3.94;N42.20;12;
2;España;Burgos;Oña;;W3.37;N42.72;12;
2;España;Burgos;Oquillas;;W3.69;N41.84;12;
2;España;Burgos;Orbaneja Riopico;;W3.58;N42.36;12;
2;España;Burgos;Padilla de Abajo;;W4.18;N42.41;12;
2;España;Burgos;Padilla de Arriba;;W4.19;N42.45;12;
2;España;Burgos;Padrones de Bureba;;W3.54;N42.70;12;
2;España;Burgos;Palacios de la Sierra;;W3.12;N41.98;12;
2;España;Burgos;Palacios de Riopisuerga;;W4.26;N42.33;12;
2;España;Burgos;Palazuelos de la Sierra;;W3.45;N42.22;12;
2;España;Burgos;Palazuelos de Muñó;;W3.98;N42.19;12;
2;España;Burgos;Pampliega;;W3.96;N42.23;12;
2;España;Burgos;Pancorbo;;W3.13;N42.67;12;
2;España;Burgos;Pardilla;;W3.71;N41.55;12;
2;España;Burgos;Partido de la Sierra en Tobalina;;W3.24;N42.72;12;
2;España;Burgos;Pedrosa de Duero;;W3.99;N41.74;12;
2;España;Burgos;Pedrosa de Río Úrbel;;W3.84;N42.42;12;
2;España;Burgos;Pedrosa del Páramo;;W3.97;N42.44;12;
2;España;Burgos;Pedrosa del Príncipe;;W4.21;N42.24;12;
2;España;Burgos;Peñaranda de Duero;;W3.45;N41.69;12;
2;España;Burgos;Peral de Arlanza;;W4.05;N42.07;12;
2;España;Burgos;Piérnigas;;W3.40;N42.60;12;
2;España;Burgos;Pineda de la Sierra;;W3.28;N42.23;12;
2;España;Burgos;Pineda Trasmonte;;W3.69;N41.91;12;
2;España;Burgos;Pinilla de los Barruecos;;W3.30;N41.91;12;
2;España;Burgos;Pinilla de los Moros;;W3.31;N42.08;12;
2;España;Burgos;Pinilla Trasmonte;;W3.62;N41.88;12;
2;España;Burgos;Poza de la Sal;;W3.51;N42.66;12;
2;España;Burgos;Prádanos de Bureba;;W3.34;N42.50;12;
2;España;Burgos;Pradoluengo;;W3.20;N42.31;12;
2;España;Burgos;Presencio;;W3.87;N42.19;12;
2;España;Burgos;La Puebla de Arganzón;;W2.82;N42.77;12;
2;España;Burgos;Puentedura;;W3.59;N42.04;12;
2;España;Burgos;Quemada;;W3.58;N41.71;12;
2;España;Burgos;Quintana del Pidio;;W3.75;N41.77;12;
2;España;Burgos;Quintanabureba;;W3.37;N42.59;12;
2;España;Burgos;Quintanaélez;;W3.30;N42.68;12;
2;España;Burgos;Quintanaortuño;;W3.69;N42.45;12;
2;España;Burgos;Quintanapalla;;W3.54;N42.41;12;
2;España;Burgos;Quintanar de la Sierra;;W3.03;N42.00;12;
2;España;Burgos;Quintanavides;;W3.42;N42.48;12;
2;España;Burgos;Quintanilla de la Mata;;W3.78;N42.00;12;
2;España;Burgos;Quintanilla del Agua y Tordueles;;W3.63;N42.03;12;
2;España;Burgos;Quintanilla del Coco;;W3.52;N41.99;12;
2;España;Burgos;Quintanilla San García;;W3.19;N42.54;12;
2;España;Burgos;Quintanilla Vivar;;W3.68;N42.41;10;
2;España;Burgos;Las Quintanillas;;W3.84;N42.37;12;
2;España;Burgos;Rabanera del Pinar;;W3.18;N41.90;12;
2;España;Burgos;Rábanos;;W3.28;N42.31;12;
2;España;Burgos;Rabé de las Calzadas;;W3.85;N42.33;12;
2;España;Burgos;Rebolledo de la Torre;;W4.22;N42.69;12;
2;España;Burgos;Redecilla del Camino;;W3.07;N42.41;12;
2;España;Burgos;Redecilla del Campo;;W3.12;N42.46;12;
2;España;Burgos;Regumiel de la Sierra;;W2.97;N41.96;12;
2;España;Burgos;Reinoso;;W3.39;N42.51;12;
2;España;Burgos;Retuerta;;W3.50;N42.03;12;
2;España;Burgos;Revilla del Campo;;W3.53;N42.20;12;
2;España;Burgos;Revilla Vallejera;;W4.13;N42.15;12;
2;España;Burgos;La Revilla y Ahedo;;W3.35;N42.01;12;
2;España;Burgos;Revillarruz;;W3.66;N42.23;12;
2;España;Burgos;Rezmondo;;W4.23;N42.51;12;
2;España;Burgos;Riocavado de la Sierra;;W3.22;N42.17;12;
2;España;Burgos;Roa;;W3.92;N41.71;10;
2;España;Burgos;Rojas;;W3.44;N42.58;12;
2;España;Burgos;Royuela de Río Franco;;W3.94;N42.00;12;
2;España;Burgos;Rubena;;W3.57;N42.39;12;
2;España;Burgos;Rublacedo de Abajo;;W3.51;N42.54;12;
2;España;Burgos;Rucandio;;W3.53;N42.75;12;
2;España;Burgos;Salas de Bureba;;W3.47;N42.70;12;
2;España;Burgos;Salas de los Infantes;;W3.27;N42.05;12;
2;España;Burgos;Saldaña de Burgos;;W3.69;N42.27;12;
2;España;Burgos;Salinillas de Bureba;;W3.39;N42.56;12;
2;España;Burgos;San Adrián de Juarros;;W3.46;N42.28;12;
2;España;Burgos;San Juan del Monte;;W3.52;N41.68;12;
2;España;Burgos;San Mamés de Burgos;;W3.80;N42.33;12;
2;España;Burgos;San Martín de Rubiales;;W4.00;N41.64;12;
2;España;Burgos;San Millán de Lara;;W3.33;N42.15;12;
2;España;Burgos;San Vicente del Valle;;W3.17;N42.35;12;
2;España;Burgos;Santa Cecilia;;W3.80;N42.06;12;
2;España;Burgos;Santa Cruz de la Salceda;;W3.58;N41.59;12;
2;España;Burgos;Santa Cruz del Valle Urbión;;W3.21;N42.28;12;
2;España;Burgos;Santa Gadea del Cid;;W3.06;N42.71;12;
2;España;Burgos;Santa Inés;;W3.69;N42.06;12;
2;España;Burgos;Santa María del Campo;;W4.00;N42.11;12;
2;España;Burgos;Santa María del Invierno;;W3.44;N42.44;12;
2;España;Burgos;Santa María del Mercadillo;;W3.57;N41.86;12;
2;España;Burgos;Santa María Rivarredonda;;W3.18;N42.63;12;
2;España;Burgos;Santa Olalla de Bureba;;W3.44;N42.48;12;
2;España;Burgos;Santibáñez de Esgueva;;W3.75;N41.83;12;
2;España;Burgos;Santibáñez del Val;;W3.48;N41.98;12;
2;España;Burgos;Santo Domingo de Silos;;W3.43;N41.97;12;
2;España;Burgos;Sargentes de la Lora;;W3.90;N42.73;12;
2;España;Burgos;Sarracín;;W3.70;N42.25;12;
2;España;Burgos;Sasamón;;W4.04;N42.39;12;
2;España;Burgos;La Sequera de Haza;;W3.82;N41.57;12;
2;España;Burgos;Solarana;;W3.66;N41.97;12;
2;España;Burgos;Sordillos;;W4.10;N42.46;12;
2;España;Burgos;Sotillo de la Ribera;;W3.83;N41.80;12;
2;España;Burgos;Sotragero;;W3.71;N42.41;12;
2;España;Burgos;Sotresgudo;;W4.21;N42.60;12;
2;España;Burgos;Susinos del Páramo;;W3.92;N42.47;12;
2;España;Burgos;Tamarón;;W3.99;N42.27;12;
2;España;Burgos;Tardajos;;W3.82;N42.35;12;
2;España;Burgos;Tejada;;W3.55;N41.95;12;
2;España;Burgos;Terradillos de Esgueva;;W3.86;N41.80;12;
2;España;Burgos;Tinieblas de la Sierra;;W3.37;N42.17;12;
2;España;Burgos;Tobar;;W3.94;N42.48;12;
2;España;Burgos;Tordómar;;W3.86;N42.05;12;
2;España;Burgos;Torrecilla del Monte;;W3.68;N42.10;12;
2;España;Burgos;Torregalindo;;W3.75;N41.58;12;
2;España;Burgos;Torrelara;;W3.50;N42.17;12;
2;España;Burgos;Torrepadre;;W4.00;N42.06;12;
2;España;Burgos;Torresandino;;W3.94;N41.86;12;
2;España;Burgos;Tórtoles de Esgueva;;W4.02;N41.83;12;
2;España;Burgos;Tosantos;;W3.24;N42.41;12;
2;España;Burgos;Trespaderne;;W3.38;N42.81;12;
2;España;Burgos;Tubilla del Agua;;W3.82;N42.72;12;
2;España;Burgos;Tubilla del Lago;;W3.59;N41.80;12;
2;España;Burgos;Úrbel del Castillo;;W3.83;N42.61;12;
2;España;Burgos;Vadocondes;;W3.57;N41.63;12;
2;España;Burgos;Valdeande;;W3.52;N41.83;12;
2;España;Burgos;Valdezate;;W3.93;N41.60;12;
2;España;Burgos;Valdorros;;W3.71;N42.18;12;
2;España;Burgos;Vallarta de Bureba;;W3.20;N42.59;12;
2;España;Burgos;Valle de las Navas;;W3.59;N42.47;12;
2;España;Burgos;Valle de Losa;;W3.21;N42.99;12;
2;España;Burgos;Valle de Manzanedo;;W3.71;N42.90;12;
2;España;Burgos;Valle de Mena;;W3.24;N43.11;10;
2;España;Burgos;Valle de Oca;;W3.32;N42.44;12;
2;España;Burgos;Valle de Santibáñez;;W3.82;N42.48;12;
2;España;Burgos;Valle de Sedano;;W3.76;N42.73;12;
2;España;Burgos;Valle de Tobalina;;W3.27;N42.81;12;
2;España;Burgos;Valle de Valdebezana;;W3.81;N42.97;12;
2;España;Burgos;Valle de Valdelaguna;;W3.13;N42.10;12;
2;España;Burgos;Valle de Valdelucio;;W4.09;N42.72;12;
2;España;Burgos;Valle de Zamanzas;;W3.75;N42.86;12;
2;España;Burgos;Vallejera;;W4.15;N42.18;12;
2;España;Burgos;Valles de Palenzuela;;W4.06;N42.12;12;
2;España;Burgos;Valluércanes;;W3.12;N42.58;12;
2;España;Burgos;Valmala;;W3.25;N42.29;12;
2;España;Burgos;La Vid de Bureba;;W3.29;N42.64;12;
2;España;Burgos;La Vid y Barrios;;W3.49;N41.62;12;
2;España;Burgos;Vileña;;W3.32;N42.62;12;
2;España;Burgos;Villadiego;;W4.01;N42.55;12;
2;España;Burgos;Villaescusa de Roa;;W4.03;N41.73;12;
2;España;Burgos;Villaescusa la Sombría;;W3.41;N42.41;12;
2;España;Burgos;Villaespasa;;W3.40;N42.11;12;
2;España;Burgos;Villafranca Montes de Oca;;W3.31;N42.38;12;
2;España;Burgos;Villafruela;;W3.92;N41.92;12;
2;España;Burgos;Villagalijo;;W3.19;N42.35;12;
2;España;Burgos;Villagonzalo Pedernales;;W3.73;N42.30;12;
2;España;Burgos;Villahoz;;W3.90;N42.07;12;
2;España;Burgos;Villalba de Duero;;W3.75;N41.68;12;
2;España;Burgos;Villalbilla de Burgos;;W3.77;N42.33;12;
2;España;Burgos;Villalbilla de Gumiel;;W3.63;N41.82;12;
2;España;Burgos;Villaldemiro;;W3.98;N42.24;12;
2;España;Burgos;Villalmanzo;;W3.73;N42.07;12;
2;España;Burgos;Villamayor de los Montes;;W3.76;N42.11;12;
2;España;Burgos;Villamayor de Treviño;;W4.13;N42.47;12;
2;España;Burgos;Villambistia;;W3.26;N42.41;12;
2;España;Burgos;Villamedianilla;;W4.14;N42.17;12;
2;España;Burgos;Villamiel de la Sierra;;W3.41;N42.20;12;
2;España;Burgos;Villangómez;;W3.77;N42.19;12;
2;España;Burgos;Villanueva de Argaño;;W3.93;N42.38;12;
2;España;Burgos;Villanueva de Carazo;;W3.32;N41.98;12;
2;España;Burgos;Villanueva de Gumiel;;W3.63;N41.74;12;
2;España;Burgos;Villanueva de Teba;;W3.16;N42.65;12;
2;España;Burgos;Villaquirán de la Puebla;;W4.09;N42.29;12;
2;España;Burgos;Villaquirán de los Infantes;;W4.00;N42.23;12;
2;España;Burgos;Villarcayo de Merindad de Castilla la Vieja;;W3.57;N42.94;12;
2;España;Burgos;Villariezo;;W3.72;N42.27;12;
2;España;Burgos;Villasandino;;W4.12;N42.38;12;
2;España;Burgos;Villasur de Herreros;;W3.35;N42.28;12;
2;España;Burgos;Villatuelda;;W3.87;N41.80;12;
2;España;Burgos;Villaverde del Monte;;W3.84;N42.14;12;
2;España;Burgos;Villaverde-Mogina;;W4.05;N42.15;12;
2;España;Burgos;Villayerno Morquillas;;W3.64;N42.40;12;
2;España;Burgos;Villazopeque;;W4.02;N42.19;12;
2;España;Burgos;Villegas;;W4.02;N42.47;12;
2;España;Burgos;Villoruebo;;W3.45;N42.17;12;
2;España;Burgos;Viloria de Rioja;;W3.10;N42.42;12;
2;España;Burgos;Vilviestre del Pinar;;W3.07;N41.94;12;
2;España;Burgos;Vizcaínos;;W3.27;N42.10;12;
2;España;Burgos;Zael;;W3.83;N42.11;12;
2;España;Burgos;Zarzosa de Río Pisuerga;;W4.26;N42.55;12;
2;España;Burgos;Zazuar;;W3.55;N41.68;12;
2;España;Burgos;Zuñeda;;W3.22;N42.60;12;
