Level;Country;State;County;Place;Longitude;Latitude;ZoomLevel;Icon
2;España;Guadalajara;Abánades;;W2.47;N40.89;12;
2;España;Guadalajara;Ablanque;;W2.21;N40.90;12;
2;España;Guadalajara;Adobes;;W1.67;N40.67;12;
2;España;Guadalajara;Alaminos;;W2.72;N40.88;12;
2;España;Guadalajara;Alarilla;;W3.11;N40.85;12;
2;España;Guadalajara;Albalate de Zorita;;W2.85;N40.29;12;
2;España;Guadalajara;Albares;;W3.04;N40.31;12;
2;España;Guadalajara;Albendiego;;W3.05;N41.23;12;
2;España;Guadalajara;Alcocer;;W2.58;N40.46;12;
2;España;Guadalajara;Alcolea de las Peñas;;W2.78;N41.21;12;
2;España;Guadalajara;Alcolea del Pinar;;W2.48;N40.99;12;
2;España;Guadalajara;Alcoroches;;W1.75;N40.63;12;
2;España;Guadalajara;Aldeanueva de Guadalajara;;W3.05;N40.69;12;
2;España;Guadalajara;Algar de Mesa;;W1.95;N41.15;12;
2;España;Guadalajara;Algora;;W2.67;N40.95;12;
2;España;Guadalajara;Alhóndiga;;W2.83;N40.52;12;
2;España;Guadalajara;Alique;;W2.65;N40.59;12;
2;España;Guadalajara;Almadrones;;W2.76;N40.90;12;
2;España;Guadalajara;Almoguera;;W3.04;N40.27;12;
2;España;Guadalajara;Almonacid de Zorita;;W2.84;N40.31;12;
2;España;Guadalajara;Alocén;;W2.73;N40.57;12;
2;España;Guadalajara;Alovera;;W3.25;N40.59;12;
2;España;Guadalajara;Alustante;;W1.64;N40.61;12;
2;España;Guadalajara;Angón;;W2.86;N41.07;12;
2;España;Guadalajara;Anguita;;W2.36;N40.99;12;
2;España;Guadalajara;Anquela del Ducado;;W2.14;N40.97;12;
2;España;Guadalajara;Anquela del Pedregal;;W1.74;N40.73;12;
2;España;Guadalajara;Aranzueque;;W3.08;N40.49;12;
2;España;Guadalajara;Arbancón;;W3.15;N40.98;12;
2;España;Guadalajara;Arbeteta;;W2.40;N40.68;12;
2;España;Guadalajara;Argecilla;;W2.82;N40.89;12;
2;España;Guadalajara;Armallones;;W2.34;N40.74;12;
2;España;Guadalajara;Armuña de Tajuña;;W3.03;N40.52;12;
2;España;Guadalajara;Arroyo de las Fraguas;;W3.13;N41.07;12;
2;España;Guadalajara;Atanzón;;W3.01;N40.66;12;
2;España;Guadalajara;Atienza;;W2.87;N41.20;10;
2;España;Guadalajara;Auñón;;W2.78;N40.51;12;
2;España;Guadalajara;Azuqueca de Henares;;W3.26;N40.56;12;
2;España;Guadalajara;Baides;;W2.77;N41.00;12;
2;España;Guadalajara;Baños de Tajo;;W2.01;N40.71;12;
2;España;Guadalajara;Bañuelos;;W2.92;N41.30;12;
2;España;Guadalajara;Barriopedro;;W2.76;N40.79;12;
2;España;Guadalajara;Berninches;;W2.81;N40.57;12;
2;España;Guadalajara;La Bodera;;W2.89;N41.12;12;
2;España;Guadalajara;Brihuega;;W2.84;N40.74;12;
2;España;Guadalajara;Budia;;W2.75;N40.68;12;
2;España;Guadalajara;Bujalaro;;W2.88;N40.94;12;
2;España;Guadalajara;Bustares;;W3.08;N41.14;12;
2;España;Guadalajara;Cabanillas del Campo;;W3.25;N40.64;12;
2;España;Guadalajara;Campillo de Dueñas;;W1.67;N40.86;12;
2;España;Guadalajara;Campillo de Ranas;;W3.32;N41.06;12;
2;España;Guadalajara;Campisábalos;;W3.15;N41.26;12;
2;España;Guadalajara;Canredondo;;W2.52;N40.81;12;
2;España;Guadalajara;Cantalojas;;W3.29;N41.23;12;
2;España;Guadalajara;Cañizar;;W3.07;N40.78;12;
2;España;Guadalajara;El Cardoso de la Sierra;;W3.42;N41.12;12;
2;España;Guadalajara;Casa de Uceda;;W3.37;N40.85;12;
2;España;Guadalajara;El Casar;;W3.42;N40.73;12;
2;España;Guadalajara;Casas de San Galindo;;W2.97;N40.88;12;
2;España;Guadalajara;Caspueñas;;W2.97;N40.70;12;
2;España;Guadalajara;Castejón de Henares;;W2.79;N40.93;12;
2;España;Guadalajara;Castellar de la Muela;;W1.75;N40.83;12;
2;España;Guadalajara;Castilforte;;W2.43;N40.56;12;
2;España;Guadalajara;Castilnuevo;;W1.87;N40.80;12;
2;España;Guadalajara;Cendejas de Enmedio;;W2.87;N40.99;12;
2;España;Guadalajara;Cendejas de la Torre;;W2.84;N40.98;12;
2;España;Guadalajara;Centenera;;W3.06;N40.65;12;
2;España;Guadalajara;Checa;;W1.82;N40.49;12;
2;España;Guadalajara;Chequilla;;W1.84;N40.61;12;
2;España;Guadalajara;Chillarón del Rey;;W2.70;N40.59;12;
2;España;Guadalajara;Chiloeches;;W3.19;N40.57;12;
2;España;Guadalajara;Cifuentes;;W2.59;N40.74;12;
2;España;Guadalajara;Cincovillas;;W2.82;N41.20;12;
2;España;Guadalajara;Ciruelas;;W3.10;N40.75;12;
2;España;Guadalajara;Ciruelos del Pinar;;W2.22;N41.01;12;
2;España;Guadalajara;Cobeta;;W2.14;N40.88;12;
2;España;Guadalajara;Cogollor;;W2.74;N40.85;12;
2;España;Guadalajara;Cogolludo;;W3.12;N40.94;12;
2;España;Guadalajara;Condemios de Abajo;;W3.10;N41.21;12;
2;España;Guadalajara;Condemios de Arriba;;W3.10;N41.19;12;
2;España;Guadalajara;Congostrina;;W2.97;N41.05;12;
2;España;Guadalajara;Copernal;;W3.05;N40.87;12;
2;España;Guadalajara;Corduente;;W2.03;N40.83;12;
2;España;Guadalajara;El Cubillo de Uceda;;W3.41;N40.81;12;
2;España;Guadalajara;Driebes;;W3.03;N40.24;12;
2;España;Guadalajara;Durón;;W2.71;N40.63;12;
2;España;Guadalajara;Embid;;W1.71;N40.97;12;
2;España;Guadalajara;Escamilla;;W2.56;N40.56;12;
2;España;Guadalajara;Escariche;;W3.07;N40.40;12;
2;España;Guadalajara;Escopete;;W3.00;N40.42;12;
2;España;Guadalajara;Espinosa de Henares;;W3.05;N40.90;12;
2;España;Guadalajara;Esplegares;;W2.37;N40.86;12;
2;España;Guadalajara;Establés;;W2.04;N41.01;12;
2;España;Guadalajara;Estriégana;;W2.53;N41.06;12;
2;España;Guadalajara;Fontanar;;W3.18;N40.73;12;
2;España;Guadalajara;Fuembellida;;W2.04;N40.74;12;
2;España;Guadalajara;Fuencemillán;;W3.09;N40.92;12;
2;España;Guadalajara;Fuentelahiguera de Albatages;;W3.31;N40.77;12;
2;España;Guadalajara;Fuentelencina;;W2.87;N40.51;12;
2;España;Guadalajara;Fuentelsaz;;W1.82;N41.06;12;
2;España;Guadalajara;Fuentelviejo;;W2.99;N40.52;12;
2;España;Guadalajara;Fuentenovilla;;W3.10;N40.38;12;
2;España;Guadalajara;Gajanejos;;W2.89;N40.84;12;
2;España;Guadalajara;Galápagos;;W3.35;N40.71;12;
2;España;Guadalajara;Galve de Sorbe;;W3.21;N41.21;12;
2;España;Guadalajara;Gascueña de Bornova;;W3.00;N41.14;12;
2;España;Guadalajara;Guadalajara;;W3.172;N40.644;10;
2;España;Guadalajara;Henche;;W2.71;N40.72;12;
2;España;Guadalajara;Heras de Ayuso;;W3.11;N40.79;12;
2;España;Guadalajara;Herrería;;W1.95;N40.90;12;
2;España;Guadalajara;Hiendelaencina;;W3.00;N41.08;12;
2;España;Guadalajara;Hijes;;W3.01;N41.26;12;
2;España;Guadalajara;Hita;;W3.05;N40.82;10;
2;España;Guadalajara;Hombrados;;W1.66;N40.82;12;
2;España;Guadalajara;Hontoba;;W3.04;N40.45;12;
2;España;Guadalajara;Horche;;W3.06;N40.57;10;
2;España;Guadalajara;Hortezuela de Océn;;W2.41;N40.95;12;
2;España;Guadalajara;La Huerce;;W3.17;N41.12;12;
2;España;Guadalajara;Huérmeces del Cerro;;W2.79;N41.05;12;
2;España;Guadalajara;Huertahernando;;W2.30;N40.82;12;
2;España;Guadalajara;Hueva;;W2.96;N40.47;12;
2;España;Guadalajara;Humanes;;W3.15;N40.86;12;
2;España;Guadalajara;Illana;;W2.98;N40.20;12;
2;España;Guadalajara;Iniéstola;;W2.37;N40.99;12;
2;España;Guadalajara;Las Inviernas;;W2.67;N40.86;12;
2;España;Guadalajara;Irueste;;W2.90;N40.61;12;
2;España;Guadalajara;Jadraque;;W2.93;N40.92;12;
2;España;Guadalajara;Jirueque;;W2.91;N40.97;12;
2;España;Guadalajara;Ledanca;;W2.87;N40.87;12;
2;España;Guadalajara;Loranca de Tajuña;;W3.114;N40.449;10;
2;España;Guadalajara;Lupiana;;W3.04;N40.62;12;
2;España;Guadalajara;Luzaga;;W2.45;N40.97;12;
2;España;Guadalajara;Luzón;;W2.27;N41.03;12;
2;España;Guadalajara;Majaelrayo;;W3.34;N41.14;12;
2;España;Guadalajara;Málaga del Fresno;;W3.24;N40.78;12;
2;España;Guadalajara;Malaguilla;;W3.27;N40.84;12;
2;España;Guadalajara;Mandayona;;W2.73;N40.96;12;
2;España;Guadalajara;Mantiel;;W2.68;N40.63;12;
2;España;Guadalajara;Maranchón;;W2.204;N41.048;10;
2;España;Guadalajara;Marchamalo;;W3.20;N40.67;12;
2;España;Guadalajara;Masegoso de Tajuña;;W2.70;N40.83;12;
2;España;Guadalajara;Matarrubia;;W3.30;N40.87;12;
2;España;Guadalajara;Matillas;;W2.83;N40.94;12;
2;España;Guadalajara;Mazarete;;W2.18;N40.97;12;
2;España;Guadalajara;Mazuecos;;W3.02;N40.26;12;
2;España;Guadalajara;Medranda;;W2.94;N40.99;12;
2;España;Guadalajara;Megina;;W1.87;N40.64;12;
2;España;Guadalajara;Membrillera;;W2.99;N40.94;12;
2;España;Guadalajara;Miedes de Atienza;;W2.96;N41.25;12;
2;España;Guadalajara;La Mierla;;W3.24;N40.94;12;
2;España;Guadalajara;Millana;;W2.56;N40.50;12;
2;España;Guadalajara;Milmarcos;;W1.87;N41.09;12;
2;España;Guadalajara;La Miñosa;;W2.94;N41.18;12;
2;España;Guadalajara;Mirabueno;;W2.71;N40.93;12;
2;España;Guadalajara;Miralrío;;W2.93;N40.89;12;
2;España;Guadalajara;Mochales;;W2.03;N41.10;12;
2;España;Guadalajara;Mohernando;;W3.17;N40.80;12;
2;España;Guadalajara;Molina de Aragón;;W1.83;N40.86;12;
2;España;Guadalajara;Monasterio;;W3.11;N40.99;12;
2;España;Guadalajara;Mondéjar;;W3.13;N40.33;12;
2;España;Guadalajara;Montarrón;;W3.11;N40.91;12;
2;España;Guadalajara;Moratilla de los Meleros;;W2.94;N40.51;12;
2;España;Guadalajara;Morenilla;;W1.70;N40.77;12;
2;España;Guadalajara;Muduex;;W2.95;N40.83;12;
2;España;Guadalajara;Las Navas de Jadraque;;W3.09;N41.11;12;
2;España;Guadalajara;Negredo;;W2.86;N41.03;12;
2;España;Guadalajara;Ocentejo;;W2.39;N40.77;12;
2;España;Guadalajara;El Olivar;;W2.76;N40.60;12;
2;España;Guadalajara;Olmeda de Cobeta;;W2.21;N40.84;12;
2;España;Guadalajara;La Olmeda de Jadraque;;W2.74;N41.12;12;
2;España;Guadalajara;El Ordial;;W3.13;N41.12;12;
2;España;Guadalajara;Orea;;W1.74;N40.53;12;
2;España;Guadalajara;Pálmaces de Jadraque;;W2.92;N41.06;12;
2;España;Guadalajara;Pardos;;W1.92;N40.95;12;
2;España;Guadalajara;Paredes de Sigüenza;;W2.74;N41.24;12;
2;España;Guadalajara;Pareja;;W2.66;N40.57;12;
2;España;Guadalajara;Pastrana;;W2.89;N40.40;12;
2;España;Guadalajara;El Pedregal;;W1.57;N40.78;12;
2;España;Guadalajara;Peñalén;;W2.08;N40.69;12;
2;España;Guadalajara;Peñalver;;W2.89;N40.58;12;
2;España;Guadalajara;Peralejos de las Truchas;;W1.91;N40.59;12;
2;España;Guadalajara;Peralveche;;W2.48;N40.60;12;
2;España;Guadalajara;Pinilla de Jadraque;;W2.94;N41.02;12;
2;España;Guadalajara;Pinilla de Molina;;W1.88;N40.67;12;
2;España;Guadalajara;Pioz;;W3.17;N40.46;12;
2;España;Guadalajara;Piqueras;;W1.73;N40.67;12;
2;España;Guadalajara;El Pobo de Dueñas;;W1.62;N40.80;12;
2;España;Guadalajara;Poveda de la Sierra;;W2.01;N40.64;12;
2;España;Guadalajara;Pozo de Almoguera;;W3.03;N40.35;12;
2;España;Guadalajara;Pozo de Guadalajara;;W3.18;N40.50;12;
2;España;Guadalajara;Prádena de Atienza;;W3.00;N41.19;12;
2;España;Guadalajara;Prados Redondos;;W1.83;N40.79;12;
2;España;Guadalajara;Puebla de Beleña;;W3.22;N40.89;12;
2;España;Guadalajara;Puebla de Valles;;W3.31;N40.92;12;
2;España;Guadalajara;Quer;;W3.28;N40.61;12;
2;España;Guadalajara;Rebollosa de Jadraque;;W2.84;N41.09;12;
2;España;Guadalajara;El Recuenco;;W2.33;N40.62;12;
2;España;Guadalajara;Renera;;W3.02;N40.49;12;
2;España;Guadalajara;Retiendas;;W3.29;N40.98;12;
2;España;Guadalajara;Riba de Saelices;;W2.28;N40.90;12;
2;España;Guadalajara;Rillo de Gallo;;W1.93;N40.88;12;
2;España;Guadalajara;Riofrío del Llano;;W2.81;N41.13;12;
2;España;Guadalajara;Robledillo de Mohernando;;W3.21;N40.84;12;
2;España;Guadalajara;Robledo de Corpes;;W2.93;N41.12;12;
2;España;Guadalajara;Romanillos de Atienza;;W2.89;N41.28;12;
2;España;Guadalajara;Romanones;;W2.98;N40.57;12;
2;España;Guadalajara;Rueda de la Sierra;;W1.86;N40.94;12;
2;España;Guadalajara;Sacecorbo;;W2.40;N40.82;12;
2;España;Guadalajara;Sacedón;;W2.71;N40.46;12;
2;España;Guadalajara;Saelices de la Sal;;W2.34;N40.91;12;
2;España;Guadalajara;Salmerón;;W2.48;N40.55;12;
2;España;Guadalajara;San Andrés del Congosto;;W3.03;N40.99;12;
2;España;Guadalajara;San Andrés del Rey;;W2.82;N40.63;12;
2;España;Guadalajara;Santiuste;;W2.81;N41.09;12;
2;España;Guadalajara;Saúca;;W2.57;N41.03;12;
2;España;Guadalajara;Sayatón;;W2.82;N40.42;12;
2;España;Guadalajara;Selas;;W2.11;N40.94;12;
2;España;Guadalajara;Semillas;;W3.14;N41.05;12;
2;España;Guadalajara;Setiles;;W1.60;N40.73;12;
2;España;Guadalajara;Sienes;;W2.64;N41.20;12;
2;España;Guadalajara;Sigüenza;;W2.642;N41.070;10;
2;España;Guadalajara;Solanillos del Extremo;;W2.70;N40.76;12;
2;España;Guadalajara;Somolinos;;W3.07;N41.26;12;
2;España;Guadalajara;El Sotillo;;W2.63;N40.87;12;
2;España;Guadalajara;Sotodosos;;W2.39;N40.91;12;
2;España;Guadalajara;Tamajón;;W3.23;N41.04;12;
2;España;Guadalajara;Taragudo;;W3.08;N40.83;12;
2;España;Guadalajara;Taravilla;;W1.98;N40.67;12;
2;España;Guadalajara;Tartanedo;;W1.93;N41.01;12;
2;España;Guadalajara;Tendilla;;W2.95;N40.55;12;
2;España;Guadalajara;Terzaga;;W1.91;N40.70;12;
2;España;Guadalajara;Tierzo;;W1.92;N40.75;12;
2;España;Guadalajara;La Toba;;W3.00;N41.01;12;
2;España;Guadalajara;Tordellego;;W1.68;N40.71;12;
2;España;Guadalajara;Tordelrábano;;W2.76;N41.22;12;
2;España;Guadalajara;Tordesilos;;W1.60;N40.68;12;
2;España;Guadalajara;Torija;;W3.05;N40.75;12;
2;España;Guadalajara;Torre del Burgo;;W3.08;N40.80;12;
2;España;Guadalajara;Torrecuadrada de Molina;;W1.82;N40.74;12;
2;España;Guadalajara;Torrecuadradilla;;W2.54;N40.85;12;
2;España;Guadalajara;Torrejón del Rey;;W3.35;N40.66;12;
2;España;Guadalajara;Torremocha de Jadraque;;W2.90;N41.01;12;
2;España;Guadalajara;Torremocha del Campo;;W2.58;N40.93;12;
2;España;Guadalajara;Torremocha del Pinar;;W2.06;N40.88;12;
2;España;Guadalajara;Torremochuela;;W1.85;N40.75;12;
2;España;Guadalajara;Torrubia;;W1.89;N40.96;12;
2;España;Guadalajara;Tórtola de Henares;;W3.13;N40.71;12;
2;España;Guadalajara;Tortuera;;W1.78;N41.01;12;
2;España;Guadalajara;Tortuero;;W3.35;N40.94;12;
2;España;Guadalajara;Traíd;;W1.80;N40.67;12;
2;España;Guadalajara;Trijueque;;W2.99;N40.78;12;
2;España;Guadalajara;Trillo;;W2.56;N40.67;12;
2;España;Guadalajara;Uceda;;W3.45;N40.82;12;
2;España;Guadalajara;Ujados;;W3.01;N41.22;12;
2;España;Guadalajara;Utande;;W2.92;N40.87;12;
2;España;Guadalajara;Valdarachas;;W3.13;N40.52;12;
2;España;Guadalajara;Valdearenas;;W2.99;N40.83;12;
2;España;Guadalajara;Valdeavellano;;W2.96;N40.66;12;
2;España;Guadalajara;Valdeaveruelo;;W3.31;N40.65;12;
2;España;Guadalajara;Valdeconcha;;W2.87;N40.45;12;
2;España;Guadalajara;Valdegrudas;;W3.01;N40.72;12;
2;España;Guadalajara;Valdelcubo;;W2.67;N41.23;12;
2;España;Guadalajara;Valdenuño Fernández;;W3.38;N40.76;12;
2;España;Guadalajara;Valdepeñas de la Sierra;;W3.40;N40.90;12;
2;España;Guadalajara;Valderrebollo;;W2.74;N40.81;12;
2;España;Guadalajara;Valdesotos;;W3.31;N40.98;12;
2;España;Guadalajara;Valfermoso de Tajuña;;W2.96;N40.62;12;
2;España;Guadalajara;Valhermoso;;W1.99;N40.78;12;
2;España;Guadalajara;Valtablado del Río;;W2.40;N40.73;12;
2;España;Guadalajara;Valverde de los Arroyos;;W3.21;N41.13;12;
2;España;Guadalajara;Viana de Jadraque;;W2.79;N41.04;12;
2;España;Guadalajara;Villanueva de Alcorón;;W2.23;N40.67;12;
2;España;Guadalajara;Villanueva de Argecilla;;W2.91;N40.90;12;
2;España;Guadalajara;Villanueva de la Torre;;W3.30;N40.59;12;
2;España;Guadalajara;Villares de Jadraque;;W3.03;N41.10;12;
2;España;Guadalajara;Villaseca de Henares;;W2.80;N40.97;12;
2;España;Guadalajara;Villaseca de Uceda;;W3.34;N40.84;12;
2;España;Guadalajara;Villel de Mesa;;W1.99;N41.13;12;
2;España;Guadalajara;Viñuelas;;W3.35;N40.79;12;
2;España;Guadalajara;Yebes;;W3.10;N40.55;12;
2;España;Guadalajara;Yebra;;W2.96;N40.35;12;
2;España;Guadalajara;Yélamos de Abajo;;W2.85;N40.62;12;
2;España;Guadalajara;Yélamos de Arriba;;W2.84;N40.65;12;
2;España;Guadalajara;Yunquera de Henares;;W3.17;N40.76;12;
2;España;Guadalajara;La Yunta;;W1.66;N40.93;12;
2;España;Guadalajara;Zaorejas;;W2.16;N40.76;12;
2;España;Guadalajara;Zarzuela de Jadraque;;W3.05;N41.07;12;
2;España;Guadalajara;Zorita de los Canes;;W2.89;N40.33;12;
