Level;Country;State;County;Place;Longitude;Latitude;ZoomLevel;Icon
2;ESP;Vizcaya;Abadiño;;W2.62;N43.13;12;
2;ESP;Vizcaya;Abanto y Ciérvana-Abanto Zierbena;;W3.09;N43.35;12;
2;ESP;Vizcaya;Ajangiz;;W2.67;N43.30;12;
2;ESP;Vizcaya;Alonsotegi;;W2.98;N43.23;12;
2;ESP;Vizcaya;Amorebieta-Etxano;;W2.71;N43.22;12;
2;ESP;Vizcaya;Amoroto;;W2.50;N43.32;12;
2;ESP;Vizcaya;Arakaldo;;W2.93;N43.15;12;
2;ESP;Vizcaya;Arantzazu;;W2.78;N43.15;12;
2;ESP;Vizcaya;Areatza;;W2.78;N43.11;12;
2;ESP;Vizcaya;Arrankudiaga;;W2.92;N43.17;12;
2;ESP;Vizcaya;Arratzu;;W2.64;N43.31;12;
2;ESP;Vizcaya;Arrieta;;W2.76;N43.35;12;
2;ESP;Vizcaya;Arrigorriaga;;W2.887;N43.209;10;
2;ESP;Vizcaya;Artea;;W2.79;N43.13;12;
2;ESP;Vizcaya;Artzentales;;W3.24;N43.23;12;
2;ESP;Vizcaya;Atxondo;;W2.58;N43.11;12;
2;ESP;Vizcaya;Aulesti;;W2.48;N43.30;12;
2;ESP;Vizcaya;Bakio;;W2.81;N43.43;12;
2;ESP;Vizcaya;Balmaseda;;W3.21;N43.19;10;
2;ESP;Vizcaya;Barakaldo;;W2.99;N43.30;12;
2;ESP;Vizcaya;Barrika;;W2.96;N43.41;12;
2;ESP;Vizcaya;Basauri;;W2.88;N43.22;12;
2;ESP;Vizcaya;Bedia;;W2.82;N43.20;12;
2;ESP;Vizcaya;Berango;;W2.97;N43.36;12;
2;ESP;Vizcaya;Bermeo;;W2.72;N43.42;10;
2;ESP;Vizcaya;Berriatua;;W2.46;N43.32;12;
2;ESP;Vizcaya;Berriz;;W2.59;N43.19;12;
2;ESP;Vizcaya;Bilbao;;W2.93;N43.26;10;
2;ESP;Vizcaya;Busturia;;W2.70;N43.38;12;
2;ESP;Vizcaya;Derio;;W2.88;N43.28;12;
2;ESP;Vizcaya;Dima;;W2.73;N43.13;12;
2;ESP;Vizcaya;Durango;;W2.650;N43.165;10;
2;ESP;Vizcaya;Ea;;W2.58;N43.38;12;
2;ESP;Vizcaya;Elantxobe;;W2.64;N43.40;12;
2;ESP;Vizcaya;Elorrio;;W2.537;N43.128;10;
2;ESP;Vizcaya;Erandio;;W2.95;N43.32;12;
2;ESP;Vizcaya;Ereño;;W2.61;N43.36;12;
2;ESP;Vizcaya;Ermua;;W2.50;N43.19;10;
2;ESP;Vizcaya;Errigoiti;;W2.73;N43.33;12;
2;ESP;Vizcaya;Etxebarri;;W2.88;N43.25;12;
2;ESP;Vizcaya;Etxebarria;;W2.47;N43.26;12;
2;ESP;Vizcaya;Forua;;W2.68;N43.34;12;
2;ESP;Vizcaya;Fruiz;;W2.79;N43.33;12;
2;ESP;Vizcaya;Galdakao;;W2.85;N43.23;12;
2;ESP;Vizcaya;Galdames;;W3.11;N43.27;12;
2;ESP;Vizcaya;Gamiz-Fika;;W2.81;N43.32;12;
2;ESP;Vizcaya;Garai;;W2.62;N43.20;12;
2;ESP;Vizcaya;Gatika;;W2.88;N43.36;12;
2;ESP;Vizcaya;Gautegiz Arteaga;;W2.66;N43.36;12;
2;ESP;Vizcaya;Gernika-Lumo;;W2.68;N43.31;12;
2;ESP;Vizcaya;Getxo;;W3.02;N43.36;12;
2;ESP;Vizcaya;Gizaburuaga;;W2.54;N43.33;12;
2;ESP;Vizcaya;Gordexola;;W3.07;N43.18;12;
2;ESP;Vizcaya;Gorliz;;W2.94;N43.42;12;
2;ESP;Vizcaya;Güeñes;;W3.05;N43.22;12;
2;ESP;Vizcaya;Ibarrangelu;;W2.66;N43.40;12;
2;ESP;Vizcaya;Igorre;;W2.78;N43.18;12;
2;ESP;Vizcaya;Ispaster;;W2.54;N43.36;12;
2;ESP;Vizcaya;Iurreta;;W2.66;N43.19;12;
2;ESP;Vizcaya;Izurtza;;W2.65;N43.15;12;
2;ESP;Vizcaya;Karrantza Harana/Valle de Carranza;;W3.35;N43.22;12;
2;ESP;Vizcaya;Kortezubi;;W2.64;N43.33;12;
2;ESP;Vizcaya;Lanestosa;;W3.44;N43.22;12;
2;ESP;Vizcaya;Larrabetzu;;W2.79;N43.27;12;
2;ESP;Vizcaya;Laukiz;;W2.91;N43.35;12;
2;ESP;Vizcaya;Leioa;;W2.98;N43.33;12;
2;ESP;Vizcaya;Lekeitio;;W2.50;N43.37;12;
2;ESP;Vizcaya;Lemoa;;W2.78;N43.22;12;
2;ESP;Vizcaya;Lemoiz;;W2.89;N43.43;12;
2;ESP;Vizcaya;Lezama;;W2.82;N43.27;12;
2;ESP;Vizcaya;Loiu;;W2.91;N43.31;12;
2;ESP;Vizcaya;Mallabia;;W2.53;N43.21;12;
2;ESP;Vizcaya;Mañaria;;W2.66;N43.13;12;
2;ESP;Vizcaya;Markina-Xemein;;W2.48;N43.26;12;
2;ESP;Vizcaya;Maruri-Jatabe;;W2.86;N43.39;12;
2;ESP;Vizcaya;Mendata;;W2.64;N43.28;12;
2;ESP;Vizcaya;Mendexa;;W2.48;N43.35;12;
2;ESP;Vizcaya;Meñaka;;W2.80;N43.37;12;
2;ESP;Vizcaya;Morga;;W2.76;N43.31;12;
2;ESP;Vizcaya;Mundaka;;W2.70;N43.41;12;
2;ESP;Vizcaya;Mungia;;W2.84;N43.35;12;
2;ESP;Vizcaya;Munitibar-Arbatzegi Gerrikaitz;;W2.59;N43.26;12;
2;ESP;Vizcaya;Murueta;;W2.68;N43.36;12;
2;ESP;Vizcaya;Muskiz;;W3.13;N43.33;12;
2;ESP;Vizcaya;Muxika;;W2.68;N43.25;12;
2;ESP;Vizcaya;Nabarniz;;W2.59;N43.33;12;
2;ESP;Vizcaya;Ondarroa;;W2.43;N43.33;12;
2;ESP;Vizcaya;Orozko;;W2.92;N43.12;12;
2;ESP;Vizcaya;Ortuella;;W3.05;N43.31;12;
2;ESP;Vizcaya;Otxandio;;W2.66;N43.04;12;
2;ESP;Vizcaya;Plentzia;;W2.93;N43.40;12;
2;ESP;Vizcaya;Portugalete;;W3.02;N43.32;12;
2;ESP;Vizcaya;Santurtzi;;W3.04;N43.33;12;
2;ESP;Vizcaya;Sestao;;W2.99;N43.31;12;
2;ESP;Vizcaya;Sondika;;W2.93;N43.29;12;
2;ESP;Vizcaya;Sopelana;;W2.98;N43.38;12;
2;ESP;Vizcaya;Sopuerta;;W3.165;N43.259;10;
2;ESP;Vizcaya;Sukarrieta;;W2.70;N43.39;12;
2;ESP;Vizcaya;Trucios-Turtzioz;;W3.28;N43.29;12;
2;ESP;Vizcaya;Ubide;;W2.69;N43.03;12;
2;ESP;Vizcaya;Ugao-Miraballes;;W2.90;N43.19;12;
2;ESP;Vizcaya;Urduliz;;W2.94;N43.37;12;
2;ESP;Vizcaya;Urduña-Orduña;;W3.02;N43.01;12;
2;ESP;Vizcaya;Valle de Trápaga-Trapagaran;;W3.08;N43.30;12;
2;ESP;Vizcaya;Zaldibar;;W2.52;N43.17;12;
2;ESP;Vizcaya;Zalla;;W3.133;N43.217;10;
2;ESP;Vizcaya;Zamudio;;W2.88;N43.29;12;
2;ESP;Vizcaya;Zaratamo;;W2.87;N43.21;12;
2;ESP;Vizcaya;Zeanuri;;W2.74;N43.07;12;
2;ESP;Vizcaya;Zeberio;;W2.87;N43.16;12;
2;ESP;Vizcaya;Zierbena;;W3.09;N43.35;12;
2;ESP;Vizcaya;Ziortza-Bolibar;;W2.57;N43.25;12;
