Level;Country;State;County;Place;Longitude;Latitude;ZoomLevel;Icon
2;ESP;Alicante;Adsubia;;W0.17;N38.85;12;
2;ESP;Alicante;Agost;;W0.62;N38.45;12;
2;ESP;Alicante;Agres;;W0.51;N38.79;12;
2;ESP;Alicante;Aigües;;W0.36;N38.51;12;
2;ESP;Alicante;Albatera;;W0.90;N38.22;12;
2;ESP;Alicante;Alcalalí;;W0.03;N38.75;12;
2;ESP;Alicante;Alcocer de Planes;;W0.40;N38.79;12;
2;ESP;Alicante;Alcoleja;;W0.32;N38.67;12;
2;ESP;Alicante;Alcoy/Alcoi;;W0.52;N38.68;12;
2;ESP;Alicante;Alfafara;;W0.57;N38.78;12;
2;ESP;Alicante;l'Alfàs del Pi;;W0.10;N38.58;12;
2;ESP;Alicante;Algorfa;;W0.78;N38.07;12;
2;ESP;Alicante;Algueña;;W1.00;N38.35;12;
2;ESP;Alicante;Alicante/Alacant;;W0.51;N38.41;12;
2;ESP;Alicante;Almoradí;;W0.78;N38.07;12;
2;ESP;Alicante;Almudaina;;W0.36;N38.77;12;
2;ESP;Alicante;l'Alqueria d'Asnar;;W0.42;N38.77;12;
2;ESP;Alicante;Altea;;W0.05;N38.60;12;
2;ESP;Alicante;Aspe;;W0.79;N38.33;12;
2;ESP;Alicante;Balones;;W0.33;N38.74;12;
2;ESP;Alicante;Banyeres de Mariola;;W0.67;N38.71;12;
2;ESP;Alicante;Benasau;;W0.34;N38.70;12;
2;ESP;Alicante;Beneixama;;W0.76;N38.72;12;
2;ESP;Alicante;Benejúzar;;W0.83;N38.08;12;
2;ESP;Alicante;Benferri;;W0.98;N38.15;12;
2;ESP;Alicante;Beniarbeig;;W0.01;N38.82;12;
2;ESP;Alicante;Beniardá;;W0.21;N38.69;12;
2;ESP;Alicante;Beniarrés;;W0.37;N38.83;12;
2;ESP;Alicante;Benidoleig;;W0.03;N38.80;12;
2;ESP;Alicante;Benidorm;;W0.12;N38.54;12;
2;ESP;Alicante;Benifallim;;W0.41;N38.65;12;
2;ESP;Alicante;Benifato;;W0.24;N38.67;12;
2;ESP;Alicante;Benigembla;;W0.11;N38.75;12;
2;ESP;Alicante;Benijófar;;W0.74;N38.08;12;
2;ESP;Alicante;Benilloba;;W0.39;N38.71;12;
2;ESP;Alicante;Benillup;;W0.38;N38.76;12;
2;ESP;Alicante;Benimantell;;W0.20;N38.66;12;
2;ESP;Alicante;Benimarfull;;W0.39;N38.77;12;
2;ESP;Alicante;Benimassot;;W0.29;N38.75;12;
2;ESP;Alicante;Benimeli;;W0.04;N38.83;12;
2;ESP;Alicante;Benissa;;E0.05;N38.70;12;
2;ESP;Alicante;Benitachell/el Poble Nou de Benitatxell;;E0.15;N38.71;12;
2;ESP;Alicante;Biar;;W0.75;N38.66;12;
2;ESP;Alicante;Bigastro;;W0.89;N38.06;12;
2;ESP;Alicante;Bolulla;;W0.13;N38.70;12;
2;ESP;Alicante;Busot;;W0.43;N38.50;12;
2;ESP;Alicante;Callosa de Segura;;W0.88;N38.12;12;
2;ESP;Alicante;Callosa d'En Sarrià;;W0.10;N38.65;12;
2;ESP;Alicante;Calpe/Calp;;E0.05;N38.65;12;
2;ESP;Alicante;el Campello;;W0.36;N38.47;12;
2;ESP;Alicante;Campo de Mirra/el Camp de Mirra;;W0.79;N38.70;12;
2;ESP;Alicante;Cañada;;W0.81;N38.68;12;
2;ESP;Alicante;Castalla;;W0.65;N38.57;12;
2;ESP;Alicante;Castell de Castells;;W0.20;N38.74;12;
2;ESP;Alicante;el Castell de Guadalest;;W0.18;N38.67;12;
2;ESP;Alicante;Catral;;W0.80;N38.16;12;
2;ESP;Alicante;Cocentaina;;W0.44;N38.73;12;
2;ESP;Alicante;Confrides;;W0.28;N38.67;12;
2;ESP;Alicante;Cox;;W0.89;N38.15;12;
2;ESP;Alicante;Crevillent;;W0.82;N38.23;12;
2;ESP;Alicante;Daya Nueva;;W0.77;N38.11;12;
2;ESP;Alicante;Daya Vieja;;W0.73;N38.11;12;
2;ESP;Alicante;Dénia;;E0.07;N38.83;12;
2;ESP;Alicante;Dolores;;W0.76;N38.14;12;
2;ESP;Alicante;Elche/Elx;;W0.64;N38.23;12;
2;ESP;Alicante;Elda;;W0.80;N38.48;12;
2;ESP;Alicante;Facheca;;W0.28;N38.74;12;
2;ESP;Alicante;Famorca;;W0.23;N38.73;12;
2;ESP;Alicante;Finestrat;;W0.20;N38.56;12;
2;ESP;Alicante;el Fondó de les Neus/Hondón de las Nieves;;W0.89;N38.31;12;
2;ESP;Alicante;Formentera del Segura;;W0.73;N38.09;12;
2;ESP;Alicante;Gaianes;;W0.41;N38.81;12;
2;ESP;Alicante;Gata de Gorgos;;E0.08;N38.76;12;
2;ESP;Alicante;Gorga;;W0.38;N38.72;12;
2;ESP;Alicante;Granja de Rocamora;;W0.90;N38.15;12;
2;ESP;Alicante;Guardamar del Segura;;W0.65;N38.08;12;
2;ESP;Alicante;Hondón de los Frailes;;W0.93;N38.27;12;
2;ESP;Alicante;Ibi;;W0.56;N38.63;12;
2;ESP;Alicante;Jacarilla;;W0.86;N38.06;12;
2;ESP;Alicante;Jávea/Xàbia;;E0.19;N38.76;12;
2;ESP;Alicante;Jijona/Xixona;;W0.48;N38.55;12;
2;ESP;Alicante;Llíber;;E0.01;N38.72;12;
2;ESP;Alicante;Lorcha/l'Orxa;;W0.32;N38.86;12;
2;ESP;Alicante;Millena;;W0.38;N38.74;12;
2;ESP;Alicante;Monforte del Cid;;W0.70;N38.37;12;
2;ESP;Alicante;Monóvar/Monòver;;W0.92;N38.43;12;
2;ESP;Alicante;Los Montesinos;;W0.75;N38.03;12;
2;ESP;Alicante;Murla;;W0.08;N38.76;12;
2;ESP;Alicante;Muro de Alcoy;;W0.43;N38.78;12;
2;ESP;Alicante;Mutxamel;;W0.46;N38.43;12;
2;ESP;Alicante;Novelda;;W0.78;N38.38;12;
2;ESP;Alicante;la Nucia;;W0.13;N38.61;12;
2;ESP;Alicante;Ondara;;E0.02;N38.83;12;
2;ESP;Alicante;Onil;;W0.66;N38.64;12;
2;ESP;Alicante;Orba;;W0.07;N38.79;12;
2;ESP;Alicante;Orihuela;;W0.87;N38.07;12;
2;ESP;Alicante;Orxeta;;W0.29;N38.55;12;
2;ESP;Alicante;Parcent;;W0.07;N38.74;12;
2;ESP;Alicante;Pedreguer;;E0.04;N38.81;12;
2;ESP;Alicante;Pego;;W0.09;N38.85;12;
2;ESP;Alicante;Penàguila;;W0.38;N38.66;12;
2;ESP;Alicante;Petrer;;W0.74;N38.49;12;
2;ESP;Alicante;Pilar de la Horadada;;W0.81;N37.90;12;
2;ESP;Alicante;el Pinós/Pinoso;;W1.04;N38.41;12;
2;ESP;Alicante;Planes;;W0.35;N38.79;12;
2;ESP;Alicante;els Poblets;;E0.02;N38.86;12;
2;ESP;Alicante;Polop;;W0.15;N38.62;12;
2;ESP;Alicante;Quatretondeta;;W0.32;N38.72;12;
2;ESP;Alicante;Rafal;;W0.85;N38.11;12;
2;ESP;Alicante;El Ràfol d'Almúnia;;W0.04;N38.83;12;
2;ESP;Alicante;Redován;;W0.92;N38.12;12;
2;ESP;Alicante;Relleu;;W0.34;N38.57;12;
2;ESP;Alicante;Rojales;;W0.74;N38.08;12;
2;ESP;Alicante;la Romana;;W0.90;N38.36;12;
2;ESP;Alicante;Sagra;;W0.06;N38.82;12;
2;ESP;Alicante;Salinas;;W0.91;N38.52;12;
2;ESP;Alicante;San Fulgencio;;W0.70;N38.13;12;
2;ESP;Alicante;San Isidro;;W0.85;N38.18;12;
2;ESP;Alicante;San Miguel de Salinas;;W0.79;N38.00;12;
2;ESP;Alicante;San Vicente del Raspeig/Sant Vicent del Raspeig;;W0.55;N38.43;12;
2;ESP;Alicante;Sanet y Negrals;;W0.03;N38.81;12;
2;ESP;Alicante;Sant Joan d'Alacant;;W0.43;N38.41;12;
2;ESP;Alicante;Santa Pola;;W0.54;N38.19;12;
2;ESP;Alicante;Sax;;W0.80;N38.54;12;
2;ESP;Alicante;Sella;;W0.28;N38.62;12;
2;ESP;Alicante;Senija;;E0.05;N38.74;12;
2;ESP;Alicante;Tàrbena;;W0.09;N38.71;12;
2;ESP;Alicante;Teulada;;E0.12;N38.70;12;
2;ESP;Alicante;Tibi;;W0.60;N38.53;12;
2;ESP;Alicante;Tollos;;W0.25;N38.76;12;
2;ESP;Alicante;Tormos;;W0.06;N38.81;12;
2;ESP;Alicante;Torremanzanas/la Torre de les Maçanes;;W0.40;N38.61;12;
2;ESP;Alicante;Torrevieja;;W0.67;N37.99;12;
2;ESP;Alicante;la Vall d'Alcalà;;W0.25;N38.79;12;
2;ESP;Alicante;Vall de Gallinera;;W0.22;N38.82;12;
2;ESP;Alicante;la Vall de Laguar;;W0.12;N38.77;12;
2;ESP;Alicante;la Vall d'Ebo;;W0.19;N38.80;12;
2;ESP;Alicante;el Verger;;E0.00;N38.85;12;
2;ESP;Alicante;Villajoyosa/la Vila Joiosa;;W0.25;N38.52;12;
2;ESP;Alicante;Villena;;W0.94;N38.64;12;
2;ESP;Alicante;Xaló;;W0.01;N38.74;12;
