Level;Country;State;County;Place;Longitude;Latitude;ZoomLevel;Icon
2;ESP;Salamanca;Abusejo;;W6.13;N40.71;12;
2;ESP;Salamanca;Agallas;;W6.43;N40.42;12;
2;ESP;Salamanca;Ahigal de los Aceiteros;;W6.76;N40.86;12;
2;ESP;Salamanca;Ahigal de Villarino;;W6.37;N41.17;12;
2;ESP;Salamanca;La Alameda de Gardón;;W6.76;N40.64;12;
2;ESP;Salamanca;La Alamedilla;;W6.81;N40.46;12;
2;ESP;Salamanca;Alaraz;;W5.32;N40.72;12;
2;ESP;Salamanca;Alba de Tormes;;W5.515823;N40.841087;10;
2;ESP;Salamanca;Alba de Yeltes;;W6.33;N40.67;12;
2;ESP;Salamanca;La Alberca;;W6.13;N40.49;12;
2;ESP;Salamanca;La Alberguería de Argañán;;W6.80;N40.42;12;
2;ESP;Salamanca;Alconada;;W5.37;N40.91;12;
2;ESP;Salamanca;Aldea del Obispo;;W6.79;N40.71;12;
2;ESP;Salamanca;Aldeacipreste;;W5.90;N40.38;12;
2;ESP;Salamanca;Aldeadávila de la Ribera;;W6.64;N41.21;12;
2;ESP;Salamanca;Aldealengua;;W5.54;N40.99;12;
2;ESP;Salamanca;Aldeanueva de Figueroa;;W5.53;N41.16;12;
2;ESP;Salamanca;Aldeanueva de la Sierra;;W6.10;N40.61;12;
2;ESP;Salamanca;Aldearrodrigo;;W5.81;N41.11;12;
2;ESP;Salamanca;Aldearrubia;;W5.50;N41.00;12;
2;ESP;Salamanca;Aldeaseca de Alba;;W5.45;N40.82;12;
2;ESP;Salamanca;Aldeaseca de la Frontera;;W5.21;N40.94;12;
2;ESP;Salamanca;Aldeatejada;;W5.71;N40.91;12;
2;ESP;Salamanca;Aldeavieja de Tormes;;W5.63;N40.58;12;
2;ESP;Salamanca;Aldehuela de la Bóveda;;W6.07;N40.85;12;
2;ESP;Salamanca;Aldehuela de Yeltes;;W6.25;N40.65;12;
2;ESP;Salamanca;Almenara de Tormes;;W5.82;N41.07;12;
2;ESP;Salamanca;Almendra;;W6.33;N41.24;12;
2;ESP;Salamanca;Anaya de Alba;;W5.49;N40.73;12;
2;ESP;Salamanca;Añover de Tormes;;W5.92;N41.13;12;
2;ESP;Salamanca;Arabayona de Mógica;;W5.39;N41.05;12;
2;ESP;Salamanca;Arapiles;;W5.65;N40.89;12;
2;ESP;Salamanca;Arcediano;;W5.56;N41.10;12;
2;ESP;Salamanca;El Arco;;W5.83;N41.11;12;
2;ESP;Salamanca;Armenteros;;W5.48;N40.61;12;
2;ESP;Salamanca;La Atalaya;;W6.41;N40.51;12;
2;ESP;Salamanca;Babilafuente;;W5.43;N40.99;12;
2;ESP;Salamanca;Bañobárez;;W6.61;N40.79;12;
2;ESP;Salamanca;Barbadillo;;W5.81;N40.89;12;
2;ESP;Salamanca;Barbalos;;W5.94;N40.66;12;
2;ESP;Salamanca;Barceo;;W6.45;N41.07;12;
2;ESP;Salamanca;Barruecopardo;;W6.67;N41.06;12;
2;ESP;Salamanca;La Bastida;;W6.04;N40.58;12;
2;ESP;Salamanca;Béjar;;W5.77;N40.39;12;
2;ESP;Salamanca;Beleña;;W5.65;N40.74;12;
2;ESP;Salamanca;Bermellar;;W6.66;N41.01;12;
2;ESP;Salamanca;Berrocal de Huebra;;W6.00;N40.70;12;
2;ESP;Salamanca;Berrocal de Salvatierra;;W5.69;N40.64;12;
2;ESP;Salamanca;Boada;;W6.33;N40.82;12;
2;ESP;Salamanca;El Bodón;;W6.58;N40.50;12;
2;ESP;Salamanca;Bogajo;;W6.52;N40.91;12;
2;ESP;Salamanca;La Bouza;;W6.81;N40.83;12;
2;ESP;Salamanca;Bóveda del Río Almar;;W5.22;N40.86;12;
2;ESP;Salamanca;Brincones;;W6.35;N41.11;12;
2;ESP;Salamanca;Buenamadre;;W6.20;N40.86;12;
2;ESP;Salamanca;Buenavista;;W5.62;N40.78;12;
2;ESP;Salamanca;El Cabaco;;W6.15;N40.57;12;
2;ESP;Salamanca;La Cabeza de Béjar;;W5.66;N40.50;12;
2;ESP;Salamanca;Cabeza del Caballo;;W6.56;N41.15;12;
2;ESP;Salamanca;Cabezabellosa de la Calzada;;W5.48;N41.04;12;
2;ESP;Salamanca;Cabrerizos;;W5.60;N40.98;12;
2;ESP;Salamanca;Cabrillas;;W6.19;N40.74;12;
2;ESP;Salamanca;Calvarrasa de Abajo;;W5.54;N40.95;12;
2;ESP;Salamanca;Calvarrasa de Arriba;;W5.58;N40.90;12;
2;ESP;Salamanca;La Calzada de Béjar;;W5.82;N40.41;12;
2;ESP;Salamanca;Calzada de Don Diego;;W5.88;N40.89;12;
2;ESP;Salamanca;Calzada de Valdunciel;;W5.70;N41.09;12;
2;ESP;Salamanca;Campillo de Azaba;;W6.67;N40.52;12;
2;ESP;Salamanca;El Campo de Peñaranda;;W5.26;N41.00;12;
2;ESP;Salamanca;Candelario;;W5.75;N40.34;12;
2;ESP;Salamanca;Canillas de Abajo;;W5.96;N40.91;12;
2;ESP;Salamanca;Cantagallo;;W5.82;N40.37;12;
2;ESP;Salamanca;Cantalapiedra;;W5.21;N41.13;12;
2;ESP;Salamanca;Cantalpino;;W5.33;N41.08;12;
2;ESP;Salamanca;Cantaracillo;;W5.15;N40.91;12;
2;ESP;Salamanca;Carbajosa de la Sagrada;;W5.63;N40.92;12;
2;ESP;Salamanca;Carpio de Azaba;;W6.63;N40.58;12;
2;ESP;Salamanca;Carrascal de Barregas;;W5.80;N40.94;12;
2;ESP;Salamanca;Carrascal del Obispo;;W6.00;N40.77;12;
2;ESP;Salamanca;Casafranca;;W5.78;N40.61;12;
2;ESP;Salamanca;Las Casas del Conde;;W6.04;N40.51;12;
2;ESP;Salamanca;Casillas de Flores;;W6.76;N40.37;12;
2;ESP;Salamanca;Castellanos de Moriscos;;W5.59;N41.03;12;
2;ESP;Salamanca;Castellanos de Villiquera;;W5.67;N41.05;12;
2;ESP;Salamanca;Castillejo de Martín Viejo;;W6.59;N40.74;12;
2;ESP;Salamanca;Castraz;;W6.32;N40.72;12;
2;ESP;Salamanca;Cepeda;;W6.03;N40.46;12;
2;ESP;Salamanca;Cereceda de la Sierra;;W6.10;N40.57;12;
2;ESP;Salamanca;Cerezal de Peñahorcada;;W6.65;N41.13;12;
2;ESP;Salamanca;Cerralbo;;W6.58;N40.96;12;
2;ESP;Salamanca;El Cerro;;W5.92;N40.31;12;
2;ESP;Salamanca;Cespedosa de Tormes;;W5.57;N40.55;12;
2;ESP;Salamanca;Chagarcía Medianero;;W5.39;N40.67;12;
2;ESP;Salamanca;Cilleros de la Bastida;;W6.03;N40.56;12;
2;ESP;Salamanca;Cipérez;;W6.24;N40.97;12;
2;ESP;Salamanca;Ciudad Rodrigo;;W6.526;N40.600;10;
2;ESP;Salamanca;Coca de Alba;;W5.36;N40.88;12;
2;ESP;Salamanca;Colmenar de Montemayor;;W5.96;N40.41;12;
2;ESP;Salamanca;Cordovilla;;W5.41;N40.94;12;
2;ESP;Salamanca;Cristóbal;;W5.90;N40.47;12;
2;ESP;Salamanca;El Cubo de Don Sancho;;W6.30;N40.89;12;
2;ESP;Salamanca;Dios le Guarde;;W6.31;N40.64;12;
2;ESP;Salamanca;Doñinos de Ledesma;;W6.04;N41.04;12;
2;ESP;Salamanca;Doñinos de Salamanca;;W5.75;N40.96;12;
2;ESP;Salamanca;Ejeme;;W5.52;N40.77;12;
2;ESP;Salamanca;La Encina;;W6.53;N40.52;12;
2;ESP;Salamanca;Encina de San Silvestre;;W6.10;N41.01;12;
2;ESP;Salamanca;Encinas de Abajo;;W5.46;N40.92;12;
2;ESP;Salamanca;Encinas de Arriba;;W5.56;N40.77;12;
2;ESP;Salamanca;Encinasola de los Comendadores;;W6.55;N41.01;12;
2;ESP;Salamanca;Endrinal;;W5.82;N40.59;12;
2;ESP;Salamanca;Escurial de la Sierra;;W5.95;N40.62;12;
2;ESP;Salamanca;Espadaña;;W6.27;N41.05;12;
2;ESP;Salamanca;Espeja;;W6.74;N40.53;12;
2;ESP;Salamanca;Espino de la Orbada;;W5.41;N41.12;12;
2;ESP;Salamanca;Florida de Liébana;;W5.76;N41.01;12;
2;ESP;Salamanca;Forfoleda;;W5.75;N41.11;12;
2;ESP;Salamanca;Frades de la Sierra;;W5.78;N40.66;12;
2;ESP;Salamanca;La Fregeneda;;W6.87;N41.00;12;
2;ESP;Salamanca;Fresnedoso;;W5.71;N40.44;12;
2;ESP;Salamanca;Fresno Alhándiga;;W5.62;N40.71;12;
2;ESP;Salamanca;La Fuente de San Esteban;;W6.18;N40.81;12;
2;ESP;Salamanca;Fuenteguinaldo;;W6.67;N40.42;12;
2;ESP;Salamanca;Fuenteliante;;W6.57;N40.84;12;
2;ESP;Salamanca;Fuenterroble de Salvatierra;;W5.74;N40.55;12;
2;ESP;Salamanca;Fuentes de Béjar;;W5.70;N40.51;12;
2;ESP;Salamanca;Fuentes de Oñoro;;W6.78;N40.57;12;
2;ESP;Salamanca;Gajates;;W5.37;N40.79;12;
2;ESP;Salamanca;Galindo y Perahuy;;W5.82;N40.94;12;
2;ESP;Salamanca;Galinduste;;W5.53;N40.66;12;
2;ESP;Salamanca;Galisancho;;W5.54;N40.72;12;
2;ESP;Salamanca;Gallegos de Argañán;;W6.69;N40.62;12;
2;ESP;Salamanca;Gallegos de Solmirón;;W5.46;N40.53;12;
2;ESP;Salamanca;Garcibuey;;W5.97;N40.50;12;
2;ESP;Salamanca;Garcihernández;;W5.43;N40.86;12;
2;ESP;Salamanca;Garcirrey;;W6.14;N40.88;12;
2;ESP;Salamanca;Gejuelo del Barro;;W6.10;N41.07;12;
2;ESP;Salamanca;Golpejas;;W5.91;N41.00;12;
2;ESP;Salamanca;Gomecello;;W5.54;N41.04;12;
2;ESP;Salamanca;Guadramiro;;W6.50;N41.01;12;
2;ESP;Salamanca;Guijo de Ávila;;W5.64;N40.52;12;
2;ESP;Salamanca;Guijuelo;;W5.68;N40.57;12;
2;ESP;Salamanca;Herguijuela de Ciudad Rodrigo;;W6.52;N40.45;12;
2;ESP;Salamanca;Herguijuela de la Sierra;;W6.08;N40.42;12;
2;ESP;Salamanca;Herguijuela del Campo;;W5.88;N40.62;12;
2;ESP;Salamanca;Hinojosa de Duero;;W6.80;N41.00;12;
2;ESP;Salamanca;Horcajo de Montemayor;;W5.89;N40.43;12;
2;ESP;Salamanca;Horcajo Medianero;;W5.45;N40.65;12;
2;ESP;Salamanca;La Hoya;;W5.69;N40.39;12;
2;ESP;Salamanca;Huerta;;W5.46;N40.97;12;
2;ESP;Salamanca;Iruelos;;W6.33;N41.15;12;
2;ESP;Salamanca;Ituero de Azaba;;W6.67;N40.49;12;
2;ESP;Salamanca;Juzbado;;W5.89;N41.09;12;
2;ESP;Salamanca;Lagunilla;;W5.96;N40.33;12;
2;ESP;Salamanca;Larrodrigo;;W5.43;N40.72;12;
2;ESP;Salamanca;Ledesma;;W6.02;N41.13;12;
2;ESP;Salamanca;Ledrada;;W5.72;N40.48;12;
2;ESP;Salamanca;Linares de Riofrío;;W5.92;N40.58;12;
2;ESP;Salamanca;Lumbrales;;W6.69;N40.94;12;
2;ESP;Salamanca;Machacón;;W5.52;N40.92;12;
2;ESP;Salamanca;Macotera;;W5.29;N40.84;12;
2;ESP;Salamanca;Madroñal;;W6.06;N40.46;12;
2;ESP;Salamanca;El Maíllo;;W6.21;N40.56;12;
2;ESP;Salamanca;Malpartida;;W5.24;N40.76;12;
2;ESP;Salamanca;Mancera de Abajo;;W5.19;N40.84;12;
2;ESP;Salamanca;El Manzano;;W6.30;N41.18;12;
2;ESP;Salamanca;Martiago;;W6.48;N40.44;12;
2;ESP;Salamanca;Martín de Yeltes;;W6.29;N40.75;12;
2;ESP;Salamanca;Martinamor;;W5.58;N40.80;12;
2;ESP;Salamanca;Masueco;;W6.57;N41.20;12;
2;ESP;Salamanca;La Mata de Ledesma;;W5.98;N40.99;12;
2;ESP;Salamanca;Matilla de los Caños del Río;;W5.94;N40.83;12;
2;ESP;Salamanca;La Maya;;W5.61;N40.69;12;
2;ESP;Salamanca;Membribe de la Sierra;;W5.80;N40.71;12;
2;ESP;Salamanca;Mieza;;W6.69;N41.17;12;
2;ESP;Salamanca;El Milano;;W6.60;N41.10;12;
2;ESP;Salamanca;Miranda de Azán;;W5.69;N40.88;12;
2;ESP;Salamanca;Miranda del Castañar;;W5.99;N40.47;12;
2;ESP;Salamanca;Mogarraz;;W6.06;N40.50;12;
2;ESP;Salamanca;Molinillo;;W5.95;N40.47;12;
2;ESP;Salamanca;Monforte de la Sierra;;W6.06;N40.48;12;
2;ESP;Salamanca;Monleón;;W5.85;N40.58;12;
2;ESP;Salamanca;Monleras;;W6.23;N41.19;12;
2;ESP;Salamanca;Monsagro;;W6.24;N40.50;12;
2;ESP;Salamanca;Montejo;;W5.62;N40.65;12;
2;ESP;Salamanca;Montemayor del Río;;W5.89;N40.36;12;
2;ESP;Salamanca;Monterrubio de Armuña;;W5.65;N41.04;12;
2;ESP;Salamanca;Monterrubio de la Sierra;;W5.69;N40.76;12;
2;ESP;Salamanca;Morasverdes;;W6.28;N40.59;12;
2;ESP;Salamanca;Morille;;W5.70;N40.80;12;
2;ESP;Salamanca;Moríñigo;;W5.39;N40.96;12;
2;ESP;Salamanca;Moriscos;;W5.57;N41.01;12;
2;ESP;Salamanca;Moronta;;W6.43;N40.96;12;
2;ESP;Salamanca;Mozárbez;;W5.69;N40.85;12;
2;ESP;Salamanca;Narros de Matalayegua;;W5.89;N40.70;12;
2;ESP;Salamanca;Nava de Béjar;;W5.68;N40.48;12;
2;ESP;Salamanca;Nava de Francia;;W6.12;N40.53;12;
2;ESP;Salamanca;Nava de Sotrobal;;W5.29;N40.89;12;
2;ESP;Salamanca;Navacarros;;W5.70;N40.38;12;
2;ESP;Salamanca;Navales;;W5.47;N40.78;12;
2;ESP;Salamanca;Navalmoral de Béjar;;W5.79;N40.43;12;
2;ESP;Salamanca;Navamorales;;W5.49;N40.48;12;
2;ESP;Salamanca;Navarredonda de la Rinconada;;W6.00;N40.60;12;
2;ESP;Salamanca;Navasfrías;;W6.80;N40.30;12;
2;ESP;Salamanca;Negrilla de Palencia;;W5.60;N41.11;12;
2;ESP;Salamanca;Olmedo de Camaces;;W6.56;N40.86;12;
2;ESP;Salamanca;La Orbada;;W5.47;N41.11;12;
2;ESP;Salamanca;Pajares de la Laguna;;W5.51;N41.10;12;
2;ESP;Salamanca;Palacios del Arzobispo;;W5.89;N41.17;12;
2;ESP;Salamanca;Palaciosrubios;;W5.19;N41.06;12;
2;ESP;Salamanca;Palencia de Negrilla;;W5.62;N41.11;12;
2;ESP;Salamanca;Parada de Arriba;;W5.81;N40.98;12;
2;ESP;Salamanca;Parada de Rubiales;;W5.43;N41.15;12;
2;ESP;Salamanca;Paradinas de San Juan;;W5.17;N40.97;12;
2;ESP;Salamanca;Pastores;;W6.50;N40.52;12;
2;ESP;Salamanca;El Payo;;W6.73;N40.30;12;
2;ESP;Salamanca;Pedraza de Alba;;W5.37;N40.74;12;
2;ESP;Salamanca;Pedrosillo de Alba;;W5.41;N40.82;12;
2;ESP;Salamanca;Pedrosillo de los Aires;;W5.69;N40.69;12;
2;ESP;Salamanca;Pedrosillo el Ralo;;W5.55;N41.06;12;
2;ESP;Salamanca;El Pedroso de la Armuña;;W5.40;N41.09;12;
2;ESP;Salamanca;Pelabravo;;W5.59;N40.94;12;
2;ESP;Salamanca;Pelarrodríguez;;W6.21;N40.87;12;
2;ESP;Salamanca;Pelayos;;W5.56;N40.66;12;
2;ESP;Salamanca;La Peña;;W6.53;N41.19;12;
2;ESP;Salamanca;Peñacaballera;;W5.86;N40.34;12;
2;ESP;Salamanca;Peñaparda;;W6.66;N40.32;12;
2;ESP;Salamanca;Peñaranda de Bracamonte;;W5.21;N40.90;12;
2;ESP;Salamanca;Peñarandilla;;W5.39;N40.88;12;
2;ESP;Salamanca;Peralejos de Abajo;;W6.36;N41.01;12;
2;ESP;Salamanca;Peralejos de Arriba;;W6.32;N41.00;12;
2;ESP;Salamanca;Pereña de la Ribera;;W6.53;N41.22;12;
2;ESP;Salamanca;Peromingo;;W5.77;N40.46;12;
2;ESP;Salamanca;Pinedas;;W5.97;N40.45;12;
2;ESP;Salamanca;El Pino de Tormes;;W5.81;N41.03;12;
2;ESP;Salamanca;Pitiegua;;W5.45;N41.06;12;
2;ESP;Salamanca;Pizarral;;W5.65;N40.62;12;
2;ESP;Salamanca;Poveda de las Cintas;;W5.27;N41.05;12;
2;ESP;Salamanca;Pozos de Hinojo;;W6.38;N40.94;12;
2;ESP;Salamanca;Puebla de Azaba;;W6.73;N40.44;12;
2;ESP;Salamanca;Puebla de San Medel;;W5.74;N40.50;12;
2;ESP;Salamanca;Puebla de Yeltes;;W6.19;N40.61;12;
2;ESP;Salamanca;Puente del Congosto;;W5.52;N40.50;12;
2;ESP;Salamanca;Puertas;;W6.26;N41.11;12;
2;ESP;Salamanca;Puerto de Béjar;;W5.83;N40.35;12;
2;ESP;Salamanca;Puerto Seguro;;W6.77;N40.82;12;
2;ESP;Salamanca;Rágama;;W5.12;N41.00;12;
2;ESP;Salamanca;La Redonda;;W6.74;N40.91;12;
2;ESP;Salamanca;Retortillo;;W6.41;N40.80;12;
2;ESP;Salamanca;La Rinconada de la Sierra;;W6.04;N40.62;12;
2;ESP;Salamanca;Robleda;;W6.60;N40.39;12;
2;ESP;Salamanca;Robliza de Cojos;;W5.97;N40.85;12;
2;ESP;Salamanca;Rollán;;W5.92;N40.96;12;
2;ESP;Salamanca;Saelices el Chico;;W6.62;N40.65;12;
2;ESP;Salamanca;La Sagrada;;W6.07;N40.74;12;
2;ESP;Salamanca;El Sahugo;;W6.55;N40.42;12;
2;ESP;Salamanca;Salamanca;;W5.66;N40.97;10;
2;ESP;Salamanca;Saldeana;;W6.63;N41.01;12;
2;ESP;Salamanca;Salmoral;;W5.21;N40.81;12;
2;ESP;Salamanca;Salvatierra de Tormes;;W5.58;N40.59;12;
2;ESP;Salamanca;San Cristóbal de la Cuesta;;W5.62;N41.03;12;
2;ESP;Salamanca;San Esteban de la Sierra;;W5.88;N40.51;12;
2;ESP;Salamanca;San Felices de los Gallegos;;W6.70;N40.83;12;
2;ESP;Salamanca;San Martín del Castañar;;W6.08;N40.52;12;
2;ESP;Salamanca;San Miguel de Valero;;W5.95;N40.56;12;
2;ESP;Salamanca;San Miguel del Robledo;;W6.04;N40.54;12;
2;ESP;Salamanca;San Morales;;W5.50;N40.99;12;
2;ESP;Salamanca;San Muñoz;;W6.13;N40.76;12;
2;ESP;Salamanca;San Pedro de Rozados;;W5.78;N40.81;12;
2;ESP;Salamanca;San Pedro del Valle;;W5.86;N41.05;12;
2;ESP;Salamanca;San Pelayo de Guareña;;W5.87;N41.12;12;
2;ESP;Salamanca;Sanchón de la Ribera;;W6.39;N41.10;12;
2;ESP;Salamanca;Sanchón de la Sagrada;;W6.02;N40.76;12;
2;ESP;Salamanca;Sanchotello;;W5.75;N40.44;12;
2;ESP;Salamanca;Sancti-Spíritus;;W5.18;N38.92;12;
2;ESP;Salamanca;Sando;;W6.10;N40.95;12;
2;ESP;Salamanca;Santa María de Sando;;W6.14;N40.98;12;
2;ESP;Salamanca;Santa Marta de Tormes;;W5.62;N40.95;12;
2;ESP;Salamanca;Santiago de la Puebla;;W5.29;N40.80;12;
2;ESP;Salamanca;Santibáñez de Béjar;;W5.60;N40.50;12;
2;ESP;Salamanca;Santibáñez de la Sierra;;W5.92;N40.50;12;
2;ESP;Salamanca;Santiz;;W5.89;N41.21;12;
2;ESP;Salamanca;Los Santos;;W5.81;N40.54;12;
2;ESP;Salamanca;Sardón de los Frailes;;W6.27;N41.22;12;
2;ESP;Salamanca;Saucelle;;W6.75;N41.04;12;
2;ESP;Salamanca;Sepulcro-Hilario;;W6.20;N40.70;12;
2;ESP;Salamanca;Sequeros;;W6.03;N40.51;12;
2;ESP;Salamanca;Serradilla del Arroyo;;W6.34;N40.55;12;
2;ESP;Salamanca;Serradilla del Llano;;W6.36;N40.50;12;
2;ESP;Salamanca;La Sierpe;;W5.86;N40.65;12;
2;ESP;Salamanca;Sieteiglesias de Tormes;;W5.59;N40.74;12;
2;ESP;Salamanca;Sobradillo;;W6.82;N40.92;12;
2;ESP;Salamanca;Sorihuela;;W5.67;N40.45;12;
2;ESP;Salamanca;Sotoserrano;;W6.05;N40.40;12;
2;ESP;Salamanca;Tabera de Abajo;;W6.02;N40.93;12;
2;ESP;Salamanca;La Tala;;W5.53;N40.59;12;
2;ESP;Salamanca;Tamames;;W6.08;N40.66;12;
2;ESP;Salamanca;Tarazona de Guareña;;W5.26;N41.17;12;
2;ESP;Salamanca;Tardáguila;;W5.58;N41.14;12;
2;ESP;Salamanca;El Tejado;;W5.53;N40.45;12;
2;ESP;Salamanca;Tejeda y Segoyuela;;W6.01;N40.65;12;
2;ESP;Salamanca;Tenebrón;;W6.35;N40.60;12;
2;ESP;Salamanca;Terradillos;;W5.57;N40.85;12;
2;ESP;Salamanca;Topas;;W5.66;N41.18;12;
2;ESP;Salamanca;Tordillos;;W5.35;N40.86;12;
2;ESP;Salamanca;El Tornadizo;;W5.87;N40.54;12;
2;ESP;Salamanca;Torresmenudas;;W5.78;N41.10;12;
2;ESP;Salamanca;Trabanca;;W6.37;N41.24;12;
2;ESP;Salamanca;Tremedal de Tormes;;W6.18;N41.10;12;
2;ESP;Salamanca;Valdecarros;;W5.42;N40.77;12;
2;ESP;Salamanca;Valdefuentes de Sangusín;;W5.82;N40.47;12;
2;ESP;Salamanca;Valdehijaderos;;W5.85;N40.42;12;
2;ESP;Salamanca;Valdelacasa;;W5.76;N40.51;12;
2;ESP;Salamanca;Valdelageve;;W6.00;N40.38;12;
2;ESP;Salamanca;Valdelosa;;W5.78;N41.19;12;
2;ESP;Salamanca;Valdemierque;;W5.58;N40.83;12;
2;ESP;Salamanca;Valderrodrigo;;W6.51;N41.08;12;
2;ESP;Salamanca;Valdunciel;;W5.68;N41.11;12;
2;ESP;Salamanca;Valero;;W5.96;N40.54;12;
2;ESP;Salamanca;Vallejera de Riofrío;;W5.72;N40.42;12;
2;ESP;Salamanca;Valsalabroso;;W6.49;N41.10;12;
2;ESP;Salamanca;Valverde de Valdelacasa;;W5.78;N40.49;12;
2;ESP;Salamanca;Valverdón;;W5.74;N41.05;12;
2;ESP;Salamanca;Vecinos;;W5.88;N40.78;12;
2;ESP;Salamanca;Vega de Tirados;;W5.90;N41.04;12;
2;ESP;Salamanca;Las Veguillas;;W5.83;N40.74;12;
2;ESP;Salamanca;La Vellés;;W5.57;N41.08;12;
2;ESP;Salamanca;Ventosa del Río Almar;;W5.35;N40.93;12;
2;ESP;Salamanca;La Vídola;;W6.48;N41.15;12;
2;ESP;Salamanca;Villaflores;;W5.25;N41.10;12;
2;ESP;Salamanca;Villagonzalo de Tormes;;W5.51;N40.90;12;
2;ESP;Salamanca;Villalba de los Llanos;;W5.97;N40.79;12;
2;ESP;Salamanca;Villamayor;;W5.70;N41.00;12;
2;ESP;Salamanca;Villanueva del Conde;;W6.01;N40.51;12;
2;ESP;Salamanca;Villar de Argañán;;W6.71;N40.68;12;
2;ESP;Salamanca;Villar de Ciervo;;W6.77;N40.76;12;
2;ESP;Salamanca;Villar de Gallimazo;;W5.29;N40.95;12;
2;ESP;Salamanca;Villar de la Yegua;;W6.71;N40.72;12;
2;ESP;Salamanca;Villar de Peralonso;;W6.21;N41.04;12;
2;ESP;Salamanca;Villar de Samaniego;;W6.43;N41.12;12;
2;ESP;Salamanca;Villares de la Reina;;W5.66;N41.01;12;
2;ESP;Salamanca;Villares de Yeltes;;W6.42;N40.88;12;
2;ESP;Salamanca;Villarino de los Aires;;W6.44;N41.23;12;
2;ESP;Salamanca;Villarmayor;;W5.96;N41.04;12;
2;ESP;Salamanca;Villarmuerto;;W6.35;N41.07;12;
2;ESP;Salamanca;Villasbuenas;;W6.59;N41.03;12;
2;ESP;Salamanca;Villasdardo;;W6.17;N41.01;12;
2;ESP;Salamanca;Villaseco de los Gamitos;;W6.10;N41.04;12;
2;ESP;Salamanca;Villaseco de los Reyes;;W6.15;N41.14;12;
2;ESP;Salamanca;Villasrubias;;W6.62;N40.32;12;
2;ESP;Salamanca;Villaverde de Guareña;;W5.51;N41.07;12;
2;ESP;Salamanca;Villavieja de Yeltes;;W6.46;N40.87;12;
2;ESP;Salamanca;Villoria;;W5.36;N40.99;12;
2;ESP;Salamanca;Villoruela;;W5.39;N41.01;12;
2;ESP;Salamanca;Vilvestre;;W6.74;N41.10;12;
2;ESP;Salamanca;Vitigudino;;W6.42;N41.01;12;
2;ESP;Salamanca;Yecla de Yeltes;;W6.48;N40.95;12;
2;ESP;Salamanca;Zamarra;;W6.44;N40.50;12;
2;ESP;Salamanca;Zamayón;;W5.83;N41.16;12;
2;ESP;Salamanca;Zarapicos;;W5.84;N41.04;12;
2;ESP;Salamanca;La Zarza de Pumareda;;W6.62;N41.16;12;
2;ESP;Salamanca;Zorita de la Frontera;;W5.20;N41.01;12;
