Level;Country;State;County;Place;Longitude;Latitude;ZoomLevel;Icon
2;ESP;Zaragoza;Abanto;;W1.68;N41.13;12;
2;ESP;Zaragoza;Acered;;W1.60;N41.16;12;
2;ESP;Zaragoza;Agón;;W1.44;N41.85;12;
2;ESP;Zaragoza;Aguarón;;W1.30;N41.33;12;
2;ESP;Zaragoza;Aguilón;;W1.03;N41.29;12;
2;ESP;Zaragoza;Ainzón;;W1.52;N41.79;12;
2;ESP;Zaragoza;Aladrén;;W1.15;N41.24;12;
2;ESP;Zaragoza;Alagón;;W1.12;N41.77;12;
2;ESP;Zaragoza;Alarba;;W1.61;N41.21;12;
2;ESP;Zaragoza;Alberite de San Juan;;W1.46;N41.81;12;
2;ESP;Zaragoza;Albeta;;W1.50;N41.83;12;
2;ESP;Zaragoza;Alborge;;W0.35;N41.34;12;
2;ESP;Zaragoza;Alcalá de Ebro;;W1.19;N41.82;12;
2;ESP;Zaragoza;Alcalá de Moncayo;;W1.69;N41.80;12;
2;ESP;Zaragoza;Alconchel de Ariza;;W2.09;N41.22;12;
2;ESP;Zaragoza;Aldehuela de Liestos;;W1.72;N41.06;12;
2;ESP;Zaragoza;Alfajarín;;W0.68;N41.62;12;
2;ESP;Zaragoza;Alfamén;;W1.21;N41.46;12;
2;ESP;Zaragoza;Alforque;;W0.39;N41.35;12;
2;ESP;Zaragoza;Alhama de Aragón;;W1.90;N41.30;12;
2;ESP;Zaragoza;Almochuel;;W0.56;N41.30;12;
2;ESP;Zaragoza;La Almolda;;W0.24;N41.54;12;
2;ESP;Zaragoza;Almonacid de la Cuba;;W0.79;N41.28;12;
2;ESP;Zaragoza;Almonacid de la Sierra;;W1.33;N41.41;12;
2;ESP;Zaragoza;La Almunia de Doña Godina;;W1.37;N41.48;12;
2;ESP;Zaragoza;Alpartir;;W1.38;N41.40;12;
2;ESP;Zaragoza;Ambel;;W1.62;N41.77;12;
2;ESP;Zaragoza;Anento;;W1.33;N41.07;12;
2;ESP;Zaragoza;Aniñón;;W1.71;N41.47;12;
2;ESP;Zaragoza;Añón de Moncayo;;W1.75;N41.77;12;
2;ESP;Zaragoza;Aranda de Moncayo;;W1.79;N41.60;12;
2;ESP;Zaragoza;Arándiga;;W1.50;N41.51;12;
2;ESP;Zaragoza;Ardisa;;W0.78;N42.19;12;
2;ESP;Zaragoza;Ariza;;W2.04;N41.31;12;
2;ESP;Zaragoza;Artieda;;W0.99;N42.59;12;
2;ESP;Zaragoza;Asín;;W1.05;N42.27;12;
2;ESP;Zaragoza;Atea;;W1.55;N41.15;12;
2;ESP;Zaragoza;Ateca;;W1.81;N41.34;12;
2;ESP;Zaragoza;Azuara;;W0.88;N41.22;12;
2;ESP;Zaragoza;Badules;;W1.23;N41.17;12;
2;ESP;Zaragoza;Bagüés;;W0.94;N42.54;12;
2;ESP;Zaragoza;Balconchán;;W1.49;N41.07;12;
2;ESP;Zaragoza;Bárboles;;W1.17;N41.72;12;
2;ESP;Zaragoza;Bardallur;;W1.20;N41.69;12;
2;ESP;Zaragoza;Belchite;;W0.69;N41.34;12;
2;ESP;Zaragoza;Belmonte de Gracián;;W1.49;N41.33;12;
2;ESP;Zaragoza;Berdejo;;W1.95;N41.57;12;
2;ESP;Zaragoza;Berrueco;;W1.48;N40.98;12;
2;ESP;Zaragoza;Biel;;W0.91;N42.36;12;
2;ESP;Zaragoza;Bijuesca;;W1.91;N41.54;12;
2;ESP;Zaragoza;Biota;;W1.17;N42.25;12;
2;ESP;Zaragoza;Bisimbre;;W1.42;N41.86;12;
2;ESP;Zaragoza;Boquiñeni;;W1.27;N41.84;12;
2;ESP;Zaragoza;Bordalba;;W2.08;N41.41;12;
2;ESP;Zaragoza;Borja;;W1.55;N41.84;12;
2;ESP;Zaragoza;Botorrita;;W1.03;N41.48;12;
2;ESP;Zaragoza;Brea de Aragón;;W1.60;N41.53;12;
2;ESP;Zaragoza;Bubierca;;W1.87;N41.32;12;
2;ESP;Zaragoza;Bujaraloz;;W0.14;N41.45;12;
2;ESP;Zaragoza;Bulbuente;;W1.62;N41.83;12;
2;ESP;Zaragoza;Bureta;;W1.49;N41.80;12;
2;ESP;Zaragoza;El Burgo de Ebro;;W0.72;N41.57;12;
2;ESP;Zaragoza;El Buste;;W1.60;N41.90;12;
2;ESP;Zaragoza;Cabañas de Ebro;;W1.17;N41.80;12;
2;ESP;Zaragoza;Cabolafuente;;W2.04;N41.22;12;
2;ESP;Zaragoza;Cadrete;;W0.95;N41.55;12;
2;ESP;Zaragoza;Calatayud;;W1.62;N41.39;12;
2;ESP;Zaragoza;Calatorao;;W1.31;N41.53;12;
2;ESP;Zaragoza;Calcena;;W1.73;N41.67;12;
2;ESP;Zaragoza;Calmarza;;W1.93;N41.17;12;
2;ESP;Zaragoza;Campillo de Aragón;;W1.84;N41.13;12;
2;ESP;Zaragoza;Carenas;;W1.80;N41.26;12;
2;ESP;Zaragoza;Cariñena;;W1.21;N41.35;12;
2;ESP;Zaragoza;Caspe;;W0.02;N41.27;12;
2;ESP;Zaragoza;Castejón de Alarba;;W1.65;N41.18;12;
2;ESP;Zaragoza;Castejón de las Armas;;W1.82;N41.30;12;
2;ESP;Zaragoza;Castejón de Valdejasa;;W1.00;N41.99;12;
2;ESP;Zaragoza;Castiliscar;;W1.28;N42.36;12;
2;ESP;Zaragoza;Cervera de la Cañada;;W1.74;N41.42;12;
2;ESP;Zaragoza;Cerveruela;;W1.21;N41.22;12;
2;ESP;Zaragoza;Cetina;;W1.96;N41.26;12;
2;ESP;Zaragoza;Chiprana;;W0.16;N41.27;12;
2;ESP;Zaragoza;Chodes;;W1.48;N41.49;12;
2;ESP;Zaragoza;Cimballa;;W1.76;N41.09;12;
2;ESP;Zaragoza;Cinco Olivas;;W0.37;N41.34;12;
2;ESP;Zaragoza;Clarés de Ribota;;W1.84;N41.53;12;
2;ESP;Zaragoza;Codo;;W0.67;N41.34;12;
2;ESP;Zaragoza;Codos;;W1.36;N41.29;12;
2;ESP;Zaragoza;Contamina;;W1.93;N41.26;12;
2;ESP;Zaragoza;Cosuenda;;W1.31;N41.36;12;
2;ESP;Zaragoza;Cuarte de Huerva;;W0.93;N41.59;12;
2;ESP;Zaragoza;Cubel;;W1.62;N41.10;12;
2;ESP;Zaragoza;Las Cuerlas;;W1.56;N40.96;12;
2;ESP;Zaragoza;Daroca;;W1.41;N41.11;12;
2;ESP;Zaragoza;Ejea de los Caballeros;;W1.15;N42.16;12;
2;ESP;Zaragoza;Embid de Ariza;;W1.95;N41.38;12;
2;ESP;Zaragoza;Encinacorba;;W1.28;N41.29;12;
2;ESP;Zaragoza;Épila;;W1.33;N41.59;12;
2;ESP;Zaragoza;Erla;;W0.98;N42.11;12;
2;ESP;Zaragoza;Escatrón;;W0.28;N41.27;12;
2;ESP;Zaragoza;Fabara;;E0.17;N41.20;12;
2;ESP;Zaragoza;Farlete;;W0.53;N41.70;12;
2;ESP;Zaragoza;Fayón;;E0.32;N41.27;12;
2;ESP;Zaragoza;Los Fayos;;W1.80;N41.88;12;
2;ESP;Zaragoza;Figueruelas;;W1.18;N41.77;12;
2;ESP;Zaragoza;Fombuena;;W1.19;N41.17;12;
2;ESP;Zaragoza;El Frago;;W0.93;N42.28;12;
2;ESP;Zaragoza;El Frasno;;W1.50;N41.41;12;
2;ESP;Zaragoza;Fréscano;;W1.46;N41.88;12;
2;ESP;Zaragoza;Fuendejalón;;W1.46;N41.73;12;
2;ESP;Zaragoza;Fuendetodos;;W0.92;N41.36;12;
2;ESP;Zaragoza;Fuentes de Ebro;;W0.63;N41.49;12;
2;ESP;Zaragoza;Fuentes de Jiloca;;W1.55;N41.22;12;
2;ESP;Zaragoza;Gallocanta;;W1.52;N40.99;12;
2;ESP;Zaragoza;Gallur;;W1.32;N41.87;12;
2;ESP;Zaragoza;Gelsa;;W0.455;N41.410;10;
2;ESP;Zaragoza;Godojos;;W1.87;N41.26;12;
2;ESP;Zaragoza;Gotor;;W1.66;N41.55;12;
2;ESP;Zaragoza;Grisel;;W1.72;N41.87;12;
2;ESP;Zaragoza;Grisén;;W1.16;N41.74;12;
2;ESP;Zaragoza;Herrera de los Navarros;;W1.08;N41.22;12;
2;ESP;Zaragoza;Ibdes;;W1.86;N41.22;12;
2;ESP;Zaragoza;Illueca;;W1.63;N41.54;12;
2;ESP;Zaragoza;Isuerre;;W1.06;N42.48;12;
2;ESP;Zaragoza;Jaraba;;W1.90;N41.20;12;
2;ESP;Zaragoza;Jarque;;W1.69;N41.57;12;
2;ESP;Zaragoza;Jaulín;;W0.98;N41.43;12;
2;ESP;Zaragoza;La Joyosa;;W1.08;N41.75;12;
2;ESP;Zaragoza;Lagata;;W0.80;N41.21;12;
2;ESP;Zaragoza;Langa del Castillo;;W1.39;N41.23;12;
2;ESP;Zaragoza;Layana;;W1.24;N42.30;12;
2;ESP;Zaragoza;Lécera;;W0.70;N41.20;10;
2;ESP;Zaragoza;Lechón;;W1.28;N41.09;12;
2;ESP;Zaragoza;Leciñena;;W0.65;N41.86;12;
2;ESP;Zaragoza;Letux;;W0.79;N41.23;12;
2;ESP;Zaragoza;Litago;;W1.76;N41.80;12;
2;ESP;Zaragoza;Lituénigo;;W1.77;N41.83;12;
2;ESP;Zaragoza;Lobera de Onsella;;W1.01;N42.47;12;
2;ESP;Zaragoza;Longares;;W1.15;N41.39;12;
2;ESP;Zaragoza;Longás;;W0.93;N42.47;12;
2;ESP;Zaragoza;Lucena de Jalón;;W1.30;N41.56;12;
2;ESP;Zaragoza;Luceni;;W1.25;N41.82;12;
2;ESP;Zaragoza;Luesia;;W1.01;N42.36;12;
2;ESP;Zaragoza;Luesma;;W1.15;N41.18;12;
2;ESP;Zaragoza;Lumpiaque;;W1.35;N41.64;12;
2;ESP;Zaragoza;Luna;;W0.92;N42.18;12;
2;ESP;Zaragoza;Maella;;E0.10;N41.11;12;
2;ESP;Zaragoza;Magallón;;W1.41;N41.83;12;
2;ESP;Zaragoza;Mainar;;W1.30;N41.22;12;
2;ESP;Zaragoza;Malanquilla;;W1.88;N41.58;12;
2;ESP;Zaragoza;Maleján;;W1.55;N41.83;12;
2;ESP;Zaragoza;Mallén;;W1.43;N41.90;12;
2;ESP;Zaragoza;Malón;;W1.67;N41.95;12;
2;ESP;Zaragoza;Maluenda;;W1.63;N41.26;12;
2;ESP;Zaragoza;Manchones;;W1.44;N41.16;12;
2;ESP;Zaragoza;Mara;;W1.52;N41.28;12;
2;ESP;Zaragoza;María de Huerva;;W1.03;N41.53;12;
2;ESP;Zaragoza;Marracos;;W0.78;N42.10;12;
2;ESP;Zaragoza;Mediana de Aragón;;W0.73;N41.45;12;
2;ESP;Zaragoza;Mequinenza;;E0.25;N41.32;12;
2;ESP;Zaragoza;Mesones de Isuela;;W1.54;N41.58;12;
2;ESP;Zaragoza;Mezalocha;;W1.06;N41.42;12;
2;ESP;Zaragoza;Mianos;;W0.94;N42.59;12;
2;ESP;Zaragoza;Miedes de Aragón;;W1.45;N41.25;12;
2;ESP;Zaragoza;Monegrillo;;W0.42;N41.65;12;
2;ESP;Zaragoza;Moneva;;W0.82;N41.15;12;
2;ESP;Zaragoza;Monreal de Ariza;;W2.11;N41.29;12;
2;ESP;Zaragoza;Monterde;;W1.76;N41.17;12;
2;ESP;Zaragoza;Montón;;W1.52;N41.21;12;
2;ESP;Zaragoza;Morata de Jalón;;W1.46;N41.45;12;
2;ESP;Zaragoza;Morata de Jiloca;;W1.58;N41.24;12;
2;ESP;Zaragoza;Morés;;W1.57;N41.48;12;
2;ESP;Zaragoza;Moros;;W1.84;N41.40;12;
2;ESP;Zaragoza;Moyuela;;W0.92;N41.15;12;
2;ESP;Zaragoza;Mozota;;W1.05;N41.48;12;
2;ESP;Zaragoza;Muel;;W1.11;N41.47;12;
2;ESP;Zaragoza;La Muela;;W1.09;N41.56;12;
2;ESP;Zaragoza;Munébrega;;W1.72;N41.25;12;
2;ESP;Zaragoza;Murero;;W1.49;N41.17;12;
2;ESP;Zaragoza;Murillo de Gállego;;W0.78;N42.27;12;
2;ESP;Zaragoza;Navardún;;W1.13;N42.51;12;
2;ESP;Zaragoza;Nigüella;;W1.51;N41.56;12;
2;ESP;Zaragoza;Nombrevilla;;W1.35;N41.11;12;
2;ESP;Zaragoza;Nonaspe;;E0.25;N41.21;12;
2;ESP;Zaragoza;Novallas;;W1.71;N41.95;12;
2;ESP;Zaragoza;Novillas;;W1.38;N41.92;12;
2;ESP;Zaragoza;Nuévalos;;W1.77;N41.20;12;
2;ESP;Zaragoza;Nuez de Ebro;;W0.69;N41.58;12;
2;ESP;Zaragoza;Olvés;;W1.66;N41.23;12;
2;ESP;Zaragoza;Orcajo;;W1.51;N41.11;12;
2;ESP;Zaragoza;Orera;;W1.45;N41.31;12;
2;ESP;Zaragoza;Orés;;W1.01;N42.26;12;
2;ESP;Zaragoza;Oseja;;W1.70;N41.61;12;
2;ESP;Zaragoza;Osera de Ebro;;W0.57;N41.53;12;
2;ESP;Zaragoza;Paniza;;W1.211;N41.284;10;
2;ESP;Zaragoza;Paracuellos de Jiloca;;W1.66;N41.30;12;
2;ESP;Zaragoza;Paracuellos de la Ribera;;W1.55;N41.43;12;
2;ESP;Zaragoza;Pastriz;;W0.76;N41.61;12;
2;ESP;Zaragoza;Pedrola;;W1.23;N41.77;12;
2;ESP;Zaragoza;Las Pedrosas;;W0.88;N42.03;12;
2;ESP;Zaragoza;Perdiguera;;W0.61;N41.75;12;
2;ESP;Zaragoza;Piedratajada;;W0.78;N42.11;12;
2;ESP;Zaragoza;Pina de Ebro;;W0.526;N41.492;10;
2;ESP;Zaragoza;Pinseque;;W1.08;N41.73;12;
2;ESP;Zaragoza;Los Pintanos;;W1.04;N42.56;12;
2;ESP;Zaragoza;Plasencia de Jalón;;W1.25;N41.69;12;
2;ESP;Zaragoza;Pleitas;;W1.20;N41.71;12;
2;ESP;Zaragoza;Plenas;;W0.95;N41.11;12;
2;ESP;Zaragoza;Pomer;;W1.84;N41.63;12;
2;ESP;Zaragoza;Pozuel de Ariza;;W2.13;N41.35;12;
2;ESP;Zaragoza;Pozuelo de Aragón;;W1.38;N41.75;12;
2;ESP;Zaragoza;Pradilla de Ebro;;W1.23;N41.87;12;
2;ESP;Zaragoza;Puebla de Albortón;;W0.85;N41.40;12;
2;ESP;Zaragoza;La Puebla de Alfindén;;W0.74;N41.64;12;
2;ESP;Zaragoza;Puendeluna;;W0.77;N42.15;12;
2;ESP;Zaragoza;Purujosa;;W1.76;N41.69;12;
2;ESP;Zaragoza;Quinto;;W0.52;N41.41;12;
2;ESP;Zaragoza;Remolinos;;W1.18;N41.84;12;
2;ESP;Zaragoza;Retascón;;W1.39;N41.16;12;
2;ESP;Zaragoza;Ricla;;W1.41;N41.52;12;
2;ESP;Zaragoza;Romanos;;W1.29;N41.12;12;
2;ESP;Zaragoza;Rueda de Jalón;;W1.35;N41.66;12;
2;ESP;Zaragoza;Ruesca;;W1.46;N41.28;12;
2;ESP;Zaragoza;Sabiñán;;W1.56;N41.45;12;
2;ESP;Zaragoza;Sádaba;;W1.32;N42.28;12;
2;ESP;Zaragoza;Salillas de Jalón;;W1.32;N41.56;12;
2;ESP;Zaragoza;Salvatierra de Esca;;W0.95;N42.69;12;
2;ESP;Zaragoza;Samper del Salz;;W0.83;N41.21;12;
2;ESP;Zaragoza;San Martín de la Virgen de Moncayo;;W1.79;N41.84;12;
2;ESP;Zaragoza;San Mateo de Gállego;;W0.72;N41.86;12;
2;ESP;Zaragoza;Santa Cruz de Grío;;W1.42;N41.38;12;
2;ESP;Zaragoza;Santa Cruz de Moncayo;;W1.76;N41.88;12;
2;ESP;Zaragoza;Santa Eulalia de Gállego;;W0.78;N42.27;12;
2;ESP;Zaragoza;Santed;;W1.51;N41.04;12;
2;ESP;Zaragoza;Sástago;;W0.28;N41.32;12;
2;ESP;Zaragoza;Sediles;;W1.52;N41.36;12;
2;ESP;Zaragoza;Sestrica;;W1.63;N41.48;12;
2;ESP;Zaragoza;Sierra de Luna;;W0.93;N42.04;12;
2;ESP;Zaragoza;Sigüés;;W1.03;N42.62;12;
2;ESP;Zaragoza;Sisamón;;W2.00;N41.19;12;
2;ESP;Zaragoza;Sobradiel;;W1.03;N41.74;12;
2;ESP;Zaragoza;Sos del Rey Católico;;W1.214;N42.499;10;
2;ESP;Zaragoza;Tabuenca;;W1.52;N41.68;12;
2;ESP;Zaragoza;Talamantes;;W1.67;N41.72;12;
2;ESP;Zaragoza;Tarazona;;W1.74;N41.89;12;
2;ESP;Zaragoza;Tauste;;W1.19;N41.92;12;
2;ESP;Zaragoza;Terrer;;W1.73;N41.32;12;
2;ESP;Zaragoza;Tierga;;W1.58;N41.61;12;
2;ESP;Zaragoza;Tobed;;W1.39;N41.35;12;
2;ESP;Zaragoza;Torralba de los Frailes;;W1.66;N41.03;12;
2;ESP;Zaragoza;Torralba de Ribota;;W1.68;N41.42;12;
2;ESP;Zaragoza;Torralbilla;;W1.33;N41.23;12;
2;ESP;Zaragoza;Torrehermosa;;W2.12;N41.25;12;
2;ESP;Zaragoza;Torrelapaja;;W1.95;N41.59;12;
2;ESP;Zaragoza;Torrellas;;W1.77;N41.90;12;
2;ESP;Zaragoza;Torres de Berrellén;;W1.10;N41.80;12;
2;ESP;Zaragoza;Torrijo de la Cañada;;W1.88;N41.47;12;
2;ESP;Zaragoza;Tosos;;W1.11;N41.31;12;
2;ESP;Zaragoza;Trasmoz;;W1.74;N41.82;12;
2;ESP;Zaragoza;Trasobares;;W1.63;N41.66;12;
2;ESP;Zaragoza;Uncastillo;;W1.14;N42.37;12;
2;ESP;Zaragoza;Undués de Lerda;;W1.15;N42.59;12;
2;ESP;Zaragoza;Urrea de Jalón;;W1.24;N41.66;12;
2;ESP;Zaragoza;Urriés;;W1.10;N42.55;12;
2;ESP;Zaragoza;Used;;W1.58;N41.03;12;
2;ESP;Zaragoza;Utebo;;W1.00;N41.72;12;
2;ESP;Zaragoza;Val de San Martín;;W1.44;N41.05;12;
2;ESP;Zaragoza;Valdehorna;;W1.42;N41.06;12;
2;ESP;Zaragoza;Valmadrid;;W0.88;N41.45;12;
2;ESP;Zaragoza;Valpalmas;;W0.86;N42.16;12;
2;ESP;Zaragoza;Valtorres;;W1.74;N41.30;12;
2;ESP;Zaragoza;Velilla de Ebro;;W0.39;N41.38;12;
2;ESP;Zaragoza;Velilla de Jiloca;;W1.60;N41.27;12;
2;ESP;Zaragoza;Vera de Moncayo;;W1.68;N41.84;12;
2;ESP;Zaragoza;Vierlas;;W1.68;N41.93;12;
2;ESP;Zaragoza;Villadoz;;W1.26;N41.17;12;
2;ESP;Zaragoza;Villafeliche;;W1.50;N41.18;12;
2;ESP;Zaragoza;Villafranca de Ebro;;W0.61;N41.57;12;
2;ESP;Zaragoza;Villalba de Perejil;;W1.55;N41.34;12;
2;ESP;Zaragoza;Villalengua;;W1.88;N41.42;12;
2;ESP;Zaragoza;Villamayor de Gállego;;;;12;
2;ESP;Zaragoza;Villanueva de Gállego;;W0.85;N41.78;12;
2;ESP;Zaragoza;Villanueva de Huerva;;W1.04;N41.37;12;
2;ESP;Zaragoza;Villanueva de Jiloca;;W1.38;N41.08;12;
2;ESP;Zaragoza;Villar de los Navarros;;W1.01;N41.17;12;
2;ESP;Zaragoza;Villarreal de Huerva;;W1.27;N41.21;12;
2;ESP;Zaragoza;Villarroya de la Sierra;;W1.78;N41.48;12;
2;ESP;Zaragoza;Villarroya del Campo;;W1.33;N41.15;12;
2;ESP;Zaragoza;La Vilueña;;W1.72;N41.28;12;
2;ESP;Zaragoza;Vistabella;;W1.16;N41.21;12;
2;ESP;Zaragoza;La Zaida;;W0.43;N41.33;12;
2;ESP;Zaragoza;Zaragoza;;W0.88;N41.65;10;
2;ESP;Zaragoza;Zuera;;W0.75;N41.89;12;
