"Level";"Country";"County";"Place";"void";"Longitude";"Latitude";"ZoomLevel";"Icon"
2;England;Kent;Abbey Gate;;E0.50;N51.29;10;
2;England;Kent;Abbey Wood;;E0.10;N51.48;10;
2;England;Kent;Acol;;E1.30;N51.35;10;
2;England;Kent;Addington;;E0.36;N51.30;10;
2;England;Kent;Adisham;;E1.17;N51.23;10;
2;England;Kent;Aldington;;E0.94;N51.08;10;
2;England;Kent;Aldington Frith;;E0.91;N51.08;10;
2;England;Kent;Alkham;;E1.21;N51.13;10;
2;England;Kent;Allhallows;;E0.63;N51.46;10;
2;England;Kent;Allhallows-on-Sea;;E0.63;N51.47;10;
2;England;Kent;Allington;;E0.49;N51.28;10;
2;England;Kent;Anvil Green;;E1.00;N51.20;10;
2;England;Kent;Appledore;;E0.77;N51.02;10;
2;England;Kent;Appledore Heath;;E0.78;N51.03;10;
2;England;Kent;Arpinge;;E1.12;N51.10;10;
2;England;Kent;Ash (near Sandwich);;E1.28;N51.27;10;
2;England;Kent;Ashbank;;E0.60;N51.24;10;
2;England;Kent;Ash-cum-Ridley;;E0.29;N51.35;10;
2;England;Kent;Ashford;;E0.85;N51.14;10;
2;England;Kent;Ashley;;E1.29;N51.18;10;
2;England;Kent;Ashurst;;E0.15;N51.12;10;
2;England;Kent;Avery Hill;;E0.07;N51.44;10;
2;England;Kent;Aycliff;;E1.28;N51.11;10;
2;England;Kent;Aylesford;;E0.46;N51.29;10;
2;England;Kent;Aylesham;;E1.19;N51.22;10;
2;England;Kent;Badgers Mount;;E0.13;N51.33;10;
2;England;Kent;Badlesmere;;E0.86;N51.24;10;
2;England;Kent;Bagham;;E0.96;N51.23;10;
2;England;Kent;Baker's Cross;;E0.54;N51.08;10;
2;England;Kent;Bapchild;;E0.75;N51.32;10;
2;England;Kent;Barden Park;;E0.24;N51.19;10;
2;England;Kent;Barfrestone;;E1.23;N51.20;10;
2;England;Kent;Barham;;E1.14;N51.20;10;
2;England;Kent;Barming Heath;;E0.46;N51.26;10;
2;England;Kent;Barnehurst;;E0.15;N51.45;10;
2;England;Kent;Barnes Cray;;E0.18;N51.45;10;
2;England;Kent;Barnes Street;;E0.34;N51.20;10;
2;England;Kent;Barnfield;;E0.74;N51.19;10;
2;England;Kent;Barnsole;;E1.25;N51.25;10;
2;England;Kent;Barrow Green;;E0.79;N51.33;10;
2;England;Kent;Barrowhill;;E0.99;N51.09;10;
2;England;Kent;Basted;;E0.29;N51.27;10;
2;England;Kent;Bay View;;E0.88;N51.39;10;
2;England;Kent;Bayley's Hill;;E0.16;N51.23;10;
2;England;Kent;Beacon Hill;;E0.59;N51.05;10;
2;England;Kent;Beal's Green;;E0.50;N51.05;10;
2;England;Kent;Bean;;E0.27;N51.42;10;
2;England;Kent;Bearsted;;E0.56;N51.26;10;
2;England;Kent;Beckenham;;W0.03;N51.40;10;
2;England;Kent;Bedgebury Cross;;E0.44;N51.08;10;
2;England;Kent;Bekesbourne;;E1.13;N51.25;10;
2;England;Kent;Bekesbourne Hill;;E1.12;N51.26;10;
2;England;Kent;Bell Green;;W0.04;N51.43;10;
2;England;Kent;Bellingham;;W0.03;N51.42;10;
2;England;Kent;Beltinge;;E1.14;N51.36;10;
2;England;Kent;Beltring;;E0.38;N51.19;10;
2;England;Kent;Belvedere;;E0.14;N51.48;10;
2;England;Kent;Benenden;;E0.56;N51.05;10;
2;England;Kent;Benover;;E0.43;N51.20;10;
2;England;Kent;Berry's Green;;E0.05;N51.31;10;
2;England;Kent;Berwick;;E1.02;N51.07;10;
2;England;Kent;Bessels Green;;E0.14;N51.27;10;
2;England;Kent;Bethersden;;E0.74;N51.12;10;
2;England;Kent;Betsham;;E0.29;N51.41;10;
2;England;Kent;Betteshanger;;E1.30;N51.22;10;
2;England;Kent;Beult;;E0.44;N51.21;10;
2;England;Kent;Bewl;;E0.40;N51.06;10;
2;England;Kent;Bexley;;E0.10;N51.45;10;
2;England;Kent;Bexleyheath;;E0.12;N51.45;10;
2;England;Kent;Bexon;;E0.70;N51.29;10;
2;England;Kent;Bickley;;E0.04;N51.40;10;
2;England;Kent;Bicknor;;E0.66;N51.29;10;
2;England;Kent;Bidborough;;E0.23;N51.16;10;
2;England;Kent;Biddenden;;E0.62;N51.11;10;
2;England;Kent;Biddenden Green;;E0.68;N51.15;10;
2;England;Kent;Biggin Hill;;E0.02;N51.31;10;
2;England;Kent;Bilsington;;E0.91;N51.06;10;
2;England;Kent;Bilting;;E0.93;N51.20;10;
2;England;Kent;Birchington;;E1.30;N51.37;10;
2;England;Kent;Bircholt Forstal;;E0.97;N51.13;10;
2;England;Kent;Birling;;E0.40;N51.31;10;
2;England;Kent;Bishopsbourne;;E1.12;N51.22;10;
2;England;Kent;Bishopstone;;E1.15;N51.36;10;
2;England;Kent;Bitchet Green;;E0.24;N51.26;10;
2;England;Kent;Blacketts;;E0.78;N51.35;10;
2;England;Kent;Blackfen;;E0.08;N51.44;10;
2;England;Kent;Blackheath;;E0.00;N51.46;10;
2;England;Kent;Blackheath Park;;E0.01;N51.45;10;
2;England;Kent;Bladbean;;E1.10;N51.18;10;
2;England;Kent;Blean;;E1.04;N51.29;10;
2;England;Kent;Bliby;;E0.88;N51.09;10;
2;England;Kent;Blue Bell Hill;;E0.49;N51.33;10;
2;England;Kent;Blue Town;;E0.74;N51.44;10;
2;England;Kent;Bluetown;;E0.73;N51.28;10;
2;England;Kent;Bobbing;;E0.69;N51.35;10;
2;England;Kent;Bockhanger;;E0.87;N51.16;10;
2;England;Kent;Bodsham;;E1.00;N51.16;10;
2;England;Kent;Bonnington;;E0.92;N51.07;10;
2;England;Kent;Borden;;E0.69;N51.32;10;
2;England;Kent;Borough Green;;E0.29;N51.28;10;
2;England;Kent;Borstal;;E0.48;N51.36;10;
2;England;Kent;Bossingham;;E1.07;N51.19;10;
2;England;Kent;Bossington;;E1.19;N51.25;10;
2;England;Kent;Bottom Pond;;E0.70;N51.28;10;
2;England;Kent;Bough Beech;;E0.13;N51.19;10;
2;England;Kent;Bough Beech Reservoir;;E0.13;N51.20;10;
2;England;Kent;Boughton Aluph;;E0.90;N51.19;10;
2;England;Kent;Boughton Corner;;E0.91;N51.19;10;
2;England;Kent;Boughton Green;;E0.51;N51.23;10;
2;England;Kent;Boughton Lees;;E0.88;N51.18;10;
2;England;Kent;Boughton Malherbe;;E0.69;N51.20;10;
2;England;Kent;Boughton Monchelsea;;E0.51;N51.23;10;
2;England;Kent;Boughton Street;;E0.95;N51.29;10;
2;England;Kent;Bowmans;;E0.18;N51.43;10;
2;England;Kent;Boxley;;E0.53;N51.29;10;
2;England;Kent;Boyden Gate;;E1.18;N51.34;10;
2;England;Kent;Brabourne;;E1.00;N51.12;10;
2;England;Kent;Brabourne Lees;;E0.97;N51.12;10;
2;England;Kent;Bramling;;E1.18;N51.26;10;
2;England;Kent;Branbridges;;E0.38;N51.20;10;
2;England;Kent;Brasted;;E0.10;N51.27;10;
2;England;Kent;Brasted Chart;;E0.09;N51.25;10;
2;England;Kent;Brattle;;E0.76;N51.06;10;
2;England;Kent;Breach;;E0.64;N51.35;10;
2;England;Kent;Bredgar;;E0.69;N51.30;10;
2;England;Kent;Bredhurst;;E0.56;N51.32;10;
2;England;Kent;Brenchley;;E0.38;N51.14;10;
2;England;Kent;Brenzett;;E0.84;N51.00;10;
2;England;Kent;Brenzett Green;;E0.86;N51.01;10;
2;England;Kent;Bridge;;E1.12;N51.24;10;
2;England;Kent;Brissenden Green;;E0.75;N51.11;10;
2;England;Kent;Broad Ford;;E0.44;N51.12;10;
2;England;Kent;Broad Oak;;E0.91;N51.10;10;
2;England;Kent;Broad Oak;;E1.09;N51.30;10;
2;England;Kent;Broad Street;;E1.08;N51.11;10;
2;England;Kent;Broad Street;;E1.01;N51.12;10;
2;England;Kent;Broad Street;;E0.62;N51.27;10;
2;England;Kent;Broad Street;;E0.52;N51.41;10;
2;England;Kent;Broad Tenterden;;E0.68;N51.05;10;
2;England;Kent;Broadstairs;;E1.43;N51.35;10;
2;England;Kent;Broadstone;;E0.66;N51.19;10;
2;England;Kent;Brockley;;W0.04;N51.44;10;
2;England;Kent;Bromley;;E0.01;N51.40;10;
2;England;Kent;Bromley Common;;E0.02;N51.38;10;
2;England;Kent;Bromley Green;;E0.84;N51.08;10;
2;England;Kent;Bromley Park;;E0.00;N51.40;10;
2;England;Kent;Brompton;;E0.52;N51.38;10;
2;England;Kent;Bromstone;;E1.41;N51.35;10;
2;England;Kent;Brook;;E0.94;N51.15;10;
2;England;Kent;Brook Street;;E0.75;N51.06;10;
2;England;Kent;Brook Street;;E0.24;N51.18;10;
2;England;Kent;Brookland;;E0.82;N50.99;10;
2;England;Kent;Brooks End;;E1.28;N51.35;10;
2;England;Kent;Broom Hill;;E0.08;N51.37;10;
2;England;Kent;Broom Street;;E0.92;N51.32;10;
2;England;Kent;Broomfield;;E0.62;N51.23;10;
2;England;Kent;Broomfield;;E1.14;N51.35;10;
2;England;Kent;Broomhill;;E1.21;N51.27;10;
2;England;Kent;Broomhill Bank;;E0.22;N51.13;10;
2;England;Kent;Buckhurst;;E0.61;N51.13;10;
2;England;Kent;Buckland;;E1.28;N51.13;10;
2;England;Kent;Buckland Valley;;E1.28;N51.14;10;
2;England;Kent;Bulleign;;E0.68;N51.03;10;
2;England;Kent;Bullockstone;;E1.10;N51.34;10;
2;England;Kent;Burham;;E0.46;N51.33;10;
2;England;Kent;Burham Court;;E0.45;N51.33;10;
2;England;Kent;Burmarsh;;E0.99;N51.04;10;
2;England;Kent;Burntwick Island;;E0.67;N51.42;10;
2;England;Kent;Buttsole;;E1.29;N51.23;10;
2;England;Kent;Bybrook;;E0.87;N51.16;10;
2;England;Kent;Cage Green;;E0.27;N51.20;10;
2;England;Kent;Calcott;;E1.11;N51.31;10;
2;England;Kent;Camden Hill;;E0.55;N51.11;10;
2;England;Kent;Camden Park;;E0.27;N51.11;10;
2;England;Kent;Camer;;E0.36;N51.37;10;
2;England;Kent;Canterbury;;E1.06;N51.27;10;
2;England;Kent;Capel;;E0.33;N51.17;10;
2;England;Kent;Capel Cross;;E0.44;N51.13;10;
2;England;Kent;Capel-le-Ferne;;E1.19;N51.09;10;
2;England;Kent;Capstone;;E0.55;N51.35;10;
2;England;Kent;Castle Hill;;E0.41;N51.15;10;
2;England;Kent;Catford;;W0.01;N51.43;10;
2;England;Kent;Cellarhill;;E0.79;N51.32;10;
2;England;Kent;Chainhurst;;E0.47;N51.19;10;
2;England;Kent;Chalk;;E0.40;N51.43;10;
2;England;Kent;Chalksole;;E1.21;N51.14;10;
2;England;Kent;Chalkwell;;E0.71;N51.34;10;
2;England;Kent;Challock;;E0.86;N51.21;10;
2;England;Kent;Chamber's Green;;E0.74;N51.15;10;
2;England;Kent;Charcott;;E0.17;N51.20;10;
2;England;Kent;Charing;;E0.79;N51.20;10;
2;England;Kent;Charing Heath;;E0.74;N51.20;10;
2;England;Kent;Charing Hill;;E0.80;N51.21;10;
2;England;Kent;Charlton;;E0.02;N51.48;10;
2;England;Kent;Chart Corner;;E0.56;N51.22;10;
2;England;Kent;Chart Hill;;E0.56;N51.21;10;
2;England;Kent;Chart Sutton;;E0.56;N51.22;10;
2;England;Kent;Chartham;;E1.00;N51.24;10;
2;England;Kent;Chartham Hatch;;E1.00;N51.26;10;
2;England;Kent;Chatham;;E0.52;N51.35;10;
2;England;Kent;Chattenden;;E0.51;N51.41;10;
2;England;Kent;Chegworth;;E0.63;N51.23;10;
2;England;Kent;Chelsfield;;E0.09;N51.35;10;
2;England;Kent;Chequertree;;E0.89;N51.09;10;
2;England;Kent;Cheriton;;E1.12;N51.08;10;
2;England;Kent;Chesley;;E0.65;N51.33;10;
2;England;Kent;Chestfield;;E1.05;N51.34;10;
2;England;Kent;Chestnut Street;;E0.68;N51.33;10;
2;England;Kent;Chevening;;E0.12;N51.29;10;
2;England;Kent;Chiddingstone;;E0.13;N51.18;10;
2;England;Kent;Chiddingstone Causeway;;E0.17;N51.19;10;
2;England;Kent;Chiddingstone Hoath;;E0.12;N51.15;10;
2;England;Kent;Childsbridge;;E0.22;N51.29;10;
2;England;Kent;Chilham;;E0.95;N51.23;10;
2;England;Kent;Chillenden;;E1.23;N51.23;10;
2;England;Kent;Chillmill;;E0.38;N51.13;10;
2;England;Kent;Chilmington Green;;E0.82;N51.12;10;
2;England;Kent;Chilton;;E1.38;N51.32;10;
2;England;Kent;Chipstead;;E0.13;N51.28;10;
2;England;Kent;Chislehurst;;E0.06;N51.41;10;
2;England;Kent;Chislehurst West;;E0.05;N51.42;10;
2;England;Kent;Chislet;;E1.18;N51.33;10;
2;England;Kent;Chislet Forstal;;E1.17;N51.33;10;
2;England;Kent;Chitty;;E1.18;N51.33;10;
2;England;Kent;Church Hougham;;E1.24;N51.11;10;
2;England;Kent;Church Street;;E0.45;N51.43;10;
2;England;Kent;Church Whitfield;;E1.30;N51.15;10;
2;England;Kent;Cinder Hill;;E0.18;N51.19;10;
2;England;Kent;Clap Hill;;E0.92;N51.08;10;
2;England;Kent;Clapham Hill;;E1.01;N51.33;10;
2;England;Kent;Clapper Hill;;E0.62;N51.09;10;
2;England;Kent;Claygate;;E0.44;N51.16;10;
2;England;Kent;Claygate;;E0.29;N51.23;10;
2;England;Kent;Claygate Cross;;E0.30;N51.27;10;
2;England;Kent;Claypits;;E1.22;N51.24;10;
2;England;Kent;Clement Street;;E0.19;N51.40;10;
2;England;Kent;Cliffe;;E0.48;N51.45;10;
2;England;Kent;Cliffe Woods;;E0.48;N51.42;10;
2;England;Kent;Cliffs End;;E1.35;N51.32;10;
2;England;Kent;Cliftonville;;E1.39;N51.38;10;
2;England;Kent;Cobham;;E0.39;N51.38;10;
2;England;Kent;Cock Street;;E0.53;N51.22;10;
2;England;Kent;Cold Harbour;;E0.68;N51.34;10;
2;England;Kent;Coldblow;;E0.15;N51.43;10;
2;England;Kent;Coldharbour;;E0.18;N51.48;10;
2;England;Kent;Coldharbour;;E0.24;N51.22;10;
2;England;Kent;Coldred;;E1.24;N51.16;10;
2;England;Kent;Collier Street;;E0.44;N51.17;10;
2;England;Kent;Colt's Hill;;E0.34;N51.16;10;
2;England;Kent;Comp;;E0.33;N51.28;10;
2;England;Kent;Coney Hall;;E0.00;N51.35;10;
2;England;Kent;Congelow;;E0.41;N51.21;10;
2;England;Kent;Conyer;;E0.81;N51.34;10;
2;England;Kent;Cooling;;E0.51;N51.45;10;
2;England;Kent;Cooling Street;;E0.50;N51.43;10;
2;England;Kent;Coolinge;;E1.13;N51.08;10;
2;England;Kent;Coomb Hill;;E0.38;N51.35;10;
2;England;Kent;Coombe;;E1.28;N51.26;10;
2;England;Kent;Cooper Street;;E1.29;N51.28;10;
2;England;Kent;Cooper's Corner;;E0.11;N51.22;10;
2;England;Kent;Cop Street;;E1.28;N51.28;10;
2;England;Kent;Coppins Corner;;E0.77;N51.19;10;
2;England;Kent;Copton;;E0.88;N51.29;10;
2;England;Kent;Court-at-Street;;E0.98;N51.07;10;
2;England;Kent;Coxheath;;E0.49;N51.23;10;
2;England;Kent;Crabble;;E1.27;N51.14;10;
2;England;Kent;Cranbrook;;E0.52;N51.09;10;
2;England;Kent;Cranbrooke Common;;E0.54;N51.11;10;
2;England;Kent;Crayford;;E0.17;N51.44;10;
2;England;Kent;Creekmouth;;E0.08;N51.50;10;
2;England;Kent;Crit Hall;;E0.53;N51.06;10;
2;England;Kent;Crockenhill;;E0.15;N51.38;10;
2;England;Kent;Crockham Hill;;E0.06;N51.23;10;
2;England;Kent;Crockhurst Street;;E0.31;N51.17;10;
2;England;Kent;Crofton;;E0.06;N51.37;10;
2;England;Kent;Cross Keys;;E0.16;N51.25;10;
2;England;Kent;Cross-at-Hand;;E0.54;N51.18;10;
2;England;Kent;Crouch;;E0.30;N51.27;10;
2;England;Kent;Crouch;;E0.93;N51.28;10;
2;England;Kent;Crowdleham;;E0.23;N51.29;10;
2;England;Kent;Crundale;;E0.96;N51.20;10;
2;England;Kent;Cudham;;E0.06;N51.31;10;
2;England;Kent;Culmers;;E0.94;N51.32;10;
2;England;Kent;Culverstone Green;;E0.33;N51.33;10;
2;England;Kent;Curteis' Corner;;E0.64;N51.12;10;
2;England;Kent;Curtisden Green;;E0.48;N51.13;10;
2;England;Kent;Cuxton;;E0.44;N51.36;10;
2;England;Kent;Danaway;;E0.66;N51.32;10;
2;England;Kent;Dane Street;;E0.93;N51.23;10;
2;England;Kent;Daniel's Water;;E0.78;N51.13;10;
2;England;Kent;Darent;;E0.20;N51.47;10;
2;England;Kent;Darent;;E0.23;N51.38;10;
2;England;Kent;Darenth;;E0.24;N51.41;10;
2;England;Kent;Dargate;;E0.96;N51.31;10;
2;England;Kent;Dargate Common;;E0.98;N51.31;10;
2;England;Kent;Dartford;;E0.18;N51.43;10;
2;England;Kent;David Street;;E0.35;N51.35;10;
2;England;Kent;Davington;;E0.86;N51.31;10;
2;England;Kent;Deal;;E1.39;N51.21;10;
2;England;Kent;Dean Street;;E0.49;N51.24;10;
2;England;Kent;Deans Bottom;;E0.66;N51.30;10;
2;England;Kent;Deans Hill;;E0.66;N51.30;10;
2;England;Kent;Deerton Street;;E0.82;N51.32;10;
2;England;Kent;Dene Park;;E0.27;N51.22;10;
2;England;Kent;Denny Bottom;;E0.22;N51.12;10;
2;England;Kent;Densole;;E1.15;N51.12;10;
2;England;Kent;Denstroude;;E1.01;N51.30;10;
2;England;Kent;Denton;;E1.16;N51.17;10;
2;England;Kent;Denton;;E0.38;N51.43;10;
2;England;Kent;Deptford;;W0.04;N51.47;10;
2;England;Kent;Derringstone;;E1.14;N51.19;10;
2;England;Kent;Derry Downs;;E0.11;N51.38;10;
2;England;Kent;Detling;;E0.56;N51.29;10;
2;England;Kent;Dingleden;;E0.58;N51.05;10;
2;England;Kent;Ditton;;E0.45;N51.28;10;
2;England;Kent;Doddington;;E0.76;N51.27;10;
2;England;Kent;Donkey Street;;E0.99;N51.04;10;
2;England;Kent;Dover;;E1.29;N51.12;10;
2;England;Kent;Downe;;E0.05;N51.33;10;
2;England;Kent;Downham;;E0.00;N51.42;10;
2;England;Kent;Drellingore;;E1.20;N51.12;10;
2;England;Kent;Dryhill;;E0.13;N51.27;10;
2;England;Kent;Dumpton;;E1.41;N51.34;10;
2;England;Kent;Dungate;;E0.73;N51.29;10;
2;England;Kent;Dungeness;;E0.97;N50.90;10;
2;England;Kent;Dungeness;;E0.97;N50.91;10;
2;England;Kent;Dunkirk;;E0.96;N51.29;10;
2;England;Kent;Dunk's Green;;E0.30;N51.24;10;
2;England;Kent;Dunn Street;;E0.84;N51.19;10;
2;England;Kent;Dunn Street;;E0.56;N51.32;10;
2;England;Kent;Dunton Green;;E0.16;N51.29;10;
2;England;Kent;Durlock;;E1.25;N51.26;10;
2;England;Kent;Durrant Green;;E0.68;N51.09;10;
2;England;Kent;Dymchurch;;E0.99;N51.02;10;
2;England;Kent;Each End;;E1.29;N51.27;10;
2;England;Kent;East Barming;;E0.46;N51.25;10;
2;England;Kent;East End;;E0.61;N51.08;10;
2;England;Kent;East End;;E0.64;N51.15;10;
2;England;Kent;East End;;E0.81;N51.42;10;
2;England;Kent;East Farleigh;;E0.47;N51.25;10;
2;England;Kent;East Hill;;E0.22;N51.33;10;
2;England;Kent;East Langdon;;E1.33;N51.16;10;
2;England;Kent;East Malling;;E0.43;N51.28;10;
2;England;Kent;East Malling Heath;;E0.42;N51.26;10;
2;England;Kent;East Peckham;;E0.37;N51.20;10;
2;England;Kent;East Stour;;E1.04;N51.10;10;
2;England;Kent;East Stourmouth;;E1.24;N51.31;10;
2;England;Kent;East Street;;E1.29;N51.27;10;
2;England;Kent;East Studdal;;E1.31;N51.19;10;
2;England;Kent;East Wickham;;E0.10;N51.47;10;
2;England;Kent;Eastchurch;;E0.84;N51.40;10;
2;England;Kent;Eastling;;E0.80;N51.26;10;
2;England;Kent;Eastry;;E1.29;N51.23;10;
2;England;Kent;Eastwell Park;;E0.87;N51.18;10;
2;England;Kent;Eccles;;E0.48;N51.31;10;
2;England;Kent;Eddington;;E1.13;N51.36;10;
2;England;Kent;Eden;;E0.08;N51.19;10;
2;England;Kent;Eden Park;;W0.04;N51.39;10;
2;England;Kent;Edenbridge;;E0.05;N51.19;10;
2;England;Kent;Egerton;;E0.71;N51.19;10;
2;England;Kent;Egerton Forstal;;E0.70;N51.18;10;
2;England;Kent;Elham;;E1.10;N51.14;10;
2;England;Kent;Elmstead;;E0.04;N51.41;10;
2;England;Kent;Elmsted;;E1.01;N51.15;10;
2;England;Kent;Elmstone;;E1.22;N51.29;10;
2;England;Kent;Eltham;;E0.04;N51.44;10;
2;England;Kent;Elvington;;E1.24;N51.20;10;
2;England;Kent;Erith;;E0.15;N51.47;10;
2;England;Kent;Erriottwood;;E0.76;N51.29;10;
2;England;Kent;Etchinghill;;E1.08;N51.10;10;
2;England;Kent;Evington;;E1.00;N51.16;10;
2;England;Kent;Ewell Minnis;;E1.22;N51.14;10;
2;England;Kent;Exted;;E1.08;N51.15;10;
2;England;Kent;Eyhorne Street;;E0.62;N51.25;10;
2;England;Kent;Eynsford;;E0.19;N51.36;10;
2;England;Kent;Eythorne;;E1.26;N51.19;10;
2;England;Kent;Fairbourne Heath;;E0.64;N51.21;10;
2;England;Kent;Fairfield;;E0.79;N51.00;10;
2;England;Kent;Fairseat;;E0.32;N51.32;10;
2;England;Kent;Falconwood;;E0.08;N51.45;10;
2;England;Kent;Fant;;E0.49;N51.26;10;
2;England;Kent;Farleigh Green;;E0.46;N51.24;10;
2;England;Kent;Farnborough;;E0.06;N51.35;10;
2;England;Kent;Farningham;;E0.21;N51.37;10;
2;England;Kent;Farthing Corner;;E0.59;N51.33;10;
2;England;Kent;Farthing Green;;E0.58;N51.18;10;
2;England;Kent;Farthingloe;;E1.27;N51.11;10;
2;England;Kent;Faversham;;E0.88;N51.31;10;
2;England;Kent;Fawkham Green;;E0.26;N51.36;10;
2;England;Kent;Felderland;;E1.32;N51.25;10;
2;England;Kent;Fenn Street;;E0.57;N51.44;10;
2;England;Kent;Ferndale;;E0.27;N51.13;10;
2;England;Kent;Field Green;;E0.53;N51.03;10;
2;England;Kent;Finglesham;;E1.33;N51.22;10;
2;England;Kent;Fir Toll;;E0.74;N51.16;10;
2;England;Kent;Five Oak Green;;E0.34;N51.18;10;
2;England;Kent;Five Wents;;E0.59;N51.22;10;
2;England;Kent;Fleet Downs;;E0.24;N51.43;10;
2;England;Kent;Flemings;;E1.26;N51.25;10;
2;England;Kent;Fletcher's Green;;E0.19;N51.22;10;
2;England;Kent;Flishinghurst;;E0.49;N51.10;10;
2;England;Kent;Folkestone;;E1.15;N51.08;10;
2;England;Kent;Foots Cray;;E0.11;N51.41;10;
2;England;Kent;Force Green;;E0.06;N51.27;10;
2;England;Kent;Ford;;E1.15;N51.34;10;
2;England;Kent;Fordcombe;;E0.17;N51.13;10;
2;England;Kent;Fordwich;;E1.12;N51.28;10;
2;England;Kent;Forest Hill;;W0.05;N51.44;10;
2;England;Kent;Forstal;;E0.48;N51.29;10;
2;England;Kent;Fostall;;E0.95;N51.31;10;
2;England;Kent;Fosten Green;;E0.61;N51.09;10;
2;England;Kent;Four Elms;;E0.08;N51.21;10;
2;England;Kent;Four Oaks;;E0.84;N51.32;10;
2;England;Kent;Four Throws;;E0.52;N51.03;10;
2;England;Kent;Four Wents;;E0.51;N51.06;10;
2;England;Kent;Four Wents;;E0.49;N51.10;10;
2;England;Kent;Fowley Island;;E0.82;N51.35;10;
2;England;Kent;Foxbury;;E0.06;N51.41;10;
2;England;Kent;Foxendown;;E0.36;N51.36;10;
2;England;Kent;French Street;;E0.07;N51.24;10;
2;England;Kent;Frindsbury;;E0.49;N51.39;10;
2;England;Kent;Friningham;;E0.59;N51.29;10;
2;England;Kent;Frinsted;;E0.70;N51.28;10;
2;England;Kent;Frith;;E0.77;N51.26;10;
2;England;Kent;Frittenden;;E0.58;N51.13;10;
2;England;Kent;Frogham;;E1.21;N51.20;10;
2;England;Kent;Froghole;;E0.06;N51.24;10;
2;England;Kent;Frogholt;;E1.09;N51.09;10;
2;England;Kent;Further Quarter;;E0.69;N51.11;10;
2;England;Kent;Gadshill;;E0.45;N51.40;10;
2;England;Kent;Gain Hill;;E0.43;N51.18;10;
2;England;Kent;Garlinge;;E1.34;N51.37;10;
2;England;Kent;Garlinge Green;;E1.02;N51.22;10;
2;England;Kent;Gibraltar;;E1.14;N51.10;10;
2;England;Kent;Gillingham;;E0.54;N51.37;10;
2;England;Kent;Gill's Green;;E0.49;N51.06;10;
2;England;Kent;Glassenbury;;E0.48;N51.09;10;
2;England;Kent;Goathurst Common;;E0.13;N51.24;10;
2;England;Kent;Goddard's Green;;E0.58;N51.07;10;
2;England;Kent;Godden Green;;E0.22;N51.27;10;
2;England;Kent;Goddington;;E0.11;N51.36;10;
2;England;Kent;Godmersham;;E0.94;N51.21;10;
2;England;Kent;Golden Green;;E0.33;N51.20;10;
2;England;Kent;Golford;;E0.55;N51.09;10;
2;England;Kent;Golgotha;;E1.23;N51.18;10;
2;England;Kent;Goodley Stock;;E0.06;N51.24;10;
2;England;Kent;Goodnestone;;E1.22;N51.24;10;
2;England;Kent;Goodnestone;;E0.92;N51.31;10;
2;England;Kent;Goose Green;;E0.62;N51.10;10;
2;England;Kent;Goose Green;;E0.34;N51.22;10;
2;England;Kent;Gore;;E1.29;N51.24;10;
2;England;Kent;Gore Street;;E1.25;N51.33;10;
2;England;Kent;Gosmere;;E0.89;N51.27;10;
2;England;Kent;Goudhurst;;E0.45;N51.10;10;
2;England;Kent;Gover Hill;;E0.33;N51.24;10;
2;England;Kent;Grafty Green;;E0.67;N51.20;10;
2;England;Kent;Grain;;E0.70;N51.45;10;
2;England;Kent;Grange;;E0.57;N51.38;10;
2;England;Kent;Gravel Castle;;E1.16;N51.19;10;
2;England;Kent;Graveney;;E0.94;N51.32;10;
2;England;Kent;Gravesend;;E0.37;N51.44;10;
2;England;Kent;Grays;;E0.31;N51.46;10;
2;England;Kent;Great Bower;;E0.90;N51.23;10;
2;England;Kent;Great Buckland;;E0.38;N51.34;10;
2;England;Kent;Great Chart;;E0.82;N51.13;10;
2;England;Kent;Great Cheveney;;E0.47;N51.15;10;
2;England;Kent;Great Job's Cross;;E0.60;N51.03;10;
2;England;Kent;Great Mongeham;;E1.34;N51.21;10;
2;England;Kent;Great Pattenden;;E0.47;N51.16;10;
2;England;Kent;Great Stonar;;E1.34;N51.28;10;
2;England;Kent;Great Stour;;E1.21;N51.32;10;
2;England;Kent;Greatness;;E0.19;N51.28;10;
2;England;Kent;Greatstone-on-Sea;;E0.96;N50.96;10;
2;England;Kent;Green Hill;;E0.56;N51.25;10;
2;England;Kent;Green Street Green;;E0.08;N51.34;10;
2;England;Kent;Green Street Green;;E0.27;N51.40;10;
2;England;Kent;Greenhill;;E1.10;N51.35;10;
2;England;Kent;Greenhithe;;E0.27;N51.45;10;
2;England;Kent;Greenwich;;E0.00;N51.47;10;
2;England;Kent;Greet;;E0.75;N51.26;10;
2;England;Kent;Grigg;;E0.64;N51.16;10;
2;England;Kent;Grove;;E1.19;N51.30;10;
2;England;Kent;Grove End;;E0.71;N51.31;10;
2;England;Kent;Grove Green;;E0.55;N51.27;10;
2;England;Kent;Grove Hill;;E1.19;N51.29;10;
2;England;Kent;Grove Park;;E0.02;N51.42;10;
2;England;Kent;Groves;;E1.23;N51.26;10;
2;England;Kent;Grubb Street;;E0.27;N51.39;10;
2;England;Kent;Guilton;;E1.26;N51.27;10;
2;England;Kent;Gun Green;;E0.52;N51.04;10;
2;England;Kent;Gushmere;;E0.92;N51.27;10;
2;England;Kent;Guston;;E1.31;N51.14;10;
2;England;Kent;Hacklinge;;E1.35;N51.23;10;
2;England;Kent;Hadlow;;E0.33;N51.22;10;
2;England;Kent;Hadlow Stair;;E0.28;N51.20;10;
2;England;Kent;Haffenden Quarter;;E0.68;N51.12;10;
2;England;Kent;Haine;;E1.37;N51.34;10;
2;England;Kent;Hale;;E0.54;N51.35;10;
2;England;Kent;Hale;;E1.27;N51.35;10;
2;England;Kent;Hale Street;;E0.39;N51.21;10;
2;England;Kent;Hales Place;;E1.06;N51.29;10;
2;England;Kent;Halfway Houses;;E0.77;N51.42;10;
2;England;Kent;Halfway Street;;E1.21;N51.17;10;
2;England;Kent;Halling;;E0.44;N51.34;10;
2;England;Kent;Hall's Green;;E0.17;N51.22;10;
2;England;Kent;Halstead;;E0.12;N51.32;10;
2;England;Kent;Ham;;E1.32;N51.23;10;
2;England;Kent;Ham Green;;E0.69;N51.00;10;
2;England;Kent;Ham Green;;E0.64;N51.38;10;
2;England;Kent;Ham Hill;;E0.43;N51.31;10;
2;England;Kent;Hammill;;E1.28;N51.24;10;
2;England;Kent;Hampton;;E1.10;N51.36;10;
2;England;Kent;Hamptons;;E0.31;N51.24;10;
2;England;Kent;Hamstreet;;E0.85;N51.06;10;
2;England;Kent;Hanging Bank;;E0.11;N51.23;10;
2;England;Kent;Harbledown;;E1.05;N51.28;10;
2;England;Kent;Harbourland;;E0.53;N51.28;10;
2;England;Kent;Hareplain;;E0.61;N51.12;10;
2;England;Kent;Harman's Corner;;E0.69;N51.32;10;
2;England;Kent;Harrietsham;;E0.67;N51.23;10;
2;England;Kent;Hartley;;E0.49;N51.07;10;
2;England;Kent;Hartley;;E0.29;N51.37;10;
2;England;Kent;Hartley Green;;E0.29;N51.37;10;
2;England;Kent;Hartlip;;E0.62;N51.34;10;
2;England;Kent;Harvel;;E0.35;N51.34;10;
2;England;Kent;Hassell Street;;E0.97;N51.17;10;
2;England;Kent;Hastingleigh;;E0.98;N51.15;10;
2;England;Kent;Haviker Street;;E0.46;N51.18;10;
2;England;Kent;Hawkenbury;;E0.27;N51.11;10;
2;England;Kent;Hawkenbury;;E0.57;N51.17;10;
2;England;Kent;Hawkhurst;;E0.50;N51.04;10;
2;England;Kent;Hawkinge;;E1.15;N51.11;10;
2;England;Kent;Hawley;;E0.21;N51.41;10;
2;England;Kent;Hawthorn Corner;;E1.17;N51.35;10;
2;England;Kent;Hayes;;E0.01;N51.37;10;
2;England;Kent;Hazel Street;;E0.41;N51.12;10;
2;England;Kent;Hazel Street;;E0.65;N51.30;10;
2;England;Kent;Hazelwood;;E0.06;N51.33;10;
2;England;Kent;Headcorn;;E0.61;N51.16;10;
2;England;Kent;Hearnden Green;;E0.60;N51.18;10;
2;England;Kent;Hearts Delight;;E0.69;N51.32;10;
2;England;Kent;Heath Side;;E0.17;N51.42;10;
2;England;Kent;Heaverham;;E0.25;N51.29;10;
2;England;Kent;Hempstead;;E0.56;N51.34;10;
2;England;Kent;Hemsted;;E1.05;N51.12;10;
2;England;Kent;Henley Street;;E0.38;N51.37;10;
2;England;Kent;Henwood Green;;E0.32;N51.13;10;
2;England;Kent;Herne;;E1.12;N51.35;10;
2;England;Kent;Herne Bay;;E1.11;N51.36;10;
2;England;Kent;Herne Common;;E1.11;N51.34;10;
2;England;Kent;Herne Pound;;E0.36;N51.26;10;
2;England;Kent;Hernhill;;E0.95;N51.30;10;
2;England;Kent;Heronden;;E1.27;N51.23;10;
2;England;Kent;Hersden;;E1.15;N51.31;10;
2;England;Kent;Hever;;E0.10;N51.17;10;
2;England;Kent;Hexden Channel;;E0.55;N51.04;10;
2;England;Kent;Hextable;;E0.16;N51.40;10;
2;England;Kent;Hickmans Green;;E0.95;N51.28;10;
2;England;Kent;Hicks Forstal;;E1.12;N51.32;10;
2;England;Kent;High Brooms;;E0.27;N51.14;10;
2;England;Kent;High Halden;;E0.69;N51.10;10;
2;England;Kent;High Halstow;;E0.56;N51.44;10;
2;England;Kent;High Street;;E0.48;N51.04;10;
2;England;Kent;Higham;;E0.45;N51.41;10;
2;England;Kent;Higham Wood;;E0.28;N51.20;10;
2;England;Kent;Highgate;;E0.50;N51.04;10;
2;England;Kent;Highstead;;E1.17;N51.35;10;
2;England;Kent;Highsted;;E0.73;N51.31;10;
2;England;Kent;Highstreet;;E0.98;N51.31;10;
2;England;Kent;Hilden Park;;E0.24;N51.20;10;
2;England;Kent;Hildenborough;;E0.23;N51.21;10;
2;England;Kent;Hill Green;;E0.62;N51.32;10;
2;England;Kent;Hill Hoath;;E0.13;N51.17;10;
2;England;Kent;Hill Park;;E0.04;N51.27;10;
2;England;Kent;Hill Street;;E1.01;N51.16;10;
2;England;Kent;Hillborough;;E1.15;N51.35;10;
2;England;Kent;Hinxhill;;E0.91;N51.14;10;
2;England;Kent;Hither Green;;E0.00;N51.44;10;
2;England;Kent;Hoaden;;E1.23;N51.28;10;
2;England;Kent;Hoath;;E1.15;N51.33;10;
2;England;Kent;Hoath Corner;;E0.12;N51.16;10;
2;England;Kent;Hockenden;;E0.14;N51.39;10;
2;England;Kent;Hockley;;E0.83;N51.25;10;
2;England;Kent;Hodsoll Street;;E0.32;N51.34;10;
2;England;Kent;Hogben's Hill;;E0.90;N51.26;10;
2;England;Kent;Holborough;;E0.43;N51.33;10;
2;England;Kent;Hollingbourne;;E0.63;N51.26;10;
2;England;Kent;Hollow Street;;E1.18;N51.33;10;
2;England;Kent;Hollybushes;;E0.73;N51.28;10;
2;England;Kent;Holt Hill;;E0.45;N51.28;10;
2;England;Kent;Honey Hill;;E1.02;N51.30;10;
2;England;Kent;Honor Oak;;W0.05;N51.44;10;
2;England;Kent;Honor Oak Park;;W0.04;N51.44;10;
2;England;Kent;Hoo;;E1.28;N51.32;10;
2;England;Kent;Hoo;;E0.56;N51.40;10;
2;England;Kent;Hoo St Werburgh;;E0.55;N51.41;10;
2;England;Kent;Hook Green;;E0.35;N51.09;10;
2;England;Kent;Hook Green;;E0.35;N51.37;10;
2;England;Kent;Hook Green;;E0.31;N51.40;10;
2;England;Kent;Horn Street;;E1.11;N51.07;10;
2;England;Kent;Horn Street;;E0.40;N51.31;10;
2;England;Kent;Horn Street;;E0.42;N51.31;10;
2;England;Kent;Horns Green;;E0.07;N51.30;10;
2;England;Kent;Horsalls;;E0.67;N51.25;10;
2;England;Kent;Horshoe Green;;E0.10;N51.15;10;
2;England;Kent;Horsmonden;;E0.42;N51.13;10;
2;England;Kent;Horton;;E1.02;N51.25;10;
2;England;Kent;Horton Kirby;;E0.24;N51.38;10;
2;England;Kent;Hosey Hill;;E0.07;N51.25;10;
2;England;Kent;Hothfield;;E0.81;N51.16;10;
2;England;Kent;How Green;;E0.10;N51.19;10;
2;England;Kent;Howt Green;;E0.71;N51.35;10;
2;England;Kent;Hubbard's Hill;;E0.19;N51.24;10;
2;England;Kent;Hucking;;E0.63;N51.29;10;
2;England;Kent;Hungershall Park;;E0.24;N51.11;10;
2;England;Kent;Hunters Forstal;;E1.12;N51.35;10;
2;England;Kent;Hunton;;E0.44;N51.21;10;
2;England;Kent;Hythe;;E1.08;N51.06;10;
2;England;Kent;Ickham;;E1.18;N51.27;10;
2;England;Kent;Ide Hill;;E0.11;N51.23;10;
2;England;Kent;Iden Green;;E0.56;N51.05;10;
2;England;Kent;Iden Green;;E0.48;N51.10;10;
2;England;Kent;Ightham;;E0.27;N51.28;10;
2;England;Kent;Igtham Common;;E0.26;N51.27;10;
2;England;Kent;Ileden;;E1.14;N51.22;10;
2;England;Kent;Isle of Dogs;;W0.02;N51.48;10;
2;England;Kent;Isle of Grain;;E0.68;N51.44;10;
2;England;Kent;Isle of Sheppey;;E0.80;N51.41;10;
2;England;Kent;Isle of Thanet;;E1.39;N51.35;10;
2;England;Kent;Istead Rise;;E0.34;N51.40;10;
2;England;Kent;Ivy Hatch;;E0.26;N51.26;10;
2;England;Kent;Ivychurch;;E0.87;N51.00;10;
2;England;Kent;Iwade;;E0.71;N51.37;10;
2;England;Kent;Kearnsey;;E1.25;N51.14;10;
2;England;Kent;Kempe's Corner;;E0.90;N51.17;10;
2;England;Kent;Kemsing;;E0.22;N51.30;10;
2;England;Kent;Kemsley;;E0.72;N51.36;10;
2;England;Kent;Kemsley Street;;E0.58;N51.32;10;
2;England;Kent;Kenardington;;E0.80;N51.05;10;
2;England;Kent;Kennington;;E0.87;N51.16;10;
2;England;Kent;Kent Street;;E0.37;N51.26;10;
2;England;Kent;Keston;;E0.02;N51.35;10;
2;England;Kent;Keston Mark;;E0.03;N51.36;10;
2;England;Kent;Kettle Corner;;E0.46;N51.25;10;
2;England;Kent;Kevingtown;;E0.12;N51.38;10;
2;England;Kent;Key Street;;E0.69;N51.34;10;
2;England;Kent;Keycol;;E0.68;N51.34;10;
2;England;Kent;Key's Green;;E0.35;N51.12;10;
2;England;Kent;Kidbrooke;;E0.02;N51.46;10;
2;England;Kent;Kilndown;;E0.42;N51.08;10;
2;England;Kent;Kingsdown;;E1.39;N51.18;10;
2;England;Kent;Kingsdown;;E0.76;N51.29;10;
2;England;Kent;Kingsgate;;E1.43;N51.37;10;
2;England;Kent;Kingsnorth;;E0.85;N51.11;10;
2;England;Kent;Kingston;;E1.13;N51.21;10;
2;England;Kent;Kingswood;;E0.63;N51.21;10;
2;England;Kent;Kipping's Cross;;E0.34;N51.12;10;
2;England;Kent;Kippington;;E0.17;N51.26;10;
2;England;Kent;Kit's Coty;;E0.49;N51.32;10;
2;England;Kent;Knatts Valley;;E0.23;N51.32;10;
2;England;Kent;Knave's Ash;;E1.14;N51.33;10;
2;England;Kent;Knockhall;;E0.28;N51.44;10;
2;England;Kent;Knockholt;;E0.12;N51.31;10;
2;England;Kent;Knockmill;;E0.25;N51.32;10;
2;England;Kent;Knowlton;;E1.26;N51.23;10;
2;England;Kent;Knox Bridge;;E0.54;N51.13;10;
2;England;Kent;Laddingford;;E0.41;N51.20;10;
2;England;Kent;Lade;;E0.95;N50.94;10;
2;England;Kent;Ladywell;;W0.02;N51.44;10;
2;England;Kent;Lamberden;;E0.59;N51.02;10;
2;England;Kent;Lamberhurst;;E0.38;N51.09;10;
2;England;Kent;Lamberhurst Quarter;;E0.35;N51.11;10;
2;England;Kent;Lamb's Cross;;E0.56;N51.20;10;
2;England;Kent;Lane End;;E0.24;N51.41;10;
2;England;Kent;Langley;;E0.59;N51.22;10;
2;England;Kent;Langley Heath;;E0.59;N51.22;10;
2;England;Kent;Langton Green;;E0.19;N51.12;10;
2;England;Kent;Larkfield;;E0.43;N51.29;10;
2;England;Kent;Lashenden;;E0.62;N51.12;10;
2;England;Kent;Leadingcross Green;;E0.70;N51.22;10;
2;England;Kent;Leaveland;;E0.86;N51.24;10;
2;England;Kent;Leaves Green;;E0.02;N51.33;10;
2;England;Kent;Lee;;E0.00;N51.44;10;
2;England;Kent;Leeds;;E0.60;N51.23;10;
2;England;Kent;Leigh;;E0.21;N51.19;10;
2;England;Kent;Leigh Green;;E0.71;N51.05;10;
2;England;Kent;Len;;E0.51;N51.26;10;
2;England;Kent;Lenham;;E0.70;N51.23;10;
2;England;Kent;Lenham Forstal;;E0.73;N51.21;10;
2;England;Kent;Lenham Heath;;E0.73;N51.20;10;
2;England;Kent;Lessness Heath;;E0.14;N51.48;10;
2;England;Kent;Lett's Green;;E0.07;N51.31;10;
2;England;Kent;Lewisham;;W0.01;N51.45;10;
2;England;Kent;Lewson Street;;E0.81;N51.31;10;
2;England;Kent;Leybourne;;E0.40;N51.29;10;
2;England;Kent;Leysdown-on-Sea;;E0.91;N51.39;10;
2;England;Kent;Lidsing;;E0.55;N51.32;10;
2;England;Kent;Lilyvale;;E0.97;N51.11;10;
2;England;Kent;Linkhill;;E0.57;N51.02;10;
2;England;Kent;Linton;;E0.50;N51.21;10;
2;England;Kent;Little Chart;;E0.77;N51.18;10;
2;England;Kent;Little Chart Forstal;;E0.78;N51.17;10;
2;England;Kent;Little Frith;;E0.77;N51.26;10;
2;England;Kent;Little Mill;;E0.36;N51.20;10;
2;England;Kent;Little Mongeham;;E1.33;N51.20;10;
2;England;Kent;Little Preston;;E0.48;N51.29;10;
2;England;Kent;Littlebourne;;E1.15;N51.26;10;
2;England;Kent;Littlestone-on-Sea;;E0.94;N50.97;10;
2;England;Kent;Liverton Street;;E0.67;N51.21;10;
2;England;Kent;Livesey Street;;E0.43;N51.26;10;
2;England;Kent;Locksbottom;;E0.05;N51.36;10;
2;England;Kent;Lodge Lees;;E1.14;N51.18;10;
2;England;Kent;London Beach;;E0.68;N51.09;10;
2;England;Kent;Longfield;;E0.29;N51.39;10;
2;England;Kent;Longfield Hill;;E0.32;N51.38;10;
2;England;Kent;Longford;;E0.16;N51.29;10;
2;England;Kent;Longlands;;E0.07;N51.42;10;
2;England;Kent;Loose;;E0.52;N51.24;10;
2;England;Kent;Loose Hill;;E0.50;N51.24;10;
2;England;Kent;Lords Wood;;E0.53;N51.32;10;
2;England;Kent;Lower Bitchet;;E0.23;N51.26;10;
2;England;Kent;Lower Bush;;E0.42;N51.37;10;
2;England;Kent;Lower Cox Street;;E0.59;N51.31;10;
2;England;Kent;Lower Eythorne;;E1.26;N51.19;10;
2;England;Kent;Lower Goldstone;;E1.28;N51.30;10;
2;England;Kent;Lower Green;;E0.22;N51.13;10;
2;England;Kent;Lower Green;;E0.31;N51.14;10;
2;England;Kent;Lower Halstow;;E0.67;N51.37;10;
2;England;Kent;Lower Hardres;;E1.07;N51.23;10;
2;England;Kent;Lower Hartlip;;E0.64;N51.34;10;
2;England;Kent;Lower Haysden;;E0.23;N51.18;10;
2;England;Kent;Lower Heppington;;E1.06;N51.23;10;
2;England;Kent;Lower Herne;;E1.12;N51.35;10;
2;England;Kent;Lower Higham;;E0.45;N51.43;10;
2;England;Kent;Lower Island;;E1.01;N51.35;10;
2;England;Kent;Lower Rainham;;E0.59;N51.37;10;
2;England;Kent;Lower Stoke;;E0.63;N51.44;10;
2;England;Kent;Lower Sydenham;;W0.05;N51.42;10;
2;England;Kent;Lower Twydall;;E0.58;N51.37;10;
2;England;Kent;Lower Upnor;;E0.52;N51.41;10;
2;England;Kent;Loyterton;;E0.79;N51.30;10;
2;England;Kent;Luddesdown;;E0.39;N51.36;10;
2;England;Kent;Lunsford;;E0.42;N51.30;10;
2;England;Kent;Luton;;E0.52;N51.36;10;
2;England;Kent;Luxted;;E0.05;N51.32;10;
2;England;Kent;Lydd;;E0.90;N50.94;10;
2;England;Kent;Lydden;;E1.23;N51.15;10;
2;England;Kent;Lydden;;E1.37;N51.35;10;
2;England;Kent;Lydd-on-Sea;;E0.95;N50.94;10;
2;England;Kent;Lymbridge Green;;E1.02;N51.14;10;
2;England;Kent;Lyminge;;E1.08;N51.12;10;
2;England;Kent;Lympne;;E1.02;N51.07;10;
2;England;Kent;Lynsore Bottom;;E1.09;N51.19;10;
2;England;Kent;Lynsted;;E0.78;N51.30;10;
2;England;Kent;Mabledon;;E0.24;N51.17;10;
2;England;Kent;Maidstone;;E0.53;N51.26;10;
2;England;Kent;Maltman's Hill;;E0.71;N51.15;10;
2;England;Kent;Manston;;E1.35;N51.34;10;
2;England;Kent;Marden;;E0.48;N51.16;10;
2;England;Kent;Marden Beech;;E0.47;N51.16;10;
2;England;Kent;Marden Thorn;;E0.50;N51.15;10;
2;England;Kent;Margate;;E1.37;N51.38;10;
2;England;Kent;Marine Town;;E0.76;N51.43;10;
2;England;Kent;Markbeech;;E0.10;N51.15;10;
2;England;Kent;Marley;;E1.11;N51.20;10;
2;England;Kent;Marley;;E1.33;N51.22;10;
2;England;Kent;Marlpit Hill;;E0.06;N51.20;10;
2;England;Kent;Marsh Green;;E0.05;N51.17;10;
2;England;Kent;Marshborough;;E1.29;N51.26;10;
2;England;Kent;Marshside;;E1.18;N51.34;10;
2;England;Kent;Martin;;E1.33;N51.17;10;
2;England;Kent;Martin Mill;;E1.34;N51.16;10;
2;England;Kent;Matfield;;E0.35;N51.14;10;
2;England;Kent;Maxted Street;;E1.03;N51.15;10;
2;England;Kent;Maxton;;E1.28;N51.11;10;
2;England;Kent;Maypole;;E1.15;N51.33;10;
2;England;Kent;Maypole;;E0.13;N51.34;10;
2;England;Kent;Maypole;;E0.17;N51.43;10;
2;England;Kent;Medhurst Row;;E0.08;N51.20;10;
2;England;Kent;Medway;;E0.35;N51.19;10;
2;England;Kent;Meopham;;E0.35;N51.36;10;
2;England;Kent;Meopham Green;;E0.34;N51.36;10;
2;England;Kent;Meopham Station;;E0.34;N51.37;10;
2;England;Kent;Meresborough;;E0.61;N51.34;10;
2;England;Kent;Mereworth;;E0.37;N51.25;10;
2;England;Kent;Mersham;;E0.92;N51.11;10;
2;England;Kent;Merton;;W0.20;N51.40;10;
2;England;Kent;Merton Park;;W0.20;N51.40;10;
2;England;Kent;Middle Quarter;;E0.69;N51.11;10;
2;England;Kent;Middle Stoke;;E0.63;N51.44;10;
2;England;Kent;Mile Oak;;E0.40;N51.16;10;
2;England;Kent;Mile Town;;E0.74;N51.43;10;
2;England;Kent;Milebush;;E0.50;N51.17;10;
2;England;Kent;Mill Hill;;E1.37;N51.20;10;
2;England;Kent;Mill Street;;E0.42;N51.28;10;
2;England;Kent;Millbank;;E1.15;N51.34;10;
2;England;Kent;Millfordhope;;E0.67;N51.39;10;
2;England;Kent;Millhall;;E0.46;N51.30;10;
2;England;Kent;Milstead;;E0.72;N51.28;10;
2;England;Kent;Milton;;E0.37;N51.44;10;
2;England;Kent;Milton Regis;;E0.71;N51.34;10;
2;England;Kent;Minster;;E1.30;N51.32;10;
2;England;Kent;Minster;;E0.80;N51.42;10;
2;England;Kent;Mockbeggar;;E1.05;N51.14;10;
2;England;Kent;Mockbeggar;;E0.48;N51.42;10;
2;England;Kent;Modest Corner;;E0.24;N51.15;10;
2;England;Kent;Molash;;E0.89;N51.22;10;
2;England;Kent;Monks Hill;;E0.65;N51.13;10;
2;England;Kent;Monkton;;E1.27;N51.33;10;
2;England;Kent;Moon's Green;;E0.67;N51.01;10;
2;England;Kent;Moor Street;;E0.61;N51.35;10;
2;England;Kent;Moorstock;;E0.99;N51.10;10;
2;England;Kent;Morehall;;E1.13;N51.08;10;
2;England;Kent;Mottingham;;E0.02;N51.42;10;
2;England;Kent;Mount Pleasant;;E1.30;N51.33;10;
2;England;Kent;Mountain Street;;E0.94;N51.23;10;
2;England;Kent;Mowshurst;;E0.07;N51.20;10;
2;England;Kent;Mundy Bois;;E0.71;N51.17;10;
2;England;Kent;Murston;;E0.75;N51.34;10;
2;England;Kent;Naccolt;;E0.91;N51.15;10;
2;England;Kent;Nackington;;E1.07;N51.24;10;
2;England;Kent;Napchester;;E1.30;N51.17;10;
2;England;Kent;Nash;;E0.01;N51.34;10;
2;England;Kent;Nash;;E1.23;N51.27;10;
2;England;Kent;Nash Street;;E0.35;N51.39;10;
2;England;Kent;Neames Forstal;;E0.93;N51.27;10;
2;England;Kent;Nettlestead;;E0.40;N51.24;10;
2;England;Kent;Nettlestead Green;;E0.40;N51.22;10;
2;England;Kent;New Ash Green;;E0.29;N51.36;10;
2;England;Kent;New Barn;;E0.32;N51.38;10;
2;England;Kent;New Beckenham;;W0.04;N51.41;10;
2;England;Kent;New Charlton;;E0.01;N51.48;10;
2;England;Kent;New Cross;;W0.04;N51.46;10;
2;England;Kent;New Eltham;;E0.07;N51.42;10;
2;England;Kent;New House;;E0.34;N51.42;10;
2;England;Kent;New Hythe;;E0.43;N51.30;10;
2;England;Kent;New Romney;;E0.93;N50.97;10;
2;England;Kent;New Street;;E0.32;N51.35;10;
2;England;Kent;New Town;;E0.39;N51.28;10;
2;England;Kent;New Town;;E0.44;N51.34;10;
2;England;Kent;New Town;;E0.21;N51.44;10;
2;England;Kent;Newbarn;;E1.07;N51.11;10;
2;England;Kent;Newbury;;E0.75;N51.29;10;
2;England;Kent;Newchurch;;E0.92;N51.04;10;
2;England;Kent;Newenden;;E0.60;N51.01;10;
2;England;Kent;Newingreen;;E1.02;N51.08;10;
2;England;Kent;Newington;;E1.09;N51.09;10;
2;England;Kent;Newington;;E0.65;N51.34;10;
2;England;Kent;Newington;;E1.38;N51.34;10;
2;England;Kent;Newland Green;;E0.71;N51.17;10;
2;England;Kent;Newnham;;E0.79;N51.27;10;
2;England;Kent;Noah's Arks;;E0.22;N51.29;10;
2;England;Kent;Noke Street;;E0.50;N51.41;10;
2;England;Kent;Nonington;;E1.22;N51.22;10;
2;England;Kent;Nor;;E0.60;N51.40;10;
2;England;Kent;North Cray;;E0.14;N51.42;10;
2;England;Kent;North Downs;;E0.23;N51.23;10;
2;England;Kent;North Eastling;;E0.80;N51.27;10;
2;England;Kent;North Elham;;E1.11;N51.15;10;
2;England;Kent;North End;;E0.17;N51.46;10;
2;England;Kent;North Foreland;;E1.44;N51.36;10;
2;England;Kent;North foreland;;E1.44;N51.37;10;
2;England;Kent;North Halling;;E0.44;N51.35;10;
2;England;Kent;North Leigh;;E1.04;N51.18;10;
2;England;Kent;North Street;;E0.88;N51.28;10;
2;England;Kent;North Street;;E0.60;N51.43;10;
2;England;Kent;North Woolwich;;E0.05;N51.49;10;
2;England;Kent;Northbourne;;E1.33;N51.21;10;
2;England;Kent;Northdown;;E1.40;N51.37;10;
2;England;Kent;Northfleet;;E0.32;N51.44;10;
2;England;Kent;Northfleet Green;;E0.32;N51.41;10;
2;England;Kent;Northumberland Heath;;E0.15;N51.47;10;
2;England;Kent;Northwood;;E1.40;N51.35;10;
2;England;Kent;Norton Ash;;E0.82;N51.31;10;
2;England;Kent;Oad Street;;E0.66;N51.32;10;
2;England;Kent;Oakhurst;;E0.20;N51.22;10;
2;England;Kent;Oare;;E0.86;N51.32;10;
2;England;Kent;Offham;;E0.36;N51.28;10;
2;England;Kent;Old Bexley;;E0.14;N51.43;10;
2;England;Kent;Old Cryals;;E0.37;N51.13;10;
2;England;Kent;Old Romney;;E0.89;N50.98;10;
2;England;Kent;Old Tree;;E1.15;N51.33;10;
2;England;Kent;Old Wives Lees;;E0.96;N51.24;10;
2;England;Kent;Oldbury;;E0.26;N51.28;10;
2;England;Kent;Orpington;;E0.08;N51.36;10;
2;England;Kent;Ospringe;;E0.86;N51.30;10;
2;England;Kent;Otford;;E0.16;N51.31;10;
2;England;Kent;Otham;;E0.56;N51.24;10;
2;England;Kent;Otham Hole;;E0.57;N51.23;10;
2;England;Kent;Otterden Place;;E0.77;N51.25;10;
2;England;Kent;Otterham Quay;;E0.62;N51.36;10;
2;England;Kent;Ottinge;;E1.08;N51.13;10;
2;England;Kent;Out Elmstead;;E1.14;N51.20;10;
2;England;Kent;Oversland;;E0.93;N51.27;10;
2;England;Kent;Paddlesworth;;E1.12;N51.10;10;
2;England;Kent;Paddlesworth;;E0.41;N51.33;10;
2;England;Kent;Paddock;;E0.84;N51.21;10;
2;England;Kent;Paddock Wood;;E0.38;N51.17;10;
2;England;Kent;Painter's Forstal;;E0.85;N51.28;10;
2;England;Kent;Palmarsh;;E1.03;N51.05;10;
2;England;Kent;Palmer's Green;;E0.40;N51.14;10;
2;England;Kent;Palmstead;;E1.08;N51.18;10;
2;England;Kent;Paramour Street;;E1.26;N51.30;10;
2;England;Kent;Park Gate;;E1.10;N51.16;10;
2;England;Kent;Park Hill;;E0.78;N51.04;10;
2;England;Kent;Park Langley;;W0.01;N51.38;10;
2;England;Kent;Park Wood;;E0.54;N51.23;10;
2;England;Kent;Park Wood;;E0.58;N51.33;10;
2;England;Kent;Parker's Green;;E0.30;N51.20;10;
2;England;Kent;Parkgate;;E0.63;N51.07;10;
2;England;Kent;Patrixbourne;;E1.12;N51.25;10;
2;England;Kent;Payden Street;;E0.75;N51.25;10;
2;England;Kent;Pean Hill;;E1.01;N51.31;10;
2;England;Kent;Pearson's Green;;E0.41;N51.16;10;
2;England;Kent;Peckham Bush;;E0.37;N51.21;10;
2;England;Kent;Pedlinge;;E1.03;N51.07;10;
2;England;Kent;Peene;;E1.11;N51.09;10;
2;England;Kent;Peening Quarter;;E0.67;N51.02;10;
2;England;Kent;Pegwell;;E1.38;N51.32;10;
2;England;Kent;Pembles Cross;;E0.68;N51.19;10;
2;England;Kent;Pembury;;E0.31;N51.13;10;
2;England;Kent;Penenden Heath;;E0.52;N51.28;10;
2;England;Kent;Pennypot;;E1.05;N51.06;10;
2;England;Kent;Penshurst;;E0.17;N51.16;10;
2;England;Kent;Perry;;E1.22;N51.28;10;
2;England;Kent;Perry Street;;E0.34;N51.43;10;
2;England;Kent;Perrywood;;E0.92;N51.25;10;
2;England;Kent;Pested;;E0.86;N51.22;10;
2;England;Kent;Petham;;E1.04;N51.21;10;
2;England;Kent;Pett Bottom;;E1.01;N51.14;10;
2;England;Kent;Pett Bottom;;E1.09;N51.22;10;
2;England;Kent;Petteridge;;E0.37;N51.14;10;
2;England;Kent;Pettings;;E0.31;N51.34;10;
2;England;Kent;Petts Wood;;E0.06;N51.38;10;
2;England;Kent;Pineham;;E1.30;N51.15;10;
2;England;Kent;Pipsden;;E0.52;N51.04;10;
2;England;Kent;Pittswood;;E0.30;N51.21;10;
2;England;Kent;Pizien Well;;E0.39;N51.25;10;
2;England;Kent;Plaistow;;E0.01;N51.41;10;
2;England;Kent;Platt;;E0.32;N51.28;10;
2;England;Kent;Platt's Heath;;E0.67;N51.21;10;
2;England;Kent;Plaxtol;;E0.29;N51.25;10;
2;England;Kent;Pluckley;;E0.74;N51.17;10;
2;England;Kent;Pluckley Thorne;;E0.73;N51.16;10;
2;England;Kent;Plucks Gutter;;E1.24;N51.32;10;
2;England;Kent;Plumford;;E0.86;N51.28;10;
2;England;Kent;Plumstead;;E0.07;N51.48;10;
2;England;Kent;Plumstead Common;;E0.08;N51.47;10;
2;England;Kent;Plumtree Green;;E0.60;N51.17;10;
2;England;Kent;Pollhill;;E0.66;N51.23;10;
2;England;Kent;Pootings;;E0.07;N51.22;10;
2;England;Kent;Postling;;E1.05;N51.10;10;
2;England;Kent;Potman's Heath;;E0.66;N51.02;10;
2;England;Kent;Potten Street;;E1.23;N51.35;10;
2;England;Kent;Potters Corner;;E0.84;N51.16;10;
2;England;Kent;Potter's Forstal;;E0.68;N51.18;10;
2;England;Kent;Poundsbridge;;E0.18;N51.14;10;
2;England;Kent;Poverest;;E0.09;N51.39;10;
2;England;Kent;Powder Mills;;E0.23;N51.20;10;
2;England;Kent;Pratling Street;;E0.49;N51.30;10;
2;England;Kent;Pratt's Bottom;;E0.10;N51.33;10;
2;England;Kent;Preston;;E0.89;N51.30;10;
2;England;Kent;Preston;;E1.22;N51.30;10;
2;England;Kent;Priestwood;;E0.36;N51.35;10;
2;England;Kent;Priestwood Green;;E0.36;N51.35;10;
2;England;Kent;Printstile;;E0.21;N51.16;10;
2;England;Kent;Puddledock;;E0.08;N51.23;10;
2;England;Kent;Puddledock;;E0.16;N51.40;10;
2;England;Kent;Pullington;;E0.58;N51.05;10;
2;England;Kent;Purfleet;;E0.23;N51.47;10;
2;England;Kent;Pye Corner;;E0.64;N51.20;10;
2;England;Kent;Queen Street;;E0.40;N51.17;10;
2;England;Kent;Queenborough;;E0.74;N51.41;10;
2;England;Kent;Rabbit's Cross;;E0.54;N51.19;10;
2;England;Kent;Radfall;;E1.05;N51.33;10;
2;England;Kent;Radfield;;E0.78;N51.32;10;
2;England;Kent;Rainham;;E0.59;N51.35;10;
2;England;Kent;Ram Lane;;E0.80;N51.17;10;
2;England;Kent;Ramsden;;E0.11;N51.37;10;
2;England;Kent;Ramsgate;;E1.41;N51.32;10;
2;England;Kent;Ratling;;E1.20;N51.23;10;
2;England;Kent;Reading Street;;E0.73;N51.03;10;
2;England;Kent;Reading Street;;E1.41;N51.37;10;
2;England;Kent;Reculver;;E1.18;N51.37;10;
2;England;Kent;Red Hill;;E0.42;N51.26;10;
2;England;Kent;Rhode Common;;E0.95;N51.26;10;
2;England;Kent;Rhodes Minnis;;E1.07;N51.14;10;
2;England;Kent;Richborough Port;;E1.34;N51.30;10;
2;England;Kent;Ridge Row;;E1.14;N51.13;10;
2;England;Kent;Ridgeway;;E0.95;N51.12;10;
2;England;Kent;Ridley;;E0.31;N51.34;10;
2;England;Kent;Ringlestone;;E0.67;N51.26;10;
2;England;Kent;Ringlestone;;E0.50;N51.28;10;
2;England;Kent;Ringwould;;E1.36;N51.18;10;
2;England;Kent;Ripper's Cross;;E0.78;N51.15;10;
2;England;Kent;Ripple;;E1.34;N51.19;10;
2;England;Kent;Riseden;;E0.42;N51.08;10;
2;England;Kent;River;;E1.27;N51.14;10;
2;England;Kent;Riverhead;;E0.16;N51.28;10;
2;England;Kent;Riverview Park;;E0.38;N51.41;10;
2;England;Kent;Robhurst;;E0.72;N51.07;10;
2;England;Kent;Rochester;;E0.47;N51.38;10;
2;England;Kent;Rodmersham;;E0.75;N51.31;10;
2;England;Kent;Rodmersham Green;;E0.73;N51.31;10;
2;England;Kent;Rolvenden;;E0.62;N51.04;10;
2;England;Kent;Rolvenden Layne;;E0.63;N51.03;10;
2;England;Kent;Romford;;E0.34;N51.14;10;
2;England;Kent;Romney Marsh;;E0.92;N51.02;10;
2;England;Kent;Romney Street;;E0.20;N51.32;10;
2;England;Kent;Rooks Hill;;E0.23;N51.25;10;
2;England;Kent;Rooting Street;;E0.78;N51.17;10;
2;England;Kent;Roseacre;;E0.56;N51.26;10;
2;England;Kent;Rosherville;;E0.34;N51.44;10;
2;England;Kent;Rother;;E0.65;N51.01;10;
2;England;Kent;Rough Common;;E1.03;N51.29;10;
2;England;Kent;Roughway;;E0.31;N51.24;10;
2;England;Kent;Round Street;;E0.37;N51.38;10;
2;England;Kent;Rowling Court;;E1.25;N51.24;10;
2;England;Kent;Royal British Legion Village;;E0.46;N51.28;10;
2;England;Kent;Royal Military Canal;;E0.85;N51.05;10;
2;England;Kent;Royal Tunbridge Wells;;E0.25;N51.12;10;
2;England;Kent;Ruckinge;;E0.88;N51.06;10;
2;England;Kent;Rushenden;;E0.73;N51.40;10;
2;England;Kent;Rushmore Hill;;E0.10;N51.32;10;
2;England;Kent;Rusthall;;E0.22;N51.12;10;
2;England;Kent;Ruxley;;E0.12;N51.40;10;
2;England;Kent;Ryarsh;;E0.39;N51.30;10;
2;England;Kent;Saint's Hill;;E0.17;N51.14;10;
2;England;Kent;Salmans;;E0.15;N51.16;10;
2;England;Kent;Saltwood;;E1.06;N51.07;10;
2;England;Kent;Sandgate;;E1.13;N51.07;10;
2;England;Kent;Sandholme;;E0.55;N51.02;10;
2;England;Kent;Sandling;;E0.50;N51.29;10;
2;England;Kent;Sandown Park;;E0.28;N51.13;10;
2;England;Kent;Sandway;;E0.69;N51.22;10;
2;England;Kent;Sandwich;;E1.33;N51.27;10;
2;England;Kent;Sandwich Bay Estate;;E1.38;N51.26;10;
2;England;Kent;Sarre;;E1.22;N51.33;10;
2;England;Kent;Satmar;;E1.21;N51.10;10;
2;England;Kent;Scragged Oak;;E0.58;N51.31;10;
2;England;Kent;Scrapsgate;;E0.78;N51.43;10;
2;England;Kent;Seabrook;;E1.11;N51.06;10;
2;England;Kent;Seal;;E0.20;N51.28;10;
2;England;Kent;Seasalter;;E0.99;N51.34;10;
2;England;Kent;Seaton;;E1.18;N51.27;10;
2;England;Kent;Seed;;E0.77;N51.27;10;
2;England;Kent;Selgrove;;E0.88;N51.28;10;
2;England;Kent;Sellindge;;E0.99;N51.10;10;
2;England;Kent;Selling;;E0.92;N51.26;10;
2;England;Kent;Selson;;E1.29;N51.24;10;
2;England;Kent;Selsted;;E1.15;N51.15;10;
2;England;Kent;Sevenoaks;;E0.17;N51.27;10;
2;England;Kent;Sevenoaks Common;;E0.17;N51.24;10;
2;England;Kent;Sevenoaks Weald;;E0.17;N51.22;10;
2;England;Kent;Sevington;;E0.89;N51.12;10;
2;England;Kent;Shadoxhurst;;E0.81;N51.10;10;
2;England;Kent;Shalmsford Street;;E0.99;N51.24;10;
2;England;Kent;Sharnal Street;;E0.57;N51.43;10;
2;England;Kent;Shatterling;;E1.23;N51.27;10;
2;England;Kent;Sheerness;;E0.74;N51.44;10;
2;England;Kent;Sheldwich;;E0.88;N51.26;10;
2;England;Kent;Sheldwich Lees;;E0.88;N51.26;10;
2;England;Kent;Shelvingford;;E1.17;N51.34;10;
2;England;Kent;Shepherdswell (Sibertswold);;E1.21;N51.17;10;
2;England;Kent;Shepway;;E0.53;N51.24;10;
2;England;Kent;Sherwood Park;;E0.28;N51.13;10;
2;England;Kent;Shipbourne;;E0.27;N51.24;10;
2;England;Kent;Shirkoak;;E0.76;N51.09;10;
2;England;Kent;Sholden;;E1.36;N51.21;10;
2;England;Kent;Shooters Hill;;E0.05;N51.46;10;
2;England;Kent;Shoreham;;E0.16;N51.32;10;
2;England;Kent;Shorncliffe Camp;;E1.12;N51.07;10;
2;England;Kent;Shorne;;E0.42;N51.41;10;
2;England;Kent;Shorne Ridgeway;;E0.42;N51.40;10;
2;England;Kent;Shortlands;;E0.00;N51.39;10;
2;England;Kent;Shottenden;;E0.92;N51.24;10;
2;England;Kent;Shuttlesfield;;E1.11;N51.12;10;
2;England;Kent;Sibertswold (Shepherdswell);;E1.21;N51.17;10;
2;England;Kent;Sidcup;;E0.09;N51.42;10;
2;England;Kent;Silver Street;;E0.68;N51.30;10;
2;England;Kent;Silvertown;;E0.02;N51.49;10;
2;England;Kent;Singlewell;;E0.37;N51.40;10;
2;England;Kent;Sinkhurst Green;;E0.58;N51.14;10;
2;England;Kent;Sissinghurst;;E0.55;N51.10;10;
2;England;Kent;Sittingbourne;;E0.72;N51.33;10;
2;England;Kent;Sixmile;;E1.04;N51.15;10;
2;England;Kent;Skeete;;E1.04;N51.12;10;
2;England;Kent;Slade;;E0.76;N51.25;10;
2;England;Kent;Slade Green;;E0.18;N51.46;10;
2;England;Kent;Slaughterhouse Point;;E0.68;N51.40;10;
2;England;Kent;Sly Corner;;E0.79;N51.05;10;
2;England;Kent;Small Hythe;;E0.69;N51.03;10;
2;England;Kent;Smarden;;E0.68;N51.14;10;
2;England;Kent;Smarden Bell;;E0.65;N51.14;10;
2;England;Kent;Smart's Hill;;E0.17;N51.14;10;
2;England;Kent;Smeeth;;E0.95;N51.11;10;
2;England;Kent;Snargate;;E0.82;N51.01;10;
2;England;Kent;Snave;;E0.86;N51.02;10;
2;England;Kent;Snipeshill;;E0.75;N51.33;10;
2;England;Kent;Snodland;;E0.43;N51.32;10;
2;England;Kent;Snowdown;;E1.20;N51.21;10;
2;England;Kent;Sole Street;;E0.99;N51.20;10;
2;England;Kent;Sole Street;;E0.36;N51.37;10;
2;England;Kent;South Alkham;;E1.20;N51.12;10;
2;England;Kent;South Ashford;;E0.85;N51.13;10;
2;England;Kent;South Darenth;;E0.24;N51.39;10;
2;England;Kent;South Foreland;;E1.36;N51.13;10;
2;England;Kent;South Green;;E0.63;N51.30;10;
2;England;Kent;South Stour;;E0.89;N51.10;10;
2;England;Kent;South Street;;E0.04;N51.29;10;
2;England;Kent;South Street;;E0.93;N51.27;10;
2;England;Kent;South Street;;E0.62;N51.31;10;
2;England;Kent;South Street;;E0.33;N51.34;10;
2;England;Kent;South Street;;E1.04;N51.34;10;
2;England;Kent;South Willesborough;;E0.88;N51.12;10;
2;England;Kent;Southborough;;E0.03;N51.38;10;
2;England;Kent;Southborough;;E0.25;N51.15;10;
2;England;Kent;Southend;;W0.01;N51.42;10;
2;England;Kent;Southfleet;;E0.31;N51.41;10;
2;England;Kent;Speed Gate;;E0.25;N51.36;10;
2;England;Kent;Speldhurst;;E0.21;N51.14;10;
2;England;Kent;St Johns;;W0.02;N51.46;10;
2;England;Kent;St John's;;E0.25;N51.14;10;
2;England;Kent;St John's;;E0.17;N51.28;10;
2;England;Kent;St Lawrence;;E1.38;N51.33;10;
2;England;Kent;St Leonard's Street;;E0.39;N51.27;10;
2;England;Kent;St Margaret's at Cliffe;;E1.37;N51.14;10;
2;England;Kent;St Mary Cray;;E0.09;N51.38;10;
2;England;Kent;St Mary Hoo;;E0.58;N51.45;10;
2;England;Kent;St Mary in the Marsh;;E0.93;N51.00;10;
2;England;Kent;St Mary's Bay;;E0.96;N51.00;10;
2;England;Kent;St Michaels;;E0.68;N51.08;10;
2;England;Kent;St Nicholas at Wade;;E1.24;N51.34;10;
2;England;Kent;St Paul's Cray;;E0.09;N51.40;10;
2;England;Kent;St Peters;;E1.41;N51.36;10;
2;England;Kent;Stalisfield Green;;E0.79;N51.23;10;
2;England;Kent;Standen;;E0.64;N51.12;10;
2;England;Kent;Standen Street;;E0.56;N51.04;10;
2;England;Kent;Stanford;;E1.02;N51.10;10;
2;England;Kent;Stanhope;;E0.84;N51.12;10;
2;England;Kent;Stanstead;;E0.29;N51.33;10;
2;England;Kent;Staple;;E1.25;N51.25;10;
2;England;Kent;Staplehurst;;E0.54;N51.15;10;
2;England;Kent;Staplestreet;;E0.93;N51.30;10;
2;England;Kent;Starvecrow;;E0.27;N51.21;10;
2;England;Kent;Statenborough;;E1.30;N51.24;10;
2;England;Kent;Stede Quarter;;E0.67;N51.11;10;
2;England;Kent;Stelling Minnis;;E1.06;N51.17;10;
2;England;Kent;Stick Hill;;E0.08;N51.16;10;
2;England;Kent;Stiff Street;;E0.68;N51.31;10;
2;England;Kent;Stockbury;;E0.63;N51.31;10;
2;England;Kent;Stocker's Head;;E0.80;N51.21;10;
2;England;Kent;Stockland Green;;E0.22;N51.15;10;
2;England;Kent;Stocks Green;;E0.21;N51.20;10;
2;England;Kent;Stodmarsh;;E1.16;N51.29;10;
2;England;Kent;Stoke;;E0.61;N51.44;10;
2;England;Kent;Stone;;E0.25;N51.44;10;
2;England;Kent;Stone Cross;;E0.88;N51.08;10;
2;England;Kent;Stone Cross;;E0.17;N51.12;10;
2;England;Kent;Stone Cross;;E1.32;N51.26;10;
2;England;Kent;Stone Hill;;E0.98;N51.10;10;
2;England;Kent;Stone Hill;;E0.71;N51.18;10;
2;England;Kent;Stone in Oxney;;E0.76;N51.00;10;
2;England;Kent;Stone Street;;E0.24;N51.26;10;
2;England;Kent;Stonebridge Green;;E0.73;N51.19;10;
2;England;Kent;Stonecrouch;;E0.41;N51.07;10;
2;England;Kent;Stonehall;;E1.23;N51.15;10;
2;England;Kent;Stonestreet Green;;E0.94;N51.09;10;
2;England;Kent;Stonewood;;E0.28;N51.42;10;
2;England;Kent;Stour;;E1.19;N51.31;10;
2;England;Kent;Stowting;;E1.02;N51.12;10;
2;England;Kent;Stowting Common;;E1.02;N51.14;10;
2;England;Kent;Stowting Court;;E1.01;N51.12;10;
2;England;Kent;Street End;;E1.06;N51.23;10;
2;England;Kent;Strood;;E0.63;N51.05;10;
2;England;Kent;Strood;;E0.47;N51.39;10;
2;England;Kent;Stubb's Cross;;E0.82;N51.10;10;
2;England;Kent;Studd Hill;;E1.08;N51.36;10;
2;England;Kent;Studdal;;E1.30;N51.19;10;
2;England;Kent;Sturry;;E1.11;N51.29;10;
2;England;Kent;Styants Bottom;;E0.24;N51.28;10;
2;England;Kent;Summerfield;;E1.25;N51.24;10;
2;England;Kent;Sundridge;;E0.02;N51.41;10;
2;England;Kent;Sundridge;;E0.12;N51.27;10;
2;England;Kent;Sutton;;E1.33;N51.19;10;
2;England;Kent;Sutton;;W0.20;N51.36;10;
2;England;Kent;Sutton at Hone;;E0.22;N51.40;10;
2;England;Kent;Sutton Valence;;E0.59;N51.21;10;
2;England;Kent;Swalecliffe;;E1.05;N51.36;10;
2;England;Kent;Swanley;;E0.16;N51.39;10;
2;England;Kent;Swanley Village;;E0.18;N51.39;10;
2;England;Kent;Swanscombe;;E0.28;N51.44;10;
2;England;Kent;Swanton Street;;E0.68;N51.29;10;
2;England;Kent;Swift's Green;;E0.67;N51.16;10;
2;England;Kent;Swingfield Minnis;;E1.15;N51.13;10;
2;England;Kent;Swingfield Street;;E1.18;N51.14;10;
2;England;Kent;Tanden;;E0.72;N51.10;10;
2;England;Kent;Tankerton;;E1.04;N51.35;10;
2;England;Kent;Teise;;E0.42;N51.19;10;
2;England;Kent;Temple Ewell;;E1.25;N51.15;10;
2;England;Kent;Temple Hill;;E0.22;N51.45;10;
2;England;Kent;Tenterden;;E0.68;N51.06;10;
2;England;Kent;Teston;;E0.43;N51.25;10;
2;England;Kent;Teynham;;E0.79;N51.32;10;
2;England;Kent;Teynham Street;;E0.81;N51.33;10;
2;England;Kent;Thamesmead;;E0.11;N51.50;10;
2;England;Kent;Thanington;;E1.05;N51.26;10;
2;England;Kent;The Brents;;E0.88;N51.31;10;
2;England;Kent;The Chart;;E0.09;N51.24;10;
2;England;Kent;The Corner;;E0.42;N51.14;10;
2;England;Kent;The Down;;E0.38;N51.09;10;
2;England;Kent;The Forstal;;E0.91;N51.11;10;
2;England;Kent;The Harbour;;E0.58;N51.20;10;
2;England;Kent;The Leacon;;E0.82;N51.06;10;
2;England;Kent;The Lees;;E0.86;N51.21;10;
2;England;Kent;The Moor;;E0.49;N51.03;10;
2;England;Kent;The Quarter;;E0.68;N51.05;10;
2;England;Kent;The Quarter;;E0.68;N51.16;10;
2;England;Kent;The Rocks;;E0.43;N51.27;10;
2;England;Kent;The Stocks;;E0.72;N51.01;10;
2;England;Kent;The Valley;;E0.79;N51.24;10;
2;England;Kent;The Warren;;E0.84;N51.16;10;
2;England;Kent;Thong;;E0.39;N51.40;10;
2;England;Kent;Three Chimneys;;E0.59;N51.11;10;
2;England;Kent;Throwley;;E0.85;N51.25;10;
2;England;Kent;Throwley Forstal;;E0.83;N51.25;10;
2;England;Kent;Thurnham;;E0.57;N51.28;10;
2;England;Kent;Tilmanstone;;E1.29;N51.21;10;
2;England;Kent;Timberden Bottom;;E0.16;N51.33;10;
2;England;Kent;Timbold Hill;;E0.72;N51.27;10;
2;England;Kent;Tonbridge;;E0.27;N51.19;10;
2;England;Kent;Tong;;E0.61;N51.18;10;
2;England;Kent;Tong Green;;E0.83;N51.25;10;
2;England;Kent;Tonge Corner;;E0.77;N51.35;10;
2;England;Kent;Tovil;;E0.50;N51.25;10;
2;England;Kent;Tower Hamlets;;E1.28;N51.12;10;
2;England;Kent;Townland Green;;E0.76;N51.07;10;
2;England;Kent;Toy's Hill;;E0.10;N51.23;10;
2;England;Kent;Trench Wood;;E0.27;N51.20;10;
2;England;Kent;Trottiscliffe;;E0.35;N51.31;10;
2;England;Kent;Troy Town;;E0.95;N51.15;10;
2;England;Kent;Troy Town;;E0.49;N51.37;10;
2;England;Kent;Tubslake;;E0.51;N51.06;10;
2;England;Kent;Tudeley;;E0.31;N51.18;10;
2;England;Kent;Tudeley Hale;;E0.31;N51.19;10;
2;England;Kent;Tuesnoad;;E0.71;N51.14;10;
2;England;Kent;Tunbridge Hill;;E0.58;N51.43;10;
2;England;Kent;Tunstall;;E0.71;N51.31;10;
2;England;Kent;Tutt Hill;;E0.81;N51.17;10;
2;England;Kent;Twenties;;E1.36;N51.37;10;
2;England;Kent;Twitham;;E1.23;N51.25;10;
2;England;Kent;Twitton;;E0.16;N51.31;10;
2;England;Kent;Twydall;;E0.57;N51.36;10;
2;England;Kent;Tyler Hill;;E1.06;N51.29;10;
2;England;Kent;Ulcombe;;E0.63;N51.21;10;
2;England;Kent;Under the Wood;;E1.18;N51.34;10;
2;England;Kent;Underlining Green;;E0.50;N51.18;10;
2;England;Kent;Underriver;;E0.21;N51.24;10;
2;England;Kent;Underriver Ho;;E0.23;N51.24;10;
2;England;Kent;Upchurch;;E0.64;N51.37;10;
2;England;Kent;Upper Bush;;E0.42;N51.36;10;
2;England;Kent;Upper Deal;;E1.37;N51.20;10;
2;England;Kent;Upper Goldstone;;E1.28;N51.29;10;
2;England;Kent;Upper Halling;;E0.42;N51.35;10;
2;England;Kent;Upper Harbledown;;E1.02;N51.28;10;
2;England;Kent;Upper Hardres Court;;E1.07;N51.20;10;
2;England;Kent;Upper Hayesden;;E0.23;N51.17;10;
2;England;Kent;Upper Postern;;E0.30;N51.19;10;
2;England;Kent;Upper Rodmersham;;E0.75;N51.30;10;
2;England;Kent;Upper Sydenham;;W0.07;N51.42;10;
2;England;Kent;Upper Upnor;;E0.51;N51.40;10;
2;England;Kent;Upstreet;;E1.18;N51.32;10;
2;England;Kent;Upton;;E1.41;N51.35;10;
2;England;Kent;Vigo Village;;E0.33;N51.32;10;
2;England;Kent;Wainscott;;E0.50;N51.41;10;
2;England;Kent;Walderslade;;E0.51;N51.33;10;
2;England;Kent;Wall End;;E1.19;N51.32;10;
2;England;Kent;Walmer;;E1.39;N51.20;10;
2;England;Kent;Waltham;;E1.00;N51.19;10;
2;England;Kent;Wanshurst Green;;E0.51;N51.17;10;
2;England;Kent;Warden;;E0.90;N51.40;10;
2;England;Kent;Ware;;E1.25;N51.29;10;
2;England;Kent;Ware Street;;E0.56;N51.27;10;
2;England;Kent;Warehorne;;E0.82;N51.05;10;
2;England;Kent;Warmlake;;E0.59;N51.21;10;
2;England;Kent;Warren Street;;E0.74;N51.24;10;
2;England;Kent;Waterham;;E0.96;N51.31;10;
2;England;Kent;Wateringbury;;E0.42;N51.25;10;
2;England;Kent;Waterman Quarter;;E0.61;N51.14;10;
2;England;Kent;Way;;E1.32;N51.33;10;
2;England;Kent;Wayfield;;E0.51;N51.35;10;
2;England;Kent;Weavering Street;;E0.55;N51.27;10;
2;England;Kent;Weddington;;E1.28;N51.28;10;
2;England;Kent;Well Hill;;E0.13;N51.34;10;
2;England;Kent;Well Street;;E0.42;N51.27;10;
2;England;Kent;Weller's Town;;E0.14;N51.17;10;
2;England;Kent;Welling;;E0.10;N51.45;10;
2;England;Kent;West Cliffe;;E1.34;N51.14;10;
2;England;Kent;West Cross;;E0.60;N51.04;10;
2;England;Kent;West End;;E0.75;N51.27;10;
2;England;Kent;West End;;E1.08;N51.34;10;
2;England;Kent;West Farleigh;;E0.44;N51.24;10;
2;England;Kent;West Heath;;E0.11;N51.47;10;
2;England;Kent;West Hougham;;E1.22;N51.11;10;
2;England;Kent;West Hythe;;E1.02;N51.06;10;
2;England;Kent;West Kingsdown;;E0.25;N51.34;10;
2;England;Kent;West Langdon;;E1.30;N51.17;10;
2;England;Kent;West Malling;;E0.40;N51.28;10;
2;England;Kent;West Minster;;E0.74;N51.42;10;
2;England;Kent;West Peckham;;E0.34;N51.24;10;
2;England;Kent;West Stourmouth;;E1.22;N51.31;10;
2;England;Kent;West Street;;E1.32;N51.23;10;
2;England;Kent;West Street;;E0.72;N51.25;10;
2;England;Kent;West Street;;E0.48;N51.45;10;
2;England;Kent;West Wickham;;W0.01;N51.36;10;
2;England;Kent;West Yoke;;E0.28;N51.36;10;
2;England;Kent;Westbere;;E1.14;N51.30;10;
2;England;Kent;Westbrook;;E1.36;N51.38;10;
2;England;Kent;Westenhanger;;E1.02;N51.09;10;
2;England;Kent;Westerham;;E0.06;N51.26;10;
2;England;Kent;Western Heights;;E1.29;N51.11;10;
2;England;Kent;Westfield Sole;;E0.53;N51.32;10;
2;England;Kent;Westgate on Sea;;E1.33;N51.38;10;
2;England;Kent;Westmarsh;;E1.25;N51.30;10;
2;England;Kent;Westwell;;E0.83;N51.18;10;
2;England;Kent;Westwell Leacon;;E0.80;N51.18;10;
2;England;Kent;Westwood;;E1.10;N51.19;10;
2;England;Kent;Westwood;;E1.38;N51.36;10;
2;England;Kent;Wetham Green;;E0.64;N51.38;10;
2;England;Kent;Whatsole Street;;E1.01;N51.15;10;
2;England;Kent;Wheeelbarrow Town;;E1.07;N51.16;10;
2;England;Kent;Whetsted;;E0.35;N51.18;10;
2;England;Kent;White Oak;;E0.15;N51.40;10;
2;England;Kent;White Post;;E0.14;N51.14;10;
2;England;Kent;Whiteacre;;E1.01;N51.18;10;
2;England;Kent;Whitehill;;E0.86;N51.29;10;
2;England;Kent;Whitfield;;E1.28;N51.14;10;
2;England;Kent;Whitley Row;;E0.13;N51.24;10;
2;England;Kent;Whitstable;;E1.02;N51.35;10;
2;England;Kent;Wichling;;E0.75;N51.27;10;
2;England;Kent;Wick Hill;;E0.62;N51.13;10;
2;England;Kent;Wickhambreaux;;E1.18;N51.27;10;
2;England;Kent;Wickhurst;;E0.17;N51.20;10;
2;England;Kent;Widmore;;E0.02;N51.40;10;
2;England;Kent;Wierton;;E0.54;N51.21;10;
2;England;Kent;Wigmore;;E0.58;N51.34;10;
2;England;Kent;Wildernesse;;E0.20;N51.27;10;
2;England;Kent;Wilgate Green;;E0.85;N51.27;10;
2;England;Kent;Willesborough;;E0.88;N51.13;10;
2;England;Kent;Willesborough Lees;;E0.90;N51.14;10;
2;England;Kent;Willington;;E0.54;N51.24;10;
2;England;Kent;Wilmington;;E0.19;N51.41;10;
2;England;Kent;Wilsley Green;;E0.52;N51.09;10;
2;England;Kent;Wilsley Pound;;E0.54;N51.10;10;
2;England;Kent;Winchet Hill;;E0.47;N51.13;10;
2;England;Kent;Windmill Hill;;E0.62;N51.37;10;
2;England;Kent;Wingham;;E1.21;N51.26;10;
2;England;Kent;Wingham Green;;E1.19;N51.26;10;
2;England;Kent;Wingham Well;;E1.19;N51.25;10;
2;England;Kent;Wingmore;;E1.11;N51.17;10;
2;England;Kent;Winkhurst Green;;E0.13;N51.22;10;
2;England;Kent;Winterbourne;;E0.95;N51.27;10;
2;England;Kent;Wissenden;;E0.71;N51.13;10;
2;England;Kent;Withersdane;;E0.93;N51.16;10;
2;England;Kent;Wittersham;;E0.69;N51.01;10;
2;England;Kent;Wolverton;;E1.22;N51.13;10;
2;England;Kent;Womenswold;;E1.17;N51.20;10;
2;England;Kent;Woodchurch;;E0.76;N51.07;10;
2;England;Kent;Woodland;;E1.05;N51.12;10;
2;England;Kent;Woodlands;;E0.23;N51.31;10;
2;England;Kent;Woodnesborough;;E1.30;N51.25;10;
2;England;Kent;Woodsden;;E0.52;N51.05;10;
2;England;Kent;Woodside Green;;E0.72;N51.24;10;
2;England;Kent;Woodstock;;E0.72;N51.30;10;
2;England;Kent;Woolage Green;;E1.19;N51.19;10;
2;England;Kent;Woolage Village;;E1.19;N51.20;10;
2;England;Kent;Woolpack Corner;;E0.64;N51.10;10;
2;England;Kent;Woolwich;;E0.05;N51.49;10;
2;England;Kent;Wootton;;E1.17;N51.17;10;
2;England;Kent;Worms Hill;;E0.47;N51.12;10;
2;England;Kent;Wormshill;;E0.68;N51.28;10;
2;England;Kent;Worten;;E0.81;N51.15;10;
2;England;Kent;Worth;;E1.33;N51.24;10;
2;England;Kent;Wouldham;;E0.45;N51.34;10;
2;England;Kent;Wrotham;;E0.29;N51.30;10;
2;England;Kent;Wrotham Heath;;E0.33;N51.29;10;
2;England;Kent;Wye;;E0.93;N51.17;10;
2;England;Kent;Wyebanks;;E0.76;N51.25;10;
2;England;Kent;Yalding;;E0.43;N51.22;10;
2;England;Kent;Yardhurst;;E0.78;N51.13;10;
2;England;Kent;Yelsted;;E0.61;N51.32;10;
2;England;Kent;Yewhedges;;E0.80;N51.26;10;
2;England;Kent;Yewtree Cross;;E1.08;N51.12;10;
2;England;Kent;Yopps Green;;E0.29;N51.26;10;
2;England;Kent;Yorkletts;;E0.99;N51.32;10;