"Level";"Country";"State";"Place";"void";"Longitude";"Latitude";"ZoomLevel";"Icon"
1;AUS;Victoria;;;144.3;-36.9;6;
2;AUS;Victoria;Aberfeldy;;146.3666667;-37.6833333;6;
2;AUS;Victoria;Acheron;;145.7;-37.25;6;
2;AUS;Victoria;Addington;;143.6833333;-37.3833333;6;
2;AUS;Victoria;Adelaide Lead;;143.6833333;-37.0666667;6;
2;AUS;Victoria;Ailsa;;142.35;-36.3333333;6;
2;AUS;Victoria;Aireys Inlet;;144.1;-38.4666667;6;
2;AUS;Victoria;Airly;;147.1166667;-38.0333333;6;
2;AUS;Victoria;Alambee;;146.0333333;-38.2666667;6;
2;AUS;Victoria;Albacutya;;142;-35.8166667;6;
2;AUS;Victoria;Alberton West;;146.6;-38.6;6;
2;AUS;Victoria;Alberton;;146.6666667;-38.6166667;6;
2;AUS;Victoria;Albion;;144.8333333;-37.7666667;6;
2;AUS;Victoria;Alexandra;;145.7;-37.1833333;6;
2;AUS;Victoria;Alfredton;;143.8166667;-37.5666667;6;
2;AUS;Victoria;Allambee South;;146.1;-38.35;6;
2;AUS;Victoria;Allambee;;146.0333333;-38.2666667;6;
2;AUS;Victoria;Allanby;;141.9;-36.15;6;
2;AUS;Victoria;Allans Flat;;146.9;-36.2666667;6;
2;AUS;Victoria;Allansford;;142.5833333;-38.4;6;
2;AUS;Victoria;Allendale;;143.9333333;-37.3666667;6;
2;AUS;Victoria;Allestree;;141.65;-38.2833333;6;
2;AUS;Victoria;Alma;;143.6833333;-37.0333333;6;
2;AUS;Victoria;Almonds;;145.9666667;-36.2;6;
2;AUS;Victoria;Almurta East;;145.5833333;-38.4666667;6;
2;AUS;Victoria;Almurta;;145.5833333;-38.4666667;6;
2;AUS;Victoria;Altona;;144.8333333;-37.8666667;6;
2;AUS;Victoria;Alvie;;143.5;-38.2333333;6;
2;AUS;Victoria;Amherst;;143.6666667;-37.15;6;
2;AUS;Victoria;Amphitheatre;;143.4166667;-37.1666667;6;
2;AUS;Victoria;Anakie;;144.25;-37.9166667;6;
2;AUS;Victoria;Ancona;;145.8166667;-36.9833333;6;
2;AUS;Victoria;Anderson;;145.45;-38.5333333;6;
2;AUS;Victoria;Angip;;142.2333333;-36.1;6;
2;AUS;Victoria;Anglesea River;;144.1666667;-38.4166667;6;
2;AUS;Victoria;Anglesea;;144.1666667;-38.4166667;6;
2;AUS;Victoria;Angustown;;145.1;-36.7;6;
2;AUS;Victoria;Annuello;;142.8333333;-34.85;6;
2;AUS;Victoria;Antwerp;;142.05;-36.3;6;
2;AUS;Victoria;Apollo Bay;;143.65;-38.75;6;
2;AUS;Victoria;Appin South;;143.8666667;-35.9166667;6;
2;AUS;Victoria;Appin;;143.8666667;-35.9;6;
2;AUS;Victoria;Apsley;;141.0833333;-36.9666667;6;
2;AUS;Victoria;Arapiles;;141.85;-36.7333333;6;
2;AUS;Victoria;Ararat;;142.9333333;-37.2833333;6;
2;AUS;Victoria;Arawata;;145.8666667;-38.4;6;
2;AUS;Victoria;Arcadia;;145.3166667;-36.5666667;6;
2;AUS;Victoria;Archdale;;143.5166667;-36.8333333;6;
2;AUS;Victoria;Archerton;;146.2;-36.8833333;6;
2;AUS;Victoria;Archies Creek;;145.5666667;-38.55;6;
2;AUS;Victoria;Ardmon;;145.3;-36.3833333;6;
2;AUS;Victoria;Ardmona;;145.3;-36.3833333;6;
2;AUS;Victoria;Ardno;;141;-37.7666667;6;
2;AUS;Victoria;Areegra;;142.6333333;-36.2833333;6;
2;AUS;Victoria;Argyle;;144.7333333;-36.95;6;
2;AUS;Victoria;Arkona;;142.0166667;-36.35;6;
2;AUS;Victoria;Armstrong;;142.9;-37.2166667;6;
2;AUS;Victoria;Armytage;;143.8833333;-38.2833333;6;
2;AUS;Victoria;Arnold West;;143.8;-36.6666667;6;
2;AUS;Victoria;Arnold;;143.8666667;-36.6833333;6;
2;AUS;Victoria;Arthurs Creek;;145.2;-37.5833333;6;
2;AUS;Victoria;Arundel;;142.8166667;-38.3666667;6;
2;AUS;Victoria;Ascot Vale;;144.9166667;-37.7833333;6;
2;AUS;Victoria;Ascot;;144.3333333;-36.7;6;
2;AUS;Victoria;Ashens;;142.5166667;-36.6833333;6;
2;AUS;Victoria;Aspendale;;145.1;-38.0333333;6;
2;AUS;Victoria;Athlone;;145.7666667;-38.2333333;6;
2;AUS;Victoria;Aubrey;;142.2333333;-36.2333333;6;
2;AUS;Victoria;Aura;;145.4166667;-37.9333333;6;
2;AUS;Victoria;Avenel;;145.2333333;-36.9;6;
2;AUS;Victoria;Avoca;;143.4833333;-37.0833333;6;
2;AUS;Victoria;Avon Plains;;142.9333333;-36.55;6;
2;AUS;Victoria;Avonmore;;144.5666667;-36.5333333;6;
2;AUS;Victoria;Avonsleigh;;145.4666667;-37.9333333;6;
2;AUS;Victoria;Awonga;;141.3833333;-36.95;6;
2;AUS;Victoria;Axedale;;144.5166667;-36.8;6;
2;AUS;Victoria;Baarmutha;;146.6833333;-36.4166667;6;
2;AUS;Victoria;Bacchus Marsh;;144.45;-37.6833333;6;
2;AUS;Victoria;Back Creek;;146.85;-36.3666667;6;
2;AUS;Victoria;Baddaginnie;;145.8666667;-36.5833333;6;
2;AUS;Victoria;Badger Creek;;145.5166667;-37.7;6;
2;AUS;Victoria;Badgers Creek;;145.5166667;-37.7;6;
2;AUS;Victoria;Bagshot;;144.4166667;-36.65;6;
2;AUS;Victoria;Bahgallah;;141.3833333;-37.6333333;6;
2;AUS;Victoria;Bailieston East;;145.1166667;-36.75;6;
2;AUS;Victoria;Bailieston;;145.05;-36.7333333;6;
2;AUS;Victoria;Bairnsdale;;147.6166667;-37.8333333;6;
2;AUS;Victoria;Bairsdale;;147.6166667;-37.8333333;6;
2;AUS;Victoria;Baker;;141.5833333;-36.0833333;6;
2;AUS;Victoria;Balcombe;;145.0291667;-38.2577778;6;
2;AUS;Victoria;Bald Hills;;143.85;-37.4333333;6;
2;AUS;Victoria;Bald Rock;;144.2166667;-36.0333333;6;
2;AUS;Victoria;Ballaarat;;143.85;-37.5666667;6;
2;AUS;Victoria;Ballam Park;;145.15;-38.15;6;
2;AUS;Victoria;Ballan;;144.25;-37.6;6;
2;AUS;Victoria;Ballangeich North;;142.6833333;-38.1833333;6;
2;AUS;Victoria;Ballangeich;;142.6666667;-38.2166667;6;
2;AUS;Victoria;Ballapur;;142.7666667;-35.9666667;6;
2;AUS;Victoria;Ballarat;;143.85;-37.5666667;6;
2;AUS;Victoria;Ballendella;;144.65;-36.3;6;
2;AUS;Victoria;Balliang East;;144.45;-37.7833333;6;
2;AUS;Victoria;Balliang;;144.3666667;-37.8333333;6;
2;AUS;Victoria;Ballyrogan;;143.1333333;-37.4333333;6;
2;AUS;Victoria;Balmattum East;;145.65;-36.7166667;6;
2;AUS;Victoria;Balmattum;;145.65;-36.7;6;
2;AUS;Victoria;Balmoral;;141.85;-37.25;6;
2;AUS;Victoria;Balnarring Beach;;145.1166667;-38.4;6;
2;AUS;Victoria;Balnarring;;145.1333333;-38.3666667;6;
2;AUS;Victoria;Balook;;146.5666667;-38.4333333;6;
2;AUS;Victoria;Balrootan North;;141.7166667;-36.3;6;
2;AUS;Victoria;Bamawm Extension;;144.6;-36.2166667;6;
2;AUS;Victoria;Bamawm;;144.6166667;-36.2833333;6;
2;AUS;Victoria;Bambra;;143.9333333;-38.3666667;6;
2;AUS;Victoria;Bamganie;;143.9833333;-37.9333333;6;
2;AUS;Victoria;Banbrae Park;;144.5833333;-37.8166667;6;
2;AUS;Victoria;Bandiana;;146.9333333;-36.15;6;
2;AUS;Victoria;Bangerang;;142.5833333;-36.2;6;
2;AUS;Victoria;Bannerton;;142.7833333;-34.7;6;
2;AUS;Victoria;Bannockburn;;144.1666667;-38.05;6;
2;AUS;Victoria;Banool;;143.55;-38.5666667;6;
2;AUS;Victoria;Banyan;;142.75;-35.6333333;6;
2;AUS;Victoria;Banyena;;142.8333333;-36.5666667;6;
2;AUS;Victoria;Baranduda;;146.9666667;-36.2;6;
2;AUS;Victoria;Barep;;144.9833333;-36.2;6;
2;AUS;Victoria;Barfold;;144.5166667;-37.0833333;6;
2;AUS;Victoria;Baring;;142.05;-35.4;6;
2;AUS;Victoria;Baringhup East;;144.0166667;-36.9666667;6;
2;AUS;Victoria;Baringhup;;143.9666667;-36.9833333;6;
2;AUS;Victoria;Barkers Creek;;144.25;-37.0166667;6;
2;AUS;Victoria;Barkly;;143.2;-36.9333333;6;
2;AUS;Victoria;Barkstead;;144.1;-37.45;6;
2;AUS;Victoria;Barmah Township;;144.9666667;-36.0166667;6;
2;AUS;Victoria;Barmah;;144.9666667;-36.0166667;6;
2;AUS;Victoria;Barnadown;;144.55;-36.65;6;
2;AUS;Victoria;Barnawartha;;146.6666667;-36.1;6;
2;AUS;Victoria;Barnedown;;144.55;-36.65;6;
2;AUS;Victoria;Barongarook;;143.6;-38.4166667;6;
2;AUS;Victoria;Barpinba;;143.6333333;-38.1;6;
2;AUS;Victoria;Barrakee;;143.45;-36.2666667;6;
2;AUS;Victoria;Barramunga;;143.6833333;-38.5833333;6;
2;AUS;Victoria;Barraport;;143.6833333;-36.0166667;6;
2;AUS;Victoria;Barrys Reef;;144.3;-37.4666667;6;
2;AUS;Victoria;Barwite;;146.1666667;-37;6;
2;AUS;Victoria;Barwo;;145.1666667;-36.0333333;6;
2;AUS;Victoria;Barwon Downs;;143.75;-38.4666667;6;
2;AUS;Victoria;Barwon Heads;;144.5;-38.2833333;6;
2;AUS;Victoria;Barwon;;143.75;-38.4666667;6;
2;AUS;Victoria;Bass;;145.45;-38.4833333;6;
2;AUS;Victoria;Batchica;;142.3833333;-36.2;6;
2;AUS;Victoria;Batesford;;144.2833333;-38.1;6;
2;AUS;Victoria;Bathumi;;146.0833333;-36.0166667;6;
2;AUS;Victoria;Baulkamaugh North;;145.3833333;-36;6;
2;AUS;Victoria;Baulkamaugh;;145.3833333;-36;6;
2;AUS;Victoria;Baxter;;145.15;-38.2;6;
2;AUS;Victoria;Bayindeen;;143.1666667;-37.3166667;6;
2;AUS;Victoria;Bayles;;145.5666667;-38.1833333;6;
2;AUS;Victoria;Baynton;;144.6;-37.1333333;6;
2;AUS;Victoria;Bayswater;;145.2666667;-37.85;6;
2;AUS;Victoria;Beaconsfield Upper;;145.4166667;-38;6;
2;AUS;Victoria;Beaconsfield;;145.3666667;-38.05;6;
2;AUS;Victoria;Bealiba;;143.55;-36.8;6;
2;AUS;Victoria;Beauchamp;;143.5666667;-35.6166667;6;
2;AUS;Victoria;Beaufort;;143.3833333;-37.4166667;6;
2;AUS;Victoria;Beazleys Bridge;;143.1666667;-36.7;6;
2;AUS;Victoria;Beeac;;143.6333333;-38.2;6;
2;AUS;Victoria;Beech Forest;;143.5666667;-38.6333333;6;
2;AUS;Victoria;Beechworth;;146.7166667;-36.3666667;6;
2;AUS;Victoria;Beenak;;145.6333333;-37.9;6;
2;AUS;Victoria;Belgrave Heights;;145.35;-37.9166667;6;
2;AUS;Victoria;Belgrave South;;145.3333333;-37.9333333;6;
2;AUS;Victoria;Belgrave;;145.35;-37.9;6;
2;AUS;Victoria;Bell Bird;;148.8166667;-37.65;6;
2;AUS;Victoria;Bellarine;;144.6166667;-38.1333333;6;
2;AUS;Victoria;Bellbrae;;144.2666667;-38.3333333;6;
2;AUS;Victoria;Belmont;;144.35;-38.1666667;6;
2;AUS;Victoria;Bena;;145.7666667;-38.4166667;6;
2;AUS;Victoria;Benalla;;145.9833333;-36.55;6;
2;AUS;Victoria;Benambra;;147.7166667;-36.95;6;
2;AUS;Victoria;Benayeo;;141.05;-36.9;6;
2;AUS;Victoria;Bendigo;;144.2833333;-36.7666667;6;
2;AUS;Victoria;Bendoc;;148.9;-37.1333333;6;
2;AUS;Victoria;Bendock;;148.9;-37.1333333;6;
2;AUS;Victoria;Benetook;;142;-34.3666667;6;
2;AUS;Victoria;Bengworden;;147.4666667;-37.9833333;6;
2;AUS;Victoria;Benjeroop;;143.8333333;-35.5;6;
2;AUS;Victoria;Benloch;;144.7;-37.2166667;6;
2;AUS;Victoria;Bennison;;146.25;-38.6666667;6;
2;AUS;Victoria;Beremboke;;144.25;-37.7833333;6;
2;AUS;Victoria;Berrimal;;143.4833333;-36.4833333;6;
2;AUS;Victoria;Berringa;;143.7;-37.7666667;6;
2;AUS;Victoria;Berringama;;147.65;-36.2166667;6;
2;AUS;Victoria;Berriwillock;;143;-35.6333333;6;
2;AUS;Victoria;Berrybank;;143.4833333;-37.9833333;6;
2;AUS;Victoria;Berrys Creek;;146.0666667;-38.4166667;6;
2;AUS;Victoria;Berwick;;145.35;-38.0333333;6;
2;AUS;Victoria;Bessiebelle;;141.9666667;-38.15;6;
2;AUS;Victoria;Bet Bet;;143.75;-36.9166667;6;
2;AUS;Victoria;Bethanga;;147.1;-36.1166667;6;
2;AUS;Victoria;Betley;;143.8;-36.9;6;
2;AUS;Victoria;Beulah;;142.4333333;-35.9333333;6;
2;AUS;Victoria;Beveridge;;144.9833333;-37.4833333;6;
2;AUS;Victoria;Beyal;;142.6333333;-36.1333333;6;
2;AUS;Victoria;Big Pats Creek;;145.75;-37.7833333;6;
2;AUS;Victoria;Biggara;;148.0333333;-36.2666667;6;
2;AUS;Victoria;Billabong;;142.2166667;-34.2666667;6;
2;AUS;Victoria;Bindi;;147.8333333;-37.1166667;6;
2;AUS;Victoria;Binginwarra;;146.45;-38.5833333;6;
2;AUS;Victoria;Binginwarri;;146.45;-38.5833333;6;
2;AUS;Victoria;Binginwarrie;;146.45;-38.5833333;6;
2;AUS;Victoria;Birchip;;142.9333333;-35.9833333;6;
2;AUS;Victoria;Birnam;;143.6;-38.4666667;6;
2;AUS;Victoria;Birrego;;146.55;-34.9833333;6;
2;AUS;Victoria;Birregurra;;143.7833333;-38.3333333;6;
2;AUS;Victoria;Bittern;;145.1666667;-38.3333333;6;
2;AUS;Victoria;Black Flat;;145.1666667;-37.8666667;6;
2;AUS;Victoria;Black Lead;;143.85;-37.65;6;
2;AUS;Victoria;Black Springs;;145.3166667;-37.7666667;6;
2;AUS;Victoria;Blackheath;;142.25;-36.4666667;6;
2;AUS;Victoria;Blackwarry;;146.65;-38.4;6;
2;AUS;Victoria;Blackwood Forest;;145.6166667;-38.5;6;
2;AUS;Victoria;Blackwood;;144.3333333;-37.4833333;6;
2;AUS;Victoria;Blakeville;;144.2166667;-37.5166667;6;
2;AUS;Victoria;Blampied;;144.05;-37.3666667;6;
2;AUS;Victoria;Blowhard;;143.8;-37.4333333;6;
2;AUS;Victoria;Bobinawarrah;;146.5;-36.5166667;6;
2;AUS;Victoria;Bochara;;141.9333333;-37.7;6;
2;AUS;Victoria;Bogong;;147.2166667;-36.8;6;
2;AUS;Victoria;Boho South;;145.8;-36.7833333;6;
2;AUS;Victoria;Boho;;145.8333333;-36.7166667;6;
2;AUS;Victoria;Boigbeat;;142.9166667;-35.55;6;
2;AUS;Victoria;Boinka;;141.6;-35.2;6;
2;AUS;Victoria;Boisdale;;146.9833333;-37.8833333;6;
2;AUS;Victoria;Bolga;;147.1833333;-36.2333333;6;
2;AUS;Victoria;Bolinda;;144.75;-37.4333333;6;
2;AUS;Victoria;Bolton;;142.8833333;-34.9666667;6;
2;AUS;Victoria;Bolwarra;;141.6166667;-38.2833333;6;
2;AUS;Victoria;Bolwarrah;;144.1;-37.5166667;6;
2;AUS;Victoria;Bonang West;;148.6833333;-37.1666667;6;
2;AUS;Victoria;Bonang;;148.75;-37.2;6;
2;AUS;Victoria;Bonbeach;;145.1227778;-38.0652778;6;
2;AUS;Victoria;Bonegilla;;147;-36.15;6;
2;AUS;Victoria;Boneo;;144.8833333;-38.4166667;6;
2;AUS;Victoria;Bonnie Doon;;145.8666667;-37.0166667;6;
2;AUS;Victoria;Bookar;;143.1;-38.1333333;6;
2;AUS;Victoria;Boolarong;;146.25;-38.5666667;6;
2;AUS;Victoria;Boolarra South;;146.2833333;-38.45;6;
2;AUS;Victoria;Boolarra;;146.2666667;-38.3833333;6;
2;AUS;Victoria;Boolite;;142.6666667;-36.35;6;
2;AUS;Victoria;Boomahnoomoonah;;146.1;-36.1333333;6;
2;AUS;Victoria;Boonah;;143.9333333;-38.4166667;6;
2;AUS;Victoria;Boorcan;;143.0166667;-38.2166667;6;
2;AUS;Victoria;Boorhaman;;146.3;-36.2333333;6;
2;AUS;Victoria;Booroolite;;146.2;-37.15;6;
2;AUS;Victoria;Booroopki;;141.25;-36.7666667;6;
2;AUS;Victoria;Boort;;143.7166667;-36.1166667;6;
2;AUS;Victoria;Boosey South;;145.7833333;-36.05;6;
2;AUS;Victoria;Boosey;;145.7833333;-36.05;6;
2;AUS;Victoria;Bopeep;;143.7;-37.55;6;
2;AUS;Victoria;Boralma;;146.4166667;-36.2166667;6;
2;AUS;Victoria;Boronia;;145.2833333;-37.8666667;6;
2;AUS;Victoria;Borung;;143.75;-36.3;6;
2;AUS;Victoria;Bostocks Creek;;143.1166667;-38.3;6;
2;AUS;Victoria;Boundary Bend;;143.15;-34.7;6;
2;AUS;Victoria;Bowenvale;;143.7166667;-37;6;
2;AUS;Victoria;Boweya North;;146.0833333;-36.2;6;
2;AUS;Victoria;Boweya;;146.1333333;-36.2666667;6;
2;AUS;Victoria;Box Hill;;145.1333333;-37.8166667;6;
2;AUS;Victoria;Boxwood;;145.8;-36.3166667;6;
2;AUS;Victoria;Boyeo;;141.5333333;-36.2333333;6;
2;AUS;Victoria;Boys;;146.05;-38.6833333;6;
2;AUS;Victoria;Bradshaw;;144.1833333;-37.5833333;6;
2;AUS;Victoria;Bradshaws Creek;;144.1833333;-37.5833333;6;
2;AUS;Victoria;Bradvale;;143.4;-37.7833333;6;
2;AUS;Victoria;Braeside;;145.1166667;-37.9833333;6;
2;AUS;Victoria;Brandy Creek;;145.9;-38.1;6;
2;AUS;Victoria;Branxholme;;141.8;-37.8666667;6;
2;AUS;Victoria;Breakaway Creek;;141.8;-38.0166667;6;
2;AUS;Victoria;Breamiea;;144.3908333;-38.2961111;6;
2;AUS;Victoria;Brewster;;143.5166667;-37.4833333;6;
2;AUS;Victoria;Briagolong;;147.0666667;-37.85;6;
2;AUS;Victoria;Briar Hill;;145.1166667;-37.7166667;6;
2;AUS;Victoria;Bridge Inn;;142.8333333;-37.0166667;6;
2;AUS;Victoria;Bridgewater;;143.95;-36.6;6;
2;AUS;Victoria;Bridgewater-on-Loddon;;143.95;-36.6;6;
2;AUS;Victoria;Bright;;146.9666667;-36.75;6;
2;AUS;Victoria;Brighton;;145;-37.9166667;6;
2;AUS;Victoria;Brim;;142.4166667;-36.0833333;6;
2;AUS;Victoria;Brimboal;;141.4;-37.3833333;6;
2;AUS;Victoria;Brimin;;146.2333333;-36.05;6;
2;AUS;Victoria;Brimpaen;;142.2;-37.0333333;6;
2;AUS;Victoria;Bringalbert South;;141.1666667;-36.85;6;
2;AUS;Victoria;Bringalbert;;141.1666667;-36.85;6;
2;AUS;Victoria;Brington Beach;;144.99;-37.9288889;6;
2;AUS;Victoria;Brit Brit;;141.7666667;-37.4333333;6;
2;AUS;Victoria;Broadford;;145.0666667;-37.2;6;
2;AUS;Victoria;Broadmeadows;;144.9;-37.6666667;6;
2;AUS;Victoria;Broadwater;;142.05;-38.1333333;6;
2;AUS;Victoria;Brodribb River;;148.5666667;-37.7;6;
2;AUS;Victoria;Bromley;;143.7666667;-36.8833333;6;
2;AUS;Victoria;Bronzewing;;142.3833333;-35.1833333;6;
2;AUS;Victoria;Brookside;;146.8833333;-36.7333333;6;
2;AUS;Victoria;Brookville;;147.6166667;-37.3333333;6;
2;AUS;Victoria;Broomfield;;143.9166667;-39.3833333;6;
2;AUS;Victoria;Broughton;;141.35;-36.1666667;6;
2;AUS;Victoria;Browns Plains;;146.6666667;-36.05;6;
2;AUS;Victoria;Bruarong;;146.85;-36.4166667;6;
2;AUS;Victoria;Brucknell South;;142.9333333;-38.45;6;
2;AUS;Victoria;Brucknell;;142.9333333;-38.45;6;
2;AUS;Victoria;Brunswick;;144.9666667;-37.7666667;6;
2;AUS;Victoria;Bruthen;;147.8166667;-37.7166667;6;
2;AUS;Victoria;Bruxton;;145.7166667;-37.4166667;6;
2;AUS;Victoria;Buangor;;143.1666667;-37.3666667;6;
2;AUS;Victoria;Buchan South;;148.1166667;-37.5666667;6;
2;AUS;Victoria;Buchan;;148.1833333;-37.5;6;
2;AUS;Victoria;Buchanan;;143.55;-38.6333333;6;
2;AUS;Victoria;Bucheen Creek;;147.55;-36.4166667;6;
2;AUS;Victoria;Buckland Lower;;146.85;-36.8;6;
2;AUS;Victoria;Buckland;;146.85;-36.8833333;6;
2;AUS;Victoria;Buckley;;144.1;-38.2333333;6;
2;AUS;Victoria;Buckleys Swamp;;142.0666667;-37.85;6;
2;AUS;Victoria;Buckrabanyule;;143.5166667;-36.25;6;
2;AUS;Victoria;Budgeree East;;146.3833333;-38.45;6;
2;AUS;Victoria;Budgeree;;146.3333333;-38.4166667;6;
2;AUS;Victoria;Budgerum East;;143.7666667;-35.7666667;6;
2;AUS;Victoria;Buffalo River;;146.6833333;-36.6333333;6;
2;AUS;Victoria;Buffalo;;146.0333333;-38.65;6;
2;AUS;Victoria;Bulart;;141.95;-37.55;6;
2;AUS;Victoria;Bulla;;144.8;-37.6333333;6;
2;AUS;Victoria;Bullabul;;143.8833333;-36.6;6;
2;AUS;Victoria;Bullarook;;144.0166667;-37.5333333;6;
2;AUS;Victoria;Bullarto;;144.2333333;-37.4;6;
2;AUS;Victoria;Bulleen;;145.0833333;-37.7666667;6;
2;AUS;Victoria;Bullengarook;;144.4833333;-37.5166667;6;
2;AUS;Victoria;Bullhead;;147.3;-36.3666667;6;
2;AUS;Victoria;Bullioh;;147.3333333;-36.2;6;
2;AUS;Victoria;Bulls Swamp;;145.9166667;-38.2166667;6;
2;AUS;Victoria;Bullumwaal;;147.5333333;-37.6333333;6;
2;AUS;Victoria;Buln Buln East;;146;-38.0833333;6;
2;AUS;Victoria;Buln Buln;;145.9333333;-38.1;6;
2;AUS;Victoria;Bulumwaal;;147.5333333;-37.6333333;6;
2;AUS;Victoria;Bumberrah;;147.8333333;-37.8;6;
2;AUS;Victoria;Bunbartha;;145.3166667;-36.2166667;6;
2;AUS;Victoria;Bundalaguah;;147.0166667;-38.0333333;6;
2;AUS;Victoria;Bundalong South;;146.1833333;-36.1;6;
2;AUS;Victoria;Bundalong;;146.1666667;-36.0333333;6;
2;AUS;Victoria;Bunding;;144.1666667;-37.5166667;6;
2;AUS;Victoria;Bung Bong;;143.6166667;-37.0666667;6;
2;AUS;Victoria;Bungalally;;142.25;-36.8;6;
2;AUS;Victoria;Bungaree;;144;-37.5666667;6;
2;AUS;Victoria;Bungarre;;144;-37.5666667;6;
2;AUS;Victoria;Bungeet;;146.05;-36.3;6;
2;AUS;Victoria;Bungeluke;;143.3833333;-36.0666667;6;
2;AUS;Victoria;Bungil;;147.35;-36.0666667;6;
2;AUS;Victoria;Buninyong;;143.9166667;-37.6666667;6;
2;AUS;Victoria;Bunyip;;145.7166667;-38.1;6;
2;AUS;Victoria;Burkes Flat;;143.55;-36.65;6;
2;AUS;Victoria;Burleigh;;145.4333333;-37.8333333;6;
2;AUS;Victoria;Burlington;;145.2333333;-37.0333333;6;
2;AUS;Victoria;Burnbank;;143.6;-37.2333333;6;
2;AUS;Victoria;Burndale;;145.6666667;-38.4833333;6;
2;AUS;Victoria;Burramine South;;145.8666667;-36.05;6;
2;AUS;Victoria;Burrereo;;142.7333333;-36.5166667;6;
2;AUS;Victoria;Burrowye;;147.55;-36.0333333;6;
2;AUS;Victoria;Burrum;;142.7333333;-36.6166667;6;
2;AUS;Victoria;Burrumbeet;;143.6666667;-37.4666667;6;
2;AUS;Victoria;Bushfield;;142.5166667;-38.3333333;6;
2;AUS;Victoria;Bushy Park;;147.0333333;-37.8666667;6;
2;AUS;Victoria;Butingitch;;142.9333333;-37.2833333;6;
2;AUS;Victoria;Buxton;;145.7166667;-37.4166667;6;
2;AUS;Victoria;Byaduk North;;141.9666667;-37.9;6;
2;AUS;Victoria;Byaduk;;141.9666667;-37.95;6;
2;AUS;Victoria;Bylands;;144.9666667;-37.35;6;
2;AUS;Victoria;Byrneside;;145.1833333;-36.4166667;6;
2;AUS;Victoria;Byrneville;;142.35;-36.5;6;
2;AUS;Victoria;Caldermeade;;145.5333333;-38.25;6;
2;AUS;Victoria;Calivil;;144.0666667;-36.2666667;6;
2;AUS;Victoria;Callawadda South;;142.8;-36.9;6;
2;AUS;Victoria;Callawadda;;142.8;-36.8;6;
2;AUS;Victoria;Callignee North;;146.6;-38.3166667;6;
2;AUS;Victoria;Callignee South;;146.6166667;-38.3833333;6;
2;AUS;Victoria;Callignee;;146.5833333;-38.3333333;6;
2;AUS;Victoria;Calrossie;;146.6666667;-38.4833333;6;
2;AUS;Victoria;Calulu;;147.5166667;-37.8;6;
2;AUS;Victoria;Camberwell;;145.0666667;-37.8333333;6;
2;AUS;Victoria;Cambrian Hill;;143.8333333;-37.6333333;6;
2;AUS;Victoria;Campbell;;144.2166667;-37.1;6;
2;AUS;Victoria;Campbellfield;;144.95;-37.6833333;6;
2;AUS;Victoria;Campbells Bridge;;142.7833333;-36.9333333;6;
2;AUS;Victoria;Campbells Creek;;144.2166667;-37.1;6;
2;AUS;Victoria;Campbells Forest;;144.1333333;-36.6;6;
2;AUS;Victoria;Campbelltown;;143.95;-37.2;6;
2;AUS;Victoria;Camperdown;;143.15;-38.2333333;6;
2;AUS;Victoria;Canadian;;143.8833333;-37.5833333;6;
2;AUS;Victoria;Canary Island South;;143.8666667;-36.05;6;
2;AUS;Victoria;Canary Island;;143.85;-35.9833333;6;
2;AUS;Victoria;Cann River;;149.1666667;-37.5666667;6;
2;AUS;Victoria;Cannie;;143.4333333;-35.7333333;6;
2;AUS;Victoria;Cannum;;142.25;-36.3;6;
2;AUS;Victoria;Cape Bridgewater;;141.4;-38.3833333;6;
2;AUS;Victoria;Cape Clear;;143.6166667;-37.7833333;6;
2;AUS;Victoria;Cape Otway;;143.5166667;-38.85;6;
2;AUS;Victoria;Capels Crossing;;143.4333333;-35.6333333;6;
2;AUS;Victoria;Carag Carag;;144.9166667;-36.4666667;6;
2;AUS;Victoria;Caralulup;;143.6333333;-37.2;6;
2;AUS;Victoria;Caramut;;142.5166667;-37.95;6;
2;AUS;Victoria;Carapooee;;143.3333333;-36.7;6;
2;AUS;Victoria;Carapook;;141.5333333;-37.55;6;
2;AUS;Victoria;Carboor Upper;;146.5333333;-36.6666667;6;
2;AUS;Victoria;Carboor;;146.55;-36.6333333;6;
2;AUS;Victoria;Cardigan;;143.75;-37.5333333;6;
2;AUS;Victoria;Cardinia;;145.4166667;-38.15;6;
2;AUS;Victoria;Cargerie;;143.9666667;-37.8;6;
2;AUS;Victoria;Carina;;141.1;-35.25;6;
2;AUS;Victoria;Carisbrook;;143.8166667;-37.0333333;6;
2;AUS;Victoria;Carlisle River;;143.3833333;-38.5666667;6;
2;AUS;Victoria;Carlsruhe;;144.5;-37.2833333;6;
2;AUS;Victoria;Carngham;;143.5833333;-37.5833333;6;
2;AUS;Victoria;Carpendeit;;143.2666667;-38.3833333;6;
2;AUS;Victoria;Carrajung Lower;;146.7333333;-38.4;6;
2;AUS;Victoria;Carrajung South;;146.7333333;-38.3833333;6;
2;AUS;Victoria;Carrajung;;146.6833333;-38.3666667;6;
2;AUS;Victoria;Carranballac;;143.2166667;-37.7;6;
2;AUS;Victoria;Carron;;142.7166667;-36.3;6;
2;AUS;Victoria;Carrum Downs;;145.1833333;-38.1;6;
2;AUS;Victoria;Carrum North;;145.15;-38.05;6;
2;AUS;Victoria;Carrum;;145.1333333;-38.0833333;6;
2;AUS;Victoria;Carwarp;;142.2;-34.4666667;6;
2;AUS;Victoria;Cashmore;;141.4833333;-38.3166667;6;
2;AUS;Victoria;Cassilis;;147.6;-37.2166667;6;
2;AUS;Victoria;Castella;;145.4333333;-37.5166667;6;
2;AUS;Victoria;Casterton;;141.4;-37.5833333;6;
2;AUS;Victoria;Castlemaine;;144.2166667;-37.0666667;6;
2;AUS;Victoria;Catani;;145.6333333;-38.2;6;
2;AUS;Victoria;Cathkin;;145.5833333;-37.15;6;
2;AUS;Victoria;Caulfield;;145.0166667;-37.8833333;6;
2;AUS;Victoria;Cavendish;;142.0333333;-37.5166667;6;
2;AUS;Victoria;Ceres;;144.2666667;-38.1666667;6;
2;AUS;Victoria;Challambra;;142.5333333;-36.25;6;
2;AUS;Victoria;Chapple Vale;;143.3166667;-38.6333333;6;
2;AUS;Victoria;Charam;;141.5166667;-36.95;6;
2;AUS;Victoria;Charlton;;143.35;-36.2666667;6;
2;AUS;Victoria;Chelsea Heights;;145.1333333;-38.0333333;6;
2;AUS;Victoria;Chelsea;;145.1166667;-38.05;6;
2;AUS;Victoria;Cheltenham;;145.0480556;-37.9694444;6;
2;AUS;Victoria;Chepstowe;;143.5;-37.5833333;6;
2;AUS;Victoria;Cherrilong;;146.8833333;-38.5833333;6;
2;AUS;Victoria;Cherrypool;;142.1833333;-37.1;6;
2;AUS;Victoria;Cheshunt;;146.4333333;-36.8;6;
2;AUS;Victoria;Chetwynd East;;141.4333333;-37.2333333;6;
2;AUS;Victoria;Chetwynd;;141.4166667;-37.2833333;6;
2;AUS;Victoria;Cheviot;;145.4666667;-37.2333333;6;
2;AUS;Victoria;Chewton;;144.2666667;-37.0833333;6;
2;AUS;Victoria;Childers;;146.1166667;-38.3;6;
2;AUS;Victoria;Chillingollah East;;143.2;-35.2666667;6;
2;AUS;Victoria;Chillingollah;;143.05;-35.25;6;
2;AUS;Victoria;Chiltern Valley;;146.5333333;-36.1333333;6;
2;AUS;Victoria;Chiltern;;146.6166667;-36.1666667;6;
2;AUS;Victoria;Chinkapook;;142.95;-35.1833333;6;
2;AUS;Victoria;Chirrup;;143.1333333;-36.1666667;6;
2;AUS;Victoria;Chiselhurst;;145.3333333;-37.6333333;6;
2;AUS;Victoria;Christies;;146.4;-38.5333333;6;
2;AUS;Victoria;Christmas Hills;;145.3333333;-37.65;6;
2;AUS;Victoria;Christmastown;;146.55;-36.1166667;6;
2;AUS;Victoria;Chute;;143.3833333;-37.3333333;6;
2;AUS;Victoria;Clarendon;;143.9666667;-37.7;6;
2;AUS;Victoria;Clarkefield;;144.75;-37.4833333;6;
2;AUS;Victoria;Clarkes Hill;;143.9833333;-37.4833333;6;
2;AUS;Victoria;Clarkfield Station;;144.75;-37.4833333;6;
2;AUS;Victoria;Clayton North;;145.1333333;-37.9166667;6;
2;AUS;Victoria;Clear Lake;;141.8666667;-36.9333333;6;
2;AUS;Victoria;Clematis;;145.4166667;-37.9333333;6;
2;AUS;Victoria;Clifton Springs;;144.5666667;-38.15;6;
2;AUS;Victoria;Cloverlea;;146;-38.2333333;6;
2;AUS;Victoria;Club Terrace;;148.95;-37.5333333;6;
2;AUS;Victoria;Clunes;;143.7833333;-37.3;6;
2;AUS;Victoria;Clyde North;;145.3333333;-38.1166667;6;
2;AUS;Victoria;Clyde;;145.3333333;-38.1333333;6;
2;AUS;Victoria;Clydebank;;147.2;-38.05;6;
2;AUS;Victoria;Clydesdale;;144.1;-37.1833333;6;
2;AUS;Victoria;Coalville;;146.2666667;-38.25;6;
2;AUS;Victoria;Cobains;;147.15;-38.0833333;6;
2;AUS;Victoria;Cobannah;;147.1833333;-37.6333333;6;
2;AUS;Victoria;Cobaw;;144.6333333;-37.2666667;6;
2;AUS;Victoria;Cobbanah;;147.1833333;-37.6333333;6;
2;AUS;Victoria;Cobbannah;;147.1833333;-37.6333333;6;
2;AUS;Victoria;Cobden;;143.0666667;-38.3333333;6;
2;AUS;Victoria;Cobram;;145.65;-35.9166667;6;
2;AUS;Victoria;Cobrico;;143.0333333;-38.3;6;
2;AUS;Victoria;Cobungra;;147.4166667;-37.1;6;
2;AUS;Victoria;Coburg;;144.9666667;-37.75;6;
2;AUS;Victoria;Cocamba;;142.9;-35.1166667;6;
2;AUS;Victoria;Cockatoo Creek;;145.5;-37.9333333;6;
2;AUS;Victoria;Cockatoo;;145.5;-37.9333333;6;
2;AUS;Victoria;Codrington;;141.9666667;-38.2666667;6;
2;AUS;Victoria;Coghills Creek;;143.7666667;-37.3833333;6;
2;AUS;Victoria;Cohuna;;144.2;-35.8;6;
2;AUS;Victoria;Coimadai;;144.4666667;-37.6166667;6;
2;AUS;Victoria;Colac;;143.5833333;-38.3333333;6;
2;AUS;Victoria;Colbinabbin West;;144.7333333;-36.5833333;6;
2;AUS;Victoria;Colbinabbin;;144.8166667;-36.6;6;
2;AUS;Victoria;Coldstream;;145.3666667;-37.7166667;6;
2;AUS;Victoria;Coleraine;;141.7;-37.6;6;
2;AUS;Victoria;Coles Beach;;145.1;-38.4;6;
2;AUS;Victoria;Colignan;;142.3833333;-34.55;6;
2;AUS;Victoria;Collingwood;;144.9833333;-37.8;6;
2;AUS;Victoria;Combiebar;;149.0166667;-37.3833333;6;
2;AUS;Victoria;Combienbar;;149.0166667;-37.3833333;6;
2;AUS;Victoria;Condah South;;141.8;-38.1166667;6;
2;AUS;Victoria;Condah;;141.75;-37.95;6;
2;AUS;Victoria;Congupna Road;;145.4333333;-36.3;6;
2;AUS;Victoria;Connangorach;;142.0166667;-36.9666667;6;
2;AUS;Victoria;Connewarre;;144.4;-38.2666667;6;
2;AUS;Victoria;Connewirricoo;;141.4666667;-37.2;6;
2;AUS;Victoria;Cooma;;145.0666667;-36.4166667;6;
2;AUS;Victoria;Coonooer Bridge;;143.3166667;-36.4666667;6;
2;AUS;Victoria;Coopers Creek;;146.4333333;-37.9833333;6;
2;AUS;Victoria;Cope Cope;;143.05;-36.45;6;
2;AUS;Victoria;Cora Lynn;;145.6;-38.15;6;
2;AUS;Victoria;Corack East;;143.05;-36.1166667;6;
2;AUS;Victoria;Corack;;143.05;-36.1666667;6;
2;AUS;Victoria;Coragulac;;143.5333333;-38.2666667;6;
2;AUS;Victoria;Corindhap;;143.7333333;-37.8833333;6;
2;AUS;Victoria;Corinella;;145.4333333;-38.4166667;6;
2;AUS;Victoria;Corio;;144.3833333;-38.0833333;6;
2;AUS;Victoria;Cornella East;;144.8;-36.65;6;
2;AUS;Victoria;Cornella;;144.75;-36.7;6;
2;AUS;Victoria;Corobimilla;;146.4;-34.8666667;6;
2;AUS;Victoria;Coromby;;142.5166667;-36.55;6;
2;AUS;Victoria;Corop;;144.8;-36.4666667;6;
2;AUS;Victoria;Cororooke;;143.5166667;-38.2833333;6;
2;AUS;Victoria;Corryong;;147.8833333;-36.2;6;
2;AUS;Victoria;Cosgrove South;;145.6166667;-36.4;6;
2;AUS;Victoria;Cosgrove;;145.6666667;-36.35;6;
2;AUS;Victoria;Costerfield;;144.8;-36.8666667;6;
2;AUS;Victoria;Cotswold;;143.9;-37.1333333;6;
2;AUS;Victoria;Cottell's Bridge;;145.2166667;-37.6333333;6;
2;AUS;Victoria;Cottles Bridge;;145.2166667;-37.6333333;6;
2;AUS;Victoria;Cow Flat;;145.1833333;-37.85;6;
2;AUS;Victoria;Cowangie;;141.3666667;-35.2333333;6;
2;AUS;Victoria;Cowes;;145.2333333;-38.45;6;
2;AUS;Victoria;Cowleys Creek;;143;-38.5;6;
2;AUS;Victoria;Cowwarr;;146.6833333;-38.0166667;6;
2;AUS;Victoria;Craigieburn;;144.95;-37.6;6;
2;AUS;Victoria;Cramenton;;142.45;-34.8;6;
2;AUS;Victoria;Cranbourne;;145.25;-38.0833333;6;
2;AUS;Victoria;Cravensville;;147.5666667;-36.4166667;6;
2;AUS;Victoria;Creighton Creek;;145.5333333;-36.8666667;6;
2;AUS;Victoria;Creighton;;145.5;-36.7833333;6;
2;AUS;Victoria;Cressy;;143.6333333;-38.0333333;6;
2;AUS;Victoria;Creswick;;143.9166667;-37.4166667;6;
2;AUS;Victoria;Crib Point;;145.2;-38.35;6;
2;AUS;Victoria;Crichtons;;145.5;-37.9;6;
2;AUS;Victoria;Crieghton;;145.5;-36.7833333;6;
2;AUS;Victoria;Crossley;;142.3333333;-38.3;6;
2;AUS;Victoria;Crossover;;145.9666667;-38.05;6;
2;AUS;Victoria;Crowes;;143.35;-38.6833333;6;
2;AUS;Victoria;Crowlands;;143.1166667;-37.15;6;
2;AUS;Victoria;Croxton East;;142.2166667;-37.8;6;
2;AUS;Victoria;Croxton;;142.15;-37.7833333;6;
2;AUS;Victoria;Croydon North;;145.3;-37.7833333;6;
2;AUS;Victoria;Croydon;;145.2833333;-37.8;6;
2;AUS;Victoria;Cuddell;;146.35;-34.8;6;
2;AUS;Victoria;Cudgee;;142.65;-38.35;6;
2;AUS;Victoria;Cudgewa North;;147.8166667;-36.1166667;6;
2;AUS;Victoria;Cudgewa;;147.75;-36.2;6;
2;AUS;Victoria;Culgoa;;143.0833333;-35.7166667;6;
2;AUS;Victoria;Culla;;141.65;-37.2333333;6;
2;AUS;Victoria;Cundare;;143.5666667;-38.1166667;6;
2;AUS;Victoria;Cunninghame;;148.0333333;-37.8666667;6;
2;AUS;Victoria;Curdie Vale;;142.8333333;-38.5166667;6;
2;AUS;Victoria;Curdie;;142.9666667;-38.45;6;
2;AUS;Victoria;Curdies River;;142.9666667;-38.45;6;
2;AUS;Victoria;Curlewis;;144.4833333;-38.1833333;6;
2;AUS;Victoria;Curyo;;142.8;-35.8333333;6;
2;AUS;Victoria;Cypress Grove;;146.2666667;-38.65;6;
2;AUS;Victoria;Dadswells Bridge;;142.5166667;-36.9;6;
2;AUS;Victoria;Daisy Hill;;143.7166667;-37.1166667;6;
2;AUS;Victoria;Dalmalee;;142.1333333;-36.05;6;
2;AUS;Victoria;Dalmore East;;145.4666667;-38.1666667;6;
2;AUS;Victoria;Dalmore;;145.4166667;-38.1833333;6;
2;AUS;Victoria;Dalyston;;145.55;-38.5666667;6;
2;AUS;Victoria;Dandenong West;;145.2;-37.9833333;6;
2;AUS;Victoria;Dandenong;;145.2;-37.9833333;6;
2;AUS;Victoria;Dandongadale;;146.6666667;-36.8;6;
2;AUS;Victoria;Danyo;;141.2833333;-35.2666667;6;
2;AUS;Victoria;Darby;;146.2833333;-38.9833333;6;
2;AUS;Victoria;Darch;;145.1166667;-37.75;6;
2;AUS;Victoria;Dargo;;147.2666667;-37.4833333;6;
2;AUS;Victoria;Darley;;144.45;-37.6666667;6;
2;AUS;Victoria;Darlimurla;;146.2166667;-38.3666667;6;
2;AUS;Victoria;Darlingford;;146.0833333;-37.2;6;
2;AUS;Victoria;Darlington;;143.05;-38;6;
2;AUS;Victoria;Darnum;;146.0166667;-38.1833333;6;
2;AUS;Victoria;Darraweith Guim;;144.9;-37.4;6;
2;AUS;Victoria;Darriman;;146.9333333;-38.45;6;
2;AUS;Victoria;Dart Dart;;142.1833333;-36.4;6;
2;AUS;Victoria;Dartmoor;;141.2833333;-37.9333333;6;
2;AUS;Victoria;Dartmouth;;147.5833333;-36.5666667;6;
2;AUS;Victoria;Dattuck;;142.3;-35.5666667;6;
2;AUS;Victoria;Dawson;;146.7333333;-37.9833333;6;
2;AUS;Victoria;Day Trap North;;142.7666667;-35.2166667;6;
2;AUS;Victoria;Day Trap;;142.7666667;-35.2166667;6;
2;AUS;Victoria;Daylesford;;144.15;-37.35;6;
2;AUS;Victoria;Deakin;;144.9666667;-36.3;6;
2;AUS;Victoria;Dean;;143.9833333;-37.45;6;
2;AUS;Victoria;Deans Marsh;;143.8666667;-38.4;6;
2;AUS;Victoria;Dederang;;147.0166667;-36.4833333;6;
2;AUS;Victoria;Deep Lead;;142.7333333;-37.0166667;6;
2;AUS;Victoria;Deer Park;;144.7833333;-37.7666667;6;
2;AUS;Victoria;Delatite;;146.1333333;-37.15;6;
2;AUS;Victoria;Delburn;;146.2333333;-38.3333333;6;
2;AUS;Victoria;Delegate River;;148.8;-37.0666667;6;
2;AUS;Victoria;Dellicknora;;148.7;-37.1;6;
2;AUS;Victoria;Denicull Creek;;142.9;-37.3333333;6;
2;AUS;Victoria;Denison;;146.8833333;-38.0333333;6;
2;AUS;Victoria;Dennington;;142.45;-38.3666667;6;
2;AUS;Victoria;Denver;;144.3;-37.2666667;6;
2;AUS;Victoria;Deptford;;147.7;-37.5833333;6;
2;AUS;Victoria;Derby;;144.0166667;-36.65;6;
2;AUS;Victoria;Dereel;;143.7666667;-37.8166667;6;
2;AUS;Victoria;Dergholm;;141.2166667;-37.3833333;6;
2;AUS;Victoria;Dering;;142.2333333;-35.35;6;
2;AUS;Victoria;Derrimut;;144.7333333;-37.8166667;6;
2;AUS;Victoria;Derrinal;;144.6333333;-36.8833333;6;
2;AUS;Victoria;Derrinallum;;143.2166667;-37.95;6;
2;AUS;Victoria;Detpa Station;;141.85;-36.1333333;6;
2;AUS;Victoria;Detpa;;141.85;-36.1333333;6;
2;AUS;Victoria;Devenish;;145.9;-36.3333333;6;
2;AUS;Victoria;Devon Meadows;;145.3;-38.1666667;6;
2;AUS;Victoria;Devon;;146.65;-38.5166667;6;
2;AUS;Victoria;Devondale;;143.2833333;-38.65;6;
2;AUS;Victoria;Diamond Creek;;145.15;-37.6666667;6;
2;AUS;Victoria;Diapur;;141.4666667;-36.3166667;6;
2;AUS;Victoria;Digby;;141.5333333;-37.8;6;
2;AUS;Victoria;Diggers Rest;;144.7333333;-37.6333333;6;
2;AUS;Victoria;Diggora West;;144.5833333;-36.4166667;6;
2;AUS;Victoria;Diggora;;144.5833333;-36.4166667;6;
2;AUS;Victoria;Diggorra;;144.5833333;-36.4166667;6;
2;AUS;Victoria;Dimboola;;142.05;-36.4666667;6;
2;AUS;Victoria;Dingee;;144.2166667;-36.3666667;6;
2;AUS;Victoria;Dingley;;145.1166667;-37.9666667;6;
2;AUS;Victoria;Dingwall;;143.85;-35.8;6;
2;AUS;Victoria;Dinmont;;143.5666667;-38.6166667;6;
2;AUS;Victoria;Dinyarrak;;141.0666667;-36.3166667;6;
2;AUS;Victoria;Ditchley;;143.5833333;-38.6333333;6;
2;AUS;Victoria;Dixie;;142.9333333;-38.3;6;
2;AUS;Victoria;Dixons Creek;;145.4166667;-37.6;6;
2;AUS;Victoria;Dobie;;143.0333333;-37.3166667;6;
2;AUS;Victoria;Docker;;146.3833333;-36.5166667;6;
2;AUS;Victoria;Doctors Flat;;147.75;-37.3;6;
2;AUS;Victoria;Dollar;;146.1666667;-38.5666667;6;
2;AUS;Victoria;Donald;;143;-36.3666667;6;
2;AUS;Victoria;Doncaster East;;145.1666667;-37.7833333;6;
2;AUS;Victoria;Doncaster;;145.1333333;-37.7833333;6;
2;AUS;Victoria;Dondangadale;;146.6666667;-36.8;6;
2;AUS;Victoria;Donnybrook;;144.9833333;-37.5333333;6;
2;AUS;Victoria;Donvale;;145.1833333;-37.8;6;
2;AUS;Victoria;Dooboobetic;;143.2;-36.3666667;6;
2;AUS;Victoria;Dooen;;142.2833333;-36.6666667;6;
2;AUS;Victoria;Dookie;;145.7;-36.3333333;6;
2;AUS;Victoria;Dopewarra;;141.3666667;-36.7833333;6;
2;AUS;Victoria;Doreen;;145.15;-37.6;6;
2;AUS;Victoria;Doroq;;143.9666667;-38.1;6;
2;AUS;Victoria;Douglas;;141.7333333;-37.0333333;6;
2;AUS;Victoria;Dreeite;;143.5166667;-38.1833333;6;
2;AUS;Victoria;Drik Drik;;141.3;-38;6;
2;AUS;Victoria;Dromana;;144.9666667;-38.3333333;6;
2;AUS;Victoria;Drouin South;;145.8333333;-38.1666667;6;
2;AUS;Victoria;Drouin West;;145.8666667;-38.1;6;
2;AUS;Victoria;Drouin;;145.85;-38.1333333;6;
2;AUS;Victoria;Drumanure;;145.5;-36.1333333;6;
2;AUS;Victoria;Drumborg;;141.6;-38.0833333;6;
2;AUS;Victoria;Drummartin;;144.4333333;-36.45;6;
2;AUS;Victoria;Drummond;;144.3333333;-37.2333333;6;
2;AUS;Victoria;Drung Drung;;142.3333333;-36.7166667;6;
2;AUS;Victoria;Dry Creek;;145.85;-36.95;6;
2;AUS;Victoria;Drysdale;;144.5666667;-38.1666667;6;
2;AUS;Victoria;Duddo Wells;;141.2833333;-35.1833333;6;
2;AUS;Victoria;Dudley South;;145.5833333;-38.6;6;
2;AUS;Victoria;Dumbalk North;;146.1666667;-38.5166667;6;
2;AUS;Victoria;Dumbalk;;146.0833333;-38.5333333;6;
2;AUS;Victoria;Dumosa;;143.2166667;-35.9166667;6;
2;AUS;Victoria;Dunach;;143.7166667;-37.2166667;6;
2;AUS;Victoria;Dunbulbalane;;145.5666667;-36.1166667;6;
2;AUS;Victoria;Dundonnell;;142.9833333;-37.85;6;
2;AUS;Victoria;Dunkeld;;142.35;-37.65;6;
2;AUS;Victoria;Dunluce;;143.6;-36.9;6;
2;AUS;Victoria;Dunmore;;141.8833333;-38.15;6;
2;AUS;Victoria;Dunneworthy;;143.0666667;-37.2;6;
2;AUS;Victoria;Dunnstown;;143.9833333;-37.6;6;
2;AUS;Victoria;Dunolly;;143.7333333;-36.85;6;
2;AUS;Victoria;Durham Lead;;143.8833333;-37.7;6;
2;AUS;Victoria;Durham Ox;;143.9166667;-36.1333333;6;
2;AUS;Victoria;Dutson;;147.1833333;-38.1833333;6;
2;AUS;Victoria;Duverney;;143.5666667;-38.0166667;6;
2;AUS;Victoria;Eagle Point;;147.6833333;-37.9;6;
2;AUS;Victoria;Eaglehawk;;144.25;-36.7333333;6;
2;AUS;Victoria;Earlston;;145.6666667;-36.55;6;
2;AUS;Victoria;Eastville;;143.9333333;-36.85;6;
2;AUS;Victoria;Ebbanora;;143.1666667;-37.7833333;6;
2;AUS;Victoria;Ebden;;147.0333333;-36.15;6;
2;AUS;Victoria;Echuca Village;;144.8166667;-36.1333333;6;
2;AUS;Victoria;Echuca;;144.75;-36.1333333;6;
2;AUS;Victoria;Ecklin South;;142.9166667;-38.4;6;
2;AUS;Victoria;Eddington;;143.85;-36.8833333;6;
2;AUS;Victoria;Eden Park;;145.0833333;-37.4833333;6;
2;AUS;Victoria;Edenhope;;141.3;-37.05;6;
2;AUS;Victoria;Edgecombe;;144.4333333;-37.1833333;6;
2;AUS;Victoria;Edi Upper;;146.45;-36.7;6;
2;AUS;Victoria;Edi;;146.4333333;-36.65;6;
2;AUS;Victoria;Edithvale;;145.1166667;-38.0333333;6;
2;AUS;Victoria;Eganstown;;144.0833333;-37.3666667;6;
2;AUS;Victoria;Egerton;;144.1;-37.6333333;6;
2;AUS;Victoria;Eildon Weir;;145.9333333;-37.2333333;6;
2;AUS;Victoria;Eildon;;145.9166667;-37.2333333;6;
2;AUS;Victoria;Elaine;;144.0333333;-37.7833333;6;
2;AUS;Victoria;Eldorado;;146.5166667;-36.3;6;
2;AUS;Victoria;Elingamite North;;143.0166667;-38.35;6;
2;AUS;Victoria;Elingamite;;143.0166667;-38.3833333;6;
2;AUS;Victoria;Ellam;;142.05;-36.05;6;
2;AUS;Victoria;Ellerside;;145.7166667;-38.55;6;
2;AUS;Victoria;Ellerslie;;142.7;-38.15;6;
2;AUS;Victoria;Elliminyt;;143.5833333;-38.35;6;
2;AUS;Victoria;Ellinbank;;145.9333333;-38.2333333;6;
2;AUS;Victoria;Elmhurst;;143.25;-37.1666667;6;
2;AUS;Victoria;Elmore;;144.6;-36.5;6;
2;AUS;Victoria;Elphinstone;;144.3333333;-37.1;6;
2;AUS;Victoria;Elsternwick;;145.0025;-37.8863889;6;
2;AUS;Victoria;Eltham North;;145.15;-37.7;6;
2;AUS;Victoria;Eltham;;145.15;-37.7333333;6;
2;AUS;Victoria;Elwood;;144.9780556;-37.8822222;6;
2;AUS;Victoria;Emerald;;145.4333333;-37.9333333;6;
2;AUS;Victoria;Emu Creek;;144.35;-36.8333333;6;
2;AUS;Victoria;Emu Flat;;144.7666667;-37.1166667;6;
2;AUS;Victoria;Emu;;143.4666667;-36.7333333;6;
2;AUS;Victoria;Enfiel;;143.7833333;-37.75;6;
2;AUS;Victoria;Englefield;;141.8333333;-37.3166667;6;
2;AUS;Victoria;English's Corner;;146.4166667;-38.4666667;6;
2;AUS;Victoria;Enochs Point;;146.1;-37.4166667;6;
2;AUS;Victoria;Ensay South;;147.8;-37.3666667;6;
2;AUS;Victoria;Ensay;;147.8333333;-37.3833333;6;
2;AUS;Victoria;Eppalock;;144.4166667;-36.8333333;6;
2;AUS;Victoria;Epping;;145.0333333;-37.65;6;
2;AUS;Victoria;Epsom;;144.3166667;-36.7166667;6;
2;AUS;Victoria;Erica;;146.3666667;-37.9833333;6;
2;AUS;Victoria;Erreys;;145.65;-37.85;6;
2;AUS;Victoria;Eskdale;;147.2333333;-36.4666667;6;
2;AUS;Victoria;Esmond;;146.1833333;-36.05;6;
2;AUS;Victoria;Essendon;;144.9166667;-37.7666667;6;
2;AUS;Victoria;Eurack;;143.7;-38.15;6;
2;AUS;Victoria;Eurambeen;;143.3166667;-37.4;6;
2;AUS;Victoria;Euroa;;145.5666667;-36.75;6;
2;AUS;Victoria;Eurobin;;146.8666667;-36.6333333;6;
2;AUS;Victoria;Evansford;;143.6333333;-37.25;6;
2;AUS;Victoria;Evelyn;;145.3833333;-37.7833333;6;
2;AUS;Victoria;Evergreen;;145.8166667;-38.7;6;
2;AUS;Victoria;Eversley;;143.1666667;-37.2;6;
2;AUS;Victoria;Everton;;146.55;-36.4166667;6;
2;AUS;Victoria;Exford;;144.5833333;-37.75;6;
2;AUS;Victoria;Fairhaven;;145.2833333;-38.35;6;
2;AUS;Victoria;Fairley;;143.8666667;-35.7;6;
2;AUS;Victoria;Fairy Dell;;144.75;-36.3333333;6;
2;AUS;Victoria;Faraday;;144.3;-37.05;6;
2;AUS;Victoria;Fawcett;;145.6833333;-37.1333333;6;
2;AUS;Victoria;Fawkner;;144.9666667;-37.7166667;6;
2;AUS;Victoria;Fentons Creek;;143.5333333;-36.5666667;6;
2;AUS;Victoria;Fenwick;;144.5166667;-38.25;6;
2;AUS;Victoria;Ferguson;;143.5333333;-38.6333333;6;
2;AUS;Victoria;Fern Hill;;144.4;-37.3666667;6;
2;AUS;Victoria;Fern Tree Gully;;145.3;-37.8833333;6;
2;AUS;Victoria;Fernbank;;147.3166667;-37.8666667;6;
2;AUS;Victoria;Ferndale;;145.9333333;-38.3166667;6;
2;AUS;Victoria;Fernihurst;;143.8666667;-36.25;6;
2;AUS;Victoria;Fernshaw;;145.6333333;-37.6;6;
2;AUS;Victoria;Ferny Creek;;145.3333333;-37.8833333;6;
2;AUS;Victoria;Fielder;;145.5166667;-37.95;6;
2;AUS;Victoria;Fiery Flat;;143.8;-36.4;6;
2;AUS;Victoria;Fish Creek;;146.0833333;-38.6833333;6;
2;AUS;Victoria;Fish Point;;143.7166667;-35.4333333;6;
2;AUS;Victoria;Fitzroy;;144.9833333;-37.7833333;6;
2;AUS;Victoria;Five Ways;;145.3166667;-38.1666667;6;
2;AUS;Victoria;Flinders;;145.0166667;-38.4666667;6;
2;AUS;Victoria;Flinn;;146.6833333;-38.1666667;6;
2;AUS;Victoria;Flinnstead;;146.6833333;-38.1666667;6;
2;AUS;Victoria;Flowerdale;;145.3333333;-37.3333333;6;
2;AUS;Victoria;Flynn;;146.6833333;-38.1666667;6;
2;AUS;Victoria;Flynn's Creek Upper;;146.65;-38.2333333;6;
2;AUS;Victoria;Flynn's Creek;;146.6833333;-38.2333333;6;
2;AUS;Victoria;Footscray;;144.9;-37.8;6;
2;AUS;Victoria;Forest Hill;;145.65;-38.5333333;6;
2;AUS;Victoria;Forge Creek;;147.6333333;-37.9;6;
2;AUS;Victoria;Forrest;;143.7166667;-38.5166667;6;
2;AUS;Victoria;Foster;;146.1833333;-38.65;6;
2;AUS;Victoria;Fosterville;;144.5;-36.7;6;
2;AUS;Victoria;Foxhow;;143.4666667;-38.05;6;
2;AUS;Victoria;Framlingham East;;142.7;-38.2;6;
2;AUS;Victoria;Framlingham;;142.7166667;-38.2333333;6;
2;AUS;Victoria;Franklinford;;144.1;-37.2333333;6;
2;AUS;Victoria;Frankston East;;145.1333333;-38.1333333;6;
2;AUS;Victoria;Frankston;;145.1166667;-38.1333333;6;
2;AUS;Victoria;Freeburgh;;147.0333333;-36.7833333;6;
2;AUS;Victoria;Freshwater Creek;;144.2833333;-38.2666667;6;
2;AUS;Victoria;Fryerstown;;144.25;-37.1333333;6;
2;AUS;Victoria;Fulham;;146.9833333;-38.1;6;
2;AUS;Victoria;Fumina South;;146.1166667;-37.95;6;
2;AUS;Victoria;Fumina;;146.1;-37.8833333;6;
2;AUS;Victoria;Fyans Creek;;142.5833333;-37.0666667;6;
2;AUS;Victoria;Fyansford;;144.3166667;-38.1333333;6;
2;AUS;Victoria;Gaffneys Creek;;146.1833333;-37.4666667;6;
2;AUS;Victoria;Gainsborough;;145.9666667;-38.2333333;6;
2;AUS;Victoria;Galah;;142.1666667;-35.0833333;6;
2;AUS;Victoria;Galaquil;;142.4166667;-36;6;
2;AUS;Victoria;Gama;;142.5333333;-35.5333333;6;
2;AUS;Victoria;Gannawarra;;144.15;-35.7333333;6;
2;AUS;Victoria;Gapstead;;146.6833333;-36.5166667;6;
2;AUS;Victoria;Gapsted;;146.6833333;-36.5166667;6;
2;AUS;Victoria;Garfield;;145.6833333;-38.0666667;6;
2;AUS;Victoria;Garibaldi;;143.8833333;-37.7333333;6;
2;AUS;Victoria;Garlicks;;144.2833333;-37.4166667;6;
2;AUS;Victoria;Garup;;142.2166667;-36.5166667;6;
2;AUS;Victoria;Garvoc;;142.8333333;-38.3;6;
2;AUS;Victoria;Gatum;;141.9333333;-37.4166667;6;
2;AUS;Victoria;Geelengla;;143.1833333;-37.9833333;6;
2;AUS;Victoria;Geelong West;;144.35;-38.1333333;6;
2;AUS;Victoria;Geelong;;144.35;-38.1583333;6;
2;AUS;Victoria;Gelantipy;;148.2833333;-37.1833333;6;
2;AUS;Victoria;Gellibrand River;;143.5333333;-38.5166667;6;
2;AUS;Victoria;Gellibrand;;143.5333333;-38.5166667;6;
2;AUS;Victoria;Gelliondale;;146.6;-38.6166667;6;
2;AUS;Victoria;Gembrook North;;145.5666667;-37.9333333;6;
2;AUS;Victoria;Gembrook South;;145.5333333;-38.0166667;6;
2;AUS;Victoria;Gembrook West;;145.5;-37.9666667;6;
2;AUS;Victoria;Gembrook;;145.55;-37.95;6;
2;AUS;Victoria;Genoa;;149.5833333;-37.4833333;6;
2;AUS;Victoria;Georges Creek;;147.2833333;-36.1833333;6;
2;AUS;Victoria;Gerang Gerung;;141.9;-36.3666667;6;
2;AUS;Victoria;Gerangamete;;143.7333333;-38.45;6;
2;AUS;Victoria;Germantown;;145;-37.6666667;6;
2;AUS;Victoria;Gheringhap;;144.2333333;-38.0833333;6;
2;AUS;Victoria;Giffard;;147.0833333;-38.4166667;6;
2;AUS;Victoria;Gilderoy;;145.7166667;-37.8666667;6;
2;AUS;Victoria;Gillieston;;145.2166667;-36.3166667;6;
2;AUS;Victoria;Gillinggall;;148.15;-37.3166667;6;
2;AUS;Victoria;Ginquam;;142.0666667;-34.3833333;6;
2;AUS;Victoria;Gipsy Point;;149.6833333;-37.4666667;6;
2;AUS;Victoria;Girgarre East;;145.0666667;-36.4333333;6;
2;AUS;Victoria;Gisborne;;144.5833333;-37.4833333;6;
2;AUS;Victoria;Gladfield;;143.95;-36.05;6;
2;AUS;Victoria;Gladysdale;;145.65;-37.8;6;
2;AUS;Victoria;Glen Alvie;;145.7;-38.5166667;6;
2;AUS;Victoria;Glen Creek;;146.95;-36.45;6;
2;AUS;Victoria;Glen Forbes;;145.5333333;-38.45;6;
2;AUS;Victoria;Glen Thompson;;142.55;-37.6333333;6;
2;AUS;Victoria;Glen Valley;;147.4833333;-36.8666667;6;
2;AUS;Victoria;Glen Waverley;;145.1666667;-37.8833333;6;
2;AUS;Victoria;Glen Wills;;147.5166667;-36.85;6;
2;AUS;Victoria;Glenaladale;;147.35;-37.7833333;6;
2;AUS;Victoria;Glenalbyn;;143.7333333;-36.5166667;6;
2;AUS;Victoria;Glenaroua;;144.9666667;-37.1;6;
2;AUS;Victoria;Glenbrae;;143.5666667;-37.35;6;
2;AUS;Victoria;Glenburn;;145.4166667;-37.4166667;6;
2;AUS;Victoria;Glencairn;;146.5666667;-37.5333333;6;
2;AUS;Victoria;Glendart;;147.7666667;-36.5166667;6;
2;AUS;Victoria;Glendaruel;;143.7166667;-37.35;6;
2;AUS;Victoria;Glendonald;;143.8333333;-37.3333333;6;
2;AUS;Victoria;Glenfyne;;142.9833333;-38.4;6;
2;AUS;Victoria;Glengarry West;;146.5166667;-38.15;6;
2;AUS;Victoria;Glengarry;;146.5666667;-38.1166667;6;
2;AUS;Victoria;Glengower;;143.8833333;-37.2166667;6;
2;AUS;Victoria;Glenhope;;144.6;-37.0833333;6;
2;AUS;Victoria;Glenisla;;142.1666667;-37.2333333;6;
2;AUS;Victoria;Glenlee;;141.85;-36.2166667;6;
2;AUS;Victoria;Glenlofty Creek;;143.2166667;-37.1166667;6;
2;AUS;Victoria;Glenloth;;143.3166667;-36.1333333;6;
2;AUS;Victoria;Glenluce;;144.2333333;-37.1666667;6;
2;AUS;Victoria;Glenlyon;;144.25;-37.3;6;
2;AUS;Victoria;Glenmaggie;;146.75;-37.9;6;
2;AUS;Victoria;Glennons Hill;;145.25;-37.6333333;6;
2;AUS;Victoria;Glenorchy;;142.6833333;-36.9;6;
2;AUS;Victoria;Glenormiston North;;142.9833333;-38.15;6;
2;AUS;Victoria;Glenormiston South;;142.9666667;-38.1833333;6;
2;AUS;Victoria;Glenormiston;;142.9666667;-38.1833333;6;
2;AUS;Victoria;Glenpark;;143.9333333;-37.5166667;6;
2;AUS;Victoria;Glenpatrick;;143.3166667;-37.1333333;6;
2;AUS;Victoria;Glenrose;;146.6;-38.5166667;6;
2;AUS;Victoria;Glenrowan;;146.2333333;-36.4666667;6;
2;AUS;Victoria;Glenroy;;144.9333333;-37.7;6;
2;AUS;Victoria;Glenshee;;143.2666667;-37.0666667;6;
2;AUS;Victoria;Glenvale;;145.1;-37.4666667;6;
2;AUS;Victoria;Gnarkeet;;143.4;-37.9666667;6;
2;AUS;Victoria;Gnarwarre;;144.15;-38.1666667;6;
2;AUS;Victoria;Gnotuk;;143.1166667;-38.2166667;6;
2;AUS;Victoria;Gobur;;145.6;-37.0166667;6;
2;AUS;Victoria;Golden Lake;;143.7166667;-37.7166667;6;
2;AUS;Victoria;Goldsborough;;143.6833333;-36.8166667;6;
2;AUS;Victoria;Gong Gong;;143.9333333;-37.55;6;
2;AUS;Victoria;Goomalibee;;145.9166667;-36.4833333;6;
2;AUS;Victoria;Goon Nure;;147.65;-37.95;6;
2;AUS;Victoria;Goonooer;;143.3166667;-36.4666667;6;
2;AUS;Victoria;Gooram Gong;;145.5833333;-36.9;6;
2;AUS;Victoria;Gooramadda;;146.55;-36;6;
2;AUS;Victoria;Goorambat East;;145.9833333;-36.4166667;6;
2;AUS;Victoria;Goorambat;;145.9166667;-36.4166667;6;
2;AUS;Victoria;Goornong;;144.5;-36.6166667;6;
2;AUS;Victoria;Gooroc;;143.2;-36.4666667;6;
2;AUS;Victoria;Gorae West;;141.4833333;-38.25;6;
2;AUS;Victoria;Gorae;;141.55;-38.2333333;6;
2;AUS;Victoria;Gordon;;144.1;-37.5833333;6;
2;AUS;Victoria;Gorea West;;141.4833333;-38.25;6;
2;AUS;Victoria;Gorea;;141.55;-38.2333333;6;
2;AUS;Victoria;Gormandale;;146.7;-38.2833333;6;
2;AUS;Victoria;Goroke;;141.4833333;-36.7166667;6;
2;AUS;Victoria;Goschen;;143.4666667;-35.4833333;6;
2;AUS;Victoria;Goulburn Weir;;145.1833333;-36.7166667;6;
2;AUS;Victoria;Gould;;146.35;-38.0666667;6;
2;AUS;Victoria;Gowanford;;143.2;-35.4166667;6;
2;AUS;Victoria;Gowangardie East;;145.7;-36.4833333;6;
2;AUS;Victoria;Gowangardie;;145.7;-36.4833333;6;
2;AUS;Victoria;Gowar East;;143.4166667;-36.55;6;
2;AUS;Victoria;Gowar;;144.1166667;-37.0333333;6;
2;AUS;Victoria;Goyura;;142.4;-35.7833333;6;
2;AUS;Victoria;Grahams Hill;;143.85;-37.4166667;6;
2;AUS;Victoria;Grampians;;142.5;-37.0333333;6;
2;AUS;Victoria;Granite;;145.2166667;-37.1166667;6;
2;AUS;Victoria;Grant;;147.15;-37.35;6;
2;AUS;Victoria;Grantville;;145.5333333;-38.4;6;
2;AUS;Victoria;Granya;;147.3166667;-36.1166667;6;
2;AUS;Victoria;Grassdale;;141.65;-37.8;6;
2;AUS;Victoria;Grassmere;;142.5333333;-38.2833333;6;
2;AUS;Victoria;Graytown;;144.95;-36.8166667;6;
2;AUS;Victoria;Gre Gre North;;143.0666667;-36.5833333;6;
2;AUS;Victoria;Gre Gre;;143.0666667;-36.6666667;6;
2;AUS;Victoria;Great Southern;;146.4833333;-36.0666667;6;
2;AUS;Victoria;Great Western;;142.85;-37.15;6;
2;AUS;Victoria;Gredgwin;;143.6333333;-35.9666667;6;
2;AUS;Victoria;Green Lakes;;142.3;-36.7833333;6;
2;AUS;Victoria;Greendale;;144.3166667;-37.5666667;6;
2;AUS;Victoria;Greens Creek;;142.95;-36.9333333;6;
2;AUS;Victoria;Greenvale;;144.8666667;-37.6333333;6;
2;AUS;Victoria;Greenwald;;141.3666667;-37.9666667;6;
2;AUS;Victoria;Grenville;;143.8833333;-37.7666667;6;
2;AUS;Victoria;Greta South;;146.25;-36.6166667;6;
2;AUS;Victoria;Greta West;;146.2166667;-36.5333333;6;
2;AUS;Victoria;Greta;;146.2833333;-36.5833333;6;
2;AUS;Victoria;Gringegalgona;;141.8166667;-37.4166667;6;
2;AUS;Victoria;Gritjurk;;141.7666667;-37.5833333;6;
2;AUS;Victoria;Grovedale;;144.35;-38.2;6;
2;AUS;Victoria;Gruyere;;145.45;-37.7333333;6;
2;AUS;Victoria;Guildford;;144.1666667;-37.1666667;6;
2;AUS;Victoria;Gunbower;;144.3666667;-35.95;6;
2;AUS;Victoria;Gundowring;;147.05;-36.4333333;6;
2;AUS;Victoria;Gunyah Gunyah;;146.3166667;-38.5333333;6;
2;AUS;Victoria;Gunyah;;146.3166667;-38.5333333;6;
2;AUS;Victoria;Guy Hill;;145.3666667;-38;6;
2;AUS;Victoria;Guys Forest;;147.65;-36.0666667;6;
2;AUS;Victoria;Gymbowen;;141.6;-36.7333333;6;
2;AUS;Victoria;Haddon;;143.7166667;-37.6;6;
2;AUS;Victoria;Hallam;;145.2666667;-38.0166667;6;
2;AUS;Victoria;Hallora;;145.8333333;-38.2666667;6;
2;AUS;Victoria;Halls Gap;;142.55;-37.1166667;6;
2;AUS;Victoria;Hallston;;146.0333333;-38.3666667;6;
2;AUS;Victoria;Hamilton;;142.0333333;-37.75;6;
2;AUS;Victoria;Hampaton;;144.9972222;-37.9366667;6;
2;AUS;Victoria;Hampton Park;;145.25;-38.0333333;6;
2;AUS;Victoria;Hansonville;;146.3;-36.6;6;
2;AUS;Victoria;Happy Valley;;143.6;-37.7166667;6;
2;AUS;Victoria;Harcourt;;144.25;-37;6;
2;AUS;Victoria;Hardies Hill;;143.9;-37.7166667;6;
2;AUS;Victoria;Harkaway;;145.35;-38;6;
2;AUS;Victoria;Harrietville;;147.0666667;-36.9166667;6;
2;AUS;Victoria;Harrisfield;;145.1833333;-37.95;6;
2;AUS;Victoria;Harrow;;141.6;-37.1666667;6;
2;AUS;Victoria;Harston;;145.15;-36.4666667;6;
2;AUS;Victoria;Hastings;;145.1833333;-38.3;6;
2;AUS;Victoria;Hattah;;142.2833333;-34.7666667;6;
2;AUS;Victoria;Haunted Hills;;146.3333333;-38.2;6;
2;AUS;Victoria;Havelock;;143.7833333;-36.9666667;6;
2;AUS;Victoria;Hawkesdale West;;142.2666667;-38.1;6;
2;AUS;Victoria;Hawkesdale;;142.3166667;-38.1166667;6;
2;AUS;Victoria;Hawthorn;;145.0333333;-37.8333333;6;
2;AUS;Victoria;Hayanmi;;144.1833333;-36.2666667;6;
2;AUS;Victoria;Haysdale;;143.2833333;-34.8833333;6;
2;AUS;Victoria;Hazel Park;;146.3833333;-38.6333333;6;
2;AUS;Victoria;Hazelwood;;146.35;-38.2833333;6;
2;AUS;Victoria;Healesville West;;145.5;-37.6;6;
2;AUS;Victoria;Healesville;;145.5166667;-37.65;6;
2;AUS;Victoria;Heath Hill;;145.7;-38.25;6;
2;AUS;Victoria;Heathcote;;144.7166667;-36.9166667;6;
2;AUS;Victoria;Heathfield Station;;141.15;-37.5833333;6;
2;AUS;Victoria;Heathfield;;141.15;-37.5833333;6;
2;AUS;Victoria;Heathmere;;141.6166667;-38.2166667;6;
2;AUS;Victoria;Heathmont;;145.25;-37.8333333;6;
2;AUS;Victoria;Hedley;;146.5;-38.6333333;6;
2;AUS;Victoria;Heidelberg;;145.0666667;-37.75;6;
2;AUS;Victoria;Helens Plains;;142.3833333;-36.8;6;
2;AUS;Victoria;Henlow;;147.4833333;-36.3833333;6;
2;AUS;Victoria;Henty;;141.5166667;-37.6666667;6;
2;AUS;Victoria;Hepburn Springs;;144.15;-37.3166667;6;
2;AUS;Victoria;Hepburn;;144.1333333;-37.3166667;6;
2;AUS;Victoria;Hesket;;144.65;-37.35;6;
2;AUS;Victoria;Hexham;;142.7;-38;6;
2;AUS;Victoria;Heytesbury Lower;;142.9333333;-38.5666667;6;
2;AUS;Victoria;Heywood;;141.6333333;-38.1333333;6;
2;AUS;Victoria;Hiawatha;;146.4666667;-38.5166667;6;
2;AUS;Victoria;Hicksborough;;145.5666667;-38.5833333;6;
2;AUS;Victoria;High Camp;;144.9;-37.1833333;6;
2;AUS;Victoria;Highett;;145.0394444;-37.9516667;6;
2;AUS;Victoria;Highlands;;145.4;-37.1;6;
2;AUS;Victoria;Hill End;;146.15;-38.0166667;6;
2;AUS;Victoria;Hillcrest;;143.6333333;-37.6166667;6;
2;AUS;Victoria;Hilldene;;145.0666667;-37.0333333;6;
2;AUS;Victoria;Hillsborough;;146.8333333;-36.4166667;6;
2;AUS;Victoria;Hillside;;147.5;-37.8333333;6;
2;AUS;Victoria;Hinnomunjie;;147.65;-37.0166667;6;
2;AUS;Victoria;Hoddle Range;;146.1333333;-38.6833333;6;
2;AUS;Victoria;Hoddles Creek;;145.5833333;-37.8333333;6;
2;AUS;Victoria;Hollinwood;;143.85;-37.3666667;6;
2;AUS;Victoria;Holly Bush;;143.55;-37.8333333;6;
2;AUS;Victoria;Homebush Lower;;143.5166667;-37.0333333;6;
2;AUS;Victoria;Homebush;;143.5333333;-37.05;6;
2;AUS;Victoria;Homecroft;;142.6;-36.25;6;
2;AUS;Victoria;Homerton;;141.7833333;-38.1333333;6;
2;AUS;Victoria;Homewood;;145.3333333;-37.2;6;
2;AUS;Victoria;Hoods;;146.3833333;-38.5;6;
2;AUS;Victoria;Hopetoun;;142.3666667;-35.7333333;6;
2;AUS;Victoria;Hopevale;;142.2333333;-35.8;6;
2;AUS;Victoria;Hordern Vale;;143.5166667;-38.7833333;6;
2;AUS;Victoria;Horsham;;142.2;-36.7166667;6;
2;AUS;Victoria;Hospital Creek;;148.1833333;-37.7;6;
2;AUS;Victoria;Hotspur;;141.5666667;-37.9333333;6;
2;AUS;Victoria;Howes Creek;;146;-37.1666667;6;
2;AUS;Victoria;Howqua;;146.1166667;-37.2333333;6;
2;AUS;Victoria;Humevale;;145.1666667;-37.5;6;
2;AUS;Victoria;Hunter;;144.5166667;-36.45;6;
2;AUS;Victoria;Huntly;;144.3333333;-36.6666667;6;
2;AUS;Victoria;Huon;;147.0666667;-36.2333333;6;
2;AUS;Victoria;Hurdle Flat;;146.7333333;-36.3833333;6;
2;AUS;Victoria;Hurstbridge;;145.2166667;-37.65;6;
2;AUS;Victoria;Iguana Creek;;147.3166667;-37.7333333;6;
2;AUS;Victoria;Illabarook;;143.6666667;-37.8333333;6;
2;AUS;Victoria;Illabrook;;143.6666667;-37.8333333;6;
2;AUS;Victoria;Illawarra;;142.7;-37.0666667;6;
2;AUS;Victoria;Illowa;;142.4166667;-38.3333333;6;
2;AUS;Victoria;Indigo Upper;;146.7833333;-36.2333333;6;
2;AUS;Victoria;Indigo;;146.5666667;-36.1;6;
2;AUS;Victoria;Inglewood;;143.8666667;-36.5833333;6;
2;AUS;Victoria;Ingliston;;144.3;-37.65;6;
2;AUS;Victoria;Invergordon;;145.5833333;-36.1666667;6;
2;AUS;Victoria;Inverleigh;;144.05;-38.1;6;
2;AUS;Victoria;Inverloch;;145.7166667;-38.6333333;6;
2;AUS;Victoria;Iona;;145.6833333;-38.1333333;6;
2;AUS;Victoria;Iraak;;142.3333333;-34.4333333;6;
2;AUS;Victoria;Irrewarra;;143.6333333;-38.3166667;6;
2;AUS;Victoria;Irrewillipe;;143.4166667;-38.4;6;
2;AUS;Victoria;Irymple;;142.1666667;-34.25;6;
2;AUS;Victoria;Italian Gully;;143.6666667;-37.7;6;
2;AUS;Victoria;Jack River;;146.5666667;-38.55;6;
2;AUS;Victoria;Jallukar;;142.7;-37.25;6;
2;AUS;Victoria;Jallumba;;141.95;-36.9333333;6;
2;AUS;Victoria;Jamieson;;146.1333333;-37.3166667;6;
2;AUS;Victoria;Jan Jue;;144.2666667;-38.3333333;6;
2;AUS;Victoria;Jancourt;;143.1;-38.3666667;6;
2;AUS;Victoria;Janiembar East;;143.9833333;-36.3333333;6;
2;AUS;Victoria;Janiember East;;143.9833333;-36.3333333;6;
2;AUS;Victoria;Jarklin;;143.9666667;-36.2666667;6;
2;AUS;Victoria;Jeeralang Junction;;146.4166667;-38.3333333;6;
2;AUS;Victoria;Jeeralang North;;146.45;-38.3666667;6;
2;AUS;Victoria;Jeeralang West;;146.4166667;-38.3333333;6;
2;AUS;Victoria;Jeeralang;;146.4666667;-38.4;6;
2;AUS;Victoria;Jeetho;;145.7166667;-38.3833333;6;
2;AUS;Victoria;Jeffries;;141.9;-37.0666667;6;
2;AUS;Victoria;Jeparit;;141.9833333;-36.15;6;
2;AUS;Victoria;Jerro;;142.3833333;-36.6;6;
2;AUS;Victoria;Jeruk;;143.3833333;-36.05;6;
2;AUS;Victoria;Jil Jil;;142.9666667;-35.8166667;6;
2;AUS;Victoria;Jindivick;;145.9;-38.0333333;6;
2;AUS;Victoria;Joel Joel;;142.9833333;-37.0166667;6;
2;AUS;Victoria;Joel South;;143.0666667;-37.1333333;6;
2;AUS;Victoria;Johaana;;143.3666667;-38.75;6;
2;AUS;Victoria;Johanna;;143.3666667;-38.75;6;
2;AUS;Victoria;Johnsonville;;147.8;-37.8166667;6;
2;AUS;Victoria;Jordan;;146.2666667;-37.6333333;6;
2;AUS;Victoria;Jordanville;;145.1166667;-37.8833333;6;
2;AUS;Victoria;Joyces Creek;;144.0166667;-37.0833333;6;
2;AUS;Victoria;Jumbuk;;146.4666667;-38.4166667;6;
2;AUS;Victoria;Jumbunna;;145.7666667;-38.4666667;6;
2;AUS;Victoria;Jung;;142.3666667;-36.6166667;6;
2;AUS;Victoria;Kaarimba;;145.25;-36.1333333;6;
2;AUS;Victoria;Kalimna;;147.95;-37.8833333;6;
2;AUS;Victoria;Kalkallo;;144.95;-37.5333333;6;
2;AUS;Victoria;Kalkee;;142.2333333;-36.5333333;6;
2;AUS;Victoria;Kallista;;145.3666667;-37.8833333;6;
2;AUS;Victoria;Kalllster;;145.3666667;-37.8833333;6;
2;AUS;Victoria;Kalorama;;145.3666667;-37.8166667;6;
2;AUS;Victoria;Kalpienung;;143.2666667;-35.7833333;6;
2;AUS;Victoria;Kamarooka;;144.3333333;-36.4666667;6;
2;AUS;Victoria;Kambruk;;143.65;-38.75;6;
2;AUS;Victoria;Kanagulk;;141.8666667;-37.1333333;6;
2;AUS;Victoria;Kanawalla;;142.05;-37.6833333;6;
2;AUS;Victoria;Kancoona;;146.9833333;-36.5833333;6;
2;AUS;Victoria;Kangaroo Flat;;144.25;-36.8;6;
2;AUS;Victoria;Kaniva;;141.25;-36.3833333;6;
2;AUS;Victoria;Kanumbra;;145.6666667;-37.05;6;
2;AUS;Victoria;Kanya;;143;-36.7666667;6;
2;AUS;Victoria;Kanyapella;;144.9;-36.1;6;
2;AUS;Victoria;Karabeal;;142.1833333;-37.6;6;
2;AUS;Victoria;Kardella South;;145.8833333;-38.45;6;
2;AUS;Victoria;Kardella;;145.8666667;-38.4166667;6;
2;AUS;Victoria;Kariah;;143.2166667;-38.1833333;6;
2;AUS;Victoria;Karimba;;145.25;-36.1333333;6;
2;AUS;Victoria;Karnak;;141.5;-36.8666667;6;
2;AUS;Victoria;Karramomous North;;145.4833333;-36.5333333;6;
2;AUS;Victoria;Karramomus North;;145.4833333;-36.5333333;6;
2;AUS;Victoria;Karyrie;;142.85;-35.9;6;
2;AUS;Victoria;Katamatite;;145.7;-36.0833333;6;
2;AUS;Victoria;Katandra;;145.6166667;-36.2333333;6;
2;AUS;Victoria;Katunga;;145.4666667;-36.0166667;6;
2;AUS;Victoria;Katyil;;142.1166667;-36.3166667;6;
2;AUS;Victoria;Kawarren;;143.5833333;-38.4833333;6;
2;AUS;Victoria;Keely;;144.25;-35.85;6;
2;AUS;Victoria;Keilor;;144.8333333;-37.7166667;6;
2;AUS;Victoria;Kelvin View;;145.6666667;-36.8166667;6;
2;AUS;Victoria;Kenmare;;142.1666667;-35.9166667;6;
2;AUS;Victoria;Kennedys Creek;;143.25;-38.6;6;
2;AUS;Victoria;Kennington;;144.3;-36.7833333;6;
2;AUS;Victoria;Kentbruck;;141.2833333;-38.15;6;
2;AUS;Victoria;Keon Park;;145.0166667;-37.7;6;
2;AUS;Victoria;Kerang;;143.9166667;-35.7333333;6;
2;AUS;Victoria;Kergunyah;;147.05;-36.3833333;6;
2;AUS;Victoria;Kernot;;145.6;-38.4333333;6;
2;AUS;Victoria;Kerrisdale;;145.2666667;-37.15;6;
2;AUS;Victoria;Kevington;;146.15;-37.3666667;6;
2;AUS;Victoria;Kew;;145.0333333;-37.8166667;6;
2;AUS;Victoria;Kewell North;;142.45;-36.4333333;6;
2;AUS;Victoria;Kewell;;142.4166667;-36.5;6;
2;AUS;Victoria;Keysborough;;145.1666667;-38.0166667;6;
2;AUS;Victoria;Kialla East;;145.5333333;-36.45;6;
2;AUS;Victoria;Kialla West;;145.3833333;-36.6333333;6;
2;AUS;Victoria;Kiamal;;142.3;-34.9833333;6;
2;AUS;Victoria;Kiata East;;141.8;-36.3333333;6;
2;AUS;Victoria;Kiata;;141.8;-36.3666667;6;
2;AUS;Victoria;Kiewa;;147.0166667;-36.2666667;6;
2;AUS;Victoria;Kilcunda Road;;145.7;-38.45;6;
2;AUS;Victoria;Kilcunda;;145.4833333;-38.55;6;
2;AUS;Victoria;Killara;;145.5;-37.75;6;
2;AUS;Victoria;Killarney;;142.3333333;-38.35;6;
2;AUS;Victoria;Killawarra;;146.25;-36.25;6;
2;AUS;Victoria;Kilmany South;;146.9166667;-38.1333333;6;
2;AUS;Victoria;Kilmany;;146.9;-38.1;6;
2;AUS;Victoria;Kilmore East;;144.9833333;-37.3;6;
2;AUS;Victoria;Kilmore;;144.95;-37.3;6;
2;AUS;Victoria;Kilsyth;;145.3166667;-37.8;6;
2;AUS;Victoria;King Valley;;146.4333333;-36.7;6;
2;AUS;Victoria;Kinglake Central;;145.3;-37.5;6;
2;AUS;Victoria;Kinglake East;;145.35;-37.5166667;6;
2;AUS;Victoria;Kinglake West;;145.2333333;-37.4666667;6;
2;AUS;Victoria;Kinglake;;145.35;-37.5166667;6;
2;AUS;Victoria;Kingowar;;143.75;-36.6166667;6;
2;AUS;Victoria;Kingower;;143.75;-36.6166667;6;
2;AUS;Victoria;Kings Lake East;;145.35;-37.5166667;6;
2;AUS;Victoria;Kingston;;143.9666667;-37.35;6;
2;AUS;Victoria;Kinimakatka;;141.5666667;-36.4333333;6;
2;AUS;Victoria;Kinnabulla;;142.8;-35.8833333;6;
2;AUS;Victoria;Kinypanial South;;143.8;-36.35;6;
2;AUS;Victoria;Kirkstall;;142.3166667;-38.2666667;6;
2;AUS;Victoria;Knebsworth;;141.8666667;-38;6;
2;AUS;Victoria;Knight;;143.5;-37.6833333;6;
2;AUS;Victoria;Knockwood;;146.2333333;-37.45;6;
2;AUS;Victoria;Knotts Siding;;146.3833333;-37.9666667;6;
2;AUS;Victoria;Knotts;;146.3833333;-37.9666667;6;
2;AUS;Victoria;Knowsley;;144.5833333;-36.8333333;6;
2;AUS;Victoria;Kobyboyn;;145.4;-37.05;6;
2;AUS;Victoria;Koetong;;147.5;-36.15;6;
2;AUS;Victoria;Koimbo;;142.8833333;-34.9;6;
2;AUS;Victoria;Koleya;;141.7;-34.5166667;6;
2;AUS;Victoria;Kolora;;142.9166667;-38.1333333;6;
2;AUS;Victoria;Konagaderra;;144.8833333;-37.55;6;
2;AUS;Victoria;Kongwak;;145.7;-38.5166667;6;
2;AUS;Victoria;Konongwootong;;141.6833333;-37.5333333;6;
2;AUS;Victoria;Kooloonong;;143.1333333;-34.8666667;6;
2;AUS;Victoria;Koonda;;145.7333333;-36.5;6;
2;AUS;Victoria;Koondrook;;144.1166667;-35.65;6;
2;AUS;Victoria;Koonwarra;;145.95;-38.55;6;
2;AUS;Victoria;Kooreh;;143.4;-36.6333333;6;
2;AUS;Victoria;Koorkab;;143.1333333;-34.8166667;6;
2;AUS;Victoria;Koorlong;;142.0833333;-34.2833333;6;
2;AUS;Victoria;Koornalla;;146.5333333;-38.3166667;6;
2;AUS;Victoria;Kooroocheang;;144.0333333;-37.2833333;6;
2;AUS;Victoria;Koo-Wee-Rup North;;145.5333333;-38.1666667;6;
2;AUS;Victoria;Koo-Wee-Rup;;145.4833333;-38.2;6;
2;AUS;Victoria;Koriella;;145.65;-37.1666667;6;
2;AUS;Victoria;Koroit;;142.3666667;-38.3;6;
2;AUS;Victoria;Korongvale;;143.7166667;-36.35;6;
2;AUS;Victoria;Koroop;;144.1;-35.7666667;6;
2;AUS;Victoria;Korrak Korrak;;143.65;-35.7166667;6;
2;AUS;Victoria;Korumburra South;;145.85;-38.4666667;6;
2;AUS;Victoria;Korumburra;;145.8166667;-38.4333333;6;
2;AUS;Victoria;Korweinguboora;;144.1333333;-37.45;6;
2;AUS;Victoria;Kotta;;144.5333333;-36.2;6;
2;AUS;Victoria;Kotupna;;145.15;-36.15;6;
2;AUS;Victoria;Kow Swamp;;144.2666667;-35.9833333;6;
2;AUS;Victoria;Koyuga;;144.9;-36.2166667;6;
2;AUS;Victoria;Krambruck;;143.65;-38.75;6;
2;AUS;Victoria;Krambruk;;143.65;-38.75;6;
2;AUS;Victoria;Krowera;;145.6666667;-38.4333333;6;
2;AUS;Victoria;Kulwin;;142.6166667;-35.0333333;6;
2;AUS;Victoria;Kunat;;143.5166667;-35.55;6;
2;AUS;Victoria;Kunnymede;;144.6333333;-36.5333333;6;
2;AUS;Victoria;Kurraca West;;143.5666667;-36.5;6;
2;AUS;Victoria;Kurting;;143.85;-36.5333333;6;
2;AUS;Victoria;Kyabram;;145.05;-36.3166667;6;
2;AUS;Victoria;Kyneton;;144.4333333;-37.25;6;
2;AUS;Victoria;Kyup;;142.0333333;-37.5833333;6;
2;AUS;Victoria;Kyvalley;;145;-36.2833333;6;
2;AUS;Victoria;Laanecoorie;;143.9;-36.8166667;6;
2;AUS;Victoria;Laang;;142.8166667;-38.3666667;6;
2;AUS;Victoria;Labertouche;;145.8;-38.05;6;
2;AUS;Victoria;Laceby;;146.3;-36.4333333;6;
2;AUS;Victoria;Laen East;;142.8833333;-36.3833333;6;
2;AUS;Victoria;Laen North;;142.8166667;-36.4;6;
2;AUS;Victoria;Laen;;142.8166667;-36.45;6;
2;AUS;Victoria;Lah;;142.45;-36.1333333;6;
2;AUS;Victoria;Lah-arum;;142.3333333;-36.8833333;6;
2;AUS;Victoria;Lake Boga;;143.65;-35.4666667;6;
2;AUS;Victoria;Lake Bolac;;142.85;-37.7;6;
2;AUS;Victoria;Lake Charm;;143.7833333;-35.65;6;
2;AUS;Victoria;Lake Condah;;141.8;-38.1166667;6;
2;AUS;Victoria;Lake Cooper;;144.7666667;-36.5333333;6;
2;AUS;Victoria;Lake Goldsmith;;143.4;-37.55;6;
2;AUS;Victoria;Lake Hindmarsh;;141.85;-36;6;
2;AUS;Victoria;Lake Lonsdale;;142.5833333;-37.0333333;6;
2;AUS;Victoria;Lake Marmal;;143.5166667;-36.1333333;6;
2;AUS;Victoria;Lake Mundi;;141;-37.55;6;
2;AUS;Victoria;Lake Rowan;;145.9666667;-36.2666667;6;
2;AUS;Victoria;Lake Tyers;;148.0666667;-37.85;6;
2;AUS;Victoria;Lakes Entrance;;147.9833333;-37.8833333;6;
2;AUS;Victoria;Lal Lal;;144.0333333;-37.6833333;6;
2;AUS;Victoria;Lalbert;;143.3666667;-35.6833333;6;
2;AUS;Victoria;Lallat;;142.6833333;-36.5666667;6;
2;AUS;Victoria;Lalor;;145.0166667;-37.6666667;6;
2;AUS;Victoria;Lamplough;;143.5166667;-37.1333333;6;
2;AUS;Victoria;Lancaster;;145.1333333;-36.3166667;6;
2;AUS;Victoria;Lance Field;;144.75;-37.2833333;6;
2;AUS;Victoria;Landsborough;;143.15;-37.0166667;6;
2;AUS;Victoria;Lang Lang;;145.5666667;-38.2666667;6;
2;AUS;Victoria;Langi Logan;;142.95;-37.35;6;
2;AUS;Victoria;Langkoop;;141.0333333;-37.1;6;
2;AUS;Victoria;Langley;;144.5;-37.15;6;
2;AUS;Victoria;Langwarrin;;145.1666667;-38.1666667;6;
2;AUS;Victoria;Lara Lake;;144.3833333;-38.0333333;6;
2;AUS;Victoria;Lara;;144.4;-38.0166667;6;
2;AUS;Victoria;Lardner;;145.8666667;-38.2;6;
2;AUS;Victoria;Larpent;;143.5;-38.35;6;
2;AUS;Victoria;Lascelles;;142.5833333;-35.6166667;6;
2;AUS;Victoria;Lauriston;;144.3833333;-37.25;6;
2;AUS;Victoria;Lavers Hill;;143.4;-38.6666667;6;
2;AUS;Victoria;Laverton;;144.7758333;-37.8641667;6;
2;AUS;Victoria;Lawloit;;141.4666667;-36.4166667;6;
2;AUS;Victoria;Lawrence;;143.9;-37.3166667;6;
2;AUS;Victoria;Le Roy;;146.5333333;-38.4;6;
2;AUS;Victoria;Leaghur;;143.7833333;-35.9666667;6;
2;AUS;Victoria;Learmonth;;143.7333333;-37.4166667;6;
2;AUS;Victoria;Learmouth;;143.7333333;-37.4166667;6;
2;AUS;Victoria;Leeor;;141.0666667;-36.4;6;
2;AUS;Victoria;Leichardt;;144.0666667;-36.6833333;6;
2;AUS;Victoria;Leigh Creek;;143.9666667;-37.5666667;6;
2;AUS;Victoria;Leitchville;;144.2833333;-35.9;6;
2;AUS;Victoria;Lemnos;;145.4666667;-36.35;6;
2;AUS;Victoria;Leneva;;146.9;-36.2166667;6;
2;AUS;Victoria;Leonards Hill;;144.1166667;-37.4333333;6;
2;AUS;Victoria;Leongatha South;;145.8833333;-38.5333333;6;
2;AUS;Victoria;Leongatha;;145.95;-38.4833333;6;
2;AUS;Victoria;Leopold;;144.4666667;-38.1833333;6;
2;AUS;Victoria;Leslie Manor;;143.3833333;-38.1333333;6;
2;AUS;Victoria;Lethbridge;;144.1333333;-37.9666667;6;
2;AUS;Victoria;Letts Beach;;147.4166667;-38.2;6;
2;AUS;Victoria;Lexton;;143.5166667;-37.2666667;6;
2;AUS;Victoria;Licola;;146.6166667;-37.6333333;6;
2;AUS;Victoria;Lillico;;145.95;-38.1333333;6;
2;AUS;Victoria;Lillimur South;;141.15;-36.45;6;
2;AUS;Victoria;Lillimur;;141.1333333;-36.3666667;6;
2;AUS;Victoria;Lilliput;;146.4833333;-36.1166667;6;
2;AUS;Victoria;Lilydale;;145.35;-37.75;6;
2;AUS;Victoria;Limestone;;145.5;-37.25;6;
2;AUS;Victoria;Limonite;;146.2;-38.45;6;
2;AUS;Victoria;Lindenow South;;147.4333333;-37.8166667;6;
2;AUS;Victoria;Lindenow;;147.4833333;-37.8;6;
2;AUS;Victoria;Lindsay Station;;140.9666667;-37.6333333;6;
2;AUS;Victoria;Lindsay;;140.9666667;-37.6333333;6;
2;AUS;Victoria;Linga;;141.7;-35.1666667;6;
2;AUS;Victoria;Linton;;143.5666667;-37.6833333;6;
2;AUS;Victoria;Linton's Bridge;;145.1833333;-37.6166667;6;
2;AUS;Victoria;Liparoo;;142.55;-34.7833333;6;
2;AUS;Victoria;Liptrap;;145.9166667;-38.8333333;6;
2;AUS;Victoria;Lisbaun;;145.35;-38.1166667;6;
2;AUS;Victoria;Lismore;;143.3333333;-37.95;6;
2;AUS;Victoria;Litchfield;;142.8666667;-36.3;6;
2;AUS;Victoria;Little River;;144.5;-37.9666667;6;
2;AUS;Victoria;Livingston;;146.35;-38.4833333;6;
2;AUS;Victoria;Llanelly;;143.8666667;-36.7333333;6;
2;AUS;Victoria;Llowalong;;147.0666667;-37.9333333;6;
2;AUS;Victoria;Loch Valley;;146;-37.8333333;6;
2;AUS;Victoria;Loch;;145.7;-38.3666667;6;
2;AUS;Victoria;Lock Valley;;146;-37.8333333;6;
2;AUS;Victoria;Lockington;;144.5333333;-36.2666667;6;
2;AUS;Victoria;Locksley;;145.3333333;-36.8333333;6;
2;AUS;Victoria;Lockwood;;144.15;-36.8333333;6;
2;AUS;Victoria;Logan;;143.4666667;-36.6166667;6;
2;AUS;Victoria;Londrigan;;146.4166667;-36.3333333;6;
2;AUS;Victoria;Longerenong;;142.4;-36.6666667;6;
2;AUS;Victoria;Longford;;147.0833333;-38.1666667;6;
2;AUS;Victoria;Longlea;;144.4333333;-36.7833333;6;
2;AUS;Victoria;Longwarry North;;145.7666667;-38.0833333;6;
2;AUS;Victoria;Longwarry South;;145.7666667;-38.2;6;
2;AUS;Victoria;Longwarry;;145.7666667;-38.1;6;
2;AUS;Victoria;Longwood East;;145.45;-36.8166667;6;
2;AUS;Victoria;Longwood;;145.4166667;-36.8;6;
2;AUS;Victoria;Lorne;;143.9666667;-38.55;6;
2;AUS;Victoria;Lorquon West;;141.7;-36.1166667;6;
2;AUS;Victoria;Lorquon;;141.75;-36.1666667;6;
2;AUS;Victoria;Lovat;;143.55;-38.5166667;6;
2;AUS;Victoria;Lovely Banks;;144.3333333;-38.0666667;6;
2;AUS;Victoria;Lower Buckland;;146.85;-36.8;6;
2;AUS;Victoria;Lower Cape Bridgewater;;141.4333333;-38.35;6;
2;AUS;Victoria;Lower Everton;;146.55;-36.4333333;6;
2;AUS;Victoria;Lower Flinn's Creek;;146.6833333;-38.2333333;6;
2;AUS;Victoria;Lower Flynns Creek;;146.6833333;-38.2333333;6;
2;AUS;Victoria;Lower Gellibrand;;143.25;-38.7166667;6;
2;AUS;Victoria;Lower Homebush;;143.5166667;-37.0333333;6;
2;AUS;Victoria;Lower Moira;;144.9833333;-36.0833333;6;
2;AUS;Victoria;Lower Norton Creek;;142.1;-36.7666667;6;
2;AUS;Victoria;Lower Plenty;;145.1166667;-37.7333333;6;
2;AUS;Victoria;Lower Templestowe;;145.1166667;-37.7666667;6;
2;AUS;Victoria;Loy Yang;;146.6166667;-38.1833333;6;
2;AUS;Victoria;Lubeck;;142.5666667;-36.7333333;6;
2;AUS;Victoria;Lucknow;;147.65;-37.8166667;6;
2;AUS;Victoria;Lucyvale;;147.6166667;-36.2833333;6;
2;AUS;Victoria;Lurg;;146.1333333;-36.5833333;6;
2;AUS;Victoria;Lyal;;144.4833333;-36.95;6;
2;AUS;Victoria;Lyndhurst South;;145.2;-38.1166667;6;
2;AUS;Victoria;Lyndhurst;;145.25;-38.05;6;
2;AUS;Victoria;Lyntors;;145.55;-37.7;6;
2;AUS;Victoria;Lyons;;141.4666667;-38.0166667;6;
2;AUS;Victoria;Lyonville;;144.2666667;-37.3833333;6;
2;AUS;Victoria;Lysterfield;;145.3;-37.9333333;6;
2;AUS;Victoria;Macarthur;;142;-38.0333333;6;
2;AUS;Victoria;Macclesfield;;145.4833333;-37.8833333;6;
2;AUS;Victoria;Macedon;;144.5666667;-37.4166667;6;
2;AUS;Victoria;Macks Creek;;146.6333333;-38.4666667;6;
2;AUS;Victoria;Macorna North;;144.1;-35.85;6;
2;AUS;Victoria;Macorna;;144.0166667;-35.9;6;
2;AUS;Victoria;Madalya;;146.4666667;-38.5;6;
2;AUS;Victoria;Maddingley;;144.4333333;-37.6833333;6;
2;AUS;Victoria;Maffra West Upper;;146.85;-37.9;6;
2;AUS;Victoria;Maffra;;146.9833333;-37.9666667;6;
2;AUS;Victoria;Magpie;;143.85;-37.6166667;6;
2;AUS;Victoria;Mailors Flat;;142.4666667;-38.3;6;
2;AUS;Victoria;Main Lead;;143.3666667;-37.3833333;6;
2;AUS;Victoria;Maindample;;145.9333333;-37.0333333;6;
2;AUS;Victoria;Major Plains;;145.8;-36.3666667;6;
2;AUS;Victoria;Majorca;;143.8;-37.1166667;6;
2;AUS;Victoria;Majors Line;;144.85;-36.9333333;6;
2;AUS;Victoria;Maldon;;144.0833333;-36.9833333;6;
2;AUS;Victoria;Mallacoota;;149.75;-37.55;6;
2;AUS;Victoria;Malmsbury;;144.3833333;-37.1833333;6;
2;AUS;Victoria;Malvern;;145.0333333;-37.8666667;6;
2;AUS;Victoria;Manangatang;;142.8833333;-35.05;6;
2;AUS;Victoria;Mandurang South;;144.2833333;-36.85;6;
2;AUS;Victoria;Mandurang;;144.3;-36.8166667;6;
2;AUS;Victoria;Mangalore West;;145.15;-36.9;6;
2;AUS;Victoria;Mangalore;;145.1833333;-36.9333333;6;
2;AUS;Victoria;Mannerim;;144.5833333;-38.2166667;6;
2;AUS;Victoria;Mannibadar;;143.5;-37.7666667;6;
2;AUS;Victoria;Manor;;144.5833333;-37.9333333;6;
2;AUS;Victoria;Mansfied;;146.0833333;-37.05;6;
2;AUS;Victoria;Manya North;;141.0333333;-35.0666667;6;
2;AUS;Victoria;Marcus Hill;;144.5666667;-38.25;6;
2;AUS;Victoria;Marcus;;144.5833333;-38.2333333;6;
2;AUS;Victoria;Mardan South;;146.1166667;-38.4833333;6;
2;AUS;Victoria;Mardan;;146.1333333;-38.45;6;
2;AUS;Victoria;Maribyrnong;;144.8833333;-37.7833333;6;
2;AUS;Victoria;Marlo;;148.5333333;-37.7833333;6;
2;AUS;Victoria;Marnoo;;142.8833333;-36.65;6;
2;AUS;Victoria;Marong;;144.1333333;-36.7333333;6;
2;AUS;Victoria;Maroona;;142.8666667;-37.4166667;6;
2;AUS;Victoria;Marraweeney;;145.75;-36.75;6;
2;AUS;Victoria;Marshall;;144.3666667;-38.2;6;
2;AUS;Victoria;Marshalltown;;144.3666667;-38.2;6;
2;AUS;Victoria;Marungi;;145.5166667;-36.2;6;
2;AUS;Victoria;Maryborough;;143.75;-37.05;6;
2;AUS;Victoria;Marysville;;145.75;-37.5166667;6;
2;AUS;Victoria;Massey;;142.8666667;-36.2166667;6;
2;AUS;Victoria;Mathiesons;;144.95;-36.6;6;
2;AUS;Victoria;Matlock;;146.2166667;-37.6;6;
2;AUS;Victoria;Maude;;144.1666667;-37.95;6;
2;AUS;Victoria;Mayreef;;144.5;-36.5333333;6;
2;AUS;Victoria;McCaftens Road;;146.2166667;-38.55;6;
2;AUS;Victoria;McCrae;;144.9280556;-38.3497222;6;
2;AUS;Victoria;McDevitt;;143.5666667;-38.6;6;
2;AUS;Victoria;McKenzie Creek;;142.1833333;-36.8;6;
2;AUS;Victoria;McKillop;;145.4;-37.8;6;
2;AUS;Victoria;McLaughlins Beach;;146.8833333;-38.6;6;
2;AUS;Victoria;McMahons Creek;;145.8333333;-37.7166667;6;
2;AUS;Victoria;McMillans;;144.15;-35.8333333;6;
2;AUS;Victoria;Meade;;144.1166667;-35.8;6;
2;AUS;Victoria;Meatian;;143.3166667;-35.5833333;6;
2;AUS;Victoria;Meeniyan;;146.0166667;-38.5833333;6;
2;AUS;Victoria;Meereek;;141.0833333;-37.0833333;6;
2;AUS;Victoria;Meering;;143.7833333;-35.8833333;6;
2;AUS;Victoria;Meerlieu;;147.4;-38;6;
2;AUS;Victoria;Melbourne;;144.97;-37.82;6;
2;AUS;Victoria;Mellis;;142.45;-36.2833333;6;
2;AUS;Victoria;Melton South;;144.5833333;-37.7;6;
2;AUS;Victoria;Melton;;144.5833333;-37.6833333;6;
2;AUS;Victoria;Melville Forest;;141.8666667;-37.5;6;
2;AUS;Victoria;Mentone;;145.0666667;-37.9833333;6;
2;AUS;Victoria;Menzies Creek;;145.4;-37.9166667;6;
2;AUS;Victoria;Mepunga East;;142.7333333;-38.45;6;
2;AUS;Victoria;Mepunga;;142.7333333;-38.45;6;
2;AUS;Victoria;Merbein South;;142.0333333;-34.2333333;6;
2;AUS;Victoria;Merbein West;;142.0166667;-34.1833333;6;
2;AUS;Victoria;Merbein;;142.0666667;-34.1833333;6;
2;AUS;Victoria;Meredith;;144.0833333;-37.85;6;
2;AUS;Victoria;Merino;;141.55;-37.7166667;6;
2;AUS;Victoria;Mernda;;145.1;-37.6;6;
2;AUS;Victoria;Merrick;;145.0833333;-38.3833333;6;
2;AUS;Victoria;Merricks North;;145.0833333;-38.35;6;
2;AUS;Victoria;Merricks;;145.0833333;-38.3833333;6;
2;AUS;Victoria;Merrigum;;145.15;-36.3666667;6;
2;AUS;Victoria;Merrijig;;146.25;-37.1;6;
2;AUS;Victoria;Merton;;145.7166667;-36.9833333;6;
2;AUS;Victoria;Metang;;147.85;-37.8833333;6;
2;AUS;Victoria;Metcalfe;;144.4333333;-37.1;6;
2;AUS;Victoria;Metung;;147.85;-37.8833333;6;
2;AUS;Victoria;Mia Mia;;144.5666667;-37;6;
2;AUS;Victoria;Miakite;;141.7333333;-37.8166667;6;
2;AUS;Victoria;Middle Creek;;143.2333333;-37.4;6;
2;AUS;Victoria;Middle Indigo;;146.7333333;-36.15;6;
2;AUS;Victoria;Middle Tarwin;;145.9333333;-38.6666667;6;
2;AUS;Victoria;Miepol;;145.4666667;-36.6166667;6;
2;AUS;Victoria;Miepoll;;145.4666667;-36.6166667;6;
2;AUS;Victoria;Miga Lake;;141.6333333;-36.9333333;6;
2;AUS;Victoria;Milawa;;146.4333333;-36.4333333;6;
2;AUS;Victoria;Mildura;;142.15;-34.2;6;
2;AUS;Victoria;Mile Bridge;;145.1333333;-38.1333333;6;
2;AUS;Victoria;Milford;;146.2;-38.5333333;6;
2;AUS;Victoria;Millbrook;;144.05;-37.5833333;6;
2;AUS;Victoria;Millgrove;;145.65;-37.7666667;6;
2;AUS;Victoria;Milloo;;144.3666667;-36.3166667;6;
2;AUS;Victoria;Milltown;;141.7166667;-38.05;6;
2;AUS;Victoria;Milnes Bridge;;144.0666667;-35.8;6;
2;AUS;Victoria;Mincha;;144.0833333;-36.0166667;6;
2;AUS;Victoria;Miners Rest;;143.8;-37.4833333;6;
2;AUS;Victoria;Mingay;;143.3166667;-37.8333333;6;
2;AUS;Victoria;Minhamite;;142.35;-37.9833333;6;
2;AUS;Victoria;Minimay;;141.1833333;-36.7166667;6;
2;AUS;Victoria;Mininera East;;143.0333333;-37.5833333;6;
2;AUS;Victoria;Mininera;;142.9666667;-37.6;6;
2;AUS;Victoria;Minmindie;;143.75;-36.0666667;6;
2;AUS;Victoria;Minyip;;142.5833333;-36.45;6;
2;AUS;Victoria;Miram South;;141.3666667;-36.45;6;
2;AUS;Victoria;Miram;;141.35;-36.3666667;6;
2;AUS;Victoria;Mirboo East;;146.2833333;-38.4833333;6;
2;AUS;Victoria;Mirboo North;;146.15;-38.4;6;
2;AUS;Victoria;Mirboo;;146.2;-38.4666667;6;
2;AUS;Victoria;Mirranatwa;;142.4166667;-37.4166667;6;
2;AUS;Victoria;Mitchells Hill;;143;-36.6166667;6;
2;AUS;Victoria;Mitchellstown;;145.0666667;-36.85;6;
2;AUS;Victoria;Mitiamo;;144.2333333;-36.2166667;6;
2;AUS;Victoria;Mitre;;141.7833333;-36.7333333;6;
2;AUS;Victoria;Mitta Junction;;147.0166667;-36.1166667;6;
2;AUS;Victoria;Mitta Mitta;;147.3833333;-36.55;6;
2;AUS;Victoria;Mittyack;;142.65;-35.15;6;
2;AUS;Victoria;Moama;;144.7833333;-36.1166667;6;
2;AUS;Victoria;Mockinya;;142.15;-36.9666667;6;
2;AUS;Victoria;Modella;;145.7166667;-38.1833333;6;
2;AUS;Victoria;Modewarre;;144.1333333;-38.25;6;
2;AUS;Victoria;Moe;;146.2666667;-38.1666667;6;
2;AUS;Victoria;Moglonemby;;145.5333333;-36.65;6;
2;AUS;Victoria;Moke Pilly;;142.6333333;-37.1;6;
2;AUS;Victoria;Mokoan West;;146.0333333;-36.3833333;6;
2;AUS;Victoria;Molesworth;;145.5333333;-37.1666667;6;
2;AUS;Victoria;Moliagul;;143.6666667;-36.75;6;
2;AUS;Victoria;Molka;;145.45;-36.6833333;6;
2;AUS;Victoria;Mollongghip;;144.0333333;-37.4833333;6;
2;AUS;Victoria;Mologa;;144.3333333;-36.1666667;6;
2;AUS;Victoria;Molyullah;;146.15;-36.65;6;
2;AUS;Victoria;Monbulk;;145.4;-37.8833333;6;
2;AUS;Victoria;Monea;;145.2833333;-36.8666667;6;
2;AUS;Victoria;Monegeeta;;144.75;-37.4166667;6;
2;AUS;Victoria;Monegeetta Station;;144.75;-37.4166667;6;
2;AUS;Victoria;Monegeetta;;144.75;-37.4166667;6;
2;AUS;Victoria;Mongans Bridge;;147.1;-36.6;6;
2;AUS;Victoria;Monomeith;;145.5166667;-38.2166667;6;
2;AUS;Victoria;Mont Park;;145.0666667;-37.7166667;6;
2;AUS;Victoria;Montgomery Siding;;147.0666667;-38.0333333;6;
2;AUS;Victoria;Montgomery Station;;147.0666667;-38.0333333;6;
2;AUS;Victoria;Montgomery;;147.0666667;-38.0333333;6;
2;AUS;Victoria;Montmorency;;145.1166667;-37.7166667;6;
2;AUS;Victoria;Montrose;;145.35;-37.8166667;6;
2;AUS;Victoria;Moolap;;144.4333333;-38.1833333;6;
2;AUS;Victoria;Moolerr;;143.2166667;-36.6333333;6;
2;AUS;Victoria;Moolort;;143.9333333;-37.0833333;6;
2;AUS;Victoria;Moonambel;;143.3166667;-36.9833333;6;
2;AUS;Victoria;Moondarra;;146.3666667;-38.0166667;6;
2;AUS;Victoria;Moonee Ponds;;144.9166667;-37.7666667;6;
2;AUS;Victoria;Moorabbin;;145.0341667;-37.9366667;6;
2;AUS;Victoria;Moorabool;;144.3;-38.0833333;6;
2;AUS;Victoria;Mooralla;;142.1333333;-37.4;6;
2;AUS;Victoria;Moorilim;;145.3166667;-36.6166667;6;
2;AUS;Victoria;Moormbool West;;144.9;-36.8;6;
2;AUS;Victoria;Moorngag;;146.0666667;-36.75;6;
2;AUS;Victoria;Moorooduc;;145.1166667;-38.2166667;6;
2;AUS;Victoria;Moorookyle;;143.9666667;-37.2833333;6;
2;AUS;Victoria;Moorookyte;;143.9666667;-37.2833333;6;
2;AUS;Victoria;Mooroolbark;;145.3;-37.7833333;6;
2;AUS;Victoria;Mooroopna North;;145.3;-36.3333333;6;
2;AUS;Victoria;Mooroopna;;145.35;-36.4;6;
2;AUS;Victoria;Morang South;;145.1;-37.65;6;
2;AUS;Victoria;Morang;;145.1;-37.65;6;
2;AUS;Victoria;Mordialloc;;145.0833333;-38;6;
2;AUS;Victoria;Morea;;141.4833333;-37.2333333;6;
2;AUS;Victoria;Moriac;;144.1666667;-38.2333333;6;
2;AUS;Victoria;Morkalla;;141.1666667;-34.3666667;6;
2;AUS;Victoria;Mornington;;145.0333333;-38.2166667;6;
2;AUS;Victoria;Morrison;;144.1;-37.7833333;6;
2;AUS;Victoria;Morrisons;;144.1;-37.7833333;6;
2;AUS;Victoria;Morrl Morrl;;142.9333333;-36.85;6;
2;AUS;Victoria;Mortchup;;143.5;-37.6166667;6;
2;AUS;Victoria;Mortlake;;142.8166667;-38.0833333;6;
2;AUS;Victoria;Morton Plains;;142.9;-36.0833333;6;
2;AUS;Victoria;Morwell Bridge;;146.3666667;-38.2166667;6;
2;AUS;Victoria;Morwell;;146.4;-38.2333333;6;
2;AUS;Victoria;Mosquito Creek;;144.4833333;-36.85;6;
2;AUS;Victoria;Mossiface;;147.8166667;-37.7333333;6;
2;AUS;Victoria;Mount Beauty;;147.1666667;-36.75;6;
2;AUS;Victoria;Mount Beckworth;;143.6833333;-37.3166667;6;
2;AUS;Victoria;Mount Best;;146.3;-38.6;6;
2;AUS;Victoria;Mount Burnett;;145.5;-37.9833333;6;
2;AUS;Victoria;Mount Bute;;143.4166667;-37.8666667;6;
2;AUS;Victoria;Mount Clear;;143.8833333;-37.6;6;
2;AUS;Victoria;Mount Cole Creek;;143.1333333;-37.2333333;6;
2;AUS;Victoria;Mount Cole;;143.2;-37.25;6;
2;AUS;Victoria;Mount Cotterell;;144.5833333;-37.8166667;6;
2;AUS;Victoria;Mount Cottrell;;144.5833333;-37.8166667;6;
2;AUS;Victoria;Mount Dandenong North;;145.3666667;-37.8166667;6;
2;AUS;Victoria;Mount Dandenong;;145.3666667;-37.8333333;6;
2;AUS;Victoria;Mount Duneed;;144.3333333;-38.25;6;
2;AUS;Victoria;Mount Eccles;;145.9833333;-38.3666667;6;
2;AUS;Victoria;Mount Egerton;;144.1;-37.6333333;6;
2;AUS;Victoria;Mount Elgin;;141.5333333;-36.3833333;6;
2;AUS;Victoria;Mount Eliza;;145.0833333;-38.1833333;6;
2;AUS;Victoria;Mount Evelyn;;145.3833333;-37.7833333;6;
2;AUS;Victoria;Mount Fyans;;142.9833333;-37.9166667;6;
2;AUS;Victoria;Mount Hooghly;;143.6666667;-36.9;6;
2;AUS;Victoria;Mount Jeffcott;;143.1333333;-36.35;6;
2;AUS;Victoria;Mount Lonarch;;143.4;-37.25;6;
2;AUS;Victoria;Mount Macedon;;144.6;-37.3833333;6;
2;AUS;Victoria;Mount Martha;;145.0166667;-38.2666667;6;
2;AUS;Victoria;Mount Mercer;;143.85;-37.8166667;6;
2;AUS;Victoria;Mount Moriac;;144.1833333;-38.2166667;6;
2;AUS;Victoria;Mount Richmond;;141.4;-38.2833333;6;
2;AUS;Victoria;Mount Rowan;;143.85;-37.5;6;
2;AUS;Victoria;Mount Sabine;;143.7166667;-38.6333333;6;
2;AUS;Victoria;Mount Violet;;142.9;-37.8666667;6;
2;AUS;Victoria;Mount Wallace;;144.2166667;-37.75;6;
2;AUS;Victoria;Mount Waverley;;145.1333333;-37.8833333;6;
2;AUS;Victoria;Mountain View;;145.8666667;-38.2666667;6;
2;AUS;Victoria;Moutajup;;142.2333333;-37.6666667;6;
2;AUS;Victoria;Mouzie;;141.35;-38.2;6;
2;AUS;Victoria;Moyarra;;145.7333333;-38.4833333;6;
2;AUS;Victoria;Moyhu;;146.4;-36.6;6;
2;AUS;Victoria;Moyne Siding;;142.2666667;-38.3166667;6;
2;AUS;Victoria;Moyne;;142.2666667;-38.3166667;6;
2;AUS;Victoria;Moyreisk;;143.3833333;-36.9166667;6;
2;AUS;Victoria;Moyston;;142.7666667;-37.3;6;
2;AUS;Victoria;Muckatah;;145.65;-36.0166667;6;
2;AUS;Victoria;Muckleford South;;144.1333333;-37.1;6;
2;AUS;Victoria;Muckleford;;144.15;-37.0166667;6;
2;AUS;Victoria;Muddy Creek;;145.3833333;-38;6;
2;AUS;Victoria;Mudgegonga;;146.8333333;-26.5;6;
2;AUS;Victoria;Mulcra;;141.1;-35.1833333;6;
2;AUS;Victoria;Mulgrave;;145.2;-37.9166667;6;
2;AUS;Victoria;Mulwarrie;;143.5333333;-35.3166667;6;
2;AUS;Victoria;Mumbannar;;141.0833333;-37.8833333;6;
2;AUS;Victoria;Mumblin;;142.9333333;-38.35;6;
2;AUS;Victoria;Mundoona;;145.3333333;-36.1666667;6;
2;AUS;Victoria;Munro;;147.1833333;-37.9166667;6;
2;AUS;Victoria;Muntham;;141.5666667;-37.5833333;6;
2;AUS;Victoria;Murchison East;;145.25;-36.6166667;6;
2;AUS;Victoria;Murchison;;145.2333333;-36.6333333;6;
2;AUS;Victoria;Murgheboluc;;144.1333333;-38.0833333;6;
2;AUS;Victoria;Murmungee;;146.6833333;-36.45;6;
2;AUS;Victoria;Murphys Creek;;143.7666667;-36.75;6;
2;AUS;Victoria;Murrabit West;;143.9333333;-35.5333333;6;
2;AUS;Victoria;Murrabit;;143.9333333;-35.5333333;6;
2;AUS;Victoria;Murradoc;;144.6166667;-38.1833333;6;
2;AUS;Victoria;Murrawee;;143.5333333;-35.3166667;6;
2;AUS;Victoria;Murrayville;;141.1833333;-35.2666667;6;
2;AUS;Victoria;Murrindal;;148.2;-37.4166667;6;
2;AUS;Victoria;Murrindindi;;145.5333333;-37.3666667;6;
2;AUS;Victoria;Murroon;;143.8166667;-38.4333333;6;
2;AUS;Victoria;Murrungowar;;148.7166667;-37.5833333;6;
2;AUS;Victoria;Murtoa;;142.4833333;-36.6;6;
2;AUS;Victoria;Musk Vale;;144.1333333;-37.3833333;6;
2;AUS;Victoria;Muskerry East;;144.6333333;-36.6833333;6;
2;AUS;Victoria;Myall;;143.9833333;-35.5833333;6;
2;AUS;Victoria;Myamyn;;141.7333333;-38;6;
2;AUS;Victoria;Myer;;144.2;-36.6833333;6;
2;AUS;Victoria;Myers Creek;;144.2;-36.6833333;6;
2;AUS;Victoria;Myers Flat;;144.2;-36.6833333;6;
2;AUS;Victoria;Myola;;144.65;-36.6333333;6;
2;AUS;Victoria;Myrniong;;144.35;-37.6166667;6;
2;AUS;Victoria;Myrrhee;;146.3166667;-36.75;6;
2;AUS;Victoria;Myrtleford;;146.7333333;-36.55;6;
2;AUS;Victoria;Mysia;;143.7666667;-36.25;6;
2;AUS;Victoria;Mystic Park;;143.7166667;-35.5666667;6;
2;AUS;Victoria;Mywee;;145.5;-35.8666667;6;
2;AUS;Victoria;Nagambie;;145.1666667;-36.7833333;6;
2;AUS;Victoria;Nalangil;;143.45;-38.3;6;
2;AUS;Victoria;Nalinga;;145.7166667;-36.4166667;6;
2;AUS;Victoria;Nambrok;;146.8833333;-38.05;6;
2;AUS;Victoria;Nandaly;;142.7;-35.3;6;
2;AUS;Victoria;Naneella;;144.7833333;-36.3166667;6;
2;AUS;Victoria;Nangana;;145.5333333;-37.8666667;6;
2;AUS;Victoria;Nanneela South;;144.8;-36.35;6;
2;AUS;Victoria;Nanneella South;;144.8;-36.35;6;
2;AUS;Victoria;Nanneella;;144.7833333;-36.3166667;6;
2;AUS;Victoria;Nannella South;;144.8;-36.35;6;
2;AUS;Victoria;Nannella;;144.7833333;-36.3166667;6;
2;AUS;Victoria;Napoleon;;143.8333333;-37.6666667;6;
2;AUS;Victoria;Napoleons;;143.8333333;-37.6666667;6;
2;AUS;Victoria;Nar Nar Goon North;;145.5666667;-38.0166667;6;
2;AUS;Victoria;Nar Nar Goon;;145.5666667;-38.0833333;6;
2;AUS;Victoria;Nareen;;141.5666667;-37.3833333;6;
2;AUS;Victoria;Nariel Creek;;147.8333333;-36.4333333;6;
2;AUS;Victoria;Nariel Upper;;147.8166667;-36.3166667;6;
2;AUS;Victoria;Nariel;;147.8333333;-36.4333333;6;
2;AUS;Victoria;Naringal;;142.7;-38.4;6;
2;AUS;Victoria;Naringaningalook East;;145.6166667;-36.05;6;
2;AUS;Victoria;Naringaningalook;;145.6166667;-36.05;6;
2;AUS;Victoria;Narioka;;145.05;-36.0333333;6;
2;AUS;Victoria;Naroghio;;143.0833333;-38.2666667;6;
2;AUS;Victoria;Narracan East;;146.2333333;-38.2833333;6;
2;AUS;Victoria;Narracan South;;146.2333333;-38.2833333;6;
2;AUS;Victoria;Narracan;;146.2333333;-38.25;6;
2;AUS;Victoria;Narraport;;143.0333333;-36;6;
2;AUS;Victoria;Narrapumelap;;142.75;-37.65;6;
2;AUS;Victoria;Narrawong East;;141.75;-38.2166667;6;
2;AUS;Victoria;Narrawong;;141.7166667;-38.25;6;
2;AUS;Victoria;Narre Warren North;;145.3166667;-37.9833333;6;
2;AUS;Victoria;Narre Warren;;145.3;-38.0333333;6;
2;AUS;Victoria;Narrewillock;;143.45;-36.1333333;6;
2;AUS;Victoria;Narrung;;143.2166667;-34.7666667;6;
2;AUS;Victoria;Nathalia;;145.2;-36.7166667;6;
2;AUS;Victoria;Natimuk;;141.95;-36.75;6;
2;AUS;Victoria;Natte Yallock;;143.5;-36.95;6;
2;AUS;Victoria;Natya;;143.2166667;-34.95;6;
2;AUS;Victoria;Navarre;;143.1;-36.9;6;
2;AUS;Victoria;Navigator;;143.9333333;-37.6166667;6;
2;AUS;Victoria;Navigators;;143.9333333;-37.6166667;6;
2;AUS;Victoria;Naybethong;;145.65;-37.5666667;6;
2;AUS;Victoria;Nayook;;145.95;-37.9333333;6;
2;AUS;Victoria;Neds Corner;;141.5;-34.2;6;
2;AUS;Victoria;Neerim East;;146;-37.9833333;6;
2;AUS;Victoria;Neerim South;;145.9666667;-38.0166667;6;
2;AUS;Victoria;Neerim;;145.95;-37.9666667;6;
2;AUS;Victoria;Neilborough East;;144.3;-36.5666667;6;
2;AUS;Victoria;Neilborough;;144.2333333;-36.5666667;6;
2;AUS;Victoria;Nelson;;141.0166667;-38.05;6;
2;AUS;Victoria;Nelsons Hill;;145.25;-37.8;6;
2;AUS;Victoria;Nerrena East;;146.0833333;-38.5166667;6;
2;AUS;Victoria;Nerrin Nerrin;;143.0166667;-37.7666667;6;
2;AUS;Victoria;Nerrina;;143.8833333;-37.55;6;
2;AUS;Victoria;Nerring;;143.4333333;-37.4666667;6;
2;AUS;Victoria;Netherby;;141.65;-36.1166667;6;
2;AUS;Victoria;Neuarparr;;141.0833333;-36.7666667;6;
2;AUS;Victoria;Neuarpurr;;141.0833333;-36.7666667;6;
2;AUS;Victoria;New Chum;;145.5333333;-37.6166667;6;
2;AUS;Victoria;Newbridge;;143.9166667;-36.7333333;6;
2;AUS;Victoria;Newbury;;144.3166667;-37.4166667;6;
2;AUS;Victoria;Newfield;;143.0166667;-38.5666667;6;
2;AUS;Victoria;Newham;;144.6;-37.3333333;6;
2;AUS;Victoria;Newhaven;;145.35;-38.5166667;6;
2;AUS;Victoria;Newington;;144.5;-38.2166667;6;
2;AUS;Victoria;Newlyn North;;144;-37.4;6;
2;AUS;Victoria;Newlyn;;143.9833333;-37.4166667;6;
2;AUS;Victoria;Newmerella;;148.45;-37.7333333;6;
2;AUS;Victoria;Newport;;144.8833333;-37.85;6;
2;AUS;Victoria;Newry;;146.8833333;-37.9166667;6;
2;AUS;Victoria;Newstead;;144.0666667;-37.1166667;6;
2;AUS;Victoria;Newtown and Chilwell;;144.3333333;-38.15;6;
2;AUS;Victoria;Newtown;;143.65;-37.7;6;
2;AUS;Victoria;Ngallo;;141.05;-35.3166667;6;
2;AUS;Victoria;Nhill;;141.6666667;-36.3333333;6;
2;AUS;Victoria;Ni Ni East;;141.8666667;-36.2833333;6;
2;AUS;Victoria;Ni Ni Well;;141.7666667;-36.2166667;6;
2;AUS;Victoria;Ni Ni;;141.8166667;-36.2166667;6;
2;AUS;Victoria;Nicholson;;147.7333333;-37.8166667;6;
2;AUS;Victoria;Nillahcootie;;146.0333333;-36.9833333;6;
2;AUS;Victoria;Nilma North;;145.9833333;-38.15;6;
2;AUS;Victoria;Nilma;;145.9666667;-38.1833333;6;
2;AUS;Victoria;Ninda;;142.75;-35.4666667;6;
2;AUS;Victoria;Nine Mile;;143.4833333;-36.4333333;6;
2;AUS;Victoria;Nintingbool;;143.7166667;-37.6166667;6;
2;AUS;Victoria;Ninyeunook;;143.4166667;-35.9666667;6;
2;AUS;Victoria;Nirranda;;142.7833333;-38.5;6;
2;AUS;Victoria;Noble Park;;145.1666667;-37.9666667;6;
2;AUS;Victoria;Noojee;;146;-37.9166667;6;
2;AUS;Victoria;Nooramunga;;145.9;-36.3833333;6;
2;AUS;Victoria;Noorat;;142.95;-38.2;6;
2;AUS;Victoria;Noorinbee;;149.1666667;-37.5166667;6;
2;AUS;Victoria;Noorongong;;147.2333333;-36.3;6;
2;AUS;Victoria;Noradjuha;;141.9666667;-36.8333333;6;
2;AUS;Victoria;Norlane;;144.3541667;-38.1013889;6;
2;AUS;Victoria;Normanville;;143.7666667;-35.8166667;6;
2;AUS;Victoria;Norong Central;;146.3333333;-36.0833333;6;
2;AUS;Victoria;Norong;;146.4;-36.1166667;6;
2;AUS;Victoria;North Ballangeich;;142.6833333;-38.1833333;6;
2;AUS;Victoria;North Brighton;;145.0052778;-37.9069444;6;
2;AUS;Victoria;North Clyde;;145.3333333;-38.1166667;6;
2;AUS;Victoria;North Cudgewa;;147.8166667;-36.1166667;6;
2;AUS;Victoria;North Cundare;;143.5666667;-38.1166667;6;
2;AUS;Victoria;North Eltham;;145.15;-37.7;6;
2;AUS;Victoria;North Garfield;;145.6833333;-38.0333333;6;
2;AUS;Victoria;North Jindivick;;145.9166667;-38.0166667;6;
2;AUS;Victoria;North Mirboo;;146.15;-38.4;6;
2;AUS;Victoria;North Nar Nar Goon;;145.5666667;-38.0166667;6;
2;AUS;Victoria;North Poowong;;145.8;-38.3;6;
2;AUS;Victoria;North Prentice;;146.5;-36.0333333;6;
2;AUS;Victoria;North Queenstown;;145.3;-37.5666667;6;
2;AUS;Victoria;North Shore;;144.3666667;-38.1;6;
2;AUS;Victoria;North Tynong;;145.6166667;-38.0666667;6;
2;AUS;Victoria;North Wharparilla;;144.6333333;-36.0833333;6;
2;AUS;Victoria;North Wonthaggi;;145.6;-38.6;6;
2;AUS;Victoria;Northcote;;145;-37.7666667;6;
2;AUS;Victoria;Northwood;;145.1166667;-36.9666667;6;
2;AUS;Victoria;Norval;;142.8833333;-37.2666667;6;
2;AUS;Victoria;Notting Hill;;145.1166667;-37.9;6;
2;AUS;Victoria;Nowa Nowa;;148.1;-37.7166667;6;
2;AUS;Victoria;Nowie North;;143.2833333;-35.2666667;6;
2;AUS;Victoria;Nowingi;;142.2333333;-34.6;6;
2;AUS;Victoria;Nullan;;142.55;-36.4;6;
2;AUS;Victoria;Nullawarre;;142.7666667;-38.4666667;6;
2;AUS;Victoria;Nullawil;;143.1833333;-35.85;6;
2;AUS;Victoria;Numurkah;;145.4333333;-36.1;6;
2;AUS;Victoria;Nunawading;;145.1666667;-37.8166667;6;
2;AUS;Victoria;Nunga;;142.35;-35.1166667;6;
2;AUS;Victoria;Nuntinck;;147.1;-38.0166667;6;
2;AUS;Victoria;Nurcoung;;141.6833333;-36.7333333;6;
2;AUS;Victoria;Nurrabeil;;142.05;-36.9166667;6;
2;AUS;Victoria;Nurrabiel;;142.05;-36.9166667;6;
2;AUS;Victoria;Nutfield;;145.1833333;-37.6166667;6;
2;AUS;Victoria;Nyah West;;143.35;-35.1833333;6;
2;AUS;Victoria;Nyah;;143.3833333;-35.1666667;6;
2;AUS;Victoria;Nyamville;;142.6;-36.15;6;
2;AUS;Victoria;Nyarrin;;142.6833333;-35.3833333;6;
2;AUS;Victoria;Nyora;;145.6666667;-38.3333333;6;
2;AUS;Victoria;Oakleigh;;145.1;-37.9;6;
2;AUS;Victoria;Oakvale;;143.5666667;-35.9166667;6;
2;AUS;Victoria;Ocean Grove;;144.5333333;-38.2666667;6;
2;AUS;Victoria;Officedale;;145.4166667;-38.0833333;6;
2;AUS;Victoria;Officer;;145.4166667;-38.0666667;6;
2;AUS;Victoria;Old Longwood;;145.45;-36.8166667;6;
2;AUS;Victoria;Old Tyabb;;145.1833333;-38.3;6;
2;AUS;Victoria;Olinda;;145.3666667;-37.85;6;
2;AUS;Victoria;Omeo;;147.6;-37.1;6;
2;AUS;Victoria;Ondit;;143.6333333;-38.25;6;
2;AUS;Victoria;Orbost;;148.45;-37.7;6;
2;AUS;Victoria;Orford;;142.1;-38.2166667;6;
2;AUS;Victoria;Orrvale;;145.45;-36.4166667;6;
2;AUS;Victoria;Osbornes Flat;;146.8833333;-36.3166667;6;
2;AUS;Victoria;Osborns Flat;;146.8833333;-36.3166667;6;
2;AUS;Victoria;Oswald;;143.7833333;-37.4833333;6;
2;AUS;Victoria;Outtrim;;145.7666667;-38.4833333;6;
2;AUS;Victoria;Ouyen;;142.3166667;-35.0666667;6;
2;AUS;Victoria;Ovens Vale;;146.7666667;-36.5833333;6;
2;AUS;Victoria;Ovens;;146.7666667;-36.5833333;6;
2;AUS;Victoria;Oxley;;146.3666667;-36.45;6;
2;AUS;Victoria;Ozenkadnook;;141.3333333;-36.85;6;
2;AUS;Victoria;Pakenham East;;145.4833333;-38.0833333;6;
2;AUS;Victoria;Pakenham South;;145.5166667;-38.1333333;6;
2;AUS;Victoria;Pakenham Upper;;145.5166667;-38.0166667;6;
2;AUS;Victoria;Pakenham;;145.4833333;-38.0666667;6;
2;AUS;Victoria;Panitya;;141;-35.2333333;6;
2;AUS;Victoria;Panmure;;142.7333333;-38.3333333;6;
2;AUS;Victoria;Pannoobamawm;;144.4666667;-36.2333333;6;
2;AUS;Victoria;Pannoomilloo;;144.5833333;-36.35;6;
2;AUS;Victoria;Panoobamawm;;144.4666667;-36.2333333;6;
2;AUS;Victoria;Panton Hill;;145.2333333;-37.65;6;
2;AUS;Victoria;Paradise;;143.1333333;-36.8333333;6;
2;AUS;Victoria;Parkdale;;145.0691667;-37.9958333;6;
2;AUS;Victoria;Parkwood;;141.7833333;-37.6166667;6;
2;AUS;Victoria;Parslows;;145.5166667;-37.8166667;6;
2;AUS;Victoria;Partelli;;148.2166667;-37.75;6;
2;AUS;Victoria;Parwan;;144.4666667;-37.7;6;
2;AUS;Victoria;Paschendale;;141.6;-37.6666667;6;
2;AUS;Victoria;Patchewollock;;142.2;-35.3833333;6;
2;AUS;Victoria;Patho;;144.4333333;-36.0333333;6;
2;AUS;Victoria;Patyah;;141.2333333;-36.9;6;
2;AUS;Victoria;Paynesville;;147.7166667;-37.9166667;6;
2;AUS;Victoria;Pearcedale;;145.25;-38.2;6;
2;AUS;Victoria;Pederick;;145.0333333;-36.2;6;
2;AUS;Victoria;Peechelba East;;146.25;-36.1666667;6;
2;AUS;Victoria;Peechelba Town;;146.2333333;-36.2;6;
2;AUS;Victoria;Peechelba;;146.2333333;-36.2;6;
2;AUS;Victoria;Pella;;141.9;-35.8666667;6;
2;AUS;Victoria;Pennyroyal;;143.85;-38.4166667;6;
2;AUS;Victoria;Penshurst;;142.3;-37.8666667;6;
2;AUS;Victoria;Peppers Plain;;142.15;-36.15;6;
2;AUS;Victoria;Peppers Plains;;142.15;-36.15;6;
2;AUS;Victoria;Percydale;;143.4;-37.05;6;
2;AUS;Victoria;Peronne;;141.3833333;-36.7333333;6;
2;AUS;Victoria;Perry Bridge;;147.2666667;-38;6;
2;AUS;Victoria;Peterborough;;142.8666667;-38.6166667;6;
2;AUS;Victoria;Petersons;;145.2833333;-37.3166667;6;
2;AUS;Victoria;Pettavel;;144.25;-38.2333333;6;
2;AUS;Victoria;Pheasant Creek;;145.2833333;-37.4833333;6;
2;AUS;Victoria;Piangil North;;143.3166667;-35.0333333;6;
2;AUS;Victoria;Piangil West;;143.1;-35.05;6;
2;AUS;Victoria;Piangil;;143.3;-35.05;6;
2;AUS;Victoria;Picola;;145.1333333;-36;6;
2;AUS;Victoria;Pier Millan;;142.6666667;-35.25;6;
2;AUS;Victoria;Pigeon Ponds;;141.6833333;-37.3;6;
2;AUS;Victoria;Piggoreet;;143.6333333;-37.7166667;6;
2;AUS;Victoria;Pimpinio;;142.1166667;-36.5833333;6;
2;AUS;Victoria;Pine Grove;;144.4166667;-36.2333333;6;
2;AUS;Victoria;Pine Lodge South;;145.5666667;-36.4166667;6;
2;AUS;Victoria;Pine Lodge;;145.5;-36.4166667;6;
2;AUS;Victoria;Pipers Creek;;144.5333333;-37.25;6;
2;AUS;Victoria;Pira;;143.3666667;-35.2666667;6;
2;AUS;Victoria;Piries;;146.1333333;-37.2;6;
2;AUS;Victoria;Pirron Yalloak;;143.4333333;-38.35;6;
2;AUS;Victoria;Pirron Yallock;;143.4333333;-38.35;6;
2;AUS;Victoria;Pitfield Plains;;143.6;-37.8333333;6;
2;AUS;Victoria;Pitfield;;143.6;-37.8;6;
2;AUS;Victoria;Pittong;;143.4833333;-37.6666667;6;
2;AUS;Victoria;Platina;;146.4166667;-37.9833333;6;
2;AUS;Victoria;Point Cook;;144.8;-37.9166667;6;
2;AUS;Victoria;Point Lonsdale;;144.6;-38.2833333;6;
2;AUS;Victoria;Pomborneit;;143.3;-38.3;6;
2;AUS;Victoria;Pomonal;;142.6;-37.2;6;
2;AUS;Victoria;Pompapiel;;144.0833333;-36.35;6;
2;AUS;Victoria;Poolaigelo;;141.1166667;-37.2666667;6;
2;AUS;Victoria;Poorneet;;143.75;-38.0666667;6;
2;AUS;Victoria;Pootilla;;143.9666667;-37.5166667;6;
2;AUS;Victoria;Poowong East;;145.8333333;-38.3;6;
2;AUS;Victoria;Poowong North;;145.8;-38.3;6;
2;AUS;Victoria;Poowong South;;145.7833333;-38.3666667;6;
2;AUS;Victoria;Poowong;;145.75;-38.35;6;
2;AUS;Victoria;Porepunkah;;146.9333333;-36.7166667;6;
2;AUS;Victoria;Port Albert;;146.6833333;-38.6666667;6;
2;AUS;Victoria;Port Campbell;;142.9833333;-38.6166667;6;
2;AUS;Victoria;Port Fairy;;142.2333333;-38.4;6;
2;AUS;Victoria;Port Franklin;;146.2666667;-38.6833333;6;
2;AUS;Victoria;Port Melbourne;;144.9333333;-37.8333333;6;
2;AUS;Victoria;Port Tranklin;;146.2666667;-38.6833333;6;
2;AUS;Victoria;Port Welshpool;;146.4666667;-38.7;6;
2;AUS;Victoria;Portarlington;;144.65;-38.1166667;6;
2;AUS;Victoria;Portland;;141.6;-38.3333333;6;
2;AUS;Victoria;Portsea;;144.7166667;-38.3166667;6;
2;AUS;Victoria;Poseidon;;143.9;-36.8;6;
2;AUS;Victoria;Pound Creek;;145.8;-38.6333333;6;
2;AUS;Victoria;Powelltown;;145.75;-37.8666667;6;
2;AUS;Victoria;Powers Creek;;141.2833333;-37.2;6;
2;AUS;Victoria;Powlett Hill;;143.9666667;-37.25;6;
2;AUS;Victoria;Powlett Plains;;143.8666667;-36.45;6;
2;AUS;Victoria;Powlett River;;145.5833333;-38.5666667;6;
2;AUS;Victoria;Prahran;;145;-37.85;6;
2;AUS;Victoria;Prairie;;144.2333333;-36.3;6;
2;AUS;Victoria;Pranjip;;145.3666667;-36.7333333;6;
2;AUS;Victoria;Preston;;145.0166667;-37.75;6;
2;AUS;Victoria;Princetown;;143.15;-38.6833333;6;
2;AUS;Victoria;Prooinga;;143.0166667;-35.0166667;6;
2;AUS;Victoria;Puckapunyal;;144.9666667;-37;6;
2;AUS;Victoria;Pullut;;142.0333333;-35.9833333;6;
2;AUS;Victoria;Pura Pura;;143.0833333;-37.8166667;6;
2;AUS;Victoria;Puralka;;141.0833333;-37.8166667;6;
2;AUS;Victoria;Purdeet;;142.3833333;-37.9166667;6;
2;AUS;Victoria;Purnim;;142.6333333;-38.2833333;6;
2;AUS;Victoria;Purrumbete South;;143.2166667;-38.35;6;
2;AUS;Victoria;Pyalong;;144.7666667;-37.1333333;6;
2;AUS;Victoria;Pyramid Hill;;144.1333333;-36.0666667;6;
2;AUS;Victoria;Pyramid;;144.1333333;-36.0666667;6;
2;AUS;Victoria;Quambatook;;143.5333333;-35.85;6;
2;AUS;Victoria;Quantong;;142.0166667;-36.7333333;6;
2;AUS;Victoria;Queenscliff;;144.65;-38.2666667;6;
2;AUS;Victoria;Queensferry;;145.5;-38.4166667;6;
2;AUS;Victoria;Queenstown;;145.2666667;-37.6;6;
2;AUS;Victoria;Raglan;;143.35;-37.35;6;
2;AUS;Victoria;Rainbow;;141.9833333;-35.9;6;
2;AUS;Victoria;Raluana;;142.7833333;-36.6666667;6;
2;AUS;Victoria;Ranceby;;145.85;-38.3833333;6;
2;AUS;Victoria;Rathscar West;;143.4833333;-37.0333333;6;
2;AUS;Victoria;Rathscar;;143.4833333;-37.0333333;6;
2;AUS;Victoria;Ravenswood;;144.2166667;-36.9;6;
2;AUS;Victoria;Raymond Island;;147.7333333;-37.9166667;6;
2;AUS;Victoria;Raywood;;144.2166667;-36.5333333;6;
2;AUS;Victoria;Red Bluff;;147.1;-36.2666667;6;
2;AUS;Victoria;Red Cliffs;;142.1833333;-34.3166667;6;
2;AUS;Victoria;Red Hill South;;145.0333333;-38.3833333;6;
2;AUS;Victoria;Red Hill;;145.0166667;-38.35;6;
2;AUS;Victoria;Red Jacket;;146.3;-37.65;6;
2;AUS;Victoria;Redbank;;143.3166667;-36.9333333;6;
2;AUS;Victoria;Redcastle;;144.7833333;-36.7833333;6;
2;AUS;Victoria;Redesdale Junction;;144.4166667;-37.2166667;6;
2;AUS;Victoria;Redesdale;;144.5166667;-37.0166667;6;
2;AUS;Victoria;Reedy Creek;;145.1333333;-37.2666667;6;
2;AUS;Victoria;Reedy Dam;;142.65;-35.9666667;6;
2;AUS;Victoria;Reedy Flat;;147.9;-37.4;6;
2;AUS;Victoria;Regent;;145;-37.7333333;6;
2;AUS;Victoria;Reids Creek;;146.6833333;-36.3166667;6;
2;AUS;Victoria;Research;;145.1833333;-37.7;6;
2;AUS;Victoria;Reservoir;;145;-37.7166667;6;
2;AUS;Victoria;Rheola;;143.7;-36.65;6;
2;AUS;Victoria;Rhyll;;145.3;-38.4666667;6;
2;AUS;Victoria;Rhymney Reef;;142.7833333;-37.2666667;6;
2;AUS;Victoria;Rich Avon West;;142.8333333;-36.5166667;6;
2;AUS;Victoria;Richmond Plains;;143.45;-36.3833333;6;
2;AUS;Victoria;Richmond;;145;-37.8333333;6;
2;AUS;Victoria;Ricketts Marsh;;143.85;-38.3;6;
2;AUS;Victoria;Riddell;;144.6833333;-37.4666667;6;
2;AUS;Victoria;Riddells Creek;;144.6833333;-37.4666667;6;
2;AUS;Victoria;Riggs Creek;;145.5666667;-36.65;6;
2;AUS;Victoria;Ringwood East;;145.25;-37.8166667;6;
2;AUS;Victoria;Ringwood North;;145.2333333;-37.8;6;
2;AUS;Victoria;Ringwood;;145.2333333;-37.8166667;6;
2;AUS;Victoria;Rivernook;;143.2166667;-38.7333333;6;
2;AUS;Victoria;Riversdale;;143.4666667;-37.0666667;6;
2;AUS;Victoria;Riverslea;;146.95;-38;6;
2;AUS;Victoria;Robin Hood;;145.8333333;-38.0833333;6;
2;AUS;Victoria;Rochester;;144.7;-36.3666667;6;
2;AUS;Victoria;Rochford;;144.6833333;-37.3166667;6;
2;AUS;Victoria;Rockbank;;144.65;-37.7166667;6;
2;AUS;Victoria;Rocklyn;;144.05;-37.4333333;6;
2;AUS;Victoria;Rodborough;;143.8666667;-37.1;6;
2;AUS;Victoria;Rokeby;;145.9333333;-38.0666667;6;
2;AUS;Victoria;Rokewood Junction;;143.6833333;-37.85;6;
2;AUS;Victoria;Rokewood;;143.7166667;-37.9;6;
2;AUS;Victoria;Romsey;;144.75;-37.35;6;
2;AUS;Victoria;Rosebery;;142.4166667;-35.8166667;6;
2;AUS;Victoria;Rosebrook;;142.25;-38.3666667;6;
2;AUS;Victoria;Rosebud;;144.9;-38.35;6;
2;AUS;Victoria;Rosecrook;;142.25;-38.3666667;6;
2;AUS;Victoria;Rosedale;;146.7833333;-38.15;6;
2;AUS;Victoria;Roseneath;;141.2666667;-37.45;6;
2;AUS;Victoria;Ross Bridge;;142.85;-37.4833333;6;
2;AUS;Victoria;Ross Creek;;143.75;-37.65;6;
2;AUS;Victoria;Rostron;;143.1833333;-36.7666667;6;
2;AUS;Victoria;Rosyth;;143.4666667;-37.1833333;6;
2;AUS;Victoria;Rownack;;142.4666667;-35.1666667;6;
2;AUS;Victoria;Rowsley;;144.4;-37.7166667;6;
2;AUS;Victoria;Rowville;;145.2333333;-37.9333333;6;
2;AUS;Victoria;Ruby;;145.9166667;-38.45;6;
2;AUS;Victoria;Ruffy;;145.5;-36.9833333;6;
2;AUS;Victoria;Rundells;;147.2833333;-37.0333333;6;
2;AUS;Victoria;Running Creek;;146.9166667;-36.6166667;6;
2;AUS;Victoria;Rupanyup;;142.6166667;-36.6166667;6;
2;AUS;Victoria;Rushworth;;145.0166667;-36.5833333;6;
2;AUS;Victoria;Rutherglen;;146.4666667;-36.05;6;
2;AUS;Victoria;Ryanston;;145.5833333;-38.5333333;6;
2;AUS;Victoria;Rye;;144.8166667;-38.3666667;6;
2;AUS;Victoria;Rynaby;;143.15;-35.2166667;6;
2;AUS;Victoria;Rythdale;;145.4333333;-38.1333333;6;
2;AUS;Victoria;Ryton;;146.35;-38.4833333;6;
2;AUS;Victoria;Sailors Falls;;144.1333333;-37.4;6;
2;AUS;Victoria;Saint Albans;;144.8;-37.7333333;6;
2;AUS;Victoria;Saint Andrews North;;145.3;-37.5666667;6;
2;AUS;Victoria;Saint Andrews;;145.2666667;-37.6;6;
2;AUS;Victoria;Saint Arnaud;;143.25;-36.6;6;
2;AUS;Victoria;Saint Fillans;;145.6666667;-37.55;6;
2;AUS;Victoria;Saint Germains;;145.1666667;-36.25;6;
2;AUS;Victoria;Saint Helens Plains;;142.3833333;-36.8;6;
2;AUS;Victoria;Saint Helens;;142.0666667;-38.2666667;6;
2;AUS;Victoria;Saint James;;145.9;-36.2666667;6;
2;AUS;Victoria;Saint Kilda;;144.9833333;-37.8666667;6;
2;AUS;Victoria;Saint Leonards;;144.7166667;-38.1666667;6;
2;AUS;Victoria;Sale;;147.0666667;-38.1;6;
2;AUS;Victoria;Salisbury West;;143.9666667;-36.5166667;6;
2;AUS;Victoria;Salisbury;;141.7666667;-36.35;6;
2;AUS;Victoria;Samaria;;146.0833333;-36.8;6;
2;AUS;Victoria;San Remo;;145.3666667;-38.5166667;6;
2;AUS;Victoria;Sandford;;141.4333333;-37.6166667;6;
2;AUS;Victoria;Sandhill Lake;;143.6666667;-35.7333333;6;
2;AUS;Victoria;Sandhills Lake;;143.6666667;-35.7333333;6;
2;AUS;Victoria;Sandmount;;145.5833333;-36;6;
2;AUS;Victoria;Sandown Park;;145.1666667;-37.95;6;
2;AUS;Victoria;Sandridge;;144.9333333;-37.8333333;6;
2;AUS;Victoria;Sandringham;;145;-37.95;6;
2;AUS;Victoria;Sandsmere;;141.3333333;-36.2833333;6;
2;AUS;Victoria;Sandy Creek;;147.1;-36.3;6;
2;AUS;Victoria;Sandy Point;;146.1;-38.8166667;6;
2;AUS;Victoria;Sarsfield;;147.7166667;-37.75;6;
2;AUS;Victoria;Sassafras Gully;;145.35;-37.8666667;6;
2;AUS;Victoria;Sassafras;;145.35;-37.8666667;6;
2;AUS;Victoria;Scarsdale;;143.6666667;-37.65;6;
2;AUS;Victoria;Scoresby;;145.2333333;-37.9;6;
2;AUS;Victoria;Scotchmans;;143.85;-37.6666667;6;
2;AUS;Victoria;Scotsburn;;143.9333333;-37.6666667;6;
2;AUS;Victoria;Scotts Creek;;143.05;-38.4333333;6;
2;AUS;Victoria;Scrubby Creek;;145.1666667;-37.5;6;
2;AUS;Victoria;Sea Lake;;142.8333333;-35.4833333;6;
2;AUS;Victoria;Sea View;;145.9333333;-38.2833333;6;
2;AUS;Victoria;Seacombe;;147.4333333;-38.1166667;6;
2;AUS;Victoria;Seaford;;145.1333333;-38.1;6;
2;AUS;Victoria;Seaspray;;147.1833333;-38.3666667;6;
2;AUS;Victoria;Seaton;;146.6666667;-37.9333333;6;
2;AUS;Victoria;Sebastian;;144.2;-36.6;6;
2;AUS;Victoria;Sebastopol;;143.85;-37.6;6;
2;AUS;Victoria;Sedgwick;;144.3166667;-36.8833333;6;
2;AUS;Victoria;Selby;;145.3833333;-37.9166667;6;
2;AUS;Victoria;Serpentine;;143.9833333;-36.4333333;6;
2;AUS;Victoria;Serviceton;;140.9833333;-36.3833333;6;
2;AUS;Victoria;Seville;;145.4666667;-37.7666667;6;
2;AUS;Victoria;Seymour;;145.1333333;-37.0333333;6;
2;AUS;Victoria;Shady Creek;;146.05;-38.1166667;6;
2;AUS;Victoria;She Oaks;;144.1333333;-37.9;6;
2;AUS;Victoria;Sheans Creek;;145.65;-36.7833333;6;
2;AUS;Victoria;Sheep Hills;;142.55;-36.3333333;6;
2;AUS;Victoria;Shelbourne East;;144.1166667;-36.8166667;6;
2;AUS;Victoria;Shelbourne;;144.0166667;-36.8833333;6;
2;AUS;Victoria;Shelford;;143.9666667;-38.0166667;6;
2;AUS;Victoria;Shepparton;;145.4;-36.3833333;6;
2;AUS;Victoria;Sherbrook;;145.35;-37.8833333;6;
2;AUS;Victoria;Sherbrooke;;145.35;-37.8833333;6;
2;AUS;Victoria;Shirley;;143.2666667;-37.35;6;
2;AUS;Victoria;Shoreham;;145.05;-38.4166667;6;
2;AUS;Victoria;Sidonia;;144.55;-37.1666667;6;
2;AUS;Victoria;Silvan;;145.4166667;-37.8166667;6;
2;AUS;Victoria;Silver Creek;;146.7166667;-36.3833333;6;
2;AUS;Victoria;Sinclair Siding;;141.6;-38.0833333;6;
2;AUS;Victoria;Sinclair;;141.55;-38.0833333;6;
2;AUS;Victoria;Skenes Creek;;143.7166667;-38.7333333;6;
2;AUS;Victoria;Skipton;;143.35;-37.6833333;6;
2;AUS;Victoria;Slaty Creek;;145.6666667;-37.85;6;
2;AUS;Victoria;Smeaton;;143.95;-37.3333333;6;
2;AUS;Victoria;Smith Gully Road;;145.2666667;-37.6166667;6;
2;AUS;Victoria;Smythes Creek;;143.7833333;-37.6;6;
2;AUS;Victoria;Smythesdale;;143.6833333;-37.6333333;6;
2;AUS;Victoria;Snake Valley;;143.5833333;-37.6166667;6;
2;AUS;Victoria;Snowy Creek;;147.4166667;-36.5833333;6;
2;AUS;Victoria;Somers;;145.1666667;-38.4;6;
2;AUS;Victoria;Somerton;;144.9333333;-37.65;6;
2;AUS;Victoria;Somerville;;145.1666667;-38.2166667;6;
2;AUS;Victoria;Sorrento;;144.7333333;-38.3166667;6;
2;AUS;Victoria;South Belgrave;;145.3333333;-37.9333333;6;
2;AUS;Victoria;South Dudley;;145.5833333;-38.6;6;
2;AUS;Victoria;South Leongatha;;145.8833333;-38.5333333;6;
2;AUS;Victoria;South Melbourne;;144.9666667;-37.8333333;6;
2;AUS;Victoria;South Morang;;145.1;-37.65;6;
2;AUS;Victoria;South Strezlecki;;145.8833333;-38.3666667;6;
2;AUS;Victoria;South Werribee;;144.7166667;-37.9475;6;
2;AUS;Victoria;South Yarra;;144.9833333;-37.8333333;6;
2;AUS;Victoria;Southern Cross;;142.4;-38.3;6;
2;AUS;Victoria;Spargo Creek;;144.15;-37.4833333;6;
2;AUS;Victoria;Spargo;;144.15;-37.4833333;6;
2;AUS;Victoria;Speed;;142.4333333;-35.4;6;
2;AUS;Victoria;Spring Hill;;144.3333333;-37.3;6;
2;AUS;Victoria;Springdallah;;143.6333333;-37.7666667;6;
2;AUS;Victoria;Springfield;;144.8166667;-37.3333333;6;
2;AUS;Victoria;Springhurst;;146.5;-36.2;6;
2;AUS;Victoria;Springmount;;143.9333333;-37.4166667;6;
2;AUS;Victoria;Springvale South;;145.15;-37.9666667;6;
2;AUS;Victoria;Springvale;;145.15;-37.95;6;
2;AUS;Victoria;Staceys Bridge;;146.5333333;-38.55;6;
2;AUS;Victoria;Staffordshire Reef;;143.7;-37.75;6;
2;AUS;Victoria;Stalker;;143.45;-38.6666667;6;
2;AUS;Victoria;Stanhope;;144.9833333;-36.45;6;
2;AUS;Victoria;Stanley;;146.75;-36.4166667;6;
2;AUS;Victoria;Staughton Vale;;144.2833333;-37.85;6;
2;AUS;Victoria;Stavely;;142.6166667;-37.6;6;
2;AUS;Victoria;Stawell;;142.7666667;-37.05;6;
2;AUS;Victoria;Steels Creek;;145.3833333;-37.5833333;6;
2;AUS;Victoria;Steiglitz;;144.1833333;-37.8833333;6;
2;AUS;Victoria;Stewarton;;145.8;-36.4333333;6;
2;AUS;Victoria;Stirling;;147.75;-37.4333333;6;
2;AUS;Victoria;Stockdale;;147.1666667;-37.8;6;
2;AUS;Victoria;Stockyard Hill;;143.3166667;-37.55;6;
2;AUS;Victoria;Stoneyford;;143.3333333;-38.3333333;6;
2;AUS;Victoria;Stony Creek;;146.0333333;-38.5833333;6;
2;AUS;Victoria;Stony Point;;145.2166667;-38.3666667;6;
2;AUS;Victoria;Stradbroke;;147.0333333;-38.3;6;
2;AUS;Victoria;Strangways;;144.1166667;-37.15;6;
2;AUS;Victoria;Stratford;;147.0833333;-37.9666667;6;
2;AUS;Victoria;Strath Creek;;145.2166667;-37.2333333;6;
2;AUS;Victoria;Strathallan;;144.75;-36.25;6;
2;AUS;Victoria;Strathbogie;;145.75;-36.85;6;
2;AUS;Victoria;Strathdownie;;141.1833333;-37.7333333;6;
2;AUS;Victoria;Strathewen;;145.2666667;-37.55;6;
2;AUS;Victoria;Strathfieldsaye;;144.3666667;-36.8;6;
2;AUS;Victoria;Strathkellar;;142.1;-37.7;6;
2;AUS;Victoria;Strathlea;;143.9666667;-37.1333333;6;
2;AUS;Victoria;Strathmerton;;145.4833333;-35.9166667;6;
2;AUS;Victoria;Strathmore;;142.4833333;-37.6333333;6;
2;AUS;Victoria;Streatham;;143.0666667;-37.6666667;6;
2;AUS;Victoria;Strezlecki;;145.9;-38.3333333;6;
2;AUS;Victoria;Struan;;143.35;-38.0166667;6;
2;AUS;Victoria;Strzelecki;;145.9;-38.3333333;6;
2;AUS;Victoria;Stuart Mill;;143.2;-36.7833333;6;
2;AUS;Victoria;Sulky Gully;;143.8666667;-37.4666667;6;
2;AUS;Victoria;Sunbury;;144.7333333;-37.5833333;6;
2;AUS;Victoria;Sunnyside;;147.5;-36.8333333;6;
2;AUS;Victoria;Sunshine;;144.8333333;-37.7833333;6;
2;AUS;Victoria;Sutherland;;143.2;-36.55;6;
2;AUS;Victoria;Sutton Grange;;144.3666667;-36.9833333;6;
2;AUS;Victoria;Sutton;;143;-35.7333333;6;
2;AUS;Victoria;Sutton's;;143;-35.7333333;6;
2;AUS;Victoria;Swan Hill;;143.5666667;-35.35;6;
2;AUS;Victoria;Swan Marsh;;143.3833333;-38.3666667;6;
2;AUS;Victoria;Swan Reach;;147.8666667;-37.8333333;6;
2;AUS;Victoria;Swanpool;;146.0166667;-36.7666667;6;
2;AUS;Victoria;Swanwater West;;143.0166667;-36.5333333;6;
2;AUS;Victoria;Swanwater;;143.1333333;-36.4833333;6;
2;AUS;Victoria;Swifts Creek Junction;;147.7166667;-37.25;6;
2;AUS;Victoria;Swifts Creek;;147.7166667;-37.25;6;
2;AUS;Victoria;Sydenham;;144.7666667;-37.7;6;
2;AUS;Victoria;Sylvaterre;;144.2333333;-36.1166667;6;
2;AUS;Victoria;Syndal;;145.15;-37.8833333;6;
2;AUS;Victoria;Tabberabbera;;147.3833333;-37.5833333;6;
2;AUS;Victoria;Tabilk;;145.1666667;-36.85;6;
2;AUS;Victoria;Tabor;;142.2;-37.8333333;6;
2;AUS;Victoria;Taggerty;;145.7166667;-37.3333333;6;
2;AUS;Victoria;Tahara;;141.7;-37.7333333;6;
2;AUS;Victoria;Talbot;;143.7;-37.1666667;6;
2;AUS;Victoria;Talbotville;;147.0666667;-37.35;6;
2;AUS;Victoria;Talgarno;;147.1666667;-36.0833333;6;
2;AUS;Victoria;Tallageira;;141.0166667;-36.8333333;6;
2;AUS;Victoria;Tallandoon;;147.2;-36.45;6;
2;AUS;Victoria;Tallangalook;;145.8666667;-36.9333333;6;
2;AUS;Victoria;Tallangatta;;147.25;-36.2;6;
2;AUS;Victoria;Tallarook;;145.1;-37.1;6;
2;AUS;Victoria;Tally Ho;;145.15;-37.8666667;6;
2;AUS;Victoria;Tallygaroopna;;145.4333333;-36.25;6;
2;AUS;Victoria;Tambo Crossing;;147.8333333;-37.5;6;
2;AUS;Victoria;Tambo Upper;;147.85;-37.7666667;6;
2;AUS;Victoria;Taminick;;146.1666667;-36.4166667;6;
2;AUS;Victoria;Tamleugh North;;145.55;-36.5;6;
2;AUS;Victoria;Tamleugh West;;145.5333333;-36.5666667;6;
2;AUS;Victoria;Tamleugh;;145.6333333;-36.6;6;
2;AUS;Victoria;Tandara;;144.2166667;-36.4333333;6;
2;AUS;Victoria;Tandarra;;144.2166667;-36.4333333;6;
2;AUS;Victoria;Tangambalanga;;147.0333333;-36.2333333;6;
2;AUS;Victoria;Tanjil South;;146.25;-38.1166667;6;
2;AUS;Victoria;Tankerton;;145.2833333;-38.3833333;6;
2;AUS;Victoria;Tanybryn;;143.7166667;-38.65;6;
2;AUS;Victoria;Taradale;;144.3666667;-37.15;6;
2;AUS;Victoria;Tarago;;145.9;-38.0666667;6;
2;AUS;Victoria;Tarbucks;;148.7;-37.7;6;
2;AUS;Victoria;Tarcombe;;145.4;-36.9833333;6;
2;AUS;Victoria;Taripta;;145.05;-36.2666667;6;
2;AUS;Victoria;Tarnagulla;;143.8333333;-36.75;6;
2;AUS;Victoria;Tarneit;;144.6666667;-37.8666667;6;
2;AUS;Victoria;Tarra Valley;;146.5333333;-38.4333333;6;
2;AUS;Victoria;Tarraginnie;;141.5333333;-36.3333333;6;
2;AUS;Victoria;Tarranginnie;;141.5333333;-36.3333333;6;
2;AUS;Victoria;Tarrango;;141.8;-34.5;6;
2;AUS;Victoria;Tarranyurk;;142.05;-36.2166667;6;
2;AUS;Victoria;Tarraville;;146.7166667;-38.6333333;6;
2;AUS;Victoria;Tarrawarra;;145.4333333;-37.65;6;
2;AUS;Victoria;Tarrawingee;;146.4666667;-36.4;6;
2;AUS;Victoria;Tarrayoukyan;;141.5833333;-37.3166667;6;
2;AUS;Victoria;Tarrenlea;;141.7333333;-37.6833333;6;
2;AUS;Victoria;Tarrington;;142.1;-37.7666667;6;
2;AUS;Victoria;Tarwin East;;146.2333333;-38.5166667;6;
2;AUS;Victoria;Tarwin Lower;;145.85;-38.7;6;
2;AUS;Victoria;Tarwin Meadows;;145.8333333;-38.7166667;6;
2;AUS;Victoria;Tarwin;;145.9833333;-38.5833333;6;
2;AUS;Victoria;Tatong;;146.1;-36.7333333;6;
2;AUS;Victoria;Tatura;;145.2333333;-36.45;6;
2;AUS;Victoria;Tatyoon North;;143;-37.4833333;6;
2;AUS;Victoria;Tatyoon;;142.95;-37.5166667;6;
2;AUS;Victoria;Tawonga;;147.1;-36.6333333;6;
2;AUS;Victoria;Teal Point;;144.0833333;-35.6833333;6;
2;AUS;Victoria;Teddywaddi;;143.35;-36.1833333;6;
2;AUS;Victoria;Teddywaddy;;143.35;-36.1833333;6;
2;AUS;Victoria;Teesdale;;144.05;-38.0333333;6;
2;AUS;Victoria;Telangatuk East;;141.9666667;-37.0833333;6;
2;AUS;Victoria;Telangatuk;;141.8166667;-37.1333333;6;
2;AUS;Victoria;Telford;;145.95;-36.1;6;
2;AUS;Victoria;Templestowe Lower;;145.1166667;-37.7666667;6;
2;AUS;Victoria;Templestowe;;145.1166667;-37.75;6;
2;AUS;Victoria;Tempy;;142.4166667;-35.3333333;6;
2;AUS;Victoria;Ten Mile;;146.1833333;-37.3833333;6;
2;AUS;Victoria;Tennyson;;144.4333333;-36.2833333;6;
2;AUS;Victoria;Terang;;142.9333333;-38.2333333;6;
2;AUS;Victoria;Terip Terip;;145.5666667;-37;6;
2;AUS;Victoria;Terrick Terrick;;144.3;-36.0833333;6;
2;AUS;Victoria;Tetoora Road;;145.9;-38.2666667;6;
2;AUS;Victoria;Thalia;;143.0833333;-36.0666667;6;
2;AUS;Victoria;The Basin;;145.3166667;-37.85;6;
2;AUS;Victoria;The Heart;;147.1666667;-38.1166667;6;
2;AUS;Victoria;The Patch;;145.3833333;-37.9;6;
2;AUS;Victoria;The Rose;;143.7666667;-37.4;6;
2;AUS;Victoria;The Sisters;;142.7833333;-38.2;6;
2;AUS;Victoria;The Walnuts;;147.7;-37.2666667;6;
2;AUS;Victoria;Thomastown;;145.0166667;-37.6833333;6;
2;AUS;Victoria;Thompson;;146.4166667;-37.9666667;6;
2;AUS;Victoria;Thoona;;146.0666667;-36.3166667;6;
2;AUS;Victoria;Thorpdale South;;146.1666667;-38.3;6;
2;AUS;Victoria;Thorpdale;;146.1833333;-38.2833333;6;
2;AUS;Victoria;Thougla;;147.95;-36.2333333;6;
2;AUS;Victoria;Thurla;;142.1;-34.35;6;
2;AUS;Victoria;Tiega;;142.2;-35.0666667;6;
2;AUS;Victoria;Timberoo South;;142.1333333;-35.2166667;6;
2;AUS;Victoria;Timberoo;;142.1833333;-35.15;6;
2;AUS;Victoria;Timboon;;142.9833333;-38.4833333;6;
2;AUS;Victoria;Timmering;;144.9166667;-36.3666667;6;
2;AUS;Victoria;Timor West;;143.7;-36.9666667;6;
2;AUS;Victoria;Timor;;143.7166667;-37.0166667;6;
2;AUS;Victoria;Tinamba;;146.8833333;-37.9666667;6;
2;AUS;Victoria;Tintaldra;;147.9333333;-36.05;6;
2;AUS;Victoria;Tittybong;;143.3666667;-35.7666667;6;
2;AUS;Victoria;Tolleen;;144.7;-36.7166667;6;
2;AUS;Victoria;Tolmie;;146.2333333;-36.9333333;6;
2;AUS;Victoria;Tomahawk Creek;;143.3333333;-38.4666667;6;
2;AUS;Victoria;Tommy's Hut;;145.2333333;-37.4666667;6;
2;AUS;Victoria;Tongala East;;144.9833333;-36.25;6;
2;AUS;Victoria;Tongala;;144.95;-36.25;6;
2;AUS;Victoria;Tongio West;;147.6333333;-37.25;6;
2;AUS;Victoria;Tongio;;147.7333333;-37.1833333;6;
2;AUS;Victoria;Tonimbuc;;145.7333333;-38.0166667;6;
2;AUS;Victoria;Tooan East;;141.8333333;-36.8;6;
2;AUS;Victoria;Tooan;;141.7833333;-36.8;6;
2;AUS;Victoria;Tooboorac;;144.8333333;-37.05;6;
2;AUS;Victoria;Tooborac;;144.8333333;-37.05;6;
2;AUS;Victoria;Toolamba West;;145.2833333;-36.4333333;6;
2;AUS;Victoria;Toolamba;;145.35;-36.5;6;
2;AUS;Victoria;Toolangi;;145.4666667;-37.5333333;6;
2;AUS;Victoria;Toolern Vale;;144.6;-37.6;6;
2;AUS;Victoria;Toolleen;;144.7;-36.7166667;6;
2;AUS;Victoria;Toolondo;;141.9333333;-36.9833333;6;
2;AUS;Victoria;Tooloonook;;146.6;-38.55;6;
2;AUS;Victoria;Toombullup;;146.2166667;-36.8666667;6;
2;AUS;Victoria;Toongabbie;;146.6166667;-38.05;6;
2;AUS;Victoria;Toora;;146.3333333;-38.65;6;
2;AUS;Victoria;Tooradin;;145.3833333;-38.2166667;6;
2;AUS;Victoria;Topiram;;145.8166667;-38.2833333;6;
2;AUS;Victoria;Torquay;;144.3166667;-38.3333333;6;
2;AUS;Victoria;Torrita;;141.9333333;-35.15;6;
2;AUS;Victoria;Torrumbarry;;144.55;-36.0333333;6;
2;AUS;Victoria;Tostaree;;148.1666667;-37.75;6;
2;AUS;Victoria;Tottington;;143.1166667;-36.7833333;6;
2;AUS;Victoria;Tourello;;143.7833333;-37.35;6;
2;AUS;Victoria;Towan;;143.2333333;-35.1166667;6;
2;AUS;Victoria;Towaninnie;;143.35;-35.9166667;6;
2;AUS;Victoria;Tower Hill;;142.35;-38.3333333;6;
2;AUS;Victoria;Towong Upper;;148.0333333;-36.2166667;6;
2;AUS;Victoria;Towong;;147.9833333;-36.1333333;6;
2;AUS;Victoria;Trafalgar East;;146.1833333;-38.1833333;6;
2;AUS;Victoria;Trafalgar South;;146.15;-38.2666667;6;
2;AUS;Victoria;Trafalgar West;;146.1166667;-38.2166667;6;
2;AUS;Victoria;Trafalgar;;146.15;-38.2;6;
2;AUS;Victoria;Tragowel;;143.9833333;-35.85;6;
2;AUS;Victoria;Traralgon South;;146.55;-38.2666667;6;
2;AUS;Victoria;Traralgon;;146.5333333;-38.1833333;6;
2;AUS;Victoria;Trawalla;;143.4666667;-37.4333333;6;
2;AUS;Victoria;Trawool;;145.2166667;-37.1;6;
2;AUS;Victoria;Traynors Lagoon;;143;-36.5833333;6;
2;AUS;Victoria;Tremont;;145.3333333;-37.9;6;
2;AUS;Victoria;Trentham East;;144.3833333;-37.3833333;6;
2;AUS;Victoria;Trentham;;144.3166667;-37.3833333;6;
2;AUS;Victoria;Tresco;;143.65;-35.5166667;6;
2;AUS;Victoria;Trewalla;;141.5166667;-38.35;6;
2;AUS;Victoria;Trida;;145.9666667;-38.3166667;6;
2;AUS;Victoria;Triholm;;145.8333333;-38.3166667;6;
2;AUS;Victoria;Truganina;;144.75;-37.8166667;6;
2;AUS;Victoria;Trunk Lead;;143.75;-37.5666667;6;
2;AUS;Victoria;Tullamarine;;144.8666667;-37.7;6;
2;AUS;Victoria;Tungamah;;145.8666667;-36.1666667;6;
2;AUS;Victoria;Turoar;;143.05;-35.1666667;6;
2;AUS;Victoria;Turriff East;;142.5333333;-35.4;6;
2;AUS;Victoria;Turriff West;;142.3666667;-35.45;6;
2;AUS;Victoria;Turriff;;142.45;-35.45;6;
2;AUS;Victoria;Turton Creek;;146.25;-38.55;6;
2;AUS;Victoria;Turtons Creek;;146.25;-38.55;6;
2;AUS;Victoria;Tutye;;141.4833333;-35.2166667;6;
2;AUS;Victoria;Tyaak;;145.1333333;-37.2166667;6;
2;AUS;Victoria;Tyabb;;145.1833333;-38.25;6;
2;AUS;Victoria;Tyers;;146.4666667;-38.15;6;
2;AUS;Victoria;Tylden;;144.4166667;-37.3333333;6;
2;AUS;Victoria;Tynong North;;145.6166667;-38.0666667;6;
2;AUS;Victoria;Tynong;;145.6166667;-38.0833333;6;
2;AUS;Victoria;Tyntynder Central;;143.55;-35.2666667;6;
2;AUS;Victoria;Tyntynder South;;143.5333333;-35.3;6;
2;AUS;Victoria;Tyntynder;;143.4666667;-35.2333333;6;
2;AUS;Victoria;Tyrendarra East;;141.9;-38.25;6;
2;AUS;Victoria;Tyrendarra;;141.7833333;-38.2166667;6;
2;AUS;Victoria;Tyrrell Downs;;142.9666667;-35.3666667;6;
2;AUS;Victoria;Ullina;;143.9;-37.2833333;6;
2;AUS;Victoria;Ullswater;;141.3833333;-36.9666667;6;
2;AUS;Victoria;Ultima;;143.25;-35.4833333;6;
2;AUS;Victoria;Ulupna West;;145.3666667;-35.8833333;6;
2;AUS;Victoria;Ulupna;;145.4;-35.8833333;6;
2;AUS;Victoria;Undera North;;145.2166667;-36.2;6;
2;AUS;Victoria;Undera;;145.2166667;-36.2833333;6;
2;AUS;Victoria;Underbool;;141.8166667;-35.1666667;6;
2;AUS;Victoria;Upotipotpon;;145.8166667;-36.4833333;6;
2;AUS;Victoria;Upper Beaconsfield;;145.4166667;-38;6;
2;AUS;Victoria;Upper Bemm River;;148.8833333;-37.6166667;6;
2;AUS;Victoria;Upper Buckland;;146.85;-36.8833333;6;
2;AUS;Victoria;Upper Diamond Creek;;145.2;-37.65;6;
2;AUS;Victoria;Upper Flinn's Creek;;146.65;-38.2333333;6;
2;AUS;Victoria;Upper Flynns Creek;;146.65;-38.2333333;6;
2;AUS;Victoria;Upper Gundowring;;147.0666667;-36.4833333;6;
2;AUS;Victoria;Upper Lurg;;146.1833333;-36.5833333;6;
2;AUS;Victoria;Upper Macedon;;144.6;-37.3833333;6;
2;AUS;Victoria;Upper Plenty;;145.7333333;-37.4333333;6;
2;AUS;Victoria;Upper Thougla;;147.9166667;-36.3333333;6;
2;AUS;Victoria;Upwey;;145.3333333;-37.9;6;
2;AUS;Victoria;Urangara;;142;-37.4666667;6;
2;AUS;Victoria;Valencia Creek;;146.9833333;-37.8333333;6;
2;AUS;Victoria;Valhalla;;146.45;-37.95;6;
2;AUS;Victoria;Valley View;;146.4833333;-38.45;6;
2;AUS;Victoria;Vasey;;141.8833333;-37.3666667;6;
2;AUS;Victoria;Vectis East;;142.05;-36.6666667;6;
2;AUS;Victoria;Vectis South;;142.0166667;-36.7333333;6;
2;AUS;Victoria;Ventnor;;145.1666667;-38.4666667;6;
2;AUS;Victoria;Vermont;;145.2;-37.8333333;6;
2;AUS;Victoria;Vervale;;145.6666667;-38.1333333;6;
2;AUS;Victoria;Vesper;;146.0833333;-37.9166667;6;
2;AUS;Victoria;Victoria Valley;;142.3333333;-37.55;6;
2;AUS;Victoria;Victory Valley;;142.3333333;-37.55;6;
2;AUS;Victoria;Vincent;;145.3166667;-37.7;6;
2;AUS;Victoria;Vinefera;;143.3833333;-35.2;6;
2;AUS;Victoria;Violet Town;;145.7333333;-36.6333333;6;
2;AUS;Victoria;Vite Vite North;;143.2;-37.7833333;6;
2;AUS;Victoria;Vite Vite;;143.1666667;-37.8833333;6;
2;AUS;Victoria;Waaia;;145.35;-36.05;6;
2;AUS;Victoria;Waanyarra Rush;;143.8;-36.8;6;
2;AUS;Victoria;Waanyarra;;143.8;-36.8;6;
2;AUS;Victoria;Wabba;;147.7;-36.2;6;
2;AUS;Victoria;Wagant;;142.5;-35.1166667;6;
2;AUS;Victoria;Waggarandall;;145.8;-36.25;6;
2;AUS;Victoria;Wahgunyah;;146.4;-36.0166667;6;
2;AUS;Victoria;Wahring;;145.2166667;-36.7166667;6;
2;AUS;Victoria;Wail;;142.1;-36.5;6;
2;AUS;Victoria;Waitchie;;143.0833333;-35.3666667;6;
2;AUS;Victoria;Wal Wal;;142.6166667;-36.8166667;6;
2;AUS;Victoria;Walhalla;;146.45;-37.95;6;
2;AUS;Victoria;Walhallo;;146.45;-37.95;6;
2;AUS;Victoria;Walkerville;;146;-38.8666667;6;
2;AUS;Victoria;Wallace;;144.05;-37.55;6;
2;AUS;Victoria;Wallacedale North;;141.8166667;-37.9166667;6;
2;AUS;Victoria;Wallacedale;;141.8;-37.9333333;6;
2;AUS;Victoria;Wallaloo East;;142.9333333;-36.7833333;6;
2;AUS;Victoria;Wallaloo;;142.8833333;-36.7166667;6;
2;AUS;Victoria;Wallan East;;145.0166667;-37.4166667;6;
2;AUS;Victoria;Wallan;;144.9833333;-37.4166667;6;
2;AUS;Victoria;Wallaoo;;142.8833333;-36.7166667;6;
2;AUS;Victoria;Wallinduc;;143.5166667;-37.8666667;6;
2;AUS;Victoria;Wallington;;144.4833333;-38.2;6;
2;AUS;Victoria;Wallup;;142.25;-36.35;6;
2;AUS;Victoria;Walmer;;144.15;-36.9666667;6;
2;AUS;Victoria;Walpa;;147.45;-37.8;6;
2;AUS;Victoria;Walpeup;;142.0333333;-35.1333333;6;
2;AUS;Victoria;Walwa;;147.7333333;-35.9666667;6;
2;AUS;Victoria;Wanalta;;144.8833333;-36.6;6;
2;AUS;Victoria;Wandiligong;;146.9833333;-36.7833333;6;
2;AUS;Victoria;Wandin North;;145.4333333;-37.7833333;6;
2;AUS;Victoria;Wandin Yallock;;145.45;-37.7833333;6;
2;AUS;Victoria;Wandin;;145.45;-37.8;6;
2;AUS;Victoria;Wando Bridge;;141.4333333;-37.4833333;6;
2;AUS;Victoria;Wando Vale;;141.45;-37.5166667;6;
2;AUS;Victoria;Wandocka School;;146.8833333;-38.0333333;6;
2;AUS;Victoria;Wandong;;145.0333333;-37.35;6;
2;AUS;Victoria;Wangaratta;;146.3333333;-36.3666667;6;
2;AUS;Victoria;Wangoom;;142.5833333;-38.3333333;6;
2;AUS;Victoria;Wangrabelle;;149.4833333;-37.35;6;
2;AUS;Victoria;Wannon;;141.8333333;-37.6666667;6;
2;AUS;Victoria;Wantirna South;;145.2166667;-37.8833333;6;
2;AUS;Victoria;Wantirna;;145.2166667;-37.85;6;
2;AUS;Victoria;Wanurp;;144.35;-36.2333333;6;
2;AUS;Victoria;Wanwin;;141.15;-38.0166667;6;
2;AUS;Victoria;Waranga;;145.1166667;-36.6;6;
2;AUS;Victoria;Waratah Bay;;146;-38.8666667;6;
2;AUS;Victoria;Waratah North;;146.0833333;-38.75;6;
2;AUS;Victoria;Waratah;;146;-38.8666667;6;
2;AUS;Victoria;Warburton;;145.6833333;-37.75;6;
2;AUS;Victoria;Wareek;;143.6166667;-36.9833333;6;
2;AUS;Victoria;Warmur;;142.7833333;-36.1166667;6;
2;AUS;Victoria;Warncoort;;143.7166667;-38.3166667;6;
2;AUS;Victoria;Warrabkook;;142.0166667;-38;6;
2;AUS;Victoria;Warracknabeal;;142.4166667;-36.25;6;
2;AUS;Victoria;Warragamba;;144.5666667;-36.4333333;6;
2;AUS;Victoria;Warragul;;145.9333333;-38.1666667;6;
2;AUS;Victoria;Warrak;;143.15;-37.2666667;6;
2;AUS;Victoria;Warramate;;145.5;-37.75;6;
2;AUS;Victoria;Warrambine Creek;;143.9;-37.9666667;6;
2;AUS;Victoria;Warrandyte South;;145.25;-37.7666667;6;
2;AUS;Victoria;Warrandyte;;145.2333333;-37.75;6;
2;AUS;Victoria;Warrayure;;142.15;-37.6833333;6;
2;AUS;Victoria;Warrenbayne;;145.8666667;-36.6833333;6;
2;AUS;Victoria;Warrenheip;;143.9333333;-37.5666667;6;
2;AUS;Victoria;Warrenmang;;143.3;-37.0333333;6;
2;AUS;Victoria;Warrion;;143.5666667;-38.2333333;6;
2;AUS;Victoria;Warrnambool;;142.4833333;-38.3833333;6;
2;AUS;Victoria;Warrong;;142.3666667;-38.2333333;6;
2;AUS;Victoria;Wartook;;142.3333333;-36.95;6;
2;AUS;Victoria;Watchem;;142.85;-36.15;6;
2;AUS;Victoria;Watchupga;;142.7166667;-35.75;6;
2;AUS;Victoria;Waterford;;147.2;-37.5166667;6;
2;AUS;Victoria;Waterloo;;143.4166667;-37.3666667;6;
2;AUS;Victoria;Watgania;;142.6166667;-37.4166667;6;
2;AUS;Victoria;Watganie;;142.6166667;-37.4166667;6;
2;AUS;Victoria;Watsons Creek;;145.2333333;-37.6833333;6;
2;AUS;Victoria;Wattle Bank;;145.7;-38.5666667;6;
2;AUS;Victoria;Wattle Creek;;143.1166667;-36.9833333;6;
2;AUS;Victoria;Wattle Flat;;143.95;-37.4666667;6;
2;AUS;Victoria;Wattle Grove;;143.4;-37.0166667;6;
2;AUS;Victoria;Wattle Hill;;143.25;-38.7833333;6;
2;AUS;Victoria;Wattle Vale;;145.0833333;-36.8;6;
2;AUS;Victoria;Wattleglen;;145.1833333;-37.6666667;6;
2;AUS;Victoria;Waubra Junction;;143.85;-37.4833333;6;
2;AUS;Victoria;Waubra;;143.65;-37.3666667;6;
2;AUS;Victoria;Waurn Ponds;;144.2833333;-38.2166667;6;
2;AUS;Victoria;Waygara;;148.3166667;-37.7333333;6;
2;AUS;Victoria;Weatherboard;;143.6666667;-37.4333333;6;
2;AUS;Victoria;Wedderburn Junction;;143.7;-36.4166667;6;
2;AUS;Victoria;Wedderburn;;143.6333333;-36.4333333;6;
2;AUS;Victoria;Weeaproinah;;143.5;-38.6333333;6;
2;AUS;Victoria;Weering;;143.6333333;-38.1;6;
2;AUS;Victoria;Weerite;;143.25;-38.25;6;
2;AUS;Victoria;Wee-wee-rup;;144.3;-35.8666667;6;
2;AUS;Victoria;Wehla;;143.6;-36.7833333;6;
2;AUS;Victoria;Wellsford;;144.4666667;-36.6333333;6;
2;AUS;Victoria;Welshmans Reef;;144.05;-37.0666667;6;
2;AUS;Victoria;Welshpool;;146.4333333;-38.6666667;6;
2;AUS;Victoria;Wendouree;;143.8333333;-37.55;6;
2;AUS;Victoria;Wensleydale;;144.0333333;-38.35;6;
2;AUS;Victoria;Werneth;;143.6166667;-37.95;6;
2;AUS;Victoria;Werona;;144.0333333;-37.25;6;
2;AUS;Victoria;Werribee South;;144.7166667;-37.9475;6;
2;AUS;Victoria;Werribee;;144.6666667;-37.9;6;
2;AUS;Victoria;Wesburn;;145.6333333;-37.7666667;6;
2;AUS;Victoria;West Jindivick;;145.8833333;-38.05;6;
2;AUS;Victoria;Westmere;;142.9666667;-37.6833333;6;
2;AUS;Victoria;Westmore;;142.9666667;-37.6833333;6;
2;AUS;Victoria;Wharparilla North;;144.6333333;-36.0833333;6;
2;AUS;Victoria;Wharparilla;;144.6333333;-36.1333333;6;
2;AUS;Victoria;Wheelers Hill;;145.1833333;-37.9;6;
2;AUS;Victoria;Whirily;;142.9666667;-35.8666667;6;
2;AUS;Victoria;White Gate;;146.05;-36.65;6;
2;AUS;Victoria;Whitehead's Creek;;145.2333333;-37.0333333;6;
2;AUS;Victoria;Whitelaw;;145.7833333;-38.4166667;6;
2;AUS;Victoria;Whitfield;;146.4166667;-36.7833333;6;
2;AUS;Victoria;Whittlesea;;145.1166667;-37.5166667;6;
2;AUS;Victoria;Whoorel;;143.8166667;-38.3666667;6;
2;AUS;Victoria;Whorouly South;;146.5833333;-36.55;6;
2;AUS;Victoria;Whorouly;;146.6;-36.5166667;6;
2;AUS;Victoria;Whroo;;145.0166667;-36.65;6;
2;AUS;Victoria;Wickliffe;;142.7166667;-37.6833333;6;
2;AUS;Victoria;Wilby;;146.0166667;-36.1666667;6;
2;AUS;Victoria;Wild Duck Creek;;144.5833333;-35.8833333;6;
2;AUS;Victoria;Wilgul;;143.5666667;-37.95;6;
2;AUS;Victoria;Wilkur South;;142.6166667;-36.0666667;6;
2;AUS;Victoria;Wilkur;;142.6166667;-36.0666667;6;
2;AUS;Victoria;Willah;;141.9166667;-34.4666667;6;
2;AUS;Victoria;Willangie;;142.85;-35.65;6;
2;AUS;Victoria;Willatook;;142.2666667;-38.1666667;6;
2;AUS;Victoria;Willaura;;142.75;-37.5333333;6;
2;AUS;Victoria;Willenabrina;;142.2;-36.0666667;6;
2;AUS;Victoria;Williamstown;;144.9;-37.8666667;6;
2;AUS;Victoria;Willow Grove;;146.2;-38.0833333;6;
2;AUS;Victoria;Willowvale;;143.4666667;-37.8;6;
2;AUS;Victoria;Willung South;;146.7333333;-38.35;6;
2;AUS;Victoria;Willung;;146.8166667;-38.25;6;
2;AUS;Victoria;Wimba;;143.5666667;-38.5833333;6;
2;AUS;Victoria;Winchelsea;;143.9833333;-38.2333333;6;
2;AUS;Victoria;Windermere;;143.75;-37.5333333;6;
2;AUS;Victoria;Winiam East;;141.75;-36.4333333;6;
2;AUS;Victoria;Winiam;;141.65;-36.4166667;6;
2;AUS;Victoria;Winjallok;;143.2;-36.8166667;6;
2;AUS;Victoria;Winnap;;141.3166667;-37.95;6;
2;AUS;Victoria;Winnindoo;;146.7666667;-38.05;6;
2;AUS;Victoria;Winslow;;142.45;-38.2333333;6;
2;AUS;Victoria;Winton;;146.0833333;-36.5166667;6;
2;AUS;Victoria;Wirra Wirra;;142.9666667;-37.3666667;6;
2;AUS;Victoria;Wirrate;;145.05;-36.8;6;
2;AUS;Victoria;Wodonga;;146.8833333;-36.1166667;6;
2;AUS;Victoria;Wollert;;145.0333333;-37.5833333;6;
2;AUS;Victoria;Wombat;;144.0833333;-37.4333333;6;
2;AUS;Victoria;Wombelano;;141.6;-37;6;
2;AUS;Victoria;Womerah;;146.5333333;-38.4833333;6;
2;AUS;Victoria;Won Wron;;146.7166667;-38.4666667;6;
2;AUS;Victoria;Wonga Park;;145.2666667;-37.7333333;6;
2;AUS;Victoria;Wongarra;;143.75;-38.7166667;6;
2;AUS;Victoria;Wonthaggi;;145.5333333;-38.6166667;6;
2;AUS;Victoria;Wonwondah East;;142.2666667;-36.8666667;6;
2;AUS;Victoria;Wonwondah North;;142.15;-36.8833333;6;
2;AUS;Victoria;Wonwondah South;;142.15;-36.9166667;6;
2;AUS;Victoria;Wonyip;;146.3833333;-38.5666667;6;
2;AUS;Victoria;Wood Wood;;143.3333333;-35.1166667;6;
2;AUS;Victoria;Woodbourne;;143.9833333;-37.85;6;
2;AUS;Victoria;Woodend;;144.5333333;-37.35;6;
2;AUS;Victoria;Woodfield;;145.8;-37.0166667;6;
2;AUS;Victoria;Woodford;;142.4666667;-38.3166667;6;
2;AUS;Victoria;Woodglen;;147.4833333;-37.75;6;
2;AUS;Victoria;Woodleigh;;145.6333333;-38.4;6;
2;AUS;Victoria;Woods Point;;146.25;-37.5833333;6;
2;AUS;Victoria;Woodside;;146.8666667;-38.5166667;6;
2;AUS;Victoria;Woodstock;;145.0333333;-37.55;6;
2;AUS;Victoria;Woodstock-on-Loddon;;144.05;-36.7833333;6;
2;AUS;Victoria;Woodvale;;144.2166667;-36.65;6;
2;AUS;Victoria;Woohlpooer;;142.15;-37.3333333;6;
2;AUS;Victoria;Wool Wool;;143.4166667;-38.25;6;
2;AUS;Victoria;Woolamai;;145.5;-38.5;6;
2;AUS;Victoria;Woolert;;145.0333333;-37.5833333;6;
2;AUS;Victoria;Woolshed;;146.6333333;-36.3166667;6;
2;AUS;Victoria;Woolsthorpe;;142.4333333;-38.2;6;
2;AUS;Victoria;Woomelang;;142.6833333;-35.6833333;6;
2;AUS;Victoria;Wooragee North;;146.7333333;-36.15;6;
2;AUS;Victoria;Wooragee;;146.7833333;-36.2833333;6;
2;AUS;Victoria;Woorak West;;141.7;-36.2333333;6;
2;AUS;Victoria;Woorak;;141.7666667;-36.2833333;6;
2;AUS;Victoria;Woorarra East;;146.3833333;-38.6166667;6;
2;AUS;Victoria;Wooreen;;146.0333333;-38.4;6;
2;AUS;Victoria;Woori Yallock;;145.5166667;-37.75;6;
2;AUS;Victoria;Woorinen North;;143.45;-35.25;6;
2;AUS;Victoria;Woorinen;;143.4333333;-35.3;6;
2;AUS;Victoria;Woorndoo Upper;;142.8;-37.8333333;6;
2;AUS;Victoria;Woorndoo;;142.8166667;-37.9;6;
2;AUS;Victoria;Wooroonook;;143.2;-36.25;6;
2;AUS;Victoria;Wooroonooke;;143.2;-36.25;6;
2;AUS;Victoria;Woosang;;143.4833333;-36.3333333;6;
2;AUS;Victoria;Woreen;;145.9833333;-38.4;6;
2;AUS;Victoria;Wuk Wuk;;147.4333333;-37.7666667;6;
2;AUS;Victoria;Wulgulmerang;;148.2833333;-37.0833333;6;
2;AUS;Victoria;Wunghnu;;145.45;-36.15;6;
2;AUS;Victoria;Wurdiboluc;;144.05;-38.3;6;
2;AUS;Victoria;Wurruk;;147.0333333;-38.1166667;6;
2;AUS;Victoria;Wy Yung;;147.5833333;-37.8;6;
2;AUS;Victoria;Wycheproof;;143.2333333;-36.0666667;6;
2;AUS;Victoria;Wychitella;;143.6166667;-36.2833333;6;
2;AUS;Victoria;Wye River;;143.8833333;-38.6333333;6;
2;AUS;Victoria;Wye;;143.8833333;-38.6333333;6;
2;AUS;Victoria;Wyeebo;;147.3833333;-36.2833333;6;
2;AUS;Victoria;Wyelangta;;143.4666667;-38.6333333;6;
2;AUS;Victoria;Wymlet;;142.1166667;-34.9333333;6;
2;AUS;Victoria;Wyuna East;;145.05;-36.2;6;
2;AUS;Victoria;Wyuna Town;;145.05;-36.2;6;
2;AUS;Victoria;Wyuna;;145.05;-36.2;6;
2;AUS;Victoria;Yaapeet;;142.05;-35.7666667;6;
2;AUS;Victoria;Yabba North;;145.6833333;-36.2166667;6;
2;AUS;Victoria;Yackandandah;;146.8666667;-36.3333333;6;
2;AUS;Victoria;Yalca;;145.3166667;-35.9833333;6;
2;AUS;Victoria;Yalla-Y-Poora;;143.0666667;-37.5333333;6;
2;AUS;Victoria;Yallock;;144.2;-36.3666667;6;
2;AUS;Victoria;Yallourn;;146.3333333;-38.1833333;6;
2;AUS;Victoria;Yambuk;;142.05;-38.3333333;6;
2;AUS;Victoria;Yambuna;;145.0333333;-36.15;6;
2;AUS;Victoria;Yan Yean;;145.1;-37.5666667;6;
2;AUS;Victoria;Yanac South;;141.45;-36.2;6;
2;AUS;Victoria;Yanac;;141.4333333;-36.1333333;6;
2;AUS;Victoria;Yanac-a-Yanac;;141.45;-36.2;6;
2;AUS;Victoria;Yando;;143.8333333;-36.1;6;
2;AUS;Victoria;Yandoit;;144.1;-37.2;6;
2;AUS;Victoria;Yangery;;142.4166667;-38.3166667;6;
2;AUS;Victoria;Yannathan;;145.65;-38.2333333;6;
2;AUS;Victoria;Yapeen;;144.1833333;-37.1333333;6;
2;AUS;Victoria;Yarck;;145.6166667;-37.1;6;
2;AUS;Victoria;Yarpturk;;142.4333333;-38.3;6;
2;AUS;Victoria;Yarra Glen;;145.3666667;-37.6666667;6;
2;AUS;Victoria;Yarra Junction;;145.6166667;-37.7833333;6;
2;AUS;Victoria;Yarraberb;;144.0666667;-36.6166667;6;
2;AUS;Victoria;Yarraby;;143.25;-35.1833333;6;
2;AUS;Victoria;Yarragon;;146.0666667;-38.2;6;
2;AUS;Victoria;Yarram;;146.6666667;-38.5666667;6;
2;AUS;Victoria;Yarraville;;144.9;-37.8166667;6;
2;AUS;Victoria;Yarrawalla South;;144.0333333;-36.1833333;6;
2;AUS;Victoria;Yarrawalla;;144.0333333;-36.0666667;6;
2;AUS;Victoria;Yarrawonga;;146;-36.0166667;6;
2;AUS;Victoria;Yarrock;;141.2;-36.3;6;
2;AUS;Victoria;Yarrowee;;143.85;-37.6666667;6;
2;AUS;Victoria;Yarroweyah;;145.55;-35.9333333;6;
2;AUS;Victoria;Yarto;;142.2666667;-35.5;6;
2;AUS;Victoria;Yatchaw;;142.1;-37.8166667;6;
2;AUS;Victoria;Yatpool;;142.1833333;-34.3666667;6;
2;AUS;Victoria;Yaugher;;143.7166667;-38.5166667;6;
2;AUS;Victoria;Yea;;145.4333333;-37.2166667;6;
2;AUS;Victoria;Yearinga;;141.1666667;-36.3166667;6;
2;AUS;Victoria;Yeerip;;146.0833333;-36.25;6;
2;AUS;Victoria;Yellangip;;142.2833333;-36.1333333;6;
2;AUS;Victoria;Yellourn;;146.3333333;-38.1833333;6;
2;AUS;Victoria;Yendon;;143.9666667;-37.6333333;6;
2;AUS;Victoria;Yeo;;143.7;-38.4166667;6;
2;AUS;Victoria;Yeodene;;143.7;-38.4166667;6;
2;AUS;Victoria;Yering;;145.3666667;-37.7;6;
2;AUS;Victoria;Yeringberg;;145.45;-37.6833333;6;
2;AUS;Victoria;Yeungroon East;;143.4333333;-36.35;6;
2;AUS;Victoria;Yeungroon;;143.4;-36.3833333;6;
2;AUS;Victoria;Yielima;;145.2166667;-35.9333333;6;
2;AUS;Victoria;Yinnar South;;146.3833333;-38.3833333;6;
2;AUS;Victoria;Yinnar;;146.3166667;-38.3166667;6;
2;AUS;Victoria;Youanmite;;145.6833333;-36.1666667;6;
2;AUS;Victoria;Youarang;;145.8;-36.1666667;6;
2;AUS;Victoria;Yulecart;;141.9333333;-37.75;6;
2;AUS;Victoria;Yundool;;145.8333333;-36.2666667;6;
2;AUS;Victoria;Yungera;;143.15;-34.7666667;6;
