"Level";"Country";"State";"Place";"void";"Longitude";"Latitude";"ZoomLevel";"Icon"
1;Australia;Tasmania;;;146.4;-41.7;6;
2;Australia;Tasmania;Abbotsham;;146.1833333;-41.2166667;6;
2;Australia;Tasmania;Adamsfield;;146.3166667;-42.7333333;6;
2;Australia;Tasmania;Adventure Bay;;147.3333333;-43.3666667;6;
2;Australia;Tasmania;Alanvale;;147.1166667;-41.3875;6;
2;Australia;Tasmania;Alberton;;147.7833333;-41.2666667;6;
2;Australia;Tasmania;Alcomie;;145.1833333;-40.9166667;6;
2;Australia;Tasmania;Allen Siding;;145.6333333;-40.9666667;6;
2;Australia;Tasmania;Alonnah;;147.25;-43.3166667;6;
2;Australia;Tasmania;Andover;;147.45;-42.3333333;6;
2;Australia;Tasmania;Antill Ponds;;147.4;-42.2;6;
2;Australia;Tasmania;Apsiey;;147.1333333;-42.4333333;6;
2;Australia;Tasmania;Apsley Station;;147.1333333;-42.4333333;6;
2;Australia;Tasmania;Apsley;;147.1333333;-42.4333333;6;
2;Australia;Tasmania;Aspley;;147.1333333;-42.4333333;6;
2;Australia;Tasmania;Austins Ferry;;147.25;-42.7666667;6;
2;Australia;Tasmania;Back Creek;;147.1;-41.0333333;6;
2;Australia;Tasmania;Baden;;147.4666667;-42.4333333;6;
2;Australia;Tasmania;Bagdad;;147.2333333;-42.6333333;6;
2;Australia;Tasmania;Balfour;;144.9166667;-41.2666667;6;
2;Australia;Tasmania;Bally Park;;147.6166667;-42.8666667;6;
2;Australia;Tasmania;Bangor;;147.1333333;-41.2166667;6;
2;Australia;Tasmania;Barnes Bay;;147.3666667;-43.1166667;6;
2;Australia;Tasmania;Barrington;;146.2833333;-41.35;6;
2;Australia;Tasmania;Beaconsfield;;146.8166667;-41.2;6;
2;Australia;Tasmania;Beauty Point;;146.8166667;-41.1666667;6;
2;Australia;Tasmania;Bell Bay;;146.8666667;-41.1166667;6;
2;Australia;Tasmania;Bellerive;;147.3666667;-42.8666667;6;
2;Australia;Tasmania;Bellingham;;147.1666667;-41.0166667;6;
2;Australia;Tasmania;Berriedale;;147.25;-42.8166667;6;
2;Australia;Tasmania;Beulah;;146.3833333;-41.4333333;6;
2;Australia;Tasmania;Bicheno;;148.2886111;-41.8788889;6;
2;Australia;Tasmania;Birralee;;146.85;-41.45;6;
2;Australia;Tasmania;Bishopsbourne;;147.0166667;-41.5833333;6;
2;Australia;Tasmania;Black Hills;;147.0333333;-42.7166667;6;
2;Australia;Tasmania;Black River;;145.3166667;-40.85;6;
2;Australia;Tasmania;Blackwall;;146.9666667;-41.3111111;6;
2;Australia;Tasmania;Blackwood Creek;;146.9166667;-41.7333333;6;
2;Australia;Tasmania;Blessington Upper;;147.6;-41.4666667;6;
2;Australia;Tasmania;Blessington;;147.4833333;-41.4833333;6;
2;Australia;Tasmania;Boat Harbour;;145.6333333;-40.9666667;6;
2;Australia;Tasmania;Bothwell;;147;-42.3833333;6;
2;Australia;Tasmania;Bracknell;;146.9333333;-41.65;6;
2;Australia;Tasmania;Bradshaws Creek;;147.9333333;-41.0666667;6;
2;Australia;Tasmania;Brandy Bottom;;147.4166667;-42.5166667;6;
2;Australia;Tasmania;Branxholm;;147.7333333;-41.1666667;6;
2;Australia;Tasmania;Breadalbane;;147.2;-41.5333333;6;
2;Australia;Tasmania;Bream Creek;;147.8341667;-42.8133333;6;
2;Australia;Tasmania;Bredalbane;;147.2;-41.5333333;6;
2;Australia;Tasmania;Breona;;146.7166667;-41.7833333;6;
2;Australia;Tasmania;Bridge Water Junction;;147.2333333;-42.7333333;6;
2;Australia;Tasmania;Bridgenorth;;146.9833333;-41.3833333;6;
2;Australia;Tasmania;Bridgewater;;147.2333333;-42.7333333;6;
2;Australia;Tasmania;Bridport;;147.4;-41;6;
2;Australia;Tasmania;Broadmarsh;;147.1166667;-42.65;6;
2;Australia;Tasmania;Bronte;;146.4833333;-42.1666667;6;
2;Australia;Tasmania;Buckland;;147.7305556;-42.6161111;6;
2;Australia;Tasmania;Burnie;;145.9166667;-41.0666667;6;
2;Australia;Tasmania;Bushy Park;;146.9;-42.7;6;
2;Australia;Tasmania;Butlers Gorge;;146.2833333;-42.2833333;6;
2;Australia;Tasmania;Cambridge;;147.45;-42.8333333;6;
2;Australia;Tasmania;Camenana;;145.9666667;-41.1833333;6;
2;Australia;Tasmania;Campania;;147.4166667;-42.6666667;6;
2;Australia;Tasmania;Campbell Town;;147.5;-41.9166667;6;
2;Australia;Tasmania;Cape Barren Island;;148.0166667;-40.3833333;6;
2;Australia;Tasmania;Carlton;;147.6833333;-42.8666667;6;
2;Australia;Tasmania;Carnarvon;;147.85;-43.15;6;
2;Australia;Tasmania;Carnavon;;147.85;-43.15;6;
2;Australia;Tasmania;Carrick;;147;-41.5333333;6;
2;Australia;Tasmania;Catamaran;;146.9;-43.55;6;
2;Australia;Tasmania;Caveside;;146.4166667;-41.6166667;6;
2;Australia;Tasmania;Cethana;;146.1666667;-41.4833333;6;
2;Australia;Tasmania;Christmas Hills;;145;-40.9;6;
2;Australia;Tasmania;Chudleigh;;146.4666667;-41.5333333;6;
2;Australia;Tasmania;Claremont;;147.25;-42.7833333;6;
2;Australia;Tasmania;Claude Road;;146.2833333;-41.4333333;6;
2;Australia;Tasmania;Cleveland;;147.4;-41.8;6;
2;Australia;Tasmania;Colebrook;;147.3666667;-42.5333333;6;
2;Australia;Tasmania;Coles Bay;;148.2886111;-42.1227778;6;
2;Australia;Tasmania;Collins Cap;;147.15;-42.85;6;
2;Australia;Tasmania;Collinsvale;;147.1833333;-42.8333333;6;
2;Australia;Tasmania;Conara Junction;;147.4333333;-41.8333333;6;
2;Australia;Tasmania;Coningham;;147.2833333;-43.0833333;6;
2;Australia;Tasmania;Cooee;;145.8833333;-41.0666667;6;
2;Australia;Tasmania;Copping;;147.8;-42.8166667;6;
2;Australia;Tasmania;Corinna;;145.0833333;-41.65;6;
2;Australia;Tasmania;Cornwall;;148.1333333;-41.5666667;6;
2;Australia;Tasmania;Cradoc;;147.0666667;-43.1;6;
2;Australia;Tasmania;Cranbrook;;148.0763889;-42.0080556;6;
2;Australia;Tasmania;Cressy;;147.0666667;-41.6833333;6;
2;Australia;Tasmania;Cullenswood;;148.1333333;-41.55;6;
2;Australia;Tasmania;Cuprona;;145.9663889;-41.1441667;6;
2;Australia;Tasmania;Currie;;143.8666667;-39.9333333;6;
2;Australia;Tasmania;Cygnet;;147.0666667;-43.15;6;
2;Australia;Tasmania;Darlington;;148.0622222;-42.5863889;6;
2;Australia;Tasmania;Deddington;;147.4166667;-41.6166667;6;
2;Australia;Tasmania;Dee;;146.6166667;-42.2833333;6;
2;Australia;Tasmania;Deloraine;;146.6666667;-41.5333333;6;
2;Australia;Tasmania;Dennes Point;;147.35;-43.0666667;6;
2;Australia;Tasmania;Derby;;147.7833333;-41.1333333;6;
2;Australia;Tasmania;Derwent Bridge;;146.2333333;-42.15;6;
2;Australia;Tasmania;Derwent;;146.9;-42.7;6;
2;Australia;Tasmania;Detension River;;145.4833333;-40.9;6;
2;Australia;Tasmania;Detention River;;145.4833333;-40.9;6;
2;Australia;Tasmania;Detention;;145.4833333;-40.9;6;
2;Australia;Tasmania;Devenport;;146.35;-41.1666667;6;
2;Australia;Tasmania;Deviot;;146.9333333;-41.2333333;6;
2;Australia;Tasmania;Devonport;;146.35;-41.1666667;6;
2;Australia;Tasmania;Dilston;;147.0833333;-41.3333333;6;
2;Australia;Tasmania;Don;;146.3;-41.1833333;6;
2;Australia;Tasmania;Douglas River;;148.2502778;-41.7855556;6;
2;Australia;Tasmania;Dover;;147;-43.3333333;6;
2;Australia;Tasmania;Dromedary Upper;;147.15;-42.7166667;6;
2;Australia;Tasmania;Dromedary;;147.1666667;-42.7333333;6;
2;Australia;Tasmania;Dulverton;;146.4166667;-41.3166667;6;
2;Australia;Tasmania;Dunalley;;147.8069444;-42.8886111;6;
2;Australia;Tasmania;Dundas;;145.4333333;-41.8833333;6;
2;Australia;Tasmania;Dunorlan;;146.55;-41.4833333;6;
2;Australia;Tasmania;Dysart;;147.2;-42.5666667;6;
2;Australia;Tasmania;Eaglehawk Neck;;147.9333333;-43.0333333;6;
2;Australia;Tasmania;Edith Creek;;145.1;-40.9666667;6;
2;Australia;Tasmania;Egg Lagoon;;143.9666667;-39.6666667;6;
2;Australia;Tasmania;Elderslie;;147.0666667;-42.6;6;
2;Australia;Tasmania;Eldon;;147.4166667;-42.5166667;6;
2;Australia;Tasmania;Electrona;;147.2333333;-43.05;6;
2;Australia;Tasmania;Elizabeth Town;;146.5666667;-41.45;6;
2;Australia;Tasmania;Ellendale;;146.7166667;-42.6166667;6;
2;Australia;Tasmania;Elliott;;145.7833333;-41.1166667;6;
2;Australia;Tasmania;Emita;;147.9;-40;6;
2;Australia;Tasmania;English Town;;147.5333333;-41.5333333;6;
2;Australia;Tasmania;Epping Forest;;147.3666667;-41.7666667;6;
2;Australia;Tasmania;Epping;;147.3666667;-41.7666667;6;
2;Australia;Tasmania;Evandale Junction;;147.2166667;-41.55;6;
2;Australia;Tasmania;Evandale;;147.2333333;-41.5833333;6;
2;Australia;Tasmania;Exton;;146.75;-41.5166667;6;
2;Australia;Tasmania;Falmouth;;148.2633333;-41.5061111;6;
2;Australia;Tasmania;Fentonbury;;146.7666667;-42.65;6;
2;Australia;Tasmania;Ferntree;;147.25;-42.9166667;6;
2;Australia;Tasmania;Fingal;;147.9666667;-41.6333333;6;
2;Australia;Tasmania;Fitzgerald;;146.6333333;-42.75;6;
2;Australia;Tasmania;Flowerdale;;145.6833333;-40.9833333;6;
2;Australia;Tasmania;Flowery Gully;;146.8166667;-41.25;6;
2;Australia;Tasmania;Forcett;;147.6333333;-42.8;6;
2;Australia;Tasmania;Forest;;145.25;-40.85;6;
2;Australia;Tasmania;Forester;;147.6666667;-41.0833333;6;
2;Australia;Tasmania;Forth;;146.25;-41.2;6;
2;Australia;Tasmania;Frankford;;146.7666667;-41.3333333;6;
2;Australia;Tasmania;Franklin Village;;147.1833333;-41.4833333;6;
2;Australia;Tasmania;Franklin;;147;-43.0833333;6;
2;Australia;Tasmania;Garden Island Creek;;147.1666667;-43.25;6;
2;Australia;Tasmania;Gardners Bay;;147.1833333;-43.1833333;6;
2;Australia;Tasmania;Gawler;;146.1666667;-41.1833333;6;
2;Australia;Tasmania;Geeveston;;146.9166667;-43.15;6;
2;Australia;Tasmania;George Town;;146.8333333;-41.1;6;
2;Australia;Tasmania;Georgetown;;146.8333333;-41.1;6;
2;Australia;Tasmania;Gladstone;;148.0166667;-40.9666667;6;
2;Australia;Tasmania;Glance Creek;;145.9166667;-41.1333333;6;
2;Australia;Tasmania;Glaziers Bay;;147.05;-43.1333333;6;
2;Australia;Tasmania;Glen Huon;;146.9666667;-43.0333333;6;
2;Australia;Tasmania;Glenara;;146.8666667;-42.6833333;6;
2;Australia;Tasmania;Glendevie;;147.0333333;-43.2333333;6;
2;Australia;Tasmania;Glenfern;;147;-42.8166667;6;
2;Australia;Tasmania;Glengarry;;146.8833333;-41.35;6;
2;Australia;Tasmania;Glenlusk;;147.2;-42.8166667;6;
2;Australia;Tasmania;Glenora;;146.8666667;-42.6833333;6;
2;Australia;Tasmania;Glenorchy;;147.2833333;-42.8333333;6;
2;Australia;Tasmania;Golconda;;147.3;-41.1666667;6;
2;Australia;Tasmania;Golden Valley;;146.7166667;-41.6333333;6;
2;Australia;Tasmania;Goodwood;;147.2944444;-42.825;6;
2;Australia;Tasmania;Gordon;;147.2333333;-43.2666667;6;
2;Australia;Tasmania;Gormanston;;145.6;-42.0666667;6;
2;Australia;Tasmania;Goshen;;148.0833333;-41.25;6;
2;Australia;Tasmania;Goulds Country;;148.05;-41.2333333;6;
2;Australia;Tasmania;Gowrie Park;;146.2;-41.4666667;6;
2;Australia;Tasmania;Grantow;;147.2333333;-42.75;6;
2;Australia;Tasmania;Grassy;;144.05;-40.05;6;
2;Australia;Tasmania;Gravelly Beach;;146.9833333;-41.3;6;
2;Australia;Tasmania;Gray;;148.2166667;-41.6247222;6;
2;Australia;Tasmania;Greens Beach;;146.75;-41.0833333;6;
2;Australia;Tasmania;Gretna;;146.9333333;-42.6833333;6;
2;Australia;Tasmania;Grove;;147.1;-42.9833333;6;
2;Australia;Tasmania;Guildford Junction;;145.7;-41.4166667;6;
2;Australia;Tasmania;Guilford;;145.7;-41.4166667;6;
2;Australia;Tasmania;Gunns Plains;;146.05;-41.2833333;6;
2;Australia;Tasmania;Hadspen;;147.0833333;-41.5;6;
2;Australia;Tasmania;Hagley;;146.9166667;-41.5333333;6;
2;Australia;Tasmania;Hamilton on Forth;;146.25;-41.2;6;
2;Australia;Tasmania;Hamilton;;146.8333333;-42.55;6;
2;Australia;Tasmania;Hampshire;;145.7833333;-41.2666667;6;
2;Australia;Tasmania;Harford;;146.55;-41.2333333;6;
2;Australia;Tasmania;Heka;;146;-41.3;6;
2;Australia;Tasmania;Henrietta;;145.7;-41.1666667;6;
2;Australia;Tasmania;Hermitage;;146.8833333;-42.25;6;
2;Australia;Tasmania;Herrick;;147.8833333;-41.0833333;6;
2;Australia;Tasmania;Highclere;;145.8;-41.2;6;
2;Australia;Tasmania;Highcroft;;147.8;-43.1333333;6;
2;Australia;Tasmania;Hillwood;;147;-41.2333333;6;
2;Australia;Tasmania;Hobart;;147.33;-42.92;6;
2;Australia;Tasmania;Hollow Tree;;146.9333333;-42.5333333;6;
2;Australia;Tasmania;Holwell;;146.7833333;-41.3;6;
2;Australia;Tasmania;Howth;;146.0166667;-41.1;6;
2;Australia;Tasmania;Huonville;;147.0333333;-43.0333333;6;
2;Australia;Tasmania;Hythe;;146.9833333;-43.4166667;6;
2;Australia;Tasmania;Ilfraville;;146.8166667;-41.15;6;
2;Australia;Tasmania;Illawarra;;147.0833333;-41.55;6;
2;Australia;Tasmania;Interlaken;;147.1833333;-42.15;6;
2;Australia;Tasmania;Irish Town;;145.1333333;-40.9;6;
2;Australia;Tasmania;Jackeys Marsh;;146.65;-41.6666667;6;
2;Australia;Tasmania;Jericho;;147.2833333;-42.3833333;6;
2;Australia;Tasmania;Jetsonville;;147.4666667;-41.1166667;6;
2;Australia;Tasmania;Judbury;;146.9166667;-43;6;
2;Australia;Tasmania;Junee;;146.65;-42.75;6;
2;Australia;Tasmania;Kallista;;146.5833333;-42.7666667;6;
2;Australia;Tasmania;Kamona;;147.6333333;-41.1666667;6;
2;Australia;Tasmania;Kaoota;;147.1833333;-43.0166667;6;
2;Australia;Tasmania;Karoola;;147.15;-41.25;6;
2;Australia;Tasmania;Kayena;;146.8983333;-41.1972222;6;
2;Australia;Tasmania;Kellatier;;145.6333333;-41.0833333;6;
2;Australia;Tasmania;Kellevie;;147.8;-42.7666667;6;
2;Australia;Tasmania;Kelso;;146.8;-41.1166667;6;
2;Australia;Tasmania;Kempton;;147.2;-42.5166667;6;
2;Australia;Tasmania;Kettering;;147.2666667;-43.1166667;6;
2;Australia;Tasmania;Kimberley;;146.5166667;-41.4;6;
2;Australia;Tasmania;Kindred;;146.2333333;-41.25;6;
2;Australia;Tasmania;Kingston Beach;;147.3166667;-42.9833333;6;
2;Australia;Tasmania;Kingston;;147.3166667;-42.9666667;6;
2;Australia;Tasmania;Koomeela;;147.4666667;-41.1833333;6;
2;Australia;Tasmania;Koonya;;147.85;-43.05;6;
2;Australia;Tasmania;Lachlan;;147.05;-42.8333333;6;
2;Australia;Tasmania;Lady Barron;;148.2333333;-40.2;6;
2;Australia;Tasmania;Lagoons;;148.2791667;-41.6719444;6;
2;Australia;Tasmania;Lalla;;147.1833333;-41.25;6;
2;Australia;Tasmania;Lapoinya;;145.5666667;-41.0333333;6;
2;Australia;Tasmania;Latrobe;;146.4166667;-41.2333333;6;
2;Australia;Tasmania;Lauderdale;;147.4833333;-42.9;6;
2;Australia;Tasmania;Launceston;;147.1666667;-41.45;6;
2;Australia;Tasmania;Launcestown;;147.1666667;-41.45;6;
2;Australia;Tasmania;Lebrina;;147.2166667;-41.1666667;6;
2;Australia;Tasmania;Lefroy;;146.9833333;-41.1;6;
2;Australia;Tasmania;Legana;;147.05;-41.3666667;6;
2;Australia;Tasmania;Legerwood;;147.7;-41.2;6;
2;Australia;Tasmania;Legunia;;147.8;-41.25;6;
2;Australia;Tasmania;Leith;;146.2666667;-41.1666667;6;
2;Australia;Tasmania;Lemana Junction;;146.6166667;-41.5166667;6;
2;Australia;Tasmania;Lemont;;147.6166667;-42.3;6;
2;Australia;Tasmania;Levendale;;147.5666667;-42.5333333;6;
2;Australia;Tasmania;Lewis Hill;;147.9833333;-41.8166667;6;
2;Australia;Tasmania;Lewisham;;147.6166667;-42.8333333;6;
2;Australia;Tasmania;Liena;;146.25;-41.5666667;6;
2;Australia;Tasmania;Lientinna;;147.4666667;-41.15;6;
2;Australia;Tasmania;Lietinna;;147.4666667;-41.15;6;
2;Australia;Tasmania;Liffey;;146.9;-41.6666667;6;
2;Australia;Tasmania;Lileah;;145.1666667;-40.95;6;
2;Australia;Tasmania;Lilydale North;;147.2166667;-41.2166667;6;
2;Australia;Tasmania;Lilydale;;147.2166667;-41.25;6;
2;Australia;Tasmania;Linda;;145.6;-42.0666667;6;
2;Australia;Tasmania;Lindisfarne;;147.35;-42.8333333;6;
2;Australia;Tasmania;Lisdillon;;148;-42.2666667;6;
2;Australia;Tasmania;Lisle;;147.3166667;-41.2166667;6;
2;Australia;Tasmania;Little Swanport;;147.9577778;-42.3225;6;
2;Australia;Tasmania;Loccota;;148.05;-40.2333333;6;
2;Australia;Tasmania;Loch Lea;;147.0305556;-41.3416667;6;
2;Australia;Tasmania;Loira;;146.9166667;-41.2666667;6;
2;Australia;Tasmania;Longford;;147.1166667;-41.6;6;
2;Australia;Tasmania;Longley Lower;;147.1333333;-42.9833333;6;
2;Australia;Tasmania;Longley;;147.2;-42.9666667;6;
2;Australia;Tasmania;Loorana;;143.9;-39.85;6;
2;Australia;Tasmania;Lorinna;;146.1333333;-41.55;6;
2;Australia;Tasmania;Lottah;;148.0166667;-41.2;6;
2;Australia;Tasmania;Low Head;;146.8;-41.0666667;6;
2;Australia;Tasmania;Lowdina;;147.4333333;-42.6333333;6;
2;Australia;Tasmania;Lower Barrington;;146.2833333;-41.3;6;
2;Australia;Tasmania;Lower Longley;;147.1333333;-42.9833333;6;
2;Australia;Tasmania;Lower Mount Hicks;;145.75;-41.0666667;6;
2;Australia;Tasmania;Loyetea;;145.9666667;-41.3;6;
2;Australia;Tasmania;Lucaston;;147.05;-42.9833333;6;
2;Australia;Tasmania;Lughrata;;147.9166667;-39.9333333;6;
2;Australia;Tasmania;Lulworth;;147.0666667;-41;6;
2;Australia;Tasmania;Lune River;;146.9;-43.4166667;6;
2;Australia;Tasmania;Lutana;;147.3111111;-42.8361111;6;
2;Australia;Tasmania;Lymington;;147.1;-43.2;6;
2;Australia;Tasmania;Macquarie Plains;;146.9166667;-42.7166667;6;
2;Australia;Tasmania;Magra;;147.0666667;-42.75;6;
2;Australia;Tasmania;Maiden Early;;147.3;-42.6833333;6;
2;Australia;Tasmania;Malbina;;147.1333333;-42.8;6;
2;Australia;Tasmania;Mangalore;;147.2333333;-42.65;6;
2;Australia;Tasmania;Mangana;;147.8833333;-41.6;6;
2;Australia;Tasmania;Margate;;147.2666667;-43.0333333;6;
2;Australia;Tasmania;Marrawah;;144.7;-40.9333333;6;
2;Australia;Tasmania;Mathinna;;147.8833333;-41.4833333;6;
2;Australia;Tasmania;Mauriceton;;147.1166667;-42.5333333;6;
2;Australia;Tasmania;Mawbanna;;145.3666667;-40.95;6;
2;Australia;Tasmania;Mayberry;;146.3166667;-41.5666667;6;
2;Australia;Tasmania;Mayfield;;147.1333333;-41.3872222;6;
2;Australia;Tasmania;Meander;;146.6166667;-41.65;6;
2;Australia;Tasmania;Mella;;145.0666667;-40.85;6;
2;Australia;Tasmania;Melrose;;146.3;-41.2333333;6;
2;Australia;Tasmania;Melton Mowbray;;147.1833333;-42.4666667;6;
2;Australia;Tasmania;Mengha;;145.2333333;-40.9;6;
2;Australia;Tasmania;Merriworth;;147.3333333;-42.6666667;6;
2;Australia;Tasmania;MiddlePoint;;146.8833333;-41.1516667;6;
2;Australia;Tasmania;Middleton;;147.2833333;-43.2333333;6;
2;Australia;Tasmania;Miena;;146.7333333;-41.9833333;6;
2;Australia;Tasmania;Moina;;146.1166667;-41.45;6;
2;Australia;Tasmania;Mole Creek;;146.4;-41.55;6;
2;Australia;Tasmania;Moltema;;146.5333333;-41.45;6;
2;Australia;Tasmania;Mona Vale;;147.5;-42.0833333;6;
2;Australia;Tasmania;Montagu;;144.9666667;-40.7666667;6;
2;Australia;Tasmania;Montana;;146.6;-41.5833333;6;
2;Australia;Tasmania;Montumana;;145.5166667;-40.9666667;6;
2;Australia;Tasmania;Moogara;;146.9166667;-42.7833333;6;
2;Australia;Tasmania;Moonah;;147.3;-42.85;6;
2;Australia;Tasmania;Mooreville Road;;145.8666667;-41.1166667;6;
2;Australia;Tasmania;Moorina;;147.8666667;-41.1166667;6;
2;Australia;Tasmania;Moorleah;;145.6333333;-40.9833333;6;
2;Australia;Tasmania;Moriarty Road;;146.4833333;-41.2166667;6;
2;Australia;Tasmania;Moriarty;;146.4833333;-41.2166667;6;
2;Australia;Tasmania;Mount Direction;;147.0333333;-41.2333333;6;
2;Australia;Tasmania;Mount Lloyd;;146.95;-42.8166667;6;
2;Australia;Tasmania;Mount Nicholas;;148.0833333;-41.5666667;6;
2;Australia;Tasmania;Mount Seymour;;147.45;-42.4;6;
2;Australia;Tasmania;Murdunna;;147.8666667;-42.95;6;
2;Australia;Tasmania;Myalla;;145.5666667;-40.9833333;6;
2;Australia;Tasmania;Myrtle Bank;;147.35;-41.2666667;6;
2;Australia;Tasmania;Nabageena;;145.1166667;-40.9833333;6;
2;Australia;Tasmania;Nabowla;;147.3666667;-41.1666667;6;
2;Australia;Tasmania;Nala;;147.45;-42.3;6;
2;Australia;Tasmania;Naracoopa;;144.1;-39.9166667;6;
2;Australia;Tasmania;National Park;;146.7333333;-42.6833333;6;
2;Australia;Tasmania;Natone;;145.9333333;-41.1666667;6;
2;Australia;Tasmania;Needles;;146.5666667;-41.55;6;
2;Australia;Tasmania;Neika;;147.2333333;-42.95;6;
2;Australia;Tasmania;New Norfolk;;147.0666667;-42.7833333;6;
2;Australia;Tasmania;New Town;;147.3083333;-42.86;6;
2;Australia;Tasmania;Newnham;;147.1333333;-41.3833333;6;
2;Australia;Tasmania;Newstead;;147.1666667;-41.4333333;6;
2;Australia;Tasmania;Nicholls Rivulet;;147.1833333;-43.15;6;
2;Australia;Tasmania;Nietta;;146.0666667;-41.35;6;
2;Australia;Tasmania;Nile;;147.3333333;-41.6333333;6;
2;Australia;Tasmania;Nook;;146.3333333;-41.3166667;6;
2;Australia;Tasmania;North Bridgewater;;147.2333333;-42.7333333;6;
2;Australia;Tasmania;North Motton;;146.1166667;-41.2166667;6;
2;Australia;Tasmania;Northdown;;146.5;-41.1833333;6;
2;Australia;Tasmania;Nubeena;;147.75;-43.1;6;
2;Australia;Tasmania;Nugent;;147.75;-42.7;6;
2;Australia;Tasmania;Nunamara;;147.3;-41.3833333;6;
2;Australia;Tasmania;Oaks;;146.9666667;-41.5833333;6;
2;Australia;Tasmania;Oakwood;;147.9;-43.1;6;
2;Australia;Tasmania;Oatlands;;147.3666667;-42.3;6;
2;Australia;Tasmania;Old Beach;;147.2833333;-42.75;6;
2;Australia;Tasmania;Oldin;;145.6833333;-41.1;6;
2;Australia;Tasmania;Oldina;;145.6833333;-41.0833333;6;
2;Australia;Tasmania;Oonah;;145.6166667;-41.25;6;
2;Australia;Tasmania;Opossum Bay;;147.4;-43;6;
2;Australia;Tasmania;Orford;;147.8594444;-42.5677778;6;
2;Australia;Tasmania;Orielton;;147.5333333;-42.7333333;6;
2;Australia;Tasmania;Ormley;;147.8333333;-41.7166667;6;
2;Australia;Tasmania;Osterley;;146.75;-42.35;6;
2;Australia;Tasmania;Osterly;;146.75;-42.35;6;
2;Australia;Tasmania;Ouse;;146.7166667;-42.4666667;6;
2;Australia;Tasmania;Palana;;147.8833333;-39.7666667;6;
2;Australia;Tasmania;Paloona;;146.2666667;-41.2666667;6;
2;Australia;Tasmania;Paper Beach;;146.9583333;-41.2583333;6;
2;Australia;Tasmania;Paradise;;145.3333333;-41.4333333;6;
2;Australia;Tasmania;Parattah;;147.4;-42.35;6;
2;Australia;Tasmania;Parkham;;146.6;-41.4;6;
2;Australia;Tasmania;Parrawe;;145.6;-41.3166667;6;
2;Australia;Tasmania;Patersonia;;147.1666667;-41.45;6;
2;Australia;Tasmania;Pawleena;;147.6;-42.7333333;6;
2;Australia;Tasmania;Pawtella;;147.5;-42.2833333;6;
2;Australia;Tasmania;Pelham;;147;-42.5833333;6;
2;Australia;Tasmania;Pelverata;;147.1333333;-47.05;6;
2;Australia;Tasmania;Penguin;;146.0666667;-41.1166667;6;
2;Australia;Tasmania;Penna;;147.5333333;-42.7666667;6;
2;Australia;Tasmania;Perth;;147.1666667;-41.5666667;6;
2;Australia;Tasmania;Pillinger;;145.5666667;-42.35;6;
2;Australia;Tasmania;Pine Road West;;146;-41.15;6;
2;Australia;Tasmania;Pipers Brook;;147.1666667;-41.0833333;6;
2;Australia;Tasmania;Pipers River;;147.0833333;-41.1;6;
2;Australia;Tasmania;Plenty;;146.9666667;-42.7333333;6;
2;Australia;Tasmania;Pontville;;147.25;-42.6666667;6;
2;Australia;Tasmania;Port Arthur;;147.85;-43.15;6;
2;Australia;Tasmania;Port Huon;;149.9833333;-43.15;6;
2;Australia;Tasmania;Port Iatta;;145.3333333;-40.8333333;6;
2;Australia;Tasmania;Port Latta;;145.3333333;-40.8333333;6;
2;Australia;Tasmania;Port Sorell;;146.55;-41.1666667;6;
2;Australia;Tasmania;Powranna;;147.2833333;-41.6666667;6;
2;Australia;Tasmania;Premaydena;;147.7666667;-43.05;6;
2;Australia;Tasmania;Preolenna;;145.5666667;-41.1;6;
2;Australia;Tasmania;Priory;;148.2075;-41.2736111;6;
2;Australia;Tasmania;Pyengana West;;147.9333333;-41.3;6;
2;Australia;Tasmania;Pyengana;;148;-41.2833333;6;
2;Australia;Tasmania;Quamby Brook;;146.7166667;-41.5833333;6;
2;Australia;Tasmania;Queenstown;;145.55;-42.0833333;6;
2;Australia;Tasmania;Radnor;;147.8333333;-43.1333333;6;
2;Australia;Tasmania;Railton;;146.4333333;-41.35;6;
2;Australia;Tasmania;Ranelagh;;147.0333333;-43;6;
2;Australia;Tasmania;Red Hill;;146.6166667;-41.5333333;6;
2;Australia;Tasmania;Redpa;;144.75;-40.9166667;6;
2;Australia;Tasmania;Remine;;145.1666667;-41.9333333;6;
2;Australia;Tasmania;Renison Bell;;145.4166667;-41.8;6;
2;Australia;Tasmania;Retreat;;147.1666667;-41.15;6;
2;Australia;Tasmania;Rheban;;147.9236111;-42.6277778;6;
2;Australia;Tasmania;Rhyndaston;;147.3833333;-42.4666667;6;
2;Australia;Tasmania;Riana;;146;-41.2;6;
2;Australia;Tasmania;Richmond;;147.4361111;-42.7363889;6;
2;Australia;Tasmania;Ridgeley;;145.8333333;-41.15;6;
2;Australia;Tasmania;Ridgeway;;147.2833333;-42.9333333;6;
2;Australia;Tasmania;Ridgley;;145.8333333;-41.15;6;
2;Australia;Tasmania;Ringarooma;;147.7333333;-41.2333333;6;
2;Australia;Tasmania;Risdon;;147.3333333;-42.8;6;
2;Australia;Tasmania;Robigana;;146.95;-41.2666667;6;
2;Australia;Tasmania;Rocky Cape;;145.4833333;-40.9166667;6;
2;Australia;Tasmania;Roger River West;;145.0166667;-41.0333333;6;
2;Australia;Tasmania;Roger River;;145.0666667;-41;6;
2;Australia;Tasmania;Rokeby;;147.4333333;-42.9;6;
2;Australia;Tasmania;Roland;;146.2333333;-41.4;6;
2;Australia;Tasmania;Rosebery;;145.5166667;-41.7833333;6;
2;Australia;Tasmania;Rosevale;;146.9333333;-41.4166667;6;
2;Australia;Tasmania;Rosevears;;147.0166667;-41.3166667;6;
2;Australia;Tasmania;Ross;;147.5;-42.0333333;6;
2;Australia;Tasmania;Rossarden;;147.75;-41.6666667;6;
2;Australia;Tasmania;Rowella;;146.9;-41.2;6;
2;Australia;Tasmania;Runnymede;;147.5666667;-42.6333333;6;
2;Australia;Tasmania;Saint Helens;;148.2388889;-41.3202778;6;
2;Australia;Tasmania;Saint Leonards;;147.2;-41.4666667;6;
2;Australia;Tasmania;Saint Marys;;148.1733333;-41.5791667;6;
2;Australia;Tasmania;Saint Patricks River;;147.3333333;-41.35;6;
2;Australia;Tasmania;Salmon Ponds;;146.9666667;-42.75;6;
2;Australia;Tasmania;Saltwater River;;147.75;-43.0166667;6;
2;Australia;Tasmania;Sandfly;;147.1833333;-42.9833333;6;
2;Australia;Tasmania;Sandford;;147.5;-42.9333333;6;
2;Australia;Tasmania;Sandy Bay;;147.3394444;-42.9116667;6;
2;Australia;Tasmania;Sassafras East;;146.55;-41.2833333;6;
2;Australia;Tasmania;Sassafras;;146.5;-41.2833333;6;
2;Australia;Tasmania;Scamander;;148.2572222;-41.465;6;
2;Australia;Tasmania;Scottsdale;;147.5166667;-41.15;6;
2;Australia;Tasmania;Sea Elephant;;144.1;-39.8166667;6;
2;Australia;Tasmania;Selbourne;;146.8833333;-41.45;6;
2;Australia;Tasmania;Seymour;;148.2694444;-41.7436111;6;
2;Australia;Tasmania;Sheffield;;146.3333333;-41.3833333;6;
2;Australia;Tasmania;Sidmouth;;146.9;-41.2166667;6;
2;Australia;Tasmania;Simpsons Bay;;147.3166667;-43.2666667;6;
2;Australia;Tasmania;Sisters Beach;;145.5527778;-40.915;6;
2;Australia;Tasmania;Sisters Creek;;145.5833333;-40.9833333;6;
2;Australia;Tasmania;Smithton;;145.1166667;-40.8333333;6;
2;Australia;Tasmania;Snug;;147.2666667;-43.0666667;6;
2;Australia;Tasmania;Somerset;;145.8333333;-41.05;6;
2;Australia;Tasmania;Sorell;;147.5602778;-42.7844444;6;
2;Australia;Tasmania;South Arm;;147.4166667;-43.0333333;6;
2;Australia;Tasmania;South Mount Cameron;;147.95;-41.0166667;6;
2;Australia;Tasmania;South Riana;;145.9833333;-41.25;6;
2;Australia;Tasmania;South Springfield;;147.5166667;-41.2333333;6;
2;Australia;Tasmania;Sprent;;146.1666667;-41.2666667;6;
2;Australia;Tasmania;Spreyton;;146.35;-41.2166667;6;
2;Australia;Tasmania;Springfield;;147.4833333;-41.2;6;
2;Australia;Tasmania;Stanley;;145.3;-40.7666667;6;
2;Australia;Tasmania;Steppes;;146.9;-42.1;6;
2;Australia;Tasmania;Stonehenge;;147.6333333;-42.4;6;
2;Australia;Tasmania;Stonor;;147.3833333;-42.4;6;
2;Australia;Tasmania;Stoodley;;146.4166667;-41.3833333;6;
2;Australia;Tasmania;Storeys Creek;;147.7333333;-41.6333333;6;
2;Australia;Tasmania;Stowport;;145.9333333;-41.1166667;6;
2;Australia;Tasmania;Strahan;;145.3333333;-42.15;6;
2;Australia;Tasmania;Strathblane;;147.0166667;-43.3333333;6;
2;Australia;Tasmania;Strickland;;146.6666667;-42.3666667;6;
2;Australia;Tasmania;Sulphur Creek;;146.05;-41.1;6;
2;Australia;Tasmania;Surges Bay;;147.0333333;-43.2166667;6;
2;Australia;Tasmania;Swansea;;148.0697222;-42.1308333;6;
2;Australia;Tasmania;Takone;;145.6333333;-41.1833333;6;
2;Australia;Tasmania;Tanina;;147.0333333;-42.6333333;6;
2;Australia;Tasmania;Taranna;;147.9;-43.05;6;
2;Australia;Tasmania;Targa;;147.3666667;-41.3166667;6;
2;Australia;Tasmania;Taroona;;147.3333333;-42.95;6;
2;Australia;Tasmania;Tarraleah;;146.4;-42.3;6;
2;Australia;Tasmania;Tatana;;146.95;-41.3;6;
2;Australia;Tasmania;Tayene;;147.4333333;-41.3333333;6;
2;Australia;Tasmania;Tea Tree;;147.3166667;-42.6833333;6;
2;Australia;Tasmania;Telita;;147.75;-41.1166667;6;
2;Australia;Tasmania;Temma;;144.7;-41.2333333;6;
2;Australia;Tasmania;Tewkesbury;;145.7333333;-41.2333333;6;
2;Australia;Tasmania;The Glen;;147.0666667;-41.1666667;6;
2;Australia;Tasmania;Thirlstane;;146.5166667;-41.2166667;6;
2;Australia;Tasmania;Tinderbox;;147.3166667;-43.05;6;
2;Australia;Tasmania;Tonganah;;147.5833333;-41.1833333;6;
2;Australia;Tasmania;Trenah;;147.7;-41.3;6;
2;Australia;Tasmania;Triabunna;;147.9102778;-42.5069444;6;
2;Australia;Tasmania;Trowutta;;145.0666667;-41.0166667;6;
2;Australia;Tasmania;Tullah;;145.6;-41.7333333;6;
2;Australia;Tasmania;Tunbridge;;147.4333333;-42.1333333;6;
2;Australia;Tasmania;Tunnack;;147.45;-42.45;6;
2;Australia;Tasmania;Turners Marsh;;147.1333333;-41.2666667;6;
2;Australia;Tasmania;Tyenna;;146.6666667;-42.7333333;6;
2;Australia;Tasmania;Ulverstone;;146.1666667;-41.15;6;
2;Australia;Tasmania;Underwood;;147.2;-41.3;6;
2;Australia;Tasmania;Upper Blessington;;147.6;-41.4666667;6;
2;Australia;Tasmania;Upper Castra;;146.1333333;-41.3333333;6;
2;Australia;Tasmania;Upper Dromedary;;147.15;-42.7166667;6;
2;Australia;Tasmania;Upper Natone;;145.9;-41.25;6;
2;Australia;Tasmania;Uxbridge;;146.8833333;-42.7666667;6;
2;Australia;Tasmania;Victoria Valley;;146.7333333;-42.3166667;6;
2;Australia;Tasmania;Waddamana;;146.75;-42.1333333;6;
2;Australia;Tasmania;Waratah;;145.5333333;-41.45;6;
2;Australia;Tasmania;Warrane;;147.3833333;-42.8666667;6;
2;Australia;Tasmania;Wattle Grove;;147.0333333;-43.1666667;6;
2;Australia;Tasmania;Wattle Hill;;147.65;-42.7666667;6;
2;Australia;Tasmania;Weegena;;146.5;-41.4666667;6;
2;Australia;Tasmania;Weetah;;146.7166667;-41.4666667;6;
2;Australia;Tasmania;Weldborough;;147.9;-41.1833333;6;
2;Australia;Tasmania;Wesley Vale;;146.45;-41.1833333;6;
2;Australia;Tasmania;West Kentish;;146.2666667;-41.4;6;
2;Australia;Tasmania;West Ridgeley;;145.7833333;-41.1666667;6;
2;Australia;Tasmania;West Strahan;;145.3333333;-42.15;6;
2;Australia;Tasmania;Westbury;;146.85;-41.5166667;6;
2;Australia;Tasmania;Western Junction;;147.2166667;-41.55;6;
2;Australia;Tasmania;Westerway;;146.7833333;-42.6833333;6;
2;Australia;Tasmania;Westey Vale;;146.45;-41.1833333;6;
2;Australia;Tasmania;Weymouth;;147.15;-41.0166667;6;
2;Australia;Tasmania;White Hills;;147.25;-41.5;6;
2;Australia;Tasmania;Whitefoord;;147.5166667;-42.4333333;6;
2;Australia;Tasmania;Whitemark;;148.0166667;-40.1166667;6;
2;Australia;Tasmania;Whitemore;;146.9333333;-41.5833333;6;
2;Australia;Tasmania;Williamsford;;145.65;-41.8333333;6;
2;Australia;Tasmania;Wilmot Lower;;146.2;-41.3333333;6;
2;Australia;Tasmania;Wilmot;;146.1666667;-41.3833333;6;
2;Australia;Tasmania;Wiltshire Junction;;145.2666667;-40.8333333;6;
2;Australia;Tasmania;Windermere;;147.0027778;-41.3166667;6;
2;Australia;Tasmania;Winkleigh;;146.85;-41.3;6;
2;Australia;Tasmania;Winnaleah;;147.8166667;-41.0833333;6;
2;Australia;Tasmania;Wivenhoe;;145.9333333;-41.0833333;6;
2;Australia;Tasmania;Woodbridge;;147.2333333;-43.1666667;6;
2;Australia;Tasmania;Woodbury;;147.4;-42.1666667;6;
2;Australia;Tasmania;Woodsdale;;147.5666667;-42.4666667;6;
2;Australia;Tasmania;Woodstock;;147.0666667;-43.0666667;6;
2;Australia;Tasmania;Wybra Hall;;147.25;-42.6666667;6;
2;Australia;Tasmania;Wyena;;147.2666667;-41.1666667;6;
2;Australia;Tasmania;Wynyard;;145.7166667;-41;6;
2;Australia;Tasmania;Yambacoona;;143.9333333;-39.7;6;
2;Australia;Tasmania;Yarlington;;147.3333333;-42.55;6;
2;Australia;Tasmania;Yolla;;145.7166667;-41.1333333;6;
2;Australia;Tasmania;York Plains;;147.4333333;-42.2666667;6;
2;Australia;Tasmania;Zeehan;;145.3333333;-41.8833333;6;
