"Level";"Country";"State";"Place";"void";"Longitude";"Latitude";"ZoomLevel";"Icon"
1;Australia;South Australia;;;135;-29.7;6;
2;Australia;South Australia;Adelaide;;138.61;-34.93;6;
2;Australia;South Australia;Agery;;137.7333333;-34.1666667;6;
2;Australia;South Australia;Alawoona;;140.5166667;-34.7333333;6;
2;Australia;South Australia;Aldgate;;138.7333333;-35.0166667;6;
2;Australia;South Australia;Aldinga;;138.4833333;-35.2833333;6;
2;Australia;South Australia;Alford;;137.8166667;-33.8166667;6;
2;Australia;South Australia;Allandale North;;138.9166667;-34.3;6;
2;Australia;South Australia;Allendale East;;140.7;-38.0166667;6;
2;Australia;South Australia;Allendale North;;138.9166667;-34.3;6;
2;Australia;South Australia;Alma;;138.6333333;-34.2666667;6;
2;Australia;South Australia;Altona;;138.9166667;-34.6;6;
2;Australia;South Australia;Amata;;131.15;-26.1666667;6;
2;Australia;South Australia;American River;;137.7666667;-35.7833333;6;
2;Australia;South Australia;Amyton;;138.3333333;-32.6;6;
2;Australia;South Australia;Androssan;;137.9;-34.4333333;6;
2;Australia;South Australia;Angas Plains;;139;-35.35;6;
2;Australia;South Australia;Angas Valley;;139.3;-34.7666667;6;
2;Australia;South Australia;Angaston;;139.0333333;-34.5;6;
2;Australia;South Australia;Angle Vale;;138.65;-34.6333333;6;
2;Australia;South Australia;Annadale;;139.3333333;-34.4;6;
2;Australia;South Australia;Apoinga;;138.9333333;-33.95;6;
2;Australia;South Australia;Appila;;138.4166667;-33.05;6;
2;Australia;South Australia;Ardrossan;;137.9;-34.4333333;6;
2;Australia;South Australia;Arno Bay;;136.5666667;-33.9;6;
2;Australia;South Australia;Arthurton;;137.75;-34.2666667;6;
2;Australia;South Australia;Arwakurra;;138.4166667;-32.8833333;6;
2;Australia;South Australia;Ashbourne;;138.7666667;-35.3;6;
2;Australia;South Australia;Ashton;;138.7333333;-34.9333333;6;
2;Australia;South Australia;Ashville;;139.3666667;-35.5166667;6;
2;Australia;South Australia;Athenna;;133.4333333;-32.0166667;6;
2;Australia;South Australia;Auburn;;138.6833333;-34.0166667;6;
2;Australia;South Australia;Auld;;140.35;-34.8833333;6;
2;Australia;South Australia;Australia Plains;;139.1333333;-34.1;6;
2;Australia;South Australia;Avenue Range;;140.2333333;-36.9666667;6;
2;Australia;South Australia;Avenue;;140.2333333;-36.9666667;6;
2;Australia;South Australia;Avon;;138.3333333;-34.2833333;6;
2;Australia;South Australia;Bakara;;139.7666667;-34.6666667;6;
2;Australia;South Australia;Baker Gully;;138.6333333;-35.1333333;6;
2;Australia;South Australia;Bakers Gully;;138.6333333;-35.1333333;6;
2;Australia;South Australia;Balaklava;;138.4166667;-34.15;6;
2;Australia;South Australia;Bald Hills;;138.4166667;-35.5166667;6;
2;Australia;South Australia;Balgowan;;137.4833333;-34.3333333;6;
2;Australia;South Australia;Balhannah;;138.8333333;-34.9833333;6;
2;Australia;South Australia;Bangor;;138.15;-32.9666667;6;
2;Australia;South Australia;Barabba;;138.5833333;-34.35;6;
2;Australia;South Australia;Barmera;;140.4666667;-34.25;6;
2;Australia;South Australia;Baroota;;138.0333333;-32.85;6;
2;Australia;South Australia;Barossa;;138.8333333;-34.65;6;
2;Australia;South Australia;Barunga North;;138.0833333;-33.6833333;6;
2;Australia;South Australia;Barunga;;138.1333333;-33.7166667;6;
2;Australia;South Australia;Basket Range;;138.7666667;-34.9333333;6;
2;Australia;South Australia;Beachport;;140.0166667;-37.5;6;
2;Australia;South Australia;Beaufort;;138.2;-34.0833333;6;
2;Australia;South Australia;Beaumont;;138.65;-34.9333333;6;
2;Australia;South Australia;Bedford Park;;138.5666667;-35.0333333;6;
2;Australia;South Australia;Beetaloo Valley;;138.2333333;-33.2333333;6;
2;Australia;South Australia;Belair;;138.6333333;-35;6;
2;Australia;South Australia;Beltana;;138.4166667;-30.8;6;
2;Australia;South Australia;Belton;;138.7;-32.2333333;6;
2;Australia;South Australia;Belvidere;;138.9333333;-35.3;6;
2;Australia;South Australia;Bendleby;;138.7166667;-32.35;6;
2;Australia;South Australia;Berri;;140.6;-34.2833333;6;
2;Australia;South Australia;Bethany;;138.9666667;-34.5333333;6;
2;Australia;South Australia;Bethel;;138.8333333;-34.3333333;6;
2;Australia;South Australia;Bews;;137.8666667;-33.7333333;6;
2;Australia;South Australia;Biggs Flat;;138.7833333;-35.0666667;6;
2;Australia;South Australia;Binnum;;140.9333333;-36.8;6;
2;Australia;South Australia;Birdwood;;138.9666667;-34.8166667;6;
2;Australia;South Australia;Birkenhead;;138.5;-34.8333333;6;
2;Australia;South Australia;Black Hill;;139.45;-34.7;6;
2;Australia;South Australia;Black Rock;;138.7;-32.8333333;6;
2;Australia;South Australia;Black Springs;;138.9;-33.9;6;
2;Australia;South Australia;Blackford;;140.0166667;-36.7666667;6;
2;Australia;South Australia;Blackwood;;138.6166667;-35.0166667;6;
2;Australia;South Australia;Blakiston;;138.8833333;-35.05;6;
2;Australia;South Australia;Blanche Town;;139.6;-34.35;6;
2;Australia;South Australia;Bletchley;;138.9833333;-35.2333333;6;
2;Australia;South Australia;Blewitts Springs;;138.6;-35.1666667;6;
2;Australia;South Australia;Bligh;;136.5666667;-33.9;6;
2;Australia;South Australia;Blinman;;138.6666667;-31.1;6;
2;Australia;South Australia;Blyth;;138.4833333;-33.85;6;
2;Australia;South Australia;Bolivar;;138.6;-34.7666667;6;
2;Australia;South Australia;Bondleigh;;139.05;-35.0333333;6;
2;Australia;South Australia;Bonython;;139.2;-34.8;6;
2;Australia;South Australia;Bonythorn;;139.2;-34.8;6;
2;Australia;South Australia;Booborowie;;138.75;-33.5666667;6;
2;Australia;South Australia;Bookabie;;132.6833333;-31.8333333;6;
2;Australia;South Australia;Bool Lagoon;;140.7166667;-37.15;6;
2;Australia;South Australia;Boolcunda East;;138.3333333;-32.2666667;6;
2;Australia;South Australia;Booleroo Centre;;138.35;-32.8666667;6;
2;Australia;South Australia;Booleroo;;138.4166667;-32.8333333;6;
2;Australia;South Australia;Boothby;;136.5333333;-33.7666667;6;
2;Australia;South Australia;Boowillia;;138.4;-33.95;6;
2;Australia;South Australia;Bordertown;;140.7666667;-36.3166667;6;
2;Australia;South Australia;Borrika;;140.05;-35.0166667;6;
2;Australia;South Australia;Bow Hill;;139.6166667;-34.9;6;
2;Australia;South Australia;Bower;;139.35;-34.1333333;6;
2;Australia;South Australia;Bowillia;;138.4;-33.95;6;
2;Australia;South Australia;Bowmans;;138.2666667;-34.15;6;
2;Australia;South Australia;Bradbury;;138.7166667;-35.0666667;6;
2;Australia;South Australia;Brady Creek;;139;-33.9666667;6;
2;Australia;South Australia;Bramfield;;135.0166667;-33.6166667;6;
2;Australia;South Australia;Brentwood;;137.5;-34.8666667;6;
2;Australia;South Australia;Bridgewater;;138.75;-35;6;
2;Australia;South Australia;Bright;;139.0666667;-33.9;6;
2;Australia;South Australia;Brighton;;138.5166667;-35.0166667;6;
2;Australia;South Australia;Brimpton Lake;;135.5166667;-34.0666667;6;
2;Australia;South Australia;Brinkley;;139.2166667;-35.2333333;6;
2;Australia;South Australia;Brinkworth;;138.4;-33.7;6;
2;Australia;South Australia;Broad Creek;;138.1166667;-33.1;6;
2;Australia;South Australia;Brooker;;135.9;-34.1;6;
2;Australia;South Australia;Brownlow;;139.2666667;-34.25;6;
2;Australia;South Australia;Bruce;;138.2;-32.4666667;6;
2;Australia;South Australia;Brucefield;;137.7666667;-33.8;6;
2;Australia;South Australia;Buccleuch;;139.8833333;-35.35;6;
2;Australia;South Australia;Buckingham;;140.5833333;-36.35;6;
2;Australia;South Australia;Buckleboo;;136.2;-32.9166667;6;
2;Australia;South Australia;Bull Creek;;138.75;-35.2333333;6;
2;Australia;South Australia;Bull Island;;140.1833333;-36.95;6;
2;Australia;South Australia;Bulls Creek;;138.75;-35.2333333;6;
2;Australia;South Australia;Bumbunga;;138.2333333;-33.9166667;6;
2;Australia;South Australia;Bundaleer;;138.5333333;-33.4666667;6;
2;Australia;South Australia;Bungaree;;138.5666667;-33.75;6;
2;Australia;South Australia;Burra;;138.9333333;-33.6666667;6;
2;Australia;South Australia;Burrungule;;140.5666667;-37.7833333;6;
2;Australia;South Australia;Bute;;138.0166667;-33.8666667;6;
2;Australia;South Australia;Butler Tanks;;136.1666667;-34.1;6;
2;Australia;South Australia;Butler;;136.1;-34.1166667;6;
2;Australia;South Australia;Cadell;;139.75;-34.0333333;6;
2;Australia;South Australia;Calca;;134.35;-33.0833333;6;
2;Australia;South Australia;Caliph;;140.2833333;-34.6666667;6;
2;Australia;South Australia;Callington;;139.0166667;-35.1166667;6;
2;Australia;South Australia;Caloote;;139.2666667;-34.9666667;6;
2;Australia;South Australia;Calpatanna;;134.3666667;-33.0166667;6;
2;Australia;South Australia;Caltowie;;138.4833333;-33.1833333;6;
2;Australia;South Australia;Cambelltown;;138.6666667;-34.8833333;6;
2;Australia;South Australia;Cambrai;;139.2833333;-34.65;6;
2;Australia;South Australia;Campbell Park;;139.1833333;-35.6333333;6;
2;Australia;South Australia;Campbelltown;;138.6666667;-34.8833333;6;
2;Australia;South Australia;Cannawigara;;140.6666667;-36.25;6;
2;Australia;South Australia;Canowie Belt;;138.75;-33.1833333;6;
2;Australia;South Australia;Canowie;;138.75;-33.4;6;
2;Australia;South Australia;Caralue;;136.2;-33.3666667;6;
2;Australia;South Australia;Carawa;;134.2;-32.3833333;6;
2;Australia;South Australia;Carey Gully;;138.7666667;-34.9666667;6;
2;Australia;South Australia;Carey's Gully;;138.7666667;-34.9666667;6;
2;Australia;South Australia;Caroline;;140.9333333;-37.9;6;
2;Australia;South Australia;Carpa;;136.6833333;-33.75;6;
2;Australia;South Australia;Carrieton;;138.5333333;-32.4333333;6;
2;Australia;South Australia;Carripook;;138.75;-35.0166667;6;
2;Australia;South Australia;Carrow;;136.3333333;-34.1;6;
2;Australia;South Australia;Caurnamont;;139.5833333;-34.85;6;
2;Australia;South Australia;Ceduna;;133.6666667;-32.1166667;6;
2;Australia;South Australia;Chain of Ponds;;138.8333333;-34.8166667;6;
2;Australia;South Australia;Chandada;;134.6833333;-32.75;6;
2;Australia;South Australia;Chapman Bore;;139.55;-35.1333333;6;
2;Australia;South Australia;Charleston;;138.9;-34.9166667;6;
2;Australia;South Australia;Charra;;133.3333333;-32.0833333;6;
2;Australia;South Australia;Cheltenham;;138.5166667;-34.8666667;6;
2;Australia;South Australia;Cherry Gardens;;138.65;-35.0666667;6;
2;Australia;South Australia;Cherryville;;138.7666667;-34.9166667;6;
2;Australia;South Australia;Chinbingina;;134.2;-32.2166667;6;
2;Australia;South Australia;Chinta;;133.8;-31.9833333;6;
2;Australia;South Australia;Clapham;;138.6;-34.9913889;6;
2;Australia;South Australia;Clare;;138.6;-33.8333333;6;
2;Australia;South Australia;Clarendon;;138.6333333;-35.1166667;6;
2;Australia;South Australia;Claypans;;139.6666667;-34.8166667;6;
2;Australia;South Australia;Clements Gap;;138.0666667;-33.5166667;6;
2;Australia;South Australia;Cleve;;136.5;-33.7;6;
2;Australia;South Australia;Clinton Centre;;137.9166667;-34.2333333;6;
2;Australia;South Australia;Cobdog;;140.4;-34.25;6;
2;Australia;South Australia;Cockatoo Valley;;138.8333333;-34.6166667;6;
2;Australia;South Australia;Cockburn;;141;-32.0833333;6;
2;Australia;South Australia;Collinsville;;139.15;-33.3333333;6;
2;Australia;South Australia;Colton;;134.9333333;-33.4833333;6;
2;Australia;South Australia;Comaum;;140.95;-37.2666667;6;
2;Australia;South Australia;Compton;;140.6833333;-37.7666667;6;
2;Australia;South Australia;Concordia;;138.8;-34.5833333;6;
2;Australia;South Australia;Condada;;135.0666667;-32.8;6;
2;Australia;South Australia;Condowie;;138.3;-33.7666667;6;
2;Australia;South Australia;Conmurra;;140.2833333;-37.15;6;
2;Australia;South Australia;Coober Pedy;;134.7166667;-29.0166667;6;
2;Australia;South Australia;Coobowie;;137.7166667;-35.05;6;
2;Australia;South Australia;Cook;;130.4166667;-30.6166667;6;
2;Australia;South Australia;Cooke Plains;;139.55;-35.3833333;6;
2;Australia;South Australia;Cookes Plains;;139.55;-35.3833333;6;
2;Australia;South Australia;Coolcha;;139.5833333;-34.9166667;6;
2;Australia;South Australia;Coomandook;;139.7;-35.4833333;6;
2;Australia;South Australia;Coomunga;;135.7166667;-34.65;6;
2;Australia;South Australia;Coonalpyn;;139.85;-35.7;6;
2;Australia;South Australia;Coonawarra;;140.8166667;-37.3;6;
2;Australia;South Australia;Coontapoo;;135.7;-34.6333333;6;
2;Australia;South Australia;Coorabie;;132.3;-31.9;6;
2;Australia;South Australia;Coorara;;138.5166667;-35.1166667;6;
2;Australia;South Australia;Cootra;;135.8666667;-33.25;6;
2;Australia;South Australia;Copeville;;139.8333333;-34.8166667;6;
2;Australia;South Australia;Copley;;138.4333333;-30.5333333;6;
2;Australia;South Australia;Copperhouse;;138.9;-33.6666667;6;
2;Australia;South Australia;Corny Point;;137.05;-34.9166667;6;
2;Australia;South Australia;Coromandel Valley;;138.6166667;-35.05;6;
2;Australia;South Australia;Cortlinye;;136.3333333;-33.0166667;6;
2;Australia;South Australia;Coulta;;135.4666667;-34.3833333;6;
2;Australia;South Australia;Courela;;134.4333333;-32.5333333;6;
2;Australia;South Australia;Cowell;;136.9166667;-33.6833333;6;
2;Australia;South Australia;Cowirra;;139.3333333;-34.9;6;
2;Australia;South Australia;Cradock;;138.5;-32.0833333;6;
2;Australia;South Australia;Crafers;;138.7;-35;6;
2;Australia;South Australia;Craneford;;139.0666667;-34.6333333;6;
2;Australia;South Australia;Cromer;;139;-34.7666667;6;
2;Australia;South Australia;Crystal Brook;;138.2;-33.3666667;6;
2;Australia;South Australia;Cudlee Creek;;138.8333333;-34.85;6;
2;Australia;South Australia;Culburra;;139.9666667;-35.8166667;6;
2;Australia;South Australia;Cummins;;135.7333333;-34.2666667;6;
2;Australia;South Australia;Cungena;;134.7166667;-32.5833333;6;
2;Australia;South Australia;Cunliffe;;137.7333333;-34.0833333;6;
2;Australia;South Australia;Curramulka;;137.7;-34.7;6;
2;Australia;South Australia;Currency Creek;;138.7666667;-35.45;6;
2;Australia;South Australia;Custon;;140.9166667;-36.45;6;
2;Australia;South Australia;Cygnet River;;137.5166667;-35.7;6;
2;Australia;South Australia;Dalkey;;138.45;-34.1833333;6;
2;Australia;South Australia;Darke Peak;;136.2;-33.4666667;6;
2;Australia;South Australia;Darkes Peak;;136.2;-33.4666667;6;
2;Australia;South Australia;Darlington;;138.5666667;-35.0333333;6;
2;Australia;South Australia;Dashwoods Gully;;138.7;-35.1666667;6;
2;Australia;South Australia;Daveyston;;138.8833333;-34.4666667;6;
2;Australia;South Australia;Dawesley;;139.95;-35.0333333;6;
2;Australia;South Australia;Dawson;;138.9666667;-32.8;6;
2;Australia;South Australia;Delamere;;138.1833333;-35.5833333;6;
2;Australia;South Australia;Denial Bay;;133.5666667;-32.1;6;
2;Australia;South Australia;Dingabledinga;;138.6333333;-35.2666667;6;
2;Australia;South Australia;Dorrien;;138.9833333;-34.5;6;
2;Australia;South Australia;Dorset Vale;;138.6833333;-35.1;6;
2;Australia;South Australia;Dowlingville;;137.9166667;-34.3333333;6;
2;Australia;South Australia;Dublin;;138.35;-34.45;6;
2;Australia;South Australia;Duck Ponds;;135.7833333;-34.7333333;6;
2;Australia;South Australia;Dunira;;140;-34.45;6;
2;Australia;South Australia;Dutton;;139.1333333;-34.3666667;6;
2;Australia;South Australia;Echunga;;138.8;-35.1;6;
2;Australia;South Australia;Eden Valley;;139.1;-34.65;6;
2;Australia;South Australia;Edillilie;;135.7166667;-34.4;6;
2;Australia;South Australia;Edithburg;;137.7333333;-35.1;6;
2;Australia;South Australia;Edithburgh;;137.7333333;-35.1;6;
2;Australia;South Australia;Eiliston;;134.8833333;-33.65;6;
2;Australia;South Australia;Elbow Hill;;136.7666667;-33.7333333;6;
2;Australia;South Australia;Elizabeth;;138.65;-34.7333333;6;
2;Australia;South Australia;Elliston;;134.8833333;-33.65;6;
2;Australia;South Australia;Emerald Rise;;134.9666667;-32.6;6;
2;Australia;South Australia;Emu Bay;;137.5;-35.6;6;
2;Australia;South Australia;Emu Downs;;138.9666667;-33.9;6;
2;Australia;South Australia;Encounter Bay;;138.6;-35.5833333;6;
2;Australia;South Australia;Erskine;;138.85;-32.7333333;6;
2;Australia;South Australia;Ettrick Brae;;139.5666667;-35;6;
2;Australia;South Australia;Eudunda;;139.0666667;-34.1833333;6;
2;Australia;South Australia;Eurelia;;138.5666667;-32.55;6;
2;Australia;South Australia;Farina Town;;138.2833333;-30.0666667;6;
2;Australia;South Australia;Farina;;138.2833333;-30.0666667;6;
2;Australia;South Australia;Findon;;138.5333333;-34.9;6;
2;Australia;South Australia;Finniss;;138.8166667;-35.4;6;
2;Australia;South Australia;Finsbury;;138.5333333;-34.8666667;6;
2;Australia;South Australia;Flagstaff Landing;;134.1333333;-32.4;6;
2;Australia;South Australia;Flaxley;;138.8166667;-35.1333333;6;
2;Australia;South Australia;Flinders;;134.2166667;-32.8;6;
2;Australia;South Australia;Florieton;;139.4166667;-33.8666667;6;
2;Australia;South Australia;Florrieton;;139.4166667;-33.8666667;6;
2;Australia;South Australia;Fords;;138.8666667;-34.3833333;6;
2;Australia;South Australia;Forest Range;;138.8166667;-34.9333333;6;
2;Australia;South Australia;Forster;;139.55;-34.75;6;
2;Australia;South Australia;Fowlers Bay;;132.45;-31.9833333;6;
2;Australia;South Australia;Frances;;140.9666667;-36.7166667;6;
2;Australia;South Australia;Frankton;;139.2166667;-34.2833333;6;
2;Australia;South Australia;Freeling;;138.8;-34.45;6;
2;Australia;South Australia;Furner;;140.3333333;-37.4166667;6;
2;Australia;South Australia;Galga;;139.95;-34.7;6;
2;Australia;South Australia;Gambier Town;;140.7666667;-37.8333333;6;
2;Australia;South Australia;Garrik Bore;;139.9833333;-34.9666667;6;
2;Australia;South Australia;Gawler River;;138.6333333;-34.6166667;6;
2;Australia;South Australia;Gawler;;138.7333333;-34.6;6;
2;Australia;South Australia;Georgetown;;138.4;-33.3666667;6;
2;Australia;South Australia;Gepps Cross;;138.6;-34.85;6;
2;Australia;South Australia;Geranium Plain;;139.1666667;-33.9666667;6;
2;Australia;South Australia;Geranium Plains;;139.1666667;-33.9666667;6;
2;Australia;South Australia;Geranium;;140.1666667;-35.3833333;6;
2;Australia;South Australia;Giles Corner;;138.7166667;-34.2333333;6;
2;Australia;South Australia;Gilles Plains;;138.65;-34.85;6;
2;Australia;South Australia;Gladstone;;138.3666667;-33.2833333;6;
2;Australia;South Australia;Glenburnie;;140.85;-37.85;6;
2;Australia;South Australia;Glencoe West;;140.5833333;-37.6666667;6;
2;Australia;South Australia;Glencoe;;140.5833333;-37.6666667;6;
2;Australia;South Australia;Glenelg;;138.5166667;-34.9833333;6;
2;Australia;South Australia;Glenroy;;140.85;-37.25;6;
2;Australia;South Australia;Golden Grove;;138.7333333;-34.7833333;6;
2;Australia;South Australia;Gomersal;;138.8833333;-34.55;6;
2;Australia;South Australia;Goode;;133.75;-31.9666667;6;
2;Australia;South Australia;Goolwa;;138.7833333;-35.5166667;6;
2;Australia;South Australia;Goondooloo;;139.8333333;-34.8666667;6;
2;Australia;South Australia;Gordon;;138.2666667;-32.1166667;6;
2;Australia;South Australia;Grange;;138.4833333;-34.9;6;
2;Australia;South Australia;Green Hills;;138.8;-35.1666667;6;
2;Australia;South Australia;Greenock;;138.9166667;-34.4666667;6;
2;Australia;South Australia;Gumbowie;;138.8666667;-33.0666667;6;
2;Australia;South Australia;Gumeracha;;138.8833333;-34.8333333;6;
2;Australia;South Australia;Gurrai;;140.6;-35.1166667;6;
2;Australia;South Australia;Hackham;;138.5166667;-35.15;6;
2;Australia;South Australia;Hahndorf;;138.8;-35.0333333;6;
2;Australia;South Australia;Halbury;;138.5166667;-34.0833333;6;
2;Australia;South Australia;Halidon;;140.1666667;-34.8833333;6;
2;Australia;South Australia;Hallett;;138.8833333;-33.4;6;
2;Australia;South Australia;Halletts Cove;;138.5;-35.0666667;6;
2;Australia;South Australia;Hamilton;;138.8666667;-34.2166667;6;
2;Australia;South Australia;Hamley Bridge;;138.6833333;-34.3666667;6;
2;Australia;South Australia;Hammond;;138.3166667;-32.5166667;6;
2;Australia;South Australia;Hampden;;139.05;-34.15;6;
2;Australia;South Australia;Happy Valley;;138.5333333;-35.0833333;6;
2;Australia;South Australia;Harrogate;;139.0166667;-34.95;6;
2;Australia;South Australia;Hartley;;139;-35.2;6;
2;Australia;South Australia;Haslam;;134.2;-32.5;6;
2;Australia;South Australia;Hatherleigh;;140.2666667;-37.5;6;
2;Australia;South Australia;Hawker;;138.4166667;-31.8833333;6;
2;Australia;South Australia;Heathfield;;138.7166667;-35.0166667;6;
2;Australia;South Australia;Hergott Springs;;138.0666667;-29.65;6;
2;Australia;South Australia;Hindmarsh Island;;138.8166667;-35.5333333;6;
2;Australia;South Australia;Hindmarsh Valley;;138.6166667;-35.5166667;6;
2;Australia;South Australia;Hindmarsh;;138.8166667;-35.5333333;6;
2;Australia;South Australia;Hoadville;;139.3;-35.2666667;6;
2;Australia;South Australia;Honiton;;137.65;-35.1166667;6;
2;Australia;South Australia;Hope Forest;;138.6166667;-35.2833333;6;
2;Australia;South Australia;Hope Valley;;138.7;-34.8333333;6;
2;Australia;South Australia;Hornsdale;;138.5166667;-33.0666667;6;
2;Australia;South Australia;Houghton;;138.7666667;-34.8333333;6;
2;Australia;South Australia;Howe;;137.95;-34.1666667;6;
2;Australia;South Australia;Hoyleton;;138.55;-34.0333333;6;
2;Australia;South Australia;Humphreys Springs;;138.65;-34.2666667;6;
2;Australia;South Australia;Hynam;;140.85;-36.95;6;
2;Australia;South Australia;Ingalta;;140.8;-34.3833333;6;
2;Australia;South Australia;Ingle Farm;;138.6333333;-34.8333333;6;
2;Australia;South Australia;Inglewood;;138.7666667;-34.8333333;6;
2;Australia;South Australia;Inkerman;;138.25;-34.3166667;6;
2;Australia;South Australia;Inkster;;134.6833333;-32.8166667;6;
2;Australia;South Australia;Inman Valley;;138.45;-35.5;6;
2;Australia;South Australia;Innamincka;;140.7333333;-27.75;6;
2;Australia;South Australia;Inneston;;136.8916667;-35.275;6;
2;Australia;South Australia;Iron Baron;;137.15;-32.9833333;6;
2;Australia;South Australia;Iron Knob;;137.1333333;-32.7333333;6;
2;Australia;South Australia;Ironbank;;138.6833333;-35.05;6;
2;Australia;South Australia;Jabuk;;140.0666667;-35.4;6;
2;Australia;South Australia;Jamestown;;138.6;-33.2;6;
2;Australia;South Australia;Jervois;;139.4333333;-35.2666667;6;
2;Australia;South Australia;Joanna;;140.8333333;-37.1;6;
2;Australia;South Australia;Johnburgh;;138.7;-32.45;6;
2;Australia;South Australia;Julia;;139.0166667;-34.1;6;
2;Australia;South Australia;Jupiter Creek;;138.7666667;-35.1333333;6;
2;Australia;South Australia;Kadina;;137.7166667;-33.9666667;6;
2;Australia;South Australia;Kainton;;137.9;-34.1166667;6;
2;Australia;South Australia;Kakoonie;;139.4666667;-34.7833333;6;
2;Australia;South Australia;Kalangadoo;;140.7;-37.5666667;6;
2;Australia;South Australia;Kalyan;;139.8333333;-34.9333333;6;
2;Australia;South Australia;Kangarilla;;138.65;-35.15;6;
2;Australia;South Australia;Kangaroo Flat;;138.7;-34.55;6;
2;Australia;South Australia;Kanmantoo;;139.0166667;-35.0666667;6;
2;Australia;South Australia;Kapinnie;;135.5166667;-34.15;6;
2;Australia;South Australia;Kapunda;;138.9;-34.35;6;
2;Australia;South Australia;Karawirra;;138.9333333;-34.6166667;6;
2;Australia;South Australia;Karcultaby;;134.9666667;-32.7666667;6;
2;Australia;South Australia;Karkoo;;135.75;-34.0333333;6;
2;Australia;South Australia;Karoonda;;139.9;-35.1;6;
2;Australia;South Australia;Karte;;140.7;-35.0666667;6;
2;Australia;South Australia;Keilira;;140.15;-36.7166667;6;
2;Australia;South Australia;Keilli;;138.1333333;-33.6166667;6;
2;Australia;South Australia;Keith;;140.35;-36.1;6;
2;Australia;South Australia;Kensington and Norwood;;138.65;-34.9166667;6;
2;Australia;South Australia;Kensington;;138.65;-34.9166667;6;
2;Australia;South Australia;Keppoch;;140.5666667;-36.7;6;
2;Australia;South Australia;Kersbrook;;138.85;-34.7833333;6;
2;Australia;South Australia;Keswick;;138.5666667;-34.9333333;6;
2;Australia;South Australia;Ketchowla;;139.2;-33.3;6;
2;Australia;South Australia;Ketehowla;;139.2;-33.3;6;
2;Australia;South Australia;Keyneton;;139.1333333;-34.5666667;6;
2;Australia;South Australia;Ki Ki;;139.8;-35.5833333;6;
2;Australia;South Australia;Kielpa;;136.2166667;-33.5833333;6;
2;Australia;South Australia;Kilkerran;;137.5833333;-34.3333333;6;
2;Australia;South Australia;Kilki;;138.6;-35.5666667;6;
2;Australia;South Australia;Kilroo;;136.0833333;-33.5833333;6;
2;Australia;South Australia;Kimba;;136.4333333;-33.15;6;
2;Australia;South Australia;Kinchina;;139.2;-35.1;6;
2;Australia;South Australia;Kingoonya;;135.3;-30.9;6;
2;Australia;South Australia;Kingscote;;137.6333333;-35.6666667;6;
2;Australia;South Australia;Kingston Park;;138.5166667;-35.05;6;
2;Australia;South Australia;Kingston South East;;139.85;-36.8333333;6;
2;Australia;South Australia;Kingston;;140.35;-34.2333333;6;
2;Australia;South Australia;Kongal;;140.5166667;-36.3166667;6;
2;Australia;South Australia;Kongolia;;139.3666667;-34.65;6;
2;Australia;South Australia;Kongorong;;140.55;-37.9;6;
2;Australia;South Australia;Koolunga;;138.3333333;-33.5833333;6;
2;Australia;South Australia;Koolywurtie;;137.6333333;-34.65;6;
2;Australia;South Australia;Koongawa;;135.8833333;-33.1666667;6;
2;Australia;South Australia;Koonibba;;133.45;-31.9666667;6;
2;Australia;South Australia;Koonunga;;139;-34.3833333;6;
2;Australia;South Australia;Koopamurra;;140.8666667;-37.05;6;
2;Australia;South Australia;Kopi;;135.65;-33.3666667;6;
2;Australia;South Australia;Koppio;;135.85;-34.4166667;6;
2;Australia;South Australia;Korunye;;138.5166667;-34.5166667;6;
2;Australia;South Australia;Kringin;;140.7833333;-34.9833333;6;
2;Australia;South Australia;Krinjin;;140.7833333;-34.9833333;6;
2;Australia;South Australia;Kuitpo Colony;;138.7;-35.2833333;6;
2;Australia;South Australia;Kuitpo;;138.6833333;-35.2333333;6;
2;Australia;South Australia;Kulde;;139.6666667;-35.1666667;6;
2;Australia;South Australia;Kulkami;;140.2833333;-35.1666667;6;
2;Australia;South Australia;Kulpara;;138.0333333;-34.0666667;6;
2;Australia;South Australia;Kurdnatta;;137.7666667;-32.5;6;
2;Australia;South Australia;Kurlana;;140.1833333;-34.3166667;6;
2;Australia;South Australia;Kwinana;;115.7666667;-32.25;6;
2;Australia;South Australia;Kyancutta;;135.5666667;-33.1333333;6;
2;Australia;South Australia;Kybybolite;;140.9166667;-36.8833333;6;
2;Australia;South Australia;Kyeema;;138.6666667;-35.2666667;6;
2;Australia;South Australia;Lake Plains;;139.05;-35.3833333;6;
2;Australia;South Australia;Lalirra;;140.0166667;-34.8833333;6;
2;Australia;South Australia;Lameroo;;140.5166667;-35.3333333;6;
2;Australia;South Australia;Langhorne Creek;;139.0333333;-35.3;6;
2;Australia;South Australia;Largs;;138.4833333;-34.8333333;6;
2;Australia;South Australia;Laura Bay;;133.8333333;-32.2166667;6;
2;Australia;South Australia;Laura;;138.3;-33.1833333;6;
2;Australia;South Australia;Leigh Creek;;138.4166667;-30.4833333;6;
2;Australia;South Australia;Leighton;;138.75;-33.65;6;
2;Australia;South Australia;Lenswood;;138.8166667;-34.9166667;6;
2;Australia;South Australia;Lewiston;;138.6;-34.6;6;
2;Australia;South Australia;Lights Pass;;139.0166667;-34.4833333;6;
2;Australia;South Australia;Linwood;;138.7666667;-34.35;6;
2;Australia;South Australia;Lipson;;136.1333333;-34.3;6;
2;Australia;South Australia;Littlehampton;;138.85;-35.05;6;
2;Australia;South Australia;Lobethal;;138.8666667;-34.9;6;
2;Australia;South Australia;Lochaber;;140.5166667;-36.8333333;6;
2;Australia;South Australia;Lochiel;;138.1666667;-33.9333333;6;
2;Australia;South Australia;Lock;;135.7666667;-33.5666667;6;
2;Australia;South Australia;Long Gully;;138.6666667;-35.0166667;6;
2;Australia;South Australia;Long Plains;;138.3833333;-34.3666667;6;
2;Australia;South Australia;Longwood;;138.7166667;-35.05;6;
2;Australia;South Australia;Loos;;138.7;-34.6;6;
2;Australia;South Australia;Louth Bay;;135.9;-34.55;6;
2;Australia;South Australia;Loveday;;140.4333333;-34.2833333;6;
2;Australia;South Australia;Lowaldie;;139.9833333;-35.0666667;6;
2;Australia;South Australia;Lowbank;;140.05;-34.2;6;
2;Australia;South Australia;Lower Light;;138.4333333;-34.5333333;6;
2;Australia;South Australia;Loxton;;140.5666667;-34.45;6;
2;Australia;South Australia;Lucindale;;140.3666667;-36.9833333;6;
2;Australia;South Australia;Lyndhurst;;138.35;-30.2833333;6;
2;Australia;South Australia;Lyndoch;;138.8833333;-34.6166667;6;
2;Australia;South Australia;Lyrup;;140.65;-34.2666667;6;
2;Australia;South Australia;Macclesfield;;138.8333333;-35.1833333;6;
2;Australia;South Australia;Maggea;;140.0666667;-34.4833333;6;
2;Australia;South Australia;Maitland;;137.6666667;-34.3833333;6;
2;Australia;South Australia;Mallala;;138.5;-34.45;6;
2;Australia;South Australia;Malpas;;140.6166667;-34.7166667;6;
2;Australia;South Australia;Maltee;;133.9;-32.0833333;6;
2;Australia;South Australia;Mamblin;;135.7166667;-33.1333333;6;
2;Australia;South Australia;Mambray Creek;;137.9833333;-32.8;6;
2;Australia;South Australia;Mangalo Hall;;136.6166667;-33.5333333;6;
2;Australia;South Australia;Mangalo;;136.6166667;-33.5333333;6;
2;Australia;South Australia;Manna Hill;;140;-32.4333333;6;
2;Australia;South Australia;Mannanarie;;138.6166667;-33.05;6;
2;Australia;South Australia;Mannum;;139.3166667;-34.9166667;6;
2;Australia;South Australia;Manoora;;138.8166667;-34;6;
2;Australia;South Australia;Mantung Railway;;140.0666667;-34.6;6;
2;Australia;South Australia;Mantung;;140.0666667;-34.6;6;
2;Australia;South Australia;Maralinga;;131.5833333;-29.75;6;
2;Australia;South Australia;Marama;;140.1833333;-35.1833333;6;
2;Australia;South Australia;Marananga;;138.9333333;-34.4833333;6;
2;Australia;South Australia;Maree;;138.0666667;-29.65;6;
2;Australia;South Australia;Marino;;138.5166667;-35.0333333;6;
2;Australia;South Australia;Marion Bay;;137.0166667;-35.2333333;6;
2;Australia;South Australia;Marion;;138.5666667;-35.0166667;6;
2;Australia;South Australia;Markeri;;140.6666667;-34.5666667;6;
2;Australia;South Australia;Marrabel;;138.8666667;-34.15;6;
2;Australia;South Australia;Marree;;138.0666667;-29.65;6;
2;Australia;South Australia;McHarg Creek;;138.7333333;-35.2833333;6;
2;Australia;South Australia;McLachlan;;135.7166667;-33.5166667;6;
2;Australia;South Australia;McLaren Flat;;138.5833333;-35.2166667;6;
2;Australia;South Australia;McLaren Vale;;138.5333333;-35.2333333;6;
2;Australia;South Australia;Meadows;;138.75;-35.1833333;6;
2;Australia;South Australia;Melrose;;138.1833333;-32.8166667;6;
2;Australia;South Australia;Meningie;;139.3333333;-35.7;6;
2;Australia;South Australia;Mercunda;;140.0166667;-34.65;6;
2;Australia;South Australia;Merghiny;;133.8333333;-32.1166667;6;
2;Australia;South Australia;Meribah;;140.85;-34.7;6;
2;Australia;South Australia;Merriton;;138.15;-33.45;6;
2;Australia;South Australia;Middleton;;138.7;-35.5166667;6;
2;Australia;South Australia;Midurnie;;136.75;-33.5833333;6;
2;Australia;South Australia;Mil Lel;;140.8166667;-37.7833333;6;
2;Australia;South Australia;Milang;;138.9666667;-35.4166667;6;
2;Australia;South Australia;Milendella;;139.2;-34.8166667;6;
2;Australia;South Australia;Millicent;;140.35;-37.6;6;
2;Australia;South Australia;Miltalie;;136.8333333;-33.5833333;6;
2;Australia;South Australia;Minbrie;;136.9666667;-33.5;6;
2;Australia;South Australia;Mindarie;;140.2166667;-34.8166667;6;
2;Australia;South Australia;Mindiyarra;;139.8166667;-35.05;6;
2;Australia;South Australia;Mingary;;140.7333333;-32.1333333;6;
2;Australia;South Australia;Minlaton;;137.6;-34.7666667;6;
2;Australia;South Australia;Minnipa;;135.15;-32.85;6;
2;Australia;South Australia;Mintaro;;138.7166667;-33.9166667;6;
2;Australia;South Australia;Minvalara;;138.75;-32.9;6;
2;Australia;South Australia;Mitcham;;138.6;-34.9833333;6;
2;Australia;South Australia;Mitchellville;;137.15;-33.6166667;6;
2;Australia;South Australia;Moana;;138.4833333;-35.2;6;
2;Australia;South Australia;Moculta;;139.1166667;-34.4666667;6;
2;Australia;South Australia;Modbury;;138.6833333;-34.8333333;6;
2;Australia;South Australia;Monarto South;;139.1166667;-35.1333333;6;
2;Australia;South Australia;Monarto;;139.1333333;-35.05;6;
2;Australia;South Australia;Monash;;140.5666667;-34.2333333;6;
2;Australia;South Australia;Mongolata;;139.1;-33.5666667;6;
2;Australia;South Australia;Montacute;;138.7333333;-34.8833333;6;
2;Australia;South Australia;Montarra;;138.6166667;-35.2666667;6;
2;Australia;South Australia;Monteith Flat;;139.3333333;-35.1833333;6;
2;Australia;South Australia;Monteith;;139.3833333;-35.1833333;6;
2;Australia;South Australia;Moockra;;138.4333333;-32.4666667;6;
2;Australia;South Australia;Moonta Bay;;137.5666667;-34.05;6;
2;Australia;South Australia;Moonta;;137.5833333;-34.0666667;6;
2;Australia;South Australia;Moorlands;;139.65;-35.3;6;
2;Australia;South Australia;Moorook;;140.3666667;-34.3;6;
2;Australia;South Australia;Moppa;;139.95;-34.4166667;6;
2;Australia;South Australia;Morchard;;138.5;-32.7166667;6;
2;Australia;South Australia;Morgan;;139.65;-34.0333333;6;
2;Australia;South Australia;Morphett Vale;;138.5166667;-35.1333333;6;
2;Australia;South Australia;Mortana;;134.45;-33.0333333;6;
2;Australia;South Australia;Moseley;;136.5166667;-33.0833333;6;
2;Australia;South Australia;Mount Barker Junction;;138.85;-35.0166667;6;
2;Australia;South Australia;Mount Barker;;138.8666667;-35.0666667;6;
2;Australia;South Australia;Mount Benson;;139.7833333;-37.0833333;6;
2;Australia;South Australia;Mount Bryan East;;139.0166667;-33.4;6;
2;Australia;South Australia;Mount Burr;;140.4666667;-37.55;6;
2;Australia;South Australia;Mount Compass;;138.6166667;-35.3666667;6;
2;Australia;South Australia;Mount Cooper;;134.7;-33.0833333;6;
2;Australia;South Australia;Mount Crawford;;138.95;-34.6666667;6;
2;Australia;South Australia;Mount Dampar;;135.1;-33.1166667;6;
2;Australia;South Australia;Mount Damper;;135.1;-33.1166667;6;
2;Australia;South Australia;Mount Desperate;;136.5333333;-33.5833333;6;
2;Australia;South Australia;Mount Drummond;;135.4166667;-34.2166667;6;
2;Australia;South Australia;Mount Dutton;;135.7166667;-27.8333333;6;
2;Australia;South Australia;Mount Gambier;;140.7666667;-37.8333333;6;
2;Australia;South Australia;Mount Hill;;136.15;-34.0333333;6;
2;Australia;South Australia;Mount Hope;;135.3833333;-34.1166667;6;
2;Australia;South Australia;Mount Lofty;;138.7;-35;6;
2;Australia;South Australia;Mount Mary;;139.4333333;-34.1;6;
2;Australia;South Australia;Mount McIntyre;;140.55;-37.55;6;
2;Australia;South Australia;Mount McKenzie;;139.0833333;-34.5666667;6;
2;Australia;South Australia;Mount Pleasant;;139.0333333;-34.7833333;6;
2;Australia;South Australia;Mount Rat;;137.5833333;-34.6333333;6;
2;Australia;South Australia;Mount Schank;;140.7333333;-37.95;6;
2;Australia;South Australia;Mount Torrens;;138.95;-34.8666667;6;
2;Australia;South Australia;Mount Wedge;;135.1666667;-33.4833333;6;
2;Australia;South Australia;Mudamuckla;;134.0333333;-32.15;6;
2;Australia;South Australia;Muloowurtie;;137.8666667;-34.5666667;6;
2;Australia;South Australia;Mulpata;;140.4;-35.15;6;
2;Australia;South Australia;Mundalla;;140.6833333;-36.3666667;6;
2;Australia;South Australia;Mundoora;;138.0833333;-33.6;6;
2;Australia;South Australia;Mundulla;;140.6833333;-36.3666667;6;
2;Australia;South Australia;Murbko;;139.65;-34.1666667;6;
2;Australia;South Australia;Murdinga;;135.7166667;-33.7166667;6;
2;Australia;South Australia;Murray Bridge;;139.2666667;-35.1166667;6;
2;Australia;South Australia;Murray Town;;138.2333333;-32.9333333;6;
2;Australia;South Australia;Muston;;137.7333333;-35.8333333;6;
2;Australia;South Australia;Mylor;;138.75;-35.05;6;
2;Australia;South Australia;Mypolonga Flat;;139.35;-35.05;6;
2;Australia;South Australia;Mypolonga;;139.35;-35.05;6;
2;Australia;South Australia;Myponga;;138.45;-35.4;6;
2;Australia;South Australia;Nackara;;139.2333333;-32.8;6;
2;Australia;South Australia;Nadda;;140.8833333;-34.6166667;6;
2;Australia;South Australia;Naidia;;139.8166667;-34.5166667;6;
2;Australia;South Australia;Nairne;;138.9;-35.0333333;6;
2;Australia;South Australia;Nangkita;;138.6833333;-35.35;6;
2;Australia;South Australia;Nantawarra;;138.2333333;-34.0166667;6;
2;Australia;South Australia;Napperby;;138.1166667;-33.1666667;6;
2;Australia;South Australia;Naracoorte;;140.7333333;-36.9666667;6;
2;Australia;South Australia;Narridy;;138.3;-33.4333333;6;
2;Australia;South Australia;Narrung;;139.1666667;-35.5166667;6;
2;Australia;South Australia;Native Valley;;138.9833333;-35.0333333;6;
2;Australia;South Australia;Naturi;;139.5833333;-35.2;6;
2;Australia;South Australia;Neale Flat;;139.1666667;-34.25;6;
2;Australia;South Australia;Nectar Brook;;137.9333333;-32.7333333;6;
2;Australia;South Australia;Neeta;;139.3166667;-34.9333333;6;
2;Australia;South Australia;Nelshaby;;138.1;-33.1333333;6;
2;Australia;South Australia;Nelshiby;;138.1;-33.1333333;6;
2;Australia;South Australia;Netherleigh;;139.75;-34.5833333;6;
2;Australia;South Australia;Netherton;;139.95;-35.4833333;6;
2;Australia;South Australia;New Residence;;140.4;-34.3833333;6;
2;Australia;South Australia;New Well;;139.9;-34.3833333;6;
2;Australia;South Australia;Newland;;138.6166667;-35.5666667;6;
2;Australia;South Australia;Ngapala;;138.9833333;-34.0666667;6;
2;Australia;South Australia;Nildottie;;139.65;-34.6833333;6;
2;Australia;South Australia;Noarlunga;;138.5;-35.1833333;6;
2;Australia;South Australia;Nonning;;136.5;-32.5;6;
2;Australia;South Australia;Normanville;;138.3166667;-35.4666667;6;
2;Australia;South Australia;North Cape;;137.6;-35.5833333;6;
2;Australia;South Australia;North Shields;;135.8622222;-34.6286111;6;
2;Australia;South Australia;North Yelta;;137.6333333;-34.05;6;
2;Australia;South Australia;Northfield;;138.6333333;-34.85;6;
2;Australia;South Australia;Norton Summit;;138.7166667;-34.9166667;6;
2;Australia;South Australia;Norton's Summit;;138.7166667;-34.9166667;6;
2;Australia;South Australia;Norwood;;138.65;-34.9166667;6;
2;Australia;South Australia;Notts Well;;139.7666667;-34.4166667;6;
2;Australia;South Australia;Nunjikompita;;134.3166667;-32.2666667;6;
2;Australia;South Australia;Nunkeri;;139.9666667;-35.15;6;
2;Australia;South Australia;Nuriootpa;;139;-34.4833333;6;
2;Australia;South Australia;Nurrondi;;138.0833333;-33.6833333;6;
2;Australia;South Australia;Oakbank;;138.85;-34.9833333;6;
2;Australia;South Australia;Oakdale;;135.5;-33.8166667;6;
2;Australia;South Australia;Oaklands;;138.5333333;-35.0166667;6;
2;Australia;South Australia;O'Halloran Hill;;138.55;-35.0666667;6;
2;Australia;South Australia;Oladdie;;138.6833333;-32.5333333;6;
2;Australia;South Australia;Olary;;140.3166667;-32.2833333;6;
2;Australia;South Australia;One Tree Hill;;138.7666667;-34.7;6;
2;Australia;South Australia;Oodla Wirra;;139.0666667;-32.8833333;6;
2;Australia;South Australia;Oodnadatta;;135.4666667;-27.55;6;
2;Australia;South Australia;Orroroo;;138.6166667;-32.7333333;6;
2;Australia;South Australia;Overland Corner;;140.3333333;-34.1666667;6;
2;Australia;South Australia;Owen;;138.55;-34.2666667;6;
2;Australia;South Australia;Pallamana;;139.2;-35.0333333;6;
2;Australia;South Australia;Palmer;;139.1666667;-34.85;6;
2;Australia;South Australia;Pandappa Dam;;139.15;-33.1833333;6;
2;Australia;South Australia;Pandappa;;139.15;-33.1833333;6;
2;Australia;South Australia;Parachilna;;138.3833333;-31.1333333;6;
2;Australia;South Australia;Paracombe;;138.7833333;-34.85;6;
2;Australia;South Australia;Paratoo;;139.3666667;-32.7;6;
2;Australia;South Australia;Parham;;138.2666667;-34.4333333;6;
2;Australia;South Australia;Parilla;;140.6666667;-35.3;6;
2;Australia;South Australia;Paris Creek;;138.8;-35.2166667;6;
2;Australia;South Australia;Parnaroo;;139.1333333;-32.9833333;6;
2;Australia;South Australia;Parrakie;;140.25;-35.3833333;6;
2;Australia;South Australia;Paruna;;140.7333333;-34.7166667;6;
2;Australia;South Australia;Paskeville;;137.9;-34.0333333;6;
2;Australia;South Australia;Pata;;140.5166667;-34.5666667;6;
2;Australia;South Australia;Peachna;;135.7166667;-33.7666667;6;
2;Australia;South Australia;Peake;;139.95;-35.3666667;6;
2;Australia;South Australia;Pearlah;;135.6833333;-34.6;6;
2;Australia;South Australia;Peebinga;;140.9166667;-34.9333333;6;
2;Australia;South Australia;Peep Hill;;139.15;-34.15;6;
2;Australia;South Australia;Pekina;;138.55;-32.8333333;6;
2;Australia;South Australia;Pellaring Flat;;139.4;-34.8666667;6;
2;Australia;South Australia;Penfield;;138.6333333;-34.7;6;
2;Australia;South Australia;Penneshaw;;137.9333333;-35.7333333;6;
2;Australia;South Australia;Penola;;140.8166667;-37.3833333;6;
2;Australia;South Australia;Penong;;133.0166667;-31.9166667;6;
2;Australia;South Australia;Perara;;137.9;-34.45;6;
2;Australia;South Australia;Perponda;;139.7833333;-34.9833333;6;
2;Australia;South Australia;Peterborough;;138.8333333;-32.9666667;6;
2;Australia;South Australia;Petersburgh;;138.8333333;-32.9666667;6;
2;Australia;South Australia;Petina;;134.3833333;-32.4666667;6;
2;Australia;South Australia;Phillip;;149.1;-35.35;6;
2;Australia;South Australia;Piccadilly;;138.7333333;-34.9833333;6;
2;Australia;South Australia;Pilcherra Bore;;140.1333333;-35.0333333;6;
2;Australia;South Australia;Pimba;;136.7833333;-31.25;6;
2;Australia;South Australia;Pimbaacla;;134.4333333;-32.3166667;6;
2;Australia;South Australia;Pine Point;;137.8666667;-34.5666667;6;
2;Australia;South Australia;Pinery;;138.45;-34.3;6;
2;Australia;South Australia;Pinkertons Plains;;138.6333333;-34.4333333;6;
2;Australia;South Australia;Pinnaroo;;140.9;-35.2666667;6;
2;Australia;South Australia;Plympton;;138.55;-34.95;6;
2;Australia;South Australia;Point McLeay;;139.1;-35.5333333;6;
2;Australia;South Australia;Point Pass;;139.05;-34.0833333;6;
2;Australia;South Australia;Point Sturt;;139.0333333;-35.5166667;6;
2;Australia;South Australia;Point Turton;;137.35;-34.95;6;
2;Australia;South Australia;Pompoota;;139.3333333;-35;6;
2;Australia;South Australia;Ponde;;139.3166667;-34.95;6;
2;Australia;South Australia;Pondooma;;137.0166667;-33.5333333;6;
2;Australia;South Australia;Poochera;;134.85;-32.7166667;6;
2;Australia;South Australia;Pooginagoric;;140.8333333;-36.4333333;6;
2;Australia;South Australia;Poonindie;;135.8666667;-34.5833333;6;
2;Australia;South Australia;Port Adelaide;;138.4666667;-34.85;6;
2;Australia;South Australia;Port Androssan;;137.9;-34.4333333;6;
2;Australia;South Australia;Port Augusta West;;137.75;-32.4833333;6;
2;Australia;South Australia;Port Augusta;;137.7666667;-32.5;6;
2;Australia;South Australia;Port Broughton;;137.9333333;-33.6;6;
2;Australia;South Australia;Port Caroline;;139.85;-36.8333333;6;
2;Australia;South Australia;Port Clinton;;138.0333333;-34.2333333;6;
2;Australia;South Australia;Port Elliot;;138.6833333;-35.5333333;6;
2;Australia;South Australia;Port Germein;;138.0166667;-33.0166667;6;
2;Australia;South Australia;Port Gibbon;;136.8027778;-33.7972222;6;
2;Australia;South Australia;Port Hughes;;137.55;-34.0833333;6;
2;Australia;South Australia;Port Julia;;137.8666667;-34.6666667;6;
2;Australia;South Australia;Port Kenny;;134.7;-33.1666667;6;
2;Australia;South Australia;Port Lincoln;;135.8666667;-34.7333333;6;
2;Australia;South Australia;Port MacDonnell;;140.7;-38.05;6;
2;Australia;South Australia;Port Minlacowie;;137.4666667;-34.8333333;6;
2;Australia;South Australia;Port Moonta;;137.5666667;-34.05;6;
2;Australia;South Australia;Port Moorowie;;137.5166667;-35.1166667;6;
2;Australia;South Australia;Port Neill;;136.3333333;-34.1;6;
2;Australia;South Australia;Port Noarlunga;;138.4666667;-35.15;6;
2;Australia;South Australia;Port Parham;;138.2666667;-34.4333333;6;
2;Australia;South Australia;Port Pirie;;138.0166667;-33.1833333;6;
2;Australia;South Australia;Port Price;;138;-34.2916667;6;
2;Australia;South Australia;Port Prime;;138.3166667;-34.5166667;6;
2;Australia;South Australia;Port Rickaby;;137.5;-34.6833333;6;
2;Australia;South Australia;Port Victoria;;137.4833333;-34.5;6;
2;Australia;South Australia;Port Vincent;;137.85;-34.7833333;6;
2;Australia;South Australia;Port Wakefield;;138.1333333;-34.2;6;
2;Australia;South Australia;Port Willunga;;138.45;-35.2666667;6;
2;Australia;South Australia;Price;;138;-34.2916667;6;
2;Australia;South Australia;Prospect Hill;;138.7166667;-35.2333333;6;
2;Australia;South Australia;Prospect;;138.5833333;-34.8833333;6;
2;Australia;South Australia;Punchs Rest;;138.4666667;-30.3333333;6;
2;Australia;South Australia;Puntabie;;134.0833333;-32.2;6;
2;Australia;South Australia;Punthari;;139.3166667;-34.8166667;6;
2;Australia;South Australia;Purnong Landing;;139.6166667;-34.8666667;6;
2;Australia;South Australia;Pyap;;140.4833333;-34.4333333;6;
2;Australia;South Australia;Pygery;;135.4166667;-33.0166667;6;
2;Australia;South Australia;Qualco;;139.8666667;-34.1166667;6;
2;Australia;South Australia;Quorn;;138.0333333;-32.35;6;
2;Australia;South Australia;Radium Hill;;140.6666667;-32.3;6;
2;Australia;South Australia;Ramco;;139.9333333;-34.1666667;6;
2;Australia;South Australia;Rapid Bay;;138.2;-35.5333333;6;
2;Australia;South Australia;Red Banks;;138.5666667;-34.4833333;6;
2;Australia;South Australia;Red Creek;;138.9666667;-35.1666667;6;
2;Australia;South Australia;Redhill;;138.2333333;-33.5333333;6;
2;Australia;South Australia;Reedy Creek;;140.0166667;-36.95;6;
2;Australia;South Australia;Reeve's Plain;;138.6;-34.5166667;6;
2;Australia;South Australia;Reeves Plains;;138.6;-34.5166667;6;
2;Australia;South Australia;Rendelsham;;140.2166667;-37.55;6;
2;Australia;South Australia;Renmark North;;140.7166667;-34.1333333;6;
2;Australia;South Australia;Renmark West;;140.7;-34.1666667;6;
2;Australia;South Australia;Renmark;;140.75;-34.1833333;6;
2;Australia;South Australia;Reynella;;138.5333333;-35.1;6;
2;Australia;South Australia;Rhynie;;138.7;-34.1333333;6;
2;Australia;South Australia;River Glen;;139.3;-35.1666667;6;
2;Australia;South Australia;Riverton;;138.75;-34.1666667;6;
2;Australia;South Australia;Robe;;139.75;-37.1833333;6;
2;Australia;South Australia;Robertstown;;139.0666667;-34;6;
2;Australia;South Australia;Rochester;;138.4833333;-33.7;6;
2;Australia;South Australia;Rockleigh;;139.1166667;-35;6;
2;Australia;South Australia;Roger Corner;;137.55;-34.9166667;6;
2;Australia;South Australia;Rosedale;;138.85;-34.55;6;
2;Australia;South Australia;Roseneath;;140.7166667;-34.6166667;6;
2;Australia;South Australia;Rosetown;;139.85;-36.8333333;6;
2;Australia;South Australia;Roseworthy;;138.7333333;-34.5333333;6;
2;Australia;South Australia;Rowland Flat;;138.9333333;-34.5833333;6;
2;Australia;South Australia;Rudall;;136.2666667;-33.6833333;6;
2;Australia;South Australia;Rupari;;139.1333333;-35.6333333;6;
2;Australia;South Australia;Saddleworth;;138.7833333;-34.0833333;6;
2;Australia;South Australia;Saint Kilda;;138.5333333;-34.7333333;6;
2;Australia;South Australia;Saints;;138.3166667;-34.15;6;
2;Australia;South Australia;Salisbury;;138.6333333;-34.7666667;6;
2;Australia;South Australia;Salt Creek;;139.6333333;-36.15;6;
2;Australia;South Australia;Salt Lake;;137.6833333;-35.8666667;6;
2;Australia;South Australia;Salters Springs;;138.6166667;-34.1833333;6;
2;Australia;South Australia;Sampsons Flat;;138.7666667;-34.7166667;6;
2;Australia;South Australia;Sandalwood;;140.1333333;-34.95;6;
2;Australia;South Australia;Sandergrove;;138.8333333;-35.3333333;6;
2;Australia;South Australia;Sanderston;;139.2166667;-34.75;6;
2;Australia;South Australia;Sandilands;;137.7666667;-34.5166667;6;
2;Australia;South Australia;Sandleton;;139.3333333;-34.4666667;6;
2;Australia;South Australia;Sceale Bay;;134.2;-33.0166667;6;
2;Australia;South Australia;Scotts Bottom;;138.6833333;-35.1;6;
2;Australia;South Australia;Scotts Creek;;138.7;-35.0666667;6;
2;Australia;South Australia;Seacliff;;138.525;-35.0333333;6;
2;Australia;South Australia;Seaford;;138.4666667;-35.1833333;6;
2;Australia;South Australia;Seaton;;138.5166667;-34.9;6;
2;Australia;South Australia;Seaview;;138.55;-35.1666667;6;
2;Australia;South Australia;Second Valley;;138.2333333;-35.55;6;
2;Australia;South Australia;Sedan;;139.3;-34.5833333;6;
2;Australia;South Australia;Sellicks Hill;;138.4666667;-35.3333333;6;
2;Australia;South Australia;Semaphore;;138.4833333;-34.8333333;6;
2;Australia;South Australia;Shea Oak Log;;138.8166667;-34.5166667;6;
2;Australia;South Australia;She-Oak Log;;138.8166667;-34.5166667;6;
2;Australia;South Australia;Sheringa;;135.25;-33.85;6;
2;Australia;South Australia;Sherlock;;139.8166667;-35.3166667;6;
2;Australia;South Australia;Smithfield;;138.6833333;-34.6833333;6;
2;Australia;South Australia;Smoky Bay;;133.9333333;-32.3666667;6;
2;Australia;South Australia;Snowtown;;138.2166667;-33.7833333;6;
2;Australia;South Australia;Solomontown;;138.0333333;-33.2;6;
2;Australia;South Australia;Somerset;;138.8166667;-34.5;6;
2;Australia;South Australia;Somerton;;138.7;-34.9666667;6;
2;Australia;South Australia;South Kilkerran;;137.6;-34.4333333;6;
2;Australia;South Australia;South Kilykerran;;137.6;-34.4333333;6;
2;Australia;South Australia;Spalding;;138.6166667;-33.5;6;
2;Australia;South Australia;Springton;;139.0833333;-34.7166667;6;
2;Australia;South Australia;Stansbury;;137.7833333;-34.9166667;6;
2;Australia;South Australia;Steelton;;138.8833333;-34.05;6;
2;Australia;South Australia;Stenhouse Bay;;136.9333333;-35.2833333;6;
2;Australia;South Australia;Stewarts;;140.6;-36.9666667;6;
2;Australia;South Australia;Stirling West;;138.7166667;-35;6;
2;Australia;South Australia;Stirling;;138.7166667;-35;6;
2;Australia;South Australia;Stockport;;138.7333333;-34.3333333;6;
2;Australia;South Australia;Stockwell;;139.05;-34.4333333;6;
2;Australia;South Australia;Stockyard Creek;;138.5833333;-34.3;6;
2;Australia;South Australia;Stokes;;135.9333333;-34.2833333;6;
2;Australia;South Australia;Stonefield;;139.2833333;-34.3666667;6;
2;Australia;South Australia;Stow;;138.3666667;-33.9833333;6;
2;Australia;South Australia;Stradbrooke;;138.6666667;-34.8833333;6;
2;Australia;South Australia;Strathalbyn;;138.9;-35.2666667;6;
2;Australia;South Australia;Streaky Bay;;134.2166667;-32.8;6;
2;Australia;South Australia;Struan;;140.7833333;-37.1166667;6;
2;Australia;South Australia;Sturdee;;132.3833333;-31.8666667;6;
2;Australia;South Australia;Sturt;;138.55;-35.0166667;6;
2;Australia;South Australia;Summerton;;138.7;-34.9666667;6;
2;Australia;South Australia;Summertown;;138.7;-34.9666667;6;
2;Australia;South Australia;Sunny Hill;;138.2;-33.9666667;6;
2;Australia;South Australia;Sutherlands;;139.2166667;-34.15;6;
2;Australia;South Australia;Sutton Town;;140.7833333;-37.8;6;
2;Australia;South Australia;Swan Reach;;139.5833333;-34.5666667;6;
2;Australia;South Australia;Swanport;;139.3;-35.15;6;
2;Australia;South Australia;Tailem Bend;;139.45;-35.2666667;6;
2;Australia;South Australia;Tailen Bend;;139.45;-35.2666667;6;
2;Australia;South Australia;Talia;;134.8833333;-33.3166667;6;
2;Australia;South Australia;Tantanoola;;140.45;-37.7;6;
2;Australia;South Australia;Tanunda;;138.95;-34.5333333;6;
2;Australia;South Australia;Taplan;;140.8833333;-34.55;6;
2;Australia;South Australia;Tarcoola;;134.55;-30.6833333;6;
2;Australia;South Australia;Tarcowie;;138.5166667;-32.95;6;
2;Australia;South Australia;Tarlee;;138.7666667;-34.2666667;6;
2;Australia;South Australia;Tarnma;;138.95;-34.15;6;
2;Australia;South Australia;Tarpeena;;140.7833333;-37.6333333;6;
2;Australia;South Australia;Taylorville;;139.9666667;-34.1;6;
2;Australia;South Australia;Teal Flat;;139.5333333;-34.8833333;6;
2;Australia;South Australia;Teatree Gully;;138.7333333;-34.8166667;6;
2;Australia;South Australia;Telichie;;139.9333333;-31.6833333;6;
2;Australia;South Australia;Telowie;;138.0666667;-33.05;6;
2;Australia;South Australia;Templers;;138.75;-34.4666667;6;
2;Australia;South Australia;Tepko;;139.1833333;-34.9666667;6;
2;Australia;South Australia;Terka;;138.15;-32.7;6;
2;Australia;South Australia;Terowie;;138.9;-33.1666667;6;
2;Australia;South Australia;The Fountain;;135.6333333;-34.6;6;
2;Australia;South Australia;The Point;;139.3833333;-35.2166667;6;
2;Australia;South Australia;The Range;;138.6333333;-35.25;6;
2;Australia;South Australia;Thebarton;;138.5666667;-34.9166667;6;
2;Australia;South Australia;Tickera;;137.7;-33.7833333;6;
2;Australia;South Australia;Tintinara;;140.05;-35.9;6;
2;Australia;South Australia;Tooligie;;135.7;-33.85;6;
2;Australia;South Australia;Tooperang;;138.7333333;-35.3833333;6;
2;Australia;South Australia;Torrens Vale;;138.3666667;-35.5166667;6;
2;Australia;South Australia;Tortachilla;;138.4833333;-35.2333333;6;
2;Australia;South Australia;Tothill Creek;;138.9166667;-34.1;6;
2;Australia;South Australia;Towitta;;139.25;-34.5333333;6;
2;Australia;South Australia;Trial Hill;;138.95;-34.6166667;6;
2;Australia;South Australia;Truro;;139.1166667;-34.4166667;6;
2;Australia;South Australia;Tuckey;;136.1;-33.6833333;6;
2;Australia;South Australia;Tulka;;135.7977778;-34.7958333;6;
2;Australia;South Australia;Tulkineara;;139.2;-35.7;6;
2;Australia;South Australia;Tumby Bay;;136.0833333;-34.3833333;6;
2;Australia;South Australia;Tumby;;136.0833333;-34.3833333;6;
2;Australia;South Australia;Tungkillo;;139.0666667;-34.8166667;6;
2;Australia;South Australia;Two Wells;;138.5;-34.6;6;
2;Australia;South Australia;Ucolta;;138.9666667;-32.95;6;
2;Australia;South Australia;Undalya;;138.6833333;-34.0666667;6;
2;Australia;South Australia;Ungarra;;136.0333333;-34.1833333;6;
2;Australia;South Australia;Unley;;138.6;-34.95;6;
2;Australia;South Australia;Upper Sturt;;138.6833333;-35.0166667;6;
2;Australia;South Australia;Uraidla;;138.75;-34.95;6;
2;Australia;South Australia;Urania;;137.6;-34.5166667;6;
2;Australia;South Australia;Uroonda;;138.6166667;-32.1666667;6;
2;Australia;South Australia;Utera;;136.9166667;-33.55;6;
2;Australia;South Australia;Veitch;;140.5166667;-34.6666667;6;
2;Australia;South Australia;Venus Bay;;134.6833333;-33.2333333;6;
2;Australia;South Australia;Verdun;;138.7833333;-35;6;
2;Australia;South Australia;Victor Harbor;;138.6166667;-35.5666667;6;
2;Australia;South Australia;Victor Harbour;;138.6166667;-35.5666667;6;
2;Australia;South Australia;Vimy Ridge;;138.7666667;-35.0166667;6;
2;Australia;South Australia;Vine Vale;;139;-34.5166667;6;
2;Australia;South Australia;Virginia;;138.5666667;-34.6666667;6;
2;Australia;South Australia;Waddikee;;136.2166667;-33.3166667;6;
2;Australia;South Australia;Waikerie;;139.9833333;-34.1833333;6;
2;Australia;South Australia;Waitpinga;;138.5333333;-35.6;6;
2;Australia;South Australia;Wakefield;;138.1333333;-34.2;6;
2;Australia;South Australia;Walker Flat;;139.5666667;-34.7666667;6;
2;Australia;South Australia;Wall Flat;;139.3166667;-34.9666667;6;
2;Australia;South Australia;Wall;;139.3166667;-34.9666667;6;
2;Australia;South Australia;Wallaroo Mines;;137.6833333;-33.9666667;6;
2;Australia;South Australia;Wallaroo;;137.6333333;-33.9333333;6;
2;Australia;South Australia;Walloway;;138.5833333;-32.6333333;6;
2;Australia;South Australia;Waltowa;;139.4333333;-35.6166667;6;
2;Australia;South Australia;Wanbi;;140.3166667;-34.7666667;6;
2;Australia;South Australia;Wandearah East;;138.0666667;-33.3833333;6;
2;Australia;South Australia;Wandilo;;140.7166667;-37.7166667;6;
2;Australia;South Australia;Wangary;;135.4833333;-34.55;6;
2;Australia;South Australia;Wanilla;;135.6833333;-34.5;6;
2;Australia;South Australia;Warburto;;137.6166667;-34;6;
2;Australia;South Australia;Wards Belt;;138.6666667;-34.5833333;6;
2;Australia;South Australia;Warla;;139.0666667;-35.1333333;6;
2;Australia;South Australia;Warooka;;137.4;-35;6;
2;Australia;South Australia;Warrachie;;135.7166667;-33.65;6;
2;Australia;South Australia;Warramboo;;135.6;-33.2333333;6;
2;Australia;South Australia;Warratta Vale;;136.1833333;-34.2666667;6;
2;Australia;South Australia;Warrow;;135.4666667;-34.3333333;6;
2;Australia;South Australia;Wasleys;;138.6666667;-34.4666667;6;
2;Australia;South Australia;Waterloo Corner;;138.5833333;-34.7166667;6;
2;Australia;South Australia;Waterloo;;138.8666667;-33.9833333;6;
2;Australia;South Australia;Watraba;;133.2166667;-31.9666667;6;
2;Australia;South Australia;Wattle Flat;;138.3833333;-35.45;6;
2;Australia;South Australia;Waukaringa;;139.4333333;-32.3;6;
2;Australia;South Australia;Wauraltee;;137.55;-34.5833333;6;
2;Australia;South Australia;Wayville;;138.5833333;-34.95;6;
2;Australia;South Australia;Weetulta;;137.6333333;-34.25;6;
2;Australia;South Australia;Welland;;138.5333333;-34.9;6;
2;Australia;South Australia;Wellington East;;139.4;-35.3333333;6;
2;Australia;South Australia;Wellington West;;139.3833333;-35.35;6;
2;Australia;South Australia;Wellington;;139.3833333;-35.35;6;
2;Australia;South Australia;Wepar;;140.7;-37.6166667;6;
2;Australia;South Australia;Wepowie;;138.4833333;-32.8333333;6;
2;Australia;South Australia;Wharminda;;136.2333333;-33.95;6;
2;Australia;South Australia;White Flat;;135.85;-34.5166667;6;
2;Australia;South Australia;Whitwarta;;138.3333333;-34.1;6;
2;Australia;South Australia;Whyalla;;137.5833333;-33.0333333;6;
2;Australia;South Australia;Wild Horse Plains;;138.2833333;-34.3666667;6;
2;Australia;South Australia;Wilkawatt;;140.3666667;-35.3833333;6;
2;Australia;South Australia;Willaston;;138.75;-34.5833333;6;
2;Australia;South Australia;Williamstown;;138.8666667;-34.6666667;6;
2;Australia;South Australia;Willochra;;138.1333333;-32.2333333;6;
2;Australia;South Australia;Willow Plain;;138.5666667;-31.8666667;6;
2;Australia;South Australia;Willowie;;138.3333333;-32.6833333;6;
2;Australia;South Australia;Willunga;;138.55;-35.2833333;6;
2;Australia;South Australia;Willyaroo;;138.9166667;-35.2666667;6;
2;Australia;South Australia;Wilmington;;138.1;-32.65;6;
2;Australia;South Australia;Wilson;;138.3666667;-32;6;
2;Australia;South Australia;Windsor;;138.3333333;-34.4166667;6;
2;Australia;South Australia;Windy Corner;;138.6;-35.0166667;6;
2;Australia;South Australia;Winkie;;140.5333333;-34.3;6;
2;Australia;South Australia;Winulta;;137.8666667;-34.2833333;6;
2;Australia;South Australia;Wirha;;140.5;-35.15;6;
2;Australia;South Australia;Wirrabara;;138.2666667;-33.0333333;6;
2;Australia;South Australia;Wirrega;;140.5833333;-36.2;6;
2;Australia;South Australia;Wirrulla;;134.5166667;-32.4;6;
2;Australia;South Australia;Wisanger;;137.4666667;-35.6333333;6;
2;Australia;South Australia;Wistow;;138.8666667;-35.1;6;
2;Australia;South Australia;Wokurna;;138.05;-33.7166667;6;
2;Australia;South Australia;Wolseley;;140.9;-36.3666667;6;
2;Australia;South Australia;Wongulla;;139.5666667;-34.7;6;
2;Australia;South Australia;Wood Point;;139.4;-35.2166667;6;
2;Australia;South Australia;Woodchester;;138.95;-35.2166667;6;
2;Australia;South Australia;Woodlands;;138.7833333;-35.35;6;
2;Australia;South Australia;Woods Flat;;139.6166667;-34.2166667;6;
2;Australia;South Australia;Woods Well;;139.5333333;-36;6;
2;Australia;South Australia;Woods;;138.5166667;-34.25;6;
2;Australia;South Australia;Woodside;;138.8666667;-34.95;6;
2;Australia;South Australia;Woodville;;138.55;-34.8833333;6;
2;Australia;South Australia;Wool Bay;;137.75;-35;6;
2;Australia;South Australia;Woomera;;136.8;-31.15;6;
2;Australia;South Australia;Wootoona;;135.0333333;-33;6;
2;Australia;South Australia;Worlds End Creek;;139.05;-33.7666667;6;
2;Australia;South Australia;Worrolong;;140.8666667;-37.8166667;6;
2;Australia;South Australia;Wudinna East;;135.6166667;-33.0166667;6;
2;Australia;South Australia;Wudinna;;135.4666667;-33.05;6;
2;Australia;South Australia;Wunkar;;140.3;-34.5;6;
2;Australia;South Australia;Wynarka;;139.7333333;-35.1333333;6;
2;Australia;South Australia;Yabmana;;136.7;-33.6666667;6;
2;Australia;South Australia;Yahl Paddock;;140.8;-37.8666667;6;
2;Australia;South Australia;Yallunda Flat;;135.8833333;-34.35;6;
2;Australia;South Australia;Yalpara;;138.9333333;-32.5333333;6;
2;Australia;South Australia;Yandiah;;138.3333333;-32.9666667;6;
2;Australia;South Australia;Yaninee;;135.2666667;-32.95;6;
2;Australia;South Australia;Yankalilla;;138.35;-35.4666667;6;
2;Australia;South Australia;Yantanabie;;134.6333333;-32.4833333;6;
2;Australia;South Australia;Yaralin;;139.9333333;-34.1333333;6;
2;Australia;South Australia;Yaroona;;138.6666667;-35.1333333;6;
2;Australia;South Australia;Yatina;;138.6666667;-32.9333333;6;
2;Australia;South Australia;Yeelanna;;135.7333333;-34.15;6;
2;Australia;South Australia;Yinkanie;;140.3166667;-34.3333333;6;
2;Australia;South Australia;Yongala Cowie;;137.55;-34.9166667;6;
2;Australia;South Australia;Yongala;;137.55;-34.9166667;6;
2;Australia;South Australia;Yorketown;;137.6;-35.0333333;6;
2;Australia;South Australia;Yumali;;139.7666667;-35.5166667;6;
2;Australia;South Australia;Yundi;;138.6333333;-35.3166667;6;
2;Australia;South Australia;Yunta;;139.55;-32.5833333;6;
2;Australia;South Australia;Yurgo;;140.05;-35.1833333;6;
