"Level";"Country";"State";County";"Place";"Longitude";"Latitude";"ZoomLevel";"Icon"
2;FRA;Bretagne;Côtes-d'Armor;;W2.818;N48.4929;9;
3;FRA;Bretagne;Côtes-d'Armor;Allineuc 22001;W2.8667;N48.3167;13;
3;FRA;Bretagne;Côtes-d'Armor;Andel 22002;W2.566;N48.4918;13;
3;FRA;Bretagne;Côtes-d'Armor;Aucaleuc 22003;W2.1291;N48.4563;13;
3;FRA;Bretagne;Côtes-d'Armor;Bégard 22004;W3.3024;N48.6310;13;
3;FRA;Bretagne;Côtes-d'Armor;Belle-Isle-en-Terre 22005;W3.397;N48.5462;13;
3;FRA;Bretagne;Côtes-d'Armor;Berhet 22006;W3.305;N48.6982;13;
3;FRA;Bretagne;Côtes-d'Armor;Binic 22007;W2.8266;N48.6024;13;
3;FRA;Bretagne;Côtes-d'Armor;Bobital 22008;W2.1017;N48.4159;13;
3;FRA;Bretagne;Côtes-d'Armor;Bonen 22010=22266;W3.3000;N48.2000;13;
3;FRA;Bretagne;Côtes-d'Armor;Boqueho 22011;W2.9667;N48.4833;13;
3;FRA;Bretagne;Côtes-d'Armor;Bourbriac 22013;W3.1833;N48.4833;13;
3;FRA;Bretagne;Côtes-d'Armor;Bourseul 22014;W2.2667;N48.4833;13;
3;FRA;Bretagne;Côtes-d'Armor;Bréhand 22015;W2.5833;N48.4000;13;
3;FRA;Bretagne;Côtes-d'Armor;Brélévenez 22017=22113;W3.4451;N48.7292;13;
3;FRA;Bretagne;Côtes-d'Armor;Brélidy 22018;W3.2167;N48.6667;13;
3;FRA;Bretagne;Côtes-d'Armor;Bringolo 22019;W3.0000;N48.5833;13;
3;FRA;Bretagne;Côtes-d'Armor;Broons 22020;W2.2667;N48.3167;13;
3;FRA;Bretagne;Côtes-d'Armor;Brusvily 22021;W2.1333;N48.3833;13;
3;FRA;Bretagne;Côtes-d'Armor;Buhulien 22022=22113;W3.4124;N48.7173;13;
3;FRA;Bretagne;Côtes-d'Armor;Bulat-Pestivien 22023;W3.3333;N48.4333;13;
3;FRA;Bretagne;Côtes-d'Armor;Calanhel 22024;W3.4833;N48.4417;13;
3;FRA;Bretagne;Côtes-d'Armor;Callac 22025;W3.4267;N48.4050;13;
3;FRA;Bretagne;Côtes-d'Armor;Calorguen 22026;W2.0167;N48.4000;13;
3;FRA;Bretagne;Côtes-d'Armor;Camlez 22028;W3.3000;N48.7833;13;
3;FRA;Bretagne;Côtes-d'Armor;Canihuel 22029;W3.1000;N48.3333;13;
3;FRA;Bretagne;Côtes-d'Armor;Caouënnec-Lanvézéac 22030;W3.5167;N48.3667;13;
3;FRA;Bretagne;Côtes-d'Armor;Carnoët 22031;W2.4833;N48.6167;13;
3;FRA;Bretagne;Côtes-d'Armor;Caulnes 22032;W2.1500;N48.2833;13;
3;FRA;Bretagne;Côtes-d'Armor;Caurel 22033;W3.0333;N48.2167;13;
3;FRA;Bretagne;Côtes-d'Armor;Cavan 22034;W3.3500;N48.6667;13;
3;FRA;Bretagne;Côtes-d'Armor;Châtelaudren 22038;W2.9833;N48.5333;13;
3;FRA;Bretagne;Côtes-d'Armor;Coadout 22040;W3.1833;N48.5167;13;
3;FRA;Bretagne;Côtes-d'Armor;Coatascorn 22041;W3.2500;N48.6667;13;
3;FRA;Bretagne;Côtes-d'Armor;Coatréven 22042;W3.3333;N48.7667;13;
3;FRA;Bretagne;Côtes-d'Armor;Coëtlogon 22043;W2.5333;N48.1333;13;
3;FRA;Bretagne;Côtes-d'Armor;Coëtmieux 22044;W2.6000;N48.5000;13;
3;FRA;Bretagne;Côtes-d'Armor;Cohiniac 22045;W2.9500;N48.4667;13;
3;FRA;Bretagne;Côtes-d'Armor;Collinée 22046;W2.5167;N48.3000;13;
3;FRA;Bretagne;Côtes-d'Armor;Corlay 22047;W3.0500;N48.3167;13;
3;FRA;Bretagne;Côtes-d'Armor;Corseul 22048;W2.1667;N48.4833;13;
3;FRA;Bretagne;Côtes-d'Armor;Créhen 22049;W2.2167;N48.5500;13;
3;FRA;Bretagne;Côtes-d'Armor;Dinan 22050;W2.2364;N48.4564;13;
3;FRA;Bretagne;Côtes-d'Armor;Dolo 22051;W2.3333;N48.3833;13;
3;FRA;Bretagne;Côtes-d'Armor;Duault 22052;W3.4333;N48.3667;13;
3;FRA;Bretagne;Côtes-d'Armor;Éréac 22053;W2.3473;N48.2754;13;
3;FRA;Bretagne;Côtes-d'Armor;Erquy 22054;W2.4667;N48.6333;13;
3;FRA;Bretagne;Côtes-d'Armor;Étables-sur-Mer 22055;W2.8333;N48.6167;13;
3;FRA;Bretagne;Côtes-d'Armor;Évran 22056;W1.9833;N48.3833;13;
3;FRA;Bretagne;Côtes-d'Armor;Fréhel 22179;W2.3500;N48.6167;13;
3;FRA;Bretagne;Côtes-d'Armor;Gausson 22060;W2.7500;N48.3000;13;
3;FRA;Bretagne;Côtes-d'Armor;Glomel 22061;W3.4000;N48.2167;13;
3;FRA;Bretagne;Côtes-d'Armor;Gomené 22062;W2.4833;N48.1667;13;
3;FRA;Bretagne;Côtes-d'Armor;Gommenec'h 22063;W3.0500;N48.6500;13;
3;FRA;Bretagne;Côtes-d'Armor;Gouarec 22064;W3.1833;N48.2167;13;
3;FRA;Bretagne;Côtes-d'Armor;Goudelin 22065;W3.0167;N48.6000;13;
3;FRA;Bretagne;Côtes-d'Armor;Grâce-Uzel 22068;W2.8000;N48.2500;13;
3;FRA;Bretagne;Côtes-d'Armor;Grâces 22067;W3.1833;N48.5667;13;
3;FRA;Bretagne;Côtes-d'Armor;Guenroc 22069;W2.0833;N48.3167;13;
3;FRA;Bretagne;Côtes-d'Armor;Guingamp 22070;W3.1500;N48.5500;13;
3;FRA;Bretagne;Côtes-d'Armor;Guitté 22071;W2.1000;N48.3000;13;
3;FRA;Bretagne;Côtes-d'Armor;Gurunhuel 22072;W3.3000;N48.5167;13;
3;FRA;Bretagne;Côtes-d'Armor;Hémonstoir 22075;W2.8333;N48.1667;13;
3;FRA;Bretagne;Côtes-d'Armor;Hénanbihen 22076;W2.3667;N48.5667;13;
3;FRA;Bretagne;Côtes-d'Armor;Hénansal 22077;W2.4333;N48.5500;13;
3;FRA;Bretagne;Côtes-d'Armor;Hengoat 22078;W3.2000;N48.7500;13;
3;FRA;Bretagne;Côtes-d'Armor;Hénon 22079;W2.7000;N48.3833;13;
3;FRA;Bretagne;Côtes-d'Armor;Hillion 22081;W2.6833;N48.5167;13;
3;FRA;Bretagne;Côtes-d'Armor;Île-de-Bréhat 22016;W2.9833;N48.8333;13;
3;FRA;Bretagne;Côtes-d'Armor;Illifaut 22083;W2.3500;N48.1500;13;
3;FRA;Bretagne;Côtes-d'Armor;Jugon-les-Lacs 22084;W3.1833;N48.8333;13;
3;FRA;Bretagne;Côtes-d'Armor;Kerbors 22085;W2.9333;N48.1333;13;
3;FRA;Bretagne;Côtes-d'Armor;Kerfot 22086;W3.0333;N48.7333;13;
3;FRA;Bretagne;Côtes-d'Armor;Kergrist-Moëlou 22087;W3.3167;N48.3167;13;
3;FRA;Bretagne;Côtes-d'Armor;Kerien 22088;W3.2167;N48.3833;13;
3;FRA;Bretagne;Côtes-d'Armor;Kerity 22089=22162;W3.0211;N48.7686;13;
3;FRA;Bretagne;Côtes-d'Armor;Kermaria-Sulard 22090;W3.3667;N48.7667;13;
3;FRA;Bretagne;Côtes-d'Armor;Kermoroc'h 22091;W3.2000;N48.6167;13;
3;FRA;Bretagne;Côtes-d'Armor;Kerpert 22092;W3.1333;N48.3833;13;
3;FRA;Bretagne;Côtes-d'Armor;L'Hermitage-Lorge 22080;W2.8333;N48.3333;13;
3;FRA;Bretagne;Côtes-d'Armor;La Bouillie 22012;W2.4333;N48.5667;13;
3;FRA;Bretagne;Côtes-d'Armor;La Chapelle-Blanche 22036;W2.1500;N48.2667;13;
3;FRA;Bretagne;Côtes-d'Armor;La Chapelle-Neuve 22037;W3.4218;N48.4618;13;
3;FRA;Bretagne;Côtes-d'Armor;La Chèze 22039;W2.6500;N48.1333;13;
3;FRA;Bretagne;Côtes-d'Armor;La Ferrière 22058;W2.6000;N48.1500;13;
3;FRA;Bretagne;Côtes-d'Armor;La Harmoye 22073;W2.9667;N48.3333;13;
3;FRA;Bretagne;Côtes-d'Armor;La Landec 22097;W2.1833;N48.4333;13;
3;FRA;Bretagne;Côtes-d'Armor;La Malhoure 22140;W2.5000;N48.4000;13;
3;FRA;Bretagne;Côtes-d'Armor;La Méaugon 22144;W2.8333;N48.5000;13;
3;FRA;Bretagne;Côtes-d'Armor;La Motte 22155;W2.7500;N48.2333;13;
3;FRA;Bretagne;Côtes-d'Armor;La Poterie 22252=22093;W2.4667;N48.4667;13;
3;FRA;Bretagne;Côtes-d'Armor;La Prénessaye 22255;W2.6500;N48.1833;13;
3;FRA;Bretagne;Côtes-d'Armor;La Roche-Derrien 22264;W3.2667;N48.7500;13;
3;FRA;Bretagne;Côtes-d'Armor;La Vicomté-sur-Rance 22385;W1.9833;N48.5000;13;
3;FRA;Bretagne;Côtes-d'Armor;Lamballe 22093;W2.5167;N48.4667;13;
3;FRA;Bretagne;Côtes-d'Armor;Lancieux 22094;W2.1500;N48.6167;13;
3;FRA;Bretagne;Côtes-d'Armor;Landebaëron 22095;W3.2167;N48.6333;13;
3;FRA;Bretagne;Côtes-d'Armor;Landébia 22096;W2.3333;N48.5167;13;
3;FRA;Bretagne;Côtes-d'Armor;Landéhen 22098;W2.5333;N48.4333;13;
3;FRA;Bretagne;Côtes-d'Armor;Lanfains 22099;W2.9167;N48.3500;13;
3;FRA;Bretagne;Côtes-d'Armor;Langast 22100;W2.6667;N48.2833;13;
3;FRA;Bretagne;Côtes-d'Armor;Langoat 22101;W3.2833;N48.7500;13;
3;FRA;Bretagne;Côtes-d'Armor;Langourla 22102;W2.4167;N48.2833;13;
3;FRA;Bretagne;Côtes-d'Armor;Langrolay-sur-Rance 22103;W2.0000;N48.5500;13;
3;FRA;Bretagne;Côtes-d'Armor;Languédias 22104;W2.2167;N48.3833;13;
3;FRA;Bretagne;Côtes-d'Armor;Languenan 22105;W2.1333;N48.5167;13;
3;FRA;Bretagne;Côtes-d'Armor;Langueux 22106;W2.7167;N48.5000;13;
3;FRA;Bretagne;Côtes-d'Armor;Laniscat 22107;W3.1167;N48.2333;13;
3;FRA;Bretagne;Côtes-d'Armor;Lanleff 22108;W3.0500;N48.7000;13;
3;FRA;Bretagne;Côtes-d'Armor;Lanloup 22109;W2.9667;N48.7167;13;
3;FRA;Bretagne;Côtes-d'Armor;Lanmérin 22110;W3.3500;N48.7333;13;
3;FRA;Bretagne;Côtes-d'Armor;Lanmodez 22111;W3.1000;N48.8500;13;
3;FRA;Bretagne;Côtes-d'Armor;Lannebert 22112;W3.0000;N48.6667;13;
3;FRA;Bretagne;Côtes-d'Armor;Lannion 22113;W3.4667;N48.7333;13;
3;FRA;Bretagne;Côtes-d'Armor;Lanrelas 22114;W2.3000;N48.2500;13;
3;FRA;Bretagne;Côtes-d'Armor;Lanrivain 22115;W3.2167;N48.3500;13;
3;FRA;Bretagne;Côtes-d'Armor;Lanrodec 22116;W3.0333;N48.5167;13;
3;FRA;Bretagne;Côtes-d'Armor;Lantic 22117;W2.8833;N48.6000;13;
3;FRA;Bretagne;Côtes-d'Armor;Lanvallay 22118;W2.0333;N48.4500;13;
3;FRA;Bretagne;Côtes-d'Armor;Lanvellec 22119;W3.5333;N48.6167;13;
3;FRA;Bretagne;Côtes-d'Armor;Lanvézéac 22120=22030;W3.3500;N48.7167;13;
3;FRA;Bretagne;Côtes-d'Armor;Lanvollon 22121;W2.9833;N48.6333;13;
3;FRA;Bretagne;Côtes-d'Armor;Laurenan 22122;W2.5333;N48.2000;13;
3;FRA;Bretagne;Côtes-d'Armor;Le Bodéo 22009;W2.9333;N48.3167;13;
3;FRA;Bretagne;Côtes-d'Armor;Le Cambout 22027;W2.6167;N48.0667;13;
3;FRA;Bretagne;Côtes-d'Armor;Le Faouët 22057;W3.0702;N48.6864;13;
3;FRA;Bretagne;Côtes-d'Armor;Le Foeil 22059;W2.9167;N48.4333;13;
3;FRA;Bretagne;Côtes-d'Armor;Le Gouray 22066;W2.5000;N48.3333;13;
3;FRA;Bretagne;Côtes-d'Armor;Le Haut-Corlay 22074;W3.0500;N48.3167;13;
3;FRA;Bretagne;Côtes-d'Armor;Le Hinglé 22082;W2.0667;N48.3833;13;
3;FRA;Bretagne;Côtes-d'Armor;Le Leslay 22126;W2.9667;N48.4333;13;
3;FRA;Bretagne;Côtes-d'Armor;Le Merzer 22150;W3.0667;N48.5833;13;
3;FRA;Bretagne;Côtes-d'Armor;Le Moustoir 22157;W3.5000;N48.2667;13;
3;FRA;Bretagne;Côtes-d'Armor;Le Quillio 22260;W2.8833;N48.2333;13;
3;FRA;Bretagne;Côtes-d'Armor;Le Quiou 22263;W3.9333;N48.3000;13;
3;FRA;Bretagne;Côtes-d'Armor;Le Vieux-Bourg 22386;W2.0000;N48.3500;13;
3;FRA;Bretagne;Côtes-d'Armor;Le Vieux-Marché 22387;W3.0000;N48.3833;13;
3;FRA;Bretagne;Côtes-d'Armor;Léhon 22123;W2.0500;N48.4333;13;
3;FRA;Bretagne;Côtes-d'Armor;Les Champs-Géraux 22035;W1.9667;N48.4167;13;
3;FRA;Bretagne;Côtes-d'Armor;Lescouët-Gouarec 22124;W3.2500;N48.1667;13;
3;FRA;Bretagne;Côtes-d'Armor;Lescouët-Jugon 22125=22084;W2.3167;N48.4167;13;
3;FRA;Bretagne;Côtes-d'Armor;Lézardrieux 22127;W3.1000;N48.7667;13;
3;FRA;Bretagne;Côtes-d'Armor;Loc-Envel 22129;W3.4000;N48.5167;13;
3;FRA;Bretagne;Côtes-d'Armor;Locarn 22128;W3.4167;N48.3167;13;
3;FRA;Bretagne;Côtes-d'Armor;Loguivy-lès-Lannion 22130=22113;W3.5667;N48.7167;13;
3;FRA;Bretagne;Côtes-d'Armor;Loguivy-Plougras 22131;W3.0667;N48.8167;13;
3;FRA;Bretagne;Côtes-d'Armor;Lohuec 22132;W3.5167;N48.4667;13;
3;FRA;Bretagne;Côtes-d'Armor;Loscouët-sur-Meu 22133;W2.2333;N48.1833;13;
3;FRA;Bretagne;Côtes-d'Armor;Louannec 22134;W3.4167;N48.8000;13;
3;FRA;Bretagne;Côtes-d'Armor;Louargat 22135;W3.3333;N48.5667;13;
3;FRA;Bretagne;Côtes-d'Armor;Loudéac 22136;W2.7500;N48.1667;13;
3;FRA;Bretagne;Côtes-d'Armor;Maël-Carhaix 22137;W3.4167;N48.2833;13;
3;FRA;Bretagne;Côtes-d'Armor;Maël-Pestivien 22138;W3.3000;N48.3833;13;
3;FRA;Bretagne;Côtes-d'Armor;Magoar 22139;W3.1833;N48.4000;13;
3;FRA;Bretagne;Côtes-d'Armor;Mantallot 22141;W3.3000;N48.7000;13;
3;FRA;Bretagne;Côtes-d'Armor;Maroué 22142=22093;W2.5333;N48.4333;13;
3;FRA;Bretagne;Côtes-d'Armor;Matignon 22143;W2.3000;N48.6000;13;
3;FRA;Bretagne;Côtes-d'Armor;Mégrit 22145;W2.2500;N48.3667;13;
3;FRA;Bretagne;Côtes-d'Armor;Mellionnec 22146;W3.3000;N48.1667;13;
3;FRA;Bretagne;Côtes-d'Armor;Merdrignac 22147;W2.4167;N48.2000;13;
3;FRA;Bretagne;Côtes-d'Armor;Mérillac 22148;W2.4000;N48.2500;13;
3;FRA;Bretagne;Côtes-d'Armor;Merléac 22149;W2.9000;N48.2833;13;
3;FRA;Bretagne;Côtes-d'Armor;Meslin 22151;W2.5667;N48.4500;13;
3;FRA;Bretagne;Côtes-d'Armor;Minihy-Tréguier 22152;W3.2333;N48.7833;13;
3;FRA;Bretagne;Côtes-d'Armor;Moncontour 22153;W2.6500;N48.3500;13;
3;FRA;Bretagne;Côtes-d'Armor;Morieux 22154;W2.6000;N48.5167;13;
3;FRA;Bretagne;Côtes-d'Armor;Moustéru 22156;W3.2333;N48.5167;13;
3;FRA;Bretagne;Côtes-d'Armor;Mûr-de-Bretagne 22158;W2.9833;N48.2000;13;
3;FRA;Bretagne;Côtes-d'Armor;Notre-Dame-du-Guildo 22159=22282;W2.2167;N48.5833;13;
3;FRA;Bretagne;Côtes-d'Armor;Noyal 22160;W2.4833;N48.4500;13;
3;FRA;Bretagne;Côtes-d'Armor;Pabu 22161;W3.1333;N48.5833;13;
3;FRA;Bretagne;Côtes-d'Armor;Paimpol 22162;W3.0500;N48.7667;13;
3;FRA;Bretagne;Côtes-d'Armor;Paule 22163;W3.4500;N48.2333;13;
3;FRA;Bretagne;Côtes-d'Armor;Pédernec 22164;W3.2833;N48.6000;13;
3;FRA;Bretagne;Côtes-d'Armor;Penguily 22165;W2.5000;N48.3667;13;
3;FRA;Bretagne;Côtes-d'Armor;Penvénan 22166;W3.3667;N48.8333;13;
3;FRA;Bretagne;Côtes-d'Armor;Perret 22167;W3.1500;N48.1833;13;
3;FRA;Bretagne;Côtes-d'Armor;Perros-Guirec 22168;W3.4500;N48.8167;13;
3;FRA;Bretagne;Côtes-d'Armor;Peumerit-Quintin 22169;W3.2667;N48.3667;13;
3;FRA;Bretagne;Côtes-d'Armor;Plaine-Haute 22170;W2.8500;N48.4500;13;
3;FRA;Bretagne;Côtes-d'Armor;Plaintel 22171;W2.8167;N48.4000;13;
3;FRA;Bretagne;Côtes-d'Armor;Plancoët 22172;W2.2500;N48.5333;13;
3;FRA;Bretagne;Côtes-d'Armor;Planguenoual 22173;W2.5833;N48.5333;13;
3;FRA;Bretagne;Côtes-d'Armor;Pléboulle 22174;W2.3333;N48.6167;13;
3;FRA;Bretagne;Côtes-d'Armor;Plédéliac 22175;W2.3833;N48.4500;13;
3;FRA;Bretagne;Côtes-d'Armor;Plédran 22176;W2.7500;N48.4500;13;
3;FRA;Bretagne;Côtes-d'Armor;Pléguien 22177;W2.9500;N48.6333;13;
3;FRA;Bretagne;Côtes-d'Armor;Pléhédel 22178;W3.0000;N48.7000;13;
3;FRA;Bretagne;Côtes-d'Armor;Plélan-le-Petit 22180;W2.2333;N48.4333;13;
3;FRA;Bretagne;Côtes-d'Armor;Plélauff 22181;W3.2167;N48.2000;13;
3;FRA;Bretagne;Côtes-d'Armor;Plélo 22182;W2.9500;N48.5667;13;
3;FRA;Bretagne;Côtes-d'Armor;Plémet 22183;W2.6000;N48.1833;13;
3;FRA;Bretagne;Côtes-d'Armor;Plémy 22184;W2.6833;N48.3333;13;
3;FRA;Bretagne;Côtes-d'Armor;Plénée-Jugon 22185;W2.4000;N48.3667;13;
3;FRA;Bretagne;Côtes-d'Armor;Pléneuf-Val-André 22186;W2.5500;N48.6000;13;
3;FRA;Bretagne;Côtes-d'Armor;Plérin 22187;W2.7833;N48.5333;13;
3;FRA;Bretagne;Côtes-d'Armor;Plerneuf 22188;W2.8833;N48.5167;13;
3;FRA;Bretagne;Côtes-d'Armor;Plésidy 22189;W3.1167;N48.4500;13;
3;FRA;Bretagne;Côtes-d'Armor;Pleslin-Trigavou 22190;W2.0500;N48.5333;13;
3;FRA;Bretagne;Côtes-d'Armor;Plessala 22191;W2.6333;N48.2833;13;
3;FRA;Bretagne;Côtes-d'Armor;Plessix-Balisson 22192;W2.1500;N48.5333;13;
3;FRA;Bretagne;Côtes-d'Armor;Plestan 22193;W2.4500;N48.4167;13;
3;FRA;Bretagne;Côtes-d'Armor;Plestin-les-Grèves 22194;W3.6333;N48.6500;13;
3;FRA;Bretagne;Côtes-d'Armor;Pleubian 22195;W3.1333;N48.8500;13;
3;FRA;Bretagne;Côtes-d'Armor;Pleudaniel 22196;W3.1333;N48.7667;13;
3;FRA;Bretagne;Côtes-d'Armor;Pleudihen-sur-Rance 22197;W1.9500;N48.5000;13;
3;FRA;Bretagne;Côtes-d'Armor;Pleumeur-Bodou 22198;W3.5167;N48.7667;13;
3;FRA;Bretagne;Côtes-d'Armor;Pleumeur-Gautier 22199;W3.1667;N48.8000;13;
3;FRA;Bretagne;Côtes-d'Armor;Pléven 22200;W2.3167;N48.4833;13;
3;FRA;Bretagne;Côtes-d'Armor;Plévenon 22201=22179;W2.3333;N48.6667;13;
3;FRA;Bretagne;Côtes-d'Armor;Plévin 22202;W3.5000;N48.2167;13;
3;FRA;Bretagne;Côtes-d'Armor;Ploeuc-sur-Lié 22203;W2.7500;N48.3333;13;
3;FRA;Bretagne;Côtes-d'Armor;Ploëzal 22204;W3.2000;N48.7167;13;
3;FRA;Bretagne;Côtes-d'Armor;Plorec-sur-Arguenon 22205;W2.3167;N48.4833;13;
3;FRA;Bretagne;Côtes-d'Armor;Plouagat 22206;W3.0000;N48.5333;13;
3;FRA;Bretagne;Côtes-d'Armor;Plouaret 22207;W3.4667;N48.6167;13;
3;FRA;Bretagne;Côtes-d'Armor;Plouasne 22208;W2.0000;N48.3000;13;
3;FRA;Bretagne;Côtes-d'Armor;Ploubalay 22209;W2.1500;N48.5833;13;
3;FRA;Bretagne;Côtes-d'Armor;Ploubazlanec 22210;W3.0333;N48.8000;13;
3;FRA;Bretagne;Côtes-d'Armor;Ploubezre 22211;W3.4500;N48.7000;13;
3;FRA;Bretagne;Côtes-d'Armor;Plouëc-du-Trieux 22212;W3.1833;N48.6667;13;
3;FRA;Bretagne;Côtes-d'Armor;Plouër-sur-Rance 22213;W2.0000;N48.5333;13;
3;FRA;Bretagne;Côtes-d'Armor;Plouézec 22214;W2.9833;N48.7500;13;
3;FRA;Bretagne;Côtes-d'Armor;Ploufragan 22215;W2.7833;N48.4833;13;
3;FRA;Bretagne;Côtes-d'Armor;Plougonver 22216;W3.3833;N48.4833;13;
3;FRA;Bretagne;Côtes-d'Armor;Plougras 22217;W3.5667;N48.5167;13;
3;FRA;Bretagne;Côtes-d'Armor;Plougrescant 22218;W3.2333;N48.8500;13;
3;FRA;Bretagne;Côtes-d'Armor;Plouguenast 22219;W2.7167;N48.2833;13;
3;FRA;Bretagne;Côtes-d'Armor;Plouguernével 22220;W3.2500;N48.2500;13;
3;FRA;Bretagne;Côtes-d'Armor;Plouguiel 22221;W3.2333;N48.8000;13;
3;FRA;Bretagne;Côtes-d'Armor;Plouha 22222;W2.9333;N48.6833;13;
3;FRA;Bretagne;Côtes-d'Armor;Plouisy 22223;W3.2000;N48.5833;13;
3;FRA;Bretagne;Côtes-d'Armor;Ploulec'h 22224;W3.5000;N48.7167;13;
3;FRA;Bretagne;Côtes-d'Armor;Ploumagoar 22225;W3.1333;N48.5500;13;
3;FRA;Bretagne;Côtes-d'Armor;Ploumilliau 22226;W3.5167;N48.6833;13;
3;FRA;Bretagne;Côtes-d'Armor;Plounérin 22227;W3.5333;N48.5667;13;
3;FRA;Bretagne;Côtes-d'Armor;Plounévez-Moëdec 22228;W3.4500;N48.5667;13;
3;FRA;Bretagne;Côtes-d'Armor;Plounévez-Quintin 22229;W3.2333;N48.2833;13;
3;FRA;Bretagne;Côtes-d'Armor;Plounez 22230=22162;W3.0732;N48.7707;13;
3;FRA;Bretagne;Côtes-d'Armor;Plourac'h 22231;W3.5500;N48.4167;13;
3;FRA;Bretagne;Côtes-d'Armor;Plourhan 22232;W2.8667;N48.6167;13;
3;FRA;Bretagne;Côtes-d'Armor;Plourivo 22233;W3.0667;N48.7500;13;
3;FRA;Bretagne;Côtes-d'Armor;Plouvara 22234;W2.9167;N48.5167;13;
3;FRA;Bretagne;Côtes-d'Armor;Plouzélambre 22235;W3.5333;N48.6500;13;
3;FRA;Bretagne;Côtes-d'Armor;Pludual 22236;W2.9833;N48.6667;13;
3;FRA;Bretagne;Côtes-d'Armor;Pluduno 22237;W2.2833;N48.5333;13;
3;FRA;Bretagne;Côtes-d'Armor;Plufur 22238;W3.5667;N48.6000;13;
3;FRA;Bretagne;Côtes-d'Armor;Plumaudan 22239;W2.1333;N48.3500;13;
3;FRA;Bretagne;Côtes-d'Armor;Plumaugat 22240;W2.2500;N48.2500;13;
3;FRA;Bretagne;Côtes-d'Armor;Plumieux 22241;W2.6000;N48.1000;13;
3;FRA;Bretagne;Côtes-d'Armor;Plurien 22242;W2.4000;N48.6333;13;
3;FRA;Bretagne;Côtes-d'Armor;Plusquellec 22243;W3.4833;N48.3833;13;
3;FRA;Bretagne;Côtes-d'Armor;Plussulien 22244;W3.0833;N48.2833;13;
3;FRA;Bretagne;Côtes-d'Armor;Pluzunet 22245;W3.3667;N48.6500;13;
3;FRA;Bretagne;Côtes-d'Armor;Pommeret 22246;W2.6333;N48.4667;13;
3;FRA;Bretagne;Côtes-d'Armor;Pommerit-Jaudy 22247;W3.2333;N48.7333;13;
3;FRA;Bretagne;Côtes-d'Armor;Pommerit-le-Vicomte 22248;W3.0833;N48.6167;13;
3;FRA;Bretagne;Côtes-d'Armor;Pont-Melvez 22249;W3.3167;N48.4500;13;
3;FRA;Bretagne;Côtes-d'Armor;Pontrieux 22250;W3.1667;N48.7000;13;
3;FRA;Bretagne;Côtes-d'Armor;Pordic 22251;W2.8167;N48.5833;13;
3;FRA;Bretagne;Côtes-d'Armor;Pouldouran 22253;W3.2000;N48.7667;13;
3;FRA;Bretagne;Côtes-d'Armor;Prat 22254;W3.3000;N48.6833;13;
3;FRA;Bretagne;Côtes-d'Armor;Quemper-Guézennec 22256;W3.1000;N48.7000;13;
3;FRA;Bretagne;Côtes-d'Armor;Quemperven 22257;W3.3167;N48.7333;13;
3;FRA;Bretagne;Côtes-d'Armor;Quessoy 22258;W2.6667;N48.4167;13;
3;FRA;Bretagne;Côtes-d'Armor;Quévert 22259;W2.0833;N48.4667;13;
3;FRA;Bretagne;Côtes-d'Armor;Quintenic 22261;W2.4333;N48.5167;13;
3;FRA;Bretagne;Côtes-d'Armor;Quintin 22262;W2.9167;N48.4000;13;
3;FRA;Bretagne;Côtes-d'Armor;Rospez 22265;W3.3833;N48.7333;13;
3;FRA;Bretagne;Côtes-d'Armor;Rostrenen 22266;W3.3167;N48.2333;13;
3;FRA;Bretagne;Côtes-d'Armor;Rouillac 22267;W2.3667;N48.3167;13;
3;FRA;Bretagne;Côtes-d'Armor;Ruca 22268;W2.3333;N48.5667;13;
3;FRA;Bretagne;Côtes-d'Armor;Runan 22269;W3.2000;N48.7000;13;
3;FRA;Bretagne;Côtes-d'Armor;Saint-Aaron 22270=22093;W2.4833;N48.5167;13;
3;FRA;Bretagne;Côtes-d'Armor;Saint-Adrien 22271;W3.1333;N48.4833;13;
3;FRA;Bretagne;Côtes-d'Armor;Saint-Agathon 22272;W3.1000;N48.5667;13;
3;FRA;Bretagne;Côtes-d'Armor;Saint-Alban 22273;W2.5500;N48.5667;13;
3;FRA;Bretagne;Côtes-d'Armor;Saint-André-des-Eaux 22274;W2.0167;N48.3667;13;
3;FRA;Bretagne;Côtes-d'Armor;Saint-Barnabé 22275;W2.7000;N48.1333;13;
3;FRA;Bretagne;Côtes-d'Armor;Saint-Bihy 22276;W2.9667;N48.3833;13;
3;FRA;Bretagne;Côtes-d'Armor;Saint-Brandan 22277;W2.8667;N48.3833;13;
3;FRA;Bretagne;Côtes-d'Armor;Saint-Brieuc 22278;W2.7833;N48.5167;13;
3;FRA;Bretagne;Côtes-d'Armor;Saint-Caradec 22279;W2.8500;N48.2000;13;
3;FRA;Bretagne;Côtes-d'Armor;Saint-Carné 22280;W2.0667;N48.4167;13;
3;FRA;Bretagne;Côtes-d'Armor;Saint-Carreuc 22281;W2.7333;N48.4000;13;
3;FRA;Bretagne;Côtes-d'Armor;Saint-Cast-le-Guildo 22282;W2.2667;N48.6333;13;
3;FRA;Bretagne;Côtes-d'Armor;Saint-Clet 22283;W3.1333;N48.6667;13;
3;FRA;Bretagne;Côtes-d'Armor;Saint-Connan 22284;W3.0667;N48.4167;13;
3;FRA;Bretagne;Côtes-d'Armor;Saint-Connec 22285;W2.9167;N48.1833;13;
3;FRA;Bretagne;Côtes-d'Armor;Saint-Denoual 22286;W2.4000;N48.5333;13;
3;FRA;Bretagne;Côtes-d'Armor;Saint-Donan 22287;W2.8833;N48.4667;13;
3;FRA;Bretagne;Côtes-d'Armor;Saint-Étienne-du-Gué-de-l'Isle 22288;W3.2833;N48.5667;13;
3;FRA;Bretagne;Côtes-d'Armor;Saint-Fiacre 22289;W2.6500;N48.1000;13;
3;FRA;Bretagne;Côtes-d'Armor;Saint-Gelven 22290;W3.0667;N48.4667;13;
3;FRA;Bretagne;Côtes-d'Armor;Saint-Gildas 22291;W3.1000;N48.2333;13;
3;FRA;Bretagne;Côtes-d'Armor;Saint-Gilles-du-Mené 22292;W3.0000;N48.4167;13;
3;FRA;Bretagne;Côtes-d'Armor;Saint-Gilles-les-Bois 22293;W2.5500;N48.2500;13;
3;FRA;Bretagne;Côtes-d'Armor;Saint-Gilles-Pligeaux 22294;W3.1000;N48.6500;13;
3;FRA;Bretagne;Côtes-d'Armor;Saint-Gilles-Vieux-Marché 22295;W2.9667;N48.2333;13;
3;FRA;Bretagne;Côtes-d'Armor;Saint-Glen 22296;W2.5167;N48.3667;13;
3;FRA;Bretagne;Côtes-d'Armor;Saint-Gouéno 22297;W2.5833;N48.2667;13;
3;FRA;Bretagne;Côtes-d'Armor;Saint-Guen 22298;W2.9333;N48.2167;13;
3;FRA;Bretagne;Côtes-d'Armor;Saint-Hélen 22299;W1.9667;N48.4667;13;
3;FRA;Bretagne;Côtes-d'Armor;Saint-Hervé 22300;W2.8333;N48.2833;13;
3;FRA;Bretagne;Côtes-d'Armor;Saint-Igeaux 22334;W3.1000;N48.2667;13;
3;FRA;Bretagne;Côtes-d'Armor;Saint-Igneuc 22301=22084;W2.3500;N48.4167;13;
3;FRA;Bretagne;Côtes-d'Armor;Saint-Jacut-de-la-Mer 22302;W2.1833;N48.6000;13;
3;FRA;Bretagne;Côtes-d'Armor;Saint-Jacut-du-Mené 22303;W2.4833;N48.2833;13;
3;FRA;Bretagne;Côtes-d'Armor;Saint-Jean-Kerdaniel 22304;W3.0167;N48.5667;13;
3;FRA;Bretagne;Côtes-d'Armor;Saint-Jouan-de-l'Isle 22305;W2.1667;N48.2667;13;
3;FRA;Bretagne;Côtes-d'Armor;Saint-Judoce 22306;W1.9500;N48.3667;13;
3;FRA;Bretagne;Côtes-d'Armor;Saint-Julien 22307;W2.8167;N48.4500;13;
3;FRA;Bretagne;Côtes-d'Armor;Saint-Juvat 22308;W2.0500;N48.3500;13;
3;FRA;Bretagne;Côtes-d'Armor;Saint-Launeuc 22309;W2.3833;N48.2333;13;
3;FRA;Bretagne;Côtes-d'Armor;Saint-Laurent 22310;W3.2167;N48.6167;13;
3;FRA;Bretagne;Côtes-d'Armor;Saint-Lormel 22311;W2.2333;N48.5500;13;
3;FRA;Bretagne;Côtes-d'Armor;Saint-Maden 22312;W2.0833;N48.3333;13;
3;FRA;Bretagne;Côtes-d'Armor;Saint-Martin-des-Prés 22313;W2.9500;N48.3000;13;
3;FRA;Bretagne;Côtes-d'Armor;Saint-Maudan 22314;W2.7667;N48.1167;13;
3;FRA;Bretagne;Côtes-d'Armor;Saint-Maudez 22315;W2.1833;N48.4500;13;
3;FRA;Bretagne;Côtes-d'Armor;Saint-Mayeux 22316;W3.0000;N48.2500;13;
3;FRA;Bretagne;Côtes-d'Armor;Saint-Méloir-des-Bois 22317;W2.2333;N48.4500;13;
3;FRA;Bretagne;Côtes-d'Armor;Saint-Michel-de-Plélan 22318;W2.2167;N48.4667;13;
3;FRA;Bretagne;Côtes-d'Armor;Saint-Michel-en-Grève 22319;W3.5667;N48.6833;13;
3;FRA;Bretagne;Côtes-d'Armor;Saint-Nicodème 22320;W3.3333;N48.3333;13;
3;FRA;Bretagne;Côtes-d'Armor;Saint-Nicolas-du-Pélem 22321;W3.1667;N48.3167;13;
3;FRA;Bretagne;Côtes-d'Armor;Saint-Péver 22322;W3.1000;N48.4833;13;
3;FRA;Bretagne;Côtes-d'Armor;Saint-Pôtan 22323;W2.2833;N48.5500;13;
3;FRA;Bretagne;Côtes-d'Armor;Saint-Quay-Perros 22324;W3.4500;N48.7833;13;
3;FRA;Bretagne;Côtes-d'Armor;Saint-Quay-Portrieux 22325;W2.8333;N48.6500;13;
3;FRA;Bretagne;Côtes-d'Armor;Saint-Rieul 22326;W2.4167;N48.4500;13;
3;FRA;Bretagne;Côtes-d'Armor;Saint-Samson-sur-Rance 22327;W2.0333;N48.5000;13;
3;FRA;Bretagne;Côtes-d'Armor;Saint-Servais 22328;W3.3833;N48.3833;13;
3;FRA;Bretagne;Côtes-d'Armor;Saint-Solen 22329=22118;W1.9833;N48.4500;13;
3;FRA;Bretagne;Côtes-d'Armor;Saint-Thélo 22330;W2.8500;N48.2333;13;
3;FRA;Bretagne;Côtes-d'Armor;Saint-Trimoël 22332;W2.5500;N48.3833;13;
3;FRA;Bretagne;Côtes-d'Armor;Saint-Vran 22333;W2.4333;N48.2333;13;
3;FRA;Bretagne;Côtes-d'Armor;Sainte-Tréphine 22331;W3.1500;N48.2667;13;
3;FRA;Bretagne;Côtes-d'Armor;Senven-Léhart 22335;W3.0667;N48.4333;13;
3;FRA;Bretagne;Côtes-d'Armor;Servel 22336=22113;W3.4926;N48.7456;13;
3;FRA;Bretagne;Côtes-d'Armor;Sévignac 22337;W2.3500;N48.3333;13;
3;FRA;Bretagne;Côtes-d'Armor;Squiffiec 22338;W3.1500;N48.6333;13;
3;FRA;Bretagne;Côtes-d'Armor;Taden 22339;W2.0167;N48.4833;13;
3;FRA;Bretagne;Côtes-d'Armor;Tonquédec 22340;W3.4000;N48.6667;13;
3;FRA;Bretagne;Côtes-d'Armor;Tramain 22341;W2.4000;N48.4000;13;
3;FRA;Bretagne;Côtes-d'Armor;Trébédan 22342;W2.1667;N48.4000;13;
3;FRA;Bretagne;Côtes-d'Armor;Trébeurden 22343;W3.5667;N48.7667;13;
3;FRA;Bretagne;Côtes-d'Armor;Trébrivan 22344;W3.4833;N48.3167;13;
3;FRA;Bretagne;Côtes-d'Armor;Trébry 22345;W2.5500;N48.3500;13;
3;FRA;Bretagne;Côtes-d'Armor;Trédaniel 22346;W2.6167;N48.3667;13;
3;FRA;Bretagne;Côtes-d'Armor;Trédarzec 22347;W3.2000;N48.7833;13;
3;FRA;Bretagne;Côtes-d'Armor;Trédias 22348;W2.2333;N48.3500;13;
3;FRA;Bretagne;Côtes-d'Armor;Trédrez-Locquémeau 22349;W3.5667;N48.7000;13;
3;FRA;Bretagne;Côtes-d'Armor;Tréduder 22350;W3.5667;N48.6500;13;
3;FRA;Bretagne;Côtes-d'Armor;Treffrin 22351;W3.5167;N48.3000;13;
3;FRA;Bretagne;Côtes-d'Armor;Tréfumel 22352;W2.0333;N48.3333;13;
3;FRA;Bretagne;Côtes-d'Armor;Trégastel 22353;W3.4833;N48.8000;13;
3;FRA;Bretagne;Côtes-d'Armor;Tréglamus 22354;W3.2833;N48.5500;13;
3;FRA;Bretagne;Côtes-d'Armor;Trégomar 22355=22093;W2.4333;N48.4667;13;
3;FRA;Bretagne;Côtes-d'Armor;Trégomeur 22356;W2.8833;N48.5667;13;
3;FRA;Bretagne;Côtes-d'Armor;Trégon 22357;W2.1833;N48.5667;13;
3;FRA;Bretagne;Côtes-d'Armor;Trégonneau 22358;W3.1667;N48.6167;13;
3;FRA;Bretagne;Côtes-d'Armor;Trégrom 22359;W3.4000;N48.6000;13;
3;FRA;Bretagne;Côtes-d'Armor;Trégueux 22360;W2.7333;N48.4833;13;
3;FRA;Bretagne;Côtes-d'Armor;Tréguidel 22361;W2.9333;N48.6000;13;
3;FRA;Bretagne;Côtes-d'Armor;Tréguier 22362;W3.2333;N48.7833;13;
3;FRA;Bretagne;Côtes-d'Armor;Trélévern 22363;W3.3667;N48.8167;13;
3;FRA;Bretagne;Côtes-d'Armor;Trélivan 22364;W2.1167;N48.4333;13;
3;FRA;Bretagne;Côtes-d'Armor;Trémargat 22365;W3.2667;N48.3333;13;
3;FRA;Bretagne;Côtes-d'Armor;Trémel 22366;W3.6167;N48.6000;13;
3;FRA;Bretagne;Côtes-d'Armor;Tréméloir 22367;W2.8500;N48.5500;13;
3;FRA;Bretagne;Côtes-d'Armor;Tréméreuc 22368;W2.0667;N48.5500;13;
3;FRA;Bretagne;Côtes-d'Armor;Trémeur 22369;W2.2667;N48.3500;13;
3;FRA;Bretagne;Côtes-d'Armor;Tréméven 22370;W3.0333;N48.6667;13;
3;FRA;Bretagne;Côtes-d'Armor;Trémorel 22371;W2.3000;N48.2000;13;
3;FRA;Bretagne;Côtes-d'Armor;Trémuson 22372;W2.8500;N48.5167;13;
3;FRA;Bretagne;Côtes-d'Armor;Tréogan 22373;W3.5167;N48.1833;13;
3;FRA;Bretagne;Côtes-d'Armor;Tressaint 22374=22118;W2.0333;N48.4333;13;
3;FRA;Bretagne;Côtes-d'Armor;Tressignaux 22375;W2.9833;N48.6167;13;
3;FRA;Bretagne;Côtes-d'Armor;Trévé 22376;W2.8000;N48.2167;13;
3;FRA;Bretagne;Côtes-d'Armor;Tréveneuc 22377;W2.8667;N48.6667;13;
3;FRA;Bretagne;Côtes-d'Armor;Trévérec 22378;W3.0500;N48.6500;13;
3;FRA;Bretagne;Côtes-d'Armor;Trévou-Tréguignec 22379;W3.3500;N48.8167;13;
3;FRA;Bretagne;Côtes-d'Armor;Trévron 22380;W2.0667;N48.3833;13;
3;FRA;Bretagne;Côtes-d'Armor;Trézény 22381;W3.3667;N48.7500;13;
3;FRA;Bretagne;Côtes-d'Armor;Trigavou 22382=22190;W2.0833;N48.5333;13;
3;FRA;Bretagne;Côtes-d'Armor;Troguéry 22383;W3.2167;N48.7500;13;
3;FRA;Bretagne;Côtes-d'Armor;Uzel 22384;W2.8500;N48.2833;13;
3;FRA;Bretagne;Côtes-d'Armor;Vildé-Guingalan 22388;W2.1500;N48.4333;13;
3;FRA;Bretagne;Côtes-d'Armor;Yffiniac 22389;W2.6750;N48.4833;13;
3;FRA;Bretagne;Côtes-d'Armor;Yvias 22390;W3.0500;N48.7167;13;
3;FRA;Bretagne;Côtes-d'Armor;Yvignac-la-Tour 22391;W2.1833;N48.3500;13;
2;FRA;Bretagne;Finistère;;W4.0485;N48.3672;9;
3;FRA;Bretagne;Finistère;Argol 29001;W4.3167;N48.2500;13;
3;FRA;Bretagne;Finistère;Arzano 29002;W3.4333;N47.9000;13;
3;FRA;Bretagne;Finistère;Audierne 29003;W4.5333;N48.0167;13;
3;FRA;Bretagne;Finistère;Bannalec 29004;W3.7000;N47.9333;13;
3;FRA;Bretagne;Finistère;Baye 29005;W3.6000;N47.8500;13;
3;FRA;Bretagne;Finistère;Bénodet 29006;W4.1167;N47.8667;13;
3;FRA;Bretagne;Finistère;Berrien 29007;W3.7500;N48.4000;13;
3;FRA;Bretagne;Finistère;Beuzec-Cap-Sizun 29008;W4.5167;N48.0833;13;
3;FRA;Bretagne;Finistère;Beuzec-Conq 29009=29039;W3.9020;N48.8887;13;
3;FRA;Bretagne;Finistère;Bodilis 29010;W4.1167;N48.5333;13;
3;FRA;Bretagne;Finistère;Bohars 29011;W4.5167;N48.4333;13;
3;FRA;Bretagne;Finistère;Bolazec 29012;W3.5833;N48.4500;13;
3;FRA;Bretagne;Finistère;Botmeur 29013;W3.9167;N48.3833;13;
3;FRA;Bretagne;Finistère;Botsorhel 29014;W3.6500;N48.5333;13;
3;FRA;Bretagne;Finistère;Bourg-Blanc 29015;W4.5000;N48.5000;13;
3;FRA;Bretagne;Finistère;Brasparts 29016;W3.9500;N48.3000;13;
3;FRA;Bretagne;Finistère;Brélès 29017;W4.7167;N48.4833;13;
3;FRA;Bretagne;Finistère;Brennilis 29018;W3.8500;N48.3500;13;
3;FRA;Bretagne;Finistère;Brest 29019;W4.4833;N48.4000;13;
3;FRA;Bretagne;Finistère;Briec 29020;W4.0000;N48.1000;13;
3;FRA;Bretagne;Finistère;Brignogan-Plage 29021;W4.3167;N48.6667;13;
3;FRA;Bretagne;Finistère;Camaret-sur-Mer 29022;W4.6000;N48.2833;13;
3;FRA;Bretagne;Finistère;Carantec 29023;W3.9167;N48.6667;13;
3;FRA;Bretagne;Finistère;Carhaix-Plouguer 29024;W3.5833;N48.2833;13;
3;FRA;Bretagne;Finistère;Cast 29025;W4.1333;N48.1667;13;
3;FRA;Bretagne;Finistère;Châteaulin 29026;W4.0833;N48.2000;13;
3;FRA;Bretagne;Finistère;Châteauneuf-du-Faou 29027;W3.8167;N48.1833;13;
3;FRA;Bretagne;Finistère;Cléden-Cap-Sizun 29028;W4.6500;N48.0500;13;
3;FRA;Bretagne;Finistère;Cléden-Poher 29029;W3.6667;N48.2333;13;
3;FRA;Bretagne;Finistère;Cléder 29030;W4.1000;N48.6667;13;
3;FRA;Bretagne;Finistère;Clohars-Carnoët 29031;W3.5833;N47.8000;13;
3;FRA;Bretagne;Finistère;Clohars-Fouesnant 29032;W4.0667;N47.9000;13;
3;FRA;Bretagne;Finistère;Coat-Méal 29035;W4.5333;N48.5000;13;
3;FRA;Bretagne;Finistère;Collorec 29036;W3.7833;N48.2833;13;
3;FRA;Bretagne;Finistère;Combrit 29037;W4.1500;N47.8833;13;
3;FRA;Bretagne;Finistère;Commana 29038;W3.9500;N48.4167;13;
3;FRA;Bretagne;Finistère;Concarneau 29039;W3.9167;N47.8667;13;
3;FRA;Bretagne;Finistère;Confort-Meilars 29145;W4.4292;N48.0440;13;
3;FRA;Bretagne;Finistère;Coray 29041;W3.8333;N48.0667;13;
3;FRA;Bretagne;Finistère;Crozon 29042;W4.4833;N48.2500;13;
3;FRA;Bretagne;Finistère;Daoulas 29043;W4.2500;N48.3667;13;
3;FRA;Bretagne;Finistère;Dinéault 29044;W4.1667;N48.2167;13;
3;FRA;Bretagne;Finistère;Dirinon 29045;W4.2667;N48.4000;13;
3;FRA;Bretagne;Finistère;Douarnenez 29046;W4.3333;N48.1000;13;
3;FRA;Bretagne;Finistère;Edern 29048;W3.9833;N48.1000;13;
3;FRA;Bretagne;Finistère;Elliant 29049;W3.8833;N48.0000;13;
3;FRA;Bretagne;Finistère;Ergué-Armel 29050=29232;W4.0707;N47.9824;13;
3;FRA;Bretagne;Finistère;Ergué-Gabéric 29051;W4.0333;N48.0000;13;
3;FRA;Bretagne;Finistère;Esquibien 29052;W4.5667;N48.0167;13;
3;FRA;Bretagne;Finistère;Fouesnant 29058;W4.0167;N47.9000;13;
3;FRA;Bretagne;Finistère;Garlan 29059;W3.7500;N48.6000;13;
3;FRA;Bretagne;Finistère;Gouesnach 29060;W4.1167;N47.9167;13;
3;FRA;Bretagne;Finistère;Gouesnou 29061;W4.4667;N48.4500;13;
3;FRA;Bretagne;Finistère;Gouézec 29062;W3.9667;N48.1667;13;
3;FRA;Bretagne;Finistère;Goulien 29063;W4.6000;N48.0500;13;
3;FRA;Bretagne;Finistère;Goulven 29064;W4.3000;N48.6333;13;
3;FRA;Bretagne;Finistère;Gourlizon 29065;W4.2667;N48.0167;13;
3;FRA;Bretagne;Finistère;Guengat 29066;W4.2000;N48.0500;13;
3;FRA;Bretagne;Finistère;Guerlesquin 29067;W3.5833;N48.5167;13;
3;FRA;Bretagne;Finistère;Guiclan 29068;W3.9667;N48.5500;13;
3;FRA;Bretagne;Finistère;Guiler-sur-Goyen 29070;W4.3667;N48.0167;13;
3;FRA;Bretagne;Finistère;Guilers 29069;W4.5667;N48.4333;13;
3;FRA;Bretagne;Finistère;Guilligomarc'h 29071;W3.4167;N47.9333;13;
3;FRA;Bretagne;Finistère;Guilvinec 29072;W4.2667;N47.7833;13;
3;FRA;Bretagne;Finistère;Guimaëc 29073;W3.7000;N48.6667;13;
3;FRA;Bretagne;Finistère;Guimiliau 29074;W4.0000;N48.4833;13;
3;FRA;Bretagne;Finistère;Guipavas 29075;W4.4000;N48.4333;13;
3;FRA;Bretagne;Finistère;Guipronvel 29076;W4.5667;N48.4833;13;
3;FRA;Bretagne;Finistère;Guissény 29077;W4.4167;N48.6333;13;
3;FRA;Bretagne;Finistère;Hanvec 29078;W4.1667;N48.3333;13;
3;FRA;Bretagne;Finistère;Henvic 29079;W3.9333;N48.6333;13;
3;FRA;Bretagne;Finistère;Hôpital-Camfrout 29080;W4.2333;N48.3333;13;
3;FRA;Bretagne;Finistère;Huelgoat 29081;W3.7500;N48.3667;13;
3;FRA;Bretagne;Finistère;Île-de-Batz 29082;W4.0000;N48.7333;13;
3;FRA;Bretagne;Finistère;Île-de-Sein 29083;W4.8333;N48.0333;13;
3;FRA;Bretagne;Finistère;Île-Molène 29084;W4.95;N48.3833;13;
3;FRA;Bretagne;Finistère;Île-Tudy 29085;W4.1667;N47.8333;13;
3;FRA;Bretagne;Finistère;Irvillac 29086;W4.2167;N48.3667;13;
3;FRA;Bretagne;Finistère;Kerfeunteun 29088=29232;W4.0954;N48.0100;13;
3;FRA;Bretagne;Finistère;Kergloff 29089;W3.6333;N48.2667;13;
3;FRA;Bretagne;Finistère;Kerlaz 29090;W4.2667;N48.0833;13;
3;FRA;Bretagne;Finistère;Kerlouan 29091;W4.3667;N48.6500;13;
3;FRA;Bretagne;Finistère;Kernével 29092=29241;W3.7775;N47.9587;13;
3;FRA;Bretagne;Finistère;Kernilis 29093;W4.4167;N48.5667;13;
3;FRA;Bretagne;Finistère;Kernouës 29094;W4.3500;N48.5833;13;
3;FRA;Bretagne;Finistère;Kersaint-Plabennec 29095;W4.3667;N48.4667;13;
3;FRA;Bretagne;Finistère;La Feuillée 29054;W3.8500;N48.4000;13;
3;FRA;Bretagne;Finistère;La Forest-Landerneau 29056;W4.3167;N48.4333;13;
3;FRA;Bretagne;Finistère;La Forêt-Fouesnant 29057;W3.9833;N47.9167;13;
3;FRA;Bretagne;Finistère;La Martyre 29144;W4.1667;N48.4500;13;
3;FRA;Bretagne;Finistère;La Roche-Maurice 29237;W4.2000;N48.4667;13;
3;FRA;Bretagne;Finistère;Lambézellec 29096=29019;W4.4927;N48.4153;13;
3;FRA;Bretagne;Finistère;Lampaul-Guimiliau 29097;W4.0333;N48.5000;13;
3;FRA;Bretagne;Finistère;Lampaul-Plouarzel 29098;W4.7667;N48.4500;13;
3;FRA;Bretagne;Finistère;Lampaul-Ploudalmézeau 29099;W4.6500;N48.5667;13;
3;FRA;Bretagne;Finistère;Lanarvily 29100;W4.3833;N48.5500;13;
3;FRA;Bretagne;Finistère;Landéda 29101;W4.5667;N48.5833;13;
3;FRA;Bretagne;Finistère;Landeleau 29102;W3.7333;N48.2333;13;
3;FRA;Bretagne;Finistère;Landerneau 29103;W4.2500;N48.4500;13;
3;FRA;Bretagne;Finistère;Landévennec 29104;W4.2667;N48.3000;13;
3;FRA;Bretagne;Finistère;Landivisiau 29105;W4.0667;N48.5167;13;
3;FRA;Bretagne;Finistère;Landrévarzec 29106;W4.0500;N48.0833;13;
3;FRA;Bretagne;Finistère;Landudal 29107;W3.9833;N48.0667;13;
3;FRA;Bretagne;Finistère;Landudec 29108;W4.3333;N48.0000;13;
3;FRA;Bretagne;Finistère;Landunvez 29109;W4.7333;N48.5333;13;
3;FRA;Bretagne;Finistère;Langolen 29110;W3.9167;N48.0667;13;
3;FRA;Bretagne;Finistère;Lanhouarneau 29111;W4.2000;N48.5833;13;
3;FRA;Bretagne;Finistère;Lanildut 29112;W4.7500;N48.4833;13;
3;FRA;Bretagne;Finistère;Lanmeur 29113;W3.7000;N48.6333;13;
3;FRA;Bretagne;Finistère;Lannéanou 29114;W3.6667;N48.4833;13;
3;FRA;Bretagne;Finistère;Lannédern 29115;W3.9000;N48.3000;13;
3;FRA;Bretagne;Finistère;Lanneuffret 29116;W4.2000;N48.5000;13;
3;FRA;Bretagne;Finistère;Lannilis 29117;W4.5167;N48.5667;13;
3;FRA;Bretagne;Finistère;Lanriec 29118=29039;X3.8830;N47.8693;13;
3;FRA;Bretagne;Finistère;Lanrivoaré 29119;W3.6333;N48.4667;13;
3;FRA;Bretagne;Finistère;Lanvéoc 29120;W4.4667;N48.2833;13;
3;FRA;Bretagne;Finistère;Larret 29121=29221;W4.7333;N48.5000;13;
3;FRA;Bretagne;Finistère;Laz 29122;W3.8333;N48.1333;13;
3;FRA;Bretagne;Finistère;Le Cloître-Pleyben 29033;W3.8833;N48.2500;13;
3;FRA;Bretagne;Finistère;Le Cloître-Saint-Thégonnec 29034;W3.8000;N48.4833;13;
3;FRA;Bretagne;Finistère;Le Conquet 29040;W4.7667;N48.3667;13;
3;FRA;Bretagne;Finistère;Le Drennec 29047;W4.3667;N48.5333;13;
3;FRA;Bretagne;Finistère;Le Faou 29053;W4.1833;N48.3000;13;
3;FRA;Bretagne;Finistère;Le Folgoët 29055;W4.3333;N48.5667;13;
3;FRA;Bretagne;Finistère;Le Juch 29087;W4.2500;N48.0667;13;
3;FRA;Bretagne;Finistère;Le Ponthou 29219;W3.6333;N48.5667;13;
3;FRA;Bretagne;Finistère;Le Relecq-Kerhuon 29235;W4.4000;N48.4000;13;
3;FRA;Bretagne;Finistère;Le Tréhou 29294;W4.1333;N48.4000;13;
3;FRA;Bretagne;Finistère;Le Trévoux 29300;W3.6333;N47.9000;13;
3;FRA;Bretagne;Finistère;Lennon 29123;W3.9000;N48.2000;13;
3;FRA;Bretagne;Finistère;Lesneven 29124;W4.3167;N48.5667;13;
3;FRA;Bretagne;Finistère;Leuhan 29125;W3.7833;N48.1000;13;
3;FRA;Bretagne;Finistère;Loc-Brévalaire 29126;W4.4000;N48.5500;13;
3;FRA;Bretagne;Finistère;Loc-Eguiner 29128;W4.0833;N48.4667;13;
3;FRA;Bretagne;Finistère;Loc-Eguiner-Saint-Thégonnec 29127;W3.9667;N48.4667;13;
3;FRA;Bretagne;Finistère;Locmaria-Berrien 29129;W3.7000;N48.3500;13;
3;FRA;Bretagne;Finistère;Locmaria-Plouzané 29130;W4.6333;N48.3667;13;
3;FRA;Bretagne;Finistère;Locmélar 29131;W4.0667;N48.4500;13;
3;FRA;Bretagne;Finistère;Locquénolé 29132;W3.8667;N48.6167;13;
3;FRA;Bretagne;Finistère;Locquirec 29133;W3.6500;N48.7000;13;
3;FRA;Bretagne;Finistère;Locronan 29134;W4.2000;N48.1000;13;
3;FRA;Bretagne;Finistère;Loctudy 29135;W4.1667;N47.8333;13;
3;FRA;Bretagne;Finistère;Locunolé 29136;W3.4833;N47.9333;13;
3;FRA;Bretagne;Finistère;Logonna-Daoulas 29137;W4.3000;N48.3167;13;
3;FRA;Bretagne;Finistère;Logonna-Quimerch 29138=29302;W4.1275;N48.2494;13;
3;FRA;Bretagne;Finistère;Lopérec 29139;W4.0500;N48.2833;13;
3;FRA;Bretagne;Finistère;Loperhet 29140;W4.3000;N48.3833;13;
3;FRA;Bretagne;Finistère;Loqueffret 29141;W3.8667;N48.3167;13;
3;FRA;Bretagne;Finistère;Lothey 29142;W4.0167;N48.1667;13;
3;FRA;Bretagne;Finistère;Mahalon 29143;W4.4333;N48.0333;13;
3;FRA;Bretagne;Finistère;Melgven 29146;W3.8333;N47.9000;13;
3;FRA;Bretagne;Finistère;Mellac 29147;W3.5833;N47.9000;13;
3;FRA;Bretagne;Finistère;Mespaul 29148;W4.0167;N48.6167;13;
3;FRA;Bretagne;Finistère;Milizac 29149;W4.5667;N48.4667;13;
3;FRA;Bretagne;Finistère;Moëlan-sur-Mer 29150;W3.6333;N47.8167;13;
3;FRA;Bretagne;Finistère;Morlaix 29151;W3.8333;N48.5833;13;
3;FRA;Bretagne;Finistère;Motreff 29152;W3.5500;N48.2000;13;
3;FRA;Bretagne;Finistère;Névez 29153;W3.7833;N47.8167;13;
3;FRA;Bretagne;Finistère;Nizon 29154=29217;W3.7638;N47.8639;13;
3;FRA;Bretagne;Finistère;Ouessant 29155;W5.0956;N48.4581;13;
3;FRA;Bretagne;Finistère;Pencran 29156;W4.2333;N48.4333;13;
3;FRA;Bretagne;Finistère;Penhars 29157=29232;W4.1289;N47.9900;13;
3;FRA;Bretagne;Finistère;Penmarch 29158;W4.3333;N47.8000;13;
3;FRA;Bretagne;Finistère;Peumérit 29159;W4.3000;N47.9333;13;
3;FRA;Bretagne;Finistère;Plabennec 29160;W4.4333;N48.5000;13;
3;FRA;Bretagne;Finistère;Pleuven 29161;W4.0333;N47.9000;13;
3;FRA;Bretagne;Finistère;Pleyben 29162;W3.9667;N48.2333;13;
3;FRA;Bretagne;Finistère;Pleyber-Christ 29163;W3.8667;N48.5000;13;
3;FRA;Bretagne;Finistère;Ploaré 29164=29046;W4.3113;N48.0859;13;
3;FRA;Bretagne;Finistère;Plobannalec-Lesconil 29165;W4.2167;N47.8167;13;
3;FRA;Bretagne;Finistère;Ploéven 29166;W4.2333;N48.1500;13;
3;FRA;Bretagne;Finistère;Plogastel-Saint-Germain 29167;W4.2667;N47.9833;13;
3;FRA;Bretagne;Finistère;Plogoff 29168;W4.6667;N48.0333;13;
3;FRA;Bretagne;Finistère;Plogonnec 29169;W4.1833;N48.0833;13;
3;FRA;Bretagne;Finistère;Plomelin 29170;W4.1500;N47.9333;13;
3;FRA;Bretagne;Finistère;Plomeur 29171;W4.2833;N47.8333;13;
3;FRA;Bretagne;Finistère;Plomodiern 29172;W4.2333;N48.1833;13;
3;FRA;Bretagne;Finistère;Plonéis 29173;W4.2167;N48.0167;13;
3;FRA;Bretagne;Finistère;Plonéour-Lanvern 29174;W4.2833;N47.9000;13;
3;FRA;Bretagne;Finistère;Plonévez-du-Faou 29175;W3.8333;N48.2500;13;
3;FRA;Bretagne;Finistère;Plonévez-Porzay 29176;W4.2167;N48.1000;13;
3;FRA;Bretagne;Finistère;Plouarzel 29177;W4.7333;N48.4333;13;
3;FRA;Bretagne;Finistère;Ploudalmézeau 29178;W4.6500;N48.5333;13;
3;FRA;Bretagne;Finistère;Ploudaniel 29179;W4.3167;N48.5333;13;
3;FRA;Bretagne;Finistère;Ploudiry 29180;W4.1500;N48.4500;13;
3;FRA;Bretagne;Finistère;Plouédern 29181;W4.2500;N48.4833;13;
3;FRA;Bretagne;Finistère;Plouégat-Guérand 29182;W3.6667;N48.6167;13;
3;FRA;Bretagne;Finistère;Plouégat-Moysan 29183;W3.6167;N48.5667;13;
3;FRA;Bretagne;Finistère;Plouénan 29184;W4.0000;N48.6333;13;
3;FRA;Bretagne;Finistère;Plouescat 29185;W4.1667;N48.6667;13;
3;FRA;Bretagne;Finistère;Plouezoc'h 29186;W3.8167;N48.6333;13;
3;FRA;Bretagne;Finistère;Plougar 29187;W4.1500;N48.5667;13;
3;FRA;Bretagne;Finistère;Plougasnou 29188;W3.8000;N48.7000;13;
3;FRA;Bretagne;Finistère;Plougastel-Daoulas 29189;W4.3667;N48.3667;13;
3;FRA;Bretagne;Finistère;Plougonvelin 29190;W4.7167;N48.3500;13;
3;FRA;Bretagne;Finistère;Plougonven 29191;W3.7167;N48.5167;13;
3;FRA;Bretagne;Finistère;Plougoulm 29192;W4.0500;N48.6667;13;
3;FRA;Bretagne;Finistère;Plougourvest 29193;W4.0833;N48.5500;13;
3;FRA;Bretagne;Finistère;Plouguer 29194=29024;W3.5708;N47.2793;13;
3;FRA;Bretagne;Finistère;Plouguerneau 29195;W4.5000;N48.6000;13;
3;FRA;Bretagne;Finistère;Plouguin 29196;W4.6000;N48.5333;13;
3;FRA;Bretagne;Finistère;Plouhinec 29197;W4.4833;N48.0000;13;
3;FRA;Bretagne;Finistère;Plouider 29198;W4.3000;N48.6167;13;
3;FRA;Bretagne;Finistère;Plouigneau 29199;W3.7000;N48.5667;13;
3;FRA;Bretagne;Finistère;Ploujean 29200=29151;W3.8342;N48.6056;13;
3;FRA;Bretagne;Finistère;Ploumoguer 29201;W4.7167;N48.4000;13;
3;FRA;Bretagne;Finistère;Plounéour-Ménez 29202;W3.8833;N48.4500;13;
3;FRA;Bretagne;Finistère;Plounéour-Trez 29203;W4.3167;N48.6500;13;
3;FRA;Bretagne;Finistère;Plounéventer 29204;W4.2167;N48.5167;13;
3;FRA;Bretagne;Finistère;Plounévez-Lochrist 29206;W4.2167;N48.6167;13;
3;FRA;Bretagne;Finistère;Plounévézel 29205;W3.6000;N48.3000;13;
3;FRA;Bretagne;Finistère;Plourin 29208;W4.6833;N48.5000;13;
3;FRA;Bretagne;Finistère;Plourin-lès-Morlaix 29207;W3.7833;N48.5333;13;
3;FRA;Bretagne;Finistère;Plouvien 29209;W4.4500;N48.5333;13;
3;FRA;Bretagne;Finistère;Plouvorn 29210;W4.0333;N48.5833;13;
3;FRA;Bretagne;Finistère;Plouyé 29211;W3.7333;N48.3167;13;
3;FRA;Bretagne;Finistère;Plouzané 29212;W4.6167;N48.3833;13;
3;FRA;Bretagne;Finistère;Plouzévédé 29213;W4.1167;N48.6000;13;
3;FRA;Bretagne;Finistère;Plovan 29214;W4.3667;N47.9167;13;
3;FRA;Bretagne;Finistère;Plozévet 29215;W4.4167;N47.9833;13;
3;FRA;Bretagne;Finistère;Pluguffan 29216;W4.1833;N47.9833;13;
3;FRA;Bretagne;Finistère;Pont-Aven 29217;W4.0500;N48.5000;13;
3;FRA;Bretagne;Finistère;Pont-Croix 29218;W3.7500;N47.8500;13;
3;FRA;Bretagne;Finistère;Pont-de-Buis-lès-Quimerch 29302;W4.0833;N48.2500;13;
3;FRA;Bretagne;Finistère;Pont-l'Abbé 29220;W4.2167;N47.8667;13;
3;FRA;Bretagne;Finistère;Porspoder 29221;W4.7667;N48.5000;13;
3;FRA;Bretagne;Finistère;Port-Launay 29222;W4.0667;N48.2167;13;
3;FRA;Bretagne;Finistère;Pouldavid-sur-Mer 29223=29046;W4.3311;N48.0782;13;
3;FRA;Bretagne;Finistère;Pouldergat 29224;W4.3333;N48.0500;13;
3;FRA;Bretagne;Finistère;Pouldreuzic 29225;W4.3667;N47.9500;13;
3;FRA;Bretagne;Finistère;Poullan-sur-Mer 29226;W4.4167;N48.0833;13;
3;FRA;Bretagne;Finistère;Poullaouen 29227;W3.6500;N48.3333;13;
3;FRA;Bretagne;Finistère;Primelin 29228;W4.6167;N48.0167;13;
3;FRA;Bretagne;Finistère;Quéménéven 29229;W4.1167;N48.1167;13;
3;FRA;Bretagne;Finistère;Querrien 29230;W3.5333;N47.9667;13;
3;FRA;Bretagne;Finistère;Quimerch 29231=29302;W4.1167;N48.2833;13;
3;FRA;Bretagne;Finistère;Quimper 29232;W4.1000;N48.0000;13;
3;FRA;Bretagne;Finistère;Quimperlé 29233;W3.5500;N47.8667;13;
3;FRA;Bretagne;Finistère;Rédené 29234;W3.4667;N47.8500;13;
3;FRA;Bretagne;Finistère;Riec-sur-Belon 29236;W3.7000;N47.8333;13;
3;FRA;Bretagne;Finistère;Roscanvel 29238;W4.5500;N48.3167;13;
3;FRA;Bretagne;Finistère;Roscoff 29239;W3.9833;N48.7333;13;
3;FRA;Bretagne;Finistère;Rosnoën 29240;W4.2000;N48.2667;13;
3;FRA;Bretagne;Finistère;Rosporden 29241;W3.8333;N47.9667;13;
3;FRA;Bretagne;Finistère;Rumengol 29242=29053;W4.1498;N48.3017;13;
3;FRA;Bretagne;Finistère;Saint-Coulitz 29243;W4.0667;N48.1833;13;
3;FRA;Bretagne;Finistère;Saint-Derrien 29244;W4.1833;N48.5500;13;
3;FRA;Bretagne;Finistère;Saint-Divy 29245;W4.3333;N48.4500;13;
3;FRA;Bretagne;Finistère;Saint-Eloy 29246;W4.1167;N48.3667;13;
3;FRA;Bretagne;Finistère;Saint-Évarzec 29247;W4.0167;N47.9333;13;
3;FRA;Bretagne;Finistère;Saint-Frégant 29248;W4.3833;N48.6000;13;
3;FRA;Bretagne;Finistère;Saint-Goazec 29249;W3.7833;N48.1667;13;
3;FRA;Bretagne;Finistère;Saint-Hernin 29250;W3.6333;N48.2167;13;
3;FRA;Bretagne;Finistère;Saint-Jean-du-Doigt 29251;W3.7667;N48.7000;13;
3;FRA;Bretagne;Finistère;Saint-Jean-Trolimon 29252;W4.2833;N47.8667;13;
3;FRA;Bretagne;Finistère;Saint-Marc 29253=29019;W3.8333;N48.5833;13;
3;FRA;Bretagne;Finistère;Saint-Martin-des-Champs 29254;W4.7667;N48.3333;13;
3;FRA;Bretagne;Finistère;Saint-Méen 29255;W4.2667;N48.5667;13;
3;FRA;Bretagne;Finistère;Saint-Nic 29256;W4.2833;N48.2000;13;
3;FRA;Bretagne;Finistère;Saint-Pabu 29257;W4.5833;N48.5500;13;
3;FRA;Bretagne;Finistère;Saint-Pierre-Quilbignon 29258=29019;W4.5373;N48.3796;13;
3;FRA;Bretagne;Finistère;Saint-Pol-de-Léon 29259;W3.9833;N48.6833;13;
3;FRA;Bretagne;Finistère;Saint-Renan 29260;W4.6167;N48.4333;13;
3;FRA;Bretagne;Finistère;Saint-Rivoal 29261;W4.0000;N48.3500;13;
3;FRA;Bretagne;Finistère;Saint-Sauveur 29262;W4.0000;N48.4500;13;
3;FRA;Bretagne;Finistère;Saint-Ségal 29263;W4.0667;N48.2333;13;
3;FRA;Bretagne;Finistère;Saint-Servais 29264;W4.1500;N48.5167;13;
3;FRA;Bretagne;Finistère;Saint-Thégonnec 29266;W3.9500;N48.5167;13;
3;FRA;Bretagne;Finistère;Saint-Thois 29267;W3.8833;N48.1667;13;
3;FRA;Bretagne;Finistère;Saint-Thonan 29268;W4.3333;N48.4833;13;
3;FRA;Bretagne;Finistère;Saint-Thurien 29269;W3.6333;N47.9500;13;
3;FRA;Bretagne;Finistère;Saint-Urbain 29270;W4.2333;N48.4000;13;
3;FRA;Bretagne;Finistère;Saint-Vougay 29271;W4.1333;N48.6000;13;
3;FRA;Bretagne;Finistère;Saint-Yvy 29272;W3.9333;N47.9667;13;
3;FRA;Bretagne;Finistère;Sainte-Sève 29265;W3.8667;N48.5667;13;
3;FRA;Bretagne;Finistère;Santec 29273;W4.0333;N48.7000;13;
3;FRA;Bretagne;Finistère;Scaër 29274;W3.7000;N48.0333;13;
3;FRA;Bretagne;Finistère;Scrignac 29275;W3.6833;N48.4333;13;
3;FRA;Bretagne;Finistère;Sibiril 29276;W4.0667;N48.6667;13;
3;FRA;Bretagne;Finistère;Sizun 29277;W4.0833;N48.4000;13;
3;FRA;Bretagne;Finistère;Spézet 29278;W3.7167;N48.2000;13;
3;FRA;Bretagne;Finistère;Taulé 29279;W3.9000;N48.6000;13;
3;FRA;Bretagne;Finistère;Telgruc-sur-Mer 29280;W4.3500;N48.2333;13;
3;FRA;Bretagne;Finistère;Tourch 29281;W3.8333;N48.0333;13;
3;FRA;Bretagne;Finistère;Trébabu 29282;W4.7333;N48.3667;13;
3;FRA;Bretagne;Finistère;Tréboul 29283=29046;W4.3500;N48.1000;13;
3;FRA;Bretagne;Finistère;Treffiagat 29284;W4.2667;N47.8167;13;
3;FRA;Bretagne;Finistère;Tréflaouénan 29285;W4.1000;N48.6333;13;
3;FRA;Bretagne;Finistère;Tréflévénez 29286;W4.1667;N48.4167;13;
3;FRA;Bretagne;Finistère;Tréflez 29287;W4.2667;N48.6167;13;
3;FRA;Bretagne;Finistère;Trégarantec 29288;W4.2833;N48.5500;13;
3;FRA;Bretagne;Finistère;Trégarvan 29289;W4.2167;N48.2500;13;
3;FRA;Bretagne;Finistère;Tréglonou 29290;W4.5333;N48.5500;13;
3;FRA;Bretagne;Finistère;Trégourez 29291;W3.8667;N48.1000;13;
3;FRA;Bretagne;Finistère;Tréguennec 29292;W4.3333;N47.8833;13;
3;FRA;Bretagne;Finistère;Trégunc 29293;W3.8500;N47.8500;13;
3;FRA;Bretagne;Finistère;Trémaouézan 29295;W4.2500;N48.5000;13;
3;FRA;Bretagne;Finistère;Tréméoc 29296;W4.2167;N47.9000;13;
3;FRA;Bretagne;Finistère;Tréméven 29297;W3.5167;N47.8833;13;
3;FRA;Bretagne;Finistère;Tréogat 29298;W4.3167;N47.9167;13;
3;FRA;Bretagne;Finistère;Tréouergat 29299;W4.6000;N48.5000;13;
3;FRA;Bretagne;Finistère;Trézilidé 29301;W4.0833;N48.6167;13;
2;FRA;Bretagne;Ille-et-Vilaine;;W1.6479;N48.1258;9;
3;FRA;Bretagne;Ille-et-Vilaine;Acigné 35001;W1.5333;N48.1333;13;
3;FRA;Bretagne;Ille-et-Vilaine;Amanlis 35002;W1.4833;N48.0000;13;
3;FRA;Bretagne;Ille-et-Vilaine;Andouillé-Neuville 35003;W1.5833;N48.3000;13;
3;FRA;Bretagne;Ille-et-Vilaine;Antrain 35004;W1.4833;N48.4500;13;
3;FRA;Bretagne;Ille-et-Vilaine;Arbrissel 35005;W1.3000;N47.9333;13;
3;FRA;Bretagne;Ille-et-Vilaine;Argentré-du-Plessis 35006;W1.1500;N48.0667;13;
3;FRA;Bretagne;Ille-et-Vilaine;Aubigné 35007;W1.6333;N48.3000;13;
3;FRA;Bretagne;Ille-et-Vilaine;Availles-sur-Seiche 35008;W1.2000;N47.9667;13;
3;FRA;Bretagne;Ille-et-Vilaine;Baguer-Morvan 35009;W1.7833;N48.5333;13;
3;FRA;Bretagne;Ille-et-Vilaine;Baguer-Pican 35010;W1.7000;N48.5500;13;
3;FRA;Bretagne;Ille-et-Vilaine;Baillé 35011;W1.3833;N48.3500;13;
3;FRA;Bretagne;Ille-et-Vilaine;Bain-de-Bretagne 35012;W1.6833;N47.8333;13;
3;FRA;Bretagne;Ille-et-Vilaine;Bains-sur-Oust 35013;W2.0667;N47.7000;13;
3;FRA;Bretagne;Ille-et-Vilaine;Bais 35014;W1.2833;N48.0167;13;
3;FRA;Bretagne;Ille-et-Vilaine;Balazé 35015;W1.1833;N48.1667;13;
3;FRA;Bretagne;Ille-et-Vilaine;Baulon 35016;W1.9333;N47.9833;13;
3;FRA;Bretagne;Ille-et-Vilaine;Bazouges-la-Pérouse 35019;W1.5833;N48.4167;13;
3;FRA;Bretagne;Ille-et-Vilaine;Bazouges-sous-Hédé 35020=35130;W1.7667;N48.3167;13;
3;FRA;Bretagne;Ille-et-Vilaine;Beaucé 35021;W1.1667;N48.3333;13;
3;FRA;Bretagne;Ille-et-Vilaine;Bécherel 35022;W1.9500;N48.3000;13;
3;FRA;Bretagne;Ille-et-Vilaine;Bédée 35023;W1.9500;N48.1833;13;
3;FRA;Bretagne;Ille-et-Vilaine;Betton 35024;W1.6500;N48.1833;13;
3;FRA;Bretagne;Ille-et-Vilaine;Billé 35025;W1.2500;N48.2833;13;
3;FRA;Bretagne;Ille-et-Vilaine;Bléruais 35026;W2.1333;N48.1167;13;
3;FRA;Bretagne;Ille-et-Vilaine;Boisgervilly 35027;W2.0667;N48.1667;13;
3;FRA;Bretagne;Ille-et-Vilaine;Boistrudan 35028;W1.4000;N47.9667;13;
3;FRA;Bretagne;Ille-et-Vilaine;Bonnemain 35029;W1.7667;N48.4667;13;
3;FRA;Bretagne;Ille-et-Vilaine;Bourg-des-Comptes 35033;W1.7500;N47.9333;13;
3;FRA;Bretagne;Ille-et-Vilaine;Bourgbarré 35032;W1.6167;N48.0000;13;
3;FRA;Bretagne;Ille-et-Vilaine;Bovel 35035;W1.9833;N47.9500;13;
3;FRA;Bretagne;Ille-et-Vilaine;Brain-sur-Vilaine 35036=35064;W1.9000;N47.7000;13;
3;FRA;Bretagne;Ille-et-Vilaine;Bréal-sous-Montfort 35037;W1.8667;N48.0500;13;
3;FRA;Bretagne;Ille-et-Vilaine;Bréal-sous-Vitré 35038;W1.0667;N48.1000;13;
3;FRA;Bretagne;Ille-et-Vilaine;Brécé 35039;W1.4833;N48.1167;13;
3;FRA;Bretagne;Ille-et-Vilaine;Breteil 35040;W1.9000;N48.1500;13;
3;FRA;Bretagne;Ille-et-Vilaine;Brie 35041;W1.5333;N47.9500;13;
3;FRA;Bretagne;Ille-et-Vilaine;Brielles 35042;W1.0833;N48.0167;13;
3;FRA;Bretagne;Ille-et-Vilaine;Broons-sur-Vilaine 35043=35068;W1.4167;N48.1333;13;
3;FRA;Bretagne;Ille-et-Vilaine;Broualan 35044;W1.6500;N48.4667;13;
3;FRA;Bretagne;Ille-et-Vilaine;Bruc-sur-Aff 35045;W2.0167;N47.8167;13;
3;FRA;Bretagne;Ille-et-Vilaine;Bruz 35047;W1.7500;N48.0333;13;
3;FRA;Bretagne;Ille-et-Vilaine;Campel 35048;W2.0000;N47.9333;13;
3;FRA;Bretagne;Ille-et-Vilaine;Cancale 35049;W1.8500;N48.6833;13;
3;FRA;Bretagne;Ille-et-Vilaine;Cardroc 35050;W1.8833;N48.2833;13;
3;FRA;Bretagne;Ille-et-Vilaine;Cesson-Sévigné 35051;W1.6000;N48.1250;13;
3;FRA;Bretagne;Ille-et-Vilaine;Champeaux 35052;W1.3167;N48.1500;13;
3;FRA;Bretagne;Ille-et-Vilaine;Chancé 35053;W1.3833;N48.0333;13;
3;FRA;Bretagne;Ille-et-Vilaine;Chanteloup 35054;W1.6167;N47.9667;13;
3;FRA;Bretagne;Ille-et-Vilaine;Chantepie 35055;W1.6167;N48.0833;13;
3;FRA;Bretagne;Ille-et-Vilaine;Chartres-de-Bretagne 35066;W1.7000;N48.0500;13;
3;FRA;Bretagne;Ille-et-Vilaine;Chasné-sur-Illet 35067;W1.5667;N48.2500;13;
3;FRA;Bretagne;Ille-et-Vilaine;Châteaubourg 35068;W1.4000;N48.1167;13;
3;FRA;Bretagne;Ille-et-Vilaine;Châteaugiron 35069;W1.5000;N48.0500;13;
3;FRA;Bretagne;Ille-et-Vilaine;Châteauneuf-d'Ille-et-Vilaine 35070;W1.9167;N48.5500;13;
3;FRA;Bretagne;Ille-et-Vilaine;Châtillon-en-Vendelais 35072;W1.1667;N48.2167;13;
3;FRA;Bretagne;Ille-et-Vilaine;Châtillon-sur-Seiche 35073=35206;W1.6749;N48.0391;13;
3;FRA;Bretagne;Ille-et-Vilaine;Chaumeré 35074=35096;W1.4167;N48.0333;13;
3;FRA;Bretagne;Ille-et-Vilaine;Chauvigné 35075;W1.4667;N48.3833;13;
3;FRA;Bretagne;Ille-et-Vilaine;Chavagne 35076;W1.7833;N48.0500;13;
3;FRA;Bretagne;Ille-et-Vilaine;Chelun 35077;W1.2167;N47.8500;13;
3;FRA;Bretagne;Ille-et-Vilaine;Cherrueix 35078;W1.7000;N48.6000;13;
3;FRA;Bretagne;Ille-et-Vilaine;Chevaigné 35079;W1.6333;N48.2167;13;
3;FRA;Bretagne;Ille-et-Vilaine;Cintré 35080;W1.8667;N48.1000;13;
3;FRA;Bretagne;Ille-et-Vilaine;Clayes 35081;W1.8500;N48.1833;13;
3;FRA;Bretagne;Ille-et-Vilaine;Coësmes 35082;W1.4333;N47.8833;13;
3;FRA;Bretagne;Ille-et-Vilaine;Coglès 35083;W1.3667;N48.4667;13;
3;FRA;Bretagne;Ille-et-Vilaine;Comblessac 35084;W2.0833;N47.8667;13;
3;FRA;Bretagne;Ille-et-Vilaine;Combourg 35085;W1.7500;N48.4167;13;
3;FRA;Bretagne;Ille-et-Vilaine;Combourtillé 35086;W1.2500;N48.2667;13;
3;FRA;Bretagne;Ille-et-Vilaine;Cornillé 35087;W1.3000;N48.0833;13;
3;FRA;Bretagne;Ille-et-Vilaine;Corps-Nuds 35088;W1.5833;N47.9833;13;
3;FRA;Bretagne;Ille-et-Vilaine;Crévin 35090;W1.6667;N47.9333;13;
3;FRA;Bretagne;Ille-et-Vilaine;Cuguen 35092;W1.6500;N48.4500;13;
3;FRA;Bretagne;Ille-et-Vilaine;Dinard 35093;W2.0667;N48.6333;13;
3;FRA;Bretagne;Ille-et-Vilaine;Dingé 35094;W1.7167;N48.3500;13;
3;FRA;Bretagne;Ille-et-Vilaine;Dol-de-Bretagne 35095;W1.7500;N48.5500;13;
3;FRA;Bretagne;Ille-et-Vilaine;Domagné 35096;W1.3833;N48.0833;13;
3;FRA;Bretagne;Ille-et-Vilaine;Domalain 35097;W1.2500;N48.0000;13;
3;FRA;Bretagne;Ille-et-Vilaine;Domloup 35099;W1.5167;N48.0500;13;
3;FRA;Bretagne;Ille-et-Vilaine;Dompierre-du-Chemin 35100;W1.1500;N48.2667;13;
3;FRA;Bretagne;Ille-et-Vilaine;Dourdain 35101;W1.3667;N48.1833;13;
3;FRA;Bretagne;Ille-et-Vilaine;Drouges 35102;W1.2667;N47.9000;13;
3;FRA;Bretagne;Ille-et-Vilaine;Eancé 35103;W1.2500;N47.8167;13;
3;FRA;Bretagne;Ille-et-Vilaine;Epiniac 35104;W1.7000;N48.5000;13;
3;FRA;Bretagne;Ille-et-Vilaine;Erbrée 35105;W1.1167;N48.1000;13;
3;FRA;Bretagne;Ille-et-Vilaine;Ercé-en-Lamée 35106;W1.5667;N47.8333;13;
3;FRA;Bretagne;Ille-et-Vilaine;Ercé-près-Liffré 35107;W1.5000;N48.2500;13;
3;FRA;Bretagne;Ille-et-Vilaine;Essé 35108;W1.4167;N47.9667;13;
3;FRA;Bretagne;Ille-et-Vilaine;Étrelles 35109;W1.1833;N48.0667;13;
3;FRA;Bretagne;Ille-et-Vilaine;Feins 35110;W1.6333;N48.3333;13;
3;FRA;Bretagne;Ille-et-Vilaine;Fleurigné 35112;W1.1167;N48.3333;13;
3;FRA;Bretagne;Ille-et-Vilaine;Forges-la-Forêt 35114;W1.2667;N47.8667;13;
3;FRA;Bretagne;Ille-et-Vilaine;Fougères 35115;W1.2000;N48.3500;13;
3;FRA;Bretagne;Ille-et-Vilaine;Gaël 35117;W2.2333;N48.1333;13;
3;FRA;Bretagne;Ille-et-Vilaine;Gahard 35118;W1.5167;N48.3000;13;
3;FRA;Bretagne;Ille-et-Vilaine;Gennes-sur-Seiche 35119;W1.1167;N47.9833;13;
3;FRA;Bretagne;Ille-et-Vilaine;Gévezé 35120;W1.7833;N48.2167;13;
3;FRA;Bretagne;Ille-et-Vilaine;Gosné 35121;W1.4667;N48.2500;13;
3;FRA;Bretagne;Ille-et-Vilaine;Goven 35123;W1.8500;N48.0000;13;
3;FRA;Bretagne;Ille-et-Vilaine;Grand-Fougeray 35124;W1.7333;N47.7167;13;
3;FRA;Bretagne;Ille-et-Vilaine;Guichen 35126;W1.8000;N47.9667;13;
3;FRA;Bretagne;Ille-et-Vilaine;Guignen 35127;W1.8500;N47.9167;13;
3;FRA;Bretagne;Ille-et-Vilaine;Guipel 35128;W1.7167;N48.3000;13;
3;FRA;Bretagne;Ille-et-Vilaine;Guipry 35129;W1.8333;N47.8167;13;
3;FRA;Bretagne;Ille-et-Vilaine;Hédé 35130;W1.8000;N48.3000;13;
3;FRA;Bretagne;Ille-et-Vilaine;Hirel 35132;W1.8000;N48.6000;13;
3;FRA;Bretagne;Ille-et-Vilaine;Iffendic 35133;W2.0333;N48.1333;13;
3;FRA;Bretagne;Ille-et-Vilaine;Irodouër 35135;W1.9500;N48.2500;13;
3;FRA;Bretagne;Ille-et-Vilaine;Janzé 35136;W1.5000;N47.9667;13;
3;FRA;Bretagne;Ille-et-Vilaine;Javené 35137;W1.2167;N48.3167;13;
3;FRA;Bretagne;Ille-et-Vilaine;L'Hermitage 35131;W1.8167;N48.1333;13;
3;FRA;Bretagne;Ille-et-Vilaine;La Baussaine 35017;W1.9000;N48.3167;13;
3;FRA;Bretagne;Ille-et-Vilaine;La Bazouge-du-Désert 35018;W1.1061;N48.4429;13;
3;FRA;Bretagne;Ille-et-Vilaine;La Bosse-de-Bretagne 35030;W1.6000;N47.8667;13;
3;FRA;Bretagne;Ille-et-Vilaine;La Bouëxière 35031;W1.4333;N48.1833;13;
3;FRA;Bretagne;Ille-et-Vilaine;La Boussac 35034;W1.6667;N48.5167;13;
3;FRA;Bretagne;Ille-et-Vilaine;La Chapelle-aux-Filtzméens 35056;W1.8251;N48.3837;13;
3;FRA;Bretagne;Ille-et-Vilaine;La Chapelle-Bouëxic 35057;W1.9333;N47.9333;13;
3;FRA;Bretagne;Ille-et-Vilaine;La Chapelle-Chaussée 35058;W1.8500;N48.2667;13;
3;FRA;Bretagne;Ille-et-Vilaine;La Chapelle-de-Brain 35064;W1.9350;N47.6986;13;
3;FRA;Bretagne;Ille-et-Vilaine;La Chapelle-des-Fougeretz 35059;W1.7323;N48.1753;13;
3;FRA;Bretagne;Ille-et-Vilaine;La Chapelle-du-Lou 35060;W2.0000;N48.2167;13;
3;FRA;Bretagne;Ille-et-Vilaine;La Chapelle-Erbrée 35061;W1.1000;N48.1333;13;
3;FRA;Bretagne;Ille-et-Vilaine;La Chapelle-Janson 35062;W1.1000;N48.3500;13;
3;FRA;Bretagne;Ille-et-Vilaine;La Chapelle-Saint-Aubert 35063;W1.3000;N48.3167;13;
3;FRA;Bretagne;Ille-et-Vilaine;La Chapelle-Thouarault 35065;W1.8667;N48.1333;13;
3;FRA;Bretagne;Ille-et-Vilaine;La Couyère 35089;W1.5000;N47.8833;13;
3;FRA;Bretagne;Ille-et-Vilaine;La Dominelais 35098;W1.6833;N47.7667;13;
3;FRA;Bretagne;Ille-et-Vilaine;La Fontenelle 35113;W1.5000;N48.4667;13;
3;FRA;Bretagne;Ille-et-Vilaine;La Fresnais 35116;W1.8500;N48.6000;13;
3;FRA;Bretagne;Ille-et-Vilaine;La Gouesnière 35122;W1.9000;N48.6167;13;
3;FRA;Bretagne;Ille-et-Vilaine;La Guerche-de-Bretagne 35125;W1.2333;N47.9333;13;
3;FRA;Bretagne;Ille-et-Vilaine;La Mézière 35177;W1.7500;N48.2167;13;
3;FRA;Bretagne;Ille-et-Vilaine;La Noë-Blanche 35202;W1.7333;N47.8000;13;
3;FRA;Bretagne;Ille-et-Vilaine;La Nouaye 35203;W1.9833;N48.1500;13;
3;FRA;Bretagne;Ille-et-Vilaine;La Richardais 35241;W2.0333;N48.6000;13;
3;FRA;Bretagne;Ille-et-Vilaine;La Selle-en-Coglès 35323;W1.3500;N48.4333;13;
3;FRA;Bretagne;Ille-et-Vilaine;La Selle-en-Luitré 35324;W1.1333;N48.3000;13;
3;FRA;Bretagne;Ille-et-Vilaine;La Selle-Guerchaise 35325;W1.1667;N47.9500;13;
3;FRA;Bretagne;Ille-et-Vilaine;La Ville-ès-Nonais 35358;W1.9500;N48.5500;13;
3;FRA;Bretagne;Ille-et-Vilaine;Laignelet 35138;W1.1500;N48.3667;13;
3;FRA;Bretagne;Ille-et-Vilaine;Laillé 35139;W1.7167;N47.9833;13;
3;FRA;Bretagne;Ille-et-Vilaine;Lalleu 35140;W1.5167;N47.8500;13;
3;FRA;Bretagne;Ille-et-Vilaine;Landavran 35141;W1.2833;N48.1500;13;
3;FRA;Bretagne;Ille-et-Vilaine;Landéan 35142;W1.1500;N48.4167;13;
3;FRA;Bretagne;Ille-et-Vilaine;Landujan 35143;W2.0000;N48.2500;13;
3;FRA;Bretagne;Ille-et-Vilaine;Langan 35144;W1.8500;N48.2500;13;
3;FRA;Bretagne;Ille-et-Vilaine;Langon 35145;W1.8500;N47.7167;13;
3;FRA;Bretagne;Ille-et-Vilaine;Langouet 35146;W1.8167;N48.2500;13;
3;FRA;Bretagne;Ille-et-Vilaine;Lanhélin 35147;W1.8333;N48.4500;13;
3;FRA;Bretagne;Ille-et-Vilaine;Lanrigan 35148;W1.7000;N48.4000;13;
3;FRA;Bretagne;Ille-et-Vilaine;Lassy 35149;W1.8667;N47.9833;13;
3;FRA;Bretagne;Ille-et-Vilaine;Le Châtellier 35071;W1.6667;N47.8667;13;
3;FRA;Bretagne;Ille-et-Vilaine;Le Crouais 35091;W2.1333;N48.2000;13;
3;FRA;Bretagne;Ille-et-Vilaine;Le Ferré 35111;W1.3000;N48.5000;13;
3;FRA;Bretagne;Ille-et-Vilaine;Le Loroux 35157;W1.0667;N48.4000;13;
3;FRA;Bretagne;Ille-et-Vilaine;Le Lou-du-Lac 35158;W1.9833;N48.2000;13;
3;FRA;Bretagne;Ille-et-Vilaine;Le Minihic-sur-Rance 35181;W2.0167;N48.5833;13;
3;FRA;Bretagne;Ille-et-Vilaine;Le Pertre 35217;W1.0333;N48.0333;13;
3;FRA;Bretagne;Ille-et-Vilaine;Le Petit-Fougeray 35218;W1.6000;N47.9333;13;
3;FRA;Bretagne;Ille-et-Vilaine;Le Rheu 35240;W1.8000;N48.1000;13;
3;FRA;Bretagne;Ille-et-Vilaine;Le Sel-de-Bretagne 35322;W1.6135;N47.8958;13;
3;FRA;Bretagne;Ille-et-Vilaine;Le Theil-de-Bretagne 35333;W1.4333;N47.9167;13;
3;FRA;Bretagne;Ille-et-Vilaine;Le Tiercent 35336;W1.4000;N48.3500;13;
3;FRA;Bretagne;Ille-et-Vilaine;Le Tronchet 35362;W1.8333;N48.4833;13;
3;FRA;Bretagne;Ille-et-Vilaine;Le Verger 35351;W1.9337;N48.0696;13;
3;FRA;Bretagne;Ille-et-Vilaine;Le Vivier-sur-Mer 35361;W1.7833;N48.6000;13;
3;FRA;Bretagne;Ille-et-Vilaine;Lécousse 35150;W1.2167;N48.3667;13;
3;FRA;Bretagne;Ille-et-Vilaine;Les Brulais 35046;W2.0333;N47.8833;13;
3;FRA;Bretagne;Ille-et-Vilaine;Les Iffs 35134;W1.8667;N48.2833;13;
3;FRA;Bretagne;Ille-et-Vilaine;Lieuron 35151;W1.9500;N47.8500;13;
3;FRA;Bretagne;Ille-et-Vilaine;Liffré 35152;W1.5000;N48.2167;13;
3;FRA;Bretagne;Ille-et-Vilaine;Lillemer 35153;W1.8667;N48.5667;13;
3;FRA;Bretagne;Ille-et-Vilaine;Livré-sur-Changeon 35154;W1.3500;N48.2167;13;
3;FRA;Bretagne;Ille-et-Vilaine;Lohéac 35155;W1.8833;N47.8667;13;
3;FRA;Bretagne;Ille-et-Vilaine;Longaulnay 35156;W1.9333;N48.3000;13;
3;FRA;Bretagne;Ille-et-Vilaine;Lourmais 35159;W1.7333;N48.4500;13;
3;FRA;Bretagne;Ille-et-Vilaine;Loutehel 35160;W2.0833;N47.9333;13;
3;FRA;Bretagne;Ille-et-Vilaine;Louvigné-de-Bais 35161;W1.3333;N48.0500;13;
3;FRA;Bretagne;Ille-et-Vilaine;Louvigné-du-Désert 35162;W1.1333;N48.4833;13;
3;FRA;Bretagne;Ille-et-Vilaine;Luitré 35163;W1.1167;N48.2833;13;
3;FRA;Bretagne;Ille-et-Vilaine;Marcillé-Raoul 35164;W1.6000;N48.3833;13;
3;FRA;Bretagne;Ille-et-Vilaine;Marcillé-Robert 35165;W1.3667;N47.9500;13;
3;FRA;Bretagne;Ille-et-Vilaine;Marpiré 35166;W1.3333;N48.1333;13;
3;FRA;Bretagne;Ille-et-Vilaine;Martigné-Ferchaud 35167;W1.3167;N47.8333;13;
3;FRA;Bretagne;Ille-et-Vilaine;Maure-de-Bretagne 35168;W1.9833;N47.9000;13;
3;FRA;Bretagne;Ille-et-Vilaine;Maxent 35169;W2.0333;N47.9833;13;
3;FRA;Bretagne;Ille-et-Vilaine;Mecé 35170;W1.3000;N48.2333;13;
3;FRA;Bretagne;Ille-et-Vilaine;Médréac 35171;W2.0667;N48.2667;13;
3;FRA;Bretagne;Ille-et-Vilaine;Meillac 35172;W1.8167;N48.4167;13;
3;FRA;Bretagne;Ille-et-Vilaine;Melesse 35173;W1.7000;N48.2167;13;
3;FRA;Bretagne;Ille-et-Vilaine;Mellé 35174;W1.2000;N48.5000;13;
3;FRA;Bretagne;Ille-et-Vilaine;Mernel 35175;W1.9667;N47.9000;13;
3;FRA;Bretagne;Ille-et-Vilaine;Messac 35176;W1.8000;N47.8167;13;
3;FRA;Bretagne;Ille-et-Vilaine;Mézières-sur-Couesnon 35178;W1.4500;N48.3000;13;
3;FRA;Bretagne;Ille-et-Vilaine;Miniac-Morvan 35179;W1.9000;N48.5167;13;
3;FRA;Bretagne;Ille-et-Vilaine;Miniac-sous-Bécherel 35180;W1.9333;N48.2833;13;
3;FRA;Bretagne;Ille-et-Vilaine;Moigné 35182=35240;W1.7667;N48.0833;13;
3;FRA;Bretagne;Ille-et-Vilaine;Mondevert 35183;W1.1000;N48.0833;13;
3;FRA;Bretagne;Ille-et-Vilaine;Mont-Dol 35186;W1.7667;N48.5667;13;
3;FRA;Bretagne;Ille-et-Vilaine;Montauban-de-Bretagne 35184;W2.0500;N48.2000;13;
3;FRA;Bretagne;Ille-et-Vilaine;Montautour 35185;W1.1500;N48.2000;13;
3;FRA;Bretagne;Ille-et-Vilaine;Monterfil 35187;W1.9833;N48.0667;13;
3;FRA;Bretagne;Ille-et-Vilaine;Montfort-sur-Meu 35188;W1.9667;N48.1333;13;
3;FRA;Bretagne;Ille-et-Vilaine;Montgermont 35189;W1.7167;N48.1500;13;
3;FRA;Bretagne;Ille-et-Vilaine;Monthault 35190;W1.1833;N48.5167;13;
3;FRA;Bretagne;Ille-et-Vilaine;Montours 35191;W1.3000;N48.4500;13;
3;FRA;Bretagne;Ille-et-Vilaine;Montreuil-des-Landes 35192;W1.2167;N48.2500;13;
3;FRA;Bretagne;Ille-et-Vilaine;Montreuil-le-Gast 35193;W1.7167;N48.2500;13;
3;FRA;Bretagne;Ille-et-Vilaine;Montreuil-sous-Pérouse 35194;W1.2333;N48.1500;13;
3;FRA;Bretagne;Ille-et-Vilaine;Montreuil-sur-Ille 35195;W1.6667;N48.3000;13;
3;FRA;Bretagne;Ille-et-Vilaine;Mordelles 35196;W1.8500;N48.0667;13;
3;FRA;Bretagne;Ille-et-Vilaine;Mouazé 35197;W1.6000;N48.2333;13;
3;FRA;Bretagne;Ille-et-Vilaine;Moulins 35198;W1.3667;N48.0000;13;
3;FRA;Bretagne;Ille-et-Vilaine;Moussé 35199;W1.2667;N47.9333;13;
3;FRA;Bretagne;Ille-et-Vilaine;Moutiers 35200;W1.2167;N47.9667;13;
3;FRA;Bretagne;Ille-et-Vilaine;Muel 35201;W2.1500;N48.1167;13;
3;FRA;Bretagne;Ille-et-Vilaine;Nouvoitou 35204;W1.5500;N48.0500;13;
3;FRA;Bretagne;Ille-et-Vilaine;Noyal-Châtillon-sur-Seiche 35206;W1.6500;N48.0333;13;
3;FRA;Bretagne;Ille-et-Vilaine;Noyal-sous-Bazouges 35205;W1.6333;N48.4167;13;
3;FRA;Bretagne;Ille-et-Vilaine;Noyal-sur-Vilaine 35207;W1.5167;N48.1167;13;
3;FRA;Bretagne;Ille-et-Vilaine;Orgères 35208;W1.6667;N48.0000;13;
3;FRA;Bretagne;Ille-et-Vilaine;Ossé 35209;W1.4500;N48.0500;13;
3;FRA;Bretagne;Ille-et-Vilaine;Pacé 35210;W1.7667;N48.1500;13;
3;FRA;Bretagne;Ille-et-Vilaine;Paimpont 35211;W2.1833;N48.0167;13;
3;FRA;Bretagne;Ille-et-Vilaine;Pancé 35212;W1.6667;N47.8833;13;
3;FRA;Bretagne;Ille-et-Vilaine;Paramé 35213=35288;W2.0000;N48.6667;13;
3;FRA;Bretagne;Ille-et-Vilaine;Parcé 35214;W1.2000;N48.2667;13;
3;FRA;Bretagne;Ille-et-Vilaine;Parigné 35215;W1.2000;N48.4333;13;
3;FRA;Bretagne;Ille-et-Vilaine;Parthenay-de-Bretagne 35216;W1.8333;N48.2000;13;
3;FRA;Bretagne;Ille-et-Vilaine;Pipriac 35219;W1.9500;N47.8167;13;
3;FRA;Bretagne;Ille-et-Vilaine;Piré-sur-Seiche 35220;W1.4333;N48.0000;13;
3;FRA;Bretagne;Ille-et-Vilaine;Pléchâtel 35221;W1.7500;N47.9000;13;
3;FRA;Bretagne;Ille-et-Vilaine;Pleine-Fougères 35222;W1.5667;N48.5333;13;
3;FRA;Bretagne;Ille-et-Vilaine;Plélan-le-Grand 35223;W2.1000;N48.0000;13;
3;FRA;Bretagne;Ille-et-Vilaine;Plerguer 35224;W1.8500;N48.5333;13;
3;FRA;Bretagne;Ille-et-Vilaine;Plesder 35225;W1.9167;N48.4167;13;
3;FRA;Bretagne;Ille-et-Vilaine;Pleugueneuc 35226;W1.9000;N48.4000;13;
3;FRA;Bretagne;Ille-et-Vilaine;Pleumeleuc 35227;W1.9167;N48.1833;13;
3;FRA;Bretagne;Ille-et-Vilaine;Pleurtuit 35228;W2.0667;N48.5833;13;
3;FRA;Bretagne;Ille-et-Vilaine;Pocé-les-Bois 35229;W1.2500;N48.1167;13;
3;FRA;Bretagne;Ille-et-Vilaine;Poilley 35230;W1.2667;N48.4667;13;
3;FRA;Bretagne;Ille-et-Vilaine;Poligné 35231;W1.6833;N47.8833;13;
3;FRA;Bretagne;Ille-et-Vilaine;Pont-Péan 35363;W1.7833;N48.0000;13;
3;FRA;Bretagne;Ille-et-Vilaine;Princé 35232;W1.0833;N48.2167;13;
3;FRA;Bretagne;Ille-et-Vilaine;Québriac 35233;W1.8333;N48.3500;13;
3;FRA;Bretagne;Ille-et-Vilaine;Quédillac 35234;W2.1500;N48.2500;13;
3;FRA;Bretagne;Ille-et-Vilaine;Rannée 35235;W1.2333;N47.9167;13;
3;FRA;Bretagne;Ille-et-Vilaine;Redon 35236;W2.0833;N47.6500;13;
3;FRA;Bretagne;Ille-et-Vilaine;Renac 35237;W1.9833;N47.7167;13;
3;FRA;Bretagne;Ille-et-Vilaine;Rennes 35238;W1.6833;N48.0833;13;
3;FRA;Bretagne;Ille-et-Vilaine;Retiers 35239;W1.3833;N47.9167;13;
3;FRA;Bretagne;Ille-et-Vilaine;Rimou 35242;W1.2833;N48.3500;13;
3;FRA;Bretagne;Ille-et-Vilaine;Romagné 35243;W1.5000;N48.3667;13;
3;FRA;Bretagne;Ille-et-Vilaine;Romazy 35244;W1.9000;N48.2167;13;
3;FRA;Bretagne;Ille-et-Vilaine;Romillé 35245;W1.9667;N48.6833;13;
3;FRA;Bretagne;Ille-et-Vilaine;Roz-Landrieux 35246;W1.8333;N48.5333;13;
3;FRA;Bretagne;Ille-et-Vilaine;Roz-sur-Couesnon 35247;W1.6000;N48.5833;13;
3;FRA;Bretagne;Ille-et-Vilaine;Sains 35248;W1.5833;N48.5500;13;
3;FRA;Bretagne;Ille-et-Vilaine;Saint-Armel 35250;W1.5833;N48.0167;13;
3;FRA;Bretagne;Ille-et-Vilaine;Saint-Aubin-d'Aubigné 35251;W1.6000;N48.2500;13;
3;FRA;Bretagne;Ille-et-Vilaine;Saint-Aubin-des-Landes 35252;W1.3000;N48.1000;13;
3;FRA;Bretagne;Ille-et-Vilaine;Saint-Aubin-du-Cormier 35253;W1.4000;N48.2667;13;
3;FRA;Bretagne;Ille-et-Vilaine;Saint-Aubin-du-Pavail 35254;W1.4667;N48.0500;13;
3;FRA;Bretagne;Ille-et-Vilaine;Saint-Benoît-des-Ondes 35255;W1.8500;N48.6167;13;
3;FRA;Bretagne;Ille-et-Vilaine;Saint-Briac-sur-Mer 35256;W2.1333;N48.6333;13;
3;FRA;Bretagne;Ille-et-Vilaine;Saint-Brice-en-Coglès 35257;W1.3667;N48.4000;13;
3;FRA;Bretagne;Ille-et-Vilaine;Saint-Brieuc-des-Iffs 35258;W1.8500;N48.3000;13;
3;FRA;Bretagne;Ille-et-Vilaine;Saint-Broladre 35259;W1.6500;N48.5833;13;
3;FRA;Bretagne;Ille-et-Vilaine;Saint-Christophe-de-Valains 35261;W1.4500;N48.3500;13;
3;FRA;Bretagne;Ille-et-Vilaine;Saint-Christophe-des-Bois 35260;W1.2500;N48.2333;13;
3;FRA;Bretagne;Ille-et-Vilaine;Saint-Coulomb 35263;W1.9000;N48.6833;13;
3;FRA;Bretagne;Ille-et-Vilaine;Saint-Didier 35264;W1.3667;N48.1000;13;
3;FRA;Bretagne;Ille-et-Vilaine;Saint-Domineuc 35265;W1.8667;N48.3667;13;
3;FRA;Bretagne;Ille-et-Vilaine;Saint-Erblon 35266;W1.6500;N48.0167;13;
3;FRA;Bretagne;Ille-et-Vilaine;Saint-Étienne-en-Coglès 35267;W1.3333;N48.4000;13;
3;FRA;Bretagne;Ille-et-Vilaine;Saint-Ganton 35268;W1.8833;N47.7500;13;
3;FRA;Bretagne;Ille-et-Vilaine;Saint-Georges-de-Chesné 35269;W1.2833;N48.2667;13;
3;FRA;Bretagne;Ille-et-Vilaine;Saint-Georges-de-Gréhaigne 35270;W1.5500;N48.5667;13;
3;FRA;Bretagne;Ille-et-Vilaine;Saint-Georges-de-Reintembault 35271;W1.2333;N48.5000;13;
3;FRA;Bretagne;Ille-et-Vilaine;Saint-Germain-du-Pinel 35272;W1.1667;N48.0167;13;
3;FRA;Bretagne;Ille-et-Vilaine;Saint-Germain-en-Coglès 35273;W1.2500;N48.4000;13;
3;FRA;Bretagne;Ille-et-Vilaine;Saint-Germain-sur-Ille 35274;W1.6667;N48.2500;13;
3;FRA;Bretagne;Ille-et-Vilaine;Saint-Gilles 35275;W1.8333;N48.1500;13;
3;FRA;Bretagne;Ille-et-Vilaine;Saint-Gondran 35276;W1.8333;N48.2667;13;
3;FRA;Bretagne;Ille-et-Vilaine;Saint-Gonlay 35277;W2.0667;N48.1167;13;
3;FRA;Bretagne;Ille-et-Vilaine;Saint-Grégoire 35278;W1.6833;N48.1500;13;
3;FRA;Bretagne;Ille-et-Vilaine;Saint-Guinoux 35279;W1.8833;N48.5833;13;
3;FRA;Bretagne;Ille-et-Vilaine;Saint-Hilaire-des-Landes 35280;W1.3500;N48.3500;13;
3;FRA;Bretagne;Ille-et-Vilaine;Saint-Jacques-de-la-Lande 35281;W1.7167;N48.0667;13;
3;FRA;Bretagne;Ille-et-Vilaine;Saint-Jean-sur-Couesnon 35282;W1.3667;N48.2833;13;
3;FRA;Bretagne;Ille-et-Vilaine;Saint-Jean-sur-Vilaine 35283;W1.3667;N48.1167;13;
3;FRA;Bretagne;Ille-et-Vilaine;Saint-Jouan-des-Guérets 35284;W1.9667;N48.6000;13;
3;FRA;Bretagne;Ille-et-Vilaine;Saint-Just 35285;W1.9667;N47.7667;13;
3;FRA;Bretagne;Ille-et-Vilaine;Saint-Léger-des-Prés 35286;W1.6500;N48.4000;13;
3;FRA;Bretagne;Ille-et-Vilaine;Saint-Lunaire 35287;W2.1167;N48.6333;13;
3;FRA;Bretagne;Ille-et-Vilaine;Saint-M'Hervé 35300;W1.1167;N48.1833;13;
3;FRA;Bretagne;Ille-et-Vilaine;Saint-M'Hervon 35301;W2.0500;N48.2333;13;
3;FRA;Bretagne;Ille-et-Vilaine;Saint-Malo 35288;W2.0167;N48.6500;13;
3;FRA;Bretagne;Ille-et-Vilaine;Saint-Malo-de-Phily 35289;W1.7833;N47.8667;13;
3;FRA;Bretagne;Ille-et-Vilaine;Saint-Malon-sur-Mel 35290;W2.0833;N48.0833;13;
3;FRA;Bretagne;Ille-et-Vilaine;Saint-Marc-le-Blanc 35292;W1.4000;N48.3667;13;
3;FRA;Bretagne;Ille-et-Vilaine;Saint-Marc-sur-Couesnon 35293;W1.3667;N48.3000;13;
3;FRA;Bretagne;Ille-et-Vilaine;Saint-Marcan 35291;W1.6333;N48.5833;13;
3;FRA;Bretagne;Ille-et-Vilaine;Saint-Maugan 35295;W2.0833;N48.1333;13;
3;FRA;Bretagne;Ille-et-Vilaine;Saint-Médard-sur-Ille 35296;W1.6667;N48.2667;13;
3;FRA;Bretagne;Ille-et-Vilaine;Saint-Méen-le-Grand 35297;W2.2000;N48.1833;13;
3;FRA;Bretagne;Ille-et-Vilaine;Saint-Melaine 35298=35068;W1.3833;N48.1167;13;
3;FRA;Bretagne;Ille-et-Vilaine;Saint-Méloir-des-Ondes 35299;W1.9000;N48.6500;13;
3;FRA;Bretagne;Ille-et-Vilaine;Saint-Onen-la-Chapelle 35302;W2.1667;N48.1667;13;
3;FRA;Bretagne;Ille-et-Vilaine;Saint-Ouen-des-Alleux 35304;W1.4167;N48.3333;13;
3;FRA;Bretagne;Ille-et-Vilaine;Saint-Ouen-la-Rouërie 35303;W1.4333;N48.4500;13;
3;FRA;Bretagne;Ille-et-Vilaine;Saint-Péran 35305;W2.0500;N48.0500;13;
3;FRA;Bretagne;Ille-et-Vilaine;Saint-Père 35306;W1.9167;N48.5833;13;
3;FRA;Bretagne;Ille-et-Vilaine;Saint-Pern 35307;W1.9833;N48.2833;13;
3;FRA;Bretagne;Ille-et-Vilaine;Saint-Pierre-de-Plesguen 35308;W1.9167;N48.4500;13;
3;FRA;Bretagne;Ille-et-Vilaine;Saint-Rémy-du-Plain 35309;W1.5667;N48.3667;13;
3;FRA;Bretagne;Ille-et-Vilaine;Saint-Sauveur-des-Landes 35310;W1.3167;N48.3333;13;
3;FRA;Bretagne;Ille-et-Vilaine;Saint-Séglin 35311;W2.0000;N47.8500;13;
3;FRA;Bretagne;Ille-et-Vilaine;Saint-Senoux 35312;W1.7833;N47.9000;13;
3;FRA;Bretagne;Ille-et-Vilaine;Saint-Servan-sur-Mer 35313=35288;W2.0167;N48.6333;13;
3;FRA;Bretagne;Ille-et-Vilaine;Saint-Suliac 35314;W1.9667;N48.5667;13;
3;FRA;Bretagne;Ille-et-Vilaine;Saint-Sulpice-des-Landes 35316;W1.6167;N47.7667;13;
3;FRA;Bretagne;Ille-et-Vilaine;Saint-Sulpice-la-Forêt 35315;W1.5833;N48.2167;13;
3;FRA;Bretagne;Ille-et-Vilaine;Saint-Symphorien 35317=35130;W1.8333;N48.2833;13;
3;FRA;Bretagne;Ille-et-Vilaine;Saint-Thual 35318;W1.9333;N48.3333;13;
3;FRA;Bretagne;Ille-et-Vilaine;Saint-Thurial 35319;W1.9333;N48.0333;13;
3;FRA;Bretagne;Ille-et-Vilaine;Saint-Uniac 35320;W2.0333;N48.1667;13;
3;FRA;Bretagne;Ille-et-Vilaine;Sainte-Anne-sur-Vilaine 35249;W1.8167;N47.7333;13;
3;FRA;Bretagne;Ille-et-Vilaine;Sainte-Colombe 35262;W1.4500;N47.8833;13;
3;FRA;Bretagne;Ille-et-Vilaine;Sainte-Marie 35294;W2.0000;N47.7000;13;
3;FRA;Bretagne;Ille-et-Vilaine;Saulnières 35321;W1.5833;N47.9167;13;
3;FRA;Bretagne;Ille-et-Vilaine;Sens-de-Bretagne 35326;W1.5500;N48.3333;13;
3;FRA;Bretagne;Ille-et-Vilaine;Servon-sur-Vilaine 35327;W1.4500;N48.1167;13;
3;FRA;Bretagne;Ille-et-Vilaine;Sixt-sur-Aff 35328;W2.0833;N47.7833;13;
3;FRA;Bretagne;Ille-et-Vilaine;Sougéal 35329;W1.5167;N48.5167;13;
3;FRA;Bretagne;Ille-et-Vilaine;Taillis 35330;W1.2333;N48.1833;13;
3;FRA;Bretagne;Ille-et-Vilaine;Talensac 35331;W1.9333;N48.1000;13;
3;FRA;Bretagne;Ille-et-Vilaine;Teillay 35332;W1.5333;N47.8000;13;
3;FRA;Bretagne;Ille-et-Vilaine;Thorigné-Fouillard 35334;W1.5667;N48.1500;13;
3;FRA;Bretagne;Ille-et-Vilaine;Thourie 35335;W1.4833;N47.8500;13;
3;FRA;Bretagne;Ille-et-Vilaine;Tinténiac 35337;W1.8500;N48.3167;13;
3;FRA;Bretagne;Ille-et-Vilaine;Torcé 35338;W1.2667;N48.0667;13;
3;FRA;Bretagne;Ille-et-Vilaine;Trans-la-Forêt 35339;W1.6000;N48.5000;13;
3;FRA;Bretagne;Ille-et-Vilaine;Treffendel 35340;W2.0000;N48.0333;13;
3;FRA;Bretagne;Ille-et-Vilaine;Tremblay 35341;W1.4667;N48.4167;13;
3;FRA;Bretagne;Ille-et-Vilaine;Trémeheuc 35342;W1.7000;N48.4333;13;
3;FRA;Bretagne;Ille-et-Vilaine;Tresboeuf 35343;W1.5500;N47.8833;13;
3;FRA;Bretagne;Ille-et-Vilaine;Tressé 35344;W1.8833;N48.4833;13;
3;FRA;Bretagne;Ille-et-Vilaine;Trévérien 35345;W1.9333;N48.3667;13;
3;FRA;Bretagne;Ille-et-Vilaine;Trimer 35346;W1.8833;N48.3333;13;
3;FRA;Bretagne;Ille-et-Vilaine;Val-d'Izé 35347;W1.3000;N48.1833;13;
3;FRA;Bretagne;Ille-et-Vilaine;Vendel 35348;W1.3167;N48.3000;13;
3;FRA;Bretagne;Ille-et-Vilaine;Veneffles 35349=35069;W1.2667;N48.0333;13;
3;FRA;Bretagne;Ille-et-Vilaine;Vergéal 35350;W1.6000;N48.0500;13;
3;FRA;Bretagne;Ille-et-Vilaine;Vern-sur-Seiche 35352;W1.7500;N48.1167;13;
3;FRA;Bretagne;Ille-et-Vilaine;Vezin-le-Coquet 35353;W1.6000;N47.6833;13;
3;FRA;Bretagne;Ille-et-Vilaine;Vieux-Viel 35354;W1.5500;N48.5167;13;
3;FRA;Bretagne;Ille-et-Vilaine;Vieux-Vy-sur-Couesnon 35355;W1.4833;N48.3500;13;
3;FRA;Bretagne;Ille-et-Vilaine;Vignoc 35356;W1.7833;N48.2500;13;
3;FRA;Bretagne;Ille-et-Vilaine;Villamée 35357;W1.2167;N48.4667;13;
3;FRA;Bretagne;Ille-et-Vilaine;Visseiche 35359;W1.3000;N47.9500;13;
3;FRA;Bretagne;Ille-et-Vilaine;Vitré 35360;W1.2000;N48.1333;13;
2;FRA;Bretagne;Morbihan;;W2.7686;N47.8463;9;
3;FRA;Bretagne;Morbihan;Allaire 56001;W2.1667;N47.6333;13;
3;FRA;Bretagne;Morbihan;Ambon 56002;W2.5667;N47.5500;13;
3;FRA;Bretagne;Morbihan;Arradon 56003;W2.8333;N47.6333;13;
3;FRA;Bretagne;Morbihan;Arzal 56004;W2.3667;N47.5167;13;
3;FRA;Bretagne;Morbihan;Arzon 56005;W2.9000;N47.5500;13;
3;FRA;Bretagne;Morbihan;Augan 56006;W2.2833;N47.9167;13;
3;FRA;Bretagne;Morbihan;Auray 56007;W2.9833;N47.6667;13;
3;FRA;Bretagne;Morbihan;Baden 56008;W2.9167;N47.6167;13;
3;FRA;Bretagne;Morbihan;Bangor 56009;W3.1890;N47.3167;13;
3;FRA;Bretagne;Morbihan;Baud 56010;W3.0167;N47.8667;13;
3;FRA;Bretagne;Morbihan;Béganne 56011;W2.2500;N47.6000;13;
3;FRA;Bretagne;Morbihan;Beignon 56012;W2.1667;N47.9667;13;
3;FRA;Bretagne;Morbihan;Belz 56013;W3.1667;N47.6833;13;
3;FRA;Bretagne;Morbihan;Berné 56014;W3.4000;N48.0000;13;
3;FRA;Bretagne;Morbihan;Berric 56015;W2.5167;N47.6333;13;
3;FRA;Bretagne;Morbihan;Bieuzy 56016;W3.0500;N47.9667;13;
3;FRA;Bretagne;Morbihan;Bignan 56017;W2.7667;N47.8833;13;
3;FRA;Bretagne;Morbihan;Billiers 56018;W2.4833;N47.5333;13;
3;FRA;Bretagne;Morbihan;Billio 56019;W2.6333;N47.8667;13;
3;FRA;Bretagne;Morbihan;Bohal 56020;W2.4333;N47.7833;13;
3;FRA;Bretagne;Morbihan;Bono 56262;W2.9333;N47.6333;13;
3;FRA;Bretagne;Morbihan;Brandérion 56021;W3.2000;N47.7833;13;
3;FRA;Bretagne;Morbihan;Brandivy 56022;W2.9500;N47.7833;13;
3;FRA;Bretagne;Morbihan;Brech 56023;W2.9833;N47.7167;13;
3;FRA;Bretagne;Morbihan;Bréhan 56024;W2.6833;N48.0500;13;
3;FRA;Bretagne;Morbihan;Brignac 56025;W2.3833;N48.1167;13;
3;FRA;Bretagne;Morbihan;Bubry 56026;W3.1667;N47.9667;13;
3;FRA;Bretagne;Morbihan;Buléon 56027;W2.7000;N47.9333;13;
3;FRA;Bretagne;Morbihan;Caden 56028;W2.2833;N47.6333;13;
3;FRA;Bretagne;Morbihan;Calan 56029;W3.3167;N47.8667;13;
3;FRA;Bretagne;Morbihan;Camoël 56030;W2.4000;N47.4833;13;
3;FRA;Bretagne;Morbihan;Camors 56031;W3.0000;N47.8500;13;
3;FRA;Bretagne;Morbihan;Campénéac 56032;W2.3000;N47.9500;13;
3;FRA;Bretagne;Morbihan;Carentoir 56033;W2.1333;N47.8167;13;
3;FRA;Bretagne;Morbihan;Carnac 56034;W3.0833;N47.5833;13;
3;FRA;Bretagne;Morbihan;Caro 56035;W2.3167;N47.8667;13;
3;FRA;Bretagne;Morbihan;Caudan 56036;W3.3333;N47.8167;13;
3;FRA;Bretagne;Morbihan;Cléguer 56040;W3.3667;N47.8500;13;
3;FRA;Bretagne;Morbihan;Cléguérec 56041;W3.0833;N48.1167;13;
3;FRA;Bretagne;Morbihan;Colpo 56042;W2.8167;N47.8167;13;
3;FRA;Bretagne;Morbihan;Concoret 56043;W2.2000;N48.0667;13;
3;FRA;Bretagne;Morbihan;Cournon 56044;W2.1000;N47.7500;13;
3;FRA;Bretagne;Morbihan;Crach 56046;W3.0083;N47.6167;13;
3;FRA;Bretagne;Morbihan;Crédin 56047;W2.7667;N48.0333;13;
3;FRA;Bretagne;Morbihan;Croixanvec 56049;W2.8667;N48.1333;13;
3;FRA;Bretagne;Morbihan;Cruguel 56051;W2.6000;N47.8833;13;
3;FRA;Bretagne;Morbihan;Damgan 56052;W2.5833;N47.5167;13;
3;FRA;Bretagne;Morbihan;Elven 56053;W2.5833;N47.7333;13;
3;FRA;Bretagne;Morbihan;Erdeven 56054;W3.1500;N47.6333;13;
3;FRA;Bretagne;Morbihan;Étel 56055;W3.2000;N47.6500;13;
3;FRA;Bretagne;Morbihan;Évriguet 56056;W2.4167;N48.0833;13;
3;FRA;Bretagne;Morbihan;Férel 56058;W2.3500;N47.4833;13;
3;FRA;Bretagne;Morbihan;Gâvres 56062;W3.3500;N47.6833;13;
3;FRA;Bretagne;Morbihan;Gestel 56063;W3.4500;N47.8000;13;
3;FRA;Bretagne;Morbihan;Glénac 56064;W2.1333;N47.7333;13;
3;FRA;Bretagne;Morbihan;Gourhel 56065;W2.3667;N47.9333;13;
3;FRA;Bretagne;Morbihan;Gourin 56066;W3.6000;N48.1333;13;
3;FRA;Bretagne;Morbihan;Grand-Champ 56067;W2.8500;N47.7667;13;
3;FRA;Bretagne;Morbihan;Groix 56069;W3.4667;N47.6333;13;
3;FRA;Bretagne;Morbihan;Guégon 56070;W2.5667;N47.9333;13;
3;FRA;Bretagne;Morbihan;Guéhenno 56071;W2.6333;N47.9000;13;
3;FRA;Bretagne;Morbihan;Gueltas 56072;W2.8000;N48.1000;13;
3;FRA;Bretagne;Morbihan;Guémené-sur-Scorff 56073;W3.2000;N48.0667;13;
3;FRA;Bretagne;Morbihan;Guénin 56074;W2.9833;N47.9000;13;
3;FRA;Bretagne;Morbihan;Guer 56075;W2.1167;N47.9000;13;
3;FRA;Bretagne;Morbihan;Guern 56076;W3.0833;N48.0333;13;
3;FRA;Bretagne;Morbihan;Guidel 56078;W3.4833;N47.7833;13;
3;FRA;Bretagne;Morbihan;Guillac 56079;W2.4667;N47.9167;13;
3;FRA;Bretagne;Morbihan;Guilliers 56080;W2.4000;N48.0500;13;
3;FRA;Bretagne;Morbihan;Guiscriff 56081;W3.6500;N48.0500;13;
3;FRA;Bretagne;Morbihan;Helléan 56082;W2.4667;N47.9667;13;
3;FRA;Bretagne;Morbihan;Hennebont 56083;W3.2833;N47.8000;13;
3;FRA;Bretagne;Morbihan;Hoedic 56085;W2.8833;N47.3333;13;
3;FRA;Bretagne;Morbihan;Île-aux-Moines 56087;W2.8333;N47.5833;13;
3;FRA;Bretagne;Morbihan;Île-d'Arz 56088;W2.8000;N47.5833;13;
3;FRA;Bretagne;Morbihan;Île-d'Houat 56086;W2.9500;N47.3833;13;
3;FRA;Bretagne;Morbihan;Inguiniel 56089;W3.2833;N47.9833;13;
3;FRA;Bretagne;Morbihan;Inzinzac-Lochrist 56090;W3.2500;N47.8333;13;
3;FRA;Bretagne;Morbihan;Josselin 56091;W2.5500;N47.9500;13;
3;FRA;Bretagne;Morbihan;Kerfourn 56092;W2.8333;N48.0333;13;
3;FRA;Bretagne;Morbihan;Kergrist 56093;W2.9667;N48.1500;13;
3;FRA;Bretagne;Morbihan;Kernascléden 56264;W3.3167;N48.0000;13;
3;FRA;Bretagne;Morbihan;Kervignac 56094;W3.2333;N47.7667;13;
3;FRA;Bretagne;Morbihan;Keryado 56095=56121;W3.3950;N47.7635;13;
3;FRA;Bretagne;Morbihan;La Chapelle-Caro 56037;W2.4220;N47.8655;13;
3;FRA;Bretagne;Morbihan;La Chapelle-Gaceline 56038;W2.1000;N47.7833;13;
3;FRA;Bretagne;Morbihan;La Chapelle-Neuve 56039;W2.9500;N47.8667;13;
3;FRA;Bretagne;Morbihan;La Croix-Helléan 56050;W2.5000;N47.9500;13;
3;FRA;Bretagne;Morbihan;La Gacilly 56061;W2.1500;N47.7667;13;
3;FRA;Bretagne;Morbihan;La Grée-Saint-Laurent 56068;W2.5000;N48.0000;13;
3;FRA;Bretagne;Morbihan;La Roche-Bernard 56195;W2.3000;N47.5167;13;
3;FRA;Bretagne;Morbihan;La Trinité-Porhoët 56257;W2.5500;N48.1000;13;
3;FRA;Bretagne;Morbihan;La Trinité-sur-Mer 56258;W3.0333;N47.5833;13;
3;FRA;Bretagne;Morbihan;La Trinité-Surzur 56259;W2.6000;N47.6000;13;
3;FRA;Bretagne;Morbihan;La Vraie-Croix 56261;W2.5500;N47.6833;13;
3;FRA;Bretagne;Morbihan;Landaul 56096;W3.0667;N47.7500;13;
3;FRA;Bretagne;Morbihan;Landévant 56097;W3.1167;N47.7667;13;
3;FRA;Bretagne;Morbihan;Lanester 56098;W3.3500;N47.7500;13;
3;FRA;Bretagne;Morbihan;Langoëlan 56099;W3.2333;N48.1167;13;
3;FRA;Bretagne;Morbihan;Langonnet 56100;W3.5000;N48.1000;13;
3;FRA;Bretagne;Morbihan;Languidic 56101;W3.1667;N47.8333;13;
3;FRA;Bretagne;Morbihan;Lanouée 56102;W2.5833;N48.0000;13;
3;FRA;Bretagne;Morbihan;Lantillac 56103;W2.6500;N47.9500;13;
3;FRA;Bretagne;Morbihan;Lanvaudan 56104;W3.2667;N47.9000;13;
3;FRA;Bretagne;Morbihan;Lanvénégen 56105;W3.5500;N48.0000;13;
3;FRA;Bretagne;Morbihan;Larmor-Baden 56106;W2.9000;N47.5833;13;
3;FRA;Bretagne;Morbihan;Larmor-Plage 56107;W3.3833;N47.7000;13;
3;FRA;Bretagne;Morbihan;Larré 56108;W2.5167;N47.7167;13;
3;FRA;Bretagne;Morbihan;Lauzach 56109;W2.5333;N47.6167;13;
3;FRA;Bretagne;Morbihan;Le Cours 56045;W2.5000;N47.7333;13;
3;FRA;Bretagne;Morbihan;Le Croisty 56048;W3.3639;N48.0645;13;
3;FRA;Bretagne;Morbihan;Le Faouët 56057;W3.5000;N48.0417;13;
3;FRA;Bretagne;Morbihan;Le Guerno 56077;W2.4000;N47.5833;13;
3;FRA;Bretagne;Morbihan;Le Hézo 56084;W2.7000;N47.5833;13;
3;FRA;Bretagne;Morbihan;Le Palais 56152;W3.1500;N47.3500;13;
3;FRA;Bretagne;Morbihan;Le Roc-Saint-André 56197;W2.4500;N47.8667;13;
3;FRA;Bretagne;Morbihan;Le Saint 56201;W3.5667;N48.0833;13;
3;FRA;Bretagne;Morbihan;Le Sourn 56246;W2.9833;N48.0500;13;
3;FRA;Bretagne;Morbihan;Le Tour-du-Parc 56252;W2.6500;N47.5167;13;
3;FRA;Bretagne;Morbihan;Les Forges 56059;W2.6500;N48.0167;13;
3;FRA;Bretagne;Morbihan;Les Fougerêts 56060;W2.2167;N47.7333;13;
3;FRA;Bretagne;Morbihan;Lignol 56110;W3.2667;N48.0333;13;
3;FRA;Bretagne;Morbihan;Limerzel 56111;W2.3667;N47.6333;13;
3;FRA;Bretagne;Morbihan;Lizio 56112;W2.5167;N47.8667;13;
3;FRA;Bretagne;Morbihan;Locmalo 56113;W3.1917;N48.0750;13;
3;FRA;Bretagne;Morbihan;Locmaria 56114;W3.0833;N47.2917;13;
3;FRA;Bretagne;Morbihan;Locmaria-Grand-Champ 56115;W2.7833;N47.7500;13;
3;FRA;Bretagne;Morbihan;Locmariaquer 56116;W2.9500;N47.5667;13;
3;FRA;Bretagne;Morbihan;Locminé 56117;W2.8333;N47.8833;13;
3;FRA;Bretagne;Morbihan;Locmiquélic 56118;W3.3500;N47.7167;13;
3;FRA;Bretagne;Morbihan;Locoal-Mendon 56119;W3.1000;N47.7167;13;
3;FRA;Bretagne;Morbihan;Locqueltas 56120;W2.7500;N47.7500;13;
3;FRA;Bretagne;Morbihan;Lorient 56121;W3.3667;N47.7500;13;
3;FRA;Bretagne;Morbihan;Loyat 56122;W2.4000;N47.9833;13;
3;FRA;Bretagne;Morbihan;Malansac 56123;W2.3000;N47.6833;13;
3;FRA;Bretagne;Morbihan;Malestroit 56124;W2.3833;N47.8167;13;
3;FRA;Bretagne;Morbihan;Malguénac 56125;W3.0500;N48.0833;13;
3;FRA;Bretagne;Morbihan;Marzan 56126;W2.3167;N47.5333;13;
3;FRA;Bretagne;Morbihan;Mauron 56127;W2.3000;N48.0833;13;
3;FRA;Bretagne;Morbihan;Melrand 56128;W3.1167;N47.9833;13;
3;FRA;Bretagne;Morbihan;Ménéac 56129;W2.4667;N48.1500;13;
3;FRA;Bretagne;Morbihan;Merlevenez 56130;W3.2333;N47.7333;13;
3;FRA;Bretagne;Morbihan;Meslan 56131;W3.4333;N48.0000;13;
3;FRA;Bretagne;Morbihan;Meucon 56132;W2.7667;N47.7167;13;
3;FRA;Bretagne;Morbihan;Missiriac 56133;W2.3500;N47.8333;13;
3;FRA;Bretagne;Morbihan;Mohon 56134;W2.5333;N48.0500;13;
3;FRA;Bretagne;Morbihan;Molac 56135;W2.4000;N47.7500;13;
3;FRA;Bretagne;Morbihan;Monteneuf 56136;W2.2000;N47.8667;13;
3;FRA;Bretagne;Morbihan;Monterblanc 56137;W2.6833;N47.7500;13;
3;FRA;Bretagne;Morbihan;Monterrein 56138;W2.3500;N47.8833;13;
3;FRA;Bretagne;Morbihan;Montertelot 56139;W2.4167;N47.8833;13;
3;FRA;Bretagne;Morbihan;Moréac 56140;W2.8167;N47.9167;13;
3;FRA;Bretagne;Morbihan;Moustoir-Ac 56141;W2.8333;N47.8500;13;
3;FRA;Bretagne;Morbihan;Moustoir-Remungol 56142;W2.9000;N48.0000;13;
3;FRA;Bretagne;Morbihan;Muzillac 56143;W2.4833;N47.5500;13;
3;FRA;Bretagne;Morbihan;Naizin 56144;W2.8333;N47.9833;13;
3;FRA;Bretagne;Morbihan;Néant-sur-Yvel 56145;W2.3333;N48.0167;13;
3;FRA;Bretagne;Morbihan;Neulliac 56146;W2.9833;N48.1333;13;
3;FRA;Bretagne;Morbihan;Nivillac 56147;W2.2833;N47.5333;13;
3;FRA;Bretagne;Morbihan;Nostang 56148;W3.1833;N47.7500;13;
3;FRA;Bretagne;Morbihan;Noyal-Muzillac 56149;W2.4500;N47.5833;13;
3;FRA;Bretagne;Morbihan;Noyal-Pontivy 56151;W2.8833;N48.0667;13;
3;FRA;Bretagne;Morbihan;Noyalo 56150;W2.6833;N47.6167;13;
3;FRA;Bretagne;Morbihan;Péaule 56153;W2.3667;N47.5833;13;
3;FRA;Bretagne;Morbihan;Peillac 56154;W2.2167;N47.7167;13;
3;FRA;Bretagne;Morbihan;Pénestin 56155;W2.4833;N47.4833;13;
3;FRA;Bretagne;Morbihan;Persquen 56156;W3.1667;N48.0333;13;
3;FRA;Bretagne;Morbihan;Plaudren 56157;W2.7000;N47.7833;13;
3;FRA;Bretagne;Morbihan;Plescop 56158;W2.8000;N47.7000;13;
3;FRA;Bretagne;Morbihan;Pleucadeuc 56159;W2.3667;N47.7500;13;
3;FRA;Bretagne;Morbihan;Pleugriffet 56160;W2.6833;N47.9833;13;
3;FRA;Bretagne;Morbihan;Ploemel 56161;W3.0667;N47.6500;13;
3;FRA;Bretagne;Morbihan;Ploemeur 56162;W3.4333;N47.7333;13;
3;FRA;Bretagne;Morbihan;Ploërdut 56163;W3.2833;N48.0833;13;
3;FRA;Bretagne;Morbihan;Ploeren 56164;W2.8833;N47.6500;13;
3;FRA;Bretagne;Morbihan;Ploërmel 56165;W2.4000;N47.9333;13;
3;FRA;Bretagne;Morbihan;Plouay 56166;W3.3333;N47.9167;13;
3;FRA;Bretagne;Morbihan;Plougoumelen 56167;W2.9333;N47.6500;13;
3;FRA;Bretagne;Morbihan;Plouharnel 56168;W3.1167;N47.6000;13;
3;FRA;Bretagne;Morbihan;Plouhinec 56169;W3.2333;N47.6833;13;
3;FRA;Bretagne;Morbihan;Plouray 56170;W3.3833;N48.1500;13;
3;FRA;Bretagne;Morbihan;Pluherlin 56171;W2.3667;N47.7000;13;
3;FRA;Bretagne;Morbihan;Plumelec 56172;W2.6500;N47.8333;13;
3;FRA;Bretagne;Morbihan;Pluméliau 56173;W2.9667;N47.9667;13;
3;FRA;Bretagne;Morbihan;Plumelin 56174;W2.8833;N47.8667;13;
3;FRA;Bretagne;Morbihan;Plumergat 56175;W2.9167;N47.7500;13;
3;FRA;Bretagne;Morbihan;Pluneret 56176;W2.9667;N47.6833;13;
3;FRA;Bretagne;Morbihan;Pluvigner 56177;W3.0167;N47.7667;13;
3;FRA;Bretagne;Morbihan;Pont-Scorff 56179;W3.4000;N47.8333;13;
3;FRA;Bretagne;Morbihan;Pontivy 56178;W2.9833;N48.0667;13;
3;FRA;Bretagne;Morbihan;Porcaro 56180;W2.2000;N47.9167;13;
3;FRA;Bretagne;Morbihan;Port-Louis 56181;W3.3500;N47.7167;13;
3;FRA;Bretagne;Morbihan;Priziac 56182;W3.4167;N48.0667;13;
3;FRA;Bretagne;Morbihan;Quelneuc 56183;W2.0667;N47.8167;13;
3;FRA;Bretagne;Morbihan;Questembert 56184;W2.4667;N47.6667;13;
3;FRA;Bretagne;Morbihan;Quéven 56185;W3.4167;N47.7833;13;
3;FRA;Bretagne;Morbihan;Quiberon 56186;W3.1167;N47.4833;13;
3;FRA;Bretagne;Morbihan;Quily 56187;W2.4667;N47.8833;13;
3;FRA;Bretagne;Morbihan;Quistinic 56188;W3.1333;N47.9167;13;
3;FRA;Bretagne;Morbihan;Radenac 56189;W2.7167;N47.9667;13;
3;FRA;Bretagne;Morbihan;Réguiny 56190;W2.7500;N47.9667;13;
3;FRA;Bretagne;Morbihan;Réminiac 56191;W2.2500;N47.8500;13;
3;FRA;Bretagne;Morbihan;Remungol 56192;W2.9000;N47.9333;13;
3;FRA;Bretagne;Morbihan;Riantec 56193;W3.3167;N47.7167;13;
3;FRA;Bretagne;Morbihan;Rieux 56194;W2.1000;N47.6000;13;
3;FRA;Bretagne;Morbihan;Rochefort-en-Terre 56196;W2.3333;N47.7000;13;
3;FRA;Bretagne;Morbihan;Rohan 56198;W2.7667;N48.0667;13;
3;FRA;Bretagne;Morbihan;Roudouallec 56199;W3.7167;N48.1250;13;
3;FRA;Bretagne;Morbihan;Ruffiac 56200;W2.2833;N47.8167;13;
3;FRA;Bretagne;Morbihan;Saint-Abraham 56202;W2.4000;N47.8500;13;
3;FRA;Bretagne;Morbihan;Saint-Aignan 56203;W3.0167;N48.1833;13;
3;FRA;Bretagne;Morbihan;Saint-Allouestre 56204;W2.8833;N47.9167;13;
3;FRA;Bretagne;Morbihan;Saint-Armel 56205;W2.7167;N47.5667;13;
3;FRA;Bretagne;Morbihan;Saint-Avé 56206;W2.7500;N47.6833;13;
3;FRA;Bretagne;Morbihan;Saint-Barthélemy 56207;W3.0500;N47.9333;13;
3;FRA;Bretagne;Morbihan;Saint-Brieuc-de-Mauron 56208;W2.3667;N48.0833;13;
3;FRA;Bretagne;Morbihan;Saint-Caradec-Trégomel 56210;W3.3500;N48.0333;13;
3;FRA;Bretagne;Morbihan;Saint-Congard 56211;W2.3167;N47.7667;13;
3;FRA;Bretagne;Morbihan;Saint-Dolay 56212;W2.1500;N47.5500;13;
3;FRA;Bretagne;Morbihan;Saint-Gérand 56213;W2.8833;N48.1000;13;
3;FRA;Bretagne;Morbihan;Saint-Gildas-de-Rhuys 56214;W2.8333;N47.5000;13;
3;FRA;Bretagne;Morbihan;Saint-Gonnery 56215;W2.8167;N48.1167;13;
3;FRA;Bretagne;Morbihan;Saint-Gorgon 56216;W2.2333;N47.6500;13;
3;FRA;Bretagne;Morbihan;Saint-Gouvry 56217=56198;W2.7667;N48.0833;13;
3;FRA;Bretagne;Morbihan;Saint-Gravé 56218;W2.2833;N47.7167;13;
3;FRA;Bretagne;Morbihan;Saint-Guyomard 56219;W2.5167;N47.7833;13;
3;FRA;Bretagne;Morbihan;Saint-Jacut-les-Pins 56221;W2.2167;N47.6833;13;
3;FRA;Bretagne;Morbihan;Saint-Jean-Brévelay 56222;W2.7167;N47.8500;13;
3;FRA;Bretagne;Morbihan;Saint-Jean-la-Poterie 56223;W2.1333;N47.6333;13;
3;FRA;Bretagne;Morbihan;Saint-Laurent-sur-Oust 56224;W2.3167;N47.7833;13;
3;FRA;Bretagne;Morbihan;Saint-Léry 56225;W2.2500;N48.0833;13;
3;FRA;Bretagne;Morbihan;Saint-Malo-de-Beignon 56226;W2.1500;N47.9500;13;
3;FRA;Bretagne;Morbihan;Saint-Malo-des-Trois-Fontaines 56227;W2.4667;N48.0167;13;
3;FRA;Bretagne;Morbihan;Saint-Marcel 56228;W2.4167;N47.8000;13;
3;FRA;Bretagne;Morbihan;Saint-Martin 56229;W2.2500;N47.7333;13;
3;FRA;Bretagne;Morbihan;Saint-Nicolas-du-Tertre 56230;W2.2167;N47.8000;13;
3;FRA;Bretagne;Morbihan;Saint-Nolff 56231;W2.6500;N47.7000;13;
3;FRA;Bretagne;Morbihan;Saint-Perreux 56232;W2.1000;N47.6667;13;
3;FRA;Bretagne;Morbihan;Saint-Philibert 56233;W3.0000;N47.5833;13;
3;FRA;Bretagne;Morbihan;Saint-Pierre-Quiberon 56234;W3.1333;N47.5167;13;
3;FRA;Bretagne;Morbihan;Saint-Samson 56235=56198;W2.7667;N48.0833;13;
3;FRA;Bretagne;Morbihan;Saint-Servant 56236;W2.5167;N47.9167;13;
3;FRA;Bretagne;Morbihan;Saint-Thuriau 56237;W2.9500;N48.0167;13;
3;FRA;Bretagne;Morbihan;Saint-Tugdual 56238;W3.3333;N48.0833;13;
3;FRA;Bretagne;Morbihan;Saint-Vincent-sur-Oust 56239;W2.1500;N47.7000;13;
3;FRA;Bretagne;Morbihan;Sainte-Anne-d'Auray 56263;W2.9500;N47.7000;13;
3;FRA;Bretagne;Morbihan;Sainte-Brigitte 56209;W3.1167;N48.1500;13;
3;FRA;Bretagne;Morbihan;Sainte-Hélène 56220;W3.2000;N47.7167;13;
3;FRA;Bretagne;Morbihan;Sarzeau 56240;W2.7667;N47.5333;13;
3;FRA;Bretagne;Morbihan;Sauzon 56241;W3.2167;N47.3667;13;
3;FRA;Bretagne;Morbihan;Séglien 56242;W3.1500;N48.1167;13;
3;FRA;Bretagne;Morbihan;Séné 56243;W2.7500;N47.6167;13;
3;FRA;Bretagne;Morbihan;Sérent 56244;W2.5000;N47.8167;13;
3;FRA;Bretagne;Morbihan;Silfiac 56245;W3.1500;N48.1500;13;
3;FRA;Bretagne;Morbihan;Sulniac 56247;W2.5667;N47.6833;13;
3;FRA;Bretagne;Morbihan;Surzur 56248;W2.6333;N47.5833;13;
3;FRA;Bretagne;Morbihan;Taupont 56249;W2.4333;N47.9500;13;
3;FRA;Bretagne;Morbihan;Théhillac 56250;W2.1167;N47.5667;13;
3;FRA;Bretagne;Morbihan;Theix 56251;W2.6667;N47.6333;13;
3;FRA;Bretagne;Morbihan;Tréal 56253;W2.2167;N47.8333;13;
3;FRA;Bretagne;Morbihan;Trédion 56254;W2.6000;N47.7833;13;
3;FRA;Bretagne;Morbihan;Treffléan 56255;W2.6167;N47.6833;13;
3;FRA;Bretagne;Morbihan;Tréhorenteuc 56256;W2.2833;N48.0167;13;
3;FRA;Bretagne;Morbihan;Vannes 56260;W2.7500;N47.6667;13;
