"Level";"Country";"State";"County";"Place";"Longitude";"Latitude";"ZoomLevel";"Icon"
2;France;Bourgogne;Côte-d'Or;;E4.8285;N47.4207;9;
3;France;Bourgogne;Côte-d'Or;Agencourt 21001;E4.9833;N47.1333;13;
3;France;Bourgogne;Côte-d'Or;Agey 21002;E4.7667;N47.2833;13;
3;France;Bourgogne;Côte-d'Or;Ahuy 21003;E5.0333;N47.3667;13;
3;France;Bourgogne;Côte-d'Or;Aignay-le-Duc 21004;E4.7333;N47.6667;13;
3;France;Bourgogne;Côte-d'Or;Aiserey 21005;E5.1667;N47.1667;13;
3;France;Bourgogne;Côte-d'Or;Aisey-sur-Seine 21006;E4.5833;N47.7500;13;
3;France;Bourgogne;Côte-d'Or;Aisy-sous-Thil 21007;E4.2833;N47.4000;13;
3;France;Bourgogne;Côte-d'Or;Alise-Sainte-Reine 21008;E4.4833;N47.5333;13;
3;France;Bourgogne;Côte-d'Or;Allerey 21009;E4.4300;N47.1800;13;
3;France;Bourgogne;Côte-d'Or;Aloxe-Corton 21010;E4.8667;N47.0667;13;
3;France;Bourgogne;Côte-d'Or;Ampilly-le-Sec 21012;E4.5167;N47.8000;13;
3;France;Bourgogne;Côte-d'Or;Ampilly-les-Bordes 21011;E4.6333;N47.6333;13;
3;France;Bourgogne;Côte-d'Or;Ancey 21013;E4.8333;N47.3333;13;
3;France;Bourgogne;Côte-d'Or;Antheuil 21014;E4.7500;N47.1667;13;
3;France;Bourgogne;Côte-d'Or;Antigny-la-Ville 21015;E4.5500;N47.1000;13;
3;France;Bourgogne;Côte-d'Or;Arc-sur-Tille 21021;E5.1833;N47.3333;13;
3;France;Bourgogne;Côte-d'Or;Arceau 21016;E5.1833;N47.3833;13;
3;France;Bourgogne;Côte-d'Or;Arcenant 21017;E4.8500;N47.1333;13;
3;France;Bourgogne;Côte-d'Or;Arcey 21018;E4.8167;N47.2833;13;
3;France;Bourgogne;Côte-d'Or;Arçon 21019=21060;E5.2821;N47.3549;13;
3;France;Bourgogne;Côte-d'Or;Arconcey 21020;E4.4500;N47.2167;13;
3;France;Bourgogne;Côte-d'Or;Argilly 21022;E5.0000;N47.0667;13;
3;France;Bourgogne;Côte-d'Or;Arnay-le-Duc 21023;E4.4833;N47.1333;13;
3;France;Bourgogne;Côte-d'Or;Arnay-sous-Vitteaux 21024;E4.5000;N47.4500;13;
3;France;Bourgogne;Côte-d'Or;Arrans 21025;E4.3167;N47.7000;13;
3;France;Bourgogne;Côte-d'Or;Asnières-en-Montagne 21026;E4.2833;N47.7167;13;
3;France;Bourgogne;Côte-d'Or;Asnières-lès-Dijon 21027;E5.0333;N47.3833;13;
3;France;Bourgogne;Côte-d'Or;Athée 21028;E5.3728;N47.2316;13;
3;France;Bourgogne;Côte-d'Or;Athie 21029;E4.2500;N47.5667;13;
3;France;Bourgogne;Côte-d'Or;Aubaine 21030;E4.7167;N47.1333;13;
3;France;Bourgogne;Côte-d'Or;Aubigny-en-Plaine 21031;E5.1667;N47.1333;13;
3;France;Bourgogne;Côte-d'Or;Aubigny-la-Ronce 21032;E4.6167;N46.9833;13;
3;France;Bourgogne;Côte-d'Or;Aubigny-lès-Sombernon 21033;E4.6500;N47.3000;13;
3;France;Bourgogne;Côte-d'Or;Autricourt 21034;E4.6198;N47.9966;13;
3;France;Bourgogne;Côte-d'Or;Auvillars-sur-Saône 21035;E5.1000;N47.0500;13;
3;France;Bourgogne;Côte-d'Or;Auxant 21036;E4.6167;N47.1167;13;
3;France;Bourgogne;Côte-d'Or;Auxey-Duresses 21037;E4.7500;N46.9833;13;
3;France;Bourgogne;Côte-d'Or;Auxonne 21038;E5.3833;N47.2000;13;
3;France;Bourgogne;Côte-d'Or;Avelanges 21039;E5.0333;N47.5833;13;
3;France;Bourgogne;Côte-d'Or;Avosnes 21040;E4.6500;N47.3667;13;
3;France;Bourgogne;Côte-d'Or;Avot 21041;E5.0167;N47.6167;13;
3;France;Bourgogne;Côte-d'Or;Bagnot 21042;E5.0833;N47.0500;13;
3;France;Bourgogne;Côte-d'Or;Baigneux-les-Juifs 21043;E4.6333;N47.6000;13;
3;France;Bourgogne;Côte-d'Or;Balot 21044;E4.4333;N47.8167;13;
3;France;Bourgogne;Côte-d'Or;Barbirey-sur-Ouche 21045;E4.7500;N47.2500;13;
3;France;Bourgogne;Côte-d'Or;Bard-le-Régulier 21046;E4.3167;N47.1333;13;
3;France;Bourgogne;Côte-d'Or;Bard-lès-Époisses 21047;E4.2167;N47.5333;13;
3;France;Bourgogne;Côte-d'Or;Barges 21048;E5.0667;N47.2167;13;
3;France;Bourgogne;Côte-d'Or;Barjon 21049;E4.9667;N47.6167;13;
3;France;Bourgogne;Côte-d'Or;Baubigny 21050;E4.6833;N46.9667;13;
3;France;Bourgogne;Côte-d'Or;Baulme-la-Roche 21051;E4.8000;N47.3500;13;
3;France;Bourgogne;Côte-d'Or;Beaulieu 21052;E4.7167;N47.7167;13;
3;France;Bourgogne;Côte-d'Or;Beaumont-sur-Vingeanne 21053;E5.3667;N47.4667;13;
3;France;Bourgogne;Côte-d'Or;Beaune 21054;E4.8333;N47.0333;13;
3;France;Bourgogne;Côte-d'Or;Beaunotte 21055;E4.7000;N47.6833;13;
3;France;Bourgogne;Côte-d'Or;Beire-le-Châtel 21056;E5.2000;N47.4167;13;
3;France;Bourgogne;Côte-d'Or;Beire-le-Fort 21057;E5.2500;N47.2333;13;
3;France;Bourgogne;Côte-d'Or;Belan-sur-Ource 21058;E4.6500;N47.9333;13;
3;France;Bourgogne;Côte-d'Or;Bellefond 21059;E5.0667;N47.3833;13;
3;France;Bourgogne;Côte-d'Or;Belleneuve 21060;E5.2667;N47.3667;13;
3;France;Bourgogne;Côte-d'Or;Bellenod-sur-Seine 21061;E4.6500;N47.7000;13;
3;France;Bourgogne;Côte-d'Or;Bellenot-sous-Pouilly 21062;E4.5500;N47.2833;13;
3;France;Bourgogne;Côte-d'Or;Beneuvre 21063;E4.9500;N47.7000;13;
3;France;Bourgogne;Côte-d'Or;Benoisey 21064;E4.4000;N47.5833;13;
3;France;Bourgogne;Côte-d'Or;Bessey-en-Chaume 21065;E4.7333;N47.0833;13;
3;France;Bourgogne;Côte-d'Or;Bessey-la-Cour 21066;E4.6167;N47.1000;13;
3;France;Bourgogne;Côte-d'Or;Bessey-lès-Cîteaux 21067;E5.1667;N47.1500;13;
3;France;Bourgogne;Côte-d'Or;Beurey-Bauguay 21068;E4.4333;N47.2333;13;
3;France;Bourgogne;Côte-d'Or;Beurizot 21069;E4.5000;N47.3500;13;
3;France;Bourgogne;Côte-d'Or;Bévy 21070;E4.8500;N47.1833;13;
3;France;Bourgogne;Côte-d'Or;Bèze 21071;E5.2667;N47.4667;13;
3;France;Bourgogne;Côte-d'Or;Bézouotte 21072;E5.3333;N47.3833;13;
3;France;Bourgogne;Côte-d'Or;Bierre-lès-Semur 21073;E4.3000;N47.4167;13;
3;France;Bourgogne;Côte-d'Or;Billey 21074;E5.4333;N47.1500;13;
3;France;Bourgogne;Côte-d'Or;Billy-lès-Chanceaux 21075;E4.7000;N47.5333;13;
3;France;Bourgogne;Côte-d'Or;Binges 21076;E5.2667;N47.3333;13;
3;France;Bourgogne;Côte-d'Or;Bissey-la-Côte 21077;E4.7167;N47.9167;13;
3;France;Bourgogne;Côte-d'Or;Bissey-la-Pierre 21078;E4.4333;N47.8500;13;
3;France;Bourgogne;Côte-d'Or;Blagny-sur-Vingeanne 21079;E5.3667;N47.4333;13;
3;France;Bourgogne;Côte-d'Or;Blaisy-Bas 21080;E4.7333;N47.3667;13;
3;France;Bourgogne;Côte-d'Or;Blaisy-Haut 21081;E4.7500;N47.3500;13;
3;France;Bourgogne;Côte-d'Or;Blancey 21082;E4.4667;N47.3000;13;
3;France;Bourgogne;Côte-d'Or;Blanot 21083;E4.2333;N47.1667;13;
3;France;Bourgogne;Côte-d'Or;Blessey 21084;E4.6833;N47.4833;13;
3;France;Bourgogne;Côte-d'Or;Bligny-le-Sec 21085;E4.7333;N47.4333;13;
3;France;Bourgogne;Côte-d'Or;Bligny-lès-Beaune 21086;E4.8333;N46.9833;13;
3;France;Bourgogne;Côte-d'Or;Bligny-sur-Ouche 21087;E4.6667;N47.1000;13;
3;France;Bourgogne;Côte-d'Or;Boncourt-le-Bois 21088;E5.0000;N47.1333;13;
3;France;Bourgogne;Côte-d'Or;Bonnencontre 21089;E5.1500;N47.0833;13;
3;France;Bourgogne;Côte-d'Or;Boudreville 21090;E4.8167;N47.9333;13;
3;France;Bourgogne;Côte-d'Or;Bouhey 21091;E4.6667;N47.2000;13;
3;France;Bourgogne;Côte-d'Or;Bouilland 21092;E4.7833;N47.1333;13;
3;France;Bourgogne;Côte-d'Or;Bouix 21093;E4.4833;N47.8833;13;
3;France;Bourgogne;Côte-d'Or;Bourberain 21094;E5.3000;N47.5000;13;
3;France;Bourgogne;Côte-d'Or;Bousselange 21095;E5.2667;N46.9833;13;
3;France;Bourgogne;Côte-d'Or;Boussenois 21096;E5.2167;N47.6333;13;
3;France;Bourgogne;Côte-d'Or;Boussey 21097;E4.5500;N47.3667;13;
3;France;Bourgogne;Côte-d'Or;Boux-sous-Salmaise 21098;E4.6333;N47.4667;13;
3;France;Bourgogne;Côte-d'Or;Bouze-lès-Beaune 21099;E4.7667;N47.0500;13;
3;France;Bourgogne;Côte-d'Or;Brain 21100;E4.5000;N47.4667;13;
3;France;Bourgogne;Côte-d'Or;Braux 21101;E4.4333;N47.4167;13;
3;France;Bourgogne;Côte-d'Or;Brazey-en-Morvan 21102;E4.3000;N47.1833;13;
3;France;Bourgogne;Côte-d'Or;Brazey-en-Plaine 21103;E5.2167;N47.1333;13;
3;France;Bourgogne;Côte-d'Or;Brémur-et-Vaurois 21104;E4.6000;N47.7333;13;
3;France;Bourgogne;Côte-d'Or;Bressey-sur-Tille 21105;E5.1833;N47.3000;13;
3;France;Bourgogne;Côte-d'Or;Bretenière 21106;E5.1000;N47.2333;13;
3;France;Bourgogne;Côte-d'Or;Bretigny 21107;E5.1000;N47.4000;13;
3;France;Bourgogne;Côte-d'Or;Brianny 21108;E4.3667;N47.4167;13;
3;France;Bourgogne;Côte-d'Or;Brion-sur-Ource 21109;E4.6500;N47.9167;13;
3;France;Bourgogne;Côte-d'Or;Brochon 21110;E4.9667;N47.2333;13;
3;France;Bourgogne;Côte-d'Or;Brognon 21111;E5.1667;N47.4000;13;
3;France;Bourgogne;Côte-d'Or;Broin 21112;E5.1000;N47.0833;13;
3;France;Bourgogne;Côte-d'Or;Broindon 21113;E5.0500;N47.2000;13;
3;France;Bourgogne;Côte-d'Or;Buffon 21114;E4.2833;N47.6500;13;
3;France;Bourgogne;Côte-d'Or;Buncey 21115;E4.5667;N47.8167;13;
3;France;Bourgogne;Côte-d'Or;Bure-les-Templiers 21116;E4.9000;N47.7333;13;
3;France;Bourgogne;Côte-d'Or;Busseaut 21117;E4.6500;N47.7333;13;
3;France;Bourgogne;Côte-d'Or;Busserotte-et-Montenaille 21118;E4.9667;N47.6500;13;
3;France;Bourgogne;Côte-d'Or;Bussières 21119;E4.9500;N47.6500;13;
3;France;Bourgogne;Côte-d'Or;Bussy-la-Pesle 21121;E4.7000;N47.3667;13;
3;France;Bourgogne;Côte-d'Or;Bussy-le-Grand 21122;E4.5167;N47.5833;13;
3;France;Bourgogne;Côte-d'Or;Buxerolles 21123;E4.9333;N47.8000;13;
3;France;Bourgogne;Côte-d'Or;Censerey 21124;E4.3500;N47.2000;13;
3;France;Bourgogne;Côte-d'Or;Cérilly 21125;E4.4833;N47.8500;13;
3;France;Bourgogne;Côte-d'Or;Cessey-sur-Tille 21126;E5.2167;N47.2833;13;
3;France;Bourgogne;Côte-d'Or;Chaignay 21127;E5.0667;N47.4667;13;
3;France;Bourgogne;Côte-d'Or;Chailly-sur-Armançon 21128;E4.4833;N47.2667;13;
3;France;Bourgogne;Côte-d'Or;Chambain 21129;E4.9167;N47.8000;13;
3;France;Bourgogne;Côte-d'Or;Chambeire 21130;E5.2500;N47.2833;13;
3;France;Bourgogne;Côte-d'Or;Chamblanc 21131;E5.1500;N47.0167;13;
3;France;Bourgogne;Côte-d'Or;Chamboeuf 21132;E4.9000;N47.2333;13;
3;France;Bourgogne;Côte-d'Or;Chambolle-Musigny 21133;E4.9500;N47.1833;13;
3;France;Bourgogne;Côte-d'Or;Chamesson 21134;E4.5333;N47.7833;13;
3;France;Bourgogne;Côte-d'Or;Champ-d'Oiseau 21137;E4.3500;N47.5500;13;
3;France;Bourgogne;Côte-d'Or;Champagne-sur-Vingeanne 21135;E5.4000;N47.4500;13;
3;France;Bourgogne;Côte-d'Or;Champagny 21136;E4.7667;N47.4667;13;
3;France;Bourgogne;Côte-d'Or;Champdôtre 21138;E5.3000;N47.1833;13;
3;France;Bourgogne;Côte-d'Or;Champeau-en-Morvan 21139;E4.1333;N47.2667;13;
3;France;Bourgogne;Côte-d'Or;Champignolles 21140;E4.5667;N47.0500;13;
3;France;Bourgogne;Côte-d'Or;Champrenault 21141;E4.6833;N47.4000;13;
3;France;Bourgogne;Côte-d'Or;Chanceaux 21142;E4.7000;N47.5167;13;
3;France;Bourgogne;Côte-d'Or;Channay 21143;E4.3333;N47.8833;13;
3;France;Bourgogne;Côte-d'Or;Charencey 21144;E4.6667;N47.4167;13;
3;France;Bourgogne;Côte-d'Or;Charigny 21145;E4.4333;N47.4333;13;
3;France;Bourgogne;Côte-d'Or;Charmes 21146;E5.3500;N47.3833;13;
3;France;Bourgogne;Côte-d'Or;Charny 21147;E4.4167;N47.3333;13;
3;France;Bourgogne;Côte-d'Or;Charrey-sur-Saône 21148;E5.1667;N47.0833;13;
3;France;Bourgogne;Côte-d'Or;Charrey-sur-Seine 21149;E4.5000;N47.9333;13;
3;France;Bourgogne;Côte-d'Or;Chassagne-Montrachet 21150;E4.7333;N46.9333;13;
3;France;Bourgogne;Côte-d'Or;Chassey 21151;E4.4500;N47.4833;13;
3;France;Bourgogne;Côte-d'Or;Châteauneuf 21152;E4.6500;N47.2167;13;
3;France;Bourgogne;Côte-d'Or;Châtellenot 21153;E4.4833;N47.2333;13;
3;France;Bourgogne;Côte-d'Or;Châtillon-sur-Seine 21154;E4.5500;N47.8500;13;
3;France;Bourgogne;Côte-d'Or;Chaudenay-la-Ville 21155;E4.6500;N47.1667;13;
3;France;Bourgogne;Côte-d'Or;Chaudenay-le-Château 21156;E4.6500;N47.1833;13;
3;France;Bourgogne;Côte-d'Or;Chaugey 21157;E4.9500;N47.7500;13;
3;France;Bourgogne;Côte-d'Or;Chaume-et-Courchamp 21158;E5.3500;N47.5667;13;
3;France;Bourgogne;Côte-d'Or;Chaume-lès-Baigneux 21160;E4.5833;N47.6333;13;
3;France;Bourgogne;Côte-d'Or;Chaumont-le-Bois 21161;E4.5833;N47.9167;13;
3;France;Bourgogne;Côte-d'Or;Chaux 21162;E4.9000;N47.1333;13;
3;France;Bourgogne;Côte-d'Or;Chazeuil 21163;E5.2667;N47.5500;13;
3;France;Bourgogne;Côte-d'Or;Chazilly 21164;E4.5833;N47.1833;13;
3;France;Bourgogne;Côte-d'Or;Chemin-d'Aisey 21165;E4.5667;N47.7333;13;
3;France;Bourgogne;Côte-d'Or;Chenôve 21166;E5.0000;N47.2833;13;
3;France;Bourgogne;Côte-d'Or;Cheuge 21167;E5.4000;N47.3833;13;
3;France;Bourgogne;Côte-d'Or;Chevannay 21168;E4.6500;N47.4000;13;
3;France;Bourgogne;Côte-d'Or;Chevannes 21169;E4.8333;N47.1500;13;
3;France;Bourgogne;Côte-d'Or;Chevigny-en-Valière 21170;E4.9667;N46.9667;13;
3;France;Bourgogne;Côte-d'Or;Chevigny-Saint-Sauveur 21171;E5.1333;N47.3000;13;
3;France;Bourgogne;Côte-d'Or;Chivres 21172;E5.0833;N46.9667;13;
3;France;Bourgogne;Côte-d'Or;Chorey-les-Beaune 21173;E4.8667;N47.0500;13;
3;France;Bourgogne;Côte-d'Or;Cirey 21174=21461;E4.6248;N46.9582;13;
3;France;Bourgogne;Côte-d'Or;Cirey-lès-Pontailler 21175;E5.3000;N47.3000;13;
3;France;Bourgogne;Côte-d'Or;Civry-en-Montagne 21176;E4.6000;N47.2833;13;
3;France;Bourgogne;Côte-d'Or;Clamerey 21177;E4.4333;N47.3833;13;
3;France;Bourgogne;Côte-d'Or;Clémencey 21178;E4.8833;N47.2500;13;
3;France;Bourgogne;Côte-d'Or;Clénay 21179;E5.1167;N47.4000;13;
3;France;Bourgogne;Côte-d'Or;Cléry 21180;E5.5000;N47.2833;13;
3;France;Bourgogne;Côte-d'Or;Clomot 21181;E4.4833;N47.1833;13;
3;France;Bourgogne;Côte-d'Or;Collonges-lès-Bévy 21182;E4.8500;N47.1667;13;
3;France;Bourgogne;Côte-d'Or;Collonges-lès-Premières 21183;E5.2667;N47.2167;13;
3;France;Bourgogne;Côte-d'Or;Colombier 21184;E4.6667;N47.1667;13;
3;France;Bourgogne;Côte-d'Or;Combertault 21185;E4.9000;N47.0000;13;
3;France;Bourgogne;Côte-d'Or;Comblanchien 21186;E4.9167;N47.1000;13;
3;France;Bourgogne;Côte-d'Or;Commarin 21187;E4.6500;N47.2500;13;
3;France;Bourgogne;Côte-d'Or;Concoeur-et-Corboin 21188=21464;E4.9359;N47.1453;13;
3;France;Bourgogne;Côte-d'Or;Corberon 21189;E4.9833;N47.0167;13;
3;France;Bourgogne;Côte-d'Or;Corcelles-les-Arts 21190;E4.8000;N46.9500;13;
3;France;Bourgogne;Côte-d'Or;Corcelles-lès-Cîteaux 21191;E5.0833;N47.1667;13;
3;France;Bourgogne;Côte-d'Or;Corcelles-les-Monts 21192;E4.9333;N47.3000;13;
3;France;Bourgogne;Côte-d'Or;Corgengoux 21193;E5.0000;N46.9833;13;
3;France;Bourgogne;Côte-d'Or;Corgoloin 21194;E4.9167;N47.0833;13;
3;France;Bourgogne;Côte-d'Or;Cormot-le-Grand 21195;E4.6333;N46.9667;13;
3;France;Bourgogne;Côte-d'Or;Corpeau 21196;E4.7500;N46.9333;13;
3;France;Bourgogne;Côte-d'Or;Corpoyer-la-Chapelle 21197;E4.6167;N47.5333;13;
3;France;Bourgogne;Côte-d'Or;Corrombles 21198;E4.2000;N47.5167;13;
3;France;Bourgogne;Côte-d'Or;Corsaint 21199;E4.2000;N47.5333;13;
3;France;Bourgogne;Côte-d'Or;Couchey 21200;E4.9833;N47.2667;13;
3;France;Bourgogne;Côte-d'Or;Coulmier-le-Sec 21201;E4.4833;N47.7500;13;
3;France;Bourgogne;Côte-d'Or;Courban 21202;E4.7333;N47.9167;13;
3;France;Bourgogne;Côte-d'Or;Courcelles-Frémoy 21203;E4.1667;N47.4500;13;
3;France;Bourgogne;Côte-d'Or;Courcelles-lès-Montbard 21204;E4.4000;N47.6000;13;
3;France;Bourgogne;Côte-d'Or;Courcelles-lès-Semur 21205;E4.3000;N47.4500;13;
3;France;Bourgogne;Côte-d'Or;Courchamp 21206=21158;E5.3736;N47.5976;13;
3;France;Bourgogne;Côte-d'Or;Courlon 21207;E5.0000;N47.6500;13;
3;France;Bourgogne;Côte-d'Or;Courtivron 21208;E4.9667;N47.5333;13;
3;France;Bourgogne;Côte-d'Or;Couternon 21209;E5.1500;N47.3333;13;
3;France;Bourgogne;Côte-d'Or;Créancey 21210;E4.6000;N47.2500;13;
3;France;Bourgogne;Côte-d'Or;Crécey-sur-Tille 21211;E5.1333;N47.5667;13;
3;France;Bourgogne;Côte-d'Or;Crépand 21212;E4.3167;N47.6167;13;
3;France;Bourgogne;Côte-d'Or;Crimolois 21213;E5.1167;N47.2667;13;
3;France;Bourgogne;Côte-d'Or;Crugey 21214;E4.6833;N47.1833;13;
3;France;Bourgogne;Côte-d'Or;Cuiserey 21215;E5.3167;N47.3667;13;
3;France;Bourgogne;Côte-d'Or;Culètre 21216;E4.5833;N47.1500;13;
3;France;Bourgogne;Côte-d'Or;Curley 21217;E4.9167;N47.2000;13;
3;France;Bourgogne;Côte-d'Or;Curtil-Saint-Seine 21218;E4.9333;N47.4500;13;
3;France;Bourgogne;Côte-d'Or;Curtil-Vergy 21219;E4.8833;N47.1667;13;
3;France;Bourgogne;Côte-d'Or;Cussey-les-Forges 21220;E5.0833;N47.6500;13;
3;France;Bourgogne;Côte-d'Or;Cussy-la-Colonne 21221;E4.6500;N47.0500;13;
3;France;Bourgogne;Côte-d'Or;Cussy-le-Châtel 21222;E4.5833;N47.1667;13;
3;France;Bourgogne;Côte-d'Or;Daix 21223;E5.0000;N47.3500;13;
3;France;Bourgogne;Côte-d'Or;Dampierre-en-Montagne 21224;E4.5667;N47.4333;13;
3;France;Bourgogne;Côte-d'Or;Dampierre-et-Flée 21225;E5.3667;N47.4667;13;
3;France;Bourgogne;Côte-d'Or;Darcey 21226;E4.5667;N47.5500;13;
3;France;Bourgogne;Côte-d'Or;Darois 21227;E4.9333;N47.3833;13;
3;France;Bourgogne;Côte-d'Or;Détain-et-Bruant 21228;E4.7833;N47.1667;13;
3;France;Bourgogne;Côte-d'Or;Diancey 21229;E4.3667;N47.1833;13;
3;France;Bourgogne;Côte-d'Or;Diénay 21230;E5.0667;N47.5167;13;
3;France;Bourgogne;Côte-d'Or;Dijon 21231;E5.0167;N47.3167;13;
3;France;Bourgogne;Côte-d'Or;Dompierre-en-Morvan 21232;E4.2333;N47.4000;13;
3;France;Bourgogne;Côte-d'Or;Drambon 21233;E5.3667;N47.3333;13;
3;France;Bourgogne;Côte-d'Or;Drée 21234;E4.6833;N47.3500;13;
3;France;Bourgogne;Côte-d'Or;Duesme 21235;E4.6833;N47.6500;13;
3;France;Bourgogne;Côte-d'Or;Ébaty 21236;E4.7833;N46.9333;13;
3;France;Bourgogne;Côte-d'Or;Échalot 21237;E4.8333;N47.6167;13;
3;France;Bourgogne;Côte-d'Or;Échannay 21238;E4.6833;N47.2833;13;
3;France;Bourgogne;Côte-d'Or;Échenon 21239;E5.2833;N47.1167;13;
3;France;Bourgogne;Côte-d'Or;Échevannes 21240;E5.1667;N47.5333;13;
3;France;Bourgogne;Côte-d'Or;Échevronne 21241;E4.8500;N47.1000;13;
3;France;Bourgogne;Côte-d'Or;Échigey 21242;E5.2000;N47.1833;13;
3;France;Bourgogne;Côte-d'Or;Écutigny 21243;E4.6167;N47.0833;13;
3;France;Bourgogne;Côte-d'Or;Éguilly 21244;E4.5000;N47.3000;13;
3;France;Bourgogne;Côte-d'Or;Épagny 21245;E5.0667;N47.4500;13;
3;France;Bourgogne;Côte-d'Or;Épernay-sous-Gevrey 21246;E5.0333;N47.1833;13;
3;France;Bourgogne;Côte-d'Or;Époisses 21247;E4.1667;N47.5000;13;
3;France;Bourgogne;Côte-d'Or;Éringes 21248;E4.4667;N47.6000;13;
3;France;Bourgogne;Côte-d'Or;Esbarres 21249;E5.2167;N47.0833;13;
3;France;Bourgogne;Côte-d'Or;Essarois 21250;E4.7667;N47.7500;13;
3;France;Bourgogne;Côte-d'Or;Essey 21251;E4.5333;N47.2000;13;
3;France;Bourgogne;Côte-d'Or;Étais 21252;E4.4333;N47.7000;13;
3;France;Bourgogne;Côte-d'Or;Étalante 21253;E4.7500;N47.6333;13;
3;France;Bourgogne;Côte-d'Or;Étaules 21255;E4.9500;N47.4000;13;
3;France;Bourgogne;Côte-d'Or;Étevaux 21256;E5.3167;N47.3167;13;
3;France;Bourgogne;Côte-d'Or;Étormay 21257;E4.5833;N47.6000;13;
3;France;Bourgogne;Côte-d'Or;Étrochey 21258;E4.5333;N47.8833;13;
3;France;Bourgogne;Côte-d'Or;Fain-lès-Montbard 21259;E4.3833;N47.6000;13;
3;France;Bourgogne;Côte-d'Or;Fain-lès-Moutiers 21260;E4.2167;N47.5833;13;
3;France;Bourgogne;Côte-d'Or;Fauverney 21261;E5.1500;N47.2500;13;
3;France;Bourgogne;Côte-d'Or;Faverolles-lès-Lucey 21262;E4.8667;N47.8333;13;
3;France;Bourgogne;Côte-d'Or;Fénay 21263;E5.0667;N47.2333;13;
3;France;Bourgogne;Côte-d'Or;Fixin 21265;E4.9667;N47.2500;13;
3;France;Bourgogne;Côte-d'Or;Flacey 21266;E5.1500;N47.4333;13;
3;France;Bourgogne;Côte-d'Or;Flagey-Echézeaux 21267;E4.9833;N47.1667;13;
3;France;Bourgogne;Côte-d'Or;Flagey-lès-Auxonne 21268;E5.4000;N47.1333;13;
3;France;Bourgogne;Côte-d'Or;Flammerans 21269;E5.4500;N47.2333;13;
3;France;Bourgogne;Côte-d'Or;Flavignerot 21270;E4.9167;N47.2833;13;
3;France;Bourgogne;Côte-d'Or;Flavigny-sur-Ozerain 21271;E4.5333;N47.5000;13;
3;France;Bourgogne;Côte-d'Or;Flée 21272;E4.3333;N47.4333;13;
3;France;Bourgogne;Côte-d'Or;Fleurey-sur-Ouche 21273;E4.8500;N47.3167;13;
3;France;Bourgogne;Côte-d'Or;Foissy 21274;E4.5667;N47.1167;13;
3;France;Bourgogne;Côte-d'Or;Foncegrive 21275;E5.1667;N47.6167;13;
3;France;Bourgogne;Côte-d'Or;Fontaine-Française 21277;E5.3667;N47.5167;13;
3;France;Bourgogne;Côte-d'Or;Fontaine-lès-Dijon 21278;E5.0167;N47.3333;13;
3;France;Bourgogne;Côte-d'Or;Fontaines-en-Duesmois 21276;E4.5500;N47.6500;13;
3;France;Bourgogne;Côte-d'Or;Fontaines-les-Sèches 21279;E4.3500;N47.7833;13;
3;France;Bourgogne;Côte-d'Or;Fontangy 21280;E4.3500;N47.3500;13;
3;France;Bourgogne;Côte-d'Or;Fontenelle 21281;E5.3667;N47.5000;13;
3;France;Bourgogne;Côte-d'Or;Forléans 21282;E4.2000;N47.4833;13;
3;France;Bourgogne;Côte-d'Or;Fraignot-et-Vesvrotte 21283;E4.9333;N47.6500;13;
3;France;Bourgogne;Côte-d'Or;Francheville 21284;E4.8833;N47.4500;13;
3;France;Bourgogne;Côte-d'Or;Franxault 21285;E5.2833;N47.0500;13;
3;France;Bourgogne;Côte-d'Or;Frénois 21286;E4.9000;N47.5333;13;
3;France;Bourgogne;Côte-d'Or;Fresnes 21287;E4.4388;N47.6079;13;
3;France;Bourgogne;Côte-d'Or;Frôlois 21288;E4.6333;N47.5333;13;
3;France;Bourgogne;Côte-d'Or;Fussey 21289;E4.8333;N47.1167;13;
3;France;Bourgogne;Côte-d'Or;Gemeaux 21290;E5.1333;N47.4833;13;
3;France;Bourgogne;Côte-d'Or;Genay 21291;E4.3000;N47.5333;13;
3;France;Bourgogne;Côte-d'Or;Genlis 21292;E5.2167;N47.2333;13;
3;France;Bourgogne;Côte-d'Or;Gergueil 21293;E4.8167;N47.2333;13;
3;France;Bourgogne;Côte-d'Or;Gerland 21294;E5.0000;N47.1000;13;
3;France;Bourgogne;Côte-d'Or;Gevrey-Chambertin 21295;E4.9500;N47.2333;13;
3;France;Bourgogne;Côte-d'Or;Gevrolles 21296;E4.7805;N47.9833;13;
3;France;Bourgogne;Côte-d'Or;Gilly-lès-Cîteaux 21297;E4.9833;N47.1667;13;
3;France;Bourgogne;Côte-d'Or;Gissey-le-Vieil 21298;E4.4833;N47.3167;13;
3;France;Bourgogne;Côte-d'Or;Gissey-sous-Flavigny 21299;E4.5833;N47.5167;13;
3;France;Bourgogne;Côte-d'Or;Gissey-sur-Ouche 21300;E4.7667;N47.2667;13;
3;France;Bourgogne;Côte-d'Or;Glanon 21301;E5.1000;N47.0333;13;
3;France;Bourgogne;Côte-d'Or;Gomméville 21302;E4.5000;N47.9667;13;
3;France;Bourgogne;Côte-d'Or;Grancey-le-Château-Neuvelle 21304;E5.0167;N47.6667;13;
3;France;Bourgogne;Côte-d'Or;Grancey-sur-Ource 21305;E4.5867;N48.0074;13;
3;France;Bourgogne;Côte-d'Or;Grenand-lès-Sombernon 21306;E4.7167;N47.2667;13;
3;France;Bourgogne;Côte-d'Or;Grésigny-Sainte-Reine 21307;E4.5000;N47.5500;13;
3;France;Bourgogne;Côte-d'Or;Grignon 21308;E4.4000;N47.5667;13;
3;France;Bourgogne;Côte-d'Or;Griselles 21309;E4.3500;N47.8667;13;
3;France;Bourgogne;Côte-d'Or;Grosbois-en-Montagne 21310;E4.6000;N47.3167;13;
3;France;Bourgogne;Côte-d'Or;Grosbois-lès-Tichey 21311;E5.2333;N47.0000;13;
3;France;Bourgogne;Côte-d'Or;Gurgy-la-Ville 21312;E4.9333;N47.8500;13;
3;France;Bourgogne;Côte-d'Or;Gurgy-le-Château 21313;E4.9167;N47.8167;13;
3;France;Bourgogne;Côte-d'Or;Hauteroche 21314;E4.5833;N47.5000;13;
3;France;Bourgogne;Côte-d'Or;Hauteville-lès-Dijon 21315;E5.0000;N47.3667;13;
3;France;Bourgogne;Côte-d'Or;Heuilley-sur-Saône 21316;E5.4500;N47.3333;13;
3;France;Bourgogne;Côte-d'Or;Is-sur-Tille 21317;E5.1000;N47.5167;13;
3;France;Bourgogne;Côte-d'Or;Ivry-en-Montagne 21318;E4.6333;N47.0333;13;
3;France;Bourgogne;Côte-d'Or;Izeure 21319;E5.1333;N47.1667;13;
3;France;Bourgogne;Côte-d'Or;Izier 21320;E5.1833;N47.2833;13;
3;France;Bourgogne;Côte-d'Or;Jailly-les-Moulins 21321;E4.6000;N47.4500;13;
3;France;Bourgogne;Côte-d'Or;Jallanges 21322;E5.1500;N46.9833;13;
3;France;Bourgogne;Côte-d'Or;Jancigny 21323;E5.4000;N47.3833;13;
3;France;Bourgogne;Côte-d'Or;Jeux-lès-Bard 21324;E4.2500;N47.5333;13;
3;France;Bourgogne;Côte-d'Or;Jouey 21325;E4.4500;N47.1500;13;
3;France;Bourgogne;Côte-d'Or;Jours-en-Vaux 21327;E4.5833;N47.0500;13;
3;France;Bourgogne;Côte-d'Or;Jours-lès-Baigneux 21326;E4.6000;N47.6167;13;
3;France;Bourgogne;Côte-d'Or;Juillenay 21328;E4.2667;N47.3667;13;
3;France;Bourgogne;Côte-d'Or;Juilly 21329;E4.4000;N47.5000;13;
3;France;Bourgogne;Côte-d'Or;L'Étang-Vergy 21254;E4.8833;N47.1833;13;
3;France;Bourgogne;Côte-d'Or;La Bussière-sur-Ouche 21120;E4.7167;N47.2167;13;
3;France;Bourgogne;Côte-d'Or;La Chaume 21159;E4.8333;N47.8667;13;
3;France;Bourgogne;Côte-d'Or;La Motte-Ternant 21445;E4.3333;N47.3167;13;
3;France;Bourgogne;Côte-d'Or;La Roche-en-Brenil 21525;E4.1667;N47.3667;13;
3;France;Bourgogne;Côte-d'Or;La Roche-Vanneau 21528;E4.5333;N47.4667;13;
3;France;Bourgogne;Côte-d'Or;La Rochepot 21527;E4.6833;N46.9500;13;
3;France;Bourgogne;Côte-d'Or;La Villeneuve-les-Convers 21695;E4.5667;N47.5667;13;
3;France;Bourgogne;Côte-d'Or;La Villeneuve-sur-Vingeanne 21697=21433;E5.4333;N47.5500;13;
3;France;Bourgogne;Côte-d'Or;Labergement-Foigney 21330;E5.2500;N47.2500;13;
3;France;Bourgogne;Côte-d'Or;Labergement-lès-Auxonne 21331;E5.3833;N47.1500;13;
3;France;Bourgogne;Côte-d'Or;Labergement-lès-Seurre 21332;E5.0833;N47.0000;13;
3;France;Bourgogne;Côte-d'Or;Labruyère 21333;E5.1500;N47.0333;13;
3;France;Bourgogne;Côte-d'Or;Lacanche 21334;E4.5667;N47.0667;13;
3;France;Bourgogne;Côte-d'Or;Lacour-d'Arcenay 21335;E4.2500;N47.3667;13;
3;France;Bourgogne;Côte-d'Or;Ladoix-Serrigny 21606;E4.8833;N47.0667;13;
3;France;Bourgogne;Côte-d'Or;Laignes 21336;E4.3667;N47.8333;13;
3;France;Bourgogne;Côte-d'Or;Lamarche-sur-Saône 21337;E5.3833;N47.2667;13;
3;France;Bourgogne;Côte-d'Or;Lamargelle 21338;E4.8333;N47.5333;13;
3;France;Bourgogne;Côte-d'Or;Lantenay 21339;E4.8667;N47.3333;13;
3;France;Bourgogne;Côte-d'Or;Lanthes 21340;E5.2000;N47.0000;13;
3;France;Bourgogne;Côte-d'Or;Lantilly 21341;E4.3833;N47.5500;13;
3;France;Bourgogne;Côte-d'Or;Laperrière-sur-Saône 21342;E5.3500;N47.1167;13;
3;France;Bourgogne;Côte-d'Or;Larrey 21343;E4.4333;N47.8833;13;
3;France;Bourgogne;Côte-d'Or;Le Fête 21264;E4.5167;N47.1833;13;
3;France;Bourgogne;Côte-d'Or;Le Meix 21400;E4.9417;N47.6000;13;
3;France;Bourgogne;Côte-d'Or;Lechâtelet 21344;E5.1500;N47.0500;13;
3;France;Bourgogne;Côte-d'Or;Léry 21345;E4.8333;N47.5667;13;
3;France;Bourgogne;Côte-d'Or;Les Goulles 21303;E4.9000;N47.8833;13;
3;France;Bourgogne;Côte-d'Or;Les Maillys 21371;E5.3333;N47.1333;13;
3;France;Bourgogne;Côte-d'Or;Leuglay 21346;E4.8000;N47.8167;13;
3;France;Bourgogne;Côte-d'Or;Levernois 21347;E4.8667;N47.0000;13;
3;France;Bourgogne;Côte-d'Or;Licey-sur-Vingeanne 21348;E5.3833;N47.4833;13;
3;France;Bourgogne;Côte-d'Or;Liernais 21349;E4.2833;N47.2000;13;
3;France;Bourgogne;Côte-d'Or;Lignerolles 21350;E4.8833;N47.9000;13;
3;France;Bourgogne;Côte-d'Or;Longchamp 21351;E5.2833;N47.2500;13;
3;France;Bourgogne;Côte-d'Or;Longeault 21352;E5.2500;N47.2167;13;
3;France;Bourgogne;Côte-d'Or;Longecourt-en-Plaine 21353;E5.1500;N47.1833;13;
3;France;Bourgogne;Côte-d'Or;Longecourt-lès-Culêtre 21354;E4.5500;N47.1667;13;
3;France;Bourgogne;Côte-d'Or;Longvic 21355;E5.0667;N47.2833;13;
3;France;Bourgogne;Côte-d'Or;Losne 21356;E5.2667;N47.1000;13;
3;France;Bourgogne;Côte-d'Or;Louesme 21357;E4.7500;N47.8833;13;
3;France;Bourgogne;Côte-d'Or;Lucenay-le-Duc 21358;E4.5167;N47.6000;13;
3;France;Bourgogne;Côte-d'Or;Lucey 21359;E4.8667;N47.8500;13;
3;France;Bourgogne;Côte-d'Or;Lusigny-sur-Ouche 21360;E4.6667;N47.0833;13;
3;France;Bourgogne;Côte-d'Or;Lux 21361;E5.2000;N47.4833;13;
3;France;Bourgogne;Côte-d'Or;Maconge 21362;E4.5833;N47.2000;13;
3;France;Bourgogne;Côte-d'Or;Magnien 21363;E4.4333;N47.1000;13;
3;France;Bourgogne;Côte-d'Or;Magny-la-Ville 21365;E4.4333;N47.4833;13;
3;France;Bourgogne;Côte-d'Or;Magny-Lambert 21364;E4.5833;N47.6833;13;
3;France;Bourgogne;Côte-d'Or;Magny-lès-Aubigny 21366;E5.1667;N47.1167;13;
3;France;Bourgogne;Côte-d'Or;Magny-lès-Villers 21368;E4.8833;N47.1000;13;
3;France;Bourgogne;Côte-d'Or;Magny-Montarlot 21367;E5.3333;N47.2333;13;
3;France;Bourgogne;Côte-d'Or;Magny-Saint-Médard 21369;E5.2500;N47.3833;13;
3;France;Bourgogne;Côte-d'Or;Magny-sur-Tille 21370;E5.1667;N47.2667;13;
3;France;Bourgogne;Côte-d'Or;Maisey-le-Duc 21372;E4.6667;N47.8333;13;
3;France;Bourgogne;Côte-d'Or;Mâlain 21373;E4.7833;N47.3167;13;
3;France;Bourgogne;Côte-d'Or;Maligny 21374;E4.5000;N47.0833;13;
3;France;Bourgogne;Côte-d'Or;Manlay 21375;E4.3500;N47.1333;13;
3;France;Bourgogne;Côte-d'Or;Marandeuil 21376;E5.3500;N47.3500;13;
3;France;Bourgogne;Côte-d'Or;Marcellois 21377;E4.6167;N47.3500;13;
3;France;Bourgogne;Côte-d'Or;Marcenay 21378;E4.4000;N47.8667;13;
3;France;Bourgogne;Côte-d'Or;Marcheseuil 21379;E4.3500;N47.1500;13;
3;France;Bourgogne;Côte-d'Or;Marcigny-sous-Thil 21380;E4.3833;N47.4000;13;
3;France;Bourgogne;Côte-d'Or;Marcilly-et-Dracy 21381;E4.5000;N47.4000;13;
3;France;Bourgogne;Côte-d'Or;Marcilly-Ogny 21382;E4.4000;N47.2500;13;
3;France;Bourgogne;Côte-d'Or;Marcilly-sur-Tille 21383;E5.1333;N47.5167;13;
3;France;Bourgogne;Côte-d'Or;Marey-lès-Fussey 21384;E4.8667;N47.1167;13;
3;France;Bourgogne;Côte-d'Or;Marey-sur-Tille 21385;E5.0500;N47.5833;13;
3;France;Bourgogne;Côte-d'Or;Marigny-le-Cahouët 21386;E4.4500;N47.4667;13;
3;France;Bourgogne;Côte-d'Or;Marigny-lès-Reullée 21387;E4.9667;N47.0000;13;
3;France;Bourgogne;Côte-d'Or;Marliens 21388;E5.1833;N47.2167;13;
3;France;Bourgogne;Côte-d'Or;Marmagne 21389;E4.3679;N47.6217;13;
3;France;Bourgogne;Côte-d'Or;Marsannay-la-Côte 21390;E4.9833;N47.2667;13;
3;France;Bourgogne;Côte-d'Or;Marsannay-le-Bois 21391;E5.1000;N47.4333;13;
3;France;Bourgogne;Côte-d'Or;Martrois 21392;E4.5333;N47.3000;13;
3;France;Bourgogne;Côte-d'Or;Massingy 21393;E4.6000;N47.9000;13;
3;France;Bourgogne;Côte-d'Or;Massingy-lès-Semur 21394;E4.4000;N47.5167;13;
3;France;Bourgogne;Côte-d'Or;Massingy-lès-Vitteaux 21395;E4.5833;N47.4000;13;
3;France;Bourgogne;Côte-d'Or;Mauvilly 21396;E4.7000;N47.7000;13;
3;France;Bourgogne;Côte-d'Or;Mavilly-Mandelot 21397;E4.7333;N47.0500;13;
3;France;Bourgogne;Côte-d'Or;Maxilly-sur-Saône 21398;E5.4333;N47.3333;13;
3;France;Bourgogne;Côte-d'Or;Meilly-sur-Rouvres 21399;E4.5500;N47.2000;13;
3;France;Bourgogne;Côte-d'Or;Meloisey 21401;E4.7333;N47.0333;13;
3;France;Bourgogne;Côte-d'Or;Menesble 21402;E4.9000;N47.7667;13;
3;France;Bourgogne;Côte-d'Or;Ménessaire 21403;E4.1500;N47.1359;13;
3;France;Bourgogne;Côte-d'Or;Ménétreux-le-Pitois 21404;E4.4667;N47.5617;13;
3;France;Bourgogne;Côte-d'Or;Merceuil 21405;E4.8333;N46.9500;13;
3;France;Bourgogne;Côte-d'Or;Mesmont 21406;E4.7500;N47.3167;13;
3;France;Bourgogne;Côte-d'Or;Messanges 21407;E4.8667;N47.1500;13;
3;France;Bourgogne;Côte-d'Or;Messigny-et-Vantoux 21408;E5.0167;N47.4000;13;
3;France;Bourgogne;Côte-d'Or;Meuilley 21409;E4.8833;N47.1333;13;
3;France;Bourgogne;Côte-d'Or;Meulson 21410;E4.7000;N47.6833;13;
3;France;Bourgogne;Côte-d'Or;Meursanges 21411;E4.9500;N46.9833;13;
3;France;Bourgogne;Côte-d'Or;Meursault 21412;E4.7667;N46.9833;13;
3;France;Bourgogne;Côte-d'Or;Millery 21413;E4.3000;N47.5167;13;
3;France;Bourgogne;Côte-d'Or;Mimeure 21414;E4.5000;N47.1500;13;
3;France;Bourgogne;Côte-d'Or;Minot 21415;E4.8667;N47.6667;13;
3;France;Bourgogne;Côte-d'Or;Mirebeau-sur-Bèze 21416;E5.3167;N47.4000;13;
3;France;Bourgogne;Côte-d'Or;Missery 21417;E4.3667;N47.3000;13;
3;France;Bourgogne;Côte-d'Or;Moitron 21418;E4.8167;N47.6833;13;
3;France;Bourgogne;Côte-d'Or;Molesme 21419;E4.3500;N47.9333;13;
3;France;Bourgogne;Côte-d'Or;Molinot 21420;E4.5833;N47.0167;13;
3;France;Bourgogne;Côte-d'Or;Moloy 21421;E4.9167;N47.5333;13;
3;France;Bourgogne;Côte-d'Or;Molphey 21422;E4.2167;N47.3500;13;
3;France;Bourgogne;Côte-d'Or;Mont-Saint-Jean 21441;E4.4000;N47.2833;13;
3;France;Bourgogne;Côte-d'Or;Montagny-lès-Beaune 21423;E4.8500;N46.9833;13;
3;France;Bourgogne;Côte-d'Or;Montagny-lès-Seurre 21424;E5.2500;N47.0167;13;
3;France;Bourgogne;Côte-d'Or;Montbard 21425;E4.3333;N47.6167;13;
3;France;Bourgogne;Côte-d'Or;Montberthault 21426;E4.1667;N47.4667;13;
3;France;Bourgogne;Côte-d'Or;Montceau-et-Écharnant 21427;E4.6667;N47.0610;13;
3;France;Bourgogne;Côte-d'Or;Monthelie 21428;E4.7667;N47.0000;13;
3;France;Bourgogne;Côte-d'Or;Montigny-Montfort 21429;E4.3333;N47.5833;13;
3;France;Bourgogne;Côte-d'Or;Montigny-Saint-Barthélemy 21430;E4.2667;N47.4227;13;
3;France;Bourgogne;Côte-d'Or;Montigny-sur-Armançon 21431;E4.3667;N47.4333;13;
3;France;Bourgogne;Côte-d'Or;Montigny-sur-Aube 21432;E4.7667;N47.9500;13;
3;France;Bourgogne;Côte-d'Or;Montlay-en-Auxois 21434;E4.2833;N47.3500;13;
3;France;Bourgogne;Côte-d'Or;Montliot-et-Courcelles 21435;E4.5667;N47.8833;13;
3;France;Bourgogne;Côte-d'Or;Montmain 21436;E5.0500;N47.0167;13;
3;France;Bourgogne;Côte-d'Or;Montmançon 21437;E5.3833;N47.3500;13;
3;France;Bourgogne;Côte-d'Or;Montmoyen 21438;E4.8000;N47.7333;13;
3;France;Bourgogne;Côte-d'Or;Montoillot 21439;E4.6500;N47.2667;13;
3;France;Bourgogne;Côte-d'Or;Montot 21440;E5.2333;N47.1333;13;
3;France;Bourgogne;Côte-d'Or;Morey-Saint-Denis 21442;E4.9667;N47.2000;13;
3;France;Bourgogne;Côte-d'Or;Mornay 21443=21433;E5.4333;N47.5500;13;
3;France;Bourgogne;Côte-d'Or;Mosson 21444;E4.6333;N47.9167;13;
3;France;Bourgogne;Côte-d'Or;Moutiers-Saint-Jean 21446;E4.2167;N47.5667;13;
3;France;Bourgogne;Côte-d'Or;Musigny 21447;E4.5167;N47.1667;13;
3;France;Bourgogne;Côte-d'Or;Mussy-la-Fosse 21448;E4.4333;N47.5167;13;
3;France;Bourgogne;Côte-d'Or;Nan-sous-Thil 21449;E4.3500;N47.3833;13;
3;France;Bourgogne;Côte-d'Or;Nantoux 21450;E4.7500;N47.0333;13;
3;France;Bourgogne;Côte-d'Or;Nesle-et-Massoult 21451;E4.4333;N47.7833;13;
3;France;Bourgogne;Côte-d'Or;Neuilly-lès-Dijon 21452;E5.1000;N47.2833;13;
3;France;Bourgogne;Côte-d'Or;Neuvelle-lès-Grancey 21453=21304;E5.0000;N47.6833;13;
3;France;Bourgogne;Côte-d'Or;Nicey 21454;E4.3167;N47.8667;13;
3;France;Bourgogne;Côte-d'Or;Nod-sur-Seine 21455;E4.5667;N47.7667;13;
3;France;Bourgogne;Côte-d'Or;Nogent-lès-Montbard 21456;E4.4167;N47.3500;13;
3;France;Bourgogne;Côte-d'Or;Noidan 21457;E4.4833;N47.9500;13;
3;France;Bourgogne;Côte-d'Or;Noiron-sous-Gevrey 21458;E5.0833;N47.2000;13;
3;France;Bourgogne;Côte-d'Or;Noiron-sur-Bèze 21459;E5.3000;N47.4333;13;
3;France;Bourgogne;Côte-d'Or;Noiron-sur-Seine 21460;E4.4833;N47.9500;13;
3;France;Bourgogne;Côte-d'Or;Nolay 21461;E4.6333;N46.9500;13;
3;France;Bourgogne;Côte-d'Or;Norges-la-Ville 21462;E5.0667;N47.4000;13;
3;France;Bourgogne;Côte-d'Or;Normier 21463;E4.4333;N47.3667;13;
3;France;Bourgogne;Côte-d'Or;Nuits-Saint-Georges 21464;E4.9500;N47.1333;13;
3;France;Bourgogne;Côte-d'Or;Obtrée 21465;E4.5667;N47.9167;13;
3;France;Bourgogne;Côte-d'Or;Oigny 21466;E4.7167;N47.5667;13;
3;France;Bourgogne;Côte-d'Or;Oisilly 21467;E5.3667;N47.4167;13;
3;France;Bourgogne;Côte-d'Or;Orain 21468;E5.4333;N47.6167;13;
3;France;Bourgogne;Côte-d'Or;Orgeux 21469;E5.1500;N47.3667;13;
3;France;Bourgogne;Côte-d'Or;Origny 21470;E4.6333;N47.7000;13;
3;France;Bourgogne;Côte-d'Or;Orret 21471;E4.6833;N47.6000;13;
3;France;Bourgogne;Côte-d'Or;Orville 21472;E5.2000;N47.5500;13;
3;France;Bourgogne;Côte-d'Or;Ouges 21473;E5.0667;N47.2667;13;
3;France;Bourgogne;Côte-d'Or;Pagny-la-Ville 21474;E5.1667;N47.0667;13;
3;France;Bourgogne;Côte-d'Or;Pagny-le-Château 21475;E5.1833;N47.0500;13;
3;France;Bourgogne;Côte-d'Or;Painblanc 21476;E4.6333;N47.1500;13;
3;France;Bourgogne;Côte-d'Or;Panges 21477;E4.8000;N47.3667;13;
3;France;Bourgogne;Côte-d'Or;Pasques 21478;E4.8667;N47.3667;13;
3;France;Bourgogne;Côte-d'Or;Pellerey 21479;E4.7833;N47.5000;13;
3;France;Bourgogne;Côte-d'Or;Pernand-Vergelesses 21480;E4.8500;N47.0667;13;
3;France;Bourgogne;Côte-d'Or;Perrigny-lès-Dijon 21481;E5.0000;N47.2667;13;
3;France;Bourgogne;Côte-d'Or;Perrigny-sur-l'Ognon 21482;E5.4500;N47.3167;13;
3;France;Bourgogne;Côte-d'Or;Pichanges 21483;E5.1500;N47.4667;13;
3;France;Bourgogne;Côte-d'Or;Planay 21484;E4.3833;N47.7500;13;
3;France;Bourgogne;Côte-d'Or;Plombières-lès-Dijon 21485;E4.9667;N47.3333;13;
3;France;Bourgogne;Côte-d'Or;Pluvault 21486;E5.2500;N47.2167;13;
3;France;Bourgogne;Côte-d'Or;Pluvet 21487;E5.2667;N47.2000;13;
3;France;Bourgogne;Côte-d'Or;Poinçon-lès-Larrey 21488;E4.4500;N47.8667;13;
3;France;Bourgogne;Côte-d'Or;Poiseul-la-Grange 21489;E4.8000;N47.5667;13;
3;France;Bourgogne;Côte-d'Or;Poiseul-la-Ville-et-Laperrière 21490;E4.6667;N47.5500;13;
3;France;Bourgogne;Côte-d'Or;Poiseul-lès-Saulx 21491;E5.0000;N47.5667;13;
3;France;Bourgogne;Côte-d'Or;Pommard 21492;E4.7833;N47.0167;13;
3;France;Bourgogne;Côte-d'Or;Poncey-lès-Athée 21493;E5.3833;N47.2333;13;
3;France;Bourgogne;Côte-d'Or;Poncey-sur-l'Ignon 21494;E4.7667;N47.5000;13;
3;France;Bourgogne;Côte-d'Or;Pont 21495;E5.3167;N47.1833;13;
3;France;Bourgogne;Côte-d'Or;Pont-et-Massène 21497;E4.3667;N47.4667;13;
3;France;Bourgogne;Côte-d'Or;Pontailler-sur-Saône 21496;E5.4167;N47.3000;13;
3;France;Bourgogne;Côte-d'Or;Posanges 21498;E4.5167;N47.4167;13;
3;France;Bourgogne;Côte-d'Or;Pothières 21499;E4.5000;N47.9167;13;
3;France;Bourgogne;Côte-d'Or;Pouillenay 21500;E4.4667;N47.5000;13;
3;France;Bourgogne;Côte-d'Or;Pouilly-en-Auxois 21501;E4.5500;N47.2667;13;
3;France;Bourgogne;Côte-d'Or;Pouilly-sur-Saône 21502;E5.1167;N47.0167;13;
3;France;Bourgogne;Côte-d'Or;Pouilly-sur-Vingeanne 21503;E5.4333;N47.5333;13;
3;France;Bourgogne;Côte-d'Or;Prâlon 21504;E4.7833;N47.3000;13;
3;France;Bourgogne;Côte-d'Or;Précy-sous-Thil 21505;E4.3167;N47.3833;13;
3;France;Bourgogne;Côte-d'Or;Premeaux-Prissey 21506;E4.9333;N47.1000;13;
3;France;Bourgogne;Côte-d'Or;Premières 21507;E5.2833;N47.2333;13;
3;France;Bourgogne;Côte-d'Or;Prenois 21508;E4.9000;N47.3833;13;
3;France;Bourgogne;Côte-d'Or;Prissey 21509=21506;E4.9333;N47.1000;13;
3;France;Bourgogne;Côte-d'Or;Prusly-sur-Ource 21510;E4.6667;N47.8667;13;
3;France;Bourgogne;Côte-d'Or;Puits 21511;E4.4667;N47.7333;13;
3;France;Bourgogne;Côte-d'Or;Puligny-Montrachet 21512;E4.7500;N46.9500;13;
3;France;Bourgogne;Côte-d'Or;Quemigny-Poisot 21513;E4.8667;N47.2333;13;
3;France;Bourgogne;Côte-d'Or;Quemigny-sur-Seine 21514;E4.6667;N47.6667;13;
3;France;Bourgogne;Côte-d'Or;Quetigny 21515;E5.1167;N47.3167;13;
3;France;Bourgogne;Côte-d'Or;Quincerot 21516;E4.2667;N47.6000;13;
3;France;Bourgogne;Côte-d'Or;Quincey 21517;E4.9667;N47.1167;13;
3;France;Bourgogne;Côte-d'Or;Quincy-le-Vicomte 21518;E4.2500;N47.6000;13;
3;France;Bourgogne;Côte-d'Or;Recey-sur-Ource 21519;E4.8667;N47.7833;13;
3;France;Bourgogne;Côte-d'Or;Remilly-en-Montagne 21520;E4.7333;N47.2833;13;
3;France;Bourgogne;Côte-d'Or;Remilly-sur-Tille 21521;E5.2167;N47.3167;13;
3;France;Bourgogne;Côte-d'Or;Renève 21522;E5.4167;N47.4000;13;
3;France;Bourgogne;Côte-d'Or;Reulle-Vergy 21523;E4.9000;N47.1833;13;
3;France;Bourgogne;Côte-d'Or;Riel-les-Eaux 21524;E4.6833;N47.9667;13;
3;France;Bourgogne;Côte-d'Or;Rochefort-sur-Brévon 21526;E4.7000;N47.7333;13;
3;France;Bourgogne;Côte-d'Or;Roilly 21529;E4.3500;N47.4167;13;
3;France;Bourgogne;Côte-d'Or;Rougemont 21530;E4.2500;N47.6667;13;
3;France;Bourgogne;Côte-d'Or;Rouvray 21531;E4.1000;N47.4167;13;
3;France;Bourgogne;Côte-d'Or;Rouvres-en-Plaine 21532;E5.1333;N47.2333;13;
3;France;Bourgogne;Côte-d'Or;Rouvres-sous-Meilly 21533;E4.5833;N47.2167;13;
3;France;Bourgogne;Côte-d'Or;Ruffey-lès-Beaune 21534;E4.9167;N47.0167;13;
3;France;Bourgogne;Côte-d'Or;Ruffey-lès-Echirey 21535;E5.0833;N47.3667;13;
3;France;Bourgogne;Côte-d'Or;Sacquenay 21536;E5.3167;N47.5833;13;
3;France;Bourgogne;Côte-d'Or;Saffres 21537;E4.5833;N47.3667;13;
3;France;Bourgogne;Côte-d'Or;Saint-Andeux 21538;E4.1000;N47.4000;13;
3;France;Bourgogne;Côte-d'Or;Saint-Anthot 21539;E4.6500;N47.3167;13;
3;France;Bourgogne;Côte-d'Or;Saint-Apollinaire 21540;E5.0833;N47.3333;13;
3;France;Bourgogne;Côte-d'Or;Saint-Aubin 21541;E4.7000;N46.9500;13;
3;France;Bourgogne;Côte-d'Or;Saint-Bernard 21542;E5.0167;N47.1667;13;
3;France;Bourgogne;Côte-d'Or;Saint-Broing-les-Moines 21543;E4.8333;N47.6833;13;
3;France;Bourgogne;Côte-d'Or;Saint-Didier 21546;E4.1833;N47.3167;13;
3;France;Bourgogne;Côte-d'Or;Saint-Euphrône 21547;E4.3833;N47.4833;13;
3;France;Bourgogne;Côte-d'Or;Saint-Germain-de-Modéon 21548;E4.1333;N47.3833;13;
3;France;Bourgogne;Côte-d'Or;Saint-Germain-le-Rocheux 21549;E4.6667;N47.7500;13;
3;France;Bourgogne;Côte-d'Or;Saint-Germain-lès-Senailly 21550;E4.2667;N47.6000;13;
3;France;Bourgogne;Côte-d'Or;Saint-Germain-Source-Seine 21551;E4.7000;N47.5000;13;
3;France;Bourgogne;Côte-d'Or;Saint-Hélier 21552;E4.6833;N47.3833;13;
3;France;Bourgogne;Côte-d'Or;Saint-Jean-de-Boeuf 21553;E4.7500;N47.2167;13;
3;France;Bourgogne;Côte-d'Or;Saint-Jean-de-Losne 21554;E5.2500;N47.1000;13;
3;France;Bourgogne;Côte-d'Or;Saint-Julien 21555;E5.1333;N47.4000;13;
3;France;Bourgogne;Côte-d'Or;Saint-Léger-Triey 21556;E5.3667;N47.3167;13;
3;France;Bourgogne;Côte-d'Or;Saint-Marc-sur-Seine 21557;E4.6000;N47.7000;13;
3;France;Bourgogne;Côte-d'Or;Saint-Martin-de-la-Mer 21560;E4.2333;N47.2333;13;
3;France;Bourgogne;Côte-d'Or;Saint-Martin-du-Mont 21561;E4.7833;N47.4333;13;
3;France;Bourgogne;Côte-d'Or;Saint-Maurice-sur-Vingeanne 21562;E5.4000;N47.5833;13;
3;France;Bourgogne;Côte-d'Or;Saint-Mesmin 21563;E4.6500;N47.3500;13;
3;France;Bourgogne;Côte-d'Or;Saint-Nicolas-lès-Cîteaux 21564;E5.0500;N47.1167;13;
3;France;Bourgogne;Côte-d'Or;Saint-Philibert 21565;E5.0167;N47.2000;13;
3;France;Bourgogne;Côte-d'Or;Saint-Pierre-en-Vaux 21566;E4.5333;N47.0500;13;
3;France;Bourgogne;Côte-d'Or;Saint-Prix-lès-Arnay 21567;E4.5000;N47.1167;13;
3;France;Bourgogne;Côte-d'Or;Saint-Rémy 21568;E4.2833;N47.6333;13;
3;France;Bourgogne;Côte-d'Or;Saint-Romain 21569;E4.7000;N47.0000;13;
3;France;Bourgogne;Côte-d'Or;Saint-Sauveur 21571;E5.4167;N47.3667;13;
3;France;Bourgogne;Côte-d'Or;Saint-Seine-en-Bâche 21572;E5.3667;N47.1167;13;
3;France;Bourgogne;Côte-d'Or;Saint-Seine-l'Abbaye 21573;E4.7833;N47.4333;13;
3;France;Bourgogne;Côte-d'Or;Saint-Seine-sur-Vingeanne 21574;E5.4333;N47.5167;13;
3;France;Bourgogne;Côte-d'Or;Saint-Symphorien-sur-Saône 21575;E5.3000;N47.1000;13;
3;France;Bourgogne;Côte-d'Or;Saint-Thibault 21576;E4.4667;N47.3667;13;
3;France;Bourgogne;Côte-d'Or;Saint-Usage 21577;E5.2667;N47.1000;13;
3;France;Bourgogne;Côte-d'Or;Saint-Victor-sur-Ouche 21578;E4.7500;N47.2333;13;
3;France;Bourgogne;Côte-d'Or;Sainte-Colombe 21544;E4.4500;N47.4167;13;
3;France;Bourgogne;Côte-d'Or;Sainte-Colombe-sur-Seine 21545;E4.5333;N47.8667;13;
3;France;Bourgogne;Côte-d'Or;Sainte-Marie-la-Blanche 21558;E4.9000;N46.9833;13;
3;France;Bourgogne;Côte-d'Or;Sainte-Marie-sur-Ouche 21559;E4.8000;N47.2833;13;
3;France;Bourgogne;Côte-d'Or;Sainte-Sabine 21570;E4.6167;N47.1833;13;
3;France;Bourgogne;Côte-d'Or;Salives 21579;E4.9000;N47.6167;13;
3;France;Bourgogne;Côte-d'Or;Salmaise 21580;E4.6667;N47.4500;13;
3;France;Bourgogne;Côte-d'Or;Samerey 21581;E5.3667;N47.0833;13;
3;France;Bourgogne;Côte-d'Or;Santenay 21582;E4.6833;N46.9167;13;
3;France;Bourgogne;Côte-d'Or;Santosse 21583;E4.6333;N47.0000;13;
3;France;Bourgogne;Côte-d'Or;Saulieu 21584;E4.2333;N47.2667;13;
3;France;Bourgogne;Côte-d'Or;Saulon-la-Chapelle 21585;E5.0833;N47.2167;13;
3;France;Bourgogne;Côte-d'Or;Saulon-la-Rue 21586;E5.0667;N47.2167;13;
3;France;Bourgogne;Côte-d'Or;Saulx-le-Duc 21587;E5.0167;N47.5333;13;
3;France;Bourgogne;Côte-d'Or;Saussey 21588;E4.6167;N47.0667;13;
3;France;Bourgogne;Côte-d'Or;Saussy 21589;E4.9500;N47.4667;13;
3;France;Bourgogne;Côte-d'Or;Savigny-le-Sec 21591;E5.0500;N47.4333;13;
3;France;Bourgogne;Côte-d'Or;Savigny-lès-Beaune 21590;E4.8167;N47.0667;13;
3;France;Bourgogne;Côte-d'Or;Savigny-sous-Mâlain 21592;E4.7667;N47.3333;13;
3;France;Bourgogne;Côte-d'Or;Savilly 21593;E4.2833;N47.1167;13;
3;France;Bourgogne;Côte-d'Or;Savoisy 21594;E4.4167;N47.7333;13;
3;France;Bourgogne;Côte-d'Or;Savolles 21595;E5.2667;N47.3833;13;
3;France;Bourgogne;Côte-d'Or;Savouges 21596;E5.0667;N47.1833;13;
3;France;Bourgogne;Côte-d'Or;Segrois 21597;E4.9000;N47.1667;13;
3;France;Bourgogne;Côte-d'Or;Seigny 21598;E4.4333;N47.5833;13;
3;France;Bourgogne;Côte-d'Or;Selongey 21599;E5.1667;N47.5833;13;
3;France;Bourgogne;Côte-d'Or;Semarey 21600;E4.6333;N47.2667;13;
3;France;Bourgogne;Côte-d'Or;Semezanges 21601;E4.8500;N47.2000;13;
3;France;Bourgogne;Côte-d'Or;Semond 21602;E4.6000;N47.7167;13;
3;France;Bourgogne;Côte-d'Or;Semur-en-Auxois 21603;E4.3336;N47.4914;13;
3;France;Bourgogne;Côte-d'Or;Senailly 21604;E4.2667;N47.5833;13;
3;France;Bourgogne;Côte-d'Or;Sennecey-lès-Dijon 21605;E5.1000;N47.2833;13;
3;France;Bourgogne;Côte-d'Or;Seurre 21607;E5.1500;N47.0000;13;
3;France;Bourgogne;Côte-d'Or;Sincey-lès-Rouvray 21608;E4.1333;N47.4333;13;
3;France;Bourgogne;Côte-d'Or;Soirans 21609;E5.2833;N47.2000;13;
3;France;Bourgogne;Côte-d'Or;Soissons-sur-Nacey 21610;E5.4500;N47.2500;13;
3;France;Bourgogne;Côte-d'Or;Sombernon 21611;E4.7000;N47.3000;13;
3;France;Bourgogne;Côte-d'Or;Souhey 21612;E4.4167;N47.4833;13;
3;France;Bourgogne;Côte-d'Or;Soussey-sur-Brionne 21613;E4.5333;N47.3167;13;
3;France;Bourgogne;Côte-d'Or;Spoy 21614;E5.2000;N47.4500;13;
3;France;Bourgogne;Côte-d'Or;Sussey 21615;E4.3667;N47.2167;13;
3;France;Bourgogne;Côte-d'Or;Tailly 21616;E4.8167;N46.9667;13;
3;France;Bourgogne;Côte-d'Or;Talant 21617;E5.0000;N47.3167;13;
3;France;Bourgogne;Côte-d'Or;Talmay 21618;E5.4333;N47.3500;13;
3;France;Bourgogne;Côte-d'Or;Tanay 21619;E5.2667;N47.4167;13;
3;France;Bourgogne;Côte-d'Or;Tarsul 21620;E4.9833;N47.5333;13;
3;France;Bourgogne;Côte-d'Or;Tart-l'Abbaye 21621;E5.2500;N47.1833;13;
3;France;Bourgogne;Côte-d'Or;Tart-le-Bas 21622;E5.2167;N47.2167;13;
3;France;Bourgogne;Côte-d'Or;Tart-le-Haut 21623;E5.2000;N47.2000;13;
3;France;Bourgogne;Côte-d'Or;Tellecey 21624;E5.2833;N47.2833;13;
3;France;Bourgogne;Côte-d'Or;Ternant 21625;E4.8500;N47.2000;13;
3;France;Bourgogne;Côte-d'Or;Terrefondrée 21626;E4.8667;N47.7333;13;
3;France;Bourgogne;Côte-d'Or;Thenissey 21627;E4.6167;N47.5000;13;
3;France;Bourgogne;Côte-d'Or;Thoires 21628;E4.6833;N47.9333;13;
3;France;Bourgogne;Côte-d'Or;Thoisy-la-Berchère 21629;E4.3333;N47.2500;13;
3;France;Bourgogne;Côte-d'Or;Thoisy-le-Désert 21630;E4.5333;N47.2500;13;
3;France;Bourgogne;Côte-d'Or;Thomirey 21631;E4.5833;N47.0833;13;
3;France;Bourgogne;Côte-d'Or;Thorey-en-Plaine 21632;E5.1333;N47.2167;13;
3;France;Bourgogne;Côte-d'Or;Thorey-sous-Charny 21633;E4.4500;N47.3167;13;
3;France;Bourgogne;Côte-d'Or;Thorey-sur-Ouche 21634;E4.7000;N47.1500;13;
3;France;Bourgogne;Côte-d'Or;Thoste 21635;E4.2167;N47.4333;13;
3;France;Bourgogne;Côte-d'Or;Thury 21636;E4.5167;N47.0333;13;
3;France;Bourgogne;Côte-d'Or;Tichey 21637;E5.2833;N47.0167;13;
3;France;Bourgogne;Côte-d'Or;Til-Châtel 21638;E5.1667;N47.5167;13;
3;France;Bourgogne;Côte-d'Or;Tillenay 21639;E5.3500;N47.1833;13;
3;France;Bourgogne;Côte-d'Or;Torcy-et-Pouligny 21640;E4.2167;N47.4833;13;
3;France;Bourgogne;Côte-d'Or;Touillon 21641;E4.4333;N47.6500;13;
3;France;Bourgogne;Côte-d'Or;Toutry 21642;E4.1167;N47.5000;13;
3;France;Bourgogne;Côte-d'Or;Tréclun 21643;E5.2833;N47.1833;13;
3;France;Bourgogne;Côte-d'Or;Trochères 21644;E5.3000;N47.3500;13;
3;France;Bourgogne;Côte-d'Or;Trouhans 21645;E5.2667;N47.1500;13;
3;France;Bourgogne;Côte-d'Or;Trouhaut 21646;E4.7500;N47.4000;13;
3;France;Bourgogne;Côte-d'Or;Trugny 21647;E5.1500;N46.9833;13;
3;France;Bourgogne;Côte-d'Or;Turcey 21648;E4.7167;N47.4000;13;
3;France;Bourgogne;Côte-d'Or;Uncey-le-Franc 21649;E4.5667;N47.3500;13;
3;France;Bourgogne;Côte-d'Or;Urcy 21650;E4.8500;N47.2667;13;
3;France;Bourgogne;Côte-d'Or;Val-Suzon 21651;E4.9000;N47.4167;13;
3;France;Bourgogne;Côte-d'Or;Vandenesse-en-Auxois 21652;E4.6000;N47.2167;13;
3;France;Bourgogne;Côte-d'Or;Vannaire 21653;E4.5667;N47.9167;13;
3;France;Bourgogne;Côte-d'Or;Vantoux-lès-Dijon 21654=21408;E5.0198;N47.3967;13;
3;France;Bourgogne;Côte-d'Or;Vanvey 21655;E4.7000;N47.8333;13;
3;France;Bourgogne;Côte-d'Or;Varanges 21656;E5.2000;N47.2333;13;
3;France;Bourgogne;Côte-d'Or;Varois-et-Chaignot 21657;E5.1167;N47.3500;13;
3;France;Bourgogne;Côte-d'Or;Vauchignon 21658;E4.6500;N46.9667;13;
3;France;Bourgogne;Côte-d'Or;Vaux-Saules 21659;E4.8000;N47.4667;13;
3;France;Bourgogne;Côte-d'Or;Veilly 21660;E4.6000;N47.1167;13;
3;France;Bourgogne;Côte-d'Or;Velars-sur-Ouche 21661;E4.9000;N47.3333;13;
3;France;Bourgogne;Côte-d'Or;Velogny 21662;E4.4667;N47.4000;13;
3;France;Bourgogne;Côte-d'Or;Venarey-les-Laumes 21663;E4.4333;N47.5333;13;
3;France;Bourgogne;Côte-d'Or;Verdonnet 21664;E4.3167;N47.7333;13;
3;France;Bourgogne;Côte-d'Or;Vernois-lès-Vesvres 21665;E5.1500;N47.6500;13;
3;France;Bourgogne;Côte-d'Or;Vernot 21666;E4.9833;N47.4833;13;
3;France;Bourgogne;Côte-d'Or;Véronnes 21667;E5.2167;N47.5333;13;
3;France;Bourgogne;Côte-d'Or;Véronnes-les-Petites 21668=21667;E5.2333;N47.5333;13;
3;France;Bourgogne;Côte-d'Or;Verrey-sous-Drée 21669;E4.6833;N47.3667;13;
3;France;Bourgogne;Côte-d'Or;Verrey-sous-Salmaise 21670;E4.6667;N47.4333;13;
3;France;Bourgogne;Côte-d'Or;Vertault 21671;E4.3500;N47.9167;13;
3;France;Bourgogne;Côte-d'Or;Vesvres 21672;E4.5333;N47.3833;13;
3;France;Bourgogne;Côte-d'Or;Veuvey-sur-Ouche 21673;E4.7167;N47.1833;13;
3;France;Bourgogne;Côte-d'Or;Veuxhaulles-sur-Aube 21674;E4.8000;N47.9475;13;
3;France;Bourgogne;Côte-d'Or;Vianges 21675;E4.3333;N47.1667;13;
3;France;Bourgogne;Côte-d'Or;Vic-de-Chassenay 21676;E4.2667;N47.4667;13;
3;France;Bourgogne;Côte-d'Or;Vic-des-Prés 21677;E4.6333;N47.1000;13;
3;France;Bourgogne;Côte-d'Or;Vic-sous-Thil 21678;E4.3167;N47.3667;13;
3;France;Bourgogne;Côte-d'Or;Vieilmoulin 21679;E4.6667;N47.3000;13;
3;France;Bourgogne;Côte-d'Or;Vielverge 21680;E5.4500;N47.2667;13;
3;France;Bourgogne;Côte-d'Or;Vieux-Château 21681;E4.1333;N47.4667;13;
3;France;Bourgogne;Côte-d'Or;Viévigne 21682;E5.2333;N47.4333;13;
3;France;Bourgogne;Côte-d'Or;Viévy 21683;E4.4500;N47.0500;13;
3;France;Bourgogne;Côte-d'Or;Vignoles 21684;E4.8833;N47.0333;13;
3;France;Bourgogne;Côte-d'Or;Villaines-en-Duesmois 21685;E4.5000;N47.6833;13;
3;France;Bourgogne;Côte-d'Or;Villaines-les-Prévôtes 21686;E4.3000;N47.5500;13;
3;France;Bourgogne;Côte-d'Or;Villargoix 21687;E4.3000;N47.2833;13;
3;France;Bourgogne;Côte-d'Or;Villars-et-Villenotte 21689;E4.3833;N47.5167;13;
3;France;Bourgogne;Côte-d'Or;Villars-Fontaine 21688;E4.8833;N47.1500;13;
3;France;Bourgogne;Côte-d'Or;Villeberny 21690;E4.6000;N47.4333;13;
3;France;Bourgogne;Côte-d'Or;Villebichot 21691;E5.0500;N47.1333;13;
3;France;Bourgogne;Côte-d'Or;Villecomte 21692;E5.0333;N47.5167;13;
3;France;Bourgogne;Côte-d'Or;Villedieu 21693;E4.3667;N47.9167;13;
3;France;Bourgogne;Côte-d'Or;Villeferry 21694;E4.5167;N47.4500;13;
3;France;Bourgogne;Côte-d'Or;Villeneuve-sous-Charigny 21696;E4.4000;N47.4381;13;
3;France;Bourgogne;Côte-d'Or;Villers-la-Faye 21698;E4.8833;N47.1000;13;
3;France;Bourgogne;Côte-d'Or;Villers-les-Pots 21699;E5.3500;N47.2167;13;
3;France;Bourgogne;Côte-d'Or;Villers-Patras 21700;E4.5500;N47.9333;13;
3;France;Bourgogne;Côte-d'Or;Villers-Rotin 21701;E5.4000;N47.1500;13;
3;France;Bourgogne;Côte-d'Or;Villey-sur-Tille 21702;E5.1000;N47.5500;13;
3;France;Bourgogne;Côte-d'Or;Villiers-en-Morvan 21703;E4.2667;N47.1500;13;
3;France;Bourgogne;Côte-d'Or;Villiers-le-Duc 21704;E4.7167;N47.8167;13;
3;France;Bourgogne;Côte-d'Or;Villotte-Saint-Seine 21705;E4.7000;N47.4333;13;
3;France;Bourgogne;Côte-d'Or;Villotte-sur-Ource 21706;E4.6833;N47.8667;13;
3;France;Bourgogne;Côte-d'Or;Villy-en-Auxois 21707;E4.6333;N47.4167;13;
3;France;Bourgogne;Côte-d'Or;Villy-le-Moutier 21708;E5.0000;N47.0333;13;
3;France;Bourgogne;Côte-d'Or;Viserny 21709;E4.2833;N47.5667;13;
3;France;Bourgogne;Côte-d'Or;Vitteaux 21710;E4.5333;N47.4000;13;
3;France;Bourgogne;Côte-d'Or;Vix 21711;E4.5500;N47.9000;13;
3;France;Bourgogne;Côte-d'Or;Volnay 21712;E4.7667;N47.0000;13;
3;France;Bourgogne;Côte-d'Or;Vonges 21713;E5.4000;N47.3000;13;
3;France;Bourgogne;Côte-d'Or;Vosne-Romanée 21714;E4.9500;N47.1667;13;
3;France;Bourgogne;Côte-d'Or;Voudenay 21715;E4.3833;N47.0833;13;
3;France;Bourgogne;Côte-d'Or;Vougeot 21716;E4.9667;N47.1667;13;
3;France;Bourgogne;Côte-d'Or;Voulaines-les-Templiers 21717;E4.7667;N48.8167;13;
2;France;Bourgogne;Nièvre;;E3.5294;N47.1318;9;
3;France;Bourgogne;Nièvre;Achun 58001;E3.6667;N47.1167;13;
3;France;Bourgogne;Nièvre;Alligny-Cosne 58002;E3.0667;N47.4500;13;
3;France;Bourgogne;Nièvre;Alligny-en-Morvan 58003;E4.1667;N47.2000;13;
3;France;Bourgogne;Nièvre;Alluy 58004;E3.6333;N47.0333;13;
3;France;Bourgogne;Nièvre;Amazy 58005;E3.5833;N47.3833;13;
3;France;Bourgogne;Nièvre;Anlezy 58006;E3.5000;N46.9667;13;
3;France;Bourgogne;Nièvre;Annay 58007;E2.9333;N47.5333;13;
3;France;Bourgogne;Nièvre;Anthien 58008;E3.7333;N47.3000;13;
3;France;Bourgogne;Nièvre;Arbourse 58009;E3.2333;N47.2500;13;
3;France;Bourgogne;Nièvre;Arleuf 58010;E4.0167;N47.0500;13;
3;France;Bourgogne;Nièvre;Armes 58011;E3.5500;N47.4667;13;
3;France;Bourgogne;Nièvre;Arquian 58012;E2.9833;N47.5500;13;
3;France;Bourgogne;Nièvre;Arthel 58013;E3.4167;N47.2333;13;
3;France;Bourgogne;Nièvre;Arzembouy 58014;E3.3667;N47.2500;13;
3;France;Bourgogne;Nièvre;Asnan 58015;E3.5500;N47.3167;13;
3;France;Bourgogne;Nièvre;Asnois 58016;E3.6000;N47.4000;13;
3;France;Bourgogne;Nièvre;Aunay-en-Bazois 58017;E3.7000;N47.1167;13;
3;France;Bourgogne;Nièvre;Authiou 58018;E3.4167;N47.2667;13;
3;France;Bourgogne;Nièvre;Avrée 58019;E3.8667;N46.8167;13;
3;France;Bourgogne;Nièvre;Avril-sur-Loire 58020;E3.3667;N46.8167;13;
3;France;Bourgogne;Nièvre;Azy-le-Vif 58021;E3.2333;N46.7833;13;
3;France;Bourgogne;Nièvre;Balleray 58022;E3.2833;N47.0833;13;
3;France;Bourgogne;Nièvre;Bazoches 58023;E3.7833;N47.3833;13;
3;France;Bourgogne;Nièvre;Bazolles 58024;E3.6000;N47.1333;13;
3;France;Bourgogne;Nièvre;Béard 58025;E3.3333;N46.8667;13;
3;France;Bourgogne;Nièvre;Beaulieu 58026;E3.5333;N47.2500;13;
3;France;Bourgogne;Nièvre;Beaumont-la-Ferrière 58027;E3.2167;N47.1833;13;
3;France;Bourgogne;Nièvre;Beaumont-Sardolles 58028;E3.4000;N46.9333;13;
3;France;Bourgogne;Nièvre;Beuvron 58029;E3.5000;N47.3667;13;
3;France;Bourgogne;Nièvre;Biches 58030;E3.6500;N47.0000;13;
3;France;Bourgogne;Nièvre;Billy-Chevannes 58031;E3.4500;N47.0167;13;
3;France;Bourgogne;Nièvre;Billy-sur-Oisy 58032;E3.4167;N47.4833;13;
3;France;Bourgogne;Nièvre;Bitry 58033;E3.0833;N47.4833;13;
3;France;Bourgogne;Nièvre;Blismes 58034;E3.8167;N47.1167;13;
3;France;Bourgogne;Nièvre;Bona 58035;E3.4167;N47.0667;13;
3;France;Bourgogne;Nièvre;Bouhy 58036;E3.1667;N47.4833;13;
3;France;Bourgogne;Nièvre;Brassy 58037;E3.9333;N47.2667;13;
3;France;Bourgogne;Nièvre;Breugnon 58038;E3.4500;N47.4333;13;
3;France;Bourgogne;Nièvre;Brèves 58039;E3.6000;N47.4167;13;
3;France;Bourgogne;Nièvre;Brinay 58040;E3.7000;N47.0000;13;
3;France;Bourgogne;Nièvre;Brinon-sur-Beuvron 58041;E3.5000;N47.2833;13;
3;France;Bourgogne;Nièvre;Bulcy 58042;E3.0333;N47.2500;13;
3;France;Bourgogne;Nièvre;Bussy-la-Pesle 58043;E3.4667;N47.2667;13;
3;France;Bourgogne;Nièvre;Cercy-la-Tour 58046;E3.6500;N46.8667;13;
3;France;Bourgogne;Nièvre;Cervon 58047;E3.7500;N47.2333;13;
3;France;Bourgogne;Nièvre;Cessy-les-Bois 58048;E3.2000;N47.3333;13;
3;France;Bourgogne;Nièvre;Chalaux 58049;E3.9167;N47.3333;13;
3;France;Bourgogne;Nièvre;Challement 58050;E3.5833;N47.3167;13;
3;France;Bourgogne;Nièvre;Challuy 58051;E3.1500;N46.9500;13;
3;France;Bourgogne;Nièvre;Champallement 58052;E3.4833;N47.2333;13;
3;France;Bourgogne;Nièvre;Champlemy 58053;E3.3500;N47.2833;13;
3;France;Bourgogne;Nièvre;Champlin 58054;E3.4333;N47.2333;13;
3;France;Bourgogne;Nièvre;Champvert 58055;E3.5167;N46.8333;13;
3;France;Bourgogne;Nièvre;Champvoux 58056;E3.0833;N47.1333;13;
3;France;Bourgogne;Nièvre;Chantenay-Saint-Imbert 58057;E3.1833;N46.7333;13;
3;France;Bourgogne;Nièvre;Charrin 58060;E3.6000;N46.7833;13;
3;France;Bourgogne;Nièvre;Chasnay 58061;E3.1833;N47.2500;13;
3;France;Bourgogne;Nièvre;Château-Chinon(Campagne) 58063;E3.9333;N47.0500;13;
3;France;Bourgogne;Nièvre;Château-Chinon(Ville) 58062;E3.9167;N47.0500;13;
3;France;Bourgogne;Nièvre;Châteauneuf-Val-de-Bargis 58064;E3.2333;N47.2833;13;
3;France;Bourgogne;Nièvre;Châtillon-en-Bazois 58065;E3.6667;N47.0500;13;
3;France;Bourgogne;Nièvre;Châtin 58066;E3.8667;N47.1000;13;
3;France;Bourgogne;Nièvre;Chaulgnes 58067;E3.1000;N47.1333;13;
3;France;Bourgogne;Nièvre;Chaumard 58068;E3.9167;N47.1333;13;
3;France;Bourgogne;Nièvre;Chaumot 58069;E3.6333;N47.2500;13;
3;France;Bourgogne;Nièvre;Chazeuil 58070;E3.4000;N47.2833;13;
3;France;Bourgogne;Nièvre;Chevannes-Changy 58071;E3.4500;N47.2833;13;
3;France;Bourgogne;Nièvre;Chevenon 58072;E3.2167;N46.9167;13;
3;France;Bourgogne;Nièvre;Chevroches 58073;E3.5500;N47.4500;13;
3;France;Bourgogne;Nièvre;Chiddes 58074;E3.9333;N46.8500;13;
3;France;Bourgogne;Nièvre;Chitry-les-Mines 58075;E3.6500;N47.2500;13;
3;France;Bourgogne;Nièvre;Chougny 58076;E3.7667;N47.0833;13;
3;France;Bourgogne;Nièvre;Ciez 58077;E3.1667;N47.4333;13;
3;France;Bourgogne;Nièvre;Cizely 58078;E3.4833;N47.0000;13;
3;France;Bourgogne;Nièvre;Clamecy 58079;E3.5167;N47.4500;13;
3;France;Bourgogne;Nièvre;Colméry 58081;E3.2500;N47.3500;13;
3;France;Bourgogne;Nièvre;Corancy 58082;E3.9500;N47.1000;13;
3;France;Bourgogne;Nièvre;Corbigny 58083;E3.6667;N47.2500;13;
3;France;Bourgogne;Nièvre;Corvol-d'Embernard 58084;E3.4000;N47.2833;13;
3;France;Bourgogne;Nièvre;Corvol-l'Orgueilleux 58085;E3.4000;N47.4333;13;
3;France;Bourgogne;Nièvre;Cosne-Cours-sur-Loire 58086;E2.9275;N47.4122;13;
3;France;Bourgogne;Nièvre;Cossaye 58087;E3.4667;N46.7500;13;
3;France;Bourgogne;Nièvre;Coulanges-lès-Nevers 58088;E3.1833;N47.0000;13;
3;France;Bourgogne;Nièvre;Couloutre 58089;E3.2333;N47.4000;13;
3;France;Bourgogne;Nièvre;Courcelles 58090;E3.4000;N47.3833;13;
3;France;Bourgogne;Nièvre;Cours 58091=58086;E2.9666;N47.4359;13;
3;France;Bourgogne;Nièvre;Crux-la-Ville 58092;E3.5167;N47.1667;13;
3;France;Bourgogne;Nièvre;Cuncy-lès-Varzy 58093;E3.4667;N47.3667;13;
3;France;Bourgogne;Nièvre;Dampierre-sous-Bouhy 58094;E3.1333;N47.5000;13;
3;France;Bourgogne;Nièvre;Decize 58095;E3.4667;N46.8333;13;
3;France;Bourgogne;Nièvre;Devay 58096;E3.5500;N46.8000;13;
3;France;Bourgogne;Nièvre;Diennes-Aubigny 58097;E3.5833;N46.9167;13;
3;France;Bourgogne;Nièvre;Dirol 58098;E3.6500;N47.3167;13;
3;France;Bourgogne;Nièvre;Dommartin 58099;E3.8500;N47.0667;13;
3;France;Bourgogne;Nièvre;Dompierre-sur-Héry 58100;E3.5667;N47.2667;13;
3;France;Bourgogne;Nièvre;Dompierre-sur-Nièvre 58101;E3.2500;N47.2333;13;
3;France;Bourgogne;Nièvre;Donzy 58102;E3.1167;N47.3667;13;
3;France;Bourgogne;Nièvre;Dornecy 58103;E3.5833;N47.4333;13;
3;France;Bourgogne;Nièvre;Dornes 58104;E3.3500;N46.7167;13;
3;France;Bourgogne;Nièvre;Druy-Parigny 58105;E3.3667;N46.8667;13;
3;France;Bourgogne;Nièvre;Dun-les-Places 58106;E4.0000;N47.2833;13;
3;France;Bourgogne;Nièvre;Dun-sur-Grandry 58107;E3.8000;N47.0833;13;
3;France;Bourgogne;Nièvre;Empury 58108;E3.8167;N47.3500;13;
3;France;Bourgogne;Nièvre;Entrains-sur-Nohain 58109;E3.2500;N47.4500;13;
3;France;Bourgogne;Nièvre;Epiry 58110;E3.7167;N47.1833;13;
3;France;Bourgogne;Nièvre;Fâchin 58111;E3.9667;N47.0000;13;
3;France;Bourgogne;Nièvre;Fertrève 58113;E3.5833;N46.9667;13;
3;France;Bourgogne;Nièvre;Fléty 58114;E3.9000;N46.7833;13;
3;France;Bourgogne;Nièvre;Fleury-sur-Loire 58115;E3.3167;N46.8333;13;
3;France;Bourgogne;Nièvre;Flez-Cuzy 58116;E3.6167;N47.3500;13;
3;France;Bourgogne;Nièvre;Fourchambault 58117;E3.0833;N47.0167;13;
3;France;Bourgogne;Nièvre;Fours 58118;E3.7167;N46.8167;13;
3;France;Bourgogne;Nièvre;Frasnay-Reugny 58119;E3.5167;N47.0000;13;
3;France;Bourgogne;Nièvre;Gâcogne 58120;E3.8667;N47.2333;13;
3;France;Bourgogne;Nièvre;Garchizy 58121;E3.1000;N47.0500;13;
3;France;Bourgogne;Nièvre;Garchy 58122;E3.0667;N47.2667;13;
3;France;Bourgogne;Nièvre;Germenay 58123;E3.6000;N47.2833;13;
3;France;Bourgogne;Nièvre;Germigny-sur-Loire 58124;E3.0333;N47.0667;13;
3;France;Bourgogne;Nièvre;Gien-sur-Cure 58125;E4.1000;N47.1333;13;
3;France;Bourgogne;Nièvre;Gimouille 58126;E3.0833;N46.9500;13;
3;France;Bourgogne;Nièvre;Giry 58127;E3.3667;N47.2167;13;
3;France;Bourgogne;Nièvre;Glux-en-Glenne 58128;E4.0167;N46.9500;13;
3;France;Bourgogne;Nièvre;Gouloux 58129;E4.0833;N47.2500;13;
3;France;Bourgogne;Nièvre;Grenois 58130;E3.5333;N47.3167;13;
3;France;Bourgogne;Nièvre;Guérigny 58131;E3.2000;N47.0833;13;
3;France;Bourgogne;Nièvre;Guipy 58132;E3.5833;N47.2333;13;
3;France;Bourgogne;Nièvre;Héry 58133;E3.5833;N47.2667;13;
3;France;Bourgogne;Nièvre;Imphy 58134;E3.2500;N46.9333;13;
3;France;Bourgogne;Nièvre;Isenay 58135;E3.7000;N46.9000;13;
3;France;Bourgogne;Nièvre;Jailly 58136;E3.4667;N47.0833;13;
3;France;Bourgogne;Nièvre;La Celle-sur-Loire 58044;E2.9333;N47.4667;13;
3;France;Bourgogne;Nièvre;La Celle-sur-Nièvre 58045;E3.2167;N47.2000;13;
3;France;Bourgogne;Nièvre;La Chapelle-Saint-André 58058;E3.3500;N47.4000;13;
3;France;Bourgogne;Nièvre;La Charité-sur-Loire 58059;E3.0167;N47.1667;13;
3;France;Bourgogne;Nièvre;La Collancelle 58080;E3.6500;N47.1833;13;
3;France;Bourgogne;Nièvre;La Fermeté 58112;E3.3333;N46.9667;13;
3;France;Bourgogne;Nièvre;La Machine 58151;E3.4667;N46.8833;13;
3;France;Bourgogne;Nièvre;La Maison-Dieu 58154;E3.6500;N47.4167;13;
3;France;Bourgogne;Nièvre;La Marche 58155;E3.0333;N47.1333;13;
3;France;Bourgogne;Nièvre;La Nocle-Maulaix 58195;E3.7833;N46.7667;13;
3;France;Bourgogne;Nièvre;Lamenay-sur-Loire 58137;E3.5667;N46.7667;13;
3;France;Bourgogne;Nièvre;Langeron 58138;E3.0833;N46.8167;13;
3;France;Bourgogne;Nièvre;Lanty 58139;E3.8500;N46.8167;13;
3;France;Bourgogne;Nièvre;Larochemillay 58140;E4.0000;N46.8833;13;
3;France;Bourgogne;Nièvre;Lavault-de-Frétoy 58141;E4.0167;N47.1000;13;
3;France;Bourgogne;Nièvre;Limanton 58142;E3.7500;N46.9833;13;
3;France;Bourgogne;Nièvre;Limon 58143;E3.3833;N46.9667;13;
3;France;Bourgogne;Nièvre;Livry 58144;E3.0833;N46.7833;13;
3;France;Bourgogne;Nièvre;Lormes 58145;E3.8167;N47.2833;13;
3;France;Bourgogne;Nièvre;Lucenay-lès-Aix 58146;E3.4667;N46.7000;13;
3;France;Bourgogne;Nièvre;Lurcy-le-Bourg 58147;E3.3833;N47.1667;13;
3;France;Bourgogne;Nièvre;Luthenay-Uxeloup 58148;E3.2667;N46.8500;13;
3;France;Bourgogne;Nièvre;Luzy 58149;E3.9667;N46.7833;13;
3;France;Bourgogne;Nièvre;Lys 58150;E3.6000;N47.3500;13;
3;France;Bourgogne;Nièvre;Magny-Cours 58152;E3.1500;N46.8833;13;
3;France;Bourgogne;Nièvre;Magny-Lormes 58153;E3.7500;N47.3000;13;
3;France;Bourgogne;Nièvre;Marcy 58156;E3.4000;N47.3167;13;
3;France;Bourgogne;Nièvre;Marigny-l'Église 58157;E3.9333;N47.3667;13;
3;France;Bourgogne;Nièvre;Marigny-sur-Yonne 58159;E3.6500;N47.2667;13;
3;France;Bourgogne;Nièvre;Mars-sur-Allier 58158;E3.0833;N46.8667;13;
3;France;Bourgogne;Nièvre;Marzy 58160;E3.1000;N46.9833;13;
3;France;Bourgogne;Nièvre;Maux 58161;E3.7833;N47.0500;13;
3;France;Bourgogne;Nièvre;Menestreau 58162;E3.2500;N47.4167;13;
3;France;Bourgogne;Nièvre;Menou 58163;E3.2833;N47.3667;13;
3;France;Bourgogne;Nièvre;Mesves-sur-Loire 58164;E3.0000;N47.2500;13;
3;France;Bourgogne;Nièvre;Metz-le-Comte 58165;E3.6333;N47.4000;13;
3;France;Bourgogne;Nièvre;Mhère 58166;E3.8500;N47.2000;13;
3;France;Bourgogne;Nièvre;Michaugues 58167;E3.5167;N47.2667;13;
3;France;Bourgogne;Nièvre;Millay 58168;E3.9833;N46.8333;13;
3;France;Bourgogne;Nièvre;Moissy-Moulinot 58169;E3.7000;N47.3167;13;
3;France;Bourgogne;Nièvre;Monceaux-le-Comte 58170;E3.6667;N47.3333;13;
3;France;Bourgogne;Nièvre;Mont-et-Marré 58175;E3.6333;N47.0833;13;
3;France;Bourgogne;Nièvre;Montambert 58172;E3.6667;N46.7667;13;
3;France;Bourgogne;Nièvre;Montapas 58171;E3.5833;N47.0833;13;
3;France;Bourgogne;Nièvre;Montaron 58173;E3.7500;N46.8833;13;
3;France;Bourgogne;Nièvre;Montenoison 58174;E3.4333;N47.2167;13;
3;France;Bourgogne;Nièvre;Montigny-aux-Amognes 58176;E3.2833;N47.0167;13;
3;France;Bourgogne;Nièvre;Montigny-en-Morvan 58177;E3.8500;N47.1333;13;
3;France;Bourgogne;Nièvre;Montigny-sur-Canne 58178;E3.6500;N46.9333;13;
3;France;Bourgogne;Nièvre;Montreuillon 58179;E3.7833;N47.1667;13;
3;France;Bourgogne;Nièvre;Montsauche-les-Settons 58180;E3.5500;N47.2833;13;
3;France;Bourgogne;Nièvre;Moraches 58181;E3.8167;N46.9833;13;
3;France;Bourgogne;Nièvre;Moulins-Engilbert 58182;E3.4667;N47.4500;13;
3;France;Bourgogne;Nièvre;Mouron-sur-Yonne 58183;E3.7333;N47.1833;13;
3;France;Bourgogne;Nièvre;Moussy 58184;E3.4500;N47.1833;13;
3;France;Bourgogne;Nièvre;Moux-en-Morvan 58185;E4.1500;N47.1667;13;
3;France;Bourgogne;Nièvre;Murlin 58186;E3.1833;N47.2000;13;
3;France;Bourgogne;Nièvre;Myennes 58187;E2.9333;N47.4500;13;
3;France;Bourgogne;Nièvre;Nannay 58188;E3.2000;N47.2667;13;
3;France;Bourgogne;Nièvre;Narcy 58189;E3.0667;N47.2333;13;
3;France;Bourgogne;Nièvre;Neuffontaines 58190;E3.7500;N47.3667;13;
3;France;Bourgogne;Nièvre;Neuilly 58191;E3.5000;N47.2333;13;
3;France;Bourgogne;Nièvre;Neuville-lès-Decize 58192;E3.3167;N46.7667;13;
3;France;Bourgogne;Nièvre;Neuvy-sur-Loire 58193;E2.8833;N47.5167;13;
3;France;Bourgogne;Nièvre;Nevers 58194;E3.1667;N46.9833;13;
3;France;Bourgogne;Nièvre;Nolay 58196;E3.3167;N47.1167;13;
3;France;Bourgogne;Nièvre;Nuars 58197;E3.6833;N47.3833;13;
3;France;Bourgogne;Nièvre;Oisy 58198;E3.4500;N47.4667;13;
3;France;Bourgogne;Nièvre;Onlay 58199;E3.9000;N46.9667;13;
3;France;Bourgogne;Nièvre;Ouagne 58200;E3.5000;N47.4000;13;
3;France;Bourgogne;Nièvre;Oudan 58201;E3.3500;N47.3500;13;
3;France;Bourgogne;Nièvre;Ougny 58202;E3.7167;N47.0667;13;
3;France;Bourgogne;Nièvre;Oulon 58203;E3.4000;N47.2000;13;
3;France;Bourgogne;Nièvre;Ourouër 58204;E3.3000;N47.0667;13;
3;France;Bourgogne;Nièvre;Ouroux-en-Morvan 58205;E3.9333;N47.1833;13;
3;France;Bourgogne;Nièvre;Parigny-la-Rose 58206;E3.4333;N47.3333;13;
3;France;Bourgogne;Nièvre;Parigny-les-Vaux 58207;E3.1500;N47.0833;13;
3;France;Bourgogne;Nièvre;Pazy 58208;E3.6333;N47.2333;13;
3;France;Bourgogne;Nièvre;Perroy 58209;E3.1667;N47.4000;13;
3;France;Bourgogne;Nièvre;Planchez 58210;E4.0167;N47.1333;13;
3;France;Bourgogne;Nièvre;Poil 58211;E4.0667;N46.8667;13;
3;France;Bourgogne;Nièvre;Poiseux 58212;E3.2333;N47.1167;13;
3;France;Bourgogne;Nièvre;Pougny 58213;E3.0000;N47.3833;13;
3;France;Bourgogne;Nièvre;Pougues-les-Eaux 58214;E3.1000;N47.0667;13;
3;France;Bourgogne;Nièvre;Pouilly-sur-Loire 58215;E2.9500;N47.2833;13;
3;France;Bourgogne;Nièvre;Pouques-Lormes 58216;E3.7833;N47.3167;13;
3;France;Bourgogne;Nièvre;Pousseaux 58217;E3.5333;N47.5167;13;
3;France;Bourgogne;Nièvre;Prémery 58218;E3.3333;N47.1667;13;
3;France;Bourgogne;Nièvre;Préporché 58219;E3.8500;N46.9167;13;
3;France;Bourgogne;Nièvre;Raveau 58220;E3.0833;N47.1833;13;
3;France;Bourgogne;Nièvre;Rémilly 58221;E3.8167;N46.8167;13;
3;France;Bourgogne;Nièvre;Rix 58222;E3.5000;N47.4333;13;
3;France;Bourgogne;Nièvre;Rouy 58223;E3.5333;N47.0167;13;
3;France;Bourgogne;Nièvre;Ruages 58224;E3.6833;N47.3167;13;
3;France;Bourgogne;Nièvre;Saincaize-Meauce 58225;E3.0833;N46.9167;13;
3;France;Bourgogne;Nièvre;Saint-Agnan 58226;E4.0833;N47.3167;13;
3;France;Bourgogne;Nièvre;Saint-Amand-en-Puisaye 58227;E3.0667;N47.5167;13;
3;France;Bourgogne;Nièvre;Saint-Andelain 58228;E2.9667;N47.3167;13;
3;France;Bourgogne;Nièvre;Saint-André-en-Morvan 58229;E3.8500;N47.4000;13;
3;France;Bourgogne;Nièvre;Saint-Aubin-des-Chaumes 58230;E3.7667;N47.3833;13;
3;France;Bourgogne;Nièvre;Saint-Aubin-les-Forges 58231;E3.2000;N47.1500;13;
3;France;Bourgogne;Nièvre;Saint-Benin-d'Azy 58232;E3.4000;N47.0000;13;
3;France;Bourgogne;Nièvre;Saint-Benin-des-Bois 58233;E3.4167;N47.1167;13;
3;France;Bourgogne;Nièvre;Saint-Bonnot 58234;E3.3167;N47.2500;13;
3;France;Bourgogne;Nièvre;Saint-Brisson 58235;E4.0833;N47.2667;13;
3;France;Bourgogne;Nièvre;Saint-Didier 58237;E3.6167;N47.3500;13;
3;France;Bourgogne;Nièvre;Saint-Éloi 58238;E3.2167;N46.9667;13;
3;France;Bourgogne;Nièvre;Saint-Firmin 58239;E3.4000;N47.0500;13;
3;France;Bourgogne;Nièvre;Saint-Franchy 58240;E3.4667;N47.1333;13;
3;France;Bourgogne;Nièvre;Saint-Germain-Chassenay 58241;E3.3833;N46.7833;13;
3;France;Bourgogne;Nièvre;Saint-Germain-des-Bois 58242;E3.5167;N47.3833;13;
3;France;Bourgogne;Nièvre;Saint-Gratien-Savigny 58243;E3.6667;N46.8833;13;
3;France;Bourgogne;Nièvre;Saint-Hilaire-en-Morvan 58244;E3.8833;N47.0833;13;
3;France;Bourgogne;Nièvre;Saint-Hilaire-Fontaine 58245;E3.6167;N46.7667;13;
3;France;Bourgogne;Nièvre;Saint-Honoré-les-Bains 58246;E3.8411;N46.9067;13;
3;France;Bourgogne;Nièvre;Saint-Jean-aux-Amognes 58247;E3.3333;N47.0167;13;
3;France;Bourgogne;Nièvre;Saint-Laurent-l'Abbaye 58248;E2.9917;N47.3417;13;
3;France;Bourgogne;Nièvre;Saint-Léger-de-Fougeret 58249;E3.9000;N47.0167;13;
3;France;Bourgogne;Nièvre;Saint-Léger-des-Vignes 58250;E3.4500;N46.8333;13;
3;France;Bourgogne;Nièvre;Saint-Loup 58251;E3.0000;N47.4500;13;
3;France;Bourgogne;Nièvre;Saint-Malo-en-Donziois 58252;E3.2667;N47.3167;13;
3;France;Bourgogne;Nièvre;Saint-Martin-d'Heuille 58254;E3.2167;N47.0500;13;
3;France;Bourgogne;Nièvre;Saint-Martin-du-Puy 58255;E3.8667;N47.3333;13;
3;France;Bourgogne;Nièvre;Saint-Martin-sur-Nohain 58256;E2.9833;N47.3667;13;
3;France;Bourgogne;Nièvre;Saint-Maurice 58257;E3.5667;N47.1000;13;
3;France;Bourgogne;Nièvre;Saint-Ouen-sur-Loire 58258;E3.3000;N46.8833;13;
3;France;Bourgogne;Nièvre;Saint-Parize-en-Viry 58259;E3.3833;N46.7500;13;
3;France;Bourgogne;Nièvre;Saint-Parize-le-Châtel 58260;E3.1833;N46.8500;13;
3;France;Bourgogne;Nièvre;Saint-Père 58261;E2.9500;N47.4000;13;
3;France;Bourgogne;Nièvre;Saint-Péreuse 58262;E3.8000;N47.0667;13;
3;France;Bourgogne;Nièvre;Saint-Pierre-du-Mont 58263;E3.4333;N47.4000;13;
3;France;Bourgogne;Nièvre;Saint-Pierre-le-Moûtier 58264;E3.1167;N46.8000;13;
3;France;Bourgogne;Nièvre;Saint-Quentin-sur-Nohain 58265;E3.0167;N47.3500;13;
3;France;Bourgogne;Nièvre;Saint-Révérien 58266;E3.5000;N47.2167;13;
3;France;Bourgogne;Nièvre;Saint-Saulge 58267;E3.5000;N47.1000;13;
3;France;Bourgogne;Nièvre;Saint-Seine 58268;E3.8333;N46.7333;13;
3;France;Bourgogne;Nièvre;Saint-Sulpice 58269;E3.3500;N47.0500;13;
3;France;Bourgogne;Nièvre;Saint-Vérain 58270;E3.0500;N47.4833;13;
3;France;Bourgogne;Nièvre;Sainte-Colombe-des-Bois 58236;E3.1333;N47.3167;13;
3;France;Bourgogne;Nièvre;Sainte-Marie 58253;E3.4333;N47.1167;13;
3;France;Bourgogne;Nièvre;Saizy 58271;E3.7000;N47.3500;13;
3;France;Bourgogne;Nièvre;Sardy-lès-Épiry 58272;E3.7000;N47.1833;13;
3;France;Bourgogne;Nièvre;Sauvigny-les-Bois 58273;E3.2667;N46.9667;13;
3;France;Bourgogne;Nièvre;Savigny-Poil-Fol 58274;E3.8500;N46.7833;13;
3;France;Bourgogne;Nièvre;Saxi-Bourdon 58275;E3.4833;N47.0500;13;
3;France;Bourgogne;Nièvre;Sémelay 58276;E3.8500;N46.8500;13;
3;France;Bourgogne;Nièvre;Sermages 58277;E3.8500;N47.0167;13;
3;France;Bourgogne;Nièvre;Sermoise-sur-Loire 58278;E3.1833;N46.9500;13;
3;France;Bourgogne;Nièvre;Sichamps 58279;E3.2833;N47.1500;13;
3;France;Bourgogne;Nièvre;Sougy-sur-Loire 58280;E3.4000;N46.8500;13;
3;France;Bourgogne;Nièvre;Suilly-la-Tour 58281;E3.0667;N47.3500;13;
3;France;Bourgogne;Nièvre;Surgy 58282;E3.5167;N47.5167;13;
3;France;Bourgogne;Nièvre;Taconnay 58283;E3.4833;N47.3000;13;
3;France;Bourgogne;Nièvre;Talon 58284;E3.5667;N47.3333;13;
3;France;Bourgogne;Nièvre;Tamnay-en-Bazois 58285;E3.7167;N47.0500;13;
3;France;Bourgogne;Nièvre;Tannay 58286;E3.6000;N47.3500;13;
3;France;Bourgogne;Nièvre;Tazilly 58287;E3.9167;N46.7667;13;
3;France;Bourgogne;Nièvre;Teigny 58288;E3.6667;N47.3833;13;
3;France;Bourgogne;Nièvre;Ternant 58289;E3.8333;N46.7500;13;
3;France;Bourgogne;Nièvre;Thaix 58290;E3.7167;N46.8500;13;
3;France;Bourgogne;Nièvre;Thianges 58291;E3.5000;N46.9167;13;
3;France;Bourgogne;Nièvre;Tintury 58292;E3.5833;N47.0000;13;
3;France;Bourgogne;Nièvre;Toury-Lurcy 58293;E3.4167;N46.7333;13;
3;France;Bourgogne;Nièvre;Toury-sur-Jour 58294;E3.2500;N46.7333;13;
3;France;Bourgogne;Nièvre;Tracy-sur-Loire 58295;E2.8833;N47.3167;13;
3;France;Bourgogne;Nièvre;Tresnay 58296;E3.1833;N46.7000;13;
3;France;Bourgogne;Nièvre;Trois-Vèvres 58297;E3.4167;N46.9167;13;
3;France;Bourgogne;Nièvre;Tronsanges 58298;E3.0500;N47.1167;13;
3;France;Bourgogne;Nièvre;Trucy-l'Orgueilleux 58299;E3.4167;N47.4500;13;
3;France;Bourgogne;Nièvre;Urzy 58300;E3.2000;N47.0500;13;
3;France;Bourgogne;Nièvre;Vandenesse 58301;E3.7667;N46.9167;13;
3;France;Bourgogne;Nièvre;Varennes-lès-Narcy 58302;E3.0667;N47.2333;13;
3;France;Bourgogne;Nièvre;Varennes-Vauzelles 58303;E3.1333;N47.0000;13;
3;France;Bourgogne;Nièvre;Varzy 58304;E3.3833;N47.3667;13;
3;France;Bourgogne;Nièvre;Vauclaix 58305;E3.8167;N47.2333;13;
3;France;Bourgogne;Nièvre;Verneuil 58306;E3.5500;N46.8667;13;
3;France;Bourgogne;Nièvre;Vielmanay 58307;E3.1167;N47.2667;13;
3;France;Bourgogne;Nièvre;Vignol 58308;E3.6667;N47.3667;13;
3;France;Bourgogne;Nièvre;Villapourçon 58309;E3.9500;N46.9500;13;
3;France;Bourgogne;Nièvre;Ville-Langy 58311;E3.5000;N46.9500;13;
3;France;Bourgogne;Nièvre;Villiers-le-Sec 58310;E3.4333;N47.3833;13;
3;France;Bourgogne;Nièvre;Villiers-sur-Yonne 58312;E3.5833;N47.4167;13;
3;France;Bourgogne;Nièvre;Vitry-Laché 58313;E3.5667;N47.2000;13;
2;France;Bourgogne;Saône-et-Loire;;E4.7296;N46.6268;9;
3;France;Bourgogne;Saône-et-Loire;Allerey-sur-Saône 71003;E4.9800;N46.9000;13;
3;France;Bourgogne;Saône-et-Loire;Allériot 71004;E4.9500;N46.8167;13;
3;France;Bourgogne;Saône-et-Loire;Aluze 71005;E4.6833;N46.8500;13;
3;France;Bourgogne;Saône-et-Loire;Amanzé 71006;E4.2333;N46.3333;13;
3;France;Bourgogne;Saône-et-Loire;Ameugny 71007;E4.6833;N46.5167;13;
3;France;Bourgogne;Saône-et-Loire;Anglure-sous-Dun 71008;E4.3667;N46.2333;13;
3;France;Bourgogne;Saône-et-Loire;Anost 71009;E4.1000;N47.0667;13;
3;France;Bourgogne;Saône-et-Loire;Antully 71010;E4.4167;N46.9000;13;
3;France;Bourgogne;Saône-et-Loire;Anzy-le-Duc 71011;E4.0667;N46.3167;13;
3;France;Bourgogne;Saône-et-Loire;Artaix 71012;E4.0000;N46.2500;13;
3;France;Bourgogne;Saône-et-Loire;Authumes 71013;E5.3000;N46.8833;13;
3;France;Bourgogne;Saône-et-Loire;Autun 71014;E4.3000;N46.9500;13;
3;France;Bourgogne;Saône-et-Loire;Auxy 71015;E4.4000;N46.9500;13;
3;France;Bourgogne;Saône-et-Loire;Azé 71016;E4.7667;N46.4333;13;
3;France;Bourgogne;Saône-et-Loire;Ballore 71017;E4.3667;N46.5333;13;
3;France;Bourgogne;Saône-et-Loire;Bantanges 71018;E5.1000;N46.6167;13;
3;France;Bourgogne;Saône-et-Loire;Barizey 71019;E4.6833;N46.7833;13;
3;France;Bourgogne;Saône-et-Loire;Barnay 71020;E4.3333;N47.0833;13;
3;France;Bourgogne;Saône-et-Loire;Baron 71021;E4.2833;N46.4833;13;
3;France;Bourgogne;Saône-et-Loire;Baudemont 71022;E4.2833;N46.2833;13;
3;France;Bourgogne;Saône-et-Loire;Baudrières 71023;E5.0000;N46.6667;13;
3;France;Bourgogne;Saône-et-Loire;Baugy 71024;E4.0167;N46.2833;13;
3;France;Bourgogne;Saône-et-Loire;Beaubery 71025;E4.4000;N46.4000;13;
3;France;Bourgogne;Saône-et-Loire;Beaumont-sur-Grosne 71026;E4.8667;N46.6667;13;
3;France;Bourgogne;Saône-et-Loire;Beaurepaire-en-Bresse 71027;E5.3833;N46.6667;13;
3;France;Bourgogne;Saône-et-Loire;Beauvernois 71028;E5.4385;N46.8333;13;
3;France;Bourgogne;Saône-et-Loire;Bellevesvre 71029;E5.3667;N46.8333;13;
3;France;Bourgogne;Saône-et-Loire;Bergesserin 71030;E4.5667;N46.4000;13;
3;France;Bourgogne;Saône-et-Loire;Berzé-la-Ville 71032;E4.7000;N46.3667;13;
3;France;Bourgogne;Saône-et-Loire;Berzé-le-Châtel 71031;E4.7000;N46.3833;13;
3;France;Bourgogne;Saône-et-Loire;Bey 71033;E4.9667;N46.8167;13;
3;France;Bourgogne;Saône-et-Loire;Bissey-sous-Cruchaud 71034;E4.6833;N46.7333;13;
3;France;Bourgogne;Saône-et-Loire;Bissy-la-Mâconnaise 71035;E4.7833;N46.4833;13;
3;France;Bourgogne;Saône-et-Loire;Bissy-sous-Uxelles 71036;E4.7167;N46.5667;13;
3;France;Bourgogne;Saône-et-Loire;Bissy-sur-Fley 71037;E4.6167;N46.6667;13;
3;France;Bourgogne;Saône-et-Loire;Blanot 71039;E4.7333;N46.4667;13;
3;France;Bourgogne;Saône-et-Loire;Blanzy 71040;E4.3833;N46.7000;13;
3;France;Bourgogne;Saône-et-Loire;Bois-Sainte-Marie 71041;E4.3500;N46.3167;13;
3;France;Bourgogne;Saône-et-Loire;Bonnay 71042;E4.6167;N46.5500;13;
3;France;Bourgogne;Saône-et-Loire;Bosjean 71044;E5.3333;N46.7667;13;
3;France;Bourgogne;Saône-et-Loire;Bouhans 71045;E5.3000;N46.7667;13;
3;France;Bourgogne;Saône-et-Loire;Bourbon-Lancy 71047;E3.7833;N46.6167;13;
3;France;Bourgogne;Saône-et-Loire;Bourg-le-Comte 71048;E3.9833;N46.3000;13;
3;France;Bourgogne;Saône-et-Loire;Bourgneuf-Val-d'Or 71049=71294;E4.7167;N46.8333;13;
3;France;Bourgogne;Saône-et-Loire;Bourgvilain 71050;E4.6333;N46.3667;13;
3;France;Bourgogne;Saône-et-Loire;Bouzeron 71051;E4.7333;N46.8833;13;
3;France;Bourgogne;Saône-et-Loire;Boyer 71052;E4.8833;N46.5833;13;
3;France;Bourgogne;Saône-et-Loire;Bragny-en-Charollais 71053=71490;E4.1333;N46.5333;13;
3;France;Bourgogne;Saône-et-Loire;Bragny-sur-Saône 71054;E5.0333;N46.9167;13;
3;France;Bourgogne;Saône-et-Loire;Brandon 71055;E4.5667;N46.3667;13;
3;France;Bourgogne;Saône-et-Loire;Branges 71056;E5.1833;N46.6333;13;
3;France;Bourgogne;Saône-et-Loire;Bray 71057;E4.7167;N46.5000;13;
3;France;Bourgogne;Saône-et-Loire;Bresse-sur-Grosne 71058;E4.7500;N46.5833;13;
3;France;Bourgogne;Saône-et-Loire;Briant 71060;E4.1500;N46.3000;13;
3;France;Bourgogne;Saône-et-Loire;Brienne 71061;E5.0167;N46.5667;13;
3;France;Bourgogne;Saône-et-Loire;Brion 71062;E4.2083;N46.9083;13;
3;France;Bourgogne;Saône-et-Loire;Broye 71063;E4.3000;N46.8667;13;
3;France;Bourgogne;Saône-et-Loire;Bruailles 71064;E5.2333;N46.6000;13;
3;France;Bourgogne;Saône-et-Loire;Buffières 71065;E4.5333;N46.4333;13;
3;France;Bourgogne;Saône-et-Loire;Burgy 71066;E4.8333;N46.4667;13;
3;France;Bourgogne;Saône-et-Loire;Burnand 71067;E4.6333;N46.6000;13;
3;France;Bourgogne;Saône-et-Loire;Burzy 71068;E4.5833;N46.6000;13;
3;France;Bourgogne;Saône-et-Loire;Bussières 71069;E4.7000;N46.3333;13;
3;France;Bourgogne;Saône-et-Loire;Buxy 71070;E4.6833;N46.7167;13;
3;France;Bourgogne;Saône-et-Loire;Céron 71071;E3.9333;N46.2833;13;
3;France;Bourgogne;Saône-et-Loire;Cersot 71072;E4.6333;N46.7000;13;
3;France;Bourgogne;Saône-et-Loire;Chagny 71073;E4.7500;N46.9167;13;
3;France;Bourgogne;Saône-et-Loire;Chaintré 71074;E4.7667;N46.2667;13;
3;France;Bourgogne;Saône-et-Loire;Chalmoux 71075;E3.8333;N46.6000;13;
3;France;Bourgogne;Saône-et-Loire;Chalon-sur-Saône 71076;E4.8500;N46.7833;13;
3;France;Bourgogne;Saône-et-Loire;Chambilly 71077;E4.0167;N46.2833;13;
3;France;Bourgogne;Saône-et-Loire;Chamilly 71078;E4.6833;N46.8667;13;
3;France;Bourgogne;Saône-et-Loire;Champagnat 71079;E5.3833;N46.4833;13;
3;France;Bourgogne;Saône-et-Loire;Champagny-sous-Uxelles 71080;E4.7333;N46.5833;13;
3;France;Bourgogne;Saône-et-Loire;Champforgeuil 71081;E4.8333;N46.8167;13;
3;France;Bourgogne;Saône-et-Loire;Champlecy 71082;E4.2500;N46.4667;13;
3;France;Bourgogne;Saône-et-Loire;Champlieu 71083=71193;E4.7833;N46.6000;13;
3;France;Bourgogne;Saône-et-Loire;Chânes 71084;E4.7500;N46.2500;13;
3;France;Bourgogne;Saône-et-Loire;Change 71085;E4.6333;N46.9333;13;
3;France;Bourgogne;Saône-et-Loire;Changy 71086;E4.2333;N46.4000;13;
3;France;Bourgogne;Saône-et-Loire;Chapaize 71087;E4.7500;N46.5500;13;
3;France;Bourgogne;Saône-et-Loire;Charbonnat 71098;E4.1167;N46.7833;13;
3;France;Bourgogne;Saône-et-Loire;Charbonnières 71099;E4.8333;N46.3833;13;
3;France;Bourgogne;Saône-et-Loire;Chardonnay 71100;E4.8667;N46.5000;13;
3;France;Bourgogne;Saône-et-Loire;Charette-Varennes 71101;E5.2000;N46.9167;13;
3;France;Bourgogne;Saône-et-Loire;Charmoy 71103;E4.3333;N46.7500;13;
3;France;Bourgogne;Saône-et-Loire;Charnay-lès-Chalon 71104;E5.1000;N46.9333;13;
3;France;Bourgogne;Saône-et-Loire;Charnay-lès-Mâcon 71105;E4.7833;N46.3000;13;
3;France;Bourgogne;Saône-et-Loire;Charolles 71106;E4.2833;N46.4333;13;
3;France;Bourgogne;Saône-et-Loire;Charrecey 71107;E4.6667;N46.8333;13;
3;France;Bourgogne;Saône-et-Loire;Chasselas 71108;E4.7167;N46.2833;13;
3;France;Bourgogne;Saône-et-Loire;Chassey-le-Camp 71109;E4.7000;N46.8833;13;
3;France;Bourgogne;Saône-et-Loire;Chassigny-sous-Dun 71110;E4.3000;N46.2333;13;
3;France;Bourgogne;Saône-et-Loire;Chassy 71111;E4.1000;N46.5833;13;
3;France;Bourgogne;Saône-et-Loire;Château 71112;E4.6000;N46.4333;13;
3;France;Bourgogne;Saône-et-Loire;Châteauneuf 71113;E4.2500;N46.2000;13;
3;France;Bourgogne;Saône-et-Loire;Châteaurenaud 71114=71263;E5.2333;N46.6333;13;
3;France;Bourgogne;Saône-et-Loire;Châtel-Moron 71115;E4.6500;N46.8000;13;
3;France;Bourgogne;Saône-et-Loire;Châtenay 71116;E4.3833;N46.2917;13;
3;France;Bourgogne;Saône-et-Loire;Châtenoy-en-Bresse 71117;E4.9167;N46.7833;13;
3;France;Bourgogne;Saône-et-Loire;Châtenoy-le-Royal 71118;E4.8000;N46.7833;13;
3;France;Bourgogne;Saône-et-Loire;Chaudenay 71119;E4.7833;N46.9167;13;
3;France;Bourgogne;Saône-et-Loire;Chauffailles 71120;E4.3333;N46.2000;13;
3;France;Bourgogne;Saône-et-Loire;Cheilly-lès-Maranges 71122;E4.6667;N46.9000;13;
3;France;Bourgogne;Saône-et-Loire;Chenay-le-Châtel 71123;E3.9500;N46.2333;13;
3;France;Bourgogne;Saône-et-Loire;Chenôves 71124;E4.6667;N46.6667;13;
3;France;Bourgogne;Saône-et-Loire;Chérizet 71125;E4.5667;N46.5167;13;
3;France;Bourgogne;Saône-et-Loire;Chevagny-les-Chevrières 71126;E4.7667;N46.3333;13;
3;France;Bourgogne;Saône-et-Loire;Chevagny-sur-Guye 71127;E4.5167;N46.5333;13;
3;France;Bourgogne;Saône-et-Loire;Chiddes 71128;E4.5167;N46.4500;13;
3;France;Bourgogne;Saône-et-Loire;Chissey-en-Morvan 71129;E4.2333;N47.1167;13;
3;France;Bourgogne;Saône-et-Loire;Chissey-lès-Mâcon 71130;E4.7333;N46.5167;13;
3;France;Bourgogne;Saône-et-Loire;Ciel 71131;E5.0500;N46.8833;13;
3;France;Bourgogne;Saône-et-Loire;Ciry-le-Noble 71132;E4.3000;N46.6000;13;
3;France;Bourgogne;Saône-et-Loire;Clermain 71134;E4.5833;N46.3667;13;
3;France;Bourgogne;Saône-et-Loire;Clessé 71135;E4.8167;N46.4167;13;
3;France;Bourgogne;Saône-et-Loire;Clessy 71136;E4.0833;N46.5500;13;
3;France;Bourgogne;Saône-et-Loire;Cluny 71137;E4.6500;N46.4333;13;
3;France;Bourgogne;Saône-et-Loire;Clux 71138;E5.1833;N46.9500;13;
3;France;Bourgogne;Saône-et-Loire;Collonge-en-Charollais 71139;E4.5333;N46.6333;13;
3;France;Bourgogne;Saône-et-Loire;Collonge-la-Madeleine 71140;E4.5167;N46.9333;13;
3;France;Bourgogne;Saône-et-Loire;Colombier-en-Brionnais 71141;E4.3333;N46.3500;13;
3;France;Bourgogne;Saône-et-Loire;Condal 71143;E5.2833;N46.4667;13;
3;France;Bourgogne;Saône-et-Loire;Cordesse 71144;E4.3333;N47.0333;13;
3;France;Bourgogne;Saône-et-Loire;Cormatin 71145;E4.6833;N46.5500;13;
3;France;Bourgogne;Saône-et-Loire;Cortambert 71146;E4.7167;N46.4833;13;
3;France;Bourgogne;Saône-et-Loire;Cortevaix 71147;E4.6333;N46.5333;13;
3;France;Bourgogne;Saône-et-Loire;Coublanc 71148;E4.2833;N46.1667;13;
3;France;Bourgogne;Saône-et-Loire;Couches 71149;E4.5667;N46.8667;13;
3;France;Bourgogne;Saône-et-Loire;Crêches-sur-Saône 71150;E4.7833;N46.2500;13;
3;France;Bourgogne;Saône-et-Loire;Créot 71151;E4.6167;N46.9167;13;
3;France;Bourgogne;Saône-et-Loire;Cressy-sur-Somme 71152;E3.8667;N46.7000;13;
3;France;Bourgogne;Saône-et-Loire;Crissey 71154;E4.8833;N46.8167;13;
3;France;Bourgogne;Saône-et-Loire;Cronat 71155;E3.6833;N46.7228;13;
3;France;Bourgogne;Saône-et-Loire;Cruzille 71156;E4.8000;N46.5000;13;
3;France;Bourgogne;Saône-et-Loire;Cuiseaux 71157;E5.4000;N46.5000;13;
3;France;Bourgogne;Saône-et-Loire;Cuisery 71158;E5.0000;N46.5500;13;
3;France;Bourgogne;Saône-et-Loire;Culles-les-Roches 71159;E4.6500;N46.6500;13;
3;France;Bourgogne;Saône-et-Loire;Curbigny 71160;E4.3167;N46.3000;13;
3;France;Bourgogne;Saône-et-Loire;Curdin 71161;E3.9833;N46.6000;13;
3;France;Bourgogne;Saône-et-Loire;Curgy 71162;E4.3833;N46.9833;13;
3;France;Bourgogne;Saône-et-Loire;Curtil-sous-Buffières 71163;E4.5167;N46.4000;13;
3;France;Bourgogne;Saône-et-Loire;Curtil-sous-Burnand 71164;E4.6167;N46.5833;13;
3;France;Bourgogne;Saône-et-Loire;Cussy-en-Morvan 71165;E4.1667;N47.0833;13;
3;France;Bourgogne;Saône-et-Loire;Cuzy 71166;E4.0333;N46.7667;13;
3;France;Bourgogne;Saône-et-Loire;Damerey 71167;E4.9833;N46.8333;13;
3;France;Bourgogne;Saône-et-Loire;Dampierre-en-Bresse 71168;E5.2000;N46.8333;13;
3;France;Bourgogne;Saône-et-Loire;Davayé 71169;E4.7333;N46.3000;13;
3;France;Bourgogne;Saône-et-Loire;Demigny 71170;E4.8333;N46.9333;13;
3;France;Bourgogne;Saône-et-Loire;Dennevy 71171;E4.6500;N46.8667;13;
3;France;Bourgogne;Saône-et-Loire;Dettey 71172;E4.1833;N46.7667;13;
3;France;Bourgogne;Saône-et-Loire;Devrouze 71173;E5.1667;N46.7667;13;
3;France;Bourgogne;Saône-et-Loire;Dezize-lès-Maranges 71174;E4.6500;N46.9167;13;
3;France;Bourgogne;Saône-et-Loire;Diconne 71175;E5.1333;N46.7667;13;
3;France;Bourgogne;Saône-et-Loire;Digoin 71176;E3.9833;N46.4833;13;
3;France;Bourgogne;Saône-et-Loire;Dommartin-lès-Cuiseaux 71177;E5.3000;N46.5000;13;
3;France;Bourgogne;Saône-et-Loire;Dompierre-les-Ormes 71178;E4.4833;N46.3500;13;
3;France;Bourgogne;Saône-et-Loire;Dompierre-sous-Sanvignes 71179;E4.2167;N46.6500;13;
3;France;Bourgogne;Saône-et-Loire;Donzy-le-National 71180;E4.5667;N46.4500;13;
3;France;Bourgogne;Saône-et-Loire;Donzy-le-Pertuis 71181;E4.7167;N46.4500;13;
3;France;Bourgogne;Saône-et-Loire;Dracy-le-Fort 71182;E4.7667;N46.8000;13;
3;France;Bourgogne;Saône-et-Loire;Dracy-lès-Couches 71183;E4.5833;N46.8833;13;
3;France;Bourgogne;Saône-et-Loire;Dracy-Saint-Loup 71184;E4.3333;N47.0167;13;
3;France;Bourgogne;Saône-et-Loire;Dyo 71185;E4.2833;N46.3500;13;
3;France;Bourgogne;Saône-et-Loire;Écuelles 71186;E5.0667;N46.9500;13;
3;France;Bourgogne;Saône-et-Loire;Écuisses 71187;E4.5333;N46.7500;13;
3;France;Bourgogne;Saône-et-Loire;Épertully 71188;E4.6000;N46.9333;13;
3;France;Bourgogne;Saône-et-Loire;Épervans 71189;E4.9000;N46.7500;13;
3;France;Bourgogne;Saône-et-Loire;Épinac 71190;E4.5000;N46.9833;13;
3;France;Bourgogne;Saône-et-Loire;Essertenne 71191;E4.5500;N46.8167;13;
3;France;Bourgogne;Saône-et-Loire;Étang-sur-Arroux 71192;E4.1833;N46.8667;13;
3;France;Bourgogne;Saône-et-Loire;Étrigny 71193;E4.8000;N46.5833;13;
3;France;Bourgogne;Saône-et-Loire;Farges-lès-Chalon 71194;E4.8000;N46.8333;13;
3;France;Bourgogne;Saône-et-Loire;Farges-lès-Mâcon 71195;E4.9000;N46.5167;13;
3;France;Bourgogne;Saône-et-Loire;Flacé-lès-Mâcon 71197=71270;E4.8167;N46.3167;13;
3;France;Bourgogne;Saône-et-Loire;Flacey-en-Bresse 71198;E5.4000;N46.6000;13;
3;France;Bourgogne;Saône-et-Loire;Flagy 71199;E4.6500;N46.5000;13;
3;France;Bourgogne;Saône-et-Loire;Fleurville 71591;E4.8833;N46.4500;13;
3;France;Bourgogne;Saône-et-Loire;Fleury-la-Montagne 71200;E4.1333;N46.2000;13;
3;France;Bourgogne;Saône-et-Loire;Fley 71201;E4.6500;N46.6667;13;
3;France;Bourgogne;Saône-et-Loire;Fontaines 71202;E4.7667;N46.8500;13;
3;France;Bourgogne;Saône-et-Loire;Fontenay 71203;E4.3000;N46.4667;13;
3;France;Bourgogne;Saône-et-Loire;Fragnes 71204;E4.8333;N46.8333;13;
3;France;Bourgogne;Saône-et-Loire;Frangy-en-Bresse 71205;E5.3333;N46.7167;13;
3;France;Bourgogne;Saône-et-Loire;Fretterans 71207;E5.2833;N46.9167;13;
3;France;Bourgogne;Saône-et-Loire;Frontenard 71208;E5.1667;N46.9167;13;
3;France;Bourgogne;Saône-et-Loire;Frontenaud 71209;E5.3000;N46.5500;13;
3;France;Bourgogne;Saône-et-Loire;Fuissé 71210;E4.7333;N46.2833;13;
3;France;Bourgogne;Saône-et-Loire;Géanges 71211=71443;E4.9167;N46.9500;13;
3;France;Bourgogne;Saône-et-Loire;Génelard 71212;E4.2333;N46.5833;13;
3;France;Bourgogne;Saône-et-Loire;Genouilly 71214;E4.5667;N46.6500;13;
3;France;Bourgogne;Saône-et-Loire;Gergy 71215;E4.9333;N46.8667;13;
3;France;Bourgogne;Saône-et-Loire;Germagny 71216;E4.6000;N46.6667;13;
3;France;Bourgogne;Saône-et-Loire;Germolles-sur-Grosne 71217;E4.5833;N46.2667;13;
3;France;Bourgogne;Saône-et-Loire;Gibles 71218;E4.3833;N46.3167;13;
3;France;Bourgogne;Saône-et-Loire;Gigny-sur-Saône 71219;E4.9333;N46.6667;13;
3;France;Bourgogne;Saône-et-Loire;Gilly-sur-Loire 71220;E3.7833;N46.5333;13;
3;France;Bourgogne;Saône-et-Loire;Givry 71221;E4.7333;N46.7667;13;
3;France;Bourgogne;Saône-et-Loire;Gourdon 71222;E4.4500;N46.6333;13;
3;France;Bourgogne;Saône-et-Loire;Grandvaux 71224;E4.1833;N46.5000;13;
3;France;Bourgogne;Saône-et-Loire;Granges 71225;E4.7333;N46.7333;13;
3;France;Bourgogne;Saône-et-Loire;Grevilly 71226;E4.8167;N46.5167;13;
3;France;Bourgogne;Saône-et-Loire;Grury 71227;E3.9000;N46.6667;13;
3;France;Bourgogne;Saône-et-Loire;Guerfand 71228;E5.0333;N46.7833;13;
3;France;Bourgogne;Saône-et-Loire;Gueugnon 71230;E4.0667;N46.6000;13;
3;France;Bourgogne;Saône-et-Loire;Hautefond 71232;E4.1833;N46.4333;13;
3;France;Bourgogne;Saône-et-Loire;Huilly-sur-Seille 71234;E5.0500;N46.5833;13;
3;France;Bourgogne;Saône-et-Loire;Hurigny 71235;E4.8000;N46.3500;13;
3;France;Bourgogne;Saône-et-Loire;Igé 71236;E4.7500;N46.4000;13;
3;France;Bourgogne;Saône-et-Loire;Igornay 71237;E4.3833;N47.0500;13;
3;France;Bourgogne;Saône-et-Loire;Iguerande 71238;E4.0833;N46.2000;13;
3;France;Bourgogne;Saône-et-Loire;Issy-l'Évêque 71239;E3.9667;N46.7167;13;
3;France;Bourgogne;Saône-et-Loire;Jalogny 71240;E4.6333;N46.4167;13;
3;France;Bourgogne;Saône-et-Loire;Jambles 71241;E4.7000;N46.7667;13;
3;France;Bourgogne;Saône-et-Loire;Joncy 71242;E4.5500;N46.6167;13;
3;France;Bourgogne;Saône-et-Loire;Joudes 71243;E5.3667;N46.4667;13;
3;France;Bourgogne;Saône-et-Loire;Jouvençon 71244;E5.0667;N46.5833;13;
3;France;Bourgogne;Saône-et-Loire;Jugy 71245;E4.8500;N46.6000;13;
3;France;Bourgogne;Saône-et-Loire;Juif 71246;E5.1667;N46.6833;13;
3;France;Bourgogne;Saône-et-Loire;Jully-lès-Buxy 71247;E4.7000;N46.6833;13;
3;France;Bourgogne;Saône-et-Loire;L'Abergement-de-Cuisery 71001;E4.9500;N46.5667;13;
3;France;Bourgogne;Saône-et-Loire;L'Abergement-Sainte-Colombe 71002;E5.0000;N46.7500;13;
3;France;Bourgogne;Saône-et-Loire;L'Hôpital-le-Mercier 71233;E4.0167;N46.3833;13;
3;France;Bourgogne;Saône-et-Loire;La Boulaye 71046;E4.1167;N46.7500;13;
3;France;Bourgogne;Saône-et-Loire;La Celle-en-Morvan 71509;E4.1667;N47.0000;13;
3;France;Bourgogne;Saône-et-Loire;La Chapelle-au-Mans 71088;E3.9667;N46.6333;13;
3;France;Bourgogne;Saône-et-Loire;La Chapelle-de-Bragny 71089;E4.7667;N46.6333;13;
3;France;Bourgogne;Saône-et-Loire;La Chapelle-de-Guinchay 71090;E4.7500;N46.2000;13;
3;France;Bourgogne;Saône-et-Loire;La Chapelle-du-Mont-de-France 71091;E4.5333;N46.3667;13;
3;France;Bourgogne;Saône-et-Loire;La Chapelle-Naude 71092;E5.1833;N46.6000;13;
3;France;Bourgogne;Saône-et-Loire;La Chapelle-Saint-Sauveur 71093;E5.2667;N46.8333;13;
3;France;Bourgogne;Saône-et-Loire;La Chapelle-sous-Brancion 71094;E4.7833;N46.5500;13;
3;France;Bourgogne;Saône-et-Loire;La Chapelle-sous-Dun 71095;E4.3000;N46.2667;13;
3;France;Bourgogne;Saône-et-Loire;La Chapelle-sous-Uchon 71096;E4.2333;N46.8333;13;
3;France;Bourgogne;Saône-et-Loire;La Chapelle-Thècle 71097;E5.1167;N46.5500;13;
3;France;Bourgogne;Saône-et-Loire;La Charmée 71102;E4.8000;N46.7167;13;
3;France;Bourgogne;Saône-et-Loire;La Chaux 71121;E5.2667;N46.8333;13;
3;France;Bourgogne;Saône-et-Loire;La Clayette 71133;E4.3000;N46.2833;13;
3;France;Bourgogne;Saône-et-Loire;La Comelle 71142;E4.1167;N46.8833;13;
3;France;Bourgogne;Saône-et-Loire;La Frette 71206;E5.0500;N46.6333;13;
3;France;Bourgogne;Saône-et-Loire;La Genête 71213;E5.0500;N46.5500;13;
3;France;Bourgogne;Saône-et-Loire;La Grande-Verrière 71223;E4.1333;N46.9667;13;
3;France;Bourgogne;Saône-et-Loire;La Guiche 71231;E4.4500;N46.5500;13;
3;France;Bourgogne;Saône-et-Loire;La Loyère 71265;E4.8333;N46.8333;13;
3;France;Bourgogne;Saône-et-Loire;La Motte-Saint-Jean 71325;E3.9500;N46.4833;13;
3;France;Bourgogne;Saône-et-Loire;La Petite-Verrière 71349;E4.1333;N47.0500;13;
3;France;Bourgogne;Saône-et-Loire;La Racineuse 71364;E5.1500;N46.8333;13;
3;France;Bourgogne;Saône-et-Loire;La Roche-Vineuse 71371;E4.7167;N46.3500;13;
3;France;Bourgogne;Saône-et-Loire;La Salle 71494;E4.8667;N46.4000;13;
3;France;Bourgogne;Saône-et-Loire;La Tagnière 71531;E4.2000;N46.7833;13;
3;France;Bourgogne;Saône-et-Loire;La Truchère 71549;E4.9500;N46.5167;13;
3;France;Bourgogne;Saône-et-Loire;La Villeneuve 71578;E5.1667;N46.9500;13;
3;France;Bourgogne;Saône-et-Loire;La Vineuse 71582;E4.6000;N46.4667;13;
3;France;Bourgogne;Saône-et-Loire;Lacrost 71248;E4.9167;N46.5667;13;
3;France;Bourgogne;Saône-et-Loire;Laives 71249;E4.8333;N46.6333;13;
3;France;Bourgogne;Saône-et-Loire;Laizé 71250;E4.8000;N46.4000;13;
3;France;Bourgogne;Saône-et-Loire;Laizy 71251;E4.2000;N46.9000;13;
3;France;Bourgogne;Saône-et-Loire;Lalheue 71252;E4.7833;N46.6500;13;
3;France;Bourgogne;Saône-et-Loire;Lans 71253;E4.9167;N46.7667;13;
3;France;Bourgogne;Saône-et-Loire;Lays-sur-le-Doubs 71254;E5.2500;N46.9167;13;
3;France;Bourgogne;Saône-et-Loire;Le Breuil 71059;E4.4833;N46.8000;13;
3;France;Bourgogne;Saône-et-Loire;Le Creusot 71153;E4.4333;N46.8000;13;
3;France;Bourgogne;Saône-et-Loire;Le Fay 71196;E5.3167;N46.6667;13;
3;France;Bourgogne;Saône-et-Loire;Le Miroir 71300;E5.3333;N46.5167;13;
3;France;Bourgogne;Saône-et-Loire;Le Planois 71352;E5.3333;N46.7833;13;
3;France;Bourgogne;Saône-et-Loire;Le Puley 71363;E4.5500;N46.6833;13;
3;France;Bourgogne;Saône-et-Loire;Le Rousset 71375;E4.4667;N46.5667;13;
3;France;Bourgogne;Saône-et-Loire;Le Tartre 71534;E5.3667;N46.7500;13;
3;France;Bourgogne;Saône-et-Loire;Le Villars 71576;E4.9333;N46.5333;13;
3;France;Bourgogne;Saône-et-Loire;Les Bizots 71038;E4.3833;N46.7500;13;
3;France;Bourgogne;Saône-et-Loire;Les Bordes 71043;E5.0167;N46.8833;13;
3;France;Bourgogne;Saône-et-Loire;Les Guerreaux 71229;E4.2833;N46.5333;13;
3;France;Bourgogne;Saône-et-Loire;Lesme 71255;E3.7167;N46.6500;13;
3;France;Bourgogne;Saône-et-Loire;Lessard-en-Bresse 71256;E5.0833;N46.7333;13;
3;France;Bourgogne;Saône-et-Loire;Lessard-le-National 71257;E4.8333;N46.8667;13;
3;France;Bourgogne;Saône-et-Loire;Leynes 71258;E4.7167;N46.2667;13;
3;France;Bourgogne;Saône-et-Loire;Ligny-en-Brionnais 71259;E4.2000;N46.2333;13;
3;France;Bourgogne;Saône-et-Loire;Loché 71260=71270;E4.7667;N46.2833;13;
3;France;Bourgogne;Saône-et-Loire;Loisy 71261;E5.0333;N46.5833;13;
3;France;Bourgogne;Saône-et-Loire;Longepierre 71262;E5.2000;N46.9333;13;
3;France;Bourgogne;Saône-et-Loire;Louhans 71263;E5.2167;N46.6333;13;
3;France;Bourgogne;Saône-et-Loire;Lournand 71264;E4.6500;N46.4500;13;
3;France;Bourgogne;Saône-et-Loire;Lucenay-l'Évêque 71266;E4.2500;N47.0833;13;
3;France;Bourgogne;Saône-et-Loire;Lugny 71267;E4.8167;N46.4667;13;
3;France;Bourgogne;Saône-et-Loire;Lugny-lès-Charolles 71268;E4.2167;N46.4167;13;
3;France;Bourgogne;Saône-et-Loire;Lux 71269;E4.8500;N46.7500;13;
3;France;Bourgogne;Saône-et-Loire;Mâcon 71270;E4.8333;N46.3000;13;
3;France;Bourgogne;Saône-et-Loire;Mailly 71271;E4.1167;N46.2167;13;
3;France;Bourgogne;Saône-et-Loire;Malay 71272;E4.6833;N46.5667;13;
3;France;Bourgogne;Saône-et-Loire;Maltat 71273;E3.8167;N46.6833;13;
3;France;Bourgogne;Saône-et-Loire;Mancey 71274;E4.8333;N46.5667;13;
3;France;Bourgogne;Saône-et-Loire;Marcigny 71275;E4.0333;N46.2667;13;
3;France;Bourgogne;Saône-et-Loire;Marcilly-la-Gueurce 71276;E4.3000;N46.4000;13;
3;France;Bourgogne;Saône-et-Loire;Marcilly-lès-Buxy 71277;E4.5833;N46.7167;13;
3;France;Bourgogne;Saône-et-Loire;Marigny 71278;E4.4667;N46.6833;13;
3;France;Bourgogne;Saône-et-Loire;Marizy 71279;E4.4167;N46.5667;13;
3;France;Bourgogne;Saône-et-Loire;Marly-sous-Issy 71280;E3.9333;N46.7167;13;
3;France;Bourgogne;Saône-et-Loire;Marly-sur-Arroux 71281;E4.1333;N46.6167;13;
3;France;Bourgogne;Saône-et-Loire;Marmagne 71282;E4.3500;N46.8333;13;
3;France;Bourgogne;Saône-et-Loire;Marnay 71283;E4.9167;N46.7000;13;
3;France;Bourgogne;Saône-et-Loire;Martailly-lès-Brancion 71284;E4.8000;N46.5333;13;
3;France;Bourgogne;Saône-et-Loire;Martigny-le-Comte 71285;E4.3333;N46.5333;13;
3;France;Bourgogne;Saône-et-Loire;Mary 71286;E4.5000;N46.6167;13;
3;France;Bourgogne;Saône-et-Loire;Massilly 71287;E4.6667;N46.4833;13;
3;France;Bourgogne;Saône-et-Loire;Massy 71288;E4.6167;N46.4833;13;
3;France;Bourgogne;Saône-et-Loire;Matour 71289;E4.4833;N46.3000;13;
3;France;Bourgogne;Saône-et-Loire;Mazille 71290;E4.6000;N46.3833;13;
3;France;Bourgogne;Saône-et-Loire;Melay 71291;E4.0167;N46.2000;13;
3;France;Bourgogne;Saône-et-Loire;Mellecey 71292;E4.7333;N46.8167;13;
3;France;Bourgogne;Saône-et-Loire;Ménetreuil 71293;E5.1000;N46.5833;13;
3;France;Bourgogne;Saône-et-Loire;Mercurey 71294;E4.7167;N46.8333;13;
3;France;Bourgogne;Saône-et-Loire;Mervans 71295;E5.1833;N46.8000;13;
3;France;Bourgogne;Saône-et-Loire;Messey-sur-Grosne 71296;E4.7500;N46.6500;13;
3;France;Bourgogne;Saône-et-Loire;Mesvres 71297;E4.2500;N46.8667;13;
3;France;Bourgogne;Saône-et-Loire;Meulin 71298=71178;E4.5000;N46.3667;13;
3;France;Bourgogne;Saône-et-Loire;Milly-Lamartine 71299;E4.7000;N46.3500;13;
3;France;Bourgogne;Saône-et-Loire;Mont 71301;E3.8333;N46.6167;13;
3;France;Bourgogne;Saône-et-Loire;Mont-lès-Seurre 71315;E5.1167;N46.9500;13;
3;France;Bourgogne;Saône-et-Loire;Mont-Saint-Vincent 71320;E4.4833;N46.6333;13;
3;France;Bourgogne;Saône-et-Loire;Montagny-lès-Buxy 71302;E4.6667;N46.7000;13;
3;France;Bourgogne;Saône-et-Loire;Montagny-près-Louhans 71303;E5.2667;N46.6500;13;
3;France;Bourgogne;Saône-et-Loire;Montagny-sur-Grosne 71304;E4.5500;N46.3500;13;
3;France;Bourgogne;Saône-et-Loire;Montbellet 71305;E4.8667;N46.4833;13;
3;France;Bourgogne;Saône-et-Loire;Montceau-les-Mines 71306;E4.3667;N46.6667;13;
3;France;Bourgogne;Saône-et-Loire;Montceaux-l'Étoile 71307;E4.0333;N46.3500;13;
3;France;Bourgogne;Saône-et-Loire;Montceaux-Ragny 71308;E4.8500;N46.6167;13;
3;France;Bourgogne;Saône-et-Loire;Montcenis 71309;E4.3833;N46.7833;13;
3;France;Bourgogne;Saône-et-Loire;Montchanin 71310;E4.4500;N46.7500;13;
3;France;Bourgogne;Saône-et-Loire;Montcony 71311;E5.3000;N46.7000;13;
3;France;Bourgogne;Saône-et-Loire;Montcoy 71312;E5.0000;N46.8000;13;
3;France;Bourgogne;Saône-et-Loire;Monthelon 71313;E4.2333;N46.9500;13;
3;France;Bourgogne;Saône-et-Loire;Montjay 71314;E5.3167;N46.8167;13;
3;France;Bourgogne;Saône-et-Loire;Montmelard 71316;E4.4167;N46.3333;13;
3;France;Bourgogne;Saône-et-Loire;Montmort 71317;E4.0833;N46.7333;13;
3;France;Bourgogne;Saône-et-Loire;Montpont-en-Bresse 71318;E5.1500;N46.5500;13;
3;France;Bourgogne;Saône-et-Loire;Montret 71319;E5.1167;N46.6833;13;
3;France;Bourgogne;Saône-et-Loire;Morey 71321;E4.6000;N46.8000;13;
3;France;Bourgogne;Saône-et-Loire;Morlet 71322;E4.5167;N46.9500;13;
3;France;Bourgogne;Saône-et-Loire;Mornay 71323;E4.3833;N46.5000;13;
3;France;Bourgogne;Saône-et-Loire;Moroges 71324;E4.6833;N46.7500;13;
3;France;Bourgogne;Saône-et-Loire;Mouthier-en-Bresse 71326;E5.3833;N46.8500;13;
3;France;Bourgogne;Saône-et-Loire;Mussy-sous-Dun 71327;E4.3333;N46.2333;13;
3;France;Bourgogne;Saône-et-Loire;Nanton 71328;E4.8000;N46.6167;13;
3;France;Bourgogne;Saône-et-Loire;Navilly 71329;E5.1500;N46.9333;13;
3;France;Bourgogne;Saône-et-Loire;Neuvy-Grandchamp 71330;E3.9333;N46.5833;13;
3;France;Bourgogne;Saône-et-Loire;Nochize 71331;E4.1667;N46.3833;13;
3;France;Bourgogne;Saône-et-Loire;Ormes 71332;E4.9667;N46.6333;13;
3;France;Bourgogne;Saône-et-Loire;Oslon 71333;E4.9167;N46.7833;13;
3;France;Bourgogne;Saône-et-Loire;Oudry 71334;E4.1500;N46.5667;13;
3;France;Bourgogne;Saône-et-Loire;Ouroux-sous-le-Bois-Sainte-Marie 71335;E4.3000;N46.3500;13;
3;France;Bourgogne;Saône-et-Loire;Ouroux-sur-Saône 71336;E4.9500;N46.7167;13;
3;France;Bourgogne;Saône-et-Loire;Oyé 71337;E4.1833;N46.3167;13;
3;France;Bourgogne;Saône-et-Loire;Ozenay 71338;E4.8500;N46.5333;13;
3;France;Bourgogne;Saône-et-Loire;Ozolles 71339;E4.3500;N46.3833;13;
3;France;Bourgogne;Saône-et-Loire;Palinges 71340;E4.2167;N46.5500;13;
3;France;Bourgogne;Saône-et-Loire;Palleau 71341;E5.0333;N46.9500;13;
3;France;Bourgogne;Saône-et-Loire;Paray-le-Monial 71342;E4.1167;N46.4500;13;
3;France;Bourgogne;Saône-et-Loire;Paris-l'Hôpital 71343;E4.6333;N46.9167;13;
3;France;Bourgogne;Saône-et-Loire;Passy 71344;E4.5333;N46.5333;13;
3;France;Bourgogne;Saône-et-Loire;Péronne 71345;E4.8167;N46.4333;13;
3;France;Bourgogne;Saône-et-Loire;Perrecy-les-Forges 71346;E4.2000;N46.6167;13;
3;France;Bourgogne;Saône-et-Loire;Perreuil 71347;E4.5667;N46.8167;13;
3;France;Bourgogne;Saône-et-Loire;Perrigny-sur-Loire 71348;E3.8333;N46.5333;13;
3;France;Bourgogne;Saône-et-Loire;Pierre-de-Bresse 71351;E5.2500;N46.8833;13;
3;France;Bourgogne;Saône-et-Loire;Pierreclos 71350;E4.6833;N46.3333;13;
3;France;Bourgogne;Saône-et-Loire;Plottes 71353;E4.8667;N46.5333;13;
3;France;Bourgogne;Saône-et-Loire;Poisson 71354;E4.1167;N46.3833;13;
3;France;Bourgogne;Saône-et-Loire;Pontoux 71355;E5.1000;N46.9167;13;
3;France;Bourgogne;Saône-et-Loire;Pouilloux 71356;E4.3667;N46.6000;13;
3;France;Bourgogne;Saône-et-Loire;Pourlans 71357;E5.2333;N46.9500;13;
3;France;Bourgogne;Saône-et-Loire;Pressy-sous-Dondin 71358;E4.5167;N46.4667;13;
3;France;Bourgogne;Saône-et-Loire;Préty 71359;E4.9333;N46.5333;13;
3;France;Bourgogne;Saône-et-Loire;Prissé 71360;E4.7500;N46.3167;13;
3;France;Bourgogne;Saône-et-Loire;Prizy 71361;E4.2167;N46.3500;13;
3;France;Bourgogne;Saône-et-Loire;Pruzilly 71362;E4.7000;N46.2500;13;
3;France;Bourgogne;Saône-et-Loire;Rancy 71365;E5.0833;N46.6000;13;
3;France;Bourgogne;Saône-et-Loire;Ratenelle 71366;E5.0167;N46.5333;13;
3;France;Bourgogne;Saône-et-Loire;Ratte 71367;E5.3000;N46.6500;13;
3;France;Bourgogne;Saône-et-Loire;Reclesne 71368;E4.2667;N47.0333;13;
3;France;Bourgogne;Saône-et-Loire;Remigny 71369;E4.7167;N46.9000;13;
3;France;Bourgogne;Saône-et-Loire;Rigny-sur-Arroux 71370;E4.0167;N46.5333;13;
3;France;Bourgogne;Saône-et-Loire;Romanèche-Thorins 71372;E4.7333;N46.1833;13;
3;France;Bourgogne;Saône-et-Loire;Romenay 71373;E5.0667;N46.5000;13;
3;France;Bourgogne;Saône-et-Loire;Rosey 71374;E4.7000;N46.7500;13;
3;France;Bourgogne;Saône-et-Loire;Roussillon-en-Morvan 71376;E4.1000;N47.0167;13;
3;France;Bourgogne;Saône-et-Loire;Royer 71377;E4.8167;N46.5500;13;
3;France;Bourgogne;Saône-et-Loire;Rully 71378;E4.7500;N46.8667;13;
3;France;Bourgogne;Saône-et-Loire;Sagy 71379;E5.3167;N46.6000;13;
3;France;Bourgogne;Saône-et-Loire;Saillenard 71380;E5.3667;N46.6833;13;
3;France;Bourgogne;Saône-et-Loire;Sailly 71381;E4.5667;N46.5333;13;
3;France;Bourgogne;Saône-et-Loire;Saint-Agnan 71382;E3.8667;N46.5000;13;
3;France;Bourgogne;Saône-et-Loire;Saint-Albain 71383;E4.8833;N46.4333;13;
3;France;Bourgogne;Saône-et-Loire;Saint-Ambreuil 71384;E4.8667;N46.6833;13;
3;France;Bourgogne;Saône-et-Loire;Saint-Amour-Bellevue 71385;E4.7500;N46.2500;13;
3;France;Bourgogne;Saône-et-Loire;Saint-André-en-Bresse 71386;E5.0833;N46.6500;13;
3;France;Bourgogne;Saône-et-Loire;Saint-André-le-Désert 71387;E4.5333;N46.5000;13;
3;France;Bourgogne;Saône-et-Loire;Saint-Aubin-en-Charollais 71388;E4.2167;N46.5000;13;
3;France;Bourgogne;Saône-et-Loire;Saint-Aubin-sur-Loire 71389;E3.7500;N46.5667;13;
3;France;Bourgogne;Saône-et-Loire;Saint-Berain-sous-Sanvignes 71390;E4.3000;N46.7000;13;
3;France;Bourgogne;Saône-et-Loire;Saint-Bérain-sur-Dheune 71391;E4.6000;N46.8167;13;
3;France;Bourgogne;Saône-et-Loire;Saint-Boil 71392;E4.6833;N46.6500;13;
3;France;Bourgogne;Saône-et-Loire;Saint-Bonnet-de-Cray 71393;E4.1500;N46.2167;13;
3;France;Bourgogne;Saône-et-Loire;Saint-Bonnet-de-Joux 71394;E4.4500;N46.4833;13;
3;France;Bourgogne;Saône-et-Loire;Saint-Bonnet-de-Vieille-Vigne 71395;E4.2500;N46.5167;13;
3;France;Bourgogne;Saône-et-Loire;Saint-Bonnet-en-Bresse 71396;E5.1667;N46.8500;13;
3;France;Bourgogne;Saône-et-Loire;Saint-Christophe-en-Bresse 71398;E4.9833;N46.7500;13;
3;France;Bourgogne;Saône-et-Loire;Saint-Christophe-en-Brionnais 71399;E4.1667;N46.2833;13;
3;France;Bourgogne;Saône-et-Loire;Saint-Clément-sur-Guye 71400;E4.5833;N46.6167;13;
3;France;Bourgogne;Saône-et-Loire;Saint-Cyr 71402;E4.9000;N46.6833;13;
3;France;Bourgogne;Saône-et-Loire;Saint-Denis-de-Vaux 71403;E4.7000;N46.8000;13;
3;France;Bourgogne;Saône-et-Loire;Saint-Désert 71404;E4.7000;N46.7500;13;
3;France;Bourgogne;Saône-et-Loire;Saint-Didier-en-Bresse 71405;E5.0833;N46.8500;13;
3;France;Bourgogne;Saône-et-Loire;Saint-Didier-en-Brionnais 71406;E4.1167;N46.3333;13;
3;France;Bourgogne;Saône-et-Loire;Saint-Didier-sur-Arroux 71407;E4.1167;N46.8333;13;
3;France;Bourgogne;Saône-et-Loire;Saint-Edmond 71408;E4.2167;N46.2000;13;
3;France;Bourgogne;Saône-et-Loire;Saint-Émiland 71409;E4.4833;N46.9000;13;
3;France;Bourgogne;Saône-et-Loire;Saint-Étienne-en-Bresse 71410;E5.0500;N46.7000;13;
3;France;Bourgogne;Saône-et-Loire;Saint-Eugène 71411;E4.1833;N46.7333;13;
3;France;Bourgogne;Saône-et-Loire;Saint-Eusèbe 71412;E4.4667;N46.7167;13;
3;France;Bourgogne;Saône-et-Loire;Saint-Firmin 71413;E4.4667;N46.8333;13;
3;France;Bourgogne;Saône-et-Loire;Saint-Forgeot 71414;E4.3000;N47.0000;13;
3;France;Bourgogne;Saône-et-Loire;Saint-Gengoux-de-Scissé 71416;E4.7833;N46.4667;13;
3;France;Bourgogne;Saône-et-Loire;Saint-Gengoux-le-National 71417;E4.6500;N46.6167;13;
3;France;Bourgogne;Saône-et-Loire;Saint-Germain-des-Rives 71418=71557;E4.0333;N46.4333;13;
3;France;Bourgogne;Saône-et-Loire;Saint-Germain-du-Bois 71419;E5.2500;N46.7500;13;
3;France;Bourgogne;Saône-et-Loire;Saint-Germain-du-Plain 71420;E4.9667;N46.7000;13;
3;France;Bourgogne;Saône-et-Loire;Saint-Germain-en-Brionnais 71421;E4.2667;N46.3500;13;
3;France;Bourgogne;Saône-et-Loire;Saint-Germain-lès-Buxy 71422;E4.7667;N46.7000;13;
3;France;Bourgogne;Saône-et-Loire;Saint-Gervais-en-Vallière 71423;E4.9500;N46.9333;13;
3;France;Bourgogne;Saône-et-Loire;Saint-Gervais-sur-Couches 71424;E4.5833;N46.9167;13;
3;France;Bourgogne;Saône-et-Loire;Saint-Gilles 71425;E4.6667;N46.8833;13;
3;France;Bourgogne;Saône-et-Loire;Saint-Huruge 71427;E4.5667;N46.5833;13;
3;France;Bourgogne;Saône-et-Loire;Saint-Igny-de-Roche 71428;E4.3000;N46.1833;13;
3;France;Bourgogne;Saône-et-Loire;Saint-Jean-de-Trézy 71431;E4.5833;N46.8333;13;
3;France;Bourgogne;Saône-et-Loire;Saint-Jean-de-Vaux 71430;E4.7000;N46.8167;13;
3;France;Bourgogne;Saône-et-Loire;Saint-Jean-des-Vignes 71429=71076;E4.8581;N46.7903;13;
3;France;Bourgogne;Saône-et-Loire;Saint-Jean-le-Priche 71432=71270;E4.8500;N46.3667;13;
3;France;Bourgogne;Saône-et-Loire;Saint-Julien-de-Civry 71433;E4.2333;N46.3667;13;
3;France;Bourgogne;Saône-et-Loire;Saint-Julien-de-Jonzy 71434;E4.1333;N46.2333;13;
3;France;Bourgogne;Saône-et-Loire;Saint-Julien-sur-Dheune 71435;E4.5333;N46.7667;13;
3;France;Bourgogne;Saône-et-Loire;Saint-Laurent-d'Andenay 71436;E4.5167;N46.7333;13;
3;France;Bourgogne;Saône-et-Loire;Saint-Laurent-en-Brionnais 71437;E4.2500;N46.2667;13;
3;France;Bourgogne;Saône-et-Loire;Saint-Léger-du-Bois 71438;E4.4500;N47.0167;13;
3;France;Bourgogne;Saône-et-Loire;Saint-Léger-lès-Paray 71439;E4.0833;N46.4667;13;
3;France;Bourgogne;Saône-et-Loire;Saint-Léger-sous-Beuvray 71440;E4.1000;N46.9167;13;
3;France;Bourgogne;Saône-et-Loire;Saint-Léger-sous-la-Bussière 71441;E4.5500;N46.3000;13;
3;France;Bourgogne;Saône-et-Loire;Saint-Léger-sur-Dheune 71442;E4.6333;N46.8500;13;
3;France;Bourgogne;Saône-et-Loire;Saint-Loup-de-Varennes 71444;E4.8500;N46.7167;13;
3;France;Bourgogne;Saône-et-Loire;Saint-Loup-Géanges 71443;E4.9086;N46.9474;13;
3;France;Bourgogne;Saône-et-Loire;Saint-Marcel 71445;E4.9000;N46.7833;13;
3;France;Bourgogne;Saône-et-Loire;Saint-Marcelin-de-Cray 71446;E4.5333;N46.5667;13;
3;France;Bourgogne;Saône-et-Loire;Saint-Mard-de-Vaux 71447;E4.6833;N46.8167;13;
3;France;Bourgogne;Saône-et-Loire;Saint-Martin-Belle-Roche 71448;E4.8500;N46.3833;13;
3;France;Bourgogne;Saône-et-Loire;Saint-Martin-d'Auxy 71449;E4.5500;N46.7167;13;
3;France;Bourgogne;Saône-et-Loire;Saint-Martin-de-Commune 71450;E4.5167;N46.9000;13;
3;France;Bourgogne;Saône-et-Loire;Saint-Martin-de-Lixy 71451;E4.2500;N46.2000;13;
3;France;Bourgogne;Saône-et-Loire;Saint-Martin-de-Salencey 71452;E4.5000;N46.5167;13;
3;France;Bourgogne;Saône-et-Loire;Saint-Martin-du-Lac 71453;E4.0333;N46.2500;13;
3;France;Bourgogne;Saône-et-Loire;Saint-Martin-du-Mont 71454;E5.2917;N46.6167;13;
3;France;Bourgogne;Saône-et-Loire;Saint-Martin-du-Tartre 71455;E4.6167;N46.6333;13;
3;France;Bourgogne;Saône-et-Loire;Saint-Martin-en-Bresse 71456;E5.0667;N46.8167;13;
3;France;Bourgogne;Saône-et-Loire;Saint-Martin-en-Gâtinois 71457;E5.0167;N46.9333;13;
3;France;Bourgogne;Saône-et-Loire;Saint-Martin-la-Patrouille 71458;E4.5333;N46.5833;13;
3;France;Bourgogne;Saône-et-Loire;Saint-Martin-sous-Montaigu 71459;E4.7167;N46.8167;13;
3;France;Bourgogne;Saône-et-Loire;Saint-Maurice-de-Satonnay 71460;E4.7833;N46.4167;13;
3;France;Bourgogne;Saône-et-Loire;Saint-Maurice-des-Champs 71461;E4.6167;N46.6333;13;
3;France;Bourgogne;Saône-et-Loire;Saint-Maurice-en-Rivière 71462;E5.0167;N46.8500;13;
3;France;Bourgogne;Saône-et-Loire;Saint-Maurice-lès-Châteauneuf 71463;E4.2500;N46.2167;13;
3;France;Bourgogne;Saône-et-Loire;Saint-Maurice-lès-Couches 71464;E4.6000;N46.8833;13;
3;France;Bourgogne;Saône-et-Loire;Saint-Micaud 71465;E4.5500;N46.6833;13;
3;France;Bourgogne;Saône-et-Loire;Saint-Nizier-sur-Arroux 71466;E4.1333;N46.8000;13;
3;France;Bourgogne;Saône-et-Loire;Saint-Pantaléon 71467=71014;E4.3167;N46.9500;13;
3;France;Bourgogne;Saône-et-Loire;Saint-Pierre-de-Varennes 71468;E4.5000;N46.8333;13;
3;France;Bourgogne;Saône-et-Loire;Saint-Pierre-le-Vieux 71469;E4.5333;N46.2833;13;
3;France;Bourgogne;Saône-et-Loire;Saint-Point 71470;E4.6167;N46.3333;13;
3;France;Bourgogne;Saône-et-Loire;Saint-Privé 71471;E4.5667;N46.7000;13;
3;France;Bourgogne;Saône-et-Loire;Saint-Prix 71472;E4.0667;N46.9500;13;
3;France;Bourgogne;Saône-et-Loire;Saint-Racho 71473;E4.3667;N46.2667;13;
3;France;Bourgogne;Saône-et-Loire;Saint-Rémy 71475;E4.8333;N46.7667;13;
3;France;Bourgogne;Saône-et-Loire;Saint-Romain-des-Îles 71476=71481;E4.7667;N46.1833;13;
3;France;Bourgogne;Saône-et-Loire;Saint-Romain-sous-Gourdon 71477;E4.4000;N46.6167;13;
3;France;Bourgogne;Saône-et-Loire;Saint-Romain-sous-Versigny 71478;E4.1833;N46.6500;13;
3;France;Bourgogne;Saône-et-Loire;Saint-Sernin-du-Bois 71479;E4.4333;N46.8333;13;
3;France;Bourgogne;Saône-et-Loire;Saint-Sernin-du-Plain 71480;E4.6167;N46.9000;13;
3;France;Bourgogne;Saône-et-Loire;Saint-Symphorien-d'Ancelles 71481;E4.7667;N46.2000;13;
3;France;Bourgogne;Saône-et-Loire;Saint-Symphorien-de-Marmagne 71482;E4.3333;N46.8333;13;
3;France;Bourgogne;Saône-et-Loire;Saint-Symphorien-des-Bois 71483;E4.2833;N46.3333;13;
3;France;Bourgogne;Saône-et-Loire;Saint-Usuge 71484;E5.2500;N46.6833;13;
3;France;Bourgogne;Saône-et-Loire;Saint-Vallerin 71485;E4.6667;N46.6833;13;
3;France;Bourgogne;Saône-et-Loire;Saint-Vallier 71486;E4.3667;N46.6333;13;
3;France;Bourgogne;Saône-et-Loire;Saint-Vérand 71487;E4.7333;N46.2500;13;
3;France;Bourgogne;Saône-et-Loire;Saint-Vincent-Bragny 71490;E4.1167;N46.5333;13;
3;France;Bourgogne;Saône-et-Loire;Saint-Vincent-des-Prés 71488;E4.5667;N46.4667;13;
3;France;Bourgogne;Saône-et-Loire;Saint-Vincent-en-Bresse 71489;E5.0667;N46.6667;13;
3;France;Bourgogne;Saône-et-Loire;Saint-Yan 71491;E4.0333;N46.4167;13;
3;France;Bourgogne;Saône-et-Loire;Saint-Ythaire 71492;E4.6167;N46.5667;13;
3;France;Bourgogne;Saône-et-Loire;Sainte-Cécile 71397;E4.6167;N46.3833;13;
3;France;Bourgogne;Saône-et-Loire;Sainte-Croix 71401;E5.2500;N46.5667;13;
3;France;Bourgogne;Saône-et-Loire;Sainte-Foy 71415;E4.1167;N46.2667;13;
3;France;Bourgogne;Saône-et-Loire;Sainte-Hélène 71426;E4.6500;N46.7500;13;
3;France;Bourgogne;Saône-et-Loire;Sainte-Radegonde 71474;E4.0667;N46.6833;13;
3;France;Bourgogne;Saône-et-Loire;Saisy 71493;E4.5500;N46.9500;13;
3;France;Bourgogne;Saône-et-Loire;Salornay-sur-Guye 71495;E4.6000;N46.5167;13;
3;France;Bourgogne;Saône-et-Loire;Sampigny-lès-Maranges 71496;E4.6500;N46.9000;13;
3;France;Bourgogne;Saône-et-Loire;Sancé 71497;E4.8333;N46.3333;13;
3;France;Bourgogne;Saône-et-Loire;Santilly 71498;E4.7000;N46.6167;13;
3;France;Bourgogne;Saône-et-Loire;Sanvignes-les-Mines 71499;E4.3000;N46.6667;13;
3;France;Bourgogne;Saône-et-Loire;Sarry 71500;E4.1167;N46.3000;13;
3;France;Bourgogne;Saône-et-Loire;Sassangy 71501;E4.6333;N46.7167;13;
3;France;Bourgogne;Saône-et-Loire;Sassenay 71502;E4.9333;N46.8333;13;
3;France;Bourgogne;Saône-et-Loire;Saules 71503;E4.6667;N46.6500;13;
3;France;Bourgogne;Saône-et-Loire;Saunières 71504;E5.0833;N46.9000;13;
3;France;Bourgogne;Saône-et-Loire;Savianges 71505;E4.6000;N46.6833;13;
3;France;Bourgogne;Saône-et-Loire;Savigny-en-Revermont 71506;E5.4167;N46.6333;13;
3;France;Bourgogne;Saône-et-Loire;Savigny-sur-Grosne 71507;E4.6667;N46.5833;13;
3;France;Bourgogne;Saône-et-Loire;Savigny-sur-Seille 71508;E5.1000;N46.6167;13;
3;France;Bourgogne;Saône-et-Loire;Semur-en-Brionnais 71510;E4.0833;N46.2667;13;
3;France;Bourgogne;Saône-et-Loire;Sennecé-lès-Mâcon 71511=71270;E4.8333;N46.3500;13;
3;France;Bourgogne;Saône-et-Loire;Sennecey-le-Grand 71512;E4.8667;N46.6500;13;
3;France;Bourgogne;Saône-et-Loire;Senozan 71513;E4.8667;N46.3833;13;
3;France;Bourgogne;Saône-et-Loire;Sens-sur-Seille 71514;E5.3000;N46.7333;13;
3;France;Bourgogne;Saône-et-Loire;Sercy 71515;E4.6833;N46.6000;13;
3;France;Bourgogne;Saône-et-Loire;Serley 71516;E5.2167;N46.7833;13;
3;France;Bourgogne;Saône-et-Loire;Sermesse 71517;E5.1000;N46.9000;13;
3;France;Bourgogne;Saône-et-Loire;Serrières 71518;E4.6833;N46.3000;13;
3;France;Bourgogne;Saône-et-Loire;Serrigny-en-Bresse 71519;E5.1167;N46.8167;13;
3;France;Bourgogne;Saône-et-Loire;Sevrey 71520;E4.8500;N46.7333;13;
3;France;Bourgogne;Saône-et-Loire;Sigy-le-Châtel 71521;E4.5833;N46.5500;13;
3;France;Bourgogne;Saône-et-Loire;Simandre 71522;E4.9833;N46.6333;13;
3;France;Bourgogne;Saône-et-Loire;Simard 71523;E5.1833;N46.7167;13;
3;France;Bourgogne;Saône-et-Loire;Sivignon 71524;E4.5000;N46.4167;13;
3;France;Bourgogne;Saône-et-Loire;Sologny 71525;E4.6833;N46.3500;13;
3;France;Bourgogne;Saône-et-Loire;Solutré-Pouilly 71526;E4.7167;N46.3000;13;
3;France;Bourgogne;Saône-et-Loire;Sommant 71527;E4.2167;N47.0500;13;
3;France;Bourgogne;Saône-et-Loire;Sornay 71528;E5.1833;N46.6333;13;
3;France;Bourgogne;Saône-et-Loire;Suin 71529;E4.4833;N46.4333;13;
3;France;Bourgogne;Saône-et-Loire;Sully 71530;E4.4667;N47.0000;13;
3;France;Bourgogne;Saône-et-Loire;Taizé 71532;E4.6833;N46.5167;13;
3;France;Bourgogne;Saône-et-Loire;Tancon 71533;E4.2667;N46.2000;13;
3;France;Bourgogne;Saône-et-Loire;Tavernay 71535;E4.2333;N47.0167;13;
3;France;Bourgogne;Saône-et-Loire;Terrans 71536=71351;E5.2167;N46.8833;13;
3;France;Bourgogne;Saône-et-Loire;Thil-sur-Arroux 71537;E4.1000;N46.8000;13;
3;France;Bourgogne;Saône-et-Loire;Thurey 71538;E5.1167;N46.7500;13;
3;France;Bourgogne;Saône-et-Loire;Tintry 71539;E4.5000;N46.9333;13;
3;France;Bourgogne;Saône-et-Loire;Torcy 71540;E4.4500;N46.7667;13;
3;France;Bourgogne;Saône-et-Loire;Torpes 71541;E5.3333;N46.8333;13;
3;France;Bourgogne;Saône-et-Loire;Toulon-sur-Arroux 71542;E4.1333;N46.6833;13;
3;France;Bourgogne;Saône-et-Loire;Tournus 71543;E4.9000;N46.5667;13;
3;France;Bourgogne;Saône-et-Loire;Toutenant 71544;E5.1167;N46.8667;13;
3;France;Bourgogne;Saône-et-Loire;Tramayes 71545;E4.6000;N46.3000;13;
3;France;Bourgogne;Saône-et-Loire;Trambly 71546;E4.5333;N46.3167;13;
3;France;Bourgogne;Saône-et-Loire;Trivy 71547;E4.5000;N46.3833;13;
3;France;Bourgogne;Saône-et-Loire;Tronchy 71548;E5.0667;N46.7167;13;
3;France;Bourgogne;Saône-et-Loire;Uchizy 71550;E4.8833;N46.5000;13;
3;France;Bourgogne;Saône-et-Loire;Uchon 71551;E4.2500;N46.8167;13;
3;France;Bourgogne;Saône-et-Loire;Uxeau 71552;E4.0167;N46.6667;13;
3;France;Bourgogne;Saône-et-Loire;Vareilles 71553;E4.2500;N46.2833;13;
3;France;Bourgogne;Saône-et-Loire;Varenne-l'Arconce 71554;E4.1500;N46.3333;13;
3;France;Bourgogne;Saône-et-Loire;Varenne-Saint-Germain 71557;E4.0167;N46.4167;13;
3;France;Bourgogne;Saône-et-Loire;Varenne-sur-le-Doubs 71560=71101;E5.1780;N46.9212;13;
3;France;Bourgogne;Saône-et-Loire;Varennes-le-Grand 71555;E4.8833;N46.7167;13;
3;France;Bourgogne;Saône-et-Loire;Varennes-lès-Mâcon 71556;E4.8000;N46.2667;13;
3;France;Bourgogne;Saône-et-Loire;Varennes-Saint-Sauveur 71558;E5.2500;N46.4833;13;
3;France;Bourgogne;Saône-et-Loire;Varennes-sous-Dun 71559;E4.3333;N46.2833;13;
3;France;Bourgogne;Saône-et-Loire;Vauban 71561;E4.2167;N46.2667;13;
3;France;Bourgogne;Saône-et-Loire;Vaudebarrier 71562;E4.3167;N46.4167;13;
3;France;Bourgogne;Saône-et-Loire;Vaux-en-Pré 71563;E4.6000;N46.6333;13;
3;France;Bourgogne;Saône-et-Loire;Vendenesse-lès-Charolles 71564;E4.3333;N46.4500;13;
3;France;Bourgogne;Saône-et-Loire;Vendenesse-sur-Arroux 71565;E4.0667;N46.6333;13;
3;France;Bourgogne;Saône-et-Loire;Verdun-sur-le-Doubs 71566;E5.0167;N46.9000;13;
3;France;Bourgogne;Saône-et-Loire;Vergisson 71567;E4.7167;N46.3000;13;
3;France;Bourgogne;Saône-et-Loire;Vérissey 71568;E5.1167;N46.7000;13;
3;France;Bourgogne;Saône-et-Loire;Vérizet 71569=71584;E4.8559;N46.4473;13;
3;France;Bourgogne;Saône-et-Loire;Verjux 71570;E4.9667;N46.8833;13;
3;France;Bourgogne;Saône-et-Loire;Verosvres 71571;E4.4333;N46.4000;13;
3;France;Bourgogne;Saône-et-Loire;Vers 71572;E4.8500;N46.5833;13;
3;France;Bourgogne;Saône-et-Loire;Versaugues 71573;E4.0667;N46.3500;13;
3;France;Bourgogne;Saône-et-Loire;Verzé 71574;E4.7333;N46.3667;13;
3;France;Bourgogne;Saône-et-Loire;Vigny-lès-Paray 71575=71176;E4.0833;N46.5000;13;
3;France;Bourgogne;Saône-et-Loire;Villegaudin 71577;E5.1000;N46.8000;13;
3;France;Bourgogne;Saône-et-Loire;Villeneuve-en-Montagne 71579;E4.6167;N46.7667;13;
3;France;Bourgogne;Saône-et-Loire;Vincelles 71580;E5.2333;N46.6500;13;
3;France;Bourgogne;Saône-et-Loire;Vindecy 71581;E4.0167;N46.3500;13;
3;France;Bourgogne;Saône-et-Loire;Vinzelles 71583;E4.7667;N46.2667;13;
3;France;Bourgogne;Saône-et-Loire;Viré 71584;E4.8333;N46.4500;13;
3;France;Bourgogne;Saône-et-Loire;Virey-le-Grand 71585;E4.8500;N46.8333;13;
3;France;Bourgogne;Saône-et-Loire;Viry 71586;E4.3333;N46.2833;13;
3;France;Bourgogne;Saône-et-Loire;Vitry-en-Charollais 71588;E4.0595;N46.4548;13;
3;France;Bourgogne;Saône-et-Loire;Vitry-lès-Cluny 71587;E4.5833;N46.4833;13;
3;France;Bourgogne;Saône-et-Loire;Vitry-sur-Loire 71589;E3.7084;N46.6833;13;
3;France;Bourgogne;Saône-et-Loire;Volesvres 71590;E4.1500;N46.4667;13;
2;France;Bourgogne;Yonne;;E3.5458;N47.8519;9;
3;France;Bourgogne;Yonne;Accolay 89001;E3.7167;N47.6667;13;
3;France;Bourgogne;Yonne;Aigremont 89002;E3.8833;N47.7167;13;
3;France;Bourgogne;Yonne;Aillant-sur-Tholon 89003;E3.3500;N47.8667;13;
3;France;Bourgogne;Yonne;Aisy-sur-Armançon 89004;E4.2167;N47.6500;13;
3;France;Bourgogne;Yonne;Ancy-le-Franc 89005;E4.1667;N47.7667;13;
3;France;Bourgogne;Yonne;Ancy-le-Libre 89006;E4.1167;N47.8000;13;
3;France;Bourgogne;Yonne;Andryes 89007;E3.4833;N47.5167;13;
3;France;Bourgogne;Yonne;Angely 89008;E4.0167;N47.5667;13;
3;France;Bourgogne;Yonne;Annay-la-Côte 89009;E3.8833;N47.5333;13;
3;France;Bourgogne;Yonne;Annay-sur-Serein 89010;E3.9667;N47.7333;13;
3;France;Bourgogne;Yonne;Annéot 89011;E3.8833;N47.5167;13;
3;France;Bourgogne;Yonne;Annoux 89012;E4.0500;N47.6333;13;
3;France;Bourgogne;Yonne;Appoigny 89013;E3.5333;N47.8833;13;
3;France;Bourgogne;Yonne;Arces-Dilo 89014;E3.5833;N48.0833;13;
3;France;Bourgogne;Yonne;Arcy-sur-Cure 89015;E3.7500;N47.6000;13;
3;France;Bourgogne;Yonne;Argentenay 89016;E4.1167;N47.8167;13;
3;France;Bourgogne;Yonne;Argenteuil-sur-Armançon 89017;E4.1000;N47.7500;13;
3;France;Bourgogne;Yonne;Armeau 89018;E3.3167;N48.0500;13;
3;France;Bourgogne;Yonne;Arthonnay 89019;E4.2167;N47.9333;13;
3;France;Bourgogne;Yonne;Asnières-sous-Bois 89020;E3.6500;N47.4833;13;
3;France;Bourgogne;Yonne;Asquins 89021;E3.7500;N47.4833;13;
3;France;Bourgogne;Yonne;Athie 89022;E3.9833;N47.5333;13;
3;France;Bourgogne;Yonne;Augy 89023;E3.6167;N47.7667;13;
3;France;Bourgogne;Yonne;Auxerre 89024;E3.5667;N47.8000;13;
3;France;Bourgogne;Yonne;Avallon 89025;E3.9000;N47.4833;13;
3;France;Bourgogne;Yonne;Avrolles 89026=89345;E3.6833;N48.0000;13;
3;France;Bourgogne;Yonne;Bagneaux 89027;E3.5833;N48.2333;13;
3;France;Bourgogne;Yonne;Baon 89028;E4.1333;N47.8500;13;
3;France;Bourgogne;Yonne;Bassou 89029;E3.5000;N47.9167;13;
3;France;Bourgogne;Yonne;Bazarnes 89030;E3.6667;N47.6667;13;
3;France;Bourgogne;Yonne;Beaumont 89031;E3.5667;N47.9167;13;
3;France;Bourgogne;Yonne;Beauvilliers 89032;E4.0333;N47.4167;13;
3;France;Bourgogne;Yonne;Beauvoir 89033;E3.3667;N47.8000;13;
3;France;Bourgogne;Yonne;Beine 89034;E3.7167;N47.8167;13;
3;France;Bourgogne;Yonne;Bellechaume 89035;E3.6000;N48.0500;13;
3;France;Bourgogne;Yonne;Béon 89037;E3.3167;N47.9500;13;
3;France;Bourgogne;Yonne;Bernouil 89038;E3.9000;N47.9000;13;
3;France;Bourgogne;Yonne;Béru 89039;E3.9000;N47.8000;13;
3;France;Bourgogne;Yonne;Bessy-sur-Cure 89040;E3.7333;N47.6167;13;
3;France;Bourgogne;Yonne;Beugnon 89041;E3.8000;N48.0167;13;
3;France;Bourgogne;Yonne;Bierry-les-Belles-Fontaines 89042;E4.1833;N47.5833;13;
3;France;Bourgogne;Yonne;Blacy 89043;E4.0500;N47.5667;13;
3;France;Bourgogne;Yonne;Blannay 89044;E3.7833;N47.5333;13;
3;France;Bourgogne;Yonne;Bleigny-le-Carreau 89045;E3.6833;N47.8333;13;
3;France;Bourgogne;Yonne;Bléneau 89046;E2.9500;N47.7000;13;
3;France;Bourgogne;Yonne;Bligny-en-Othe 89047=89055;E3.6000;N48.0167;13;
3;France;Bourgogne;Yonne;Boeurs-en-Othe 89048;E3.7167;N48.1333;13;
3;France;Bourgogne;Yonne;Bois-d'Arcy 89049;E3.7167;N47.5500;13;
3;France;Bourgogne;Yonne;Bonnard 89050;E3.5167;N47.9333;13;
3;France;Bourgogne;Yonne;Bouilly 89052=89439;E3.6667;N47.9667;13;
3;France;Bourgogne;Yonne;Branches 89053;E3.4833;N47.8833;13;
3;France;Bourgogne;Yonne;Brannay 89054;E3.1167;N48.2333;13;
3;France;Bourgogne;Yonne;Brienon-sur-Armançon 89055;E3.6167;N48.0000;13;
3;France;Bourgogne;Yonne;Brion 89056;E3.4833;N48.0000;13;
3;France;Bourgogne;Yonne;Brosses 89057;E3.6833;N47.5333;13;
3;France;Bourgogne;Yonne;Bussières 89058;E4.0500;N47.4167;13;
3;France;Bourgogne;Yonne;Bussy-en-Othe 89059;E3.5167;N48.0167;13;
3;France;Bourgogne;Yonne;Bussy-le-Repos 89060;E3.2333;N48.0500;13;
3;France;Bourgogne;Yonne;Butteaux 89061;E3.8167;N47.9667;13;
3;France;Bourgogne;Yonne;Carisey 89062;E3.8500;N47.9167;13;
3;France;Bourgogne;Yonne;Censy 89064;E4.0500;N47.7000;13;
3;France;Bourgogne;Yonne;Cérilly 89065;E3.6167;N48.1833;13;
3;France;Bourgogne;Yonne;Cerisiers 89066;E3.4833;N48.1333;13;
3;France;Bourgogne;Yonne;Cézy 89067;E3.3333;N47.9833;13;
3;France;Bourgogne;Yonne;Chablis 89068;E3.8000;N47.8167;13;
3;France;Bourgogne;Yonne;Chailley 89069;E3.7000;N48.0833;13;
3;France;Bourgogne;Yonne;Chambeugle 89070;E3.0333;N47.8667;13;
3;France;Bourgogne;Yonne;Chamoux 89071;E3.6667;N47.4500;13;
3;France;Bourgogne;Yonne;Champcevrais 89072;E2.9667;N47.7500;13;
3;France;Bourgogne;Yonne;Champignelles 89073;E3.0667;N47.7667;13;
3;France;Bourgogne;Yonne;Champigny 89074;E3.1167;N48.3167;13;
3;France;Bourgogne;Yonne;Champlay 89075;E3.4333;N47.9500;13;
3;France;Bourgogne;Yonne;Champlost 89076;E3.6667;N48.0333;13;
3;France;Bourgogne;Yonne;Champs-sur-Yonne 89077;E3.6000;N47.7333;13;
3;France;Bourgogne;Yonne;Champvallon 89078;E3.3500;N47.9333;13;
3;France;Bourgogne;Yonne;Chamvres 89079;E3.3667;N47.9500;13;
3;France;Bourgogne;Yonne;Charbuy 89083;E3.4667;N47.8167;13;
3;France;Bourgogne;Yonne;Charentenay 89084;E3.5500;N47.6500;13;
3;France;Bourgogne;Yonne;Charmoy 89085;E3.4917;N47.9417;13;
3;France;Bourgogne;Yonne;Charny 89086;E3.0917;N47.8833;13;
3;France;Bourgogne;Yonne;Chassignelles 89087;E4.1833;N47.7500;13;
3;France;Bourgogne;Yonne;Chassy 89088;E3.3500;N47.8500;13;
3;France;Bourgogne;Yonne;Chastellux-sur-Cure 89089;E3.8833;N47.3833;13;
3;France;Bourgogne;Yonne;Chastenay 89090=89283;E3.3833;N47.6500;13;
3;France;Bourgogne;Yonne;Châtel-Censoir 89091;E3.6333;N47.5167;13;
3;France;Bourgogne;Yonne;Châtel-Gérard 89092;E4.0833;N47.6333;13;
3;France;Bourgogne;Yonne;Chaumont 89093;E3.1000;N48.3167;13;
3;France;Bourgogne;Yonne;Chaumot 89094;E3.2167;N48.0833;13;
3;France;Bourgogne;Yonne;Chemilly-sur-Serein 89095;E3.8500;N47.7667;13;
3;France;Bourgogne;Yonne;Chemilly-sur-Yonne 89096;E3.5667;N47.9000;13;
3;France;Bourgogne;Yonne;Chêne-Arnoult 89097;E3.0667;N47.9000;13;
3;France;Bourgogne;Yonne;Cheney 89098;E3.9500;N47.9000;13;
3;France;Bourgogne;Yonne;Cheny 89099;E3.5333;N47.9500;13;
3;France;Bourgogne;Yonne;Chéroy 89100;E3.0000;N48.2000;13;
3;France;Bourgogne;Yonne;Chéu 89101;E3.7667;N47.9667;13;
3;France;Bourgogne;Yonne;Chevannes 89102;E3.5000;N47.7500;13;
3;France;Bourgogne;Yonne;Chevillon 89103;E3.1833;N47.9167;13;
3;France;Bourgogne;Yonne;Chichée 89104;E3.8333;N47.8000;13;
3;France;Bourgogne;Yonne;Chichery 89105;E3.5167;N47.9000;13;
3;France;Bourgogne;Yonne;Chichy 89106=89200;E3.5950;N47.9448;13;
3;France;Bourgogne;Yonne;Chigy 89107;E3.4833;N48.2000;13;
3;France;Bourgogne;Yonne;Chitry 89108;E3.7000;N47.7667;13;
3;France;Bourgogne;Yonne;Cisery 89109;E4.0667;N47.5167;13;
3;France;Bourgogne;Yonne;Civry-sur-Serein 89110=89246;E4.0000;N47.6000;13;
3;France;Bourgogne;Yonne;Collan 89112;E3.8833;N47.8500;13;
3;France;Bourgogne;Yonne;Collemiers 89113;E3.2333;N48.1500;13;
3;France;Bourgogne;Yonne;Commissey 89114=89407;E4.0667;N47.8500;13;
3;France;Bourgogne;Yonne;Compigny 89115;E3.2667;N48.3667;13;
3;France;Bourgogne;Yonne;Cornant 89116;E3.1833;N48.1333;13;
3;France;Bourgogne;Yonne;Coulangeron 89117;E3.4667;N47.6833;13;
3;France;Bourgogne;Yonne;Coulanges-la-Vineuse 89118;E3.5833;N47.7000;13;
3;France;Bourgogne;Yonne;Coulanges-sur-Yonne 89119;E3.5333;N47.5167;13;
3;France;Bourgogne;Yonne;Coulours 89120;E3.5833;N48.1667;13;
3;France;Bourgogne;Yonne;Courceaux 89121=89469;E3.3833;N48.3833;13;
3;France;Bourgogne;Yonne;Courgenay 89122;E3.5500;N48.2833;13;
3;France;Bourgogne;Yonne;Courgis 89123;E3.7500;N47.7667;13;
3;France;Bourgogne;Yonne;Courlon-sur-Yonne 89124;E3.1667;N48.3333;13;
3;France;Bourgogne;Yonne;Courson-les-Carrières 89125;E3.5000;N47.6000;13;
3;France;Bourgogne;Yonne;Courtoin 89126;E3.1000;N48.1167;13;
3;France;Bourgogne;Yonne;Courtois-sur-Yonne 89127;E3.2500;N48.2167;13;
3;France;Bourgogne;Yonne;Coutarnoux 89128;E3.9667;N47.5833;13;
3;France;Bourgogne;Yonne;Crain 89129;E3.5500;N47.5333;13;
3;France;Bourgogne;Yonne;Cravant 89130;E3.6833;N47.6833;13;
3;France;Bourgogne;Yonne;Cruzy-le-Châtel 89131;E4.2000;N47.8500;13;
3;France;Bourgogne;Yonne;Cry 89132;E4.2333;N47.7000;13;
3;France;Bourgogne;Yonne;Cudot 89133;E3.1833;N47.9833;13;
3;France;Bourgogne;Yonne;Cussy-les-Forges 89134;E4.0333;N47.4667;13;
3;France;Bourgogne;Yonne;Cusy 89135=89005;E4.1667;N47.7667;13;
3;France;Bourgogne;Yonne;Cuy 89136;E3.2667;N48.2500;13;
3;France;Bourgogne;Yonne;Dannemoine 89137;E3.9667;N47.9000;13;
3;France;Bourgogne;Yonne;Dicy 89138;E3.1000;N47.9333;13;
3;France;Bourgogne;Yonne;Diges 89139;E3.4000;N47.7333;13;
3;France;Bourgogne;Yonne;Dilo 89140=89014;E3.5500;N48.0833;13;
3;France;Bourgogne;Yonne;Dissangis 89141;E3.9833;N47.6000;13;
3;France;Bourgogne;Yonne;Dixmont 89142;E3.4167;N48.0833;13;
3;France;Bourgogne;Yonne;Dollot 89143;E3.0667;N48.2167;13;
3;France;Bourgogne;Yonne;Domats 89144;E3.0667;N48.1167;13;
3;France;Bourgogne;Yonne;Domecy-sur-Cure 89145;E3.8000;N47.4000;13;
3;France;Bourgogne;Yonne;Domecy-sur-le-Vault 89146;E3.8167;N47.5000;13;
3;France;Bourgogne;Yonne;Dracy 89147;E3.2500;N47.7583;13;
3;France;Bourgogne;Yonne;Druyes-les-Belles-Fontaines 89148;E3.4167;N47.5333;13;
3;France;Bourgogne;Yonne;Dyé 89149;E3.8667;N47.9000;13;
3;France;Bourgogne;Yonne;Égleny 89150;E3.3667;N47.8167;13;
3;France;Bourgogne;Yonne;Égriselles-le-Bocage 89151;E3.1833;N48.1167;13;
3;France;Bourgogne;Yonne;Épineau-les-Voves 89152;E3.4667;N47.9500;13;
3;France;Bourgogne;Yonne;Épineuil 89153;E3.9833;N47.8667;13;
3;France;Bourgogne;Yonne;Escamps 89154;E3.4667;N47.7333;13;
3;France;Bourgogne;Yonne;Escolives-Sainte-Camille 89155;E3.6167;N47.7167;13;
3;France;Bourgogne;Yonne;Esnon 89156;E3.5833;N47.9833;13;
3;France;Bourgogne;Yonne;Essert 89157=89233;E3.7833;N47.6333;13;
3;France;Bourgogne;Yonne;Étais-la-Sauvin 89158;E3.3419;N47.5038;13;
3;France;Bourgogne;Yonne;Étaule 89159;E3.9167;N47.5167;13;
3;France;Bourgogne;Yonne;Étigny 89160;E3.2833;N48.1333;13;
3;France;Bourgogne;Yonne;Étivey 89161;E4.1500;N47.6667;13;
3;France;Bourgogne;Yonne;Évry 89162;E3.2500;N48.2667;13;
3;France;Bourgogne;Yonne;Festigny 89164;E3.5333;N47.5500;13;
3;France;Bourgogne;Yonne;Flacy 89165;E3.6000;N48.2167;13;
3;France;Bourgogne;Yonne;Fleurigny 89166=89414;E3.3667;N48.2833;13;
3;France;Bourgogne;Yonne;Fleury-la-Vallée 89167;E3.4500;N47.8667;13;
3;France;Bourgogne;Yonne;Fleys 89168;E3.8667;N47.8167;13;
3;France;Bourgogne;Yonne;Flogny-la-Chapelle 89169;E3.8667;N47.9500;13;
3;France;Bourgogne;Yonne;Foissy-lès-Vézelay 89170;E3.7667;N47.4333;13;
3;France;Bourgogne;Yonne;Foissy-sur-Vanne 89171;E3.5000;N48.2167;13;
3;France;Bourgogne;Yonne;Fontaine-la-Gaillarde 89172;E3.3833;N48.2167;13;
3;France;Bourgogne;Yonne;Fontaines 89173;E3.2667;N47.7000;13;
3;France;Bourgogne;Yonne;Fontenailles 89174;E3.4670;N47.6325;13;
3;France;Bourgogne;Yonne;Fontenay-près-Chablis 89175;E3.8167;N47.8500;13;
3;France;Bourgogne;Yonne;Fontenay-près-Vézelay 89176;E3.7333;N47.4167;13;
3;France;Bourgogne;Yonne;Fontenay-sous-Fouronnes 89177;E3.6000;N47.6167;13;
3;France;Bourgogne;Yonne;Fontenouilles 89178;E3.0500;N47.8833;13;
3;France;Bourgogne;Yonne;Fontenoy 89179;E3.3000;N47.6500;13;
3;France;Bourgogne;Yonne;Fouchères 89180;E3.1333;N48.1667;13;
3;France;Bourgogne;Yonne;Fournaudin 89181;E3.6500;N48.1500;13;
3;France;Bourgogne;Yonne;Fouronnes 89182;E3.5667;N47.6167;13;
3;France;Bourgogne;Yonne;Fresnes 89183;E3.9833;N47.7500;13;
3;France;Bourgogne;Yonne;Fulvy 89184;E4.1667;N47.7333;13;
3;France;Bourgogne;Yonne;Fyé 89185=89068;E3.8167;N47.8333;13;
3;France;Bourgogne;Yonne;Germigny 89186;E3.7833;N47.9833;13;
3;France;Bourgogne;Yonne;Gigny 89187;E4.3000;N47.8167;13;
3;France;Bourgogne;Yonne;Girolles 89188;E3.8500;N47.5333;13;
3;France;Bourgogne;Yonne;Gisy-les-Nobles 89189;E3.2500;N48.2833;13;
3;France;Bourgogne;Yonne;Givry 89190;E3.8000;N47.5167;13;
3;France;Bourgogne;Yonne;Gland 89191;E4.2167;N47.8167;13;
3;France;Bourgogne;Yonne;Grandchamp 89192;E3.1500;N47.8000;13;
3;France;Bourgogne;Yonne;Grange-le-Bocage 89193=89469;E3.4333;N48.3333;13;
3;France;Bourgogne;Yonne;Grimault 89194;E3.9833;N47.6500;13;
3;France;Bourgogne;Yonne;Gron 89195;E3.2667;N48.1500;13;
3;France;Bourgogne;Yonne;Guerchy 89196;E3.4500;N47.8833;13;
3;France;Bourgogne;Yonne;Guillon 89197;E4.1000;N47.5167;13;
3;France;Bourgogne;Yonne;Gurgy 89198;E3.5667;N47.8667;13;
3;France;Bourgogne;Yonne;Gy-l'Évêque 89199;E3.5500;N47.7167;13;
3;France;Bourgogne;Yonne;Hauterive 89200;E3.6000;N47.9333;13;
3;France;Bourgogne;Yonne;Héry 89201;E3.6333;N47.9000;13;
3;France;Bourgogne;Yonne;Irancy 89202;E3.6667;N47.7167;13;
3;France;Bourgogne;Yonne;Island 89203;E3.8500;N47.4667;13;
3;France;Bourgogne;Yonne;Jaulges 89205;E3.7833;N47.9667;13;
3;France;Bourgogne;Yonne;Joigny 89206;E3.4000;N47.9833;13;
3;France;Bourgogne;Yonne;Jouancy 89207;E4.0333;N47.6833;13;
3;France;Bourgogne;Yonne;Joux-la-Ville 89208;E3.8500;N47.6167;13;
3;France;Bourgogne;Yonne;Jouy 89209;E2.9667;N48.1667;13;
3;France;Bourgogne;Yonne;Jully 89210;E4.2833;N47.7833;13;
3;France;Bourgogne;Yonne;Junay 89211;E3.9500;N47.8833;13;
3;France;Bourgogne;Yonne;Jussy 89212;E3.5833;N47.7167;13;
3;France;Bourgogne;Yonne;L'Isle-sur-Serein 89204;E4.0000;N47.5833;13;
3;France;Bourgogne;Yonne;La Belliole 89036;E3.0833;N48.1500;13;
3;France;Bourgogne;Yonne;La Celle-Saint-Cyr 89063;E3.3000;N47.9667;13;
3;France;Bourgogne;Yonne;La Chapelle-sur-Oreuse 89080;E3.3000;N48.2833;13;
3;France;Bourgogne;Yonne;La Chapelle-Vaupelteigne 89081;E3.7667;N47.8500;13;
3;France;Bourgogne;Yonne;La Chapelle-Vieille-Forêt 89082=89169;E3.8890;N47.9525;13;
3;France;Bourgogne;Yonne;La Ferté-Loupière 89163;E3.2333;N47.9000;13;
3;France;Bourgogne;Yonne;La Mothe-aux-Aulnaies 89269=89086;E3.0917;N47.9072;13;
3;France;Bourgogne;Yonne;La Postolle 89310;E3.4333;N48.2833;13;
3;France;Bourgogne;Yonne;La Villotte 89476=89472;E3.2483;N47.7785;13;
3;France;Bourgogne;Yonne;Laduz 89213;E3.4167;N47.8833;13;
3;France;Bourgogne;Yonne;Lailly 89214;E3.5333;N48.2500;13;
3;France;Bourgogne;Yonne;Lain 89215;E3.3500;N47.6167;13;
3;France;Bourgogne;Yonne;Lainsecq 89216;E3.2667;N47.5500;13;
3;France;Bourgogne;Yonne;Lalande 89217;E3.3167;N47.6833;13;
3;France;Bourgogne;Yonne;Laroche-Saint-Cydroine 89218;E3.5167;N47.9667;13;
3;France;Bourgogne;Yonne;Lasson 89219;E3.8167;N48.0667;13;
3;France;Bourgogne;Yonne;Lavau 89220;E2.9833;N47.6000;13;
3;France;Bourgogne;Yonne;Les Bordes 89051;E3.3833;N48.1000;13;
3;France;Bourgogne;Yonne;Les Clérimois 89111;E3.4333;N48.2333;13;
3;France;Bourgogne;Yonne;Les Ormes 89281;E3.2667;N47.8500;13;
3;France;Bourgogne;Yonne;Les Sièges 89395;E3.5167;N48.1833;13;
3;France;Bourgogne;Yonne;Leugny 89221;E3.3833;N47.6833;13;
3;France;Bourgogne;Yonne;Levis 89222;E3.3167;N47.6500;13;
3;France;Bourgogne;Yonne;Lézinnes 89223;E4.0833;N47.8000;13;
3;France;Bourgogne;Yonne;Lichères-près-Aigremont 89224;E3.8500;N47.7167;13;
3;France;Bourgogne;Yonne;Lichères-sur-Yonne 89225;E3.6000;N47.5000;13;
3;France;Bourgogne;Yonne;Lignorelles 89226;E3.7333;N47.8667;13;
3;France;Bourgogne;Yonne;Ligny-le-Châtel 89227;E3.7500;N47.9000;13;
3;France;Bourgogne;Yonne;Lindry 89228;E3.4167;N47.8000;13;
3;France;Bourgogne;Yonne;Lixy 89229;E3.1000;N48.2333;13;
3;France;Bourgogne;Yonne;Looze 89230;E3.4333;N47.9833;13;
3;France;Bourgogne;Yonne;Louesme 89231=89073;E3.1395;N47.7677;13;
3;France;Bourgogne;Yonne;Lucy-le-Bois 89232;E3.8833;N47.5500;13;
3;France;Bourgogne;Yonne;Lucy-sur-Cure 89233;E3.7500;N47.6333;13;
3;France;Bourgogne;Yonne;Lucy-sur-Yonne 89234;E3.5833;N47.5167;13;
3;France;Bourgogne;Yonne;Magny 89235;E3.9810;N47.4841;13;
3;France;Bourgogne;Yonne;Maillot 89236;E3.3000;N48.1833;13;
3;France;Bourgogne;Yonne;Mailly-la-Ville 89237;E3.6667;N47.6000;13;
3;France;Bourgogne;Yonne;Mailly-le-Château 89238;E3.6333;N47.6000;13;
3;France;Bourgogne;Yonne;Malay-le-Grand 89239;E3.3333;N48.1667;13;
3;France;Bourgogne;Yonne;Malay-le-Petit 89240;E3.3833;N48.1667;13;
3;France;Bourgogne;Yonne;Malicorne 89241;E3.1000;N47.8167;13;
3;France;Bourgogne;Yonne;Maligny 89242;E3.7500;N47.8667;13;
3;France;Bourgogne;Yonne;Marchais-Beton 89243;E3.0500;N47.8333;13;
3;France;Bourgogne;Yonne;Marmeaux 89244;E4.1000;N47.5833;13;
3;France;Bourgogne;Yonne;Marsangy 89245;E3.2500;N48.1000;13;
3;France;Bourgogne;Yonne;Massangis 89246;E3.9667;N47.6167;13;
3;France;Bourgogne;Yonne;Mélisey 89247;E4.0667;N47.9167;13;
3;France;Bourgogne;Yonne;Menades 89248;E3.8167;N47.4500;13;
3;France;Bourgogne;Yonne;Mercy 89249;E3.6333;N48.0333;13;
3;France;Bourgogne;Yonne;Méré 89250;E3.8167;N47.9000;13;
3;France;Bourgogne;Yonne;Merry-la-Vallée 89251;E3.3333;N47.8000;13;
3;France;Bourgogne;Yonne;Merry-Sec 89252;E3.4833;N47.6500;13;
3;France;Bourgogne;Yonne;Merry-sur-Yonne 89253;E3.6500;N47.5667;13;
3;France;Bourgogne;Yonne;Mézilles 89254;E3.1667;N47.7000;13;
3;France;Bourgogne;Yonne;Michery 89255;E3.2333;N48.3000;13;
3;France;Bourgogne;Yonne;Migé 89256;E3.5500;N47.6833;13;
3;France;Bourgogne;Yonne;Migennes 89257;E3.5167;N47.9667;13;
3;France;Bourgogne;Yonne;Milly 89258=89068;E3.7667;N47.8167;13;
3;France;Bourgogne;Yonne;Môlay 89259;E3.9333;N47.7333;13;
3;France;Bourgogne;Yonne;Molesmes 89260;E3.4667;N47.6167;13;
3;France;Bourgogne;Yonne;Molinons 89261;E3.5333;N48.2333;13;
3;France;Bourgogne;Yonne;Molosmes 89262;E4.0500;N47.8833;13;
3;France;Bourgogne;Yonne;Monéteau 89263;E3.5833;N47.8500;13;
3;France;Bourgogne;Yonne;Mont-Saint-Sulpice 89268;E3.6333;N47.9500;13;
3;France;Bourgogne;Yonne;Montacher-Villegardin 89264;E3.0167;N48.1667;13;
3;France;Bourgogne;Yonne;Montigny-la-Resle 89265;E3.6833;N47.8667;13;
3;France;Bourgogne;Yonne;Montillot 89266;E3.7167;N47.5167;13;
3;France;Bourgogne;Yonne;Montréal 89267;E4.0333;N47.5333;13;
3;France;Bourgogne;Yonne;Mouffy 89270;E3.5167;N47.6500;13;
3;France;Bourgogne;Yonne;Moulins-en-Tonnerrois 89271;E4.0333;N47.7333;13;
3;France;Bourgogne;Yonne;Moulins-sur-Ouanne 89272;E3.3333;N47.7167;13;
3;France;Bourgogne;Yonne;Moutiers-en-Puisaye 89273;E3.1667;N47.6000;13;
3;France;Bourgogne;Yonne;Nailly 89274;E3.2250;N48.2250;13;
3;France;Bourgogne;Yonne;Neuilly 89275;E3.4333;N47.9167;13;
3;France;Bourgogne;Yonne;Neuvy-Sautour 89276;E3.8000;N48.0333;13;
3;France;Bourgogne;Yonne;Nitry 89277;E3.8833;N47.6667;13;
3;France;Bourgogne;Yonne;Noé 89278;E3.4000;N48.1667;13;
3;France;Bourgogne;Yonne;Noyers 89279;E4.0000;N47.7000;13;
3;France;Bourgogne;Yonne;Nuits 89280;E3.4667;N47.6333;13;
3;France;Bourgogne;Yonne;Ormoy 89282;E3.5667;N47.9500;13;
3;France;Bourgogne;Yonne;Ouanne 89283;E3.4167;N47.6667;13;
3;France;Bourgogne;Yonne;Pacy-sur-Armançon 89284;E4.0833;N47.7667;13;
3;France;Bourgogne;Yonne;Pailly 89285;E3.3333;N48.3500;13;
3;France;Bourgogne;Yonne;Parly 89286;E3.3500;N47.7667;13;
3;France;Bourgogne;Yonne;Paron 89287;E3.2500;N48.1833;13;
3;France;Bourgogne;Yonne;Paroy-en-Othe 89288;E3.5667;N48.0333;13;
3;France;Bourgogne;Yonne;Paroy-sur-Tholon 89289;E3.3667;N47.9500;13;
3;France;Bourgogne;Yonne;Pasilly 89290;E4.0833;N47.7000;13;
3;France;Bourgogne;Yonne;Passy 89291;E3.3000;N48.1000;13;
3;France;Bourgogne;Yonne;Perceneige 89469;E3.4000;N48.3500;13;
3;France;Bourgogne;Yonne;Percey 89292;E3.8333;N47.9667;13;
3;France;Bourgogne;Yonne;Perreuse 89293=89420;E3.2167;N47.5333;13;
3;France;Bourgogne;Yonne;Perreux 89294;E3.1500;N47.8667;13;
3;France;Bourgogne;Yonne;Perrigny 89295;E3.5333;N47.8167;13;
3;France;Bourgogne;Yonne;Perrigny-sur-Armançon 89296;E4.2167;N47.6833;13;
3;France;Bourgogne;Yonne;Pierre-Perthuis 89297;E3.7833;N47.4333;13;
3;France;Bourgogne;Yonne;Piffonds 89298;E3.1500;N48.0500;13;
3;France;Bourgogne;Yonne;Pimelles 89299;E4.1667;N47.8333;13;
3;France;Bourgogne;Yonne;Pisy 89300;E4.1333;N47.5500;13;
3;France;Bourgogne;Yonne;Plessis-du-Mée 89301=89469;E3.3500;N48.3667;13;
3;France;Bourgogne;Yonne;Plessis-Saint-Jean 89302;E3.3000;N48.3500;13;
3;France;Bourgogne;Yonne;Poilly-sur-Serein 89303;E3.9000;N47.7667;13;
3;France;Bourgogne;Yonne;Poilly-sur-Tholon 89304;E3.3833;N47.8667;13;
3;France;Bourgogne;Yonne;Poinchy 89305=89068;E3.7667;N47.8167;13;
3;France;Bourgogne;Yonne;Pont-sur-Vanne 89308;E3.4500;N48.1833;13;
3;France;Bourgogne;Yonne;Pont-sur-Yonne 89309;E3.2000;N48.2833;13;
3;France;Bourgogne;Yonne;Pontaubert 89306;E3.8667;N47.4833;13;
3;France;Bourgogne;Yonne;Pontigny 89307;E3.7167;N47.9167;13;
3;France;Bourgogne;Yonne;Pourrain 89311;E3.4167;N47.7500;13;
3;France;Bourgogne;Yonne;Précy-le-Sec 89312;E3.8333;N47.5833;13;
3;France;Bourgogne;Yonne;Précy-sur-Vrin 89313;E3.2500;N47.9667;13;
3;France;Bourgogne;Yonne;Prégilbert 89314;E3.6667;N47.6333;13;
3;France;Bourgogne;Yonne;Préhy 89315;E3.7667;N47.7667;13;
3;France;Bourgogne;Yonne;Provency 89316;E3.9500;N47.5500;13;
3;France;Bourgogne;Yonne;Prunoy 89317;E3.1333;N47.9167;13;
3;France;Bourgogne;Yonne;Quarré-les-Tombes 89318;E3.9833;N47.3667;13;
3;France;Bourgogne;Yonne;Quenne 89319;E3.6500;N47.7833;13;
3;France;Bourgogne;Yonne;Quincerot 89320;E4.1500;N47.9333;13;
3;France;Bourgogne;Yonne;Ravières 89321;E4.2167;N47.7333;13;
3;France;Bourgogne;Yonne;Rebourseaux 89322=89439;E3.6833;N47.9500;13;
3;France;Bourgogne;Yonne;Roffey 89323;E3.9167;N47.9167;13;
3;France;Bourgogne;Yonne;Rogny-les-Sept-Écluses 89324;E2.8833;N47.7333;13;
3;France;Bourgogne;Yonne;Ronchères 89325;E3.1167;N47.6500;13;
3;France;Bourgogne;Yonne;Rosoy 89326=89387;E3.3167;N48.1500;13;
3;France;Bourgogne;Yonne;Rousson 89327;E3.2667;N48.1000;13;
3;France;Bourgogne;Yonne;Rouvray 89328;E3.6667;N47.9000;13;
3;France;Bourgogne;Yonne;Rugny 89329;E4.1500;N47.9000;13;
3;France;Bourgogne;Yonne;Sacy 89330;E3.8167;N47.6667;13;
3;France;Bourgogne;Yonne;Sainpuits 89331;E3.2667;N47.5167;13;
3;France;Bourgogne;Yonne;Saint-Agnan 89332;E3.0500;N48.3000;13;
3;France;Bourgogne;Yonne;Saint-André-en-Terre-Plaine 89333;E4.0667;N47.4833;13;
3;France;Bourgogne;Yonne;Saint-Aubin-Château-Neuf 89334;E3.3000;N47.8167;13;
3;France;Bourgogne;Yonne;Saint-Aubin-sur-Yonne 89335;E3.3500;N48.0000;13;
3;France;Bourgogne;Yonne;Saint-Brancher 89336;E4.0000;N47.4333;13;
3;France;Bourgogne;Yonne;Saint-Bris-le-Vineux 89337;E3.6333;N47.7500;13;
3;France;Bourgogne;Yonne;Saint-Clément 89338;E3.3000;N48.2167;13;
3;France;Bourgogne;Yonne;Saint-Cyr-les-Colons 89341;E3.7333;N47.7500;13;
3;France;Bourgogne;Yonne;Saint-Denis 89342;E3.2667;N48.2333;13;
3;France;Bourgogne;Yonne;Saint-Denis-sur-Ouanne 89343;E3.1333;N47.8167;13;
3;France;Bourgogne;Yonne;Saint-Fargeau 89344;E3.0667;N47.6333;13;
3;France;Bourgogne;Yonne;Saint-Florentin 89345;E3.7333;N48.0000;13;
3;France;Bourgogne;Yonne;Saint-Georges-sur-Baulche 89346;E3.5333;N47.8000;13;
3;France;Bourgogne;Yonne;Saint-Germain-des-Champs 89347;E3.9167;N47.4167;13;
3;France;Bourgogne;Yonne;Saint-Julien-du-Sault 89348;E3.3000;N48.0333;13;
3;France;Bourgogne;Yonne;Saint-Léger-Vauban 89349;E4.0500;N47.3833;13;
3;France;Bourgogne;Yonne;Saint-Loup-d'Ordon 89350;E3.1667;N48.0167;13;
3;France;Bourgogne;Yonne;Saint-Martin-d'Ordon 89353;E3.1833;N48.0167;13;
3;France;Bourgogne;Yonne;Saint-Martin-des-Champs 89352;E3.0333;N47.6500;13;
3;France;Bourgogne;Yonne;Saint-Martin-du-Tertre 89354;E3.2500;N48.2167;13;
3;France;Bourgogne;Yonne;Saint-Martin-sur-Armançon 89355;E4.0667;N47.8667;13;
3;France;Bourgogne;Yonne;Saint-Martin-sur-Ocre 89356;E3.3333;N47.8167;13;
3;France;Bourgogne;Yonne;Saint-Martin-sur-Oreuse 89357=89414;E3.3333;N48.3000;13;
3;France;Bourgogne;Yonne;Saint-Martin-sur-Ouanne 89358;E3.1000;N47.8333;13;
3;France;Bourgogne;Yonne;Saint-Maurice-aux-Riches-Hommes 89359;E3.5000;N48.3500;13;
3;France;Bourgogne;Yonne;Saint-Maurice-le-Vieil 89360;E3.3500;N47.8167;13;
3;France;Bourgogne;Yonne;Saint-Maurice-Thizouaille 89361;E3.3500;N47.8333;13;
3;France;Bourgogne;Yonne;Saint-Moré 89362;E3.7833;N47.5833;13;
3;France;Bourgogne;Yonne;Saint-Père 89364;E3.7667;N47.4667;13;
3;France;Bourgogne;Yonne;Saint-Privé 89365;E3.0000;N47.6833;13;
3;France;Bourgogne;Yonne;Saint-Romain-le-Preux 89366;E3.2333;N47.9333;13;
3;France;Bourgogne;Yonne;Saint-Sauveur-en-Puisaye 89368;E3.2000;N47.6167;13;
3;France;Bourgogne;Yonne;Saint-Sérotin 89369;E3.1667;N48.2500;13;
3;France;Bourgogne;Yonne;Saint-Valérien 89370;E3.1000;N48.1833;13;
3;France;Bourgogne;Yonne;Saint-Vinnemer 89372=89407;E4.0833;N47.8333;13;
3;France;Bourgogne;Yonne;Sainte-Colombe 89339;E3.9667;N47.5667;13;
3;France;Bourgogne;Yonne;Sainte-Colombe-sur-Loing 89340;E3.2333;N47.5667;13;
3;France;Bourgogne;Yonne;Sainte-Magnance 89351;E4.0667;N47.4500;13;
3;France;Bourgogne;Yonne;Sainte-Pallaye 89363;E3.6667;N47.6500;13;
3;France;Bourgogne;Yonne;Sainte-Vertu 89371;E3.9167;N47.7500;13;
3;France;Bourgogne;Yonne;Saints 89367;E3.2667;N47.6167;13;
3;France;Bourgogne;Yonne;Saligny 89373;E3.3500;N48.2167;13;
3;France;Bourgogne;Yonne;Sambourg 89374;E4.0167;N47.7667;13;
3;France;Bourgogne;Yonne;Santigny 89375;E4.1167;N47.5667;13;
3;France;Bourgogne;Yonne;Sarry 89376;E4.0667;N47.6667;13;
3;France;Bourgogne;Yonne;Sauvigny-le-Beuréal 89377;E4.1167;N47.4833;13;
3;France;Bourgogne;Yonne;Sauvigny-le-Bois 89378;E3.9333;N47.5000;13;
3;France;Bourgogne;Yonne;Savigny-en-Terre-Plaine 89379;E4.0833;N47.5000;13;
3;France;Bourgogne;Yonne;Savigny-sur-Clairis 89380;E3.1000;N48.0667;13;
3;France;Bourgogne;Yonne;Sceaux 89381;E4.0167;N47.5333;13;
3;France;Bourgogne;Yonne;Seignelay 89382;E3.6000;N47.9000;13;
3;France;Bourgogne;Yonne;Sementron 89383;E3.3667;N47.6500;13;
3;France;Bourgogne;Yonne;Senan 89384;E3.3500;N47.9167;13;
3;France;Bourgogne;Yonne;Sennevoy-le-Bas 89385;E4.2833;N47.8000;13;
3;France;Bourgogne;Yonne;Sennevoy-le-Haut 89386;E4.2833;N47.8000;13;
3;France;Bourgogne;Yonne;Sens 89387;E3.2839;N48.1981;13;
3;France;Bourgogne;Yonne;Sépeaux 89388;E3.2333;N47.9500;13;
3;France;Bourgogne;Yonne;Septfonds 89389=89344;E3.1000;N47.7000;13;
3;France;Bourgogne;Yonne;Serbonnes 89390;E3.2000;N48.3167;13;
3;France;Bourgogne;Yonne;Sergines 89391;E3.2500;N48.3333;13;
3;France;Bourgogne;Yonne;Sermizelles 89392;E3.8000;N47.5333;13;
3;France;Bourgogne;Yonne;Serrigny 89393;E3.9167;N47.8333;13;
3;France;Bourgogne;Yonne;Sery 89394;E3.6833;N47.6167;13;
3;France;Bourgogne;Yonne;Sognes 89396=89469;E3.4500;N48.3667;13;
3;France;Bourgogne;Yonne;Sommecaise 89397;E3.2333;N47.8500;13;
3;France;Bourgogne;Yonne;Sormery 89398;E3.7667;N48.0833;13;
3;France;Bourgogne;Yonne;Soucy 89399;E3.3167;N48.2500;13;
3;France;Bourgogne;Yonne;Sougères-en-Puisaye 89400;E3.3333;N47.5667;13;
3;France;Bourgogne;Yonne;Sougères-sur-Sinotte 89401=89263;E3.6167;N47.8667;13;
3;France;Bourgogne;Yonne;Soumaintrain 89402;E3.8333;N48.0167;13;
3;France;Bourgogne;Yonne;Stigny 89403;E4.2333;N47.7667;13;
3;France;Bourgogne;Yonne;Subligny 89404;E3.2000;N48.1667;13;
3;France;Bourgogne;Yonne;Taingy 89405;E3.4000;N47.6167;13;
3;France;Bourgogne;Yonne;Talcy 89406;E4.0667;N47.5667;13;
3;France;Bourgogne;Yonne;Tanlay 89407;E4.0833;N47.8333;13;
3;France;Bourgogne;Yonne;Tannerre-en-Puisaye 89408;E3.1333;N47.7333;13;
3;France;Bourgogne;Yonne;Tharoiseau 89409;E3.8000;N47.4667;13;
3;France;Bourgogne;Yonne;Tharot 89410;E3.8667;N47.5333;13;
3;France;Bourgogne;Yonne;Theil-sur-Vanne 89411;E3.4167;N48.1667;13;
3;France;Bourgogne;Yonne;Thizy 89412;E4.0500;N47.5667;13;
3;France;Bourgogne;Yonne;Thorey 89413;E4.1167;N47.9000;13;
3;France;Bourgogne;Yonne;Thorigny-sur-Oreuse 89414;E3.4000;N48.2833;13;
3;France;Bourgogne;Yonne;Thory 89415;E3.9000;N47.5500;13;
3;France;Bourgogne;Yonne;Thury 89416;E3.2833;N47.5833;13;
3;France;Bourgogne;Yonne;Tissey 89417;E3.9000;N47.8500;13;
3;France;Bourgogne;Yonne;Tonnerre 89418;E3.9667;N47.8500;13;
3;France;Bourgogne;Yonne;Toucy 89419;E3.3000;N47.7333;13;
3;France;Bourgogne;Yonne;Treigny 89420;E3.1833;N47.5500;13;
3;France;Bourgogne;Yonne;Trévilly 89421;E4.0667;N47.5333;13;
3;France;Bourgogne;Yonne;Trichey 89422;E4.1333;N47.9333;13;
3;France;Bourgogne;Yonne;Tronchoy 89423;E3.9500;N47.9167;13;
3;France;Bourgogne;Yonne;Trucy-sur-Yonne 89424;E3.6667;N47.6333;13;
3;France;Bourgogne;Yonne;Turny 89425;E3.7500;N48.0333;13;
3;France;Bourgogne;Yonne;Val-de-Mercy 89426;E3.5833;N47.6833;13;
3;France;Bourgogne;Yonne;Vallan 89427;E3.5333;N47.7500;13;
3;France;Bourgogne;Yonne;Vallery 89428;E3.0500;N48.2333;13;
3;France;Bourgogne;Yonne;Vareilles 89429;E3.4667;N48.1667;13;
3;France;Bourgogne;Yonne;Varennes 89430;E3.7833;N47.9000;13;
3;France;Bourgogne;Yonne;Vassy 89431;E4.1667;N47.5667;13;
3;France;Bourgogne;Yonne;Vaudeurs 89432;E3.5500;N48.1333;13;
3;France;Bourgogne;Yonne;Vault-de-Lugny 89433;E3.8500;N47.5000;13;
3;France;Bourgogne;Yonne;Vaumort 89434;E3.4333;N48.1500;13;
3;France;Bourgogne;Yonne;Vaux 89435=89024;E3.5833;N47.7500;13;
3;France;Bourgogne;Yonne;Venizy 89436;E3.7167;N48.0333;13;
3;France;Bourgogne;Yonne;Venouse 89437;E3.6833;N47.9000;13;
3;France;Bourgogne;Yonne;Venoy 89438;E3.6333;N47.8000;13;
3;France;Bourgogne;Yonne;Vergigny 89439;E3.7167;N47.9667;13;
3;France;Bourgogne;Yonne;Verlin 89440;E3.2333;N48.0167;13;
3;France;Bourgogne;Yonne;Vermenton 89441;E3.7333;N47.6667;13;
3;France;Bourgogne;Yonne;Vernoy 89442;E3.1167;N48.0833;13;
3;France;Bourgogne;Yonne;Véron 89443;E3.3000;N48.1333;13;
3;France;Bourgogne;Yonne;Vertilly 89444=89469;E3.3833;N48.3500;13;
3;France;Bourgogne;Yonne;Vézannes 89445;E3.8667;N47.8667;13;
3;France;Bourgogne;Yonne;Vézelay 89446;E3.7333;N47.4667;13;
3;France;Bourgogne;Yonne;Vézinnes 89447;E3.9500;N47.8833;13;
3;France;Bourgogne;Yonne;Vignes 89448;E4.1167;N47.5333;13;
3;France;Bourgogne;Yonne;Villeblevin 89449;E3.0833;N48.3167;13;
3;France;Bourgogne;Yonne;Villebougis 89450;E3.1500;N48.2000;13;
3;France;Bourgogne;Yonne;Villechétive 89451;E3.5000;N48.1000;13;
3;France;Bourgogne;Yonne;Villecien 89452;E3.3333;N48.0000;13;
3;France;Bourgogne;Yonne;Villefargeau 89453;E3.5000;N47.7833;13;
3;France;Bourgogne;Yonne;Villefranche 89454;E3.1167;N47.9333;13;
3;France;Bourgogne;Yonne;Villegardin 89455=89264;E3.0083;N48.1710;13;
3;France;Bourgogne;Yonne;Villemanoche 89456;E3.1833;N48.3000;13;
3;France;Bourgogne;Yonne;Villemer 89457;E3.4833;N47.9167;13;
3;France;Bourgogne;Yonne;Villenavotte 89458;E3.2333;N48.2500;13;
3;France;Bourgogne;Yonne;Villeneuve-l'Archevêque 89461;E3.5500;N48.2333;13;
3;France;Bourgogne;Yonne;Villeneuve-la-Dondagre 89459;E3.1333;N48.1333;13;
3;France;Bourgogne;Yonne;Villeneuve-la-Guyard 89460;E3.0667;N48.3333;13;
3;France;Bourgogne;Yonne;Villeneuve-les-Genêts 89462;E3.1000;N47.7333;13;
3;France;Bourgogne;Yonne;Villeneuve-Saint-Salves 89463;E3.6500;N47.8500;13;
3;France;Bourgogne;Yonne;Villeneuve-sur-Yonne 89464;E3.3000;N48.0833;13;
3;France;Bourgogne;Yonne;Villeperrot 89465;E3.2333;N48.2667;13;
3;France;Bourgogne;Yonne;Villeroy 89466;E3.1833;N48.1667;13;
3;France;Bourgogne;Yonne;Villethierry 89467;E3.0667;N48.2667;13;
3;France;Bourgogne;Yonne;Villevallier 89468;E3.3167;N48.0167;13;
3;France;Bourgogne;Yonne;Villiers-les-Hauts 89470;E4.1500;N47.7333;13;
3;France;Bourgogne;Yonne;Villiers-Louis 89471;E3.4000;N48.1833;13;
3;France;Bourgogne;Yonne;Villiers-Saint-Benoît 89472;E3.2167;N47.7833;13;
3;France;Bourgogne;Yonne;Villiers-sur-Tholon 89473;E3.3333;N47.8833;13;
3;France;Bourgogne;Yonne;Villiers-Vineux 89474;E3.8167;N47.9333;13;
3;France;Bourgogne;Yonne;Villon 89475;E4.1833;N47.9000;13;
3;France;Bourgogne;Yonne;Villy 89477;E3.7500;N47.8667;13;
3;France;Bourgogne;Yonne;Vincelles 89478;E3.6333;N47.7000;13;
3;France;Bourgogne;Yonne;Vincelottes 89479;E3.6333;N47.7167;13;
3;France;Bourgogne;Yonne;Vinneuf 89480;E3.1333;N48.3500;13;
3;France;Bourgogne;Yonne;Vireaux 89481;E4.0500;N47.7833;13;
3;France;Bourgogne;Yonne;Viviers 89482;E3.9167;N47.8000;13;
3;France;Bourgogne;Yonne;Voisines 89483;E3.3833;N48.2500;13;
3;France;Bourgogne;Yonne;Volgré 89484;E3.3167;N47.9167;13;
3;France;Bourgogne;Yonne;Voutenay-sur-Cure 89485;E3.7833;N47.5500;13;
3;France;Bourgogne;Yonne;Yrouerre 89486;E3.9500;N47.7833;13;
