"Level";"Country";"State";"County";"Place";"Longitude";"Latitude";"ZoomLevel";"Icon"
2;FRA;Franche-Comté;Doubs;;E6.4215;N47.2401;9;
3;FRA;Franche-Comté;Doubs;Abbans-Dessous 25001;E5.8833;N47.1333;13;
3;FRA;Franche-Comté;Doubs;Abbans-Dessus 25002;E5.8833;N47.1167;13;
3;FRA;Franche-Comté;Doubs;Abbenans 25003;E6.4500;N47.5000;13;
3;FRA;Franche-Comté;Doubs;Abbévillers 25004;E6.9167;N47.4333;13;
3;FRA;Franche-Comté;Doubs;Accolans 25005;E6.5333;N47.5000;13;
3;FRA;Franche-Comté;Doubs;Adam-lès-Passavant 25006;E6.3667;N47.3000;13;
3;FRA;Franche-Comté;Doubs;Adam-lès-Vercel 25007;E6.4000;N47.1667;13;
3;FRA;Franche-Comté;Doubs;Aibre 25008;E6.7000;N47.5500;13;
3;FRA;Franche-Comté;Doubs;Aïssey 25009;E6.3333;N47.2667;13;
3;FRA;Franche-Comté;Doubs;Alaise 25010=25223;E5.9667;N47.0167;13;
3;FRA;Franche-Comté;Doubs;Allenjoie 25011;E6.9000;N47.5333;13;
3;FRA;Franche-Comté;Doubs;Allondans 25013;E6.7500;N47.5167;13;
3;FRA;Franche-Comté;Doubs;Amagney 25014;E6.1500;N47.3000;13;
3;FRA;Franche-Comté;Doubs;Amancey 25015;E6.0833;N47.0333;13;
3;FRA;Franche-Comté;Doubs;Amathay-Vésigneux 25016;E6.2000;N47.0167;13;
3;FRA;Franche-Comté;Doubs;Amondans 25017;E6.0333;N47.0667;13;
3;FRA;Franche-Comté;Doubs;Anteuil 25018;E6.5667;N47.3833;13;
3;FRA;Franche-Comté;Doubs;Appenans 25019;E5.8000;N47.1833;13;
3;FRA;Franche-Comté;Doubs;Arbouans 25020;E6.8167;N47.4833;13;
3;FRA;Franche-Comté;Doubs;Arc-et-Senans 25021;E5.7667;N47.0333;13;
3;FRA;Franche-Comté;Doubs;Arc-sous-Cicon 25025;E6.3833;N47.0500;13;
3;FRA;Franche-Comté;Doubs;Arc-sous-Montenot 25026;E6.0000;N46.9167;13;
3;FRA;Franche-Comté;Doubs;Arcey 25022;E6.6667;N47.5167;13;
3;FRA;Franche-Comté;Doubs;Arcier 25023=25575;E6.1208;N47.2709;13;
3;FRA;Franche-Comté;Doubs;Arçon 25024;E6.3833;N46.9500;13;
3;FRA;Franche-Comté;Doubs;Arguel 25027;E6.0000;N47.2000;13;
3;FRA;Franche-Comté;Doubs;Athose 25028;E6.3167;N47.0833;13;
3;FRA;Franche-Comté;Doubs;Aubonne 25029;E6.3333;N47.0333;13;
3;FRA;Franche-Comté;Doubs;Audeux 25030;E5.8833;N47.2667;13;
3;FRA;Franche-Comté;Doubs;Audincourt 25031;E6.8333;N47.4833;13;
3;FRA;Franche-Comté;Doubs;Autechaux 25032;E6.3833;N47.3833;13;
3;FRA;Franche-Comté;Doubs;Autechaux-Roide 25033;E6.8167;N47.3833;13;
3;FRA;Franche-Comté;Doubs;Auxon-Dessous 25034;E5.9500;N47.3000;13;
3;FRA;Franche-Comté;Doubs;Auxon-Dessus 25035;E5.9667;N47.3000;13;
3;FRA;Franche-Comté;Doubs;Avanne-Aveney 25036;E5.9609;N47.1977;13;
3;FRA;Franche-Comté;Doubs;Aveney 25037=25036;E5.9667;N47.2000;13;
3;FRA;Franche-Comté;Doubs;Avilley 25038;E6.2667;N47.4333;13;
3;FRA;Franche-Comté;Doubs;Avoudrey 25039;E6.4333;N47.1333;13;
3;FRA;Franche-Comté;Doubs;Badevel 25040;E6.9333;N47.5000;13;
3;FRA;Franche-Comté;Doubs;Bannans 25041;E6.2333;N46.8833;13;
3;FRA;Franche-Comté;Doubs;Bart 25043;E6.7667;N47.4833;13;
3;FRA;Franche-Comté;Doubs;Bartherans 25044;E5.9333;N47.0333;13;
3;FRA;Franche-Comté;Doubs;Battenans-les-Mines 25045;E6.2667;N47.4167;13;
3;FRA;Franche-Comté;Doubs;Battenans-Varin 25046;E6.7065;N47.2285;13;
3;FRA;Franche-Comté;Doubs;Baume-les-Dames 25047;E6.3667;N47.3500;13;
3;FRA;Franche-Comté;Doubs;Bavans 25048;E6.7333;N47.4833;13;
3;FRA;Franche-Comté;Doubs;Belfays 25049;E6.9000;N47.2667;13;
3;FRA;Franche-Comté;Doubs;Belleherbe 25051;E6.6667;N47.2667;13;
3;FRA;Franche-Comté;Doubs;Belmont 25052;E6.3667;N47.2218;13;
3;FRA;Franche-Comté;Doubs;Belvoir 25053;E6.6000;N47.3167;13;
3;FRA;Franche-Comté;Doubs;Berche 25054;E6.7500;N47.4667;13;
3;FRA;Franche-Comté;Doubs;Berthelange 25055;E5.7833;N47.2000;13;
3;FRA;Franche-Comté;Doubs;Besançon 25056;E6.0333;N47.2500;13;
3;FRA;Franche-Comté;Doubs;Bethoncourt 25057;E6.8000;N47.5333;13;
3;FRA;Franche-Comté;Doubs;Beure 25058;E6.0000;N47.2000;13;
3;FRA;Franche-Comté;Doubs;Beutal 25059;E6.6500;N47.4667;13;
3;FRA;Franche-Comté;Doubs;Bians-les-Usiers 25060;E6.2667;N46.9667;13;
3;FRA;Franche-Comté;Doubs;Bief 25061;E6.7667;N47.3333;13;
3;FRA;Franche-Comté;Doubs;Blamont 25063;E6.8500;N47.3833;13;
3;FRA;Franche-Comté;Doubs;Blanchefontaine 25064=25433;E6.7667;N47.2833;13;
3;FRA;Franche-Comté;Doubs;Blarians 25065;E6.1833;N47.4167;13;
3;FRA;Franche-Comté;Doubs;Blussangeaux 25066;E6.6167;N47.4333;13;
3;FRA;Franche-Comté;Doubs;Blussans 25067;E6.6000;N47.4333;13;
3;FRA;Franche-Comté;Doubs;Bois-la-Ville 25068=25313;E6.4167;N47.3667;13;
3;FRA;Franche-Comté;Doubs;Boismurie 25069=25527;E5.8231;N47.2067;13;
3;FRA;Franche-Comté;Doubs;Bolandoz 25070;E6.1167;N47.0167;13;
3;FRA;Franche-Comté;Doubs;Bondeval 25071;E6.8500;N47.4500;13;
3;FRA;Franche-Comté;Doubs;Bonnal 25072;E6.3500;N47.5000;13;
3;FRA;Franche-Comté;Doubs;Bonnay 25073;E6.0500;N47.3333;13;
3;FRA;Franche-Comté;Doubs;Bonnétage 25074;E6.7000;N47.2000;13;
3;FRA;Franche-Comté;Doubs;Bonnevaux 25075;E6.1833;N46.8167;13;
3;FRA;Franche-Comté;Doubs;Bonnevaux-le-Prieuré 25076;E6.1667;N47.1333;13;
3;FRA;Franche-Comté;Doubs;Bouclans 25078;E6.2500;N47.2333;13;
3;FRA;Franche-Comté;Doubs;Boujailles 25079;E6.0833;N46.8833;13;
3;FRA;Franche-Comté;Doubs;Boujeons 25080=25486;E6.2083;N46.7500;13;
3;FRA;Franche-Comté;Doubs;Bourguignon 25082;E6.7833;N47.4167;13;
3;FRA;Franche-Comté;Doubs;Bournois 25083;E6.5000;N47.5000;13;
3;FRA;Franche-Comté;Doubs;Boussières 25084;E5.9000;N47.1500;13;
3;FRA;Franche-Comté;Doubs;Bouverans 25085;E6.2000;N46.8500;13;
3;FRA;Franche-Comté;Doubs;Braillans 25086;E6.0918;N47.3088;13;
3;FRA;Franche-Comté;Doubs;Branne 25087;E6.4667;N47.3833;13;
3;FRA;Franche-Comté;Doubs;Breconchaux 25088;E6.2667;N47.3333;13;
3;FRA;Franche-Comté;Doubs;Bremondans 25089;E6.4000;N47.2333;13;
3;FRA;Franche-Comté;Doubs;Brères 25090;E5.8630;N47.0601;13;
3;FRA;Franche-Comté;Doubs;Bretigney 25093;E6.6333;N47.4833;13;
3;FRA;Franche-Comté;Doubs;Bretigney-Notre-Dame 25094;E6.3000;N47.3167;13;
3;FRA;Franche-Comté;Doubs;Bretonvillers 25095;E6.6333;N47.2167;13;
3;FRA;Franche-Comté;Doubs;Brey-et-Maison-du-Bois 25096;E6.2517;N46.7420;13;
3;FRA;Franche-Comté;Doubs;Brognard 25097;E6.8667;N47.5333;13;
3;FRA;Franche-Comté;Doubs;Buffard 25098;E5.8333;N47.0333;13;
3;FRA;Franche-Comté;Doubs;Bugny 25099;E6.3500;N47.0000;13;
3;FRA;Franche-Comté;Doubs;Bulle 25100;E6.2333;N46.9000;13;
3;FRA;Franche-Comté;Doubs;Burgille 25101;E5.7833;N47.2667;13;
3;FRA;Franche-Comté;Doubs;Burnevillers 25102;E7.0000;N47.3167;13;
3;FRA;Franche-Comté;Doubs;Busy 25103;E5.9500;N47.1667;13;
3;FRA;Franche-Comté;Doubs;By 25104;E5.9000;N47.0167;13;
3;FRA;Franche-Comté;Doubs;Byans-sur-Doubs 25105;E5.8667;N47.1167;13;
3;FRA;Franche-Comté;Doubs;Cademène 25106;E6.0333;N47.1000;13;
3;FRA;Franche-Comté;Doubs;Cendrey 25107;E6.2500;N47.4000;13;
3;FRA;Franche-Comté;Doubs;Cernay-l'Église 25108;E6.8333;N47.2667;13;
3;FRA;Franche-Comté;Doubs;Cessey 25109;E5.9167;N47.1000;13;
3;FRA;Franche-Comté;Doubs;Chaffois 25110;E6.2667;N46.9167;13;
3;FRA;Franche-Comté;Doubs;Chalèze 25111;E6.0833;N47.2667;13;
3;FRA;Franche-Comté;Doubs;Chalezeule 25112;E6.0833;N47.2667;13;
3;FRA;Franche-Comté;Doubs;Chamesey 25113;E6.6500;N47.2333;13;
3;FRA;Franche-Comté;Doubs;Chamesol 25114;E6.8333;N47.3500;13;
3;FRA;Franche-Comté;Doubs;Champagney 25115;E5.9062;N47.2564;13;
3;FRA;Franche-Comté;Doubs;Champlive 25116;E6.2500;N47.2833;13;
3;FRA;Franche-Comté;Doubs;Champoux 25117;E6.1333;N47.3333;13;
3;FRA;Franche-Comté;Doubs;Champvans-les-Baume 25118=25047;E6.3500;N47.3500;13;
3;FRA;Franche-Comté;Doubs;Champvans-les-Moulins 25119;E5.9167;N47.2500;13;
3;FRA;Franche-Comté;Doubs;Chantrans 25120;E6.1500;N47.0500;13;
3;FRA;Franche-Comté;Doubs;Chapelle-d'Huin 25122;E6.1667;N46.9333;13;
3;FRA;Franche-Comté;Doubs;Chapelle-des-Bois 25121;E6.1167;N46.6000;13;
3;FRA;Franche-Comté;Doubs;Charbonnières-les-Sapins 25123;E6.2167;N47.1500;13;
3;FRA;Franche-Comté;Doubs;Charmauvillers 25124;E6.9167;N47.2333;13;
3;FRA;Franche-Comté;Doubs;Charmoille 25125;E6.6667;N47.2500;13;
3;FRA;Franche-Comté;Doubs;Charnay 25126;E5.9500;N47.1333;13;
3;FRA;Franche-Comté;Doubs;Charquemont 25127;E6.8167;N47.2167;13;
3;FRA;Franche-Comté;Doubs;Chasnans 25128;E6.3167;N47.0833;13;
3;FRA;Franche-Comté;Doubs;Chassagne-Saint-Denis 25129;E6.1167;N47.0833;13;
3;FRA;Franche-Comté;Doubs;Châteauvieux-les-Fossés 25130;E6.2036;N47.0639;13;
3;FRA;Franche-Comté;Doubs;Châtelblanc 25131;E6.1167;N46.6750;13;
3;FRA;Franche-Comté;Doubs;Châtillon-Guyotte 25132;E6.1667;N47.3333;13;
3;FRA;Franche-Comté;Doubs;Châtillon-le-Duc 25133;E6.0167;N47.3000;13;
3;FRA;Franche-Comté;Doubs;Châtillon-sous-Maîche 25135=25138;E6.7505;N47.3123;13;
3;FRA;Franche-Comté;Doubs;Châtillon-sur-Lison 25134;E5.9805;N47.0672;13;
3;FRA;Franche-Comté;Doubs;Chaucenne 25136;E5.9000;N47.2833;13;
3;FRA;Franche-Comté;Doubs;Chaudefontaine 25137;E6.1667;N47.3333;13;
3;FRA;Franche-Comté;Doubs;Chaux-lès-Clerval 25140;E6.5167;N47.3833;13;
3;FRA;Franche-Comté;Doubs;Chaux-lès-Passavant 25141;E6.3667;N47.2333;13;
3;FRA;Franche-Comté;Doubs;Chaux-Neuve 25142;E6.1335;N46.6798;13;
3;FRA;Franche-Comté;Doubs;Chay 25143;E5.8667;N47.0333;13;
3;FRA;Franche-Comté;Doubs;Chazelot 25144=25505;E6.3333;N47.4833;13;
3;FRA;Franche-Comté;Doubs;Chazot 25145;E6.5500;N47.3333;13;
3;FRA;Franche-Comté;Doubs;Chazoy 25146=25101;E5.7876;N47.2660;13;
3;FRA;Franche-Comté;Doubs;Chemaudin 25147;E5.9000;N47.2167;13;
3;FRA;Franche-Comté;Doubs;Chenecey-Buillon 25149;E5.9667;N47.1333;13;
3;FRA;Franche-Comté;Doubs;Chevigney-lès-Vercel 25151;E6.3716;N47.1645;13;
3;FRA;Franche-Comté;Doubs;Chevigney-sur-l'Ognon 25150;E5.8333;N47.3000;13;
3;FRA;Franche-Comté;Doubs;Chevroz 25153;E6.0000;N47.3333;13;
3;FRA;Franche-Comté;Doubs;Chouzelot 25154;E5.9000;N47.1000;13;
3;FRA;Franche-Comté;Doubs;Cléron 25155;E6.0667;N47.0833;13;
3;FRA;Franche-Comté;Doubs;Clerval 25156;E6.5000;N47.4000;13;
3;FRA;Franche-Comté;Doubs;Colombier-Châtelot 25158=25524;E6.6333;N47.4333;13;
3;FRA;Franche-Comté;Doubs;Colombier-Fontaine 25159;E6.7000;N47.4500;13;
3;FRA;Franche-Comté;Doubs;Consolation-Maisonnettes 25161;E6.6000;N47.1500;13;
3;FRA;Franche-Comté;Doubs;Corcelle-Mieslot 25163;E6.1833;N47.3667;13;
3;FRA;Franche-Comté;Doubs;Corcelles-Ferrières 25162;E5.8106;N47.2270;13;
3;FRA;Franche-Comté;Doubs;Corcondray 25164;E5.8333;N47.2333;13;
3;FRA;Franche-Comté;Doubs;Cordiron 25165=25101;E5.8000;N47.2667;13;
3;FRA;Franche-Comté;Doubs;Côtebrune 25166;E6.3167;N47.2500;13;
3;FRA;Franche-Comté;Doubs;Cottier 25167=25374;E5.7667;N47.2167;13;
3;FRA;Franche-Comté;Doubs;Coulans-sur-Lizon 25168=25223;E6.0226;N47.0265;13;
3;FRA;Franche-Comté;Doubs;Cour-Saint-Maurice 25173;E6.7000;N47.2500;13;
3;FRA;Franche-Comté;Doubs;Courcelles 25171;E5.9571;N47.0946;13;
3;FRA;Franche-Comté;Doubs;Courcelles-lès-Châtillon 25169=25138;E6.7163;N47.3096;13;
3;FRA;Franche-Comté;Doubs;Courcelles-lès-Montbéliard 25170;E6.7812;N47.4985;13;
3;FRA;Franche-Comté;Doubs;Courchapon 25172;E5.7500;N47.2667;13;
3;FRA;Franche-Comté;Doubs;Courtefontaine 25174;E6.9167;N47.3167;13;
3;FRA;Franche-Comté;Doubs;Courtetain-et-Salans 25175;E6.4167;N47.2500;13;
3;FRA;Franche-Comté;Doubs;Courvières 25176;E6.1167;N46.8667;13;
3;FRA;Franche-Comté;Doubs;Crosey-le-Grand 25177;E6.5333;N47.3500;13;
3;FRA;Franche-Comté;Doubs;Crosey-le-Petit 25178;E6.4833;N47.3500;13;
3;FRA;Franche-Comté;Doubs;Crouzet-Migette 25180;E6.0167;N46.9500;13;
3;FRA;Franche-Comté;Doubs;Cubrial 25181;E6.4167;N47.5000;13;
3;FRA;Franche-Comté;Doubs;Cubry 25182;E6.4167;N47.5000;13;
3;FRA;Franche-Comté;Doubs;Cusance 25183;E6.4167;N47.3167;13;
3;FRA;Franche-Comté;Doubs;Cuse-et-Adrisans 25184;E6.4000;N47.4833;13;
3;FRA;Franche-Comté;Doubs;Cussey-sur-l'Ognon 25186;E5.9333;N47.3333;13;
3;FRA;Franche-Comté;Doubs;Cussey-sur-Lison 25185;E5.9552;N47.0598;13;
3;FRA;Franche-Comté;Doubs;Dambelin 25187;E6.6833;N47.3833;13;
3;FRA;Franche-Comté;Doubs;Dambenois 25188;E6.8667;N47.5500;13;
3;FRA;Franche-Comté;Doubs;Dammartin-les-Templiers 25189;E6.2667;N47.2833;13;
3;FRA;Franche-Comté;Doubs;Dampierre-les-Bois 25190;E6.9167;N47.5000;13;
3;FRA;Franche-Comté;Doubs;Dampierre-sur-le-Doubs 25191;E6.7333;N47.4667;13;
3;FRA;Franche-Comté;Doubs;Dampjoux 25192;E6.7667;N47.3500;13;
3;FRA;Franche-Comté;Doubs;Damprichard 25193;E6.8833;N47.2500;13;
3;FRA;Franche-Comté;Doubs;Dannemarie 25194;E6.9000;N47.3833;13;
3;FRA;Franche-Comté;Doubs;Dannemarie-sur-Crète 25195;E5.8667;N47.2000;13;
3;FRA;Franche-Comté;Doubs;Dasle 25196;E6.9000;N47.4833;13;
3;FRA;Franche-Comté;Doubs;Deluz 25197;E6.2000;N47.3000;13;
3;FRA;Franche-Comté;Doubs;Désandans 25198;E6.6667;N47.5333;13;
3;FRA;Franche-Comté;Doubs;Déservillers 25199;E6.0667;N47.0000;13;
3;FRA;Franche-Comté;Doubs;Devecey 25200;E6.0167;N47.3333;13;
3;FRA;Franche-Comté;Doubs;Dommartin 25201;E6.3167;N46.9167;13;
3;FRA;Franche-Comté;Doubs;Dompierre-les-Tilleuls 25202;E6.1833;N46.8667;13;
3;FRA;Franche-Comté;Doubs;Domprel 25203;E6.4667;N47.2000;13;
3;FRA;Franche-Comté;Doubs;Doubs 25204;E6.3500;N46.9333;13;
3;FRA;Franche-Comté;Doubs;Doulaize 25205=25223;E5.9833;N47.0333;13;
3;FRA;Franche-Comté;Doubs;Droitfontaine 25206=25051;E6.7000;N47.2833;13;
3;FRA;Franche-Comté;Doubs;Dung 25207;E6.7500;N47.5000;13;
3;FRA;Franche-Comté;Doubs;Durnes 25208;E6.2333;N47.1000;13;
3;FRA;Franche-Comté;Doubs;Échay 25209;E5.9500;N47.0500;13;
3;FRA;Franche-Comté;Doubs;Échenans 25210;E6.6954;N47.5270;13;
3;FRA;Franche-Comté;Doubs;Échevannes 25211;E6.2306;N47.0741;13;
3;FRA;Franche-Comté;Doubs;École-Valentin 25212;E5.9824;N47.2713;13;
3;FRA;Franche-Comté;Doubs;Écot 25214;E6.7333;N47.4333;13;
3;FRA;Franche-Comté;Doubs;Écurcey 25216;E6.8167;N47.4000;13;
3;FRA;Franche-Comté;Doubs;Émagny 25217;E5.8667;N47.3167;13;
3;FRA;Franche-Comté;Doubs;Épenouse 25218;E6.4000;N47.2167;13;
3;FRA;Franche-Comté;Doubs;Épenoy 25219;E6.3667;N47.1333;13;
3;FRA;Franche-Comté;Doubs;Épeugney 25220;E6.0333;N47.1167;13;
3;FRA;Franche-Comté;Doubs;Esnans 25221;E6.3167;N47.3333;13;
3;FRA;Franche-Comté;Doubs;Étalans 25222;E6.2667;N47.1500;13;
3;FRA;Franche-Comté;Doubs;Éternoz 25223;E6.0333;N47.0000;13;
3;FRA;Franche-Comté;Doubs;Étouvans 25224;E6.7167;N47.4667;13;
3;FRA;Franche-Comté;Doubs;Étrabonne 25225;E5.7500;N47.2333;13;
3;FRA;Franche-Comté;Doubs;Étrappe 25226;E6.5833;N47.4667;13;
3;FRA;Franche-Comté;Doubs;Étray 25227;E6.3500;N47.1167;13;
3;FRA;Franche-Comté;Doubs;Étupes 25228;E6.8667;N47.5000;13;
3;FRA;Franche-Comté;Doubs;Évillers 25229;E6.2333;N47.0000;13;
3;FRA;Franche-Comté;Doubs;Exincourt 25230;E6.8333;N47.5000;13;
3;FRA;Franche-Comté;Doubs;Eysson 25231;E6.4333;N47.2000;13;
3;FRA;Franche-Comté;Doubs;Faimbe 25232;E6.6167;N47.4833;13;
3;FRA;Franche-Comté;Doubs;Fallerans 25233;E6.2833;N47.1333;13;
3;FRA;Franche-Comté;Doubs;Ferrières-le-Lac 25234;E6.9000;N47.2667;13;
3;FRA;Franche-Comté;Doubs;Ferrières-les-Bois 25235;E5.8000;N47.2000;13;
3;FRA;Franche-Comté;Doubs;Fertans 25236;E6.0667;N47.0500;13;
3;FRA;Franche-Comté;Doubs;Fesches-le-Châtel 25237;E6.9000;N47.5167;13;
3;FRA;Franche-Comté;Doubs;Fessevillers 25238;E6.9167;N47.2833;13;
3;FRA;Franche-Comté;Doubs;Feule 25239;E6.7333;N47.3500;13;
3;FRA;Franche-Comté;Doubs;Flagey 25241;E6.1167;N47.0333;13;
3;FRA;Franche-Comté;Doubs;Flagey-Rigney 25242;E6.2333;N47.4167;13;
3;FRA;Franche-Comté;Doubs;Flangebouche 25243;E6.4667;N47.1333;13;
3;FRA;Franche-Comté;Doubs;Fleurey 25244;E6.7833;N47.3000;13;
3;FRA;Franche-Comté;Doubs;Fontain 25245;E6.0167;N47.2000;13;
3;FRA;Franche-Comté;Doubs;Fontaine-lès-Clerval 25246;E6.4717;N47.4256;13;
3;FRA;Franche-Comté;Doubs;Fontenelle-Montby 25247;E6.4167;N47.4500;13;
3;FRA;Franche-Comté;Doubs;Fontenotte 25249;E6.3167;N47.3833;13;
3;FRA;Franche-Comté;Doubs;Foucherans 25250;E5.4528;N47.0804;13;
3;FRA;Franche-Comté;Doubs;Fourbanne 25251;E6.3000;N47.3333;13;
3;FRA;Franche-Comté;Doubs;Fourcatier-et-Maison-Neuve 25252;E6.3211;N46.7657;13;
3;FRA;Franche-Comté;Doubs;Fourg 25253;E5.8167;N47.1000;13;
3;FRA;Franche-Comté;Doubs;Fournet-Blancheroche 25255;E6.8333;N47.1667;13;
3;FRA;Franche-Comté;Doubs;Fournets-Luisans 25288;E6.5639;N47.1117;13;
3;FRA;Franche-Comté;Doubs;Frambouhans 25256;E6.7667;N47.2167;13;
3;FRA;Franche-Comté;Doubs;Franey 25257;E5.8167;N47.2667;13;
3;FRA;Franche-Comté;Doubs;Franois 25258;E5.9333;N47.2333;13;
3;FRA;Franche-Comté;Doubs;Frasne 25259;E6.1580;N46.8557;13;
3;FRA;Franche-Comté;Doubs;Froidevaux 25261;E6.7000;N47.3000;13;
3;FRA;Franche-Comté;Doubs;Fuans 25262;E6.5833;N47.1333;13;
3;FRA;Franche-Comté;Doubs;Gellin 25263;E6.2515;N46.7417;13;
3;FRA;Franche-Comté;Doubs;Gémonval 25264;E6.5833;N47.5333;13;
3;FRA;Franche-Comté;Doubs;Geneuille 25265;E5.9667;N47.3167;13;
3;FRA;Franche-Comté;Doubs;Geney 25266;E6.5667;N47.4833;13;
3;FRA;Franche-Comté;Doubs;Gennes 25267;E6.1167;N47.2500;13;
3;FRA;Franche-Comté;Doubs;Germéfontaine 25268;E6.4667;N47.2167;13;
3;FRA;Franche-Comté;Doubs;Germondans 25269;E6.1833;N47.4167;13;
3;FRA;Franche-Comté;Doubs;Gevresin 25270;E6.0500;N46.9667;13;
3;FRA;Franche-Comté;Doubs;Gilley 25271;E6.4833;N47.0500;13;
3;FRA;Franche-Comté;Doubs;Glainans 25272=25018;E6.5833;N47.3833;13;
3;FRA;Franche-Comté;Doubs;Glamondans 25273;E6.2833;N47.2667;13;
3;FRA;Franche-Comté;Doubs;Glay 25274;E6.8833;N47.4000;13;
3;FRA;Franche-Comté;Doubs;Glère 25275;E7.0000;N47.3500;13;
3;FRA;Franche-Comté;Doubs;Gondenans-les-Moulins 25277;E6.3833;N47.4667;13;
3;FRA;Franche-Comté;Doubs;Gondenans-Montby 25276;E6.4500;N47.4333;13;
3;FRA;Franche-Comté;Doubs;Gonsans 25278;E6.3000;N47.2333;13;
3;FRA;Franche-Comté;Doubs;Gouhelans 25279;E6.3500;N47.4500;13;
3;FRA;Franche-Comté;Doubs;Goumois 25280;E6.9500;N47.2667;13;
3;FRA;Franche-Comté;Doubs;Goux-lès-Dambelin 25281;E6.6667;N47.4000;13;
3;FRA;Franche-Comté;Doubs;Goux-les-Usiers 25282;E6.2833;N46.9667;13;
3;FRA;Franche-Comté;Doubs;Goux-sous-Landet 25283;E5.9333;N47.0833;13;
3;FRA;Franche-Comté;Doubs;Grand-Charmont 25284;E6.8333;N47.5333;13;
3;FRA;Franche-Comté;Doubs;Grand'Combe-Châteleu 25285;E6.5697;N47.0272;13;
3;FRA;Franche-Comté;Doubs;Grand'Combe-des-Bois 25286;E6.8000;N47.1333;13;
3;FRA;Franche-Comté;Doubs;Grandfontaine 25287;E5.9000;N47.2000;13;
3;FRA;Franche-Comté;Doubs;Grandfontaine-sur-Creuse 25289;E6.4500;N47.2000;13;
3;FRA;Franche-Comté;Doubs;Granges-de-Vienney 25291=25417;E6.2249;N47.1964;13;
3;FRA;Franche-Comté;Doubs;Granges-Maillot 25292=25334;E6.1365;N46.9882;13;
3;FRA;Franche-Comté;Doubs;Granges-Narboz 25293;E6.3167;N46.8833;13;
3;FRA;Franche-Comté;Doubs;Granges-Sainte-Marie 25294=25320;E6.2833;N46.7833;13;
3;FRA;Franche-Comté;Doubs;Grosbois 25298;E6.3000;N47.3500;13;
3;FRA;Franche-Comté;Doubs;Guillon-les-Bains 25299;E6.4000;N47.3167;13;
3;FRA;Franche-Comté;Doubs;Guyans-Durnes 25300;E6.2500;N47.1167;13;
3;FRA;Franche-Comté;Doubs;Guyans-Vennes 25301;E6.5667;N47.1500;13;
3;FRA;Franche-Comté;Doubs;Hautepierre-le-Châtelet 25302;E6.2863;N47.0478;13;
3;FRA;Franche-Comté;Doubs;Hauterive-la-Fresse 25303;E6.4500;N46.9667;13;
3;FRA;Franche-Comté;Doubs;Hérimoncourt 25304;E6.8833;N47.4333;13;
3;FRA;Franche-Comté;Doubs;Houtaud 25309;E6.3167;N46.9167;13;
3;FRA;Franche-Comté;Doubs;Huanne-Montmartin 25310;E6.3500;N47.4333;13;
3;FRA;Franche-Comté;Doubs;Hyémondans 25311;E6.6500;N47.3833;13;
3;FRA;Franche-Comté;Doubs;Hyèvre-Magny 25312;E6.4333;N47.3667;13;
3;FRA;Franche-Comté;Doubs;Hyèvre-Paroisse 25313;E6.4333;N47.3667;13;
3;FRA;Franche-Comté;Doubs;Indevillers 25314;E6.9500;N47.3167;13;
3;FRA;Franche-Comté;Doubs;Issans 25316;E6.7333;N47.5333;13;
3;FRA;Franche-Comté;Doubs;Jallerange 25317;E5.7167;N47.2500;13;
3;FRA;Franche-Comté;Doubs;Jougne 25318;E6.4000;N46.7667;13;
3;FRA;Franche-Comté;Doubs;L'Écouvotte 25215;E6.2500;N47.3333;13;
3;FRA;Franche-Comté;Doubs;L'Hôpital-du-Grosbois 25305;E6.2333;N47.1667;13;
3;FRA;Franche-Comté;Doubs;L'Hôpital-Saint-Lieffroy 25306;E6.4500;N47.4000;13;
3;FRA;Franche-Comté;Doubs;L'Isle-sur-le-Doubs 25315;E6.5833;N47.4500;13;
3;FRA;Franche-Comté;Doubs;La Bosse 25077;E6.6500;N47.1333;13;
3;FRA;Franche-Comté;Doubs;La Bretenière 25092;E6.2667;N47.3833;13;
3;FRA;Franche-Comté;Doubs;La Chaux 25139;E6.4333;N47.0167;13;
3;FRA;Franche-Comté;Doubs;La Chenalotte 25148;E6.6833;N47.1167;13;
3;FRA;Franche-Comté;Doubs;La Chevillotte 25152;E6.1540;N47.2256;13;
3;FRA;Franche-Comté;Doubs;La Cluse-et-Mijoux 25157;E6.3833;N46.8833;13;
3;FRA;Franche-Comté;Doubs;La Grange 25290;E6.6667;N47.2833;13;
3;FRA;Franche-Comté;Doubs;La Longeville 25347;E6.4667;N47.0000;13;
3;FRA;Franche-Comté;Doubs;La Planée 25459;E6.2833;N46.8333;13;
3;FRA;Franche-Comté;Doubs;La Prétière 25470;E6.6167;N47.4500;13;
3;FRA;Franche-Comté;Doubs;La Rivière-Drugeon 25493;E6.2167;N46.8667;13;
3;FRA;Franche-Comté;Doubs;La Sommette 25550;E6.5167;N47.1833;13;
3;FRA;Franche-Comté;Doubs;La Tour-de-Sçay 25566;E6.2333;N47.3833;13;
3;FRA;Franche-Comté;Doubs;La Vèze 25611;E6.0667;N47.2167;13;
3;FRA;Franche-Comté;Doubs;Labergement-du-Navois 25319;E6.0833;N46.9667;13;
3;FRA;Franche-Comté;Doubs;Labergement-Sainte-Marie 25320;E6.2833;N46.7833;13;
3;FRA;Franche-Comté;Doubs;Laire 25322;E6.7333;N47.5500;13;
3;FRA;Franche-Comté;Doubs;Laissey 25323;E6.2333;N47.3000;13;
3;FRA;Franche-Comté;Doubs;Lanans 25324;E6.4500;N47.3000;13;
3;FRA;Franche-Comté;Doubs;Landresse 25325;E6.4667;N47.2500;13;
3;FRA;Franche-Comté;Doubs;Lantenne-Vertière 25326;E5.7833;N47.2333;13;
3;FRA;Franche-Comté;Doubs;Lanthenans 25327;E6.6333;N47.4000;13;
3;FRA;Franche-Comté;Doubs;Larnod 25328;E5.9667;N47.1833;13;
3;FRA;Franche-Comté;Doubs;Laval-le-Prieuré 25329;E6.6167;N47.1833;13;
3;FRA;Franche-Comté;Doubs;Lavans-Quingey 25330;E5.8833;N47.0833;13;
3;FRA;Franche-Comté;Doubs;Lavans-Vuillafans 25331;E6.2500;N47.0833;13;
3;FRA;Franche-Comté;Doubs;Lavernay 25332;E5.8167;N47.2500;13;
3;FRA;Franche-Comté;Doubs;Laviron 25333;E6.5500;N47.2500;13;
3;FRA;Franche-Comté;Doubs;Le Barboux 25042;E6.7167;N47.1167;13;
3;FRA;Franche-Comté;Doubs;Le Bélieu 25050;E6.6333;N47.1167;13;
3;FRA;Franche-Comté;Doubs;Le Bizot 25062;E6.6667;N47.1333;13;
3;FRA;Franche-Comté;Doubs;Le Boulois 25081=25127;E6.8683;N47.2063;13;
3;FRA;Franche-Comté;Doubs;Le Crouzet 25179;E6.1333;N46.7000;13;
3;FRA;Franche-Comté;Doubs;Le Friolais 25260=25392;E6.7500;N47.2500;13;
3;FRA;Franche-Comté;Doubs;Le Gratteris 25297;E6.1333;N47.1833;13;
3;FRA;Franche-Comté;Doubs;Le Luhier 25351;E6.6500;N47.1667;13;
3;FRA;Franche-Comté;Doubs;Le Mémont 25373;E6.6816;N47.1561;13;
3;FRA;Franche-Comté;Doubs;Le Moutherot 25414;E5.7333;N47.2500;13;
3;FRA;Franche-Comté;Doubs;Le Puy 25474;E6.2333;N47.3500;13;
3;FRA;Franche-Comté;Doubs;Le Russey 25512;E6.7333;N47.1667;13;
3;FRA;Franche-Comté;Doubs;Le Vernoy 25608;E6.6833;N47.5667;13;
3;FRA;Franche-Comté;Doubs;Les Alliés 25012;E6.4500;N46.9500;13;
3;FRA;Franche-Comté;Doubs;Les Bréseux 25091;E6.8167;N47.2667;13;
3;FRA;Franche-Comté;Doubs;Les Combes 25160;E6.5500;N47.0667;13;
3;FRA;Franche-Comté;Doubs;Les Écorces 25213;E6.8000;N47.2167;13;
3;FRA;Franche-Comté;Doubs;Les Fins 25240;E6.6333;N47.0833;13;
3;FRA;Franche-Comté;Doubs;Les Fontenelles 25248;E6.7500;N47.2000;13;
3;FRA;Franche-Comté;Doubs;Les Fourgs 25254;E6.4167;N46.8333;13;
3;FRA;Franche-Comté;Doubs;Les Grangettes 25295;E6.3167;N46.8333;13;
3;FRA;Franche-Comté;Doubs;Les Gras 25296;E6.5500;N47.0000;13;
3;FRA;Franche-Comté;Doubs;Les Hôpitaux-Neufs 25307;E6.3833;N46.7833;13;
3;FRA;Franche-Comté;Doubs;Les Hôpitaux-Vieux 25308;E6.3667;N46.7833;13;
3;FRA;Franche-Comté;Doubs;Les Plains-et-Grands-Essarts 25458;E6.8946;N47.3030;13;
3;FRA;Franche-Comté;Doubs;Les Pontets 25464;E6.1667;N46.7167;13;
3;FRA;Franche-Comté;Doubs;Les Terres-de-Chaux 25138;E6.7377;N47.3192;13;
3;FRA;Franche-Comté;Doubs;Les Villedieu 25619;E6.2417;N46.7250;13;
3;FRA;Franche-Comté;Doubs;Levier 25334;E6.1333;N46.9500;13;
3;FRA;Franche-Comté;Doubs;Liebvillers 25335;E6.7833;N47.3333;13;
3;FRA;Franche-Comté;Doubs;Liesle 25336;E5.8167;N47.0500;13;
3;FRA;Franche-Comté;Doubs;Lièvremont 25337=25357;E6.4333;N46.9667;13;
3;FRA;Franche-Comté;Doubs;Lizine 25338;E6.0000;N47.0500;13;
3;FRA;Franche-Comté;Doubs;Lods 25339;E6.2500;N47.0500;13;
3;FRA;Franche-Comté;Doubs;Lombard 25340;E5.8539;N47.0780;13;
3;FRA;Franche-Comté;Doubs;Lomont-sur-Crête 25341;E6.4333;N47.3333;13;
3;FRA;Franche-Comté;Doubs;Longechaux 25342;E6.4333;N47.1667;13;
3;FRA;Franche-Comté;Doubs;Longemaison 25343;E6.4667;N47.0833;13;
3;FRA;Franche-Comté;Doubs;Longevelle-lès-Russey 25344;E6.6493;N47.2259;13;
3;FRA;Franche-Comté;Doubs;Longevelle-sur-Doubs 25345;E6.6500;N47.4500;13;
3;FRA;Franche-Comté;Doubs;Longeville 25346;E6.2333;N47.0333;13;
3;FRA;Franche-Comté;Doubs;Longevilles-Mont-d'Or 25348;E6.2931;N46.7500;13;
3;FRA;Franche-Comté;Doubs;Loray 25349;E6.5000;N47.1500;13;
3;FRA;Franche-Comté;Doubs;Lougres 25350;E6.6833;N47.4667;13;
3;FRA;Franche-Comté;Doubs;Luisans 25352=25288;E6.5500;N47.1000;13;
3;FRA;Franche-Comté;Doubs;Lusans 25353=25468;E6.2000;N47.3500;13;
3;FRA;Franche-Comté;Doubs;Luxiol 25354;E6.3500;N47.3833;13;
3;FRA;Franche-Comté;Doubs;Magny-Châtelard 25355;E6.3212;N47.2272;13;
3;FRA;Franche-Comté;Doubs;Maîche 25356;E6.8000;N47.2500;13;
3;FRA;Franche-Comté;Doubs;Maisières-Notre-Dame 25358=25537;E6.0974;N47.1087;13;
3;FRA;Franche-Comté;Doubs;Maisons-du-Bois-Lièvremont 25357;E6.4202;N46.9665;13;
3;FRA;Franche-Comté;Doubs;Malans 25359;E6.0304;N47.0479;13;
3;FRA;Franche-Comté;Doubs;Malbrans 25360;E6.0833;N47.1167;13;
3;FRA;Franche-Comté;Doubs;Malbuisson 25361;E6.3000;N46.8000;13;
3;FRA;Franche-Comté;Doubs;Malpas 25362;E6.2833;N46.8333;13;
3;FRA;Franche-Comté;Doubs;Mambouhans 25363=25187;E6.6500;N47.3667;13;
3;FRA;Franche-Comté;Doubs;Mamirolle 25364;E6.1667;N47.2000;13;
3;FRA;Franche-Comté;Doubs;Mancenans 25365;E6.5333;N47.4500;13;
3;FRA;Franche-Comté;Doubs;Mancenans-Lizerne 25366;E6.7833;N47.2667;13;
3;FRA;Franche-Comté;Doubs;Mandeure 25367;E6.8000;N47.4500;13;
3;FRA;Franche-Comté;Doubs;Marchaux 25368;E6.1333;N47.3167;13;
3;FRA;Franche-Comté;Doubs;Marvelise 25369;E6.6000;N47.5167;13;
3;FRA;Franche-Comté;Doubs;Mathay 25370;E6.7833;N47.4333;13;
3;FRA;Franche-Comté;Doubs;Mazerolles-le-Salin 25371;E5.8667;N47.2333;13;
3;FRA;Franche-Comté;Doubs;Médière 25372;E6.6000;N47.4500;13;
3;FRA;Franche-Comté;Doubs;Mercey-le-Grand 25374;E5.7333;N47.2167;13;
3;FRA;Franche-Comté;Doubs;Mérey-sous-Montrond 25375;E6.0667;N47.1500;13;
3;FRA;Franche-Comté;Doubs;Mérey-Vieilley 25376;E6.0667;N47.3333;13;
3;FRA;Franche-Comté;Doubs;Mésandans 25377;E6.3667;N47.4333;13;
3;FRA;Franche-Comté;Doubs;Meslières 25378;E6.8833;N47.4167;13;
3;FRA;Franche-Comté;Doubs;Mesmay 25379;E5.8500;N47.0667;13;
3;FRA;Franche-Comté;Doubs;Métabief 25380;E6.3500;N46.7833;13;
3;FRA;Franche-Comté;Doubs;Miserey-Salines 25381;E5.9667;N47.2833;13;
3;FRA;Franche-Comté;Doubs;Moncey 25382;E6.1167;N47.3667;13;
3;FRA;Franche-Comté;Doubs;Moncley 25383;E5.9000;N47.3167;13;
3;FRA;Franche-Comté;Doubs;Mondon 25384;E6.3167;N47.4500;13;
3;FRA;Franche-Comté;Doubs;Mont-de-Laval 25391;E6.6333;N47.1667;13;
3;FRA;Franche-Comté;Doubs;Mont-de-Vougney 25392;E6.7167;N47.2333;13;
3;FRA;Franche-Comté;Doubs;Montagney-Servigney 25385;E6.2998;N47.4573;13;
3;FRA;Franche-Comté;Doubs;Montancy 25386;E7.0167;N47.3667;13;
3;FRA;Franche-Comté;Doubs;Montandon 25387;E6.8333;N47.3000;13;
3;FRA;Franche-Comté;Doubs;Montbéliard 25388;E6.8000;N47.5167;13;
3;FRA;Franche-Comté;Doubs;Montbéliardot 25389;E6.6500;N47.1833;13;
3;FRA;Franche-Comté;Doubs;Montbenoît 25390;E6.4667;N46.9833;13;
3;FRA;Franche-Comté;Doubs;Montécheroux 25393;E6.8000;N47.3500;13;
3;FRA;Franche-Comté;Doubs;Montenois 25394;E6.6667;N47.5000;13;
3;FRA;Franche-Comté;Doubs;Montfaucon 25395;E6.0833;N47.2333;13;
3;FRA;Franche-Comté;Doubs;Montferney 25396=25505;E6.3333;N47.4833;13;
3;FRA;Franche-Comté;Doubs;Montferrand-le-Château 25397;E5.9333;N47.1833;13;
3;FRA;Franche-Comté;Doubs;Montflovin 25398;E6.4500;N46.9833;13;
3;FRA;Franche-Comté;Doubs;Montfort 25399;E5.9000;N47.0667;13;
3;FRA;Franche-Comté;Doubs;Montgesoye 25400;E6.2000;N47.0833;13;
3;FRA;Franche-Comté;Doubs;Montivernage 25401;E6.4333;N47.3167;13;
3;FRA;Franche-Comté;Doubs;Montjoie-le-Château 25402;E6.9000;N47.3500;13;
3;FRA;Franche-Comté;Doubs;Montlebon 25403;E6.6167;N47.0333;13;
3;FRA;Franche-Comté;Doubs;Montmahoux 25404;E6.0333;N46.9833;13;
3;FRA;Franche-Comté;Doubs;Montperreux 25405;E6.3333;N46.8333;13;
3;FRA;Franche-Comté;Doubs;Montrond-le-Château 25406;E6.0500;N47.1333;13;
3;FRA;Franche-Comté;Doubs;Montursin 25407=25275;E6.9500;N47.3500;13;
3;FRA;Franche-Comté;Doubs;Montussaint 25408;E6.3000;N47.4333;13;
3;FRA;Franche-Comté;Doubs;Morchamps 25409=25505;E6.3333;N47.4500;13;
3;FRA;Franche-Comté;Doubs;Morre 25410;E6.0667;N47.2333;13;
3;FRA;Franche-Comté;Doubs;Morteau 25411;E6.6167;N47.0667;13;
3;FRA;Franche-Comté;Doubs;Mouillevillers 25412=25519;E6.8000;N47.3000;13;
3;FRA;Franche-Comté;Doubs;Mouthe 25413;E6.1667;N46.7167;13;
3;FRA;Franche-Comté;Doubs;Mouthier-Haute-Pierre 25415;E6.2667;N47.0333;13;
3;FRA;Franche-Comté;Doubs;Myon 25416;E5.9333;N47.0167;13;
3;FRA;Franche-Comté;Doubs;Naisey-les-Granges 25417;E6.2360;N47.2121;13;
3;FRA;Franche-Comté;Doubs;Nancray 25418;E6.1833;N47.2500;13;
3;FRA;Franche-Comté;Doubs;Nans 25419;E6.4167;N47.4833;13;
3;FRA;Franche-Comté;Doubs;Nans-sous-Sainte-Anne 25420;E6.0000;N46.9833;13;
3;FRA;Franche-Comté;Doubs;Narbief 25421;E6.7000;N47.1333;13;
3;FRA;Franche-Comté;Doubs;Neuchâtel-Urtière 25422;E6.7333;N47.3667;13;
3;FRA;Franche-Comté;Doubs;Neuvier 25423=25138;E6.7366;N47.3241;13;
3;FRA;Franche-Comté;Doubs;Nods 25424;E6.3333;N47.1000;13;
3;FRA;Franche-Comté;Doubs;Noël-Cerneux 25425;E6.6667;N47.1000;13;
3;FRA;Franche-Comté;Doubs;Noirefontaine 25426;E6.7667;N47.3500;13;
3;FRA;Franche-Comté;Doubs;Noironte 25427;E5.8833;N47.2667;13;
3;FRA;Franche-Comté;Doubs;Nommay 25428;E6.8500;N47.5333;13;
3;FRA;Franche-Comté;Doubs;Novillars 25429;E6.1333;N47.2833;13;
3;FRA;Franche-Comté;Doubs;Ollans 25430;E6.2500;N47.4167;13;
3;FRA;Franche-Comté;Doubs;Onans 25431;E6.6167;N47.5000;13;
3;FRA;Franche-Comté;Doubs;Orchamps-Vennes 25432;E6.5333;N47.1333;13;
3;FRA;Franche-Comté;Doubs;Orgeans-Blanchefontaine 25433;E6.7441;N47.2630;13;
3;FRA;Franche-Comté;Doubs;Ornans 25434;E6.1500;N47.1000;13;
3;FRA;Franche-Comté;Doubs;Orsans 25435;E6.3833;N47.2500;13;
3;FRA;Franche-Comté;Doubs;Orve 25436;E6.5500;N47.3333;13;
3;FRA;Franche-Comté;Doubs;Osse 25437;E6.2167;N47.2667;13;
3;FRA;Franche-Comté;Doubs;Osselle 25438;E5.8500;N47.1333;13;
3;FRA;Franche-Comté;Doubs;Ougney-Douvot 25439;E6.2833;N47.3167;13;
3;FRA;Franche-Comté;Doubs;Ouhans 25440;E6.3000;N47.0000;13;
3;FRA;Franche-Comté;Doubs;Ouvans 25441;E6.4833;N47.2833;13;
3;FRA;Franche-Comté;Doubs;Oye-et-Pallet 25442;E6.3333;N46.8500;13;
3;FRA;Franche-Comté;Doubs;Palantine 25443;E5.9500;N47.0833;13;
3;FRA;Franche-Comté;Doubs;Palise 25444;E6.0833;N47.3667;13;
3;FRA;Franche-Comté;Doubs;Paroy 25445;E5.8833;N47.0500;13;
3;FRA;Franche-Comté;Doubs;Passavant 25446;E6.3833;N47.2833;13;
3;FRA;Franche-Comté;Doubs;Passonfontaine 25447;E6.4167;N47.1000;13;
3;FRA;Franche-Comté;Doubs;Pelousey 25448;E5.9167;N47.2833;13;
3;FRA;Franche-Comté;Doubs;Péseux 25449;E6.6801;N47.3167;13;
3;FRA;Franche-Comté;Doubs;Pessans 25450;E5.8833;N47.0667;13;
3;FRA;Franche-Comté;Doubs;Petite-Chaux 25451;E6.1333;N46.7000;13;
3;FRA;Franche-Comté;Doubs;Pierrefontaine-lès-Blamont 25452;E6.8404;N47.3751;13;
3;FRA;Franche-Comté;Doubs;Pierrefontaine-les-Varans 25453;E6.5500;N47.2167;13;
3;FRA;Franche-Comté;Doubs;Pirey 25454;E5.9667;N47.2667;13;
3;FRA;Franche-Comté;Doubs;Placey 25455;E5.8500;N47.2667;13;
3;FRA;Franche-Comté;Doubs;Plaimbois-du-Miroir 25456;E6.6500;N47.1833;13;
3;FRA;Franche-Comté;Doubs;Plaimbois-Vennes 25457;E6.5500;N47.1833;13;
3;FRA;Franche-Comté;Doubs;Pointvillers 25460;E5.9000;N47.0667;13;
3;FRA;Franche-Comté;Doubs;Pompierre-sur-Doubs 25461;E6.5167;N47.4167;13;
3;FRA;Franche-Comté;Doubs;Pont-de-Roide 25463;E6.7667;N47.3833;13;
3;FRA;Franche-Comté;Doubs;Pont-les-Moulins 25465;E6.3667;N47.3167;13;
3;FRA;Franche-Comté;Doubs;Pontarlier 25462;E6.3667;N46.9000;13;
3;FRA;Franche-Comté;Doubs;Pouilley-Français 25466;E5.8500;N47.2000;13;
3;FRA;Franche-Comté;Doubs;Pouilley-les-Vignes 25467;E5.9333;N47.2500;13;
3;FRA;Franche-Comté;Doubs;Pouligney-Lusans 25468;E6.2000;N47.3333;13;
3;FRA;Franche-Comté;Doubs;Présentevillers 25469;E6.7333;N47.5000;13;
3;FRA;Franche-Comté;Doubs;Provenchère 25471;E6.6500;N47.2833;13;
3;FRA;Franche-Comté;Doubs;Puessans 25472;E6.3167;N47.4333;13;
3;FRA;Franche-Comté;Doubs;Pugey 25473;E5.9833;N47.1833;13;
3;FRA;Franche-Comté;Doubs;Quingey 25475;E5.8833;N47.1000;13;
3;FRA;Franche-Comté;Doubs;Rahon 25476;E6.5833;N47.3167;13;
3;FRA;Franche-Comté;Doubs;Rancenay 25477;E5.9500;N47.1833;13;
3;FRA;Franche-Comté;Doubs;Randevillers 25478;E6.5167;N47.3167;13;
3;FRA;Franche-Comté;Doubs;Rang 25479;E6.5667;N47.4333;13;
3;FRA;Franche-Comté;Doubs;Rantechaux 25480;E6.3833;N47.1167;13;
3;FRA;Franche-Comté;Doubs;Raynans 25481;E6.7167;N47.5333;13;
3;FRA;Franche-Comté;Doubs;Recologne 25482;E5.8285;N47.2727;13;
3;FRA;Franche-Comté;Doubs;Reculfoz 25483;E6.1667;N46.6917;13;
3;FRA;Franche-Comté;Doubs;Refranche 25484=25223;E6.0000;N47.0333;13;
3;FRA;Franche-Comté;Doubs;Rémondans-Vaivre 25485;E6.7137;N47.3746;13;
3;FRA;Franche-Comté;Doubs;Remoray-Boujeons 25486;E6.2401;N46.7681;13;
3;FRA;Franche-Comté;Doubs;Renédale 25487;E6.2775;N47.0184;13;
3;FRA;Franche-Comté;Doubs;Rennes-sur-Loue 25488;E5.8500;N47.0167;13;
3;FRA;Franche-Comté;Doubs;Reugney 25489;E6.1500;N47.0167;13;
3;FRA;Franche-Comté;Doubs;Rigney 25490;E6.1833;N47.3833;13;
3;FRA;Franche-Comté;Doubs;Rignosot 25491;E6.2000;N47.3833;13;
3;FRA;Franche-Comté;Doubs;Rillans 25492;E6.3667;N47.4167;13;
3;FRA;Franche-Comté;Doubs;Roche-lès-Clerval 25496;E6.4833;N47.3667;13;
3;FRA;Franche-Comté;Doubs;Roche-lez-Beaupré 25495;E6.1125;N47.2753;13;
3;FRA;Franche-Comté;Doubs;Rochejean 25494;E6.3000;N46.7500;13;
3;FRA;Franche-Comté;Doubs;Roches-lès-Blamont 25497;E6.8500;N47.4167;13;
3;FRA;Franche-Comté;Doubs;Rognon 25498;E6.3167;N47.4167;13;
3;FRA;Franche-Comté;Doubs;Romain 25499;E6.3758;N47.4415;13;
3;FRA;Franche-Comté;Doubs;Ronchaux 25500;E5.9000;N47.0500;13;
3;FRA;Franche-Comté;Doubs;Rondefontaine 25501;E6.1813;N46.7328;13;
3;FRA;Franche-Comté;Doubs;Roset-Fluans 25502;E5.8258;N47.1637;13;
3;FRA;Franche-Comté;Doubs;Rosières-sur-Barbèche 25503;E6.6667;N47.3167;13;
3;FRA;Franche-Comté;Doubs;Rosureux 25504;E6.6833;N47.2167;13;
3;FRA;Franche-Comté;Doubs;Rougemont 25505;E6.3500;N47.4833;13;
3;FRA;Franche-Comté;Doubs;Rougemontot 25506;E6.2667;N47.4000;13;
3;FRA;Franche-Comté;Doubs;Rouhe 25507;E5.9667;N47.0833;13;
3;FRA;Franche-Comté;Doubs;Roulans 25508;E6.2333;N47.3167;13;
3;FRA;Franche-Comté;Doubs;Routelle 25509;E5.8500;N47.1667;13;
3;FRA;Franche-Comté;Doubs;Ruffey-le-Château 25510;E5.8000;N47.2833;13;
3;FRA;Franche-Comté;Doubs;Rurey 25511;E6.0167;N47.1000;13;
3;FRA;Franche-Comté;Doubs;Saint-Antoine 25514;E6.3333;N46.7833;13;
3;FRA;Franche-Comté;Doubs;Saint-Georges-Armont 25516;E6.5500;N47.4000;13;
3;FRA;Franche-Comté;Doubs;Saint-Gorgon-Main 25517;E6.3333;N47.0167;13;
3;FRA;Franche-Comté;Doubs;Saint-Hilaire 25518;E6.2500;N47.3333;13;
3;FRA;Franche-Comté;Doubs;Saint-Hippolyte 25519;E6.8167;N47.3167;13;
3;FRA;Franche-Comté;Doubs;Saint-Juan 25520;E6.3667;N47.2833;13;
3;FRA;Franche-Comté;Doubs;Saint-Julien-lès-Montbéliard 25521;E6.7167;N47.5167;13;
3;FRA;Franche-Comté;Doubs;Saint-Julien-lès-Russey 25522;E6.7237;N47.2172;13;
3;FRA;Franche-Comté;Doubs;Saint-Maurice-Colombier 25524;E6.6454;N47.4421;13;
3;FRA;Franche-Comté;Doubs;Saint-Point-Lac 25525;E6.3000;N46.8167;13;
3;FRA;Franche-Comté;Doubs;Saint-Vit 25527;E5.8167;N47.1833;13;
3;FRA;Franche-Comté;Doubs;Sainte-Anne 25513;E5.9833;N46.9500;13;
3;FRA;Franche-Comté;Doubs;Sainte-Colombe 25515;E6.2667;N46.8833;13;
3;FRA;Franche-Comté;Doubs;Sainte-Marie 25523;E6.7000;N47.5000;13;
3;FRA;Franche-Comté;Doubs;Sainte-Suzanne 25526;E6.7667;N47.5000;13;
3;FRA;Franche-Comté;Doubs;Samson 25528;E5.8833;N47.0500;13;
3;FRA;Franche-Comté;Doubs;Sancey-le-Grand 25529;E6.5833;N47.3000;13;
3;FRA;Franche-Comté;Doubs;Sancey-le-Long 25530;E6.6000;N47.3000;13;
3;FRA;Franche-Comté;Doubs;Santoche 25531;E6.5167;N47.4000;13;
3;FRA;Franche-Comté;Doubs;Saône 25532;E6.1167;N47.2333;13;
3;FRA;Franche-Comté;Doubs;Saraz 25533;E5.9833;N47.0000;13;
3;FRA;Franche-Comté;Doubs;Sarrageois 25534;E6.2152;N46.7253;13;
3;FRA;Franche-Comté;Doubs;Saules 25535;E6.2000;N47.1167;13;
3;FRA;Franche-Comté;Doubs;Sauvagney 25536;E5.9000;N47.3333;13;
3;FRA;Franche-Comté;Doubs;Scey-Maisières 25537;E6.0744;N47.1004;13;
3;FRA;Franche-Comté;Doubs;Séchin 25538;E6.2833;N47.3333;13;
3;FRA;Franche-Comté;Doubs;Seloncourt 25539;E6.8667;N47.4667;13;
3;FRA;Franche-Comté;Doubs;Semondans 25540;E6.7000;N47.5500;13;
3;FRA;Franche-Comté;Doubs;Septfontaines 25541;E6.1833;N46.9833;13;
3;FRA;Franche-Comté;Doubs;Serre-les-Sapins 25542;E5.9333;N47.2500;13;
3;FRA;Franche-Comté;Doubs;Servigney 25543=25385;E6.3000;N47.4500;13;
3;FRA;Franche-Comté;Doubs;Servin 25544;E6.4667;N47.3000;13;
3;FRA;Franche-Comté;Doubs;Silley-Amancey 25545;E6.1333;N47.0333;13;
3;FRA;Franche-Comté;Doubs;Silley-Bléfond 25546;E6.3333;N47.3167;13;
3;FRA;Franche-Comté;Doubs;Sochaux 25547;E6.8333;N47.5167;13;
3;FRA;Franche-Comté;Doubs;Solemont 25548;E6.7000;N47.3500;13;
3;FRA;Franche-Comté;Doubs;Sombacour 25549;E6.2667;N46.9500;13;
3;FRA;Franche-Comté;Doubs;Soulce-Cernay 25551;E6.8500;N47.3167;13;
3;FRA;Franche-Comté;Doubs;Sourans 25552;E6.6333;N47.4000;13;
3;FRA;Franche-Comté;Doubs;Soye 25553;E6.5000;N47.4500;13;
3;FRA;Franche-Comté;Doubs;Surmont 25554;E6.6167;N47.2833;13;
3;FRA;Franche-Comté;Doubs;Taillecourt 25555;E6.8500;N47.5000;13;
3;FRA;Franche-Comté;Doubs;Tallans 25556;E6.2833;N47.4167;13;
3;FRA;Franche-Comté;Doubs;Tallenay 25557;E6.0333;N47.3000;13;
3;FRA;Franche-Comté;Doubs;Tarcenay 25558;E6.1167;N47.1500;13;
3;FRA;Franche-Comté;Doubs;Thiébouhans 25559;E6.8500;N47.2833;13;
3;FRA;Franche-Comté;Doubs;Thise 25560;E6.0833;N47.2833;13;
3;FRA;Franche-Comté;Doubs;Thoraise 25561;E5.9000;N47.1667;13;
3;FRA;Franche-Comté;Doubs;Thulay 25562;E6.8667;N47.4167;13;
3;FRA;Franche-Comté;Doubs;Thurey-le-Mont 25563;E6.1167;N47.3667;13;
3;FRA;Franche-Comté;Doubs;Torpes 25564;E5.8833;N47.1667;13;
3;FRA;Franche-Comté;Doubs;Touillon-et-Loutelet 25565;E6.3500;N46.7833;13;
3;FRA;Franche-Comté;Doubs;Tournans 25567;E6.3333;N47.4167;13;
3;FRA;Franche-Comté;Doubs;Tournedoz 25568=25018;E6.6000;N47.3667;13;
3;FRA;Franche-Comté;Doubs;Trépot 25569;E6.1500;N47.1667;13;
3;FRA;Franche-Comté;Doubs;Tressandans 25570;E6.3333;N47.5000;13;
3;FRA;Franche-Comté;Doubs;Trévillers 25571;E6.8667;N47.2833;13;
3;FRA;Franche-Comté;Doubs;Trouvans 25572;E6.3500;N47.4167;13;
3;FRA;Franche-Comté;Doubs;Urtière 25573;E6.9333;N47.2500;13;
3;FRA;Franche-Comté;Doubs;Uzelle 25574;E6.4333;N47.4667;13;
3;FRA;Franche-Comté;Doubs;Vaire-Arcier 25575;E6.1531;N47.2837;13;
3;FRA;Franche-Comté;Doubs;Vaire-le-Petit 25576;E6.1500;N47.2833;13;
3;FRA;Franche-Comté;Doubs;Vaivre 25577=25485;E6.7000;N47.3667;13;
3;FRA;Franche-Comté;Doubs;Val-de-Roulans 25579;E6.2667;N47.3667;13;
3;FRA;Franche-Comté;Doubs;Valdahon 25578;E6.3443;N47.1475;13;
3;FRA;Franche-Comté;Doubs;Valentigney 25580;E6.8333;N47.4667;13;
3;FRA;Franche-Comté;Doubs;Valentin 25581=25212;E5.9932;N47.2822;13;
3;FRA;Franche-Comté;Doubs;Valleroy 25582;E6.1167;N47.3833;13;
3;FRA;Franche-Comté;Doubs;Valonne 25583;E6.6667;N47.3500;13;
3;FRA;Franche-Comté;Doubs;Valoreille 25584;E6.7500;N47.3000;13;
3;FRA;Franche-Comté;Doubs;Vanclans 25585;E6.3667;N47.1000;13;
3;FRA;Franche-Comté;Doubs;Vandoncourt 25586;E6.9000;N47.4667;13;
3;FRA;Franche-Comté;Doubs;Vauchamps 25587;E6.2500;N47.2667;13;
3;FRA;Franche-Comté;Doubs;Vaucluse 25588;E6.6833;N47.2500;13;
3;FRA;Franche-Comté;Doubs;Vauclusotte 25589;E6.7333;N47.2833;13;
3;FRA;Franche-Comté;Doubs;Vaudrivillers 25590;E6.4333;N47.2833;13;
3;FRA;Franche-Comté;Doubs;Vaufrey 25591;E6.9167;N47.3500;13;
3;FRA;Franche-Comté;Doubs;Vaux-et-Chantegrue 25592;E6.2500;N46.8000;13;
3;FRA;Franche-Comté;Doubs;Vaux-les-Prés 25593;E5.8833;N47.2333;13;
3;FRA;Franche-Comté;Doubs;Velesmes-Essarts 25594;E5.8667;N47.1833;13;
3;FRA;Franche-Comté;Doubs;Vellerot-lès-Belvoir 25595;E6.6000;N47.3500;13;
3;FRA;Franche-Comté;Doubs;Vellerot-lès-Vercel 25596;E6.4500;N47.2500;13;
3;FRA;Franche-Comté;Doubs;Vellevans 25597;E6.5000;N47.3167;13;
3;FRA;Franche-Comté;Doubs;Venise 25598;E6.1167;N47.3500;13;
3;FRA;Franche-Comté;Doubs;Vennans 25599;E6.2333;N47.3333;13;
3;FRA;Franche-Comté;Doubs;Vennes 25600;E6.5475;N47.1558;13;
3;FRA;Franche-Comté;Doubs;Vercel-Villedieu-le-Camp 25601;E6.4000;N47.1833;13;
3;FRA;Franche-Comté;Doubs;Vergranne 25602;E6.4000;N47.4167;13;
3;FRA;Franche-Comté;Doubs;Vermondans 25603=25463;E6.7500;N47.3833;13;
3;FRA;Franche-Comté;Doubs;Verne 25604;E6.3500;N47.4000;13;
3;FRA;Franche-Comté;Doubs;Vernierfontaine 25605;E6.3000;N47.1000;13;
3;FRA;Franche-Comté;Doubs;Vernois-le-Fol 25606=25275;E6.9833;N47.3500;13;
3;FRA;Franche-Comté;Doubs;Vernois-lès-Belvoir 25607;E6.6500;N47.3167;13;
3;FRA;Franche-Comté;Doubs;Verrières-de-Joux 25609;E6.4487;N46.8967;13;
3;FRA;Franche-Comté;Doubs;Verrières-du-Grosbois 25610;E6.2760;N47.1999;13;
3;FRA;Franche-Comté;Doubs;Vieilley 25612;E6.0833;N47.3333;13;
3;FRA;Franche-Comté;Doubs;Viéthorey 25613;E6.4333;N47.4333;13;
3;FRA;Franche-Comté;Doubs;Vieux-Charmont 25614;E6.8333;N47.5167;13;
3;FRA;Franche-Comté;Doubs;Villars-lès-Blamont 25615;E6.8667;N47.3667;13;
3;FRA;Franche-Comté;Doubs;Villars-Saint-Georges 25616;E5.8333;N47.1167;13;
3;FRA;Franche-Comté;Doubs;Villars-sous-Dampjoux 25617;E6.7667;N47.3500;13;
3;FRA;Franche-Comté;Doubs;Villars-sous-Écot 25618;E6.7000;N47.4167;13;
3;FRA;Franche-Comté;Doubs;Ville-du-Pont 25620;E6.4833;N47.0000;13;
3;FRA;Franche-Comté;Doubs;Villedieu-le-Camp 25636=25601;E6.3765;N47.1899;13;
3;FRA;Franche-Comté;Doubs;Villeneuve-d'Amont 25621;E6.0333;N46.9333;13;
3;FRA;Franche-Comté;Doubs;Villers-Buzon 25622;E5.8500;N47.2333;13;
3;FRA;Franche-Comté;Doubs;Villers-Chief 25623;E6.4500;N47.2333;13;
3;FRA;Franche-Comté;Doubs;Villers-Grélot 25624;E6.2333;N47.3500;13;
3;FRA;Franche-Comté;Doubs;Villers-la-Combe 25625;E6.4500;N47.2333;13;
3;FRA;Franche-Comté;Doubs;Villers-le-Lac 25321;E6.6667;N47.0667;13;
3;FRA;Franche-Comté;Doubs;Villers-Saint-Martin 25626;E6.4167;N47.3500;13;
3;FRA;Franche-Comté;Doubs;Villers-sous-Chalamont 25627;E6.0500;N46.9000;13;
3;FRA;Franche-Comté;Doubs;Villers-sous-Montrond 25628;E6.0833;N47.1500;13;
3;FRA;Franche-Comté;Doubs;Voillans 25629;E6.4167;N47.3833;13;
3;FRA;Franche-Comté;Doubs;Voires 25630;E6.2500;N47.1000;13;
3;FRA;Franche-Comté;Doubs;Vorges-les-Pins 25631;E5.9333;N47.1500;13;
3;FRA;Franche-Comté;Doubs;Voujeaucourt 25632;E6.7667;N47.4667;13;
3;FRA;Franche-Comté;Doubs;Vuillafans 25633;E6.2167;N47.0667;13;
3;FRA;Franche-Comté;Doubs;Vuillecin 25634;E6.3167;N46.9333;13;
3;FRA;Franche-Comté;Doubs;Vyt-lès-Belvoir 25635;E6.6167;N47.3500;13;
2;FRA;Franche-Comté;Haute-Saône;;E6.1166;N47.6894;9;
3;FRA;Franche-Comté;Haute-Saône;Abelcourt 70001;E6.3000;N47.7833;13;
3;FRA;Franche-Comté;Haute-Saône;Aboncourt-Gesincourt 70002;E5.9812;N47.7712;13;
3;FRA;Franche-Comté;Haute-Saône;Achey 70003;E5.6000;N47.5667;13;
3;FRA;Franche-Comté;Haute-Saône;Adelans-et-le-Val-de-Bithaine 70004;E6.3966;N47.7092;13;
3;FRA;Franche-Comté;Haute-Saône;Aillevans 70005;E6.4167;N47.5833;13;
3;FRA;Franche-Comté;Haute-Saône;Aillevillers-et-Lyaumont 70006;E6.3333;N47.9167;13;
3;FRA;Franche-Comté;Haute-Saône;Ailloncourt 70007;E6.3833;N47.7500;13;
3;FRA;Franche-Comté;Haute-Saône;Ainvelle 70008;E6.2500;N47.8500;13;
3;FRA;Franche-Comté;Haute-Saône;Aisey-et-Richecourt 70009;E5.9500;N47.8833;13;
3;FRA;Franche-Comté;Haute-Saône;Alaincourt 70010;E6.1000;N47.9333;13;
3;FRA;Franche-Comté;Haute-Saône;Amage 70011;E6.5000;N47.8333;13;
3;FRA;Franche-Comté;Haute-Saône;Amance 70012;E6.0667;N47.8000;13;
3;FRA;Franche-Comté;Haute-Saône;Ambiévillers 70013;E6.1500;N47.9667;13;
3;FRA;Franche-Comté;Haute-Saône;Amblans-et-Velotte 70014;E6.4167;N47.6833;13;
3;FRA;Franche-Comté;Haute-Saône;Amoncourt 70015;E6.0667;N47.7333;13;
3;FRA;Franche-Comté;Haute-Saône;Amont-et-Effreney 70016;E6.5586;N47.8869;13;
3;FRA;Franche-Comté;Haute-Saône;Anchenoncourt-et-Chazel 70017;E6.1167;N47.8667;13;
3;FRA;Franche-Comté;Haute-Saône;Ancier 70018;E5.6333;N47.4500;13;
3;FRA;Franche-Comté;Haute-Saône;Andelarre 70019;E6.1000;N47.5833;13;
3;FRA;Franche-Comté;Haute-Saône;Andelarrot 70020;E6.1000;N47.5833;13;
3;FRA;Franche-Comté;Haute-Saône;Andornay 70021;E6.6000;N47.6500;13;
3;FRA;Franche-Comté;Haute-Saône;Angirey 70022;E5.7833;N47.4500;13;
3;FRA;Franche-Comté;Haute-Saône;Anjeux 70023;E6.2000;N47.8833;13;
3;FRA;Franche-Comté;Haute-Saône;Apremont 70024;E5.5500;N47.4000;13;
3;FRA;Franche-Comté;Haute-Saône;Arbecey 70025;E5.9333;N47.7333;13;
3;FRA;Franche-Comté;Haute-Saône;Arc-lès-Gray 70026;E5.5787;N47.4569;13;
3;FRA;Franche-Comté;Haute-Saône;Argillières 70027;E5.6333;N47.6667;13;
3;FRA;Franche-Comté;Haute-Saône;Aroz 70028;E6.0000;N47.6167;13;
3;FRA;Franche-Comté;Haute-Saône;Arpenans 70029;E6.4000;N47.6167;13;
3;FRA;Franche-Comté;Haute-Saône;Arsans 70030;E5.6333;N47.3667;13;
3;FRA;Franche-Comté;Haute-Saône;Athesans-Étroitefontaine 70031;E6.4971;N47.5787;13;
3;FRA;Franche-Comté;Haute-Saône;Attricourt 70032;E5.4000;N47.4833;13;
3;FRA;Franche-Comté;Haute-Saône;Aubertans 70033=70059;E6.1667;N47.4500;13;
3;FRA;Franche-Comté;Haute-Saône;Aubigney 70034=70101;E5.5333;N47.3333;13;
3;FRA;Franche-Comté;Haute-Saône;Augicourt 70035;E5.9000;N47.7833;13;
3;FRA;Franche-Comté;Haute-Saône;Aulx-lès-Cromary 70036;E6.1167;N47.3833;13;
3;FRA;Franche-Comté;Haute-Saône;Autet 70037;E5.7000;N47.5500;13;
3;FRA;Franche-Comté;Haute-Saône;Authoison 70038;E6.1500;N47.4833;13;
3;FRA;Franche-Comté;Haute-Saône;Autoreille 70039;E5.8167;N47.3667;13;
3;FRA;Franche-Comté;Haute-Saône;Autrey-le-Vay 70042;E6.3500;N47.6167;13;
3;FRA;Franche-Comté;Haute-Saône;Autrey-lès-Cerre 70040;E5.5000;N47.4833;13;
3;FRA;Franche-Comté;Haute-Saône;Autrey-lès-Gray 70041;E6.4000;N47.5333;13;
3;FRA;Franche-Comté;Haute-Saône;Auvet-et-la-Chapelotte 70043;E5.5167;N47.5167;13;
3;FRA;Franche-Comté;Haute-Saône;Auxon 70044;E6.1667;N47.6833;13;
3;FRA;Franche-Comté;Haute-Saône;Avrigney-Virey 70045;E5.7774;N47.3361;13;
3;FRA;Franche-Comté;Haute-Saône;Baignes 70047;E6.7333;N47.6500;13;
3;FRA;Franche-Comté;Haute-Saône;Bard-lès-Pesmes 70048;E6.1333;N47.6000;13;
3;FRA;Franche-Comté;Haute-Saône;Barges 70049;E6.1167;N47.5333;13;
3;FRA;Franche-Comté;Haute-Saône;Bassigney 70052;E6.5667;N47.8000;13;
3;FRA;Franche-Comté;Haute-Saône;Battrans 70054;E5.5500;N47.5500;13;
3;FRA;Franche-Comté;Haute-Saône;Baudoncourt 70055;E6.3167;N47.7667;13;
3;FRA;Franche-Comté;Haute-Saône;Baulay 70056;E6.1833;N47.7667;13;
3;FRA;Franche-Comté;Haute-Saône;Bay 70057;E6.6833;N47.6500;13;
3;FRA;Franche-Comté;Haute-Saône;Beaumotte-Aubertans 70059;E6.1791;N47.4198;13;
3;FRA;Franche-Comté;Haute-Saône;Beaumotte-lès-Pin 70060;E5.9333;N47.3500;13;
3;FRA;Franche-Comté;Haute-Saône;Belfahy 70061;E6.0500;N47.5833;13;
3;FRA;Franche-Comté;Haute-Saône;Belmont 70062;E6.5029;N47.7888;13;
3;FRA;Franche-Comté;Haute-Saône;Belonchamp 70063;E5.6333;N47.2667;13;
3;FRA;Franche-Comté;Haute-Saône;Belverne 70064;E5.8500;N47.8667;13;
3;FRA;Franche-Comté;Haute-Saône;Besnans 70065;E6.1833;N47.8167;13;
3;FRA;Franche-Comté;Haute-Saône;Betaucourt 70066;E5.6333;N47.4333;13;
3;FRA;Franche-Comté;Haute-Saône;Betoncourt-lès-Brotte 70067;E6.3500;N47.7833;13;
3;FRA;Franche-Comté;Haute-Saône;Betoncourt-les-Ménétriers 70068=70373;E6.0167;N47.7833;13;
3;FRA;Franche-Comté;Haute-Saône;Betoncourt-Saint-Pancras 70069;E5.7167;N47.2833;13;
3;FRA;Franche-Comté;Haute-Saône;Betoncourt-sur-Mance 70070;E5.9167;N47.8667;13;
3;FRA;Franche-Comté;Haute-Saône;Beulotte-Saint-Laurent 70071;E5.8000;N47.6833;13;
3;FRA;Franche-Comté;Haute-Saône;Beveuge 70072;E5.8333;N47.3167;13;
3;FRA;Franche-Comté;Haute-Saône;Bithaine-et-le-Val 70073=70004;E6.3969;N47.7087;13;
3;FRA;Franche-Comté;Haute-Saône;Blondefontaine 70074;E6.7333;N47.7833;13;
3;FRA;Franche-Comté;Haute-Saône;Bonboillon 70075;E6.6167;N47.7667;13;
3;FRA;Franche-Comté;Haute-Saône;Bonnevent-Velloreille 70076;E5.9324;N47.3910;13;
3;FRA;Franche-Comté;Haute-Saône;Borey 70077;E6.6500;N47.6333;13;
3;FRA;Franche-Comté;Haute-Saône;Bougey 70078;E6.2667;N47.4500;13;
3;FRA;Franche-Comté;Haute-Saône;Bougnon 70079;E6.3333;N47.7500;13;
3;FRA;Franche-Comté;Haute-Saône;Bouhans-et-Feurg 70080;E6.1667;N47.9167;13;
3;FRA;Franche-Comté;Haute-Saône;Bouhans-lès-Lure 70081;E5.7500;N47.8333;13;
3;FRA;Franche-Comté;Haute-Saône;Bouhans-lès-Montbozon 70082;E6.6833;N47.8667;13;
3;FRA;Franche-Comté;Haute-Saône;Bouligney 70083;E6.4833;N47.5500;13;
3;FRA;Franche-Comté;Haute-Saône;Boulot 70084;E5.8667;N47.8833;13;
3;FRA;Franche-Comté;Haute-Saône;Boult 70085;E5.7000;N47.3333;13;
3;FRA;Franche-Comté;Haute-Saône;Bourbévelle 70086;E6.3500;N47.6000;13;
3;FRA;Franche-Comté;Haute-Saône;Bourguignon-lès-Conflans 70087;E5.8667;N47.7833;13;
3;FRA;Franche-Comté;Haute-Saône;Bourguignon-lès-la-Charité 70088;E5.9696;N47.5067;13;
3;FRA;Franche-Comté;Haute-Saône;Bourguignon-lès-Morey 70089;E6.1167;N47.7000;13;
3;FRA;Franche-Comté;Haute-Saône;Boursières 70090;E5.5000;N47.4833;13;
3;FRA;Franche-Comté;Haute-Saône;Bousseraucourt 70091;E6.4167;N47.7000;13;
3;FRA;Franche-Comté;Haute-Saône;Bresilley 70092;E6.2833;N47.4833;13;
3;FRA;Franche-Comté;Haute-Saône;Breuches 70093;E6.2500;N47.9000;13;
3;FRA;Franche-Comté;Haute-Saône;Breuchotte 70094;E5.9667;N47.3500;13;
3;FRA;Franche-Comté;Haute-Saône;Breurey-lès-Faverney 70095;E6.0000;N47.3833;13;
3;FRA;Franche-Comté;Haute-Saône;Brevilliers 70096;E5.9333;N47.9167;13;
3;FRA;Franche-Comté;Haute-Saône;Briaucourt 70097;E6.1667;N47.8000;13;
3;FRA;Franche-Comté;Haute-Saône;Brotte-lès-Luxeuil 70098;E5.7000;N47.7167;13;
3;FRA;Franche-Comté;Haute-Saône;Brotte-lès-Ray 70099;E6.0500;N47.6167;13;
3;FRA;Franche-Comté;Haute-Saône;Broye-Aubigney-Montseugny 70101;E5.5084;N47.3128;13;
3;FRA;Franche-Comté;Haute-Saône;Broye-les-Loups-et-Verfontaine 70100;E5.4229;N47.4626;13;
3;FRA;Franche-Comté;Haute-Saône;Brussey 70102;E5.9333;N47.9667;13;
3;FRA;Franche-Comté;Haute-Saône;Bucey-lès-Gy 70104;E5.6500;N47.2500;13;
3;FRA;Franche-Comté;Haute-Saône;Bucey-lès-Traves 70105;E6.3333;N47.8000;13;
3;FRA;Franche-Comté;Haute-Saône;Buffignécourt 70106;E6.4667;N47.8333;13;
3;FRA;Franche-Comté;Haute-Saône;Bussières 70107;E6.1333;N47.7500;13;
3;FRA;Franche-Comté;Haute-Saône;Bussurel 70108=70285;E6.7833;N47.5833;13;
3;FRA;Franche-Comté;Haute-Saône;Buthiers 70109;E6.2500;N47.8167;13;
3;FRA;Franche-Comté;Haute-Saône;Byans 70110=70285;E6.3500;N47.7500;13;
3;FRA;Franche-Comté;Haute-Saône;Calmoutier 70111;E5.7333;N47.6000;13;
3;FRA;Franche-Comté;Haute-Saône;Cemboing 70112;E5.8167;N47.3000;13;
3;FRA;Franche-Comté;Haute-Saône;Cenans 70113;E5.8500;N47.4167;13;
3;FRA;Franche-Comté;Haute-Saône;Cendrecourt 70114;E5.9833;N47.6167;13;
3;FRA;Franche-Comté;Haute-Saône;Cerre-lès-Noroy 70115;E6.0167;N47.8167;13;
3;FRA;Franche-Comté;Haute-Saône;Chagey 70116;E5.9833;N47.3333;13;
3;FRA;Franche-Comté;Haute-Saône;Châlonvillars 70117;E6.7833;N47.5500;13;
3;FRA;Franche-Comté;Haute-Saône;Chambornay-lès-Bellevaux 70118;E6.0333;N47.3500;13;
3;FRA;Franche-Comté;Haute-Saône;Chambornay-lès-Pin 70119;E6.7333;N47.5667;13;
3;FRA;Franche-Comté;Haute-Saône;Champagney 70120;E6.6833;N47.7043;13;
3;FRA;Franche-Comté;Haute-Saône;Champey 70121;E6.2833;N47.6500;13;
3;FRA;Franche-Comté;Haute-Saône;Champlitte 70122;E5.5141;N47.6155;13;
3;FRA;Franche-Comté;Haute-Saône;Champlitte-la-Ville 70123=70122;E5.8500;N47.8333;13;
3;FRA;Franche-Comté;Haute-Saône;Champtonnay 70124;E6.2000;N47.4333;13;
3;FRA;Franche-Comté;Haute-Saône;Champvans 70125;E5.4374;N47.1054;13;
3;FRA;Franche-Comté;Haute-Saône;Chancey 70126;E5.9333;N47.8500;13;
3;FRA;Franche-Comté;Haute-Saône;Chantes 70127;E6.3167;N47.6000;13;
3;FRA;Franche-Comté;Haute-Saône;Charcenne 70130;E6.7333;N47.6167;13;
3;FRA;Franche-Comté;Haute-Saône;Charentenay 70131=70492;E5.9000;N47.3333;13;
3;FRA;Franche-Comté;Haute-Saône;Chargey-lès-Gray 70132;E6.1000;N47.3833;13;
3;FRA;Franche-Comté;Haute-Saône;Chargey-lès-Port 70133;E6.6833;N47.5833;13;
3;FRA;Franche-Comté;Haute-Saône;Chariez 70134;E5.5333;N47.6167;13;
3;FRA;Franche-Comté;Haute-Saône;Charmes-Saint-Valbert 70135;E5.6667;N47.3833;13;
3;FRA;Franche-Comté;Haute-Saône;Charmoille 70136;E5.6833;N47.3167;13;
3;FRA;Franche-Comté;Haute-Saône;Chassey-lès-Montbozon 70137;E5.9333;N47.6333;13;
3;FRA;Franche-Comté;Haute-Saône;Chassey-lès-Scey 70138;E5.7833;N47.3667;13;
3;FRA;Franche-Comté;Haute-Saône;Château-Lambert 70139=70283;E5.8500;N47.5833;13;
3;FRA;Franche-Comté;Haute-Saône;Châteney 70140;E6.3141;N47.6918;13;
3;FRA;Franche-Comté;Haute-Saône;Châtenois 70141;E5.5833;N47.4833;13;
3;FRA;Franche-Comté;Haute-Saône;Chaumercenne 70142;E6.0000;N47.7333;13;
3;FRA;Franche-Comté;Haute-Saône;Chauvirey-le-Châtel 70143;E6.0833;N47.6167;13;
3;FRA;Franche-Comté;Haute-Saône;Chauvirey-le-Vieil 70144;E5.7167;N47.7333;13;
3;FRA;Franche-Comté;Haute-Saône;Chaux-la-Lotière 70145;E6.1000;N47.6667;13;
3;FRA;Franche-Comté;Haute-Saône;Chaux-lès-Port 70146;E6.3333;N47.5167;13;
3;FRA;Franche-Comté;Haute-Saône;Chavanne 70147;E6.6587;N47.5587;13;
3;FRA;Franche-Comté;Haute-Saône;Chemilly 70148;E5.9833;N47.6500;13;
3;FRA;Franche-Comté;Haute-Saône;Chenebier 70149;E5.6333;N47.3000;13;
3;FRA;Franche-Comté;Haute-Saône;Chenevrey-et-Morogne 70150;E5.7500;N47.7833;13;
3;FRA;Franche-Comté;Haute-Saône;Chevigney 70151;E5.5888;N47.3342;13;
3;FRA;Franche-Comté;Haute-Saône;Choye 70152;E5.7500;N47.7833;13;
3;FRA;Franche-Comté;Haute-Saône;Cintrey 70153;E5.9833;N47.3833;13;
3;FRA;Franche-Comté;Haute-Saône;Cirey 70154;E6.0333;N47.7167;13;
3;FRA;Franche-Comté;Haute-Saône;Citers 70155;E6.7833;N47.6333;13;
3;FRA;Franche-Comté;Haute-Saône;Citey 70156;E6.7667;N47.8667;13;
3;FRA;Franche-Comté;Haute-Saône;Clairegoutte 70157;E6.3167;N47.6833;13;
3;FRA;Franche-Comté;Haute-Saône;Clans 70158;E6.0167;N47.6500;13;
3;FRA;Franche-Comté;Haute-Saône;Cognières 70159;E6.7167;N47.6500;13;
3;FRA;Franche-Comté;Haute-Saône;Coisevaux 70160;E5.7500;N47.2833;13;
3;FRA;Franche-Comté;Haute-Saône;Colombe-lès-Bithaine 70161=70195;E5.7500;N47.3833;13;
3;FRA;Franche-Comté;Haute-Saône;Colombe-lès-Vesoul 70162;E5.7500;N47.7500;13;
3;FRA;Franche-Comté;Haute-Saône;Colombier 70163;E6.1333;N47.4000;13;
3;FRA;Franche-Comté;Haute-Saône;Colombotte 70164;E6.4000;N47.7333;13;
3;FRA;Franche-Comté;Haute-Saône;Combeaufontaine 70165;E5.7833;N47.4333;13;
3;FRA;Franche-Comté;Haute-Saône;Comberjon 70166;E6.6167;N47.6667;13;
3;FRA;Franche-Comté;Haute-Saône;Conflandey 70167;E6.0333;N47.6000;13;
3;FRA;Franche-Comté;Haute-Saône;Conflans-sur-Lanterne 70168;E6.2094;N47.8158;13;
3;FRA;Franche-Comté;Haute-Saône;Confracourt 70169;E6.3000;N47.4833;13;
3;FRA;Franche-Comté;Haute-Saône;Contréglise 70170;E6.7000;N47.5833;13;
3;FRA;Franche-Comté;Haute-Saône;Corbenay 70171;E6.3667;N47.7167;13;
3;FRA;Franche-Comté;Haute-Saône;Corcelles 70173=70477;E6.2167;N47.6167;13;
3;FRA;Franche-Comté;Haute-Saône;Cordonnet 70174;E5.9718;N47.4172;13;
3;FRA;Franche-Comté;Haute-Saône;Cornot 70175;E6.2167;N47.6667;13;
3;FRA;Franche-Comté;Haute-Saône;Corravillers 70176;E6.6221;N47.8930;13;
3;FRA;Franche-Comté;Haute-Saône;Corre 70177;E6.2833;N47.6667;13;
3;FRA;Franche-Comté;Haute-Saône;Coulevon 70179;E5.8833;N47.7167;13;
3;FRA;Franche-Comté;Haute-Saône;Courchaton 70180;E6.2000;N47.6500;13;
3;FRA;Franche-Comté;Haute-Saône;Courcuire 70181;E6.0500;N47.7333;13;
3;FRA;Franche-Comté;Haute-Saône;Courmont 70182;E5.8833;N47.6667;13;
3;FRA;Franche-Comté;Haute-Saône;Courtesoult-et-Gatey 70183;E6.0333;N47.8333;13;
3;FRA;Franche-Comté;Haute-Saône;Couthenans 70184;E6.3333;N47.9000;13;
3;FRA;Franche-Comté;Haute-Saône;Cresancey 70185;E6.6167;N47.5500;13;
3;FRA;Franche-Comté;Haute-Saône;Creveney 70188;E5.8333;N47.7000;13;
3;FRA;Franche-Comté;Haute-Saône;Cromary 70189;E6.0000;N47.9167;13;
3;FRA;Franche-Comté;Haute-Saône;Cubry-lès-Faverney 70190;E6.1833;N47.6500;13;
3;FRA;Franche-Comté;Haute-Saône;Cubry-lès-Soing 70191=70492;E6.5333;N47.5167;13;
3;FRA;Franche-Comté;Haute-Saône;Cugney 70192;E5.8167;N47.3500;13;
3;FRA;Franche-Comté;Haute-Saône;Cult 70193;E6.6333;N47.6167;13;
3;FRA;Franche-Comté;Haute-Saône;Cuve 70194;E5.6167;N47.6167;13;
3;FRA;Franche-Comté;Haute-Saône;Dambenoît-lès-Colombe 70195;E6.3833;N47.7248;13;
3;FRA;Franche-Comté;Haute-Saône;Dampierre-lès-Conflans 70196;E6.7333;N47.5833;13;
3;FRA;Franche-Comté;Haute-Saône;Dampierre-sur-Linotte 70197;E5.6500;N47.4000;13;
3;FRA;Franche-Comté;Haute-Saône;Dampierre-sur-Salon 70198;E6.3000;N47.6833;13;
3;FRA;Franche-Comté;Haute-Saône;Dampvalley-lès-Colombe 70199;E6.0833;N47.3667;13;
3;FRA;Franche-Comté;Haute-Saône;Dampvalley-Saint-Pancras 70200;E6.1333;N47.8167;13;
3;FRA;Franche-Comté;Haute-Saône;Delain 70201;E5.9167;N47.6000;13;
3;FRA;Franche-Comté;Haute-Saône;Demangevelle 70202;E5.7167;N47.3667;13;
3;FRA;Franche-Comté;Haute-Saône;Denèvre 70204;E5.7333;N47.3167;13;
3;FRA;Franche-Comté;Haute-Saône;Échavanne 70205;E6.2167;N47.9000;13;
3;FRA;Franche-Comté;Haute-Saône;Échenans-sous-Mont-Vaudois 70206;E6.7725;N47.6033;13;
3;FRA;Franche-Comté;Haute-Saône;Échenoz-la-Méline 70207;E6.1833;N47.8500;13;
3;FRA;Franche-Comté;Haute-Saône;Échenoz-le-Sec 70208;E6.2333;N47.5167;13;
3;FRA;Franche-Comté;Haute-Saône;Échevanne 70209=70528;E5.6657;N47.4204;13;
3;FRA;Franche-Comté;Haute-Saône;Écromagny 70210;E5.6833;N47.5500;13;
3;FRA;Franche-Comté;Haute-Saône;Écuelle 70211;E6.2500;N47.6333;13;
3;FRA;Franche-Comté;Haute-Saône;Éguilley 70212=70441;E5.9977;N47.4682;13;
3;FRA;Franche-Comté;Haute-Saône;Éhuns 70213;E6.2000;N47.9167;13;
3;FRA;Franche-Comté;Haute-Saône;Équevilley 70214;E5.6333;N47.5833;13;
3;FRA;Franche-Comté;Haute-Saône;Errevet 70215;E6.0333;N47.9333;13;
3;FRA;Franche-Comté;Haute-Saône;Esboz-Brest 70216;E5.6500;N47.5667;13;
3;FRA;Franche-Comté;Haute-Saône;Esmoulières 70217;E6.7667;N47.6833;13;
3;FRA;Franche-Comté;Haute-Saône;Esmoulins 70218;E6.4500;N47.8000;13;
3;FRA;Franche-Comté;Haute-Saône;Esprels 70219;E6.6167;N47.8500;13;
3;FRA;Franche-Comté;Haute-Saône;Essertenne-et-Cecey 70220;E5.5667;N47.4000;13;
3;FRA;Franche-Comté;Haute-Saône;Étobon 70221;E6.3667;N47.5333;13;
3;FRA;Franche-Comté;Haute-Saône;Étrelles-et-la-Montbleuse 70222;E5.8616;N47.4593;13;
3;FRA;Franche-Comté;Haute-Saône;Étroitefontaine 70223=70031;E6.4905;N47.5675;13;
3;FRA;Franche-Comté;Haute-Saône;Étuz 70224;E5.4833;N47.4000;13;
3;FRA;Franche-Comté;Haute-Saône;Fahy-lès-Autrey 70225;E5.4833;N47.5167;13;
3;FRA;Franche-Comté;Haute-Saône;Fallon 70226;E6.4833;N47.5000;13;
3;FRA;Franche-Comté;Haute-Saône;Faucogney-et-la-Mer 70227;E6.5667;N47.8500;13;
3;FRA;Franche-Comté;Haute-Saône;Faverney 70228;E6.1000;N47.7667;13;
3;FRA;Franche-Comté;Haute-Saône;Faymont 70229;E6.5833;N47.6167;13;
3;FRA;Franche-Comté;Haute-Saône;Fédry 70230;E5.8833;N47.6167;13;
3;FRA;Franche-Comté;Haute-Saône;Ferrières-lès-Ray 70231;E5.8000;N47.5833;13;
3;FRA;Franche-Comté;Haute-Saône;Ferrières-lès-Scey 70232;E6.0000;N47.6500;13;
3;FRA;Franche-Comté;Haute-Saône;Filain 70234;E6.1833;N47.5167;13;
3;FRA;Franche-Comté;Haute-Saône;Flagy 70235;E6.1833;N47.7000;13;
3;FRA;Franche-Comté;Haute-Saône;Fleurey-lès-Faverney 70236;E6.0833;N47.7500;13;
3;FRA;Franche-Comté;Haute-Saône;Fleurey-lès-Lavoncourt 70237;E5.7833;N47.6667;13;
3;FRA;Franche-Comté;Haute-Saône;Fleurey-lès-Saint-Loup 70238;E6.3000;N47.9167;13;
3;FRA;Franche-Comté;Haute-Saône;Fondremand 70239;E6.0333;N47.4667;13;
3;FRA;Franche-Comté;Haute-Saône;Fontaine-lès-Luxeuil 70240;E6.3333;N47.8500;13;
3;FRA;Franche-Comté;Haute-Saône;Fontenois-la-Ville 70242;E6.1667;N47.9333;13;
3;FRA;Franche-Comté;Haute-Saône;Fontenois-lès-Montbozon 70243;E6.2333;N47.4833;13;
3;FRA;Franche-Comté;Haute-Saône;Fouchécourt 70244;E6.0000;N47.7833;13;
3;FRA;Franche-Comté;Haute-Saône;Fougerolles 70245;E6.4000;N47.8833;13;
3;FRA;Franche-Comté;Haute-Saône;Fouvent-le-Bas 70246=70247;E5.6667;N47.6500;13;
3;FRA;Franche-Comté;Haute-Saône;Fouvent-Saint-Andoche 70247;E5.6792;N47.6332;13;
3;FRA;Franche-Comté;Haute-Saône;Frahier-et-Chatebier 70248;E6.7500;N47.6667;13;
3;FRA;Franche-Comté;Haute-Saône;Framont 70252;E5.5782;N47.5778;13;
3;FRA;Franche-Comté;Haute-Saône;Francalmont 70249;E6.2667;N47.8333;13;
3;FRA;Franche-Comté;Haute-Saône;Franchevelle 70250;E6.4667;N47.7333;13;
3;FRA;Franche-Comté;Haute-Saône;Francourt 70251;E5.7500;N47.6500;13;
3;FRA;Franche-Comté;Haute-Saône;Frasne-le-Château 70253;E5.9000;N47.4667;13;
3;FRA;Franche-Comté;Haute-Saône;Frédéric-Fontaine 70254;E6.6333;N47.6500;13;
3;FRA;Franche-Comté;Haute-Saône;Fresne-Saint-Mamès 70255;E5.8667;N47.5500;13;
3;FRA;Franche-Comté;Haute-Saône;Fresse 70256;E6.6667;N47.7500;13;
3;FRA;Franche-Comté;Haute-Saône;Fretigney-et-Velloreille 70257;E5.5667;N47.6833;13;
3;FRA;Franche-Comté;Haute-Saône;Froideconche 70258;E6.4167;N47.8167;13;
3;FRA;Franche-Comté;Haute-Saône;Froideterre 70259;E6.5333;N47.7000;13;
3;FRA;Franche-Comté;Haute-Saône;Frotey-lès-Lure 70260;E6.5500;N47.6500;13;
3;FRA;Franche-Comté;Haute-Saône;Frotey-lès-Vesoul 70261;E6.1833;N47.6167;13;
3;FRA;Franche-Comté;Haute-Saône;Genevreuille 70262;E5.9000;N47.3500;13;
3;FRA;Franche-Comté;Haute-Saône;Genevrey 70263;E6.3833;N47.6667;13;
3;FRA;Franche-Comté;Haute-Saône;Georfans 70264;E6.3167;N47.7167;13;
3;FRA;Franche-Comté;Haute-Saône;Germigney 70265;E5.5486;N47.3766;13;
3;FRA;Franche-Comté;Haute-Saône;Gesincourt 70266=70002;E5.9735;N47.7713;13;
3;FRA;Franche-Comté;Haute-Saône;Gevigney-et-Mercey 70267;E6.5333;N47.5167;13;
3;FRA;Franche-Comté;Haute-Saône;Gézier-et-Fontenelay 70268;E5.9333;N47.8000;13;
3;FRA;Franche-Comté;Haute-Saône;Girefontaine 70269;E6.1833;N47.9000;13;
3;FRA;Franche-Comté;Haute-Saône;Gonvillars 70270=70477;E6.6333;N47.5333;13;
3;FRA;Franche-Comté;Haute-Saône;Gouhenans 70271;E6.4667;N47.6000;13;
3;FRA;Franche-Comté;Haute-Saône;Gourgeon 70272;E5.8500;N47.7167;13;
3;FRA;Franche-Comté;Haute-Saône;Grammont 70273;E6.5167;N47.5167;13;
3;FRA;Franche-Comté;Haute-Saône;Grandecourt 70274;E5.8500;N47.6333;13;
3;FRA;Franche-Comté;Haute-Saône;Grandvelle-et-le-Perrenot 70275;E5.9944;N47.5078;13;
3;FRA;Franche-Comté;Haute-Saône;Granges-la-Ville 70276;E6.5667;N47.5667;13;
3;FRA;Franche-Comté;Haute-Saône;Granges-le-Bourg 70277;E6.5833;N47.5667;13;
3;FRA;Franche-Comté;Haute-Saône;Grattery 70278;E6.0833;N47.6667;13;
3;FRA;Franche-Comté;Haute-Saône;Gray 70279;E5.5833;N47.4500;13;
3;FRA;Franche-Comté;Haute-Saône;Gray-la-Ville 70280;E5.5667;N47.4333;13;
3;FRA;Franche-Comté;Haute-Saône;Greucourt 70281;E5.8667;N47.5333;13;
3;FRA;Franche-Comté;Haute-Saône;Gy 70282;E5.8167;N47.4000;13;
3;FRA;Franche-Comté;Haute-Saône;Haut-du-Them-Château-Lambert 70283;E6.7220;N47.8430;13;
3;FRA;Franche-Comté;Haute-Saône;Hautevelle 70284;E6.2833;N47.8500;13;
3;FRA;Franche-Comté;Haute-Saône;Héricourt 70285;E6.7500;N47.5833;13;
3;FRA;Franche-Comté;Haute-Saône;Hugier 70286;E5.7167;N47.3167;13;
3;FRA;Franche-Comté;Haute-Saône;Hurecourt 70287;E6.0667;N47.9000;13;
3;FRA;Franche-Comté;Haute-Saône;Hyet 70288;E6.0833;N47.4833;13;
3;FRA;Franche-Comté;Haute-Saône;Igny 70289;E5.7667;N47.4833;13;
3;FRA;Franche-Comté;Haute-Saône;Jasney 70290;E6.1833;N47.8667;13;
3;FRA;Franche-Comté;Haute-Saône;Jonvelle 70291;E5.9167;N47.9333;13;
3;FRA;Franche-Comté;Haute-Saône;Jussey 70292;E5.9000;N47.8167;13;
3;FRA;Franche-Comté;Haute-Saône;La Barre 70050;E5.6847;N47.1491;13;
3;FRA;Franche-Comté;Haute-Saône;La Basse-Vaivre 70051;E6.0500;N47.9500;13;
3;FRA;Franche-Comté;Haute-Saône;La Bruyère 70103;E6.4833;N47.8333;13;
3;FRA;Franche-Comté;Haute-Saône;La Chapelle-lès-Luxeuil 70128;E6.5833;N47.6833;13;
3;FRA;Franche-Comté;Haute-Saône;La Chapelle-Saint-Quillain 70129;E6.3667;N47.7667;13;
3;FRA;Franche-Comté;Haute-Saône;La Corbière 70172;E5.8167;N47.4833;13;
3;FRA;Franche-Comté;Haute-Saône;La Côte 70178;E6.5000;N47.8000;13;
3;FRA;Franche-Comté;Haute-Saône;La Creuse 70186;E6.3500;N47.6833;13;
3;FRA;Franche-Comté;Haute-Saône;La Demie 70203;E6.1667;N47.5833;13;
3;FRA;Franche-Comté;Haute-Saône;La Grande-Résie 70443;E5.5667;N47.3333;13;
3;FRA;Franche-Comté;Haute-Saône;La Lanterne-et-les-Armonts 70295;E6.5270;N47.7949;13;
3;FRA;Franche-Comté;Haute-Saône;La Longine 70308;E6.5833;N47.8833;13;
3;FRA;Franche-Comté;Haute-Saône;La Malachère 70326;E6.0833;N47.4500;13;
3;FRA;Franche-Comté;Haute-Saône;La Montagne 70352;E6.6000;N47.9167;13;
3;FRA;Franche-Comté;Haute-Saône;La Neuvelle-lès-Lure 70385;E6.5500;N47.7167;13;
3;FRA;Franche-Comté;Haute-Saône;La Neuvelle-lès-Scey 70386;E5.9333;N47.7000;13;
3;FRA;Franche-Comté;Haute-Saône;La Pisseure 70411;E6.2333;N47.8667;13;
3;FRA;Franche-Comté;Haute-Saône;La Proiselière-et-Langle 70425;E6.5000;N47.8333;13;
3;FRA;Franche-Comté;Haute-Saône;La Quarte 70430;E5.7000;N47.7667;13;
3;FRA;Franche-Comté;Haute-Saône;La Résie-Saint-Martin 70444;E5.6167;N47.3167;13;
3;FRA;Franche-Comté;Haute-Saône;La Roche-Morey 70373;E5.7422;N47.7095;13;
3;FRA;Franche-Comté;Haute-Saône;La Rochelle 70450;E5.7333;N47.7500;13;
3;FRA;Franche-Comté;Haute-Saône;La Rosière 70453;E6.6333;N47.9167;13;
3;FRA;Franche-Comté;Haute-Saône;La Vaivre 70512;E6.3633;N47.9136;13;
3;FRA;Franche-Comté;Haute-Saône;La Vergenne 70544;E6.5333;N47.6167;13;
3;FRA;Franche-Comté;Haute-Saône;La Vernotte 70549;E5.8667;N47.5167;13;
3;FRA;Franche-Comté;Haute-Saône;La Villedieu-en-Fontenette 70555;E6.1966;N47.7715;13;
3;FRA;Franche-Comté;Haute-Saône;La Villedieu-lès-Quenoche 70556=70456;E6.1297;N47.4504;13;
3;FRA;Franche-Comté;Haute-Saône;La Villeneuve-Bellenoye-et-la-Maize 70558;E6.2512;N47.7082;13;
3;FRA;Franche-Comté;Haute-Saône;La Voivre 70573;E6.5333;N47.8333;13;
3;FRA;Franche-Comté;Haute-Saône;Lambrey 70293;E5.9333;N47.7667;13;
3;FRA;Franche-Comté;Haute-Saône;Lantenot 70294;E6.5000;N47.7500;13;
3;FRA;Franche-Comté;Haute-Saône;Larians-et-Munans 70296;E6.2333;N47.4167;13;
3;FRA;Franche-Comté;Haute-Saône;Larret 70297;E5.6333;N47.6333;13;
3;FRA;Franche-Comté;Haute-Saône;Lavigney 70298;E5.8167;N47.7167;13;
3;FRA;Franche-Comté;Haute-Saône;Lavoncourt 70299;E5.7833;N47.6333;13;
3;FRA;Franche-Comté;Haute-Saône;Le Magnoray 70316;E6.1000;N47.5333;13;
3;FRA;Franche-Comté;Haute-Saône;Le Pont-de-Planches 70418;E5.9167;N47.5333;13;
3;FRA;Franche-Comté;Haute-Saône;Le Tremblois 70505;E5.5833;N47.3833;13;
3;FRA;Franche-Comté;Haute-Saône;Le Val-de-Gouhenans 70515;E6.4833;N47.6167;13;
3;FRA;Franche-Comté;Haute-Saône;Le Val-Saint-Éloi 70518;E6.1826;N47.7367;13;
3;FRA;Franche-Comté;Haute-Saône;Leffond 70300=70122;E5.4667;N47.6667;13;
3;FRA;Franche-Comté;Haute-Saône;Les Aynans 70046;E6.4500;N47.6167;13;
3;FRA;Franche-Comté;Haute-Saône;Les Bâties 70053;E5.9000;N47.5000;13;
3;FRA;Franche-Comté;Haute-Saône;Les Fessey 70233;E6.5176;N47.8203;13;
3;FRA;Franche-Comté;Haute-Saône;Les Fontenis 70241=70447;E6.0667;N47.4500;13;
3;FRA;Franche-Comté;Haute-Saône;Les Magny 70317;E6.4500;N47.5333;13;
3;FRA;Franche-Comté;Haute-Saône;Lieffrans 70301;E6.3500;N47.6333;13;
3;FRA;Franche-Comté;Haute-Saône;Lieucourt 70302;E5.9667;N47.5167;13;
3;FRA;Franche-Comté;Haute-Saône;Liévans 70303;E5.6167;N47.3500;13;
3;FRA;Franche-Comté;Haute-Saône;Linexert 70304;E6.4833;N47.7500;13;
3;FRA;Franche-Comté;Haute-Saône;Loeuilley 70305;E5.3833;N47.4667;13;
3;FRA;Franche-Comté;Haute-Saône;Lomont 70306;E6.6167;N47.6167;13;
3;FRA;Franche-Comté;Haute-Saône;Longevelle 70307;E6.4471;N47.5894;13;
3;FRA;Franche-Comté;Haute-Saône;Loulans-Verchamp 70309;E6.2043;N47.4476;13;
3;FRA;Franche-Comté;Haute-Saône;Lure 70310;E6.5000;N47.6833;13;
3;FRA;Franche-Comté;Haute-Saône;Luxeuil-les-Bains 70311;E6.3833;N47.8167;13;
3;FRA;Franche-Comté;Haute-Saône;Luze 70312;E6.7333;N47.6000;13;
3;FRA;Franche-Comté;Haute-Saône;Lyoffans 70313;E6.5833;N47.6500;13;
3;FRA;Franche-Comté;Haute-Saône;Magnivray 70314;E6.4667;N47.7833;13;
3;FRA;Franche-Comté;Haute-Saône;Magnoncourt 70315;E6.2833;N47.9000;13;
3;FRA;Franche-Comté;Haute-Saône;Magny-Danigon 70318;E6.6029;N47.6746;13;
3;FRA;Franche-Comté;Haute-Saône;Magny-Jobert 70319;E6.6000;N47.6500;13;
3;FRA;Franche-Comté;Haute-Saône;Magny-lès-Jussey 70320;E5.9833;N47.8667;13;
3;FRA;Franche-Comté;Haute-Saône;Magny-Vernois 70321;E6.4833;N47.6667;13;
3;FRA;Franche-Comté;Haute-Saône;Mailleroncourt-Charette 70322;E6.2667;N47.7333;13;
3;FRA;Franche-Comté;Haute-Saône;Mailleroncourt-Saint-Pancras 70323;E6.1333;N47.9167;13;
3;FRA;Franche-Comté;Haute-Saône;Mailley-et-Chazelot 70324;E6.0500;N47.5333;13;
3;FRA;Franche-Comté;Haute-Saône;Maizières 70325;E6.0167;N47.5000;13;
3;FRA;Franche-Comté;Haute-Saône;Malans 70327;E5.5963;N47.2637;13;
3;FRA;Franche-Comté;Haute-Saône;Malbouhans 70328;E6.5833;N47.7167;13;
3;FRA;Franche-Comté;Haute-Saône;Malvillers 70329;E5.7833;N47.7333;13;
3;FRA;Franche-Comté;Haute-Saône;Mandrevillars 70330;E6.7833;N47.6167;13;
3;FRA;Franche-Comté;Haute-Saône;Mantoche 70331;E5.5333;N47.4167;13;
3;FRA;Franche-Comté;Haute-Saône;Marast 70332;E6.3833;N47.5500;13;
3;FRA;Franche-Comté;Haute-Saône;Margilley 70333=70122;E5.5500;N47.6000;13;
3;FRA;Franche-Comté;Haute-Saône;Marnay 70334;E5.7667;N47.2833;13;
3;FRA;Franche-Comté;Haute-Saône;Maussans 70335;E6.2500;N47.4333;13;
3;FRA;Franche-Comté;Haute-Saône;Mélecey 70336;E6.4833;N47.5167;13;
3;FRA;Franche-Comté;Haute-Saône;Melin 70337;E6.5833;N47.7500;13;
3;FRA;Franche-Comté;Haute-Saône;Melincourt 70338;E5.8333;N47.7333;13;
3;FRA;Franche-Comté;Haute-Saône;Mélisey 70339;E6.1333;N47.8833;13;
3;FRA;Franche-Comté;Haute-Saône;Membrey 70340;E5.7500;N47.5833;13;
3;FRA;Franche-Comté;Haute-Saône;Menoux 70341;E6.1000;N47.8000;13;
3;FRA;Franche-Comté;Haute-Saône;Mercey-sur-Saône 70342;E5.7333;N47.5333;13;
3;FRA;Franche-Comté;Haute-Saône;Mersuay 70343;E6.1333;N47.7833;13;
3;FRA;Franche-Comté;Haute-Saône;Meurcourt 70344;E6.2333;N47.7667;13;
3;FRA;Franche-Comté;Haute-Saône;Miellin 70345;E6.7333;N47.8167;13;
3;FRA;Franche-Comté;Haute-Saône;Mignafans 70346=70487;E6.5500;N47.5500;13;
3;FRA;Franche-Comté;Haute-Saône;Mignavillers 70347;E6.5500;N47.5833;13;
3;FRA;Franche-Comté;Haute-Saône;Moffans-et-Vacheresse 70348;E6.5500;N47.6333;13;
3;FRA;Franche-Comté;Haute-Saône;Moimay 70349;E6.4167;N47.5500;13;
3;FRA;Franche-Comté;Haute-Saône;Molay 70350;E5.7417;N47.7331;13;
3;FRA;Franche-Comté;Haute-Saône;Mollans 70351;E6.3667;N47.6500;13;
3;FRA;Franche-Comté;Haute-Saône;Mont-le-Frânois 70365=70252;E5.5833;N47.5833;13;
3;FRA;Franche-Comté;Haute-Saône;Mont-le-Vernois 70367;E6.0667;N47.6000;13;
3;FRA;Franche-Comté;Haute-Saône;Mont-Saint-Léger 70369;E5.7833;N47.6333;13;
3;FRA;Franche-Comté;Haute-Saône;Montagney 70353;E5.6609;N47.2865;13;
3;FRA;Franche-Comté;Haute-Saône;Montarlot-lès-Champlitte 70354=70122;E5.5138;N47.6429;13;
3;FRA;Franche-Comté;Haute-Saône;Montarlot-lès-Rioz 70355;E6.0000;N47.4167;13;
3;FRA;Franche-Comté;Haute-Saône;Montboillon 70356;E5.9167;N47.3667;13;
3;FRA;Franche-Comté;Haute-Saône;Montbozon 70357;E6.2667;N47.4667;13;
3;FRA;Franche-Comté;Haute-Saône;Montcey 70358;E6.2333;N47.6500;13;
3;FRA;Franche-Comté;Haute-Saône;Montcourt 70359;E5.9500;N47.9333;13;
3;FRA;Franche-Comté;Haute-Saône;Montdoré 70360;E6.0833;N47.9167;13;
3;FRA;Franche-Comté;Haute-Saône;Montessaux 70361;E6.5667;N47.7500;13;
3;FRA;Franche-Comté;Haute-Saône;Montigny-lès-Cherlieu 70362;E5.8167;N47.8000;13;
3;FRA;Franche-Comté;Haute-Saône;Montigny-lès-Vesoul 70363;E6.0667;N47.6333;13;
3;FRA;Franche-Comté;Haute-Saône;Montjustin-et-Velotte 70364;E6.3753;N47.6135;13;
3;FRA;Franche-Comté;Haute-Saône;Montot 70368;E5.6167;N47.5667;13;
3;FRA;Franche-Comté;Haute-Saône;Montseugny 70370=70101;E5.5333;N47.3500;13;
3;FRA;Franche-Comté;Haute-Saône;Montureux-et-Prantigny 70371;E5.6333;N47.5000;13;
3;FRA;Franche-Comté;Haute-Saône;Montureux-lès-Baulay 70372;E5.9833;N47.8167;13;
3;FRA;Franche-Comté;Haute-Saône;Motey-Besuche 70374;E5.6667;N47.3000;13;
3;FRA;Franche-Comté;Haute-Saône;Motey-sur-Saône 70375;E5.7500;N47.5333;13;
3;FRA;Franche-Comté;Haute-Saône;Nantilly 70376;E5.5333;N47.4667;13;
3;FRA;Franche-Comté;Haute-Saône;Nantouard 70377=70466;E5.7167;N47.4333;13;
3;FRA;Franche-Comté;Haute-Saône;Navenne 70378;E6.1667;N47.6000;13;
3;FRA;Franche-Comté;Haute-Saône;Nervezain 70379=70525;E5.8302;N47.6643;13;
3;FRA;Franche-Comté;Haute-Saône;Neurey-en-Vaux 70380;E6.2000;N47.7500;13;
3;FRA;Franche-Comté;Haute-Saône;Neurey-lès-la-Demie 70381;E6.2000;N47.5667;13;
3;FRA;Franche-Comté;Haute-Saône;Neuvelle-lès-Champlitte 70382=70122;E5.5500;N47.5833;13;
3;FRA;Franche-Comté;Haute-Saône;Neuvelle-lès-Cromary 70383;E6.0833;N47.4000;13;
3;FRA;Franche-Comté;Haute-Saône;Neuvelle-lès-la-Charité 70384;E5.9500;N47.5333;13;
3;FRA;Franche-Comté;Haute-Saône;Noidans-le-Ferroux 70387;E6.1333;N47.6167;13;
3;FRA;Franche-Comté;Haute-Saône;Noidans-lès-Vesoul 70388;E5.9500;N47.5667;13;
3;FRA;Franche-Comté;Haute-Saône;Noiron 70389;E5.6333;N47.3833;13;
3;FRA;Franche-Comté;Haute-Saône;Noroy-le-Bourg 70390;E5.8333;N47.8167;13;
3;FRA;Franche-Comté;Haute-Saône;Noroy-lès-Jussey 70391=70292;E6.3000;N47.6167;13;
3;FRA;Franche-Comté;Haute-Saône;Oigney 70392;E5.8500;N47.7667;13;
3;FRA;Franche-Comté;Haute-Saône;Oiselay-et-Grachaux 70393;E5.9333;N47.4167;13;
3;FRA;Franche-Comté;Haute-Saône;Onay 70394;E5.6833;N47.3833;13;
3;FRA;Franche-Comté;Haute-Saône;Oppenans 70395;E6.3833;N47.5833;13;
3;FRA;Franche-Comté;Haute-Saône;Oricourt 70396;E6.4000;N47.6000;13;
3;FRA;Franche-Comté;Haute-Saône;Ormenans 70397;E6.2000;N47.4500;13;
3;FRA;Franche-Comté;Haute-Saône;Ormoiche 70398;E6.3167;N47.8000;13;
3;FRA;Franche-Comté;Haute-Saône;Ormoy 70399;E5.9833;N47.8833;13;
3;FRA;Franche-Comté;Haute-Saône;Ouge 70400;E5.7000;N47.8000;13;
3;FRA;Franche-Comté;Haute-Saône;Ovanches 70401;E5.9500;N47.6333;13;
3;FRA;Franche-Comté;Haute-Saône;Oyrières 70402;E5.5667;N47.5333;13;
3;FRA;Franche-Comté;Haute-Saône;Palante 70403;E6.5833;N47.6500;13;
3;FRA;Franche-Comté;Haute-Saône;Passavant-la-Rochère 70404;E6.0333;N47.9667;13;
3;FRA;Franche-Comté;Haute-Saône;Pennesières 70405;E6.1000;N47.4833;13;
3;FRA;Franche-Comté;Haute-Saône;Percey-le-Grand 70406;E5.3895;N47.6097;13;
3;FRA;Franche-Comté;Haute-Saône;Perrouse 70407;E6.0500;N47.3667;13;
3;FRA;Franche-Comté;Haute-Saône;Pesmes 70408;E5.5667;N47.2833;13;
3;FRA;Franche-Comté;Haute-Saône;Pierrecourt 70409;E5.6000;N47.6500;13;
3;FRA;Franche-Comté;Haute-Saône;Pin 70410;E5.8637;N47.3217;13;
3;FRA;Franche-Comté;Haute-Saône;Plainemont 70412;E6.2167;N47.8500;13;
3;FRA;Franche-Comté;Haute-Saône;Plancher-Bas 70413;E6.7333;N47.7167;13;
3;FRA;Franche-Comté;Haute-Saône;Plancher-les-Mines 70414;E6.7500;N47.7667;13;
3;FRA;Franche-Comté;Haute-Saône;Polaincourt-et-Clairefontaine 70415;E6.0710;N47.8819;13;
3;FRA;Franche-Comté;Haute-Saône;Pomoy 70416;E6.3500;N47.6667;13;
3;FRA;Franche-Comté;Haute-Saône;Pont-du-Bois 70419;E6.1333;N47.9667;13;
3;FRA;Franche-Comté;Haute-Saône;Pont-sur-l'Ognon 70420;E6.3833;N47.5167;13;
3;FRA;Franche-Comté;Haute-Saône;Pontcey 70417;E6.0333;N47.6333;13;
3;FRA;Franche-Comté;Haute-Saône;Port-sur-Saône 70421;E6.0500;N47.6833;13;
3;FRA;Franche-Comté;Haute-Saône;Poyans 70422;E5.4667;N47.4500;13;
3;FRA;Franche-Comté;Haute-Saône;Preigney 70423;E5.7833;N47.7667;13;
3;FRA;Franche-Comté;Haute-Saône;Presle 70424=70197;E6.2667;N47.5333;13;
3;FRA;Franche-Comté;Haute-Saône;Provenchère 70426;E6.1333;N47.7167;13;
3;FRA;Franche-Comté;Haute-Saône;Purgerot 70427;E6.0000;N47.7500;13;
3;FRA;Franche-Comté;Haute-Saône;Pusey 70428;E6.1333;N47.6500;13;
3;FRA;Franche-Comté;Haute-Saône;Pusy-et-Épenoux 70429;E6.1500;N47.6667;13;
3;FRA;Franche-Comté;Haute-Saône;Quenoche 70431;E6.1000;N47.4667;13;
3;FRA;Franche-Comté;Haute-Saône;Quers 70432;E6.4333;N47.7333;13;
3;FRA;Franche-Comté;Haute-Saône;Quincey 70433;E6.1833;N47.6167;13;
3;FRA;Franche-Comté;Haute-Saône;Quitteur 70434=70058;E5.6833;N47.5333;13;
3;FRA;Franche-Comté;Haute-Saône;Raddon-et-Chapendu 70435;E6.4833;N47.8500;13;
3;FRA;Franche-Comté;Haute-Saône;Raincourt 70436;E5.8833;N47.8667;13;
3;FRA;Franche-Comté;Haute-Saône;Ranzevelle 70437;E5.9833;N47.9000;13;
3;FRA;Franche-Comté;Haute-Saône;Ray-sur-Saône 70438;E5.8333;N47.5833;13;
3;FRA;Franche-Comté;Haute-Saône;Raze 70439;E6.0167;N47.5833;13;
3;FRA;Franche-Comté;Haute-Saône;Recologne 70440;E5.7833;N47.5833;13;
3;FRA;Franche-Comté;Haute-Saône;Recologne-lès-Rioz 70441;E5.9833;N47.4667;13;
3;FRA;Franche-Comté;Haute-Saône;Renaucourt 70442;E5.7667;N47.6333;13;
3;FRA;Franche-Comté;Haute-Saône;Rignovelle 70445;E6.4833;N47.7667;13;
3;FRA;Franche-Comté;Haute-Saône;Rigny 70446;E5.6333;N47.4667;13;
3;FRA;Franche-Comté;Haute-Saône;Rioz 70447;E6.0667;N47.4167;13;
3;FRA;Franche-Comté;Haute-Saône;Roche-et-Raucourt 70448;E5.7167;N47.6167;13;
3;FRA;Franche-Comté;Haute-Saône;Ronchamp 70451;E6.6500;N47.7000;13;
3;FRA;Franche-Comté;Haute-Saône;Rosey 70452;E6.0333;N47.5667;13;
3;FRA;Franche-Comté;Haute-Saône;Rosières-sur-Mance 70454;E5.8000;N47.8333;13;
3;FRA;Franche-Comté;Haute-Saône;Roye 70455;E6.5500;N47.6667;13;
3;FRA;Franche-Comté;Haute-Saône;Ruhans 70456;E6.1333;N47.4667;13;
3;FRA;Franche-Comté;Haute-Saône;Rupt-sur-Saône 70457;E5.9333;N47.6500;13;
3;FRA;Franche-Comté;Haute-Saône;Saint-Andoche 70458=70247;E5.6833;N47.6333;13;
3;FRA;Franche-Comté;Haute-Saône;Saint-Barthélemy 70459;E6.5833;N47.7500;13;
3;FRA;Franche-Comté;Haute-Saône;Saint-Bresson 70460;E6.5167;N47.8667;13;
3;FRA;Franche-Comté;Haute-Saône;Saint-Broing 70461;E5.7000;N47.4500;13;
3;FRA;Franche-Comté;Haute-Saône;Saint-Ferjeux 70462;E6.5167;N47.5500;13;
3;FRA;Franche-Comté;Haute-Saône;Saint-Gand 70463;E5.8500;N47.5167;13;
3;FRA;Franche-Comté;Haute-Saône;Saint-Germain 70464;E6.5333;N47.7167;13;
3;FRA;Franche-Comté;Haute-Saône;Saint-Julien 70465=70373;E5.7328;N47.7044;13;
3;FRA;Franche-Comté;Haute-Saône;Saint-Loup-Nantouard 70466;E5.7333;N47.4167;13;
3;FRA;Franche-Comté;Haute-Saône;Saint-Loup-sur-Semouse 70467;E6.2667;N47.8833;13;
3;FRA;Franche-Comté;Haute-Saône;Saint-Marcel 70468;E5.8333;N47.8333;13;
3;FRA;Franche-Comté;Haute-Saône;Saint-Remy 70472;E6.1000;N47.8333;13;
3;FRA;Franche-Comté;Haute-Saône;Saint-Sauveur 70473;E6.3833;N47.8000;13;
3;FRA;Franche-Comté;Haute-Saône;Saint-Sulpice 70474;E6.4500;N47.5667;13;
3;FRA;Franche-Comté;Haute-Saône;Saint-Valbert 70475;E6.4000;N47.8500;13;
3;FRA;Franche-Comté;Haute-Saône;Sainte-Marie-en-Chanois 70469;E6.5167;N47.8333;13;
3;FRA;Franche-Comté;Haute-Saône;Sainte-Marie-en-Chaux 70470;E6.3167;N47.7833;13;
3;FRA;Franche-Comté;Haute-Saône;Sainte-Reine 70471;E5.7833;N47.5000;13;
3;FRA;Franche-Comté;Haute-Saône;Saponcourt 70476;E6.0333;N47.8667;13;
3;FRA;Franche-Comté;Haute-Saône;Saulnot 70477;E6.6333;N47.5667;13;
3;FRA;Franche-Comté;Haute-Saône;Saulx 70478;E6.2899;N47.6960;13;
3;FRA;Franche-Comté;Haute-Saône;Sauvigney-lès-Gray 70479;E5.7377;N47.4476;13;
3;FRA;Franche-Comté;Haute-Saône;Sauvigney-lès-Pesmes 70480;E5.5667;N47.3000;13;
3;FRA;Franche-Comté;Haute-Saône;Savoyeux 70481;E5.7500;N47.5500;13;
3;FRA;Franche-Comté;Haute-Saône;Scey-sur-Saône-et-Saint-Albin 70482;E5.9667;N47.6667;13;
3;FRA;Franche-Comté;Haute-Saône;Scye 70483;E6.0500;N47.6500;13;
3;FRA;Franche-Comté;Haute-Saône;Secenans 70484;E6.5667;N47.5500;13;
3;FRA;Franche-Comté;Haute-Saône;Selles 70485;E6.0833;N47.9667;13;
3;FRA;Franche-Comté;Haute-Saône;Semmadon 70486;E5.8667;N47.7333;13;
3;FRA;Franche-Comté;Haute-Saône;Senargent-Mignafans 70487;E6.5269;N47.5657;13;
3;FRA;Franche-Comté;Haute-Saône;Senoncourt 70488;E6.0667;N47.8333;13;
3;FRA;Franche-Comté;Haute-Saône;Servance 70489;E6.6833;N47.8167;13;
3;FRA;Franche-Comté;Haute-Saône;Servigney 70490;E6.3000;N47.7167;13;
3;FRA;Franche-Comté;Haute-Saône;Seveux 70491;E5.7500;N47.5500;13;
3;FRA;Franche-Comté;Haute-Saône;Soing-Cubry-Charentenay 70492;E5.8765;N47.5824;13;
3;FRA;Franche-Comté;Haute-Saône;Sorans-lès-Breurey 70493;E6.0500;N47.4000;13;
3;FRA;Franche-Comté;Haute-Saône;Sornay 70494;E5.7000;N47.2833;13;
3;FRA;Franche-Comté;Haute-Saône;Suaucourt-et-Pisseloup 70495=70373;E5.7333;N47.6833;13;
3;FRA;Franche-Comté;Haute-Saône;Tartécourt 70496;E5.9833;N47.8333;13;
3;FRA;Franche-Comté;Haute-Saône;Tavey 70497;E6.7333;N47.5667;13;
3;FRA;Franche-Comté;Haute-Saône;Ternuay-Melay-et-Saint-Hilaire 70498;E6.6334;N47.7868;13;
3;FRA;Franche-Comté;Haute-Saône;Theuley 70499;E5.8000;N47.6167;13;
3;FRA;Franche-Comté;Haute-Saône;Thieffrans 70500;E6.2833;N47.4667;13;
3;FRA;Franche-Comté;Haute-Saône;Thiénans 70501;E6.3167;N47.5000;13;
3;FRA;Franche-Comté;Haute-Saône;Tincey-et-Pontrebeau 70502;E5.8000;N47.6000;13;
3;FRA;Franche-Comté;Haute-Saône;Traitiéfontaine 70503;E6.1000;N47.4167;13;
3;FRA;Franche-Comté;Haute-Saône;Traves 70504;E5.9667;N47.6167;13;
3;FRA;Franche-Comté;Haute-Saône;Trémoins 70506;E6.7000;N47.5667;13;
3;FRA;Franche-Comté;Haute-Saône;Trésilley 70507;E6.0333;N47.4500;13;
3;FRA;Franche-Comté;Haute-Saône;Trevey 70508=70197;E6.2500;N47.5167;13;
3;FRA;Franche-Comté;Haute-Saône;Tromarey 70509;E5.7167;N47.3333;13;
3;FRA;Franche-Comté;Haute-Saône;Vadans 70510;E5.5878;N47.3477;13;
3;FRA;Franche-Comté;Haute-Saône;Vaite 70511;E5.7333;N47.5833;13;
3;FRA;Franche-Comté;Haute-Saône;Vaivre-et-Montoille 70513;E6.1000;N47.6333;13;
3;FRA;Franche-Comté;Haute-Saône;Valay 70514;E5.6333;N47.3333;13;
3;FRA;Franche-Comté;Haute-Saône;Vallerois-le-Bois 70516;E6.2833;N47.5500;13;
3;FRA;Franche-Comté;Haute-Saône;Vallerois-Lorioz 70517;E6.1500;N47.5667;13;
3;FRA;Franche-Comté;Haute-Saône;Vandelans 70519;E6.1667;N47.4000;13;
3;FRA;Franche-Comté;Haute-Saône;Vanne 70520;E5.8333;N47.6000;13;
3;FRA;Franche-Comté;Haute-Saône;Vantoux-et-Longevelle 70521;E5.8500;N47.4333;13;
3;FRA;Franche-Comté;Haute-Saône;Varogne 70522;E6.2000;N47.7167;13;
3;FRA;Franche-Comté;Haute-Saône;Vars 70523;E5.5333;N47.5333;13;
3;FRA;Franche-Comté;Haute-Saône;Vauchoux 70524;E6.0333;N47.6667;13;
3;FRA;Franche-Comté;Haute-Saône;Vauconcourt-Nervezain 70525;E5.8262;N47.6597;13;
3;FRA;Franche-Comté;Haute-Saône;Vauvillers 70526;E6.1000;N47.9167;13;
3;FRA;Franche-Comté;Haute-Saône;Vaux-le-Moncelot 70527;E5.9000;N47.4667;13;
3;FRA;Franche-Comté;Haute-Saône;Velesmes-Échevanne 70528;E5.6675;N47.4198;13;
3;FRA;Franche-Comté;Haute-Saône;Velet 70529;E5.6500;N47.5167;13;
3;FRA;Franche-Comté;Haute-Saône;Velle-le-Châtel 70536;E5.5667;N47.4333;13;
3;FRA;Franche-Comté;Haute-Saône;Vellechevreux-et-Courbenans 70530;E6.5387;N47.5407;13;
3;FRA;Franche-Comté;Haute-Saône;Velleclaire 70531;E6.0500;N47.6000;13;
3;FRA;Franche-Comté;Haute-Saône;Vellefaux 70532;E5.8667;N47.4333;13;
3;FRA;Franche-Comté;Haute-Saône;Vellefrey-et-Vellefrange 70533;E5.8302;N47.4299;13;
3;FRA;Franche-Comté;Haute-Saône;Vellefrie 70534;E6.1333;N47.5500;13;
3;FRA;Franche-Comté;Haute-Saône;Velleguindry-et-Levrecey 70535;E6.2167;N47.7000;13;
3;FRA;Franche-Comté;Haute-Saône;Velleminfroy 70537;E6.1000;N47.5500;13;
3;FRA;Franche-Comté;Haute-Saône;Vellemoz 70538;E6.3167;N47.6667;13;
3;FRA;Franche-Comté;Haute-Saône;Vellexon-Queutrey-et-Vaudey 70539;E5.8066;N47.5628;13;
3;FRA;Franche-Comté;Haute-Saône;Velloreille-lès-Choye 70540;E5.8000;N47.4667;13;
3;FRA;Franche-Comté;Haute-Saône;Velorcey 70541;E5.7333;N47.4000;13;
3;FRA;Franche-Comté;Haute-Saône;Venère 70542;E6.2500;N47.7833;13;
3;FRA;Franche-Comté;Haute-Saône;Venisey 70545;E5.6667;N47.3667;13;
3;FRA;Franche-Comté;Haute-Saône;Verchamp 70543=70309;E6.0000;N47.8333;13;
3;FRA;Franche-Comté;Haute-Saône;Vereux 70546;E6.2167;N47.4333;13;
3;FRA;Franche-Comté;Haute-Saône;Verlans 70547;E6.7167;N47.5667;13;
3;FRA;Franche-Comté;Haute-Saône;Vernois-sur-Mance 70548;E5.7833;N47.8500;13;
3;FRA;Franche-Comté;Haute-Saône;Vesoul 70550;E6.1667;N47.6333;13;
3;FRA;Franche-Comté;Haute-Saône;Vezet 70551;E5.8833;N47.5333;13;
3;FRA;Franche-Comté;Haute-Saône;Villafans 70552;E6.4667;N47.5833;13;
3;FRA;Franche-Comté;Haute-Saône;Villargent 70553;E6.4833;N47.5500;13;
3;FRA;Franche-Comté;Haute-Saône;Villars-le-Pautel 70554;E5.9333;N47.9000;13;
3;FRA;Franche-Comté;Haute-Saône;Villefrancon 70557;E5.7500;N47.4000;13;
3;FRA;Franche-Comté;Haute-Saône;Villeparois 70559;E6.1833;N47.6500;13;
3;FRA;Franche-Comté;Haute-Saône;Villers-Bouton 70560;E5.9833;N47.4500;13;
3;FRA;Franche-Comté;Haute-Saône;Villers-la-Ville 70562;E6.4667;N47.5500;13;
3;FRA;Franche-Comté;Haute-Saône;Villers-le-Sec 70563;E6.2833;N47.7667;13;
3;FRA;Franche-Comté;Haute-Saône;Villers-lès-Luxeuil 70564;E6.2167;N47.6000;13;
3;FRA;Franche-Comté;Haute-Saône;Villers-Pater 70565;E6.1667;N47.4667;13;
3;FRA;Franche-Comté;Haute-Saône;Villers-sur-Port 70566;E6.0833;N47.7167;13;
3;FRA;Franche-Comté;Haute-Saône;Villers-sur-Saulnot 70567;E6.6500;N47.5500;13;
3;FRA;Franche-Comté;Haute-Saône;Villers-Vaudey 70568;E5.7667;N47.6667;13;
3;FRA;Franche-Comté;Haute-Saône;Villersexel 70561;E6.4333;N47.5500;13;
3;FRA;Franche-Comté;Haute-Saône;Vilory 70569;E6.2333;N47.7167;13;
3;FRA;Franche-Comté;Haute-Saône;Virey 70570=70045;E5.7500;N47.3500;13;
3;FRA;Franche-Comté;Haute-Saône;Visoncourt 70571;E6.3167;N47.7500;13;
3;FRA;Franche-Comté;Haute-Saône;Vitrey-sur-Mance 70572;E5.7613;N47.8138;13;
3;FRA;Franche-Comté;Haute-Saône;Volon 70574;E5.7333;N47.6167;13;
3;FRA;Franche-Comté;Haute-Saône;Voray-sur-l'Ognon 70575;E6.0178;N47.3391;13;
3;FRA;Franche-Comté;Haute-Saône;Vougécourt 70576;E6.0000;N47.9333;13;
3;FRA;Franche-Comté;Haute-Saône;Vouhenans 70577;E6.4833;N47.6500;13;
3;FRA;Franche-Comté;Haute-Saône;Vregille 70578;E5.9000;N47.3167;13;
3;FRA;Franche-Comté;Haute-Saône;Vy-le-Ferroux 70580;E6.2000;N47.5167;13;
3;FRA;Franche-Comté;Haute-Saône;Vy-lès-Filain 70583;E6.4500;N47.6500;13;
3;FRA;Franche-Comté;Haute-Saône;Vy-lès-Lure 70581;E5.9000;N47.6333;13;
3;FRA;Franche-Comté;Haute-Saône;Vy-lès-Rupt 70582;E5.9833;N47.5833;13;
3;FRA;Franche-Comté;Haute-Saône;Vyans-le-Val 70579;E6.7661;N47.5500;13;
2;FRA;Franche-Comté;Jura;;E5.6772;N46.7248;9;
3;FRA;Franche-Comté;Jura;Abergement-la-Ronce 39001;E5.3833;N47.0667;13;
3;FRA;Franche-Comté;Jura;Abergement-le-Grand 39002;E5.6833;N46.9167;13;
3;FRA;Franche-Comté;Jura;Abergement-le-Petit 39003;E5.7000;N46.9000;13;
3;FRA;Franche-Comté;Jura;Abergement-lès-Thésy 39004;E5.9333;N46.9167;13;
3;FRA;Franche-Comté;Jura;Abergement-Saint-Jean 39005=39385;E5.3667;N46.8833;13;
3;FRA;Franche-Comté;Jura;Aiglepierre 39006;E5.8167;N46.9500;13;
3;FRA;Franche-Comté;Jura;Alièze 39007;E5.5833;N46.5833;13;
3;FRA;Franche-Comté;Jura;Amange 39008;E5.5667;N47.1500;13;
3;FRA;Franche-Comté;Jura;Andelot-en-Montagne 39009;E5.9333;N46.8500;13;
3;FRA;Franche-Comté;Jura;Andelot-Morval 39010;E5.4151;N46.4254;13;
3;FRA;Franche-Comté;Jura;Annoire 39011;E5.2833;N46.9500;13;
3;FRA;Franche-Comté;Jura;Antorpe 39012=25527;E5.7926;N47.1738;13;
3;FRA;Franche-Comté;Jura;Arbois 39013;E5.7667;N46.9000;13;
3;FRA;Franche-Comté;Jura;Archelange 39014;E5.5167;N47.1500;13;
3;FRA;Franche-Comté;Jura;Ardon 39015;E5.8833;N46.7667;13;
3;FRA;Franche-Comté;Jura;Aresches 39586;E5.9167;N46.9000;13;
3;FRA;Franche-Comté;Jura;Arinthod 39016;E5.5667;N46.3833;13;
3;FRA;Franche-Comté;Jura;Arlay 39017;E5.5333;N46.7667;13;
3;FRA;Franche-Comté;Jura;Aromas 39018;E5.4833;N46.3000;13;
3;FRA;Franche-Comté;Jura;Arsure-Arsurette 39020;E6.0833;N46.7167;13;
3;FRA;Franche-Comté;Jura;Arthenas 39021;E5.5333;N46.5833;13;
3;FRA;Franche-Comté;Jura;Asnans-Beauvoisin 39022;E5.4112;N46.9499;13;
3;FRA;Franche-Comté;Jura;Audelange 39024;E5.5833;N47.1333;13;
3;FRA;Franche-Comté;Jura;Augea 39025;E5.4167;N46.5500;13;
3;FRA;Franche-Comté;Jura;Augerans 39026;E5.5833;N47.0167;13;
3;FRA;Franche-Comté;Jura;Augisey 39027;E5.4833;N46.5500;13;
3;FRA;Franche-Comté;Jura;Aumont 39028;E5.6333;N46.9000;13;
3;FRA;Franche-Comté;Jura;Aumur 39029;E5.3500;N47.0500;13;
3;FRA;Franche-Comté;Jura;Authume 39030;E5.5000;N47.1333;13;
3;FRA;Franche-Comté;Jura;Auxange 39031;E5.6500;N47.1667;13;
3;FRA;Franche-Comté;Jura;Avignon-lès-Saint-Claude 39032;E5.8458;N46.3899;13;
3;FRA;Franche-Comté;Jura;Azans 39033=39198;E5.5060;N47.0828;13;
3;FRA;Franche-Comté;Jura;Balaiseaux 39034;E5.4667;N46.9667;13;
3;FRA;Franche-Comté;Jura;Balanod 39035;E5.3667;N46.4500;13;
3;FRA;Franche-Comté;Jura;Bans 39037;E5.5833;N46.9833;13;
3;FRA;Franche-Comté;Jura;Barésia-sur-l'Ain 39038;E5.7000;N46.5500;13;
3;FRA;Franche-Comté;Jura;Barretaine 39040;E5.7167;N46.8167;13;
3;FRA;Franche-Comté;Jura;Baume-les-Messieurs 39041;E5.6333;N46.7167;13;
3;FRA;Franche-Comté;Jura;Baverans 39042;E5.5333;N47.1000;13;
3;FRA;Franche-Comté;Jura;Beaufort 39043;E5.4333;N46.5667;13;
3;FRA;Franche-Comté;Jura;Beauvoisin 39044=39022;E5.3667;N46.9167;13;
3;FRA;Franche-Comté;Jura;Beffia 39045;E5.5500;N46.5167;13;
3;FRA;Franche-Comté;Jura;Bellecombe 39046;E5.9183;N46.3194;13;
3;FRA;Franche-Comté;Jura;Bellefontaine 39047;E6.0667;N46.5500;13;
3;FRA;Franche-Comté;Jura;Belmont 39048;E5.5956;N47.0158;13;
3;FRA;Franche-Comté;Jura;Bersaillin 39049;E5.6000;N46.8667;13;
3;FRA;Franche-Comté;Jura;Besain 39050;E5.8000;N46.7833;13;
3;FRA;Franche-Comté;Jura;Biarne 39051;E5.4500;N47.1500;13;
3;FRA;Franche-Comté;Jura;Bief-des-Maisons 39052;E6.0333;N46.7000;13;
3;FRA;Franche-Comté;Jura;Bief-du-Fourg 39053;E6.1167;N46.8167;13;
3;FRA;Franche-Comté;Jura;Biefmorin 39054;E5.5667;N46.9000;13;
3;FRA;Franche-Comté;Jura;Billecul 39055;E6.0500;N46.7500;13;
3;FRA;Franche-Comté;Jura;Bletterans 39056;E5.4500;N46.7500;13;
3;FRA;Franche-Comté;Jura;Blois-sur-Seille 39057;E5.6667;N46.7500;13;
3;FRA;Franche-Comté;Jura;Blye 39058;E5.7000;N46.6167;13;
3;FRA;Franche-Comté;Jura;Bois-d'Amont 39059;E6.1315;N46.5333;13;
3;FRA;Franche-Comté;Jura;Bois-de-Gand 39060;E5.5000;N46.8333;13;
3;FRA;Franche-Comté;Jura;Boissia 39061;E5.7344;N46.5925;13;
3;FRA;Franche-Comté;Jura;Bonlieu 39063;E5.8500;N46.6000;13;
3;FRA;Franche-Comté;Jura;Bonnaud 39064;E5.4333;N46.6167;13;
3;FRA;Franche-Comté;Jura;Bonnefontaine 39065;E5.7500;N46.7333;13;
3;FRA;Franche-Comté;Jura;Bornay 39066;E5.5500;N46.6167;13;
3;FRA;Franche-Comté;Jura;Bourcia 39069;E5.4167;N46.3500;13;
3;FRA;Franche-Comté;Jura;Bourg-de-Sirod 39070;E5.9551;N46.7289;13;
3;FRA;Franche-Comté;Jura;Bracon 39072;E5.8833;N46.9333;13;
3;FRA;Franche-Comté;Jura;Brainans 39073;E5.6167;N46.8667;13;
3;FRA;Franche-Comté;Jura;Brans 39074;E5.5667;N47.2333;13;
3;FRA;Franche-Comté;Jura;Bréry 39075;E5.5833;N46.7833;13;
3;FRA;Franche-Comté;Jura;Bretenières 39077;E5.5500;N46.9167;13;
3;FRA;Franche-Comté;Jura;Brevans 39078;E5.5167;N47.1000;13;
3;FRA;Franche-Comté;Jura;Briod 39079;E5.6167;N46.6667;13;
3;FRA;Franche-Comté;Jura;Broissia 39080;E5.4333;N46.3667;13;
3;FRA;Franche-Comté;Jura;Buvilly 39081;E5.7167;N46.8667;13;
3;FRA;Franche-Comté;Jura;Ceffia 39082=39018;E5.5000;N46.3000;13;
3;FRA;Franche-Comté;Jura;Censeau 39083;E6.0667;N46.8167;13;
3;FRA;Franche-Comté;Jura;Cernans 39084;E5.9333;N46.9333;13;
3;FRA;Franche-Comté;Jura;Cerniébaud 39085;E6.1000;N46.7333;13;
3;FRA;Franche-Comté;Jura;Cernon 39086;E5.6500;N46.4000;13;
3;FRA;Franche-Comté;Jura;Certémery 39087=39370;E5.7732;N46.9657;13;
3;FRA;Franche-Comté;Jura;Cesancey 39088;E5.5000;N46.6333;13;
3;FRA;Franche-Comté;Jura;Cézia 39089;E5.5667;N46.3667;13;
3;FRA;Franche-Comté;Jura;Chaînée-des-Coupis 39090;E5.4333;N46.9333;13;
3;FRA;Franche-Comté;Jura;Chambéria 39092;E5.5667;N46.4667;13;
3;FRA;Franche-Comté;Jura;Chamblay 39093;E5.7167;N47.0000;13;
3;FRA;Franche-Comté;Jura;Chamole 39094;E5.7333;N46.8333;13;
3;FRA;Franche-Comté;Jura;Champagne-sur-Loue 39095;E5.8167;N47.0333;13;
3;FRA;Franche-Comté;Jura;Champagney 39096;E5.5146;N47.2593;13;
3;FRA;Franche-Comté;Jura;Champagnole 39097;E5.9167;N46.7500;13;
3;FRA;Franche-Comté;Jura;Champagny 39098=39133;E5.8833;N46.9000;13;
3;FRA;Franche-Comté;Jura;Champdivers 39099;E5.3833;N47.0167;13;
3;FRA;Franche-Comté;Jura;Champrougier 39100;E5.5167;N46.8667;13;
3;FRA;Franche-Comté;Jura;Champvans 39101;E5.4366;N47.1060;13;
3;FRA;Franche-Comté;Jura;Chancia 39102;E5.6333;N46.3500;13;
3;FRA;Franche-Comté;Jura;Chapelle-Voland 39104;E5.3667;N46.8000;13;
3;FRA;Franche-Comté;Jura;Chapois 39105;E5.9667;N46.8333;13;
3;FRA;Franche-Comté;Jura;Charchilla 39106;E5.7167;N46.4667;13;
3;FRA;Franche-Comté;Jura;Charcier 39107;E5.7500;N46.6333;13;
3;FRA;Franche-Comté;Jura;Charency 39108;E6.0000;N46.7667;13;
3;FRA;Franche-Comté;Jura;Charézier 39109;E5.7333;N46.6167;13;
3;FRA;Franche-Comté;Jura;Charnod 39111;E5.5000;N46.3333;13;
3;FRA;Franche-Comté;Jura;Chassal 39113;E5.7833;N46.3667;13;
3;FRA;Franche-Comté;Jura;Château-Chalon 39114;E5.6333;N46.7500;13;
3;FRA;Franche-Comté;Jura;Château-des-Prés 39115;E5.9000;N46.5000;13;
3;FRA;Franche-Comté;Jura;Châtel-de-Joux 39118;E5.8000;N46.5333;13;
3;FRA;Franche-Comté;Jura;Chatelay 39117;E5.7000;N47.0333;13;
3;FRA;Franche-Comté;Jura;Châtelneuf 39120;E5.9167;N46.6833;13;
3;FRA;Franche-Comté;Jura;Châtenois 39121;E5.5526;N47.1481;13;
3;FRA;Franche-Comté;Jura;Châtillon 39122;E5.7333;N46.6500;13;
3;FRA;Franche-Comté;Jura;Chatonnay 39123;E5.5500;N46.4333;13;
3;FRA;Franche-Comté;Jura;Chaumergy 39124;E5.4833;N46.8500;13;
3;FRA;Franche-Comté;Jura;Chaumont 39125=39478;E5.8833;N46.4000;13;
3;FRA;Franche-Comté;Jura;Chaussenans 39127;E5.7333;N46.8333;13;
3;FRA;Franche-Comté;Jura;Chaussin 39128;E5.4167;N46.9667;13;
3;FRA;Franche-Comté;Jura;Chaux-Champagny 39133;E5.8886;N46.8961;13;
3;FRA;Franche-Comté;Jura;Chaux-des-Crotenay 39129;E5.9667;N46.6667;13;
3;FRA;Franche-Comté;Jura;Chaux-des-Prés 39130;E5.8667;N46.5000;13;
3;FRA;Franche-Comté;Jura;Chavéria 39134;E5.5833;N46.5000;13;
3;FRA;Franche-Comté;Jura;Chazelles 39135;E5.3333;N46.4000;13;
3;FRA;Franche-Comté;Jura;Chemenot 39136;E5.5333;N46.8667;13;
3;FRA;Franche-Comté;Jura;Chemilla 39137;E5.5667;N46.3667;13;
3;FRA;Franche-Comté;Jura;Chemin 39138;E5.3167;N46.9833;13;
3;FRA;Franche-Comté;Jura;Chêne-Bernard 39139;E5.4833;N46.9167;13;
3;FRA;Franche-Comté;Jura;Chêne-Sec 39140;E5.4333;N46.8500;13;
3;FRA;Franche-Comté;Jura;Chevigny 39141;E5.4833;N47.1833;13;
3;FRA;Franche-Comté;Jura;Chevreaux 39142;E5.4000;N46.5000;13;
3;FRA;Franche-Comté;Jura;Chevrotaine 39143;E5.8500;N46.6500;13;
3;FRA;Franche-Comté;Jura;Chevry 39144=39478;E5.8167;N46.3667;13;
3;FRA;Franche-Comté;Jura;Chille 39145;E5.5833;N46.7000;13;
3;FRA;Franche-Comté;Jura;Chilly-le-Vignoble 39146;E5.5000;N46.6500;13;
3;FRA;Franche-Comté;Jura;Chilly-sur-Salins 39147;E5.8667;N46.8833;13;
3;FRA;Franche-Comté;Jura;Chisséria 39148;E5.5667;N46.3833;13;
3;FRA;Franche-Comté;Jura;Chissey-sur-Loue 39149;E5.7210;N47.0216;13;
3;FRA;Franche-Comté;Jura;Choisey 39150;E5.4667;N47.0667;13;
3;FRA;Franche-Comté;Jura;Choux 39151;E5.7667;N46.3167;13;
3;FRA;Franche-Comté;Jura;Cinquétral 39152=39478;E5.8833;N46.4333;13;
3;FRA;Franche-Comté;Jura;Cize 39153;E5.9167;N46.7333;13;
3;FRA;Franche-Comté;Jura;Clairvaux-les-Lacs 39154;E5.7500;N46.5667;13;
3;FRA;Franche-Comté;Jura;Clucy 39155;E5.9000;N46.9500;13;
3;FRA;Franche-Comté;Jura;Cogna 39156;E5.7500;N46.5833;13;
3;FRA;Franche-Comté;Jura;Coiserette 39157;E5.8333;N46.3500;13;
3;FRA;Franche-Comté;Jura;Coisia 39158;E5.5833;N46.3167;13;
3;FRA;Franche-Comté;Jura;Colonne 39159;E5.5833;N46.8833;13;
3;FRA;Franche-Comté;Jura;Commenailles 39160;E5.4500;N46.8000;13;
3;FRA;Franche-Comté;Jura;Communailles-en-Montagne 39161;E6.1000;N46.8000;13;
3;FRA;Franche-Comté;Jura;Condamine 39162;E5.4333;N46.6500;13;
3;FRA;Franche-Comté;Jura;Condes 39163;E5.6167;N46.3333;13;
3;FRA;Franche-Comté;Jura;Conliège 39164;E5.6000;N46.6500;13;
3;FRA;Franche-Comté;Jura;Conte 39165;E6.0000;N46.7500;13;
3;FRA;Franche-Comté;Jura;Cornod 39166;E5.5500;N46.3167;13;
3;FRA;Franche-Comté;Jura;Cosges 39167;E5.4000;N46.7500;13;
3;FRA;Franche-Comté;Jura;Courbette 39168;E5.5667;N46.6000;13;
3;FRA;Franche-Comté;Jura;Courbouzon 39169;E5.5333;N46.6500;13;
3;FRA;Franche-Comté;Jura;Courlans 39170;E5.5000;N46.6667;13;
3;FRA;Franche-Comté;Jura;Courlaoux 39171;E5.4500;N46.6667;13;
3;FRA;Franche-Comté;Jura;Courtefontaine 39172;E5.8029;N47.1297;13;
3;FRA;Franche-Comté;Jura;Cousance 39173;E5.3921;N46.5337;13;
3;FRA;Franche-Comté;Jura;Coyrière 39174;E5.8500;N46.3500;13;
3;FRA;Franche-Comté;Jura;Coyron 39175;E5.7000;N46.5000;13;
3;FRA;Franche-Comté;Jura;Cramans 39176;E5.7667;N47.0167;13;
3;FRA;Franche-Comté;Jura;Crançot 39177;E5.6667;N46.6833;13;
3;FRA;Franche-Comté;Jura;Crans 39178;E5.9667;N46.7000;13;
3;FRA;Franche-Comté;Jura;Crenans 39179;E5.7333;N46.4500;13;
3;FRA;Franche-Comté;Jura;Cressia 39180;E5.4833;N46.5167;13;
3;FRA;Franche-Comté;Jura;Crillat 39181=39493;E5.8000;N46.5667;13;
3;FRA;Franche-Comté;Jura;Crissey 39182;E5.4833;N47.0667;13;
3;FRA;Franche-Comté;Jura;Crotenay 39183;E5.8167;N46.7500;13;
3;FRA;Franche-Comté;Jura;Cuisia 39185;E5.4000;N46.5333;13;
3;FRA;Franche-Comté;Jura;Cuttura 39186;E5.8000;N46.4167;13;
3;FRA;Franche-Comté;Jura;Cuvier 39187;E6.0667;N46.8333;13;
3;FRA;Franche-Comté;Jura;Dammartin-Marpain 39188;E5.5435;N47.2560;13;
3;FRA;Franche-Comté;Jura;Damparis 39189;E5.4167;N47.0833;13;
3;FRA;Franche-Comté;Jura;Dampierre 39190;E5.7500;N47.1500;13;
3;FRA;Franche-Comté;Jura;Darbonnay 39191;E5.6000;N46.8167;13;
3;FRA;Franche-Comté;Jura;Denezières 39192;E5.8000;N46.6167;13;
3;FRA;Franche-Comté;Jura;Desnes 39194;E5.4667;N46.7667;13;
3;FRA;Franche-Comté;Jura;Dessia 39195;E5.5000;N46.3833;13;
3;FRA;Franche-Comté;Jura;Digna 39197;E5.4000;N46.5000;13;
3;FRA;Franche-Comté;Jura;Dole 39198;E5.5000;N47.1000;13;
3;FRA;Franche-Comté;Jura;Domblans 39199;E5.6000;N46.7667;13;
3;FRA;Franche-Comté;Jura;Dompierre-sur-Mont 39200;E5.6000;N46.5500;13;
3;FRA;Franche-Comté;Jura;Doucier 39201;E5.7667;N46.6500;13;
3;FRA;Franche-Comté;Jura;Dournon 39202;E5.9667;N46.9333;13;
3;FRA;Franche-Comté;Jura;Doye 39203;E6.0167;N46.7667;13;
3;FRA;Franche-Comté;Jura;Dramelay 39204;E5.5333;N46.4000;13;
3;FRA;Franche-Comté;Jura;Éclans-Nenon 39205;E5.5862;N47.1243;13;
3;FRA;Franche-Comté;Jura;Écleux 39206;E5.7333;N47.0000;13;
3;FRA;Franche-Comté;Jura;Écrille 39207;E5.6309;N46.5068;13;
3;FRA;Franche-Comté;Jura;Entre-deux-Monts 39208;E5.9667;N46.6500;13;
3;FRA;Franche-Comté;Jura;Équevillon 39210;E5.9333;N46.7667;13;
3;FRA;Franche-Comté;Jura;Essavilly 39212=39331;E6.0833;N46.7833;13;
3;FRA;Franche-Comté;Jura;Esserval-Combe 39213;E6.0407;N46.7998;13;
3;FRA;Franche-Comté;Jura;Esserval-Tartre 39214;E6.0500;N46.8167;13;
3;FRA;Franche-Comté;Jura;Essia 39215;E5.5500;N46.5833;13;
3;FRA;Franche-Comté;Jura;Étival 39216;E5.8000;N46.5000;13;
3;FRA;Franche-Comté;Jura;Étrepigney 39218;E5.7000;N47.1333;13;
3;FRA;Franche-Comté;Jura;Évans 39219;E5.7667;N47.1833;13;
3;FRA;Franche-Comté;Jura;Falletans 39220;E5.5667;N47.1000;13;
3;FRA;Franche-Comté;Jura;Fay-en-Montagne 39222;E5.7333;N46.7500;13;
3;FRA;Franche-Comté;Jura;Fétigny 39224;E5.6000;N46.4500;13;
3;FRA;Franche-Comté;Jura;Florentia 39226;E5.4333;N46.4000;13;
3;FRA;Franche-Comté;Jura;Foncine-le-Bas 39227;E6.0500;N46.6333;13;
3;FRA;Franche-Comté;Jura;Foncine-le-Haut 39228;E6.0833;N46.6667;13;
3;FRA;Franche-Comté;Jura;Fontainebrux 39229;E5.4167;N46.7000;13;
3;FRA;Franche-Comté;Jura;Fontenu 39230;E5.8167;N46.6667;13;
3;FRA;Franche-Comté;Jura;Fonteny 39231=39436;E5.9000;N46.8833;13;
3;FRA;Franche-Comté;Jura;Fort-du-Plasne 39232;E5.9872;N46.6182;13;
3;FRA;Franche-Comté;Jura;Foucherans 39233;E5.4500;N47.0833;13;
3;FRA;Franche-Comté;Jura;Foulenay 39234;E5.4833;N46.8667;13;
3;FRA;Franche-Comté;Jura;Fraisans 39235;E5.7667;N47.1500;13;
3;FRA;Franche-Comté;Jura;Francheville 39236;E5.5000;N46.8333;13;
3;FRA;Franche-Comté;Jura;Fraroz 39237;E6.0833;N46.7333;13;
3;FRA;Franche-Comté;Jura;Frasne-les-Meulières 39238;E5.5000;N47.2047;13;
3;FRA;Franche-Comté;Jura;Frébuans 39241;E5.4833;N46.6500;13;
3;FRA;Franche-Comté;Jura;Froidefontaine 39242=39331;E6.1167;N46.7833;13;
3;FRA;Franche-Comté;Jura;Froideville 39243;E5.4833;N46.8167;13;
3;FRA;Franche-Comté;Jura;Frontenay 39244;E5.6167;N46.7833;13;
3;FRA;Franche-Comté;Jura;Gatey 39245;E5.4333;N46.9500;13;
3;FRA;Franche-Comté;Jura;Gendrey 39246;E5.6833;N47.2000;13;
3;FRA;Franche-Comté;Jura;Genod 39247;E5.5333;N46.3500;13;
3;FRA;Franche-Comté;Jura;Geraise 39248;E5.9500;N46.9500;13;
3;FRA;Franche-Comté;Jura;Germigney 39249;E5.6864;N47.0270;13;
3;FRA;Franche-Comté;Jura;Geruge 39250;E5.5333;N46.6333;13;
3;FRA;Franche-Comté;Jura;Gevingey 39251;E5.5000;N46.6333;13;
3;FRA;Franche-Comté;Jura;Gevry 39252;E5.4500;N47.0333;13;
3;FRA;Franche-Comté;Jura;Gigny 39253;E5.4609;N46.4522;13;
3;FRA;Franche-Comté;Jura;Gillois 39254;E6.0167;N46.7333;13;
3;FRA;Franche-Comté;Jura;Gizia 39255;E5.4333;N46.5167;13;
3;FRA;Franche-Comté;Jura;Goux 39256=39198;E5.5167;N47.0500;13;
3;FRA;Franche-Comté;Jura;Grand-Châtel 39257=39561;E5.7278;N46.3665;13;
3;FRA;Franche-Comté;Jura;Grande-Rivière 39258;E5.8996;N46.5400;13;
3;FRA;Franche-Comté;Jura;Grange-de-Vaivre 39259;E5.8500;N47.0000;13;
3;FRA;Franche-Comté;Jura;Granges-sur-Baume 39260;E5.6500;N46.7167;13;
3;FRA;Franche-Comté;Jura;Graye-et-Charnay 39261;E5.4667;N46.4667;13;
3;FRA;Franche-Comté;Jura;Gredisans 39262;E5.5167;N47.1500;13;
3;FRA;Franche-Comté;Jura;Grozon 39263;E5.7000;N46.8833;13;
3;FRA;Franche-Comté;Jura;Grusse 39264;E5.5000;N46.6000;13;
3;FRA;Franche-Comté;Jura;Hautecour 39265;E5.7667;N46.5667;13;
3;FRA;Franche-Comté;Jura;Ivory 39267;E5.8667;N46.9167;13;
3;FRA;Franche-Comté;Jura;Ivrey 39268;E5.9000;N46.9833;13;
3;FRA;Franche-Comté;Jura;Jeurre 39269;E5.7167;N46.3667;13;
3;FRA;Franche-Comté;Jura;Jouhe 39270;E5.4833;N47.1333;13;
3;FRA;Franche-Comté;Jura;L'Aubépin 39023;E5.3667;N46.4333;13;
3;FRA;Franche-Comté;Jura;L'Étoile 39217;E5.5333;N46.7167;13;
3;FRA;Franche-Comté;Jura;La Balme-d'Épy 39036;E5.4167;N46.3833;13;
3;FRA;Franche-Comté;Jura;La Barre 39039;E5.6833;N47.1500;13;
3;FRA;Franche-Comté;Jura;La Boissière 39062;E5.5333;N46.4167;13;
3;FRA;Franche-Comté;Jura;La Bretenière 39076;E5.6596;N47.1292;13;
3;FRA;Franche-Comté;Jura;La Chapelle-sur-Furieuse 39103;E5.8667;N47.0000;13;
3;FRA;Franche-Comté;Jura;La Charme 39110;E5.5667;N46.8500;13;
3;FRA;Franche-Comté;Jura;La Chassagne 39112;E5.4500;N46.8667;13;
3;FRA;Franche-Comté;Jura;La Châtelaine 39116;E5.8167;N46.8667;13;
3;FRA;Franche-Comté;Jura;La Chaumusse 39126;E5.9333;N46.5833;13;
3;FRA;Franche-Comté;Jura;La Chaux-du-Dombief 39131;E5.9000;N46.6000;13;
3;FRA;Franche-Comté;Jura;La Chaux-en-Bresse 39132;E5.4833;N46.8333;13;
3;FRA;Franche-Comté;Jura;La Favière 39221;E6.0343;N46.7524;13;
3;FRA;Franche-Comté;Jura;La Ferté 39223;E5.6667;N46.9500;13;
3;FRA;Franche-Comté;Jura;La Frasnée 39239;E5.8000;N46.5500;13;
3;FRA;Franche-Comté;Jura;La Latette 39282;E6.0833;N46.7500;13;
3;FRA;Franche-Comté;Jura;La Loye 39305;E5.5667;N47.0333;13;
3;FRA;Franche-Comté;Jura;La Marre 39317;E5.7000;N46.7333;13;
3;FRA;Franche-Comté;Jura;La Mouille 39371;E5.9833;N46.5000;13;
3;FRA;Franche-Comté;Jura;La Perrena 39410=39424;E6.0167;N46.6667;13;
3;FRA;Franche-Comté;Jura;La Pesse 39413;E5.8500;N46.3000;13;
3;FRA;Franche-Comté;Jura;La Rixouse 39460;E5.8833;N46.4667;13;
3;FRA;Franche-Comté;Jura;La Tour-du-Meix 39534;E5.6667;N46.5333;13;
3;FRA;Franche-Comté;Jura;La Vieille-Loye 39559;E5.6333;N47.0333;13;
3;FRA;Franche-Comté;Jura;Lac-des-Rouges-Truites 39271;E5.9991;N46.6066;13;
3;FRA;Franche-Comté;Jura;Ladoye-sur-Seille 39272;E5.6833;N46.7667;13;
3;FRA;Franche-Comté;Jura;Lains 39273;E5.5000;N46.4000;13;
3;FRA;Franche-Comté;Jura;Lajoux 39274;E5.9667;N46.3833;13;
3;FRA;Franche-Comté;Jura;Lamoura 39275;E5.9667;N46.4000;13;
3;FRA;Franche-Comté;Jura;Lanéria 39276=39209;E5.3987;N46.3736;13;
3;FRA;Franche-Comté;Jura;Largillay-Marsonnay 39278;E5.6667;N46.5500;13;
3;FRA;Franche-Comté;Jura;Larnaud 39279;E5.4667;N46.7167;13;
3;FRA;Franche-Comté;Jura;Larrivoire 39280;E5.7833;N46.3500;13;
3;FRA;Franche-Comté;Jura;Lavancia-Epercy 39283;E5.6833;N46.3333;13;
3;FRA;Franche-Comté;Jura;Lavangeot 39284;E5.6167;N47.1500;13;
3;FRA;Franche-Comté;Jura;Lavans-lès-Dole 39285;E5.6333;N47.1500;13;
3;FRA;Franche-Comté;Jura;Lavans-lès-Saint-Claude 39286;E5.7833;N46.3833;13;
3;FRA;Franche-Comté;Jura;Lavans-sur-Valouse 39287;E5.5500;N46.3333;13;
3;FRA;Franche-Comté;Jura;Lavigny 39288;E5.6000;N46.7167;13;
3;FRA;Franche-Comté;Jura;Le Bouchaud 39067=39049;E5.5833;N46.8500;13;
3;FRA;Franche-Comté;Jura;Le Bourget 39071=39397;E5.6095;N46.5217;13;
3;FRA;Franche-Comté;Jura;Le Chateley 39119;E5.5500;N46.8833;13;
3;FRA;Franche-Comté;Jura;Le Deschaux 39193;E5.5000;N46.9500;13;
3;FRA;Franche-Comté;Jura;Le Fied 39225;E5.7167;N46.7667;13;
3;FRA;Franche-Comté;Jura;Le Frasnois 39240;E5.9000;N46.6333;13;
3;FRA;Franche-Comté;Jura;Le Larderet 39277;E5.9500;N46.8167;13;
3;FRA;Franche-Comté;Jura;Le Latet 39281;E5.9333;N46.8000;13;
3;FRA;Franche-Comté;Jura;Le Louverot 39304;E5.5830;N46.7300;13;
3;FRA;Franche-Comté;Jura;Le Pasquier 39406;E5.9000;N46.8000;13;
3;FRA;Franche-Comté;Jura;Le Petit-Mercey 39414;E5.7500;N47.2000;13;
3;FRA;Franche-Comté;Jura;Le Pin 39421;E5.5667;N46.7000;13;
3;FRA;Franche-Comté;Jura;Le Vaudioux 39545;E5.9167;N46.7000;13;
3;FRA;Franche-Comté;Jura;Le Vernois 39553;E5.6000;N46.7333;13;
3;FRA;Franche-Comté;Jura;Le Villey 39575;E5.5000;N46.8500;13;
3;FRA;Franche-Comté;Jura;Le Viseney 39580=39049;E5.6000;N46.8667;13;
3;FRA;Franche-Comté;Jura;Lect 39289;E5.6667;N46.3833;13;
3;FRA;Franche-Comté;Jura;Légna 39290;E5.5833;N46.4333;13;
3;FRA;Franche-Comté;Jura;Lemuy 39291;E5.9667;N46.9000;13;
3;FRA;Franche-Comté;Jura;Lent 39292;E5.9784;N46.7433;13;
3;FRA;Franche-Comté;Jura;Les Arsures 39019;E5.7906;N46.9493;13;
3;FRA;Franche-Comté;Jura;Les Bouchoux 39068;E5.8167;N46.3000;13;
3;FRA;Franche-Comté;Jura;Les Chalesmes 39091;E6.0379;N46.6894;13;
3;FRA;Franche-Comté;Jura;Les Crozets 39184;E5.8000;N46.4667;13;
3;FRA;Franche-Comté;Jura;Les Deux-Fays 39196;E5.4833;N46.8833;13;
3;FRA;Franche-Comté;Jura;Les Essards-Taignevaux 39211;E5.4167;N46.9167;13;
3;FRA;Franche-Comté;Jura;Les Hays 39266;E5.3833;N46.9000;13;
3;FRA;Franche-Comté;Jura;Les Molunes 39341;E5.9376;N46.3435;13;
3;FRA;Franche-Comté;Jura;Les Moussières 39373;E5.9000;N46.3333;13;
3;FRA;Franche-Comté;Jura;Les Nans 39381;E5.9667;N46.7833;13;
3;FRA;Franche-Comté;Jura;Les Piards 39417;E5.8333;N46.4833;13;
3;FRA;Franche-Comté;Jura;Les Planches-en-Montagne 39424;E6.0167;N46.6667;13;
3;FRA;Franche-Comté;Jura;Les Planches-près-Arbois 39425;E5.8000;N46.8833;13;
3;FRA;Franche-Comté;Jura;Les Repôts 39457;E5.4167;N46.6833;13;
3;FRA;Franche-Comté;Jura;Les Rousses 39470;E6.0667;N46.4833;13;
3;FRA;Franche-Comté;Jura;Leschères 39293;E5.8333;N46.4500;13;
3;FRA;Franche-Comté;Jura;Lézat 39294;E5.9333;N46.5000;13;
3;FRA;Franche-Comté;Jura;Loisia 39295;E5.4500;N46.4833;13;
3;FRA;Franche-Comté;Jura;Lombard 39296;E5.5000;N46.7833;13;
3;FRA;Franche-Comté;Jura;Longchaumois 39297;E5.9333;N46.4500;13;
3;FRA;Franche-Comté;Jura;Longcochon 39298;E6.0667;N46.7667;13;
3;FRA;Franche-Comté;Jura;Longwy-sur-le-Doubs 39299;E5.3667;N46.9500;13;
3;FRA;Franche-Comté;Jura;Lons-le-Saunier 39300;E5.5500;N46.6667;13;
3;FRA;Franche-Comté;Jura;Loulle 39301;E5.8833;N46.7000;13;
3;FRA;Franche-Comté;Jura;Louvatange 39302;E5.7167;N47.2000;13;
3;FRA;Franche-Comté;Jura;Louvenne 39303;E5.4667;N46.4167;13;
3;FRA;Franche-Comté;Jura;Macornay 39306;E5.5333;N46.6500;13;
3;FRA;Franche-Comté;Jura;Maisod 39307;E5.6833;N46.4667;13;
3;FRA;Franche-Comté;Jura;Malange 39308;E5.6167;N47.1833;13;
3;FRA;Franche-Comté;Jura;Mallerey 39309;E5.4500;N46.6333;13;
3;FRA;Franche-Comté;Jura;Mantry 39310;E5.5667;N46.8000;13;
3;FRA;Franche-Comté;Jura;Marangea 39311=39504;E5.6333;N46.4833;13;
3;FRA;Franche-Comté;Jura;Marigna-sur-Valouse 39312;E5.5333;N46.4500;13;
3;FRA;Franche-Comté;Jura;Marigny 39313;E5.7833;N46.6833;13;
3;FRA;Franche-Comté;Jura;Marnézia 39314;E5.6333;N46.5667;13;
3;FRA;Franche-Comté;Jura;Marnoz 39315;E5.8333;N46.9500;13;
3;FRA;Franche-Comté;Jura;Marpain 39316=39188;E5.5667;N47.2667;13;
3;FRA;Franche-Comté;Jura;Martigna 39318;E5.7000;N46.4000;13;
3;FRA;Franche-Comté;Jura;Mathenay 39319;E5.6833;N46.9333;13;
3;FRA;Franche-Comté;Jura;Maynal 39320;E5.4167;N46.5500;13;
3;FRA;Franche-Comté;Jura;Menétru-le-Vignoble 39321;E5.6167;N46.7667;13;
3;FRA;Franche-Comté;Jura;Menétrux-en-Joux 39322;E5.8333;N46.6167;13;
3;FRA;Franche-Comté;Jura;Menotey 39323;E5.5000;N47.1667;13;
3;FRA;Franche-Comté;Jura;Mérona 39324;E5.6333;N46.5500;13;
3;FRA;Franche-Comté;Jura;Mesnay 39325;E5.8000;N46.9000;13;
3;FRA;Franche-Comté;Jura;Mesnois 39326;E5.6833;N46.6000;13;
3;FRA;Franche-Comté;Jura;Messia-sur-Sorne 39327;E5.5167;N46.6667;13;
3;FRA;Franche-Comté;Jura;Meussia 39328;E5.7333;N46.5000;13;
3;FRA;Franche-Comté;Jura;Mièges 39329;E6.0333;N46.7833;13;
3;FRA;Franche-Comté;Jura;Miéry 39330;E5.6667;N46.8167;13;
3;FRA;Franche-Comté;Jura;Mignovillard 39331;E6.1333;N46.8000;13;
3;FRA;Franche-Comté;Jura;Mirebel 39332;E5.7333;N46.7000;13;
3;FRA;Franche-Comté;Jura;Moirans-en-Montagne 39333;E5.7333;N46.4333;13;
3;FRA;Franche-Comté;Jura;Moiron 39334;E5.5667;N46.6333;13;
3;FRA;Franche-Comté;Jura;Moissey 39335;E5.5167;N47.2000;13;
3;FRA;Franche-Comté;Jura;Molain 39336;E5.8000;N46.8167;13;
3;FRA;Franche-Comté;Jura;Molamboz 39337;E5.6833;N46.9333;13;
3;FRA;Franche-Comté;Jura;Molay 39338;E5.4204;N47.0191;13;
3;FRA;Franche-Comté;Jura;Molinges 39339;E5.7667;N46.3500;13;
3;FRA;Franche-Comté;Jura;Molpré 39340;E6.0688;N46.7881;13;
3;FRA;Franche-Comté;Jura;Monay 39342;E5.6000;N46.8333;13;
3;FRA;Franche-Comté;Jura;Monnet-la-Ville 39344;E5.8000;N46.7167;13;
3;FRA;Franche-Comté;Jura;Monnetay 39343;E5.5167;N46.4500;13;
3;FRA;Franche-Comté;Jura;Monnières 39345;E5.4667;N47.1167;13;
3;FRA;Franche-Comté;Jura;Mont-sous-Vaudrey 39365;E5.6000;N46.9667;13;
3;FRA;Franche-Comté;Jura;Mont-sur-Monnet 39366;E5.8333;N46.7167;13;
3;FRA;Franche-Comté;Jura;Montagna-le-Reconduit 39346;E5.4000;N46.4667;13;
3;FRA;Franche-Comté;Jura;Montagna-le-Templier 39347;E5.4500;N46.3500;13;
3;FRA;Franche-Comté;Jura;Montaigu 39348;E5.5667;N46.6667;13;
3;FRA;Franche-Comté;Jura;Montain 39349;E5.5833;N46.7167;13;
3;FRA;Franche-Comté;Jura;Montbarrey 39350;E5.6500;N47.0167;13;
3;FRA;Franche-Comté;Jura;Montcusel 39351;E5.6500;N46.3667;13;
3;FRA;Franche-Comté;Jura;Monteplain 39352;E5.7000;N47.1500;13;
3;FRA;Franche-Comté;Jura;Montfleur 39353;E5.4333;N46.3167;13;
3;FRA;Franche-Comté;Jura;Montholier 39354;E5.6500;N46.9000;13;
3;FRA;Franche-Comté;Jura;Montigny-lès-Arsures 39355;E5.7833;N46.9333;13;
3;FRA;Franche-Comté;Jura;Montigny-sur-l'Ain 39356;E5.7833;N46.7167;13;
3;FRA;Franche-Comté;Jura;Montjouvent 39357=39504;E5.6000;N46.4833;13;
3;FRA;Franche-Comté;Jura;Montmalin 39358=39479;E5.7167;N46.9500;13;
3;FRA;Franche-Comté;Jura;Montmarlon 39359;E5.9626;N46.8754;13;
3;FRA;Franche-Comté;Jura;Montmirey-la-Ville 39360;E5.5167;N47.2167;13;
3;FRA;Franche-Comté;Jura;Montmirey-le-Château 39361;E5.5333;N47.2167;13;
3;FRA;Franche-Comté;Jura;Montmorot 39362;E5.5167;N46.6833;13;
3;FRA;Franche-Comté;Jura;Montrevel 39363;E5.5000;N46.4333;13;
3;FRA;Franche-Comté;Jura;Montrond 39364;E5.8333;N46.8000;13;
3;FRA;Franche-Comté;Jura;Morbier 39367;E6.0167;N46.5333;13;
3;FRA;Franche-Comté;Jura;Morez 39368;E6.0333;N46.5167;13;
3;FRA;Franche-Comté;Jura;Morval 39369=39010;E5.4500;N46.4167;13;
3;FRA;Franche-Comté;Jura;Mouchard 39370;E5.8000;N46.9667;13;
3;FRA;Franche-Comté;Jura;Mournans-Charbonny 39372;E6.0037;N46.7793;13;
3;FRA;Franche-Comté;Jura;Moutaine 39374=39436;E5.8935;N46.9001;13;
3;FRA;Franche-Comté;Jura;Moutonne 39375;E5.5667;N46.5167;13;
3;FRA;Franche-Comté;Jura;Moutoux 39376;E5.9333;N46.7833;13;
3;FRA;Franche-Comté;Jura;Mutigney 39377;E5.5500;N47.2833;13;
3;FRA;Franche-Comté;Jura;Nanc-lès-Saint-Amour 39378;E5.3581;N46.4242;13;
3;FRA;Franche-Comté;Jura;Nance 39379;E5.4333;N46.7333;13;
3;FRA;Franche-Comté;Jura;Nancuise 39380;E5.5333;N46.4667;13;
3;FRA;Franche-Comté;Jura;Nantey 39382;E5.4000;N46.4167;13;
3;FRA;Franche-Comté;Jura;Nenon 39383=39205;E5.5833;N47.1167;13;
3;FRA;Franche-Comté;Jura;Nermier 39384=39504;E5.6167;N46.4667;13;
3;FRA;Franche-Comté;Jura;Neublans-Abergement 39385;E5.3276;N46.9137;13;
3;FRA;Franche-Comté;Jura;Neuvilley 39386;E5.6000;N46.9000;13;
3;FRA;Franche-Comté;Jura;Nevy-lès-Dole 39387;E5.5167;N47.0000;13;
3;FRA;Franche-Comté;Jura;Nevy-sur-Seille 39388;E5.6333;N46.7500;13;
3;FRA;Franche-Comté;Jura;Ney 39389;E5.8833;N46.7333;13;
3;FRA;Franche-Comté;Jura;Nogna 39390;E5.6333;N46.6000;13;
3;FRA;Franche-Comté;Jura;Nozeroy 39391;E6.0333;N46.7833;13;
3;FRA;Franche-Comté;Jura;Offlanges 39392;E5.5500;N47.2000;13;
3;FRA;Franche-Comté;Jura;Onglières 39393;E6.0167;N46.8000;13;
3;FRA;Franche-Comté;Jura;Onoz 39394;E5.6500;N46.4500;13;
3;FRA;Franche-Comté;Jura;Orbagna 39395;E5.4500;N46.5833;13;
3;FRA;Franche-Comté;Jura;Orchamps 39396;E5.6667;N47.1500;13;
3;FRA;Franche-Comté;Jura;Orgelet 39397;E5.6167;N46.5167;13;
3;FRA;Franche-Comté;Jura;Ougney 39398;E5.6667;N47.2333;13;
3;FRA;Franche-Comté;Jura;Ounans 39399;E5.6667;N46.9833;13;
3;FRA;Franche-Comté;Jura;Our 39400;E5.6500;N47.1333;13;
3;FRA;Franche-Comté;Jura;Oussières 39401;E5.5833;N46.9000;13;
3;FRA;Franche-Comté;Jura;Pagney 39402;E5.7000;N47.2500;13;
3;FRA;Franche-Comté;Jura;Pagnoz 39403;E5.8167;N46.9667;13;
3;FRA;Franche-Comté;Jura;Pannessières 39404;E5.6000;N46.7000;13;
3;FRA;Franche-Comté;Jura;Parcey 39405;E5.4833;N47.0167;13;
3;FRA;Franche-Comté;Jura;Passenans 39407;E5.6167;N46.8000;13;
3;FRA;Franche-Comté;Jura;Patornay 39408;E5.7000;N46.5833;13;
3;FRA;Franche-Comté;Jura;Peintre 39409;E5.4833;N47.2000;13;
3;FRA;Franche-Comté;Jura;Perrigny 39411;E5.5833;N46.6667;13;
3;FRA;Franche-Comté;Jura;Peseux 39412;E5.3667;N46.9917;13;
3;FRA;Franche-Comté;Jura;Petit-Noir 39415;E5.3333;N46.9333;13;
3;FRA;Franche-Comté;Jura;Petit-Villard 39416=39331;E6.1165;N46.8014;13;
3;FRA;Franche-Comté;Jura;Picarreau 39418;E5.7500;N46.7500;13;
3;FRA;Franche-Comté;Jura;Pillemoine 39419;E5.9000;N46.7000;13;
3;FRA;Franche-Comté;Jura;Pimorin 39420;E5.5167;N46.5000;13;
3;FRA;Franche-Comté;Jura;Plainoiseau 39422;E5.5500;N46.7333;13;
3;FRA;Franche-Comté;Jura;Plaisia 39423;E5.6333;N46.5333;13;
3;FRA;Franche-Comté;Jura;Plasne 39426;E5.6833;N46.8000;13;
3;FRA;Franche-Comté;Jura;Plénise 39427;E6.0333;N46.8000;13;
3;FRA;Franche-Comté;Jura;Plénisette 39428;E6.0167;N46.8000;13;
3;FRA;Franche-Comté;Jura;Pleure 39429;E5.4500;N46.9167;13;
3;FRA;Franche-Comté;Jura;Plumont 39430;E5.7167;N47.1167;13;
3;FRA;Franche-Comté;Jura;Poids-de-Fiole 39431;E5.6333;N46.6000;13;
3;FRA;Franche-Comté;Jura;Pointre 39432;E5.5000;N47.2167;13;
3;FRA;Franche-Comté;Jura;Poisoux 39433=39209;E5.3833;N46.3833;13;
3;FRA;Franche-Comté;Jura;Poligny 39434;E5.7167;N46.8333;13;
3;FRA;Franche-Comté;Jura;Pont-d'Héry 39436;E5.9000;N46.8667;13;
3;FRA;Franche-Comté;Jura;Pont-de-Poitte 39435;E5.6833;N46.5833;13;
3;FRA;Franche-Comté;Jura;Pont-du-Navoy 39437;E5.7833;N46.7333;13;
3;FRA;Franche-Comté;Jura;Ponthoux 39438;E5.8000;N46.4000;13;
3;FRA;Franche-Comté;Jura;Port-Lesney 39439;E5.8167;N47.0000;13;
3;FRA;Franche-Comté;Jura;Pratz 39440;E5.7667;N46.3833;13;
3;FRA;Franche-Comté;Jura;Prémanon 39441;E6.0333;N46.4667;13;
3;FRA;Franche-Comté;Jura;Prénovel 39442;E5.8500;N46.5000;13;
3;FRA;Franche-Comté;Jura;Présilly 39443;E5.5833;N46.5500;13;
3;FRA;Franche-Comté;Jura;Pretin 39444;E5.8333;N46.9333;13;
3;FRA;Franche-Comté;Jura;Publy 39445;E5.6500;N46.6333;13;
3;FRA;Franche-Comté;Jura;Pupillin 39446;E5.7667;N46.8833;13;
3;FRA;Franche-Comté;Jura;Quintigny 39447;E5.5333;N46.7333;13;
3;FRA;Franche-Comté;Jura;Rahon 39448;E5.4600;N46.9884;13;
3;FRA;Franche-Comté;Jura;Rainans 39449;E5.4833;N47.1500;13;
3;FRA;Franche-Comté;Jura;Ranchette 39450=39478;E5.8000;N46.3667;13;
3;FRA;Franche-Comté;Jura;Ranchot 39451;E5.7333;N47.1500;13;
3;FRA;Franche-Comté;Jura;Rans 39452;E5.7333;N47.1333;13;
3;FRA;Franche-Comté;Jura;Ravilloles 39453;E5.8000;N46.4333;13;
3;FRA;Franche-Comté;Jura;Recanoz 39454;E5.5000;N46.8167;13;
3;FRA;Franche-Comté;Jura;Reithouse 39455;E5.5667;N46.5500;13;
3;FRA;Franche-Comté;Jura;Relans 39456;E5.4500;N46.7667;13;
3;FRA;Franche-Comté;Jura;Revigny 39458;E5.6000;N46.6333;13;
3;FRA;Franche-Comté;Jura;Rivière-Devant 39459=39258;E5.8997;N46.5398;13;
3;FRA;Franche-Comté;Jura;Rix 39461;E6.0500;N46.7667;13;
3;FRA;Franche-Comté;Jura;Rochefort-sur-Nenon 39462;E5.5667;N47.1167;13;
3;FRA;Franche-Comté;Jura;Rogna 39463;E5.7500;N46.3333;13;
3;FRA;Franche-Comté;Jura;Romain 39464;E5.7167;N47.2167;13;
3;FRA;Franche-Comté;Jura;Romange 39465;E5.6000;N47.1500;13;
3;FRA;Franche-Comté;Jura;Rosay 39466;E5.4500;N46.5167;13;
3;FRA;Franche-Comté;Jura;Rotalier 39467;E5.4833;N46.5833;13;
3;FRA;Franche-Comté;Jura;Rothonay 39468;E5.5333;N46.5167;13;
3;FRA;Franche-Comté;Jura;Rouffange 39469;E5.7000;N47.2167;13;
3;FRA;Franche-Comté;Jura;Ruffey-sur-Seille 39471;E5.5000;N46.7500;13;
3;FRA;Franche-Comté;Jura;Rye 39472;E5.4333;N46.8667;13;
3;FRA;Franche-Comté;Jura;Saffloz 39473;E5.8500;N46.6667;13;
3;FRA;Franche-Comté;Jura;Saint-Amour 39475;E5.3500;N46.4333;13;
3;FRA;Franche-Comté;Jura;Saint-Aubin 39476;E5.3333;N47.0333;13;
3;FRA;Franche-Comté;Jura;Saint-Baraing 39477;E5.4333;N46.9833;13;
3;FRA;Franche-Comté;Jura;Saint-Claude 39478;E5.8667;N46.3833;13;
3;FRA;Franche-Comté;Jura;Saint-Cyr-Montmalin 39479;E5.7182;N46.9531;13;
3;FRA;Franche-Comté;Jura;Saint-Didier 39480;E5.5167;N46.7000;13;
3;FRA;Franche-Comté;Jura;Saint-Germain-en-Montagne 39481;E5.9333;N46.7833;13;
3;FRA;Franche-Comté;Jura;Saint-Germain-lès-Arlay 39482;E5.5667;N46.7667;13;
3;FRA;Franche-Comté;Jura;Saint-Hymetière 39483;E5.5500;N46.3500;13;
3;FRA;Franche-Comté;Jura;Saint-Jean-d'Étreux 39484;E5.3667;N46.4167;13;
3;FRA;Franche-Comté;Jura;Saint-Julien 39485;E5.4544;N46.3938;13;
3;FRA;Franche-Comté;Jura;Saint-Lamain 39486;E5.6000;N46.8000;13;
3;FRA;Franche-Comté;Jura;Saint-Laurent-en-Grandvaux 39487;E5.9567;N46.5764;13;
3;FRA;Franche-Comté;Jura;Saint-Laurent-la-Roche 39488;E5.5167;N46.6000;13;
3;FRA;Franche-Comté;Jura;Saint-Lothain 39489;E5.6333;N46.8167;13;
3;FRA;Franche-Comté;Jura;Saint-Loup 39490;E5.3167;N47.0000;13;
3;FRA;Franche-Comté;Jura;Saint-Lupicin 39491;E5.7833;N46.4000;13;
3;FRA;Franche-Comté;Jura;Saint-Maur 39492;E5.5833;N46.6167;13;
3;FRA;Franche-Comté;Jura;Saint-Maurice-Crillat 39493;E5.8294;N46.5720;13;
3;FRA;Franche-Comté;Jura;Saint-Pierre 39494;E5.9167;N46.5667;13;
3;FRA;Franche-Comté;Jura;Saint-Thiébaud 39495;E5.8667;N46.9667;13;
3;FRA;Franche-Comté;Jura;Saint-Ylie 39496=39198;E5.4667;N47.0667;13;
3;FRA;Franche-Comté;Jura;Sainte-Agnès 39474;E5.4833;N46.6000;13;
3;FRA;Franche-Comté;Jura;Saizenay 39497;E5.9167;N46.9667;13;
3;FRA;Franche-Comté;Jura;Salans 39498;E5.8000;N47.1667;13;
3;FRA;Franche-Comté;Jura;Saligney 39499;E5.6333;N47.2167;13;
3;FRA;Franche-Comté;Jura;Salins-les-Bains 39500;E5.8833;N46.9500;13;
3;FRA;Franche-Comté;Jura;Sampans 39501;E5.4500;N47.1167;13;
3;FRA;Franche-Comté;Jura;Santans 39502;E5.6667;N47.0167;13;
3;FRA;Franche-Comté;Jura;Sapois 39503;E5.9500;N46.7500;13;
3;FRA;Franche-Comté;Jura;Sarrogna 39504;E5.6167;N46.4667;13;
3;FRA;Franche-Comté;Jura;Saugeot 39505;E5.8333;N46.6000;13;
3;FRA;Franche-Comté;Jura;Savigna 39506;E5.6000;N46.4333;13;
3;FRA;Franche-Comté;Jura;Séligney 39507;E5.5333;N46.9333;13;
3;FRA;Franche-Comté;Jura;Sellières 39508;E5.5667;N46.8333;13;
3;FRA;Franche-Comté;Jura;Senaud 39509;E5.3833;N46.4000;13;
3;FRA;Franche-Comté;Jura;Septmoncel 39510;E5.9167;N46.3667;13;
3;FRA;Franche-Comté;Jura;Sergenaux 39511;E5.4500;N46.8833;13;
3;FRA;Franche-Comté;Jura;Sergenon 39512;E5.4500;N46.9000;13;
3;FRA;Franche-Comté;Jura;Sermange 39513;E5.6500;N47.2000;13;
3;FRA;Franche-Comté;Jura;Serre-les-Moulières 39514;E5.6165;N47.2048;13;
3;FRA;Franche-Comté;Jura;Sézéria 39515=39397;E5.5833;N46.5167;13;
3;FRA;Franche-Comté;Jura;Sièges 39516=39579;E5.6998;N46.3203;13;
3;FRA;Franche-Comté;Jura;Sirod 39517;E5.9833;N46.7333;13;
3;FRA;Franche-Comté;Jura;Songeson 39518;E5.8167;N46.6500;13;
3;FRA;Franche-Comté;Jura;Soucia 39519;E5.7500;N46.5500;13;
3;FRA;Franche-Comté;Jura;Souvans 39520;E5.5500;N47.0000;13;
3;FRA;Franche-Comté;Jura;Soyria 39521=39154;E5.7372;N46.5610;13;
3;FRA;Franche-Comté;Jura;Supt 39522;E5.9500;N46.8500;13;
3;FRA;Franche-Comté;Jura;Syam 39523;E5.9500;N46.7000;13;
3;FRA;Franche-Comté;Jura;Tancua 39524;E5.9833;N46.5167;13;
3;FRA;Franche-Comté;Jura;Tassenières 39525;E5.5167;N46.9167;13;
3;FRA;Franche-Comté;Jura;Tavaux 39526;E5.4000;N47.0333;13;
3;FRA;Franche-Comté;Jura;Taxenne 39527;E5.6833;N47.2167;13;
3;FRA;Franche-Comté;Jura;Thervay 39528;E5.6167;N47.2500;13;
3;FRA;Franche-Comté;Jura;Thésy 39529;E5.9167;N46.9167;13;
3;FRA;Franche-Comté;Jura;Thoirette 39530;E5.5333;N46.2667;13;
3;FRA;Franche-Comté;Jura;Thoiria 39531;E5.7333;N46.5333;13;
3;FRA;Franche-Comté;Jura;Thoissia 39532;E5.4000;N46.4333;13;
3;FRA;Franche-Comté;Jura;Toulouse-le-Château 39533;E5.5833;N46.8167;13;
3;FRA;Franche-Comté;Jura;Tourmont 39535;E5.6833;N46.8667;13;
3;FRA;Franche-Comté;Jura;Treffay 39536=39517;E6.0000;N46.7333;13;
3;FRA;Franche-Comté;Jura;Trenal 39537;E5.4667;N46.6500;13;
3;FRA;Franche-Comté;Jura;Uxelles 39538;E5.7833;N46.6000;13;
3;FRA;Franche-Comté;Jura;Vadans 39539;E5.7000;N46.9333;13;
3;FRA;Franche-Comté;Jura;Val-d'Épy 39209;E5.3987;N46.3830;13;
3;FRA;Franche-Comté;Jura;Valempoulières 39540;E5.8667;N46.8333;13;
3;FRA;Franche-Comté;Jura;Valfin-lès-Saint-Claude 39541=39478;E5.8500;N46.4333;13;
3;FRA;Franche-Comté;Jura;Valfin-sur-Valouse 39542;E5.5333;N46.3667;13;
3;FRA;Franche-Comté;Jura;Vannoz 39543;E5.9167;N46.7667;13;
3;FRA;Franche-Comté;Jura;Varessia 39544;E5.5500;N46.5500;13;
3;FRA;Franche-Comté;Jura;Vaudrey 39546;E5.6167;N46.9833;13;
3;FRA;Franche-Comté;Jura;Vaux-lès-Saint-Claude 39547;E5.7333;N46.3667;13;
3;FRA;Franche-Comté;Jura;Vaux-sur-Poligny 39548;E5.7167;N46.8333;13;
3;FRA;Franche-Comté;Jura;Vercia 39549;E5.4500;N46.5833;13;
3;FRA;Franche-Comté;Jura;Verges 39550;E5.6833;N46.6500;13;
3;FRA;Franche-Comté;Jura;Véria 39551;E5.4333;N46.4500;13;
3;FRA;Franche-Comté;Jura;Vernantois 39552;E5.5833;N46.6333;13;
3;FRA;Franche-Comté;Jura;Vers-en-Montagne 39554;E5.9167;N46.8167;13;
3;FRA;Franche-Comté;Jura;Vers-sous-Sellières 39555;E5.5333;N46.8167;13;
3;FRA;Franche-Comté;Jura;Vertamboz 39556;E5.7333;N46.6000;13;
3;FRA;Franche-Comté;Jura;Vescles 39557;E5.6000;N46.3667;13;
3;FRA;Franche-Comté;Jura;Vevy 39558;E5.6500;N46.6667;13;
3;FRA;Franche-Comté;Jura;Villard-Saint-Sauveur 39560;E5.8667;N46.3667;13;
3;FRA;Franche-Comté;Jura;Villard-sur-Bienne 39562;E5.9000;N46.4667;13;
3;FRA;Franche-Comté;Jura;Villard-sur-l'Ain 39563=39313;E5.7519;N46.6705;13;
3;FRA;Franche-Comté;Jura;Villards-d'Héria 39561;E5.7333;N46.4167;13;
3;FRA;Franche-Comté;Jura;Villechantria 39564;E5.4500;N46.3833;13;
3;FRA;Franche-Comté;Jura;Villeneuve-d'Aval 39565;E5.7500;N46.9667;13;
3;FRA;Franche-Comté;Jura;Villeneuve-lès-Charnod 39566;E5.4667;N46.3333;13;
3;FRA;Franche-Comté;Jura;Villeneuve-sous-Pymont 39567;E5.5500;N46.6833;13;
3;FRA;Franche-Comté;Jura;Villers-Farlay 39569;E5.7500;N47.0000;13;
3;FRA;Franche-Comté;Jura;Villers-les-Bois 39570;E5.5833;N46.9167;13;
3;FRA;Franche-Comté;Jura;Villers-Robert 39571;E5.5167;N46.9500;13;
3;FRA;Franche-Comté;Jura;Villerserine 39568;E5.6500;N46.8500;13;
3;FRA;Franche-Comté;Jura;Villette-lès-Arbois 39572;E5.7500;N46.9167;13;
3;FRA;Franche-Comté;Jura;Villette-lès-Dole 39573;E5.5000;N47.0500;13;
3;FRA;Franche-Comté;Jura;Villevieux 39574;E5.4667;N46.7333;13;
3;FRA;Franche-Comté;Jura;Vincelles 39576;E5.4833;N46.6000;13;
3;FRA;Franche-Comté;Jura;Vincent 39577;E5.4833;N46.7833;13;
3;FRA;Franche-Comté;Jura;Viremont 39578=39086;E5.6167;N46.4333;13;
3;FRA;Franche-Comté;Jura;Viry 39579;E5.7500;N46.3000;13;
3;FRA;Franche-Comté;Jura;Vitreux 39581;E5.6833;N47.2500;13;
3;FRA;Franche-Comté;Jura;Voiteur 39582;E5.6167;N46.7500;13;
3;FRA;Franche-Comté;Jura;Vosbles 39583;E5.5167;N46.3333;13;
3;FRA;Franche-Comté;Jura;Vriange 39584;E5.5833;N47.1833;13;
3;FRA;Franche-Comté;Jura;Vulvoz 39585;E5.7833;N46.3333;13;
2;FRA;Franche-Comté;Territoire de Belfort;;E6.9379;N47.6173;9;
3;FRA;Franche-Comté;Territoire de Belfort;Andelnans 90001;E6.8667;N47.6000;13;
3;FRA;Franche-Comté;Territoire de Belfort;Angeot 90002;E7.0167;N47.7000;13;
3;FRA;Franche-Comté;Territoire de Belfort;Anjoutey 90003;E6.9333;N47.7000;13;
3;FRA;Franche-Comté;Territoire de Belfort;Argiésans 90004;E6.8167;N47.6000;13;
3;FRA;Franche-Comté;Territoire de Belfort;Autrechêne 90082;E6.9600;N47.5953;13;
3;FRA;Franche-Comté;Territoire de Belfort;Auxelles-Bas 90005;E6.7833;N47.7333;13;
3;FRA;Franche-Comté;Territoire de Belfort;Auxelles-Haut 90006;E6.7667;N47.7500;13;
3;FRA;Franche-Comté;Territoire de Belfort;Banvillars 90007;E6.8167;N47.6000;13;
3;FRA;Franche-Comté;Territoire de Belfort;Bavilliers 90008;E6.8333;N47.6167;13;
3;FRA;Franche-Comté;Territoire de Belfort;Beaucourt 90009;E6.9167;N47.4833;13;
3;FRA;Franche-Comté;Territoire de Belfort;Belfort 90010;E6.8667;N47.6333;13;
3;FRA;Franche-Comté;Territoire de Belfort;Bermont 90011;E6.8500;N47.5833;13;
3;FRA;Franche-Comté;Territoire de Belfort;Bessoncourt 90012;E6.9333;N47.6500;13;
3;FRA;Franche-Comté;Territoire de Belfort;Bethonvilliers 90013;E6.9667;N47.6833;13;
3;FRA;Franche-Comté;Territoire de Belfort;Boron 90014;E7.0167;N47.5667;13;
3;FRA;Franche-Comté;Territoire de Belfort;Botans 90015;E6.8500;N47.6000;13;
3;FRA;Franche-Comté;Territoire de Belfort;Bourg-sous-Châtelet 90016;E6.9500;N47.7000;13;
3;FRA;Franche-Comté;Territoire de Belfort;Bourogne 90017;E6.9167;N47.5667;13;
3;FRA;Franche-Comté;Territoire de Belfort;Brebotte 90018;E6.9667;N47.5833;13;
3;FRA;Franche-Comté;Territoire de Belfort;Bretagne 90019;E7.0000;N47.6000;13;
3;FRA;Franche-Comté;Territoire de Belfort;Buc 90020;E6.7833;N47.6167;13;
3;FRA;Franche-Comté;Territoire de Belfort;Charmois 90021;E6.9333;N47.5667;13;
3;FRA;Franche-Comté;Territoire de Belfort;Châtenois-les-Forges 90022;E6.8500;N47.5667;13;
3;FRA;Franche-Comté;Territoire de Belfort;Chaux 90023;E6.8333;N47.7167;13;
3;FRA;Franche-Comté;Territoire de Belfort;Chavanatte 90024;E7.0667;N47.5833;13;
3;FRA;Franche-Comté;Territoire de Belfort;Chavannes-les-Grands 90025;E7.0500;N47.5833;13;
3;FRA;Franche-Comté;Territoire de Belfort;Chèvremont 90026;E6.9167;N47.6333;13;
3;FRA;Franche-Comté;Territoire de Belfort;Courcelles 90027;E7.0775;N47.4986;13;
3;FRA;Franche-Comté;Territoire de Belfort;Courtelevant 90028;E7.0833;N47.5167;13;
3;FRA;Franche-Comté;Territoire de Belfort;Cravanche 90029;E6.8333;N47.6500;13;
3;FRA;Franche-Comté;Territoire de Belfort;Croix 90030;E6.9500;N47.4500;13;
3;FRA;Franche-Comté;Territoire de Belfort;Cunelières 90031;E7.0000;N47.6333;13;
3;FRA;Franche-Comté;Territoire de Belfort;Danjoutin 90032;E6.8667;N47.6167;13;
3;FRA;Franche-Comté;Territoire de Belfort;Delle 90033;E7.0000;N47.5000;13;
3;FRA;Franche-Comté;Territoire de Belfort;Denney 90034;E6.9167;N47.6500;13;
3;FRA;Franche-Comté;Territoire de Belfort;Dorans 90035;E6.8333;N47.5833;13;
3;FRA;Franche-Comté;Territoire de Belfort;Eguenigue 90036;E6.9333;N47.6667;13;
3;FRA;Franche-Comté;Territoire de Belfort;Éloie 90037;E6.8667;N47.6833;13;
3;FRA;Franche-Comté;Territoire de Belfort;Eschêne-Autrage 90038=90082;E6.9594;N47.5892;13;
3;FRA;Franche-Comté;Territoire de Belfort;Essert 90039;E6.8167;N47.6333;13;
3;FRA;Franche-Comté;Territoire de Belfort;Étueffont 90041;E6.9204;N47.7224;13;
3;FRA;Franche-Comté;Territoire de Belfort;Étueffont-Bas 90040=90041;E6.9204;N47.7224;13;
3;FRA;Franche-Comté;Territoire de Belfort;Évette-Salbert 90042;E6.8000;N47.6769;13;
3;FRA;Franche-Comté;Territoire de Belfort;Faverois 90043;E7.0333;N47.5167;13;
3;FRA;Franche-Comté;Territoire de Belfort;Fêche-l'Église 90045;E6.9500;N47.5000;13;
3;FRA;Franche-Comté;Territoire de Belfort;Felon 90044;E6.9833;N47.7000;13;
3;FRA;Franche-Comté;Territoire de Belfort;Florimont 90046;E7.0667;N47.5000;13;
3;FRA;Franche-Comté;Territoire de Belfort;Fontaine 90047;E7.0000;N47.6667;13;
3;FRA;Franche-Comté;Territoire de Belfort;Fontenelle 90048;E6.9500;N47.6167;13;
3;FRA;Franche-Comté;Territoire de Belfort;Foussemagne 90049;E7.0000;N47.6333;13;
3;FRA;Franche-Comté;Territoire de Belfort;Frais 90050;E6.9833;N47.6500;13;
3;FRA;Franche-Comté;Territoire de Belfort;Froidefontaine 90051;E6.9500;N47.5667;13;
3;FRA;Franche-Comté;Territoire de Belfort;Giromagny 90052;E6.8333;N47.7500;13;
3;FRA;Franche-Comté;Territoire de Belfort;Grandvillars 90053;E6.9667;N47.5500;13;
3;FRA;Franche-Comté;Territoire de Belfort;Grosmagny 90054;E6.8833;N47.7167;13;
3;FRA;Franche-Comté;Territoire de Belfort;Grosne 90055;E7.0000;N47.5667;13;
3;FRA;Franche-Comté;Territoire de Belfort;Joncherey 90056;E7.0000;N47.5333;13;
3;FRA;Franche-Comté;Territoire de Belfort;Lachapelle-sous-Chaux 90057;E6.8167;N47.7000;13;
3;FRA;Franche-Comté;Territoire de Belfort;Lachapelle-sous-Rougemont 90058;E7.0167;N47.7167;13;
3;FRA;Franche-Comté;Territoire de Belfort;Lacollonge 90059;E6.9667;N47.6667;13;
3;FRA;Franche-Comté;Territoire de Belfort;Lagrange 90060;E6.9833;N47.6833;13;
3;FRA;Franche-Comté;Territoire de Belfort;Lamadeleine-Val-des-Anges 90061;E6.9167;N47.7667;13;
3;FRA;Franche-Comté;Territoire de Belfort;Larivière 90062;E7.0000;N47.6667;13;
3;FRA;Franche-Comté;Territoire de Belfort;Lebetain 90063;E6.9833;N47.4833;13;
3;FRA;Franche-Comté;Territoire de Belfort;Lepuix 90065;E6.8167;N47.7667;13;
3;FRA;Franche-Comté;Territoire de Belfort;Lepuix-Neuf 90064;E7.1000;N47.5333;13;
3;FRA;Franche-Comté;Territoire de Belfort;Leval 90066;E6.9833;N47.7333;13;
3;FRA;Franche-Comté;Territoire de Belfort;Menoncourt 90067;E6.9500;N47.6667;13;
3;FRA;Franche-Comté;Territoire de Belfort;Meroux 90068;E6.8979;N47.5953;13;
3;FRA;Franche-Comté;Territoire de Belfort;Méziré 90069;E6.9167;N47.5333;13;
3;FRA;Franche-Comté;Territoire de Belfort;Montbouton 90070;E6.9167;N47.4667;13;
3;FRA;Franche-Comté;Territoire de Belfort;Montreux-Château 90071;E7.0000;N47.6167;13;
3;FRA;Franche-Comté;Territoire de Belfort;Morvillars 90072;E6.9333;N47.5500;13;
3;FRA;Franche-Comté;Territoire de Belfort;Moval 90073;E6.8833;N47.5833;13;
3;FRA;Franche-Comté;Territoire de Belfort;Novillard 90074;E6.9667;N47.6000;13;
3;FRA;Franche-Comté;Territoire de Belfort;Offemont 90075;E6.8833;N47.6667;13;
3;FRA;Franche-Comté;Territoire de Belfort;Pérouse 90076;E6.9000;N47.6333;13;
3;FRA;Franche-Comté;Territoire de Belfort;Petit-Croix 90077;E6.9833;N47.6167;13;
3;FRA;Franche-Comté;Territoire de Belfort;Petitefontaine 90078;E7.0071;N47.7220;13;
3;FRA;Franche-Comté;Territoire de Belfort;Petitmagny 90079;E6.8978;N47.7219;13;
3;FRA;Franche-Comté;Territoire de Belfort;Phaffans 90080;E6.9333;N47.6667;13;
3;FRA;Franche-Comté;Territoire de Belfort;Réchésy 90081;E7.1167;N47.5000;13;
3;FRA;Franche-Comté;Territoire de Belfort;Recouvrance 90083;E6.9833;N47.5667;13;
3;FRA;Franche-Comté;Territoire de Belfort;Reppe 90084;E7.0333;N47.6667;13;
3;FRA;Franche-Comté;Territoire de Belfort;Riervescemont 90085;E6.8833;N47.7651;13;
3;FRA;Franche-Comté;Territoire de Belfort;Romagny-sous-Rougemont 90086;E6.9667;N47.7167;13;
3;FRA;Franche-Comté;Territoire de Belfort;Roppe 90087;E6.9167;N47.6667;13;
3;FRA;Franche-Comté;Territoire de Belfort;Rougegoutte 90088;E6.8500;N47.7333;13;
3;FRA;Franche-Comté;Territoire de Belfort;Rougemont-le-Château 90089;E6.9667;N47.7333;13;
3;FRA;Franche-Comté;Territoire de Belfort;Saint-Dizier-l'Évêque 90090;E6.9667;N47.4667;13;
3;FRA;Franche-Comté;Territoire de Belfort;Saint-Germain-le-Châtelet 90091;E6.9667;N47.7000;13;
3;FRA;Franche-Comté;Territoire de Belfort;Salbert 90092=90042;E6.8002;N47.6770;13;
3;FRA;Franche-Comté;Territoire de Belfort;Sermamagny 90093;E6.8333;N47.7000;13;
3;FRA;Franche-Comté;Territoire de Belfort;Sevenans 90094;E6.8667;N47.5833;13;
3;FRA;Franche-Comté;Territoire de Belfort;Suarce 90095;E7.0833;N47.5667;13;
3;FRA;Franche-Comté;Territoire de Belfort;Thiancourt 90096;E7.0000;N47.5333;13;
3;FRA;Franche-Comté;Territoire de Belfort;Trévenans 90097;E6.8671;N47.5600;13;
3;FRA;Franche-Comté;Territoire de Belfort;Urcerey 90098;E6.8000;N47.6000;13;
3;FRA;Franche-Comté;Territoire de Belfort;Valdoie 90099;E6.8500;N47.6667;13;
3;FRA;Franche-Comté;Territoire de Belfort;Vauthiermont 90100;E7.0333;N47.6833;13;
3;FRA;Franche-Comté;Territoire de Belfort;Vellescot 90101;E7.0167;N47.5667;13;
3;FRA;Franche-Comté;Territoire de Belfort;Vescemont 90102;E6.8500;N47.7500;13;
3;FRA;Franche-Comté;Territoire de Belfort;Vétrigne 90103;E6.9000;N47.6667;13;
3;FRA;Franche-Comté;Territoire de Belfort;Vézelois 90104;E6.9167;N47.6000;13;
3;FRA;Franche-Comté;Territoire de Belfort;Villars-le-Sec 90105;E7.0000;N47.4500;13;
3;FRA;Franche-Comté;Territoire de Belfort;Vourvenans 90106=90097;E6.8671;N47.5600;13;