"Level";"Country";"State";"County";"Place";"Longitude";"Latitude";"ZoomLevel";"Icon"
2;France;Centre;Cher;;E2.4554;N47.0495;9;
3;France;Centre;Cher;Achères 18001;E2.4667;N47.2833;13;
3;France;Centre;Cher;Ainay-le-Vieil 18002;E2.5500;N46.6667;13;
3;France;Centre;Cher;Allogny 18004;E2.3167;N47.2167;13;
3;France;Centre;Cher;Allouis 18005;E2.2333;N47.1667;13;
3;France;Centre;Cher;Annoix 18006;E2.5500;N46.9500;13;
3;France;Centre;Cher;Apremont-sur-Allier 18007;E3.0333;N46.9000;13;
3;France;Centre;Cher;Arçay 18008;E2.3500;N46.9500;13;
3;France;Centre;Cher;Arcomps 18009;E2.4333;N46.6833;13;
3;France;Centre;Cher;Ardenais 18010;E2.3667;N46.6500;13;
3;France;Centre;Cher;Argent-sur-Sauldre 18011;E2.4500;N47.5500;13;
3;France;Centre;Cher;Argenvières 18012;E3.0000;N47.1333;13;
3;France;Centre;Cher;Arpheuilles 18013;E2.5667;N46.7833;13;
3;France;Centre;Cher;Assigny 18014;E2.7500;N47.4333;13;
3;France;Centre;Cher;Aubigny-sur-Nère 18015;E2.4333;N47.4833;13;
3;France;Centre;Cher;Aubinges 18016;E2.5833;N47.2167;13;
3;France;Centre;Cher;Augy-sur-Aubois 18017;E2.8500;N46.7833;13;
3;France;Centre;Cher;Avord 18018;E2.6500;N47.0333;13;
3;France;Centre;Cher;Azy 18019;E2.7167;N47.1833;13;
3;France;Centre;Cher;Bannay 18020;E2.8833;N47.3833;13;
3;France;Centre;Cher;Bannegon 18021;E2.7167;N46.8000;13;
3;France;Centre;Cher;Barlieu 18022;E2.6333;N47.4833;13;
3;France;Centre;Cher;Baugy 18023;E2.7333;N47.0833;13;
3;France;Centre;Cher;Beddes 18024;E2.2000;N46.6000;13;
3;France;Centre;Cher;Beffes 18025;E3.0167;N47.1000;13;
3;France;Centre;Cher;Belleville-sur-Loire 18026;E2.8500;N47.5000;13;
3;France;Centre;Cher;Bengy-sur-Craon 18027;E2.7500;N47.0000;13;
3;France;Centre;Cher;Berry-Bouy 18028;E2.3000;N47.1167;13;
3;France;Centre;Cher;Bessais-le-Fromental 18029;E2.7500;N46.7500;13;
3;France;Centre;Cher;Blancafort 18030;E2.5333;N47.5333;13;
3;France;Centre;Cher;Blet 18031;E2.7333;N46.9000;13;
3;France;Centre;Cher;Boulleret 18032;E2.8667;N47.4167;13;
3;France;Centre;Cher;Bourges 18033;E2.4000;N47.0833;13;
3;France;Centre;Cher;Bouzais 18034;E2.4833;N46.7000;13;
3;France;Centre;Cher;Brécy 18035;E2.6167;N47.1167;13;
3;France;Centre;Cher;Brinay 18036;E2.1333;N47.1500;13;
3;France;Centre;Cher;Brinon-sur-Sauldre 18037;E2.2500;N47.5667;13;
3;France;Centre;Cher;Bruère-Allichamps 18038;E2.4500;N46.7667;13;
3;France;Centre;Cher;Bué 18039;E2.8000;N47.3000;13;
3;France;Centre;Cher;Bussy 18040;E2.6333;N46.9000;13;
3;France;Centre;Cher;Cerbois 18044;E2.1000;N47.1167;13;
3;France;Centre;Cher;Chalivoy-Milon 18045;E2.7000;N46.8667;13;
3;France;Centre;Cher;Chambon 18046;E2.3167;N46.7833;13;
3;France;Centre;Cher;Charenton-du-Cher 18052;E2.6500;N46.7333;13;
3;France;Centre;Cher;Charentonnay 18053;E2.8833;N47.1500;13;
3;France;Centre;Cher;Charly 18054;E2.7500;N46.9000;13;
3;France;Centre;Cher;Chârost 18055;E2.1333;N46.9833;13;
3;France;Centre;Cher;Chassy 18056;E2.8500;N47.0500;13;
3;France;Centre;Cher;Châteaumeillant 18057;E2.2000;N46.5667;13;
3;France;Centre;Cher;Châteauneuf-sur-Cher 18058;E2.3167;N46.8500;13;
3;France;Centre;Cher;Chaumont 18060;E2.7500;N46.8333;13;
3;France;Centre;Cher;Chaumoux-Marcilly 18061;E2.7833;N47.1167;13;
3;France;Centre;Cher;Chavannes 18063;E2.3750;N46.8500;13;
3;France;Centre;Cher;Chéry 18064;E2.0500;N47.1167;13;
3;France;Centre;Cher;Chezal-Benoît 18065;E2.1167;N46.8333;13;
3;France;Centre;Cher;Civray 18066;E2.1667;N46.9667;13;
3;France;Centre;Cher;Clémont 18067;E2.3000;N47.5667;13;
3;France;Centre;Cher;Cogny 18068;E2.6333;N46.8500;13;
3;France;Centre;Cher;Colombiers 18069;E2.5333;N46.7000;13;
3;France;Centre;Cher;Concressault 18070;E2.5833;N47.4833;13;
3;France;Centre;Cher;Contres 18071;E2.5000;N46.8667;13;
3;France;Centre;Cher;Cornusse 18072;E2.7333;N46.9500;13;
3;France;Centre;Cher;Corquoy 18073;E2.3000;N46.8833;13;
3;France;Centre;Cher;Couargues 18074;E2.9167;N47.3000;13;
3;France;Centre;Cher;Cours-les-Barres 18075;E3.0333;N47.0167;13;
3;France;Centre;Cher;Coust 18076;E2.6000;N46.7000;13;
3;France;Centre;Cher;Couy 18077;E2.8333;N47.1167;13;
3;France;Centre;Cher;Crézançay-sur-Cher 18078;E2.3667;N46.8167;13;
3;France;Centre;Cher;Crézancy-en-Sancerre 18079;E2.7333;N47.3000;13;
3;France;Centre;Cher;Croisy 18080;E2.8000;N46.9333;13;
3;France;Centre;Cher;Crosses 18081;E2.5833;N47.0167;13;
3;France;Centre;Cher;Cuffy 18082;E3.0500;N46.9500;13;
3;France;Centre;Cher;Culan 18083;E2.3500;N46.5500;13;
3;France;Centre;Cher;Dampierre-en-Crot 18084;E2.5833;N47.4667;13;
3;France;Centre;Cher;Dampierre-en-Graçay 18085;E1.9500;N47.1833;13;
3;France;Centre;Cher;Drevant 18086;E2.5167;N46.7000;13;
3;France;Centre;Cher;Dun-sur-Auron 18087;E2.5667;N46.8833;13;
3;France;Centre;Cher;Ennordres 18088;E2.3833;N47.4333;13;
3;France;Centre;Cher;Épineuil-le-Fleuriel 18089;E2.5833;N46.5500;13;
3;France;Centre;Cher;Étréchy 18090;E2.7167;N47.1500;13;
3;France;Centre;Cher;Farges-Allichamps 18091;E2.4167;N46.7667;13;
3;France;Centre;Cher;Farges-en-Septaine 18092;E2.6500;N47.0667;13;
3;France;Centre;Cher;Faverdines 18093;E2.4667;N46.6500;13;
3;France;Centre;Cher;Feux 18094;E2.8667;N47.2333;13;
3;France;Centre;Cher;Flavigny 18095;E2.8000;N46.9667;13;
3;France;Centre;Cher;Foëcy 18096;E2.1667;N47.1667;13;
3;France;Centre;Cher;Fussy 18097;E2.4333;N47.1500;13;
3;France;Centre;Cher;Gardefort 18098;E2.8333;N47.2667;13;
3;France;Centre;Cher;Garigny 18099;E2.9000;N47.0833;13;
3;France;Centre;Cher;Genouilly 18100;E1.8833;N47.1833;13;
3;France;Centre;Cher;Germigny-l'Exempt 18101;E2.9000;N46.9167;13;
3;France;Centre;Cher;Givardon 18102;E2.8167;N46.8333;13;
3;France;Centre;Cher;Graçay 18103;E1.8500;N47.1333;13;
3;France;Centre;Cher;Groises 18104;E2.8000;N47.2000;13;
3;France;Centre;Cher;Gron 18105;E2.7500;N47.1167;13;
3;France;Centre;Cher;Grossouvre 18106;E2.9333;N46.8667;13;
3;France;Centre;Cher;Henrichemont 18109;E2.5333;N47.3000;13;
3;France;Centre;Cher;Herry 18110;E2.9500;N47.2167;13;
3;France;Centre;Cher;Humbligny 18111;E2.6667;N47.2500;13;
3;France;Centre;Cher;Ids-Saint-Roch 18112;E2.2500;N46.7167;13;
3;France;Centre;Cher;Ignol 18113;E2.8500;N46.9667;13;
3;France;Centre;Cher;Ineuil 18114;E2.3000;N46.7833;13;
3;France;Centre;Cher;Ivoy-le-Pré 18115;E2.4833;N47.3500;13;
3;France;Centre;Cher;Jalognes 18116;E2.7833;N47.2333;13;
3;France;Centre;Cher;Jars 18117;E2.6833;N47.4000;13;
3;France;Centre;Cher;Jouet-sur-l'Aubois 18118;E3.0000;N47.0500;13;
3;France;Centre;Cher;Jussy-Champagne 18119;E2.6500;N46.9833;13;
3;France;Centre;Cher;Jussy-le-Chaudrier 18120;E2.9333;N47.1167;13;
3;France;Centre;Cher;La Celette 18041;E2.5167;N46.6500;13;
3;France;Centre;Cher;La Celle 18042;E2.4500;N46.7667;13;
3;France;Centre;Cher;La Celle-Condé 18043;E2.1833;N46.8000;13;
3;France;Centre;Cher;La Chapelle-d'Angillon 18047;E2.4333;N47.3667;13;
3;France;Centre;Cher;La Chapelle-Hugon 18048;E2.9500;N46.9000;13;
3;France;Centre;Cher;La Chapelle-Montlinard 18049;E2.9833;N47.1667;13;
3;France;Centre;Cher;La Chapelle-Saint-Ursin 18050;E2.3167;N47.0667;13;
3;France;Centre;Cher;La Chapelotte 18051;E2.5833;N47.3500;13;
3;France;Centre;Cher;La Groutte 18107;E2.5167;N46.6833;13;
3;France;Centre;Cher;La Guerche-sur-l'Aubois 18108;E2.9500;N46.9500;13;
3;France;Centre;Cher;La Perche 18178;E2.5667;N46.6500;13;
3;France;Centre;Cher;Lantan 18121;E2.6667;N46.9000;13;
3;France;Centre;Cher;Lapan 18122;E2.3000;N46.9167;13;
3;France;Centre;Cher;Laverdines 18123;E2.7833;N47.0333;13;
3;France;Centre;Cher;Lazenay 18124;E2.0583;N47.0750;13;
3;France;Centre;Cher;Le Châtelet 18059;E2.2833;N46.6333;13;
3;France;Centre;Cher;Le Chautay 18062;E2.9667;N46.9833;13;
3;France;Centre;Cher;Le Noyer 18168;E2.6667;N47.3833;13;
3;France;Centre;Cher;Le Pondy 18183;E2.6500;N46.8000;13;
3;France;Centre;Cher;Le Subdray 18255;E2.3000;N47.0167;13;
3;France;Centre;Cher;Léré 18125;E2.8667;N47.4667;13;
3;France;Centre;Cher;Les Aix-d'Angillon 18003;E2.5667;N47.2000;13;
3;France;Centre;Cher;Levet 18126;E2.4167;N46.9333;13;
3;France;Centre;Cher;Lignières 18127;E2.1667;N46.7500;13;
3;France;Centre;Cher;Limeux 18128;E2.1167;N47.0667;13;
3;France;Centre;Cher;Lissay-Lochy 18129;E2.4167;N46.9667;13;
3;France;Centre;Cher;Loye-sur-Arnon 18130;E2.3833;N46.6500;13;
3;France;Centre;Cher;Lugny-Bourbonnais 18131;E2.7000;N46.9333;13;
3;France;Centre;Cher;Lugny-Champagne 18132;E2.8167;N47.2000;13;
3;France;Centre;Cher;Lunery 18133;E2.2667;N46.9333;13;
3;France;Centre;Cher;Lury-sur-Arnon 18134;E2.0500;N47.1167;13;
3;France;Centre;Cher;Maisonnais 18135;E2.2000;N46.6333;13;
3;France;Centre;Cher;Marçais 18136;E2.3667;N46.7000;13;
3;France;Centre;Cher;Mareuil-sur-Arnon 18137;E2.1667;N46.8833;13;
3;France;Centre;Cher;Marmagne 18138;E2.2833;N47.1000;13;
3;France;Centre;Cher;Marseilles-lès-Aubigny 18139;E3.0000;N47.0667;13;
3;France;Centre;Cher;Massay 18140;E2.0000;N47.1500;13;
3;France;Centre;Cher;Mehun-sur-Yèvre 18141;E2.2167;N47.1500;13;
3;France;Centre;Cher;Meillant 18142;E2.5000;N46.7833;13;
3;France;Centre;Cher;Menetou-Couture 18143;E2.9167;N47.0333;13;
3;France;Centre;Cher;Menetou-Râtel 18144;E2.7500;N47.3500;13;
3;France;Centre;Cher;Menetou-Salon 18145;E2.5000;N47.2333;13;
3;France;Centre;Cher;Ménétréol-sous-Sancerre 18146;E2.8667;N47.3167;13;
3;France;Centre;Cher;Ménétréol-sur-Sauldre 18147;E2.3167;N47.4500;13;
3;France;Centre;Cher;Méreau 18148;E2.0500;N47.1667;13;
3;France;Centre;Cher;Méry-ès-Bois 18149;E2.3667;N47.3167;13;
3;France;Centre;Cher;Méry-sur-Cher 18150;E1.9833;N47.2333;13;
3;France;Centre;Cher;Montigny 18151;E2.6667;N47.2333;13;
3;France;Centre;Cher;Montlouis 18152;E2.2333;N46.8167;13;
3;France;Centre;Cher;Morlac 18153;E2.3167;N46.7167;13;
3;France;Centre;Cher;Mornay-Berry 18154;E2.8833;N47.0500;13;
3;France;Centre;Cher;Mornay-sur-Allier 18155;E3.0333;N46.8167;13;
3;France;Centre;Cher;Morogues 18156;E2.6000;N47.2333;13;
3;France;Centre;Cher;Morthomiers 18157;E2.2667;N47.0333;13;
3;France;Centre;Cher;Moulins-sur-Yèvre 18158;E2.5167;N47.0833;13;
3;France;Centre;Cher;Nançay 18159;E2.2000;N47.3500;13;
3;France;Centre;Cher;Nérondes 18160;E2.8333;N47.0000;13;
3;France;Centre;Cher;Neuilly-en-Dun 18161;E2.7833;N46.8000;13;
3;France;Centre;Cher;Neuilly-en-Sancerre 18162;E2.6833;N47.3000;13;
3;France;Centre;Cher;Neuvy-Deux-Clochers 18163;E2.6833;N47.2833;13;
3;France;Centre;Cher;Neuvy-le-Barrois 18164;E3.0500;N46.8667;13;
3;France;Centre;Cher;Neuvy-sur-Barangeon 18165;E2.2500;N47.3167;13;
3;France;Centre;Cher;Nohant-en-Goût 18166;E2.5667;N47.1000;13;
3;France;Centre;Cher;Nohant-en-Graçay 18167;E1.8833;N47.1333;13;
3;France;Centre;Cher;Nozières 18169;E2.4333;N46.7333;13;
3;France;Centre;Cher;Oizon 18170;E2.5167;N47.4667;13;
3;France;Centre;Cher;Orcenais 18171;E2.4333;N46.7167;13;
3;France;Centre;Cher;Orval 18172;E2.4833;N46.7333;13;
3;France;Centre;Cher;Osmery 18173;E2.6500;N46.9333;13;
3;France;Centre;Cher;Osmoy 18174;E2.5167;N47.0667;13;
3;France;Centre;Cher;Ourouer-les-Bourdelins 18175;E2.8167;N46.9167;13;
3;France;Centre;Cher;Parassy 18176;E2.5500;N47.2333;13;
3;France;Centre;Cher;Parnay 18177;E2.5667;N46.8500;13;
3;France;Centre;Cher;Pigny 18179;E2.4333;N47.1833;13;
3;France;Centre;Cher;Plaimpied-Givaudins 18180;E2.4500;N47.0000;13;
3;France;Centre;Cher;Plou 18181;E2.1333;N47.0333;13;
3;France;Centre;Cher;Poisieux 18182;E2.0833;N47.0167;13;
3;France;Centre;Cher;Précy 18184;E2.9333;N47.1000;13;
3;France;Centre;Cher;Presly 18185;E2.3500;N47.3833;13;
3;France;Centre;Cher;Preuilly 18186;E2.1833;N47.1000;13;
3;France;Centre;Cher;Préveranges 18187;E2.2500;N46.4333;13;
3;France;Centre;Cher;Primelles 18188;E2.2167;N46.9000;13;
3;France;Centre;Cher;Quantilly 18189;E2.4500;N47.2333;13;
3;France;Centre;Cher;Quincy 18190;E2.1667;N47.1333;13;
3;France;Centre;Cher;Raymond 18191;E2.6833;N46.9667;13;
3;France;Centre;Cher;Reigny 18192;E2.7500;N47.3000;13;
3;France;Centre;Cher;Rezay 18193;E2.1833;N46.6833;13;
3;France;Centre;Cher;Rians 18194;E2.6167;N47.1833;13;
3;France;Centre;Cher;Sagonne 18195;E2.8333;N46.8500;13;
3;France;Centre;Cher;Saint-Aignan-des-Noyers 18196;E2.8167;N46.7667;13;
3;France;Centre;Cher;Saint-Amand-Montrond 18197;E2.5056;N46.7236;13;
3;France;Centre;Cher;Saint-Ambroix 18198;E2.1167;N46.9333;13;
3;France;Centre;Cher;Saint-Baudel 18199;E2.2167;N46.8333;13;
3;France;Centre;Cher;Saint-Bouize 18200;E2.8833;N47.2833;13;
3;France;Centre;Cher;Saint-Caprais 18201;E2.3000;N46.9667;13;
3;France;Centre;Cher;Saint-Céols 18202;E2.6333;N47.2167;13;
3;France;Centre;Cher;Saint-Christophe-le-Chaudry 18203;E2.3667;N46.5833;13;
3;France;Centre;Cher;Saint-Denis-de-Palin 18204;E2.5333;N46.9333;13;
3;France;Centre;Cher;Saint-Doulchard 18205;E2.3500;N47.1000;13;
3;France;Centre;Cher;Saint-Éloy-de-Gy 18206;E2.3500;N47.1500;13;
3;France;Centre;Cher;Saint-Florent-sur-Cher 18207;E2.2500;N46.9833;13;
3;France;Centre;Cher;Saint-Georges-de-Poisieux 18209;E2.4833;N46.6833;13;
3;France;Centre;Cher;Saint-Georges-sur-la-Prée 18210;E1.9333;N47.2167;13;
3;France;Centre;Cher;Saint-Georges-sur-Moulon 18211;E2.4333;N47.1833;13;
3;France;Centre;Cher;Saint-Germain-des-Bois 18212;E2.4500;N46.9167;13;
3;France;Centre;Cher;Saint-Germain-du-Puy 18213;E2.4833;N47.1000;13;
3;France;Centre;Cher;Saint-Hilaire-de-Court 18214;E2.0167;N47.2167;13;
3;France;Centre;Cher;Saint-Hilaire-de-Gondilly 18215;E2.8667;N47.0500;13;
3;France;Centre;Cher;Saint-Hilaire-en-Lignières 18216;E2.1667;N46.7333;13;
3;France;Centre;Cher;Saint-Jeanvrin 18217;E2.2333;N46.5833;13;
3;France;Centre;Cher;Saint-Just 18218;E2.5167;N46.9833;13;
3;France;Centre;Cher;Saint-Laurent 18219;E2.2000;N47.2167;13;
3;France;Centre;Cher;Saint-Léger-le-Petit 18220;E3.0000;N47.1167;13;
3;France;Centre;Cher;Saint-Loup-des-Chaumes 18221;E2.3833;N46.8167;13;
3;France;Centre;Cher;Saint-Martin-d'Auxigny 18223;E2.4167;N47.2000;13;
3;France;Centre;Cher;Saint-Martin-des-Champs 18224;E2.9167;N47.1500;13;
3;France;Centre;Cher;Saint-Maur 18225;E2.2833;N46.5667;13;
3;France;Centre;Cher;Saint-Michel-de-Volangis 18226;E2.5000;N47.1500;13;
3;France;Centre;Cher;Saint-Outrille 18228;E1.8409;N47.1439;13;
3;France;Centre;Cher;Saint-Palais 18229;E2.4167;N47.2333;13;
3;France;Centre;Cher;Saint-Pierre-les-Bois 18230;E2.2833;N46.6667;13;
3;France;Centre;Cher;Saint-Pierre-les-Étieux 18231;E2.6167;N46.7333;13;
3;France;Centre;Cher;Saint-Priest-la-Marche 18232;E2.1667;N46.4500;13;
3;France;Centre;Cher;Saint-Satur 18233;E2.8500;N47.3333;13;
3;France;Centre;Cher;Saint-Saturnin 18234;E2.2333;N46.5000;13;
3;France;Centre;Cher;Saint-Symphorien 18236;E2.3167;N46.8167;13;
3;France;Centre;Cher;Saint-Vitte 18238;E2.5333;N46.5333;13;
3;France;Centre;Cher;Sainte-Gemme-en-Sancerrois 18208;E2.8167;N47.3833;13;
3;France;Centre;Cher;Sainte-Lunaise 18222;E2.3500;N46.9333;13;
3;France;Centre;Cher;Sainte-Montaine 18227;E2.3167;N47.4833;13;
3;France;Centre;Cher;Sainte-Solange 18235;E2.5500;N47.1333;13;
3;France;Centre;Cher;Sainte-Thorette 18237;E2.2000;N47.0833;13;
3;France;Centre;Cher;Saligny-le-Vif 18239;E2.7667;N47.0500;13;
3;France;Centre;Cher;Sancergues 18240;E2.9167;N47.1500;13;
3;France;Centre;Cher;Sancerre 18241;E2.8333;N47.3333;13;
3;France;Centre;Cher;Sancoins 18242;E2.9167;N46.8333;13;
3;France;Centre;Cher;Santranges 18243;E2.7667;N47.5000;13;
3;France;Centre;Cher;Saugy 18244;E2.1333;N46.9667;13;
3;France;Centre;Cher;Saulzais-le-Potier 18245;E2.5000;N46.6000;13;
3;France;Centre;Cher;Savigny-en-Sancerre 18246;E2.8167;N47.4333;13;
3;France;Centre;Cher;Savigny-en-Septaine 18247;E2.5500;N47.0333;13;
3;France;Centre;Cher;Senneçay 18248;E2.4500;N46.9500;13;
3;France;Centre;Cher;Sens-Beaujeu 18249;E2.7000;N47.3167;13;
3;France;Centre;Cher;Serruelles 18250;E2.3833;N46.8833;13;
3;France;Centre;Cher;Sévry 18251;E2.8167;N47.1333;13;
3;France;Centre;Cher;Sidiailles 18252;E2.3167;N46.5000;13;
3;France;Centre;Cher;Soulangis 18253;E2.5167;N47.1833;13;
3;France;Centre;Cher;Soye-en-Septaine 18254;E2.5000;N47.0333;13;
3;France;Centre;Cher;Subligny 18256;E2.7500;N47.4000;13;
3;France;Centre;Cher;Sury-en-Vaux 18258;E2.8000;N47.3667;13;
3;France;Centre;Cher;Sury-ès-Bois 18259;E2.7000;N47.4667;13;
3;France;Centre;Cher;Sury-près-Léré 18257;E2.8667;N47.4833;13;
3;France;Centre;Cher;Tendron 18260;E2.8500;N46.9667;13;
3;France;Centre;Cher;Thaumiers 18261;E2.6500;N46.8167;13;
3;France;Centre;Cher;Thauvenay 18262;E2.8667;N47.3167;13;
3;France;Centre;Cher;Thénioux 18263;E1.9333;N47.2500;13;
3;France;Centre;Cher;Thou 18264;E2.6500;N47.4167;13;
3;France;Centre;Cher;Torteron 18265;E2.9667;N47.0167;13;
3;France;Centre;Cher;Touchay 18266;E2.2167;N46.7167;13;
3;France;Centre;Cher;Trouy 18267;E2.3500;N47.0167;13;
3;France;Centre;Cher;Uzay-le-Venon 18268;E2.4667;N46.8167;13;
3;France;Centre;Cher;Vailly-sur-Sauldre 18269;E2.6500;N47.4500;13;
3;France;Centre;Cher;Vallenay 18270;E2.3833;N46.7833;13;
3;France;Centre;Cher;Vasselay 18271;E2.4000;N47.1667;13;
3;France;Centre;Cher;Veaugues 18272;E2.7500;N47.2500;13;
3;France;Centre;Cher;Venesmes 18273;E2.3167;N46.8333;13;
3;France;Centre;Cher;Verdigny 18274;E2.8167;N47.3500;13;
3;France;Centre;Cher;Vereaux 18275;E2.8833;N46.8833;13;
3;France;Centre;Cher;Vernais 18276;E2.7167;N46.7667;13;
3;France;Centre;Cher;Verneuil 18277;E2.6000;N46.8167;13;
3;France;Centre;Cher;Vesdun 18278;E2.4333;N46.5333;13;
3;France;Centre;Cher;Vierzon 18279;E2.0833;N47.2167;13;
3;France;Centre;Cher;Vignoux-sous-les-Aix 18280;E2.4667;N47.1833;13;
3;France;Centre;Cher;Vignoux-sur-Barangeon 18281;E2.1833;N47.2167;13;
3;France;Centre;Cher;Villabon 18282;E2.6833;N47.1000;13;
3;France;Centre;Cher;Villecelin 18283;E2.1833;N46.8333;13;
3;France;Centre;Cher;Villegenon 18284;E2.6000;N47.4333;13;
3;France;Centre;Cher;Villeneuve-sur-Cher 18285;E2.2167;N47.0333;13;
3;France;Centre;Cher;Villequiers 18286;E2.8000;N47.0667;13;
3;France;Centre;Cher;Vinon 18287;E2.8333;N47.2833;13;
3;France;Centre;Cher;Vorly 18288;E2.4833;N46.9500;13;
3;France;Centre;Cher;Vornay 18289;E2.5833;N46.9667;13;
3;France;Centre;Cher;Vouzeron 18290;E2.2333;N47.2667;13;
2;France;Centre;Eure-et-Loir;;E1.4310;N48.4438;9;
3;France;Centre;Eure-et-Loir;Abondant 28001;E1.4333;N48.7833;13;
3;France;Centre;Eure-et-Loir;Allaines-Mervilliers 28002;E1.8200;N48.2000;13;
3;France;Centre;Eure-et-Loir;Allainville 28003;E1.3000;N48.7167;13;
3;France;Centre;Eure-et-Loir;Allonnes 28004;E1.6667;N48.3333;13;
3;France;Centre;Eure-et-Loir;Alluyes 28005;E1.3667;N48.2333;13;
3;France;Centre;Eure-et-Loir;Amilly 28006;E1.4000;N48.4439;13;
3;France;Centre;Eure-et-Loir;Anet 28007;E1.4333;N48.8500;13;
3;France;Centre;Eure-et-Loir;Ardelles 28008;E1.1667;N48.5500;13;
3;France;Centre;Eure-et-Loir;Ardelu 28009;E1.9167;N48.3500;13;
3;France;Centre;Eure-et-Loir;Argenvilliers 28010;E0.9500;N48.2667;13;
3;France;Centre;Eure-et-Loir;Armenonville-les-Gâtineaux 28011=28023;E1.6468;N48.5435;13;
3;France;Centre;Eure-et-Loir;Arrou 28012;E1.1167;N48.1000;13;
3;France;Centre;Eure-et-Loir;Aunay-sous-Auneau 28013;E1.8167;N48.4333;13;
3;France;Centre;Eure-et-Loir;Aunay-sous-Crécy 28014;E1.3000;N48.6667;13;
3;France;Centre;Eure-et-Loir;Auneau 28015;E1.7667;N48.4500;13;
3;France;Centre;Eure-et-Loir;Autheuil 28017;E1.2833;N48.0000;13;
3;France;Centre;Eure-et-Loir;Authon-du-Perche 28018;E0.9167;N48.2000;13;
3;France;Centre;Eure-et-Loir;Baigneaux 28019;E1.6167;N48.3333;13;
3;France;Centre;Eure-et-Loir;Baignolet 28020;E1.6167;N48.1667;13;
3;France;Centre;Eure-et-Loir;Bailleau-Armenonville 28023;E1.6500;N48.5333;13;
3;France;Centre;Eure-et-Loir;Bailleau-l'Évêque 28022;E1.4000;N48.4833;13;
3;France;Centre;Eure-et-Loir;Bailleau-le-Pin 28021;E1.3333;N48.3667;13;
3;France;Centre;Eure-et-Loir;Barjouville 28024;E1.4833;N48.4167;13;
3;France;Centre;Eure-et-Loir;Barmainville 28025;E1.9667;N48.2667;13;
3;France;Centre;Eure-et-Loir;Baudreville 28026;E1.9000;N48.3167;13;
3;France;Centre;Eure-et-Loir;Bazoches-en-Dunois 28028;E1.5667;N48.1000;13;
3;France;Centre;Eure-et-Loir;Bazoches-les-Hautes 28029;E1.8000;N48.1500;13;
3;France;Centre;Eure-et-Loir;Beauche 28030;E0.9667;N48.6833;13;
3;France;Centre;Eure-et-Loir;Beaumont-les-Autels 28031;E0.9500;N48.2500;13;
3;France;Centre;Eure-et-Loir;Beauvilliers 28032;E1.6500;N48.2833;13;
3;France;Centre;Eure-et-Loir;Belhomert-Guéhouville 28033;E1.0667;N48.5000;13;
3;France;Centre;Eure-et-Loir;Berchères-les-Pierres 28035;E1.5500;N48.3833;13;
3;France;Centre;Eure-et-Loir;Berchères-Saint-Germain 28034;E1.4667;N48.5333;13;
3;France;Centre;Eure-et-Loir;Berchères-sur-Vesgre 28036;E1.5500;N48.8500;13;
3;France;Centre;Eure-et-Loir;Bérou-la-Mulotière 28037;E1.0500;N48.7500;13;
3;France;Centre;Eure-et-Loir;Béthonvilliers 28038;E0.9167;N48.2167;13;
3;France;Centre;Eure-et-Loir;Béville-le-Comte 28039;E1.7167;N48.4333;13;
3;France;Centre;Eure-et-Loir;Billancelles 28040;E1.2167;N48.4833;13;
3;France;Centre;Eure-et-Loir;Blandainville 28041;E1.3000;N48.3000;13;
3;France;Centre;Eure-et-Loir;Bleury 28042;E1.7500;N48.5167;13;
3;France;Centre;Eure-et-Loir;Blévy 28043=28226;E1.2000;N48.6333;13;
3;France;Centre;Eure-et-Loir;Boisgasson 28044;E1.1500;N48.0333;13;
3;France;Centre;Eure-et-Loir;Boissy-en-Drouais 28045;E1.2667;N48.7333;13;
3;France;Centre;Eure-et-Loir;Boissy-lès-Perche 28046;E0.9000;N48.6833;13;
3;France;Centre;Eure-et-Loir;Boisville-la-Saint-Père 28047;E1.7000;N48.3333;13;
3;France;Centre;Eure-et-Loir;Boncé 28049;E1.5000;N48.3000;13;
3;France;Centre;Eure-et-Loir;Boncourt 28050;E1.4667;N48.8500;13;
3;France;Centre;Eure-et-Loir;Bonneval 28051;E1.4000;N48.1833;13;
3;France;Centre;Eure-et-Loir;Bouglainval 28052;E1.5000;N48.5667;13;
3;France;Centre;Eure-et-Loir;Boutigny-Prouais 28056;E1.5833;N48.7333;13;
3;France;Centre;Eure-et-Loir;Bouville 28057;E1.3833;N48.2667;13;
3;France;Centre;Eure-et-Loir;Bréchamps 28058;E1.5167;N48.6667;13;
3;France;Centre;Eure-et-Loir;Brezolles 28059;E1.0667;N48.6833;13;
3;France;Centre;Eure-et-Loir;Briconville 28060;E1.3833;N48.5333;13;
3;France;Centre;Eure-et-Loir;Brou 28061;E1.1833;N48.2167;13;
3;France;Centre;Eure-et-Loir;Broué 28062;E1.5167;N48.7500;13;
3;France;Centre;Eure-et-Loir;Brunelles 28063;E0.9000;N48.3167;13;
3;France;Centre;Eure-et-Loir;Bû 28064;E1.5000;N48.8000;13;
3;France;Centre;Eure-et-Loir;Bullainville 28065;E1.5167;N48.1667;13;
3;France;Centre;Eure-et-Loir;Bullou 28066;E1.2500;N48.2333;13;
3;France;Centre;Eure-et-Loir;Cernay 28067;E1.2500;N48.3833;13;
3;France;Centre;Eure-et-Loir;Challet 28068;E1.4333;N48.5500;13;
3;France;Centre;Eure-et-Loir;Champagne 28069;E1.5667;N48.7667;13;
3;France;Centre;Eure-et-Loir;Champhol 28070;E1.5000;N48.4667;13;
3;France;Centre;Eure-et-Loir;Champrond-en-Gâtine 28071;E1.0833;N48.4000;13;
3;France;Centre;Eure-et-Loir;Champrond-en-Perchet 28072;E0.8667;N48.3000;13;
3;France;Centre;Eure-et-Loir;Champseru 28073;E1.6500;N48.4833;13;
3;France;Centre;Eure-et-Loir;Chapelle-Guillaume 28078;E0.9167;N48.1167;13;
3;France;Centre;Eure-et-Loir;Chapelle-Royale 28079;E1.0500;N48.1500;13;
3;France;Centre;Eure-et-Loir;Charbonnières 28080;E0.9333;N48.2000;13;
3;France;Centre;Eure-et-Loir;Charonville 28081;E1.3000;N48.2833;13;
3;France;Centre;Eure-et-Loir;Charpont 28082;E1.4500;N48.7000;13;
3;France;Centre;Eure-et-Loir;Charray 28083;E1.3333;N47.9667;13;
3;France;Centre;Eure-et-Loir;Chartainvilliers 28084;E1.5500;N48.5500;13;
3;France;Centre;Eure-et-Loir;Chartres 28085;E1.5000;N48.4500;13;
3;France;Centre;Eure-et-Loir;Chassant 28086;E1.0667;N48.3000;13;
3;France;Centre;Eure-et-Loir;Châtaincourt 28087;E1.2333;N48.7000;13;
3;France;Centre;Eure-et-Loir;Châteaudun 28088;E1.3333;N48.0833;13;
3;France;Centre;Eure-et-Loir;Châteauneuf-en-Thymerais 28089;E1.2500;N48.5833;13;
3;France;Centre;Eure-et-Loir;Châtenay 28092;E1.8833;N48.3583;13;
3;France;Centre;Eure-et-Loir;Châtillon-en-Dunois 28093;E1.1833;N48.1167;13;
3;France;Centre;Eure-et-Loir;Chaudon 28094;E1.5000;N48.6667;13;
3;France;Centre;Eure-et-Loir;Chauffours 28095;E1.3500;N48.4000;13;
3;France;Centre;Eure-et-Loir;Chêne-Chenu 28097=28393;E1.3333;N48.5833;13;
3;France;Centre;Eure-et-Loir;Cherisy 28098;E1.4333;N48.7500;13;
3;France;Centre;Eure-et-Loir;Chuisnes 28099;E1.2167;N48.4500;13;
3;France;Centre;Eure-et-Loir;Cintray 28100;E1.3667;N48.4500;13;
3;France;Centre;Eure-et-Loir;Civry 28101;E1.4833;N48.0833;13;
3;France;Centre;Eure-et-Loir;Clévilliers 28102;E1.3833;N48.5500;13;
3;France;Centre;Eure-et-Loir;Cloyes-sur-le-Loir 28103;E1.2333;N48.0000;13;
3;France;Centre;Eure-et-Loir;Coltainville 28104;E1.5833;N48.4833;13;
3;France;Centre;Eure-et-Loir;Combres 28105;E1.0667;N48.3167;13;
3;France;Centre;Eure-et-Loir;Conie-Molitard 28106;E1.4500;N48.1167;13;
3;France;Centre;Eure-et-Loir;Corancez 28107;E1.5167;N48.3667;13;
3;France;Centre;Eure-et-Loir;Cormainville 28108;E1.6000;N48.1333;13;
3;France;Centre;Eure-et-Loir;Coudray-au-Perche 28111;E0.8667;N48.2333;13;
3;France;Centre;Eure-et-Loir;Coudreceau 28112;E0.9167;N48.3500;13;
3;France;Centre;Eure-et-Loir;Coulombs 28113;E1.5500;N48.6500;13;
3;France;Centre;Eure-et-Loir;Courbehaye 28114;E1.6000;N48.1500;13;
3;France;Centre;Eure-et-Loir;Courtalain 28115;E1.1500;N48.0833;13;
3;France;Centre;Eure-et-Loir;Courville-sur-Eure 28116;E1.2500;N48.4500;13;
3;France;Centre;Eure-et-Loir;Crécy-Couvé 28117;E1.2833;N48.6667;13;
3;France;Centre;Eure-et-Loir;Croisilles 28118;E1.5000;N48.6833;13;
3;France;Centre;Eure-et-Loir;Crucey-Villages 28120;E1.0667;N48.6667;13;
3;France;Centre;Eure-et-Loir;Dambron 28121;E1.8667;N48.1167;13;
3;France;Centre;Eure-et-Loir;Dammarie 28122;E1.5000;N48.3500;13;
3;France;Centre;Eure-et-Loir;Dampierre-sous-Brou 28123;E1.1167;N48.2167;13;
3;France;Centre;Eure-et-Loir;Dampierre-sur-Avre 28124;E1.1500;N48.7667;13;
3;France;Centre;Eure-et-Loir;Dampierre-sur-Blévy 28125=28226;E1.1333;N48.6333;13;
3;France;Centre;Eure-et-Loir;Dancy 28126;E1.4667;N48.1500;13;
3;France;Centre;Eure-et-Loir;Dangeau 28127;E1.2833;N48.2000;13;
3;France;Centre;Eure-et-Loir;Dangers 28128;E1.3500;N48.5167;13;
3;France;Centre;Eure-et-Loir;Denonville 28129;E1.8167;N48.3833;13;
3;France;Centre;Eure-et-Loir;Digny 28130;E1.1500;N48.5333;13;
3;France;Centre;Eure-et-Loir;Dommerville 28131=91016;E1.9833;N48.3167;13;
3;France;Centre;Eure-et-Loir;Donnemain-Saint-Mamès 28132;E1.3667;N48.1000;13;
3;France;Centre;Eure-et-Loir;Douy 28133;E1.2667;N48.0333;13;
3;France;Centre;Eure-et-Loir;Dreux 28134;E1.3667;N48.7333;13;
3;France;Centre;Eure-et-Loir;Droue-sur-Drouette 28135;E1.7000;N48.6000;13;
3;France;Centre;Eure-et-Loir;Écluzelles 28136;E1.4167;N48.7167;13;
3;France;Centre;Eure-et-Loir;Écrosnes 28137;E1.7333;N48.5500;13;
3;France;Centre;Eure-et-Loir;Écublé 28138=28393;E1.3167;N48.5667;13;
3;France;Centre;Eure-et-Loir;Épeautrolles 28139;E1.3333;N48.3167;13;
3;France;Centre;Eure-et-Loir;Épernon 28140;E1.6833;N48.6167;13;
3;France;Centre;Eure-et-Loir;Ermenonville-la-Grande 28141;E1.3833;N48.3333;13;
3;France;Centre;Eure-et-Loir;Ermenonville-la-Petite 28142;E1.3500;N48.3000;13;
3;France;Centre;Eure-et-Loir;Escorpain 28143;E1.2167;N48.7167;13;
3;France;Centre;Eure-et-Loir;Fains-la-Folie 28145;E1.6500;N48.2167;13;
3;France;Centre;Eure-et-Loir;Faverolles 28146;E1.5833;N48.6833;13;
3;France;Centre;Eure-et-Loir;Favières 28147;E1.2333;N48.5333;13;
3;France;Centre;Eure-et-Loir;Fessanvilliers-Mattanvilliers 28151;E1.0333;N48.7000;13;
3;France;Centre;Eure-et-Loir;Feuilleuse 28152=28226;E1.1356;N48.6140;13;
3;France;Centre;Eure-et-Loir;Flacey 28153;E1.3500;N48.1500;13;
3;France;Centre;Eure-et-Loir;Fontaine-la-Guyon 28154;E1.3167;N48.4667;13;
3;France;Centre;Eure-et-Loir;Fontaine-les-Ribouts 28155;E1.2500;N48.6500;13;
3;France;Centre;Eure-et-Loir;Fontaine-Simon 28156;E1.0167;N48.5000;13;
3;France;Centre;Eure-et-Loir;Fontenay-sur-Conie 28157;E1.6667;N48.1667;13;
3;France;Centre;Eure-et-Loir;Fontenay-sur-Eure 28158;E1.4167;N48.4000;13;
3;France;Centre;Eure-et-Loir;Francourville 28160;E1.6667;N48.4000;13;
3;France;Centre;Eure-et-Loir;Frazé 28161;E1.1000;N48.2667;13;
3;France;Centre;Eure-et-Loir;Fresnay-l'Évêque 28164;E1.8167;N48.2667;13;
3;France;Centre;Eure-et-Loir;Fresnay-le-Comte 28162;E1.4833;N48.3000;13;
3;France;Centre;Eure-et-Loir;Fresnay-le-Gilmert 28163;E1.4167;N48.5167;13;
3;France;Centre;Eure-et-Loir;Frétigny 28165;E0.9667;N48.3667;13;
3;France;Centre;Eure-et-Loir;Friaize 28166;E1.1333;N48.4333;13;
3;France;Centre;Eure-et-Loir;Fruncé 28167;E1.2333;N48.4000;13;
3;France;Centre;Eure-et-Loir;Gallardon 28168;E1.7000;N48.5333;13;
3;France;Centre;Eure-et-Loir;Garancières-en-Beauce 28169;E1.9167;N48.4333;13;
3;France;Centre;Eure-et-Loir;Garancières-en-Drouais 28170;E1.2833;N48.7000;13;
3;France;Centre;Eure-et-Loir;Garnay 28171;E1.3333;N48.7000;13;
3;France;Centre;Eure-et-Loir;Gas 28172;E1.6667;N48.5667;13;
3;France;Centre;Eure-et-Loir;Gasville-Oisème 28173;E1.5333;N48.4667;13;
3;France;Centre;Eure-et-Loir;Gâtelles 28174=28386;E1.2833;N48.5500;13;
3;France;Centre;Eure-et-Loir;Gellainville 28177;E1.5333;N48.4000;13;
3;France;Centre;Eure-et-Loir;Germainville 28178;E1.4833;N48.7500;13;
3;France;Centre;Eure-et-Loir;Germignonville 28179;E1.7333;N48.1833;13;
3;France;Centre;Eure-et-Loir;Gilles 28180;E1.5167;N48.9167;13;
3;France;Centre;Eure-et-Loir;Gironville-et-Neuville 28181=28393;E1.3833;N48.6167;13;
3;France;Centre;Eure-et-Loir;Gohory 28182;E1.2333;N48.1667;13;
3;France;Centre;Eure-et-Loir;Gommerville 28183;E1.9500;N48.3500;13;
3;France;Centre;Eure-et-Loir;Gouillons 28184;E1.8333;N48.3500;13;
3;France;Centre;Eure-et-Loir;Goussainville 28185;E1.5500;N48.7667;13;
3;France;Centre;Eure-et-Loir;Grandville-Gaudreville 28186=28183;E1.9667;N48.3667;13;
3;France;Centre;Eure-et-Loir;Guainville 28187;E1.5000;N48.9167;13;
3;France;Centre;Eure-et-Loir;Guilleville 28189;E1.8167;N48.2167;13;
3;France;Centre;Eure-et-Loir;Guillonville 28190;E1.5667;N48.7667;13;
3;France;Centre;Eure-et-Loir;Hanches 28191;E1.6500;N48.6000;13;
3;France;Centre;Eure-et-Loir;Happonvilliers 28192;E1.1167;N48.3167;13;
3;France;Centre;Eure-et-Loir;Havelu 28193;E1.5333;N48.7833;13;
3;France;Centre;Eure-et-Loir;Houville-la-Branche 28194;E1.6333;N48.4500;13;
3;France;Centre;Eure-et-Loir;Houx 28195;E1.6167;N48.5667;13;
3;France;Centre;Eure-et-Loir;Illiers-Combray 28196;E1.9333;N48.3000;13;
3;France;Centre;Eure-et-Loir;Intréville 28197;E1.4833;N48.0833;13;
3;France;Centre;Eure-et-Loir;Jallans 28198;E1.3833;N48.0833;13;
3;France;Centre;Eure-et-Loir;Janville 28199;E1.8833;N48.2000;13;
3;France;Centre;Eure-et-Loir;Jaudrais 28200;E1.1333;N48.5833;13;
3;France;Centre;Eure-et-Loir;Jouy 28201;E1.5500;N48.5167;13;
3;France;Centre;Eure-et-Loir;La Bazoche-Gouet 28027;E0.9833;N48.1333;13;
3;France;Centre;Eure-et-Loir;La Bourdinière-Saint-Loup 28048;E1.4167;N48.3167;13;
3;France;Centre;Eure-et-Loir;La Chapelle-d'Aunainville 28074;E1.8000;N48.4167;13;
3;France;Centre;Eure-et-Loir;La Chapelle-du-Noyer 28075;E1.3167;N48.0333;13;
3;France;Centre;Eure-et-Loir;La Chapelle-Forainvilliers 28076;E1.5000;N48.7167;13;
3;France;Centre;Eure-et-Loir;La Chapelle-Fortin 28077;E0.8667;N48.6500;13;
3;France;Centre;Eure-et-Loir;La Chaussée-d'Ivry 28096;E1.4833;N48.8833;13;
3;France;Centre;Eure-et-Loir;La Croix-du-Perche 28119;E1.0500;N48.2667;13;
3;France;Centre;Eure-et-Loir;La Ferté-Vidame 28149;E0.9167;N48.6167;13;
3;France;Centre;Eure-et-Loir;La Ferté-Villeneuil 28150;E1.3500;N47.9833;13;
3;France;Centre;Eure-et-Loir;La Framboisière 28159;E1.0167;N48.6000;13;
3;France;Centre;Eure-et-Loir;La Gaudaine 28175;E0.9333;N48.3000;13;
3;France;Centre;Eure-et-Loir;La Loupe 28214;E1.0167;N48.4667;13;
3;France;Centre;Eure-et-Loir;La Mancelière 28231;E0.9833;N48.6500;13;
3;France;Centre;Eure-et-Loir;La Puisaye 28310;E0.9667;N48.6000;13;
3;France;Centre;Eure-et-Loir;La Saucelle 28368;E1.0333;N48.6333;13;
3;France;Centre;Eure-et-Loir;La Ville-aux-Nonains 28413=28373;E1.0833;N48.5500;13;
3;France;Centre;Eure-et-Loir;Lamblore 28202;E0.9167;N48.6167;13;
3;France;Centre;Eure-et-Loir;Landelles 28203;E1.2000;N48.4667;13;
3;France;Centre;Eure-et-Loir;Langey 28204;E1.1833;N48.0500;13;
3;France;Centre;Eure-et-Loir;Lanneray 28205;E1.2500;N48.0833;13;
3;France;Centre;Eure-et-Loir;Laons 28206;E1.1833;N48.7000;13;
3;France;Centre;Eure-et-Loir;Le Boullay-les-Deux-Églises 28053;E1.3333;N48.6333;13;
3;France;Centre;Eure-et-Loir;Le Boullay-Mivoye 28054;E1.4000;N48.6500;13;
3;France;Centre;Eure-et-Loir;Le Boullay-Thierry 28055;E1.4333;N48.6333;13;
3;France;Centre;Eure-et-Loir;Le Coudray 28110;E1.4833;N48.4167;13;
3;France;Centre;Eure-et-Loir;Le Favril 28148;E1.1167;N48.4500;13;
3;France;Centre;Eure-et-Loir;Le Gault-Saint-Denis 28176;E1.4833;N48.2333;13;
3;France;Centre;Eure-et-Loir;Le Gué-de-Longroi 28188;E1.7167;N48.5000;13;
3;France;Centre;Eure-et-Loir;Le Mée 28241;E1.4167;N47.9833;13;
3;France;Centre;Eure-et-Loir;Le Mesnil-Simon 28247;E1.5333;N48.9000;13;
3;France;Centre;Eure-et-Loir;Le Mesnil-Thomas 28248;E1.1000;N48.6000;13;
3;France;Centre;Eure-et-Loir;Le Puiset 28311;E1.8667;N48.2000;13;
3;France;Centre;Eure-et-Loir;Le Thieulin 28385;E1.1333;N48.4000;13;
3;France;Centre;Eure-et-Loir;Les Autels-Villevillon 28016;E1.0000;N48.1667;13;
3;France;Centre;Eure-et-Loir;Les Châtelets 28090;E1.0167;N48.6500;13;
3;France;Centre;Eure-et-Loir;Les Châtelliers-Notre-Dame 28091;E1.2000;N48.3500;13;
3;France;Centre;Eure-et-Loir;Les Corvées-les-Yys 28109;E1.1500;N48.3500;13;
3;France;Centre;Eure-et-Loir;Les Étilleux 28144;E0.8167;N48.2333;13;
3;France;Centre;Eure-et-Loir;Les Pinthières 28299;E1.5667;N48.7000;13;
3;France;Centre;Eure-et-Loir;Les Ressuintes 28314;E0.9333;N48.6000;13;
3;France;Centre;Eure-et-Loir;Léthuin 28207;E1.8667;N48.3667;13;
3;France;Centre;Eure-et-Loir;Levainville 28208;E1.7333;N48.5000;13;
3;France;Centre;Eure-et-Loir;Lèves 28209;E1.4833;N48.4667;13;
3;France;Centre;Eure-et-Loir;Levesville-la-Chenard 28210;E1.8333;N48.3000;13;
3;France;Centre;Eure-et-Loir;Logron 28211;E1.2667;N48.1500;13;
3;France;Centre;Eure-et-Loir;Loigny-la-Bataille 28212;E1.7333;N48.1167;13;
3;France;Centre;Eure-et-Loir;Lormaye 28213;E1.5333;N48.6500;13;
3;France;Centre;Eure-et-Loir;Louville-la-Chenard 28215;E1.7833;N48.3167;13;
3;France;Centre;Eure-et-Loir;Louvilliers-en-Drouais 28216;E1.2833;N48.7333;13;
3;France;Centre;Eure-et-Loir;Louvilliers-lès-Perche 28217;E1.0833;N48.6167;13;
3;France;Centre;Eure-et-Loir;Lucé 28218;E1.4667;N48.4333;13;
3;France;Centre;Eure-et-Loir;Luigny 28219;E1.0333;N48.2333;13;
3;France;Centre;Eure-et-Loir;Luisant 28220;E1.4833;N48.4167;13;
3;France;Centre;Eure-et-Loir;Lumeau 28221;E1.7833;N48.1167;13;
3;France;Centre;Eure-et-Loir;Luplanté 28222;E1.4000;N48.3000;13;
3;France;Centre;Eure-et-Loir;Luray 28223;E1.4000;N48.7167;13;
3;France;Centre;Eure-et-Loir;Lutz-en-Dunois 28224;E1.4167;N48.0500;13;
3;France;Centre;Eure-et-Loir;Magny 28225;E1.2667;N48.3500;13;
3;France;Centre;Eure-et-Loir;Maillebois 28226;E1.1500;N48.6333;13;
3;France;Centre;Eure-et-Loir;Maintenon 28227;E1.5833;N48.5833;13;
3;France;Centre;Eure-et-Loir;Mainterne 28228=28120;E1.1500;N48.6667;13;
3;France;Centre;Eure-et-Loir;Mainvilliers 28229;E1.4667;N48.4500;13;
3;France;Centre;Eure-et-Loir;Maisons 28230;E1.8500;N48.4000;13;
3;France;Centre;Eure-et-Loir;Manou 28232;E0.9833;N48.5167;13;
3;France;Centre;Eure-et-Loir;Marboué 28233;E1.3333;N48.1167;13;
3;France;Centre;Eure-et-Loir;Marchéville 28234;E1.2500;N48.3667;13;
3;France;Centre;Eure-et-Loir;Marchezais 28235;E1.5167;N48.7667;13;
3;France;Centre;Eure-et-Loir;Margon 28236;E0.8333;N48.3333;13;
3;France;Centre;Eure-et-Loir;Marolles-les-Buis 28237;E0.9333;N48.3667;13;
3;France;Centre;Eure-et-Loir;Marville-les-Bois 28238=28360;E1.3000;N48.6000;13;
3;France;Centre;Eure-et-Loir;Marville-Moutiers-Brûlé 28239;E1.3833;N48.6667;13;
3;France;Centre;Eure-et-Loir;Meaucé 28240;E1.0000;N48.4833;13;
3;France;Centre;Eure-et-Loir;Méréglise 28242;E1.1833;N48.2833;13;
3;France;Centre;Eure-et-Loir;Mérouville 28243;E1.9000;N48.3000;13;
3;France;Centre;Eure-et-Loir;Mervilliers 28244=28002;E1.8333;N48.1833;13;
3;France;Centre;Eure-et-Loir;Meslay-le-Grenet 28245;E1.3833;N48.3667;13;
3;France;Centre;Eure-et-Loir;Meslay-le-Vidame 28246;E1.4667;N48.2833;13;
3;France;Centre;Eure-et-Loir;Mévoisins 28249;E1.6000;N48.5500;13;
3;France;Centre;Eure-et-Loir;Mézières-au-Perche 28250;E1.4333;N48.7167;13;
3;France;Centre;Eure-et-Loir;Mézières-en-Drouais 28251;E1.4333;N48.7167;13;
3;France;Centre;Eure-et-Loir;Miermaigne 28252;E0.9833;N48.2500;13;
3;France;Centre;Eure-et-Loir;Mignières 28253;E1.4333;N48.3667;13;
3;France;Centre;Eure-et-Loir;Mittainvilliers 28254;E1.3167;N48.5000;13;
3;France;Centre;Eure-et-Loir;Moinville-la-Jeulin 28255;E1.7000;N48.3833;13;
3;France;Centre;Eure-et-Loir;Moléans 28256;E1.3833;N48.1167;13;
3;France;Centre;Eure-et-Loir;Mondonville-Saint-Jean 28257;E1.8333;N48.3667;13;
3;France;Centre;Eure-et-Loir;Montainville 28258;E1.5500;N48.2667;13;
3;France;Centre;Eure-et-Loir;Montboissier 28259;E1.4000;N48.2167;13;
3;France;Centre;Eure-et-Loir;Montharville 28260;E1.3333;N48.1833;13;
3;France;Centre;Eure-et-Loir;Montigny-le-Chartif 28261;E1.1667;N48.2833;13;
3;France;Centre;Eure-et-Loir;Montigny-le-Gannelon 28262;E1.2333;N48.0167;13;
3;France;Centre;Eure-et-Loir;Montigny-sur-Avre 28263;E1.0167;N48.7333;13;
3;France;Centre;Eure-et-Loir;Montireau 28264;E1.0333;N48.4000;13;
3;France;Centre;Eure-et-Loir;Montlandon 28265;E1.0167;N48.3833;13;
3;France;Centre;Eure-et-Loir;Montlouet 28266=28168;E1.7167;N48.5167;13;
3;France;Centre;Eure-et-Loir;Montreuil 28267;E1.3667;N48.7667;13;
3;France;Centre;Eure-et-Loir;Morainville 28268;E1.8333;N48.3833;13;
3;France;Centre;Eure-et-Loir;Morancez 28269;E1.5000;N48.4000;13;
3;France;Centre;Eure-et-Loir;Moriers 28270;E1.4333;N48.2167;13;
3;France;Centre;Eure-et-Loir;Morvilliers 28271;E0.9333;N48.6500;13;
3;France;Centre;Eure-et-Loir;Mottereau 28272;E1.1833;N48.2500;13;
3;France;Centre;Eure-et-Loir;Moulhard 28273;E1.0500;N48.2000;13;
3;France;Centre;Eure-et-Loir;Moutiers 28274;E1.7833;N48.3000;13;
3;France;Centre;Eure-et-Loir;Néron 28275;E1.5000;N48.6000;13;
3;France;Centre;Eure-et-Loir;Neuvy-en-Beauce 28276;E1.8833;N48.2667;13;
3;France;Centre;Eure-et-Loir;Neuvy-en-Dunois 28277;E1.5333;N48.2000;13;
3;France;Centre;Eure-et-Loir;Nogent-le-Phaye 28278;E1.5833;N48.4333;13;
3;France;Centre;Eure-et-Loir;Nogent-le-Roi 28279;E1.5333;N48.6500;13;
3;France;Centre;Eure-et-Loir;Nogent-le-Rotrou 28280;E0.8333;N48.3167;13;
3;France;Centre;Eure-et-Loir;Nogent-sur-Eure 28281;E1.3667;N48.3833;13;
3;France;Centre;Eure-et-Loir;Nonvilliers-Grandhoux 28282;E1.1833;N48.3500;13;
3;France;Centre;Eure-et-Loir;Nottonville 28283;E1.5000;N48.1167;13;
3;France;Centre;Eure-et-Loir;Oinville-Saint-Liphard 28284;E1.9167;N48.2333;13;
3;France;Centre;Eure-et-Loir;Oinville-sous-Auneau 28285;E1.7333;N48.4667;13;
3;France;Centre;Eure-et-Loir;Ollé 28286;E1.3000;N48.3833;13;
3;France;Centre;Eure-et-Loir;Orgères-en-Beauce 28287;E1.7000;N48.1500;13;
3;France;Centre;Eure-et-Loir;Orlu 28288;E1.9167;N48.3667;13;
3;France;Centre;Eure-et-Loir;Ormoy 28289;E1.4667;N48.6167;13;
3;France;Centre;Eure-et-Loir;Orrouer 28290;E1.2833;N48.4167;13;
3;France;Centre;Eure-et-Loir;Ouarville 28291;E1.7667;N48.3500;13;
3;France;Centre;Eure-et-Loir;Ouerre 28292;E1.4667;N48.7000;13;
3;France;Centre;Eure-et-Loir;Oulins 28293;E1.4667;N48.8667;13;
3;France;Centre;Eure-et-Loir;Oysonville 28294;E1.9500;N48.4000;13;
3;France;Centre;Eure-et-Loir;Ozoir-le-Breuil 28295;E1.4833;N48.0167;13;
3;France;Centre;Eure-et-Loir;Péronville 28296;E1.5833;N48.0500;13;
3;France;Centre;Eure-et-Loir;Pézy 28297;E1.5833;N48.3167;13;
3;France;Centre;Eure-et-Loir;Pierres 28298;E1.5500;N48.6000;13;
3;France;Centre;Eure-et-Loir;Poinville 28300;E1.9000;N48.1833;13;
3;France;Centre;Eure-et-Loir;Poisvilliers 28301;E1.4667;N48.5000;13;
3;France;Centre;Eure-et-Loir;Pontgouin 28302;E1.1667;N48.4833;13;
3;France;Centre;Eure-et-Loir;Poupry 28303;E1.8333;N48.1000;13;
3;France;Centre;Eure-et-Loir;Prasville 28304;E1.7167;N48.2833;13;
3;France;Centre;Eure-et-Loir;Pré-Saint-Évroult 28305;E1.4667;N48.1833;13;
3;France;Centre;Eure-et-Loir;Pré-Saint-Martin 28306;E1.4667;N48.2167;13;
3;France;Centre;Eure-et-Loir;Prouais 28307=28056;E1.5333;N48.7167;13;
3;France;Centre;Eure-et-Loir;Prudemanche 28308;E1.1333;N48.7167;13;
3;France;Centre;Eure-et-Loir;Prunay-le-Gillon 28309;E1.6333;N48.3667;13;
3;France;Centre;Eure-et-Loir;Puiseux 28312;E1.3667;N48.6333;13;
3;France;Centre;Eure-et-Loir;Réclainville 28313;E1.7333;N48.3333;13;
3;France;Centre;Eure-et-Loir;Revercourt 28315;E1.0833;N48.7167;13;
3;France;Centre;Eure-et-Loir;Rohaire 28316;E0.8500;N48.6667;13;
3;France;Centre;Eure-et-Loir;Roinville 28317;E1.7500;N48.4500;13;
3;France;Centre;Eure-et-Loir;Romilly-sur-Aigre 28318;E1.2833;N47.9833;13;
3;France;Centre;Eure-et-Loir;Rouvray-Saint-Denis 28319;E1.9333;N48.2667;13;
3;France;Centre;Eure-et-Loir;Rouvray-Saint-Florentin 28320;E1.5667;N48.2500;13;
3;France;Centre;Eure-et-Loir;Rouvres 28321;E1.4833;N48.8333;13;
3;France;Centre;Eure-et-Loir;Rueil-la-Gadelière 28322;E0.9667;N48.7167;13;
3;France;Centre;Eure-et-Loir;Saint-Ange-et-Torçay 28323;E1.2167;N48.6500;13;
3;France;Centre;Eure-et-Loir;Saint-Arnoult-des-Bois 28324;E1.2667;N48.4833;13;
3;France;Centre;Eure-et-Loir;Saint-Aubin-des-Bois 28325;E1.3667;N48.4667;13;
3;France;Centre;Eure-et-Loir;Saint-Avit-les-Guespières 28326;E1.2667;N48.2667;13;
3;France;Centre;Eure-et-Loir;Saint-Bomer 28327;E0.8500;N48.2000;13;
3;France;Centre;Eure-et-Loir;Saint-Chéron-des-Champs 28328=28393;E1.4500;N48.5667;13;
3;France;Centre;Eure-et-Loir;Saint-Christophe 28329;E1.3667;N48.1333;13;
3;France;Centre;Eure-et-Loir;Saint-Cloud-en-Dunois 28330;E1.4667;N48.0333;13;
3;France;Centre;Eure-et-Loir;Saint-Denis-d'Authou 28331;E0.9833;N48.3500;13;
3;France;Centre;Eure-et-Loir;Saint-Denis-des-Puits 28333;E1.1833;N48.4000;13;
3;France;Centre;Eure-et-Loir;Saint-Denis-les-Ponts 28334;E1.3000;N48.0667;13;
3;France;Centre;Eure-et-Loir;Saint-Éliph 28335;E1.0167;N48.4500;13;
3;France;Centre;Eure-et-Loir;Saint-Éman 28336;E1.2167;N48.3167;13;
3;France;Centre;Eure-et-Loir;Saint-Georges-sur-Eure 28337;E1.3667;N48.4167;13;
3;France;Centre;Eure-et-Loir;Saint-Germain-la-Gâtine 28338=28034;E1.4500;N48.5333;13;
3;France;Centre;Eure-et-Loir;Saint-Germain-le-Gaillard 28339;E1.2667;N48.4167;13;
3;France;Centre;Eure-et-Loir;Saint-Hilaire-sur-Yerre 28340;E1.2500;N48.0333;13;
3;France;Centre;Eure-et-Loir;Saint-Jean-de-Rebervilliers 28341;E1.2500;N48.6167;13;
3;France;Centre;Eure-et-Loir;Saint-Jean-Pierre-Fixte 28342;E0.8333;N48.2833;13;
3;France;Centre;Eure-et-Loir;Saint-Laurent-la-Gâtine 28343;E1.5500;N48.7000;13;
3;France;Centre;Eure-et-Loir;Saint-Léger-des-Aubées 28344;E1.7333;N48.4167;13;
3;France;Centre;Eure-et-Loir;Saint-Loup 28345=28048;E1.4167;N48.3167;13;
3;France;Centre;Eure-et-Loir;Saint-Lubin-de-Cravant 28346;E1.1000;N48.7167;13;
3;France;Centre;Eure-et-Loir;Saint-Lubin-de-la-Haye 28347;E1.5667;N48.8167;13;
3;France;Centre;Eure-et-Loir;Saint-Lubin-des-Joncherets 28348;E1.2167;N48.7667;13;
3;France;Centre;Eure-et-Loir;Saint-Lucien 28349;E1.6167;N48.6500;13;
3;France;Centre;Eure-et-Loir;Saint-Luperce 28350;E1.3167;N48.4333;13;
3;France;Centre;Eure-et-Loir;Saint-Maixme-Hauterive 28351;E1.1833;N48.5833;13;
3;France;Centre;Eure-et-Loir;Saint-Martin-de-Nigelles 28352;E1.6167;N48.6167;13;
3;France;Centre;Eure-et-Loir;Saint-Maur-sur-le-Loir 28353;E1.4167;N48.1500;13;
3;France;Centre;Eure-et-Loir;Saint-Maurice-Saint-Germain 28354;E1.0833;N48.5000;13;
3;France;Centre;Eure-et-Loir;Saint-Ouen-Marchefroy 28355;E1.5333;N48.8500;13;
3;France;Centre;Eure-et-Loir;Saint-Pellerin 28356;E1.1500;N48.0667;13;
3;France;Centre;Eure-et-Loir;Saint-Piat 28357;E1.5833;N48.5500;13;
3;France;Centre;Eure-et-Loir;Saint-Prest 28358;E1.5333;N48.5000;13;
3;France;Centre;Eure-et-Loir;Saint-Rémy-sur-Avre 28359;E1.2500;N48.7667;13;
3;France;Centre;Eure-et-Loir;Saint-Sauveur-Marville 28360;E1.2667;N48.5833;13;
3;France;Centre;Eure-et-Loir;Saint-Symphorien-le-Château 28361;E1.7500;N48.5167;13;
3;France;Centre;Eure-et-Loir;Saint-Victor-de-Buthon 28362;E0.9667;N48.4000;13;
3;France;Centre;Eure-et-Loir;Sainte-Gemme-Moronval 28332;E1.4000;N48.7333;13;
3;France;Centre;Eure-et-Loir;Sainville 28363;E1.8833;N48.4167;13;
3;France;Centre;Eure-et-Loir;Sancheville 28364;E1.5667;N48.1833;13;
3;France;Centre;Eure-et-Loir;Sandarville 28365;E1.3500;N48.3500;13;
3;France;Centre;Eure-et-Loir;Santeuil 28366;E1.7333;N48.3833;13;
3;France;Centre;Eure-et-Loir;Santilly 28367;E1.8667;N48.1500;13;
3;France;Centre;Eure-et-Loir;Saulnières 28369;E1.2667;N48.6667;13;
3;France;Centre;Eure-et-Loir;Saumeray 28370;E1.3167;N48.2500;13;
3;France;Centre;Eure-et-Loir;Saussay 28371;E1.4167;N48.8500;13;
3;France;Centre;Eure-et-Loir;Senantes 28372;E1.5667;N48.6667;13;
3;France;Centre;Eure-et-Loir;Senonches 28373;E1.0333;N48.5500;13;
3;France;Centre;Eure-et-Loir;Serazereux 28374;E1.4333;N48.6000;13;
3;France;Centre;Eure-et-Loir;Serville 28375;E1.4833;N48.7667;13;
3;France;Centre;Eure-et-Loir;Soizé 28376;E0.8833;N48.1667;13;
3;France;Centre;Eure-et-Loir;Sorel-Moussel 28377;E1.3667;N48.8333;13;
3;France;Centre;Eure-et-Loir;Souancé-au-Perche 28378;E0.8667;N48.2667;13;
3;France;Centre;Eure-et-Loir;Soulaires 28379;E1.5833;N48.5167;13;
3;France;Centre;Eure-et-Loir;Sours 28380;E1.6000;N48.4167;13;
3;France;Centre;Eure-et-Loir;Tardais 28381=28373;E1.0000;N48.5833;13;
3;France;Centre;Eure-et-Loir;Terminiers 28382;E1.7500;N48.0833;13;
3;France;Centre;Eure-et-Loir;Theuville 28383;E1.6000;N48.3333;13;
3;France;Centre;Eure-et-Loir;Theuvy-Achères 28384=28393;E1.3333;N48.5667;13;
3;France;Centre;Eure-et-Loir;Thimert-Gâtelles 28386;E1.2500;N48.5667;13;
3;France;Centre;Eure-et-Loir;Thiron Gardais 28387;E0.9833;N48.3167;13;
3;France;Centre;Eure-et-Loir;Thivars 28388;E1.4667;N48.3833;13;
3;France;Centre;Eure-et-Loir;Thiville 28389;E1.3833;N48.0167;13;
3;France;Centre;Eure-et-Loir;Tillay-le-Péneux 28390;E1.7667;N48.1667;13;
3;France;Centre;Eure-et-Loir;Toury 28391;E1.9333;N48.1833;13;
3;France;Centre;Eure-et-Loir;Trancrainville 28392;E1.8667;N48.2333;13;
3;France;Centre;Eure-et-Loir;Tremblay-les-Villages 28393;E1.3667;N48.6000;13;
3;France;Centre;Eure-et-Loir;Tréon 28394;E1.3333;N48.6833;13;
3;France;Centre;Eure-et-Loir;Trizay-Coutretot-Saint-Serge 28395;E0.8667;N48.2833;13;
3;France;Centre;Eure-et-Loir;Trizay-lès-Bonneval 28396;E1.3333;N48.2000;13;
3;France;Centre;Eure-et-Loir;Umpeau 28397;E1.6833;N48.4667;13;
3;France;Centre;Eure-et-Loir;Unverre 28398;E1.1000;N48.2000;13;
3;France;Centre;Eure-et-Loir;Vacheresses-les-Basses 28399=28279;E1.5333;N48.6167;13;
3;France;Centre;Eure-et-Loir;Varize 28400;E1.5000;N48.0833;13;
3;France;Centre;Eure-et-Loir;Vaupillon 28401;E1.0000;N48.4667;13;
3;France;Centre;Eure-et-Loir;Ver-lès-Chartres 28403;E1.4667;N48.3833;13;
3;France;Centre;Eure-et-Loir;Vérigny 28402;E1.3167;N48.5167;13;
3;France;Centre;Eure-et-Loir;Vernouillet 28404;E1.3667;N48.7167;13;
3;France;Centre;Eure-et-Loir;Vert-en-Drouais 28405;E1.2914;N48.7613;13;
3;France;Centre;Eure-et-Loir;Viabon 28406;E1.7167;N48.2167;13;
3;France;Centre;Eure-et-Loir;Vichères 28407;E0.9167;N48.2667;13;
3;France;Centre;Eure-et-Loir;Vierville 28408;E1.9167;N48.3833;13;
3;France;Centre;Eure-et-Loir;Vieuvicq 28409;E1.2167;N48.2667;13;
3;France;Centre;Eure-et-Loir;Villampuy 28410;E1.5167;N48.0333;13;
3;France;Centre;Eure-et-Loir;Villars 28411;E1.5500;N48.2333;13;
3;France;Centre;Eure-et-Loir;Villeau 28412;E1.6000;N48.2333;13;
3;France;Centre;Eure-et-Loir;Villebon 28414;E1.2000;N48.3833;13;
3;France;Centre;Eure-et-Loir;Villemeux-sur-Eure 28415;E1.4667;N48.6667;13;
3;France;Centre;Eure-et-Loir;Villeneuve-Saint-Nicolas 28416;E1.5667;N48.2833;13;
3;France;Centre;Eure-et-Loir;Villiers-le-Morhier 28417;E1.5667;N48.6167;13;
3;France;Centre;Eure-et-Loir;Villiers-Saint-Orien 28418;E1.4833;N48.1333;13;
3;France;Centre;Eure-et-Loir;Vitray-en-Beauce 28419;E1.4167;N48.2833;13;
3;France;Centre;Eure-et-Loir;Vitray-sous-Brézolles 28420=28120;E1.1333;N48.6833;13;
3;France;Centre;Eure-et-Loir;Voise 28421;E1.7167;N48.4000;13;
3;France;Centre;Eure-et-Loir;Voves 28422;E1.6333;N48.2667;13;
3;France;Centre;Eure-et-Loir;Yermenonville 28423;E1.6167;N48.5500;13;
3;France;Centre;Eure-et-Loir;Yèvres 28424;E1.2000;N48.2000;13;
3;France;Centre;Eure-et-Loir;Ymeray 28425;E1.7000;N48.5167;13;
3;France;Centre;Eure-et-Loir;Ymonville 28426;E1.7496;N48.2625;13;
2;France;Centre;Indre;;E1.6122;N46.7681;9;
3;France;Centre;Indre;Aigurande 36001;E1.8333;N46.4333;13;
3;France;Centre;Indre;Aize 36002;E1.7000;N47.1000;13;
3;France;Centre;Indre;Ambrault 36003;E1.9667;N46.7833;13;
3;France;Centre;Indre;Anjouin 36004;E1.7833;N47.2000;13;
3;France;Centre;Indre;Ardentes 36005;E1.8333;N46.7500;13;
3;France;Centre;Indre;Argenton-sur-Creuse 36006;E1.5167;N46.5833;13;
3;France;Centre;Indre;Argy 36007;E1.4333;N46.9333;13;
3;France;Centre;Indre;Arpheuilles 36008;E1.2667;N46.9000;13;
3;France;Centre;Indre;Arthon 36009;E1.7000;N46.6833;13;
3;France;Centre;Indre;Azay-le-Ferron 36010;E1.0667;N46.8500;13;
3;France;Centre;Indre;Badecon-le-Pin 36158;E1.5833;N46.5167;13;
3;France;Centre;Indre;Bagneux 36011;E1.7500;N47.1833;13;
3;France;Centre;Indre;Baraize 36012;E1.5667;N46.4833;13;
3;France;Centre;Indre;Baudres 36013;E1.5667;N47.0500;13;
3;France;Centre;Indre;Bazaiges 36014;E1.5333;N46.5000;13;
3;France;Centre;Indre;Beaulieu 36015;E1.3000;N46.3833;13;
3;France;Centre;Indre;Bélâbre 36016;E1.1667;N46.5500;13;
3;France;Centre;Indre;Bommiers 36019;E1.9833;N46.7833;13;
3;France;Centre;Indre;Bonneuil 36020;E1.2333;N46.3667;13;
3;France;Centre;Indre;Bouesse 36022;E1.6833;N46.6167;13;
3;France;Centre;Indre;Bouges-le-Château 36023;E1.6667;N47.0333;13;
3;France;Centre;Indre;Bretagne 36024;E1.7000;N47.0000;13;
3;France;Centre;Indre;Briantes 36025;E2.0167;N46.5500;13;
3;France;Centre;Indre;Brion 36026;E1.7333;N46.9500;13;
3;France;Centre;Indre;Brives 36027;E1.9500;N46.8500;13;
3;France;Centre;Indre;Buxeuil 36029;E1.6833;N47.1333;13;
3;France;Centre;Indre;Buxières-d'Aillac 36030;E1.7500;N46.6333;13;
3;France;Centre;Indre;Buzançais 36031;E1.4167;N46.8833;13;
3;France;Centre;Indre;Ceaulmont 36032;E1.5833;N46.5167;13;
3;France;Centre;Indre;Celon 36033;E1.5000;N46.5167;13;
3;France;Centre;Indre;Chabris 36034;E1.6500;N47.2500;13;
3;France;Centre;Indre;Chaillac 36035;E1.3000;N46.4333;13;
3;France;Centre;Indre;Chalais 36036;E1.2000;N46.5333;13;
3;France;Centre;Indre;Champillet 36038;E2.1167;N46.5500;13;
3;France;Centre;Indre;Chantôme 36039=36070;E1.5500;N46.4167;13;
3;France;Centre;Indre;Chasseneuil 36042;E1.4833;N46.6333;13;
3;France;Centre;Indre;Chassignolles 36043;E1.9333;N46.5333;13;
3;France;Centre;Indre;Châteauroux 36044;E1.7000;N46.8167;13;
3;France;Centre;Indre;Châtillon-sur-Indre 36045;E1.1667;N46.9833;13;
3;France;Centre;Indre;Chavin 36048;E1.6167;N46.5667;13;
3;France;Centre;Indre;Chazelet 36049;E1.4500;N46.5167;13;
3;France;Centre;Indre;Chezelles 36050;E1.5667;N46.8833;13;
3;France;Centre;Indre;Chitray 36051;E1.3667;N46.6167;13;
3;France;Centre;Indre;Chouday 36052;E2.0667;N46.9167;13;
3;France;Centre;Indre;Ciron 36053;E1.2500;N46.6167;13;
3;France;Centre;Indre;Cléré-du-Bois 36054;E1.1000;N46.9167;13;
3;France;Centre;Indre;Clion 36055;E1.2333;N46.9333;13;
3;France;Centre;Indre;Cluis 36056;E1.7500;N46.5500;13;
3;France;Centre;Indre;Coings 36057;E1.7167;N46.8833;13;
3;France;Centre;Indre;Concremiers 36058;E1.0167;N46.6000;13;
3;France;Centre;Indre;Condé 36059;E1.9833;N46.8667;13;
3;France;Centre;Indre;Crevant 36060;E2.5167;N46.3667;13;
3;France;Centre;Indre;Crozon-sur-Vauvre 36061;E1.8667;N46.4833;13;
3;France;Centre;Indre;Cuzion 36062;E1.6000;N46.4833;13;
3;France;Centre;Indre;Déols 36063;E1.7000;N46.8333;13;
3;France;Centre;Indre;Diors 36064;E1.8167;N46.8167;13;
3;France;Centre;Indre;Diou 36065;E2.0500;N47.0500;13;
3;France;Centre;Indre;Douadic 36066;E1.1167;N46.7000;13;
3;France;Centre;Indre;Dun-le-Poëlier 36068;E1.7500;N47.2000;13;
3;France;Centre;Indre;Dunet 36067;E1.3000;N46.4667;13;
3;France;Centre;Indre;Écueillé 36069;E1.3500;N47.0833;13;
3;France;Centre;Indre;Éguzon-Chantôme 36070;E1.5833;N46.4333;13;
3;France;Centre;Indre;Étrechet 36071;E1.7667;N46.7667;13;
3;France;Centre;Indre;Faverolles 36072;E1.4000;N47.1667;13;
3;France;Centre;Indre;Feusines 36073;E2.1000;N46.5167;13;
3;France;Centre;Indre;Fléré-la-Rivière 36074;E1.1000;N47.0167;13;
3;France;Centre;Indre;Fontenay 36075;E1.7333;N47.0500;13;
3;France;Centre;Indre;Fontgombault 36076;E0.9833;N46.6833;13;
3;France;Centre;Indre;Fontguenand 36077;E1.5333;N47.2167;13;
3;France;Centre;Indre;Fougerolles 36078;E1.8667;N46.5667;13;
3;France;Centre;Indre;Francillon 36079;E1.5500;N46.9833;13;
3;France;Centre;Indre;Frédille 36080;E1.4667;N47.0000;13;
3;France;Centre;Indre;Gargilesse-Dampierre 36081;E1.6000;N46.5167;13;
3;France;Centre;Indre;Gehée 36082;E1.5000;N47.0333;13;
3;France;Centre;Indre;Giroux 36083;E1.9000;N47.0667;13;
3;France;Centre;Indre;Gournay 36084;E1.7333;N46.5833;13;
3;France;Centre;Indre;Guilly 36085;E1.7167;N47.0667;13;
3;France;Centre;Indre;Heugnes 36086;E1.4000;N47.0000;13;
3;France;Centre;Indre;Ingrandes 36087;E0.9667;N46.6000;13;
3;France;Centre;Indre;Issoudun 36088;E2.0000;N46.9500;13;
3;France;Centre;Indre;Jeu-les-Bois 36089;E1.8000;N46.6667;13;
3;France;Centre;Indre;Jeu-Maloches 36090;E1.4500;N47.0333;13;
3;France;Centre;Indre;La Berthenoux 36017;E2.0667;N46.6500;13;
3;France;Centre;Indre;La Buxerette 36028;E1.8000;N46.5000;13;
3;France;Centre;Indre;La Champenoise 36037;E1.8000;N46.9333;13;
3;France;Centre;Indre;La Chapelle-Orthemale 36040;E1.4500;N46.8333;13;
3;France;Centre;Indre;La Chapelle-Saint-Laurian 36041;E1.7833;N47.0500;13;
3;France;Centre;Indre;La Châtre 36046;E1.9833;N46.5833;13;
3;France;Centre;Indre;La Châtre-Langlin 36047;E1.3833;N46.4167;13;
3;France;Centre;Indre;La Motte-Feuilly 36132;E2.0833;N46.5333;13;
3;France;Centre;Indre;La Pérouille 36157;E1.5167;N46.6833;13;
3;France;Centre;Indre;La Vernelle 36233;E1.5333;N47.2333;13;
3;France;Centre;Indre;Lacs 36091;E2.0167;N46.5833;13;
3;France;Centre;Indre;Langé 36092;E1.5167;N47.0667;13;
3;France;Centre;Indre;Le Blanc 36018;E1.0667;N46.6333;13;
3;France;Centre;Indre;Le Magny 36109;E1.9667;N46.5500;13;
3;France;Centre;Indre;Le Menoux 36117;E1.5667;N46.5500;13;
3;France;Centre;Indre;Le Pêchereau 36154;E1.5500;N46.5833;13;
3;France;Centre;Indre;Le Poinçonnet 36159;E1.7167;N46.7667;13;
3;France;Centre;Indre;Le Tranger 36225;E1.2333;N46.9500;13;
3;France;Centre;Indre;Les Bordes 36021;E1.9667;N46.9667;13;
3;France;Centre;Indre;Levroux 36093;E1.6167;N46.9833;13;
3;France;Centre;Indre;Lignac 36094;E1.2167;N46.4667;13;
3;France;Centre;Indre;Lignerolles 36095;E2.1333;N46.4833;13;
3;France;Centre;Indre;Lingé 36096;E1.0833;N46.7500;13;
3;France;Centre;Indre;Liniez 36097;E1.7500;N47.0167;13;
3;France;Centre;Indre;Lizeray 36098;E1.9000;N46.9667;13;
3;France;Centre;Indre;Lourdoueix-Saint-Michel 36099;E1.7333;N46.4333;13;
3;France;Centre;Indre;Lourouer-Saint-Laurent 36100;E2.0167;N46.6333;13;
3;France;Centre;Indre;Luant 36101;E1.5500;N46.7333;13;
3;France;Centre;Indre;Luçay-le-Libre 36102;E1.9000;N47.0833;13;
3;France;Centre;Indre;Luçay-le-Mâle 36103;E1.4333;N47.1167;13;
3;France;Centre;Indre;Lurais 36104;E0.9500;N46.7000;13;
3;France;Centre;Indre;Lureuil 36105;E1.0333;N46.7500;13;
3;France;Centre;Indre;Luzeret 36106;E1.4000;N46.5500;13;
3;France;Centre;Indre;Lye 36107;E1.4833;N47.2167;13;
3;France;Centre;Indre;Lys-Saint-Georges 36108;E1.8200;N46.6400;13;
3;France;Centre;Indre;Maillet 36110;E1.6833;N46.5667;13;
3;France;Centre;Indre;Malicornay 36111;E1.6500;N46.5833;13;
3;France;Centre;Indre;Mâron 36112;E1.8667;N46.8000;13;
3;France;Centre;Indre;Martizay 36113;E1.0333;N46.8000;13;
3;France;Centre;Indre;Mauvières 36114;E1.0833;N46.5667;13;
3;France;Centre;Indre;Menetou-sur-Nahon 36115;E1.6500;N47.2167;13;
3;France;Centre;Indre;Ménétréols-sous-Vatan 36116;E1.8500;N47.0167;13;
3;France;Centre;Indre;Méobecq 36118;E1.4167;N46.7333;13;
3;France;Centre;Indre;Mérigny 36119;E0.9167;N46.6167;13;
3;France;Centre;Indre;Mers-sur-Indre 36120;E1.8833;N46.6500;13;
3;France;Centre;Indre;Meunet-Planches 36121;E1.9500;N46.8167;13;
3;France;Centre;Indre;Meunet-sur-Vatan 36122;E1.8500;N47.0833;13;
3;France;Centre;Indre;Mézières-en-Brenne 36123;E1.2167;N46.8167;13;
3;France;Centre;Indre;Migné 36124;E1.3167;N46.7167;13;
3;France;Centre;Indre;Migny 36125;E2.0667;N47.0167;13;
3;France;Centre;Indre;Montchevrier 36126;E1.7500;N46.4833;13;
3;France;Centre;Indre;Montgivray 36127;E1.9833;N46.6000;13;
3;France;Centre;Indre;Montierchaume 36128;E1.7667;N46.8667;13;
3;France;Centre;Indre;Montipouret 36129;E1.9000;N46.6500;13;
3;France;Centre;Indre;Montlevicq 36130;E2.0667;N46.5667;13;
3;France;Centre;Indre;Mosnay 36131;E1.6000;N46.6167;13;
3;France;Centre;Indre;Mouhers 36133;E1.7833;N46.5667;13;
3;France;Centre;Indre;Mouhet 36134;E1.4333;N46.3833;13;
3;France;Centre;Indre;Moulins-sur-Céphons 36135;E1.5500;N47.0167;13;
3;France;Centre;Indre;Murs 36136;E1.1500;N46.9000;13;
3;France;Centre;Indre;Néons-sur-Creuse 36137;E0.9167;N46.7333;13;
3;France;Centre;Indre;Néret 36138;E2.1500;N46.5667;13;
3;France;Centre;Indre;Neuillay-les-Bois 36139;E1.4833;N46.7667;13;
3;France;Centre;Indre;Neuvy-Pailloux 36140;E1.8500;N46.8833;13;
3;France;Centre;Indre;Neuvy-Saint-Sépulchre 36141;E1.8167;N46.6000;13;
3;France;Centre;Indre;Niherne 36142;E1.5667;N46.8333;13;
3;France;Centre;Indre;Nohant-Vic 36143;E1.9500;N46.6333;13;
3;France;Centre;Indre;Nuret-le-Ferron 36144;E1.4333;N46.6667;13;
3;France;Centre;Indre;Obterre 36145;E1.0333;N46.9000;13;
3;France;Centre;Indre;Orsennes 36146;E1.6833;N46.4833;13;
3;France;Centre;Indre;Orville 36147;E1.7833;N47.1500;13;
3;France;Centre;Indre;Oulches 36148;E1.3000;N46.6167;13;
3;France;Centre;Indre;Palluau-sur-Indre 36149;E1.3167;N46.9500;13;
3;France;Centre;Indre;Parnac 36150;E1.4500;N46.4500;13;
3;France;Centre;Indre;Parpeçay 36151;E1.6500;N47.2000;13;
3;France;Centre;Indre;Paudy 36152;E1.9167;N47.0333;13;
3;France;Centre;Indre;Paulnay 36153;E1.1500;N46.8500;13;
3;France;Centre;Indre;Pellevoisin 36155;E1.4167;N46.9833;13;
3;France;Centre;Indre;Pérassay 36156;E2.1500;N46.4667;13;
3;France;Centre;Indre;Pommiers 36160;E1.6500;N46.5167;13;
3;France;Centre;Indre;Pont-Chrétien-Chabenet 36161;E1.4667;N46.6167;13;
3;France;Centre;Indre;Poulaines 36162;E1.6667;N47.1500;13;
3;France;Centre;Indre;Pouligny-Notre-Dame 36163;E2.0167;N46.4833;13;
3;France;Centre;Indre;Pouligny-Saint-Martin 36164;E2.0000;N46.5167;13;
3;France;Centre;Indre;Pouligny-Saint-Pierre 36165;E1.0333;N46.6833;13;
3;France;Centre;Indre;Préaux 36166;E1.2833;N47.0167;13;
3;France;Centre;Indre;Preuilly-la-Ville 36167;E0.9667;N46.6833;13;
3;France;Centre;Indre;Prissac 36168;E1.3167;N46.5167;13;
3;France;Centre;Indre;Pruniers 36169;E2.0500;N46.7833;13;
3;France;Centre;Indre;Reboursin 36170;E1.8167;N47.1000;13;
3;France;Centre;Indre;Reuilly 36171;E2.0500;N47.0833;13;
3;France;Centre;Indre;Rivarennes 36172;E1.3833;N46.6167;13;
3;France;Centre;Indre;Rosnay 36173;E1.2167;N46.7000;13;
3;France;Centre;Indre;Roussines 36174;E1.3833;N46.4667;13;
3;France;Centre;Indre;Rouvres-les-Bois 36175;E1.6500;N47.0667;13;
3;France;Centre;Indre;Ruffec 36176;E1.1667;N46.6333;13;
3;France;Centre;Indre;Sacierges-Saint-Martin 36177;E1.3667;N46.5000;13;
3;France;Centre;Indre;Saint-Aigny 36178;E1.0167;N46.6333;13;
3;France;Centre;Indre;Saint-Aoustrille 36179;E1.9333;N46.9333;13;
3;France;Centre;Indre;Saint-Août 36180;E1.9667;N46.7167;13;
3;France;Centre;Indre;Saint-Aubin 36181;E2.0333;N46.8500;13;
3;France;Centre;Indre;Saint-Benoît-du-Sault 36182;E1.4000;N46.4500;13;
3;France;Centre;Indre;Saint-Chartier 36184;E1.9667;N46.6500;13;
3;France;Centre;Indre;Saint-Christophe-en-Bazelle 36185;E1.7167;N47.1833;13;
3;France;Centre;Indre;Saint-Christophe-en-Boucherie 36186;E2.1167;N46.6667;13;
3;France;Centre;Indre;Saint-Civran 36187;E1.4000;N46.5000;13;
3;France;Centre;Indre;Saint-Cyran-du-Jambot 36188;E1.1333;N47.0167;13;
3;France;Centre;Indre;Saint-Denis-de-Jouhet 36189;E1.8667;N46.5333;13;
3;France;Centre;Indre;Saint-Florentin 36191;E1.7833;N47.0667;13;
3;France;Centre;Indre;Saint-Gaultier 36192;E1.4167;N46.6333;13;
3;France;Centre;Indre;Saint-Genou 36194;E1.3333;N46.9333;13;
3;France;Centre;Indre;Saint-Georges-sur-Arnon 36195;E2.1000;N47.0000;13;
3;France;Centre;Indre;Saint-Gilles 36196;E1.4667;N46.4833;13;
3;France;Centre;Indre;Saint-Hilaire-sur-Benaize 36197;E1.0833;N46.5667;13;
3;France;Centre;Indre;Saint-Lactencin 36198;E1.4833;N46.8833;13;
3;France;Centre;Indre;Saint-Marcel 36200;E1.5167;N46.6000;13;
3;France;Centre;Indre;Saint-Martin-de-Lamps 36201;E1.5167;N46.9833;13;
3;France;Centre;Indre;Saint-Maur 36202;E1.6333;N46.8000;13;
3;France;Centre;Indre;Saint-Médard 36203;E1.2500;N47.0000;13;
3;France;Centre;Indre;Saint-Michel-en-Brenne 36204;E1.1667;N46.8000;13;
3;France;Centre;Indre;Saint-Pierre-de-Jards 36205;E1.9833;N47.1000;13;
3;France;Centre;Indre;Saint-Pierre-de-Lamps 36206;E1.5000;N46.9667;13;
3;France;Centre;Indre;Saint-Plantaire 36207;E1.6750;N46.4583;13;
3;France;Centre;Indre;Saint-Valentin 36209;E1.8667;N46.9500;13;
3;France;Centre;Indre;Sainte-Cécile 36183;E1.6667;N47.1833;13;
3;France;Centre;Indre;Sainte-Fauste 36190;E1.8667;N46.8500;13;
3;France;Centre;Indre;Sainte-Gemme 36193;E1.3333;N46.8500;13;
3;France;Centre;Indre;Sainte-Lizaigne 36199;E2.0167;N47.0000;13;
3;France;Centre;Indre;Sainte-Sévère-sur-Indre 36208;E2.0667;N46.4833;13;
3;France;Centre;Indre;Sarzay 36210;E1.9000;N46.6000;13;
3;France;Centre;Indre;Sassierges-Saint-Germain 36211;E1.9000;N46.7667;13;
3;France;Centre;Indre;Saulnay 36212;E1.2667;N46.8667;13;
3;France;Centre;Indre;Sauzelles 36213;E1.0000;N46.6500;13;
3;France;Centre;Indre;Sazeray 36214;E2.0500;N46.4333;13;
3;France;Centre;Indre;Ségry 36215;E2.0833;N46.8833;13;
3;France;Centre;Indre;Selles-sur-Nahon 36216;E1.4500;N47.0000;13;
3;France;Centre;Indre;Sembleçay 36217;E1.6667;N47.2167;13;
3;France;Centre;Indre;Sougé 36218;E1.4833;N46.9500;13;
3;France;Centre;Indre;Tendu 36219;E1.5500;N46.6333;13;
3;France;Centre;Indre;Thenay 36220;E1.4333;N46.6333;13;
3;France;Centre;Indre;Thevet-Saint-Julien 36221;E2.0667;N46.6500;13;
3;France;Centre;Indre;Thizay 36222;E1.9000;N46.9000;13;
3;France;Centre;Indre;Tilly 36223;E1.2000;N46.4167;13;
3;France;Centre;Indre;Tournon-Saint-Martin 36224;E0.9500;N46.7333;13;
3;France;Centre;Indre;Tranzault 36226;E1.8500;N46.6167;13;
3;France;Centre;Indre;Urciers 36227;E2.1333;N46.5333;13;
3;France;Centre;Indre;Valençay 36228;E1.5667;N47.1500;13;
3;France;Centre;Indre;Varennes-sur-Fouzon 36229;E1.6000;N47.2167;13;
3;France;Centre;Indre;Vatan 36230;E1.8167;N47.0667;13;
3;France;Centre;Indre;Velles 36231;E1.6500;N46.6833;13;
3;France;Centre;Indre;Vendoeuvres 36232;E1.3500;N46.8000;13;
3;France;Centre;Indre;Verneuil-sur-Igneraie 36234;E2.0167;N46.6500;13;
3;France;Centre;Indre;Veuil 36235;E1.5167;N47.1167;13;
3;France;Centre;Indre;Vicq-Exemplet 36236;E2.1333;N46.6333;13;
3;France;Centre;Indre;Vicq-sur-Nahon 36237;E1.5333;N47.1000;13;
3;France;Centre;Indre;Vigoulant 36238;E2.0667;N46.4333;13;
3;France;Centre;Indre;Vigoux 36239;E1.4833;N46.5167;13;
3;France;Centre;Indre;Vijon 36240;E2.1167;N46.4333;13;
3;France;Centre;Indre;Villedieu-sur-Indre 36241;E1.5333;N46.8500;13;
3;France;Centre;Indre;Villegongis 36242;E1.5833;N46.9000;13;
3;France;Centre;Indre;Villegouin 36243;E1.3833;N46.9667;13;
3;France;Centre;Indre;Villentrois 36244;E1.4667;N47.1833;13;
3;France;Centre;Indre;Villers-les-Ormes 36245;E1.6333;N46.8667;13;
3;France;Centre;Indre;Villiers 36246;E1.1833;N46.8833;13;
3;France;Centre;Indre;Vineuil 36247;E1.6333;N46.9000;13;
3;France;Centre;Indre;Vouillon 36248;E1.9167;N46.8167;13;
2;France;Centre;Indre-et-Loire;;E0.6509;N47.3109;9;
3;France;Centre;Indre-et-Loire;Abilly 37001;E0.7200;N46.9300;13;
3;France;Centre;Indre-et-Loire;Ambillou 37002;E0.4500;N47.4500;13;
3;France;Centre;Indre-et-Loire;Amboise 37003;E0.9833;N47.4167;13;
3;France;Centre;Indre-et-Loire;Anché 37004;E0.3062;N47.1353;13;
3;France;Centre;Indre-et-Loire;Antogny le Tillac 37005;E0.5667;N46.9667;13;
3;France;Centre;Indre-et-Loire;Artannes-sur-Indre 37006;E0.6000;N47.2667;13;
3;France;Centre;Indre-et-Loire;Assay 37007;E0.2833;N47.0667;13;
3;France;Centre;Indre-et-Loire;Athée-sur-Cher 37008;E0.9167;N47.3167;13;
3;France;Centre;Indre-et-Loire;Autrèche 37009;E1.0000;N47.5333;13;
3;France;Centre;Indre-et-Loire;Auzouer-en-Touraine 37010;E0.9167;N47.5500;13;
3;France;Centre;Indre-et-Loire;Avoine 37011;E0.1833;N47.2000;13;
3;France;Centre;Indre-et-Loire;Avon-les-Roches 37012;E0.4500;N47.1500;13;
3;France;Centre;Indre-et-Loire;Avrillé-les-Ponceaux 37013;E0.2851;N47.3963;13;
3;France;Centre;Indre-et-Loire;Azay-le-Rideau 37014;E0.4667;N47.2667;13;
3;France;Centre;Indre-et-Loire;Azay-sur-Cher 37015;E0.8500;N47.3500;13;
3;France;Centre;Indre-et-Loire;Azay-sur-Indre 37016;E0.9500;N47.2000;13;
3;France;Centre;Indre-et-Loire;Balesmes 37017=37115;E0.6796;N46.9843;13;
3;France;Centre;Indre-et-Loire;Ballan-Miré 37018;E0.6167;N47.3333;13;
3;France;Centre;Indre-et-Loire;Barrou 37019;E0.7667;N46.8667;13;
3;France;Centre;Indre-et-Loire;Beaulieu-lès-Loches 37020;E1.0167;N47.1167;13;
3;France;Centre;Indre-et-Loire;Beaumont-en-Véron 37022;E0.1833;N47.2000;13;
3;France;Centre;Indre-et-Loire;Beaumont-la-Ronce 37021;E0.6667;N47.5667;13;
3;France;Centre;Indre-et-Loire;Beaumont-Village 37023;E1.2000;N47.1667;13;
3;France;Centre;Indre-et-Loire;Benais 37024;E0.2167;N47.2833;13;
3;France;Centre;Indre-et-Loire;Berthenay 37025;E0.5167;N47.3667;13;
3;France;Centre;Indre-et-Loire;Betz-le-Château 37026;E0.9167;N46.9833;13;
3;France;Centre;Indre-et-Loire;Bléré 37027;E1.0000;N47.3333;13;
3;France;Centre;Indre-et-Loire;Bossay-sur-Claise 37028;E0.9500;N46.8333;13;
3;France;Centre;Indre-et-Loire;Bossée 37029;E0.7333;N47.1000;13;
3;France;Centre;Indre-et-Loire;Bourgueil 37031;E0.1667;N47.2833;13;
3;France;Centre;Indre-et-Loire;Bournan 37032;E0.7333;N47.0667;13;
3;France;Centre;Indre-et-Loire;Boussay 37033;E0.8833;N46.8333;13;
3;France;Centre;Indre-et-Loire;Braslou 37034;E0.3833;N47.0000;13;
3;France;Centre;Indre-et-Loire;Braye-sous-Faye 37035;E0.3500;N47.0000;13;
3;France;Centre;Indre-et-Loire;Braye-sur-Maulne 37036;E0.2511;N47.5557;13;
3;France;Centre;Indre-et-Loire;Brèches 37037;E0.3833;N47.5667;13;
3;France;Centre;Indre-et-Loire;Bréhémont 37038;E0.3571;N47.2952;13;
3;France;Centre;Indre-et-Loire;Bridoré 37039;E1.0833;N47.0167;13;
3;France;Centre;Indre-et-Loire;Brizay 37040;E0.4000;N47.1000;13;
3;France;Centre;Indre-et-Loire;Bueil-en-Touraine 37041;E0.5500;N47.6333;13;
3;France;Centre;Indre-et-Loire;Candes-Saint-Martin 37042;E0.0740;N47.2121;13;
3;France;Centre;Indre-et-Loire;Cangey 37043;E1.0667;N47.4667;13;
3;France;Centre;Indre-et-Loire;Céré-la-Ronde 37046;E1.1874;N47.2605;13;
3;France;Centre;Indre-et-Loire;Cerelles 37047;E0.6833;N47.5000;13;
3;France;Centre;Indre-et-Loire;Chambon 37048;E0.8000;N46.8333;13;
3;France;Centre;Indre-et-Loire;Chambourg-sur-Indre 37049;E0.9667;N47.1833;13;
3;France;Centre;Indre-et-Loire;Chambray-lès-Tours 37050;E0.7129;N47.3396;13;
3;France;Centre;Indre-et-Loire;Champigny-sur-Veude 37051;E0.3167;N47.0667;13;
3;France;Centre;Indre-et-Loire;Chançay 37052;E0.8708;N47.4519;13;
3;France;Centre;Indre-et-Loire;Chanceaux-près-Loches 37053;E0.9333;N47.1500;13;
3;France;Centre;Indre-et-Loire;Chanceaux-sur-Choisille 37054;E0.7000;N47.4667;13;
3;France;Centre;Indre-et-Loire;Channay-sur-Lathan 37055;E0.2667;N47.4833;13;
3;France;Centre;Indre-et-Loire;Charentilly 37059;E0.6167;N47.4667;13;
3;France;Centre;Indre-et-Loire;Chargé 37060;E1.0333;N47.4333;13;
3;France;Centre;Indre-et-Loire;Charnizay 37061;E0.9833;N46.9167;13;
3;France;Centre;Indre-et-Loire;Château-la-Vallière 37062;E0.3205;N47.5490;13;
3;France;Centre;Indre-et-Loire;Château-Renault 37063;E0.9167;N47.5833;13;
3;France;Centre;Indre-et-Loire;Chaumussay 37064;E0.8500;N46.8667;13;
3;France;Centre;Indre-et-Loire;Chaveignes 37065;E0.3500;N47.0333;13;
3;France;Centre;Indre-et-Loire;Chédigny 37066;E0.9996;N47.2097;13;
3;France;Centre;Indre-et-Loire;Cheillé 37067;E0.4167;N47.2667;13;
3;France;Centre;Indre-et-Loire;Chemillé-sur-Dême 37068;E0.6500;N47.6500;13;
3;France;Centre;Indre-et-Loire;Chemillé-sur-Indrois 37069;E1.1667;N47.1500;13;
3;France;Centre;Indre-et-Loire;Chenonceaux 37070;E1.0667;N47.3333;13;
3;France;Centre;Indre-et-Loire;Chezelles 37071;E0.4333;N47.0500;13;
3;France;Centre;Indre-et-Loire;Chinon 37072;E0.2500;N47.1667;13;
3;France;Centre;Indre-et-Loire;Chisseaux 37073;E1.0833;N47.3333;13;
3;France;Centre;Indre-et-Loire;Chouzé-sur-Loire 37074;E0.1333;N47.2500;13;
3;France;Centre;Indre-et-Loire;Cigogné 37075;E0.9333;N47.2500;13;
3;France;Centre;Indre-et-Loire;Cinais 37076;E0.1667;N47.1500;13;
3;France;Centre;Indre-et-Loire;Cinq-Mars-la-Pile 37077;E0.4667;N47.3500;13;
3;France;Centre;Indre-et-Loire;Ciran 37078;E0.8667;N47.0667;13;
3;France;Centre;Indre-et-Loire;Civray-de-Touraine 37079;E1.0667;N47.3333;13;
3;France;Centre;Indre-et-Loire;Civray-sur-Esves 37080;E0.7167;N47.0333;13;
3;France;Centre;Indre-et-Loire;Cléré-les-Pins 37081;E0.3873;N47.4263;13;
3;France;Centre;Indre-et-Loire;Continvoir 37082;E0.2167;N47.3833;13;
3;France;Centre;Indre-et-Loire;Cormery 37083;E0.8500;N47.2667;13;
3;France;Centre;Indre-et-Loire;Couesmes 37084;E0.3500;N47.5667;13;
3;France;Centre;Indre-et-Loire;Courçay 37085;E0.8667;N47.2500;13;
3;France;Centre;Indre-et-Loire;Courcelles-de-Touraine 37086;E0.3000;N47.4833;13;
3;France;Centre;Indre-et-Loire;Courcoué 37087;E0.3833;N47.0333;13;
3;France;Centre;Indre-et-Loire;Couziers 37088;E0.0833;N47.1500;13;
3;France;Centre;Indre-et-Loire;Cravant-les-Côteaux 37089;E0.3500;N47.1500;13;
3;France;Centre;Indre-et-Loire;Crissay-sur-Manse 37090;E0.4863;N47.1488;13;
3;France;Centre;Indre-et-Loire;Crotelles 37092;E0.8333;N47.5500;13;
3;France;Centre;Indre-et-Loire;Crouzilles 37093;E0.4500;N47.1167;13;
3;France;Centre;Indre-et-Loire;Cussay 37094;E0.8000;N47.0167;13;
3;France;Centre;Indre-et-Loire;Dame-Marie-les-Bois 37095;E1.0333;N47.5333;13;
3;France;Centre;Indre-et-Loire;Descartes 37115;E0.6833;N46.9667;13;
3;France;Centre;Indre-et-Loire;Dierre 37096;E0.9500;N47.3500;13;
3;France;Centre;Indre-et-Loire;Dolus-le-Sec 37097;E0.9000;N47.1667;13;
3;France;Centre;Indre-et-Loire;Draché 37098;E0.6167;N47.0500;13;
3;France;Centre;Indre-et-Loire;Druye 37099;E0.5167;N47.3167;13;
3;France;Centre;Indre-et-Loire;Épeigné-les-Bois 37100;E1.1000;N47.3000;13;
3;France;Centre;Indre-et-Loire;Épeigné-sur-Dême 37101;E0.6167;N47.6667;13;
3;France;Centre;Indre-et-Loire;Esves-le-Moutier 37103;E0.9084;N47.0410;13;
3;France;Centre;Indre-et-Loire;Esvres 37104;E0.7833;N47.2833;13;
3;France;Centre;Indre-et-Loire;Faye-la-Vineuse 37105;E0.3333;N46.9500;13;
3;France;Centre;Indre-et-Loire;Ferrière-Larçon 37107;E0.8833;N46.9833;13;
3;France;Centre;Indre-et-Loire;Ferrière-sur-Beaulieu 37108;E1.0368;N47.1395;13;
3;France;Centre;Indre-et-Loire;Fondettes 37109;E0.6000;N47.4000;13;
3;France;Centre;Indre-et-Loire;Francueil 37110;E1.0833;N47.3167;13;
3;France;Centre;Indre-et-Loire;Genillé 37111;E1.1000;N47.1833;13;
3;France;Centre;Indre-et-Loire;Gizeux 37112;E0.2000;N47.4000;13;
3;France;Centre;Indre-et-Loire;Hommes 37117;E0.3000;N47.4333;13;
3;France;Centre;Indre-et-Loire;Huismes 37118;E0.2500;N47.2333;13;
3;France;Centre;Indre-et-Loire;Ingrandes-de-Touraine 37120;E0.2667;N47.2833;13;
3;France;Centre;Indre-et-Loire;Jaulnay 37121;E0.4167;N46.9500;13;
3;France;Centre;Indre-et-Loire;Joué-lès-Tours 37122;E0.6624;N47.3471;13;
3;France;Centre;Indre-et-Loire;L'Île-Bouchard 37119;E0.4167;N47.1167;13;
3;France;Centre;Indre-et-Loire;La Celle-Guenand 37044;E0.9000;N46.9333;13;
3;France;Centre;Indre-et-Loire;La Celle-Saint-Avant 37045;E0.6000;N47.0167;13;
3;France;Centre;Indre-et-Loire;La Chapelle-aux-Naux 37056;E0.4167;N47.3167;13;
3;France;Centre;Indre-et-Loire;La Chapelle-Blanche-Saint-Martin 37057;E0.7908;N47.0861;13;
3;France;Centre;Indre-et-Loire;La Chapelle-sur-Loire 37058;E0.2333;N47.2500;13;
3;France;Centre;Indre-et-Loire;La Croix-en-Touraine 37091;E0.9833;N47.3333;13;
3;France;Centre;Indre-et-Loire;La Ferrière 37106;E0.7333;N47.6167;13;
3;France;Centre;Indre-et-Loire;La Guerche 37114;E0.7333;N46.8833;13;
3;France;Centre;Indre-et-Loire;La Membrolle-sur-Choisille 37151;E0.6333;N47.4333;13;
3;France;Centre;Indre-et-Loire;La Riche 37195;E0.6500;N47.3833;13;
3;France;Centre;Indre-et-Loire;La Roche-Clermault 37202;E0.2000;N47.1500;13;
3;France;Centre;Indre-et-Loire;La Tour-Saint-Gelin 37260;E0.4034;N47.0508;13;
3;France;Centre;Indre-et-Loire;La Ville-aux-Dames 37273;E0.7632;N47.3977;13;
3;France;Centre;Indre-et-Loire;Langeais 37123;E0.4000;N47.3333;13;
3;France;Centre;Indre-et-Loire;Larçay 37124;E0.7833;N47.3667;13;
3;France;Centre;Indre-et-Loire;Le Boulay 37030;E0.8500;N47.6000;13;
3;France;Centre;Indre-et-Loire;Le Grand-Pressigny 37113;E0.8051;N46.9211;13;
3;France;Centre;Indre-et-Loire;Le Liège 37127;E1.1000;N47.2167;13;
3;France;Centre;Indre-et-Loire;Le Louroux 37136;E0.7833;N47.1667;13;
3;France;Centre;Indre-et-Loire;Le Petit-Pressigny 37184;E0.9167;N46.9167;13;
3;France;Centre;Indre-et-Loire;Lémeré 37125;E0.3333;N47.0833;13;
3;France;Centre;Indre-et-Loire;Lerné 37126;E0.1333;N47.1500;13;
3;France;Centre;Indre-et-Loire;Les Essards 37102;E0.3000;N47.3333;13;
3;France;Centre;Indre-et-Loire;Les Hermites 37116;E0.7500;N47.6667;13;
3;France;Centre;Indre-et-Loire;Lignières-de-Touraine 37128;E0.4167;N47.3000;13;
3;France;Centre;Indre-et-Loire;Ligré 37129;E0.2667;N47.1167;13;
3;France;Centre;Indre-et-Loire;Ligueil 37130;E0.8167;N47.0333;13;
3;France;Centre;Indre-et-Loire;Limeray 37131;E1.0333;N47.4667;13;
3;France;Centre;Indre-et-Loire;Loché-sur-Indrois 37133;E1.2207;N47.0923;13;
3;France;Centre;Indre-et-Loire;Loches 37132;E1.0000;N47.1333;13;
3;France;Centre;Indre-et-Loire;Louans 37134;E0.7500;N47.1833;13;
3;France;Centre;Indre-et-Loire;Louestault 37135;E0.6500;N47.6167;13;
3;France;Centre;Indre-et-Loire;Lublé 37137;E0.2500;N47.5167;13;
3;France;Centre;Indre-et-Loire;Lussault-sur-Loire 37138;E0.9167;N47.4000;13;
3;France;Centre;Indre-et-Loire;Luynes 37139;E0.5500;N47.3833;13;
3;France;Centre;Indre-et-Loire;Luzé 37140;E0.4530;N47.0242;13;
3;France;Centre;Indre-et-Loire;Luzillé 37141;E1.0610;N47.2636;13;
3;France;Centre;Indre-et-Loire;Maillé 37142;E0.5833;N47.0500;13;
3;France;Centre;Indre-et-Loire;Manthelan 37143;E0.7833;N47.1333;13;
3;France;Centre;Indre-et-Loire;Marçay 37144;E0.2167;N47.1000;13;
3;France;Centre;Indre-et-Loire;Marcé-sur-Esves 37145;E0.6500;N47.0167;13;
3;France;Centre;Indre-et-Loire;Marcilly-sur-Maulne 37146;E0.2500;N47.5500;13;
3;France;Centre;Indre-et-Loire;Marcilly-sur-Vienne 37147;E0.5333;N47.0333;13;
3;France;Centre;Indre-et-Loire;Marigny-Marmande 37148;E0.4833;N46.9833;13;
3;France;Centre;Indre-et-Loire;Marray 37149;E0.7000;N47.6167;13;
3;France;Centre;Indre-et-Loire;Mazières-de-Touraine 37150;E0.4333;N47.3833;13;
3;France;Centre;Indre-et-Loire;Mettray 37152;E0.6500;N47.4500;13;
3;France;Centre;Indre-et-Loire;Monnaie 37153;E0.7833;N47.5000;13;
3;France;Centre;Indre-et-Loire;Montbazon 37154;E0.7167;N47.2833;13;
3;France;Centre;Indre-et-Loire;Monthodon 37155;E0.8333;N47.6500;13;
3;France;Centre;Indre-et-Loire;Montlouis-sur-Loire 37156;E0.8333;N47.3833;13;
3;France;Centre;Indre-et-Loire;Montrésor 37157;E1.2000;N47.1500;13;
3;France;Centre;Indre-et-Loire;Montreuil-en-Touraine 37158;E0.9500;N47.4833;13;
3;France;Centre;Indre-et-Loire;Monts 37159;E0.6236;N47.2790;13;
3;France;Centre;Indre-et-Loire;Morand 37160;E1.0167;N47.5667;13;
3;France;Centre;Indre-et-Loire;Mosnes 37161;E1.1000;N47.4500;13;
3;France;Centre;Indre-et-Loire;Mouzay 37162;E0.8833;N47.0833;13;
3;France;Centre;Indre-et-Loire;Nazelles-Négron 37163;E0.9500;N47.4167;13;
3;France;Centre;Indre-et-Loire;Négron 37164=37163;E0.9552;N47.4123;13;
3;France;Centre;Indre-et-Loire;Neuil 37165;E0.5000;N47.1667;13;
3;France;Centre;Indre-et-Loire;Neuillé-le-Lierre 37166;E0.9167;N47.5167;13;
3;France;Centre;Indre-et-Loire;Neuillé-Pont-Pierre 37167;E0.5500;N47.5500;13;
3;France;Centre;Indre-et-Loire;Neuilly-le-Brignon 37168;E0.7833;N46.9667;13;
3;France;Centre;Indre-et-Loire;Neuville-sur-Brenne 37169;E0.9000;N47.6167;13;
3;France;Centre;Indre-et-Loire;Neuvy-le-Roi 37170;E0.6000;N47.6000;13;
3;France;Centre;Indre-et-Loire;Noizay 37171;E0.9000;N47.4167;13;
3;France;Centre;Indre-et-Loire;Notre-Dame-d'Oé 37172;E0.7167;N47.4500;13;
3;France;Centre;Indre-et-Loire;Nouans-les-Fontaines 37173;E1.3000;N47.1333;13;
3;France;Centre;Indre-et-Loire;Nouâtre 37174;E0.5500;N47.0500;13;
3;France;Centre;Indre-et-Loire;Nouzilly 37175;E0.7500;N47.5500;13;
3;France;Centre;Indre-et-Loire;Noyant-de-Touraine 37176;E0.5500;N47.1000;13;
3;France;Centre;Indre-et-Loire;Orbigny 37177;E1.2333;N47.2000;13;
3;France;Centre;Indre-et-Loire;Panzoult 37178;E0.4000;N47.1333;13;
3;France;Centre;Indre-et-Loire;Parçay-Meslay 37179;E0.7469;N47.4420;13;
3;France;Centre;Indre-et-Loire;Parçay-sur-Vienne 37180;E0.4667;N47.1000;13;
3;France;Centre;Indre-et-Loire;Paulmy 37181;E0.8333;N46.9833;13;
3;France;Centre;Indre-et-Loire;Pernay 37182;E0.5000;N47.4500;13;
3;France;Centre;Indre-et-Loire;Perrusson 37183;E1.0000;N47.1000;13;
3;France;Centre;Indre-et-Loire;Pocé-sur-Cisse 37185;E0.9833;N47.4333;13;
3;France;Centre;Indre-et-Loire;Pont-de-Ruan 37186;E0.5833;N47.2500;13;
3;France;Centre;Indre-et-Loire;Ports 37187;E0.5500;N47.0167;13;
3;France;Centre;Indre-et-Loire;Pouzay 37188;E0.5333;N47.0833;13;
3;France;Centre;Indre-et-Loire;Preuilly-sur-Claise 37189;E0.9333;N46.8500;13;
3;France;Centre;Indre-et-Loire;Pussigny 37190;E0.5667;N46.9833;13;
3;France;Centre;Indre-et-Loire;Razines 37191;E0.3667;N46.9667;13;
3;France;Centre;Indre-et-Loire;Reignac-sur-Indre 37192;E0.9167;N47.2167;13;
3;France;Centre;Indre-et-Loire;Restigné 37193;E0.2333;N47.2833;13;
3;France;Centre;Indre-et-Loire;Reugny 37194;E0.8833;N47.4833;13;
3;France;Centre;Indre-et-Loire;Richelieu 37196;E0.3167;N47.0167;13;
3;France;Centre;Indre-et-Loire;Rigny-Ussé 37197;E0.3000;N47.2500;13;
3;France;Centre;Indre-et-Loire;Rillé 37198;E0.2500;N47.4500;13;
3;France;Centre;Indre-et-Loire;Rilly-sur-Vienne 37199;E0.4833;N47.0500;13;
3;France;Centre;Indre-et-Loire;Rivarennes 37200;E0.3500;N47.2667;13;
3;France;Centre;Indre-et-Loire;Rivière 37201;E0.2781;N47.1464;13;
3;France;Centre;Indre-et-Loire;Rochecorbon 37203;E0.7500;N47.4167;13;
3;France;Centre;Indre-et-Loire;Rouziers-de-Touraine 37204;E0.6500;N47.5167;13;
3;France;Centre;Indre-et-Loire;Saché 37205;E0.5500;N47.2333;13;
3;France;Centre;Indre-et-Loire;Saint-Antoine-du-Rocher 37206;E0.6333;N47.5000;13;
3;France;Centre;Indre-et-Loire;Saint-Aubin-le-Dépeint 37207;E0.3833;N47.6333;13;
3;France;Centre;Indre-et-Loire;Saint-Avertin 37208;E0.7333;N47.3667;13;
3;France;Centre;Indre-et-Loire;Saint-Bauld 37209;E0.8333;N47.1833;13;
3;France;Centre;Indre-et-Loire;Saint-Benoît-la-Forêt 37210;E0.3167;N47.2167;13;
3;France;Centre;Indre-et-Loire;Saint-Branchs 37211;E0.7667;N47.2333;13;
3;France;Centre;Indre-et-Loire;Saint-Christophe-sur-le-Nais 37213;E0.4833;N47.6167;13;
3;France;Centre;Indre-et-Loire;Saint-Cyr-sur-Loire 37214;E0.6667;N47.4000;13;
3;France;Centre;Indre-et-Loire;Saint-Denis-Hors 37215=37003;E1.0014;N47.3994;13;
3;France;Centre;Indre-et-Loire;Saint-Épain 37216;E0.5333;N47.1333;13;
3;France;Centre;Indre-et-Loire;Saint-Étienne-de-Chigny 37217;E0.5333;N47.3833;13;
3;France;Centre;Indre-et-Loire;Saint-Flovier 37218;E1.0248;N46.9685;13;
3;France;Centre;Indre-et-Loire;Saint-Genouph 37219;E0.6000;N47.3833;13;
3;France;Centre;Indre-et-Loire;Saint-Germain-sur-Vienne 37220;E0.1000;N47.2000;13;
3;France;Centre;Indre-et-Loire;Saint-Hippolyte 37221;E1.1000;N47.0500;13;
3;France;Centre;Indre-et-Loire;Saint-Jean-Saint-Germain 37222;E1.0333;N47.0833;13;
3;France;Centre;Indre-et-Loire;Saint-Laurent-de-Lin 37223;E0.2500;N47.5000;13;
3;France;Centre;Indre-et-Loire;Saint-Laurent-en-Gâtines 37224;E0.7833;N47.5833;13;
3;France;Centre;Indre-et-Loire;Saint-Martin-le-Beau 37225;E0.9167;N47.3500;13;
3;France;Centre;Indre-et-Loire;Saint-Michel-sur-Loire 37227;E0.3500;N47.3167;13;
3;France;Centre;Indre-et-Loire;Saint-Nicolas-de-Bourgueil 37228;E0.1167;N47.2833;13;
3;France;Centre;Indre-et-Loire;Saint-Nicolas-des-Motets 37229;E1.0333;N47.5833;13;
3;France;Centre;Indre-et-Loire;Saint-Ouen-les-Vignes 37230;E1.0000;N47.4667;13;
3;France;Centre;Indre-et-Loire;Saint-Paterne-Racan 37231;E0.4833;N47.6000;13;
3;France;Centre;Indre-et-Loire;Saint-Patrice 37232;E0.3167;N47.2833;13;
3;France;Centre;Indre-et-Loire;Saint-Pierre-des-Corps 37233;E0.7333;N47.3833;13;
3;France;Centre;Indre-et-Loire;Saint-Quentin-sur-Indrois 37234;E1.0167;N47.2000;13;
3;France;Centre;Indre-et-Loire;Saint-Règle 37236;E1.0500;N47.4167;13;
3;France;Centre;Indre-et-Loire;Saint-Roch 37237;E0.5833;N47.4500;13;
3;France;Centre;Indre-et-Loire;Saint-Senoch 37238;E0.9667;N47.0500;13;
3;France;Centre;Indre-et-Loire;Saint-Symphorien 37239=37261;E0.6848;N47.4120;13;
3;France;Centre;Indre-et-Loire;Sainte-Catherine-de-Fierbois 37212;E0.6561;N47.1576;13;
3;France;Centre;Indre-et-Loire;Sainte-Maure-de-Touraine 37226;E0.6167;N47.1000;13;
3;France;Centre;Indre-et-Loire;Sainte-Radegonde-en-Touraine 37235=37261;E0.7109;N47.4039;13;
3;France;Centre;Indre-et-Loire;Saunay 37240;E0.9667;N47.6000;13;
3;France;Centre;Indre-et-Loire;Savigné-sur-Lathan 37241;E0.3167;N47.4500;13;
3;France;Centre;Indre-et-Loire;Savigny-en-Véron 37242;E0.1500;N47.2000;13;
3;France;Centre;Indre-et-Loire;Savonnières 37243;E0.5500;N47.3500;13;
3;France;Centre;Indre-et-Loire;Sazilly 37244;E0.3333;N47.1333;13;
3;France;Centre;Indre-et-Loire;Semblançay 37245;E0.5833;N47.5000;13;
3;France;Centre;Indre-et-Loire;Sennevières 37246;E1.1021;N47.1065;13;
3;France;Centre;Indre-et-Loire;Sepmes 37247;E0.6667;N47.0667;13;
3;France;Centre;Indre-et-Loire;Seuilly 37248;E0.1667;N47.1500;13;
3;France;Centre;Indre-et-Loire;Sonzay 37249;E0.4667;N47.5333;13;
3;France;Centre;Indre-et-Loire;Sorigny 37250;E0.7000;N47.2333;13;
3;France;Centre;Indre-et-Loire;Souvigné 37251;E0.4000;N47.5167;13;
3;France;Centre;Indre-et-Loire;Souvigny-de-Touraine 37252;E1.0883;N47.4126;13;
3;France;Centre;Indre-et-Loire;Sublaines 37253;E1.0000;N47.2667;13;
3;France;Centre;Indre-et-Loire;Tauxigny 37254;E0.8333;N47.2167;13;
3;France;Centre;Indre-et-Loire;Tavant 37255;E0.3833;N47.1167;13;
3;France;Centre;Indre-et-Loire;Theneuil 37256;E0.4333;N47.0833;13;
3;France;Centre;Indre-et-Loire;Thilouze 37257;E0.5833;N47.2167;13;
3;France;Centre;Indre-et-Loire;Thizay 37258;E0.1333;N47.1667;13;
3;France;Centre;Indre-et-Loire;Tournon-Saint-Pierre 37259;E0.9568;N46.7389;13;
3;France;Centre;Indre-et-Loire;Tours 37261;E0.6870;N47.3857;13;
3;France;Centre;Indre-et-Loire;Trogues 37262;E0.5000;N47.1167;13;
3;France;Centre;Indre-et-Loire;Truyes 37263;E0.8333;N47.2667;13;
3;France;Centre;Indre-et-Loire;Vallères 37264;E0.4667;N47.3167;13;
3;France;Centre;Indre-et-Loire;Varennes 37265;E0.9167;N47.0667;13;
3;France;Centre;Indre-et-Loire;Veigné 37266;E0.7333;N47.2833;13;
3;France;Centre;Indre-et-Loire;Véretz 37267;E0.8058;N47.3586;13;
3;France;Centre;Indre-et-Loire;Verneuil-le-Château 37268;E0.4571;N47.0398;13;
3;France;Centre;Indre-et-Loire;Verneuil-sur-Indre 37269;E1.0333;N47.0500;13;
3;France;Centre;Indre-et-Loire;Vernou-sur-Brenne 37270;E0.8500;N47.4167;13;
3;France;Centre;Indre-et-Loire;Villaines-les-Rochers 37271;E0.4973;N47.2213;13;
3;France;Centre;Indre-et-Loire;Villandry 37272;E0.5167;N47.3333;13;
3;France;Centre;Indre-et-Loire;Villebourg 37274;E0.5333;N47.6500;13;
3;France;Centre;Indre-et-Loire;Villedômain 37275;E1.2500;N47.0500;13;
3;France;Centre;Indre-et-Loire;Villedômer 37276;E0.8877;N47.5463;13;
3;France;Centre;Indre-et-Loire;Villeloin-Coulangé 37277;E1.2233;N47.1406;13;
3;France;Centre;Indre-et-Loire;Villeperdue 37278;E0.6333;N47.2000;13;
3;France;Centre;Indre-et-Loire;Villiers-au-Bouin 37279;E0.3167;N47.5667;13;
3;France;Centre;Indre-et-Loire;Vou 37280;E0.8500;N47.0833;13;
3;France;Centre;Indre-et-Loire;Vouvray 37281;E0.8000;N47.4167;13;
3;France;Centre;Indre-et-Loire;Yzeures-sur-Creuse 37282;E0.8712;N46.7868;13;
2;France;Centre;Loir-et-Cher;;E1.3293;N47.6617;9;
3;France;Centre;Loir-et-Cher;Ambloy 41001;E0.9667;N47.7167;13;
3;France;Centre;Loir-et-Cher;Angé 41002;E1.2333;N47.3167;13;
3;France;Centre;Loir-et-Cher;Areines 41003;E1.1000;N47.8000;13;
3;France;Centre;Loir-et-Cher;Artins 41004;E0.7333;N47.7500;13;
3;France;Centre;Loir-et-Cher;Arville 41005;E0.9500;N48.0667;13;
3;France;Centre;Loir-et-Cher;Autainville 41006;E1.4167;N47.8833;13;
3;France;Centre;Loir-et-Cher;Authon 41007;E0.9000;N47.6500;13;
3;France;Centre;Loir-et-Cher;Avaray 41008;E1.5667;N47.7167;13;
3;France;Centre;Loir-et-Cher;Averdon 41009;E1.3000;N47.6833;13;
3;France;Centre;Loir-et-Cher;Azé 41010;E0.9833;N47.8500;13;
3;France;Centre;Loir-et-Cher;Baigneaux 41011;E1.2500;N47.7833;13;
3;France;Centre;Loir-et-Cher;Baillou 41012;E0.8500;N47.9667;13;
3;France;Centre;Loir-et-Cher;Bauzy 41013;E1.6000;N47.5333;13;
3;France;Centre;Loir-et-Cher;Beauchêne 41014;E0.9667;N47.9333;13;
3;France;Centre;Loir-et-Cher;Beauvilliers 41015;E1.2583;N47.8417;13;
3;France;Centre;Loir-et-Cher;Billy 41016;E1.5333;N47.3000;13;
3;France;Centre;Loir-et-Cher;Binas 41017;E1.4667;N47.9000;13;
3;France;Centre;Loir-et-Cher;Blois 41018;E1.3333;N47.5833;13;
3;France;Centre;Loir-et-Cher;Boisseau 41019;E1.3000;N47.7667;13;
3;France;Centre;Loir-et-Cher;Bonneveau 41020;E0.7500;N47.8167;13;
3;France;Centre;Loir-et-Cher;Bouffry 41022;E1.1000;N48.0000;13;
3;France;Centre;Loir-et-Cher;Bourré 41023;E1.2167;N47.3500;13;
3;France;Centre;Loir-et-Cher;Boursay 41024;E0.9667;N48.0167;13;
3;France;Centre;Loir-et-Cher;Bracieux 41025;E1.5500;N47.5500;13;
3;France;Centre;Loir-et-Cher;Brévainville 41026;E1.2833;N47.9500;13;
3;France;Centre;Loir-et-Cher;Briou 41027;E1.4833;N47.8167;13;
3;France;Centre;Loir-et-Cher;Busloup 41028;E1.1333;N47.9000;13;
3;France;Centre;Loir-et-Cher;Candé-sur-Beuvron 41029;E1.2500;N47.5000;13;
3;France;Centre;Loir-et-Cher;Cellé 41030;E0.7833;N47.8333;13;
3;France;Centre;Loir-et-Cher;Cellettes 41031;E1.3833;N47.5333;13;
3;France;Centre;Loir-et-Cher;Chailles 41032;E1.3167;N47.5500;13;
3;France;Centre;Loir-et-Cher;Chambon-sur-Cisse 41033;E1.2167;N47.5667;13;
3;France;Centre;Loir-et-Cher;Chambord 41034;E1.5167;N47.6167;13;
3;France;Centre;Loir-et-Cher;Champigny-en-Beauce 41035;E1.2500;N47.7167;13;
3;France;Centre;Loir-et-Cher;Chaon 41036;E2.1750;N47.6083;13;
3;France;Centre;Loir-et-Cher;Châteauvieux 41042;E1.3833;N47.2167;13;
3;France;Centre;Loir-et-Cher;Châtillon-sur-Cher 41043;E1.5000;N47.2667;13;
3;France;Centre;Loir-et-Cher;Châtres-sur-Cher 41044;E1.9167;N47.2667;13;
3;France;Centre;Loir-et-Cher;Chaumont-sur-Loire 41045;E1.1833;N47.4833;13;
3;France;Centre;Loir-et-Cher;Chaumont-sur-Tharonne 41046;E1.9000;N47.6167;13;
3;France;Centre;Loir-et-Cher;Chauvigny-du-Perche 41048;E1.0667;N47.9500;13;
3;France;Centre;Loir-et-Cher;Chémery 41049;E1.4667;N47.3500;13;
3;France;Centre;Loir-et-Cher;Cheverny 41050;E1.4667;N47.5000;13;
3;France;Centre;Loir-et-Cher;Chissay-en-Touraine 41051;E1.1333;N47.3333;13;
3;France;Centre;Loir-et-Cher;Chitenay 41052;E1.3667;N47.5000;13;
3;France;Centre;Loir-et-Cher;Choue 41053;E0.9333;N48.0000;13;
3;France;Centre;Loir-et-Cher;Choussy 41054;E1.3500;N47.3667;13;
3;France;Centre;Loir-et-Cher;Chouzy-sur-Cisse 41055;E1.2500;N47.5167;13;
3;France;Centre;Loir-et-Cher;Conan 41057;E1.2833;N47.7500;13;
3;France;Centre;Loir-et-Cher;Concriers 41058;E1.4667;N47.7667;13;
3;France;Centre;Loir-et-Cher;Contres 41059;E1.4333;N47.4167;13;
3;France;Centre;Loir-et-Cher;Cormenon 41060;E0.8833;N47.9667;13;
3;France;Centre;Loir-et-Cher;Cormeray 41061;E1.4000;N47.4833;13;
3;France;Centre;Loir-et-Cher;Couddes 41062;E1.4000;N47.3667;13;
3;France;Centre;Loir-et-Cher;Couffy 41063;E1.4333;N47.2333;13;
3;France;Centre;Loir-et-Cher;Coulanges 41064;E1.2167;N47.5500;13;
3;France;Centre;Loir-et-Cher;Coulommiers-la-Tour 41065;E1.1333;N47.7833;13;
3;France;Centre;Loir-et-Cher;Cour-Cheverny 41067;E1.4500;N47.5000;13;
3;France;Centre;Loir-et-Cher;Cour-sur-Loire 41069;E1.4333;N47.6500;13;
3;France;Centre;Loir-et-Cher;Courbouzon 41066;E1.5500;N47.7167;13;
3;France;Centre;Loir-et-Cher;Courmemin 41068;E1.6333;N47.4667;13;
3;France;Centre;Loir-et-Cher;Couture-sur-Loir 41070;E0.6833;N47.7500;13;
3;France;Centre;Loir-et-Cher;Crouy-sur-Cosson 41071;E1.6000;N47.6500;13;
3;France;Centre;Loir-et-Cher;Crucheray 41072;E1.0833;N47.7333;13;
3;France;Centre;Loir-et-Cher;Danzé 41073;E1.0333;N47.9000;13;
3;France;Centre;Loir-et-Cher;Dhuizon 41074;E1.6500;N47.5833;13;
3;France;Centre;Loir-et-Cher;Droué 41075;E1.0833;N48.0333;13;
3;France;Centre;Loir-et-Cher;Écoman 41076=41273;E1.3000;N47.9000;13;
3;France;Centre;Loir-et-Cher;Épiais 41077;E1.2500;N47.8000;13;
3;France;Centre;Loir-et-Cher;Épuisay 41078;E0.9333;N47.9000;13;
3;France;Centre;Loir-et-Cher;Faverolles-sur-Cher 41080;E1.1833;N47.3167;13;
3;France;Centre;Loir-et-Cher;Faye 41081;E1.1833;N47.8000;13;
3;France;Centre;Loir-et-Cher;Feings 41082;E1.3500;N47.4333;13;
3;France;Centre;Loir-et-Cher;Fontaine-les-Coteaux 41087;E0.8333;N47.8000;13;
3;France;Centre;Loir-et-Cher;Fontaine-Raoul 41088;E1.1333;N47.9833;13;
3;France;Centre;Loir-et-Cher;Fontaines-en-Sologne 41086;E1.5500;N47.5167;13;
3;France;Centre;Loir-et-Cher;Fortan 41090;E0.9167;N47.8500;13;
3;France;Centre;Loir-et-Cher;Fossé 41091;E1.2833;N47.6333;13;
3;France;Centre;Loir-et-Cher;Fougères-sur-Bièvre 41092;E1.3500;N47.4500;13;
3;France;Centre;Loir-et-Cher;Françay 41093;E1.1333;N47.6167;13;
3;France;Centre;Loir-et-Cher;Fresnes 41094;E1.4167;N47.4333;13;
3;France;Centre;Loir-et-Cher;Fréteval 41095;E1.2167;N47.8833;13;
3;France;Centre;Loir-et-Cher;Gièvres 41097;E1.6667;N47.2667;13;
3;France;Centre;Loir-et-Cher;Gombergean 41098;E1.0833;N47.6500;13;
3;France;Centre;Loir-et-Cher;Gy-en-Sologne 41099;E1.5833;N47.3500;13;
3;France;Centre;Loir-et-Cher;Herbault 41101;E1.1333;N47.6000;13;
3;France;Centre;Loir-et-Cher;Houssay 41102;E0.9333;N47.7500;13;
3;France;Centre;Loir-et-Cher;Huisseau-en-Beauce 41103;E1.0167;N47.7167;13;
3;France;Centre;Loir-et-Cher;Huisseau-sur-Cosson 41104;E1.4500;N47.6000;13;
3;France;Centre;Loir-et-Cher;Josnes 41105;E1.5167;N47.8000;13;
3;France;Centre;Loir-et-Cher;La Bosse 41021=41273;E1.2667;N47.8500;13;
3;France;Centre;Loir-et-Cher;La Chapelle-Enchérie 41037;E1.2000;N47.8167;13;
3;France;Centre;Loir-et-Cher;La Chapelle-Montmartin 41038;E1.7333;N47.2667;13;
3;France;Centre;Loir-et-Cher;La Chapelle-Saint-Martin-en-Plaine 41039;E1.4167;N47.7167;13;
3;France;Centre;Loir-et-Cher;La Chapelle-Vendômoise 41040;E1.2500;N47.6667;13;
3;France;Centre;Loir-et-Cher;La Chapelle-Vicomtesse 41041;E1.0333;N47.9833;13;
3;France;Centre;Loir-et-Cher;La Chaussée-Saint-Victor 41047;E1.3667;N47.6167;13;
3;France;Centre;Loir-et-Cher;La Colombe 41056;E1.3667;N47.8833;13;
3;France;Centre;Loir-et-Cher;La Ferté-Beauharnais 41083;E1.8500;N47.5333;13;
3;France;Centre;Loir-et-Cher;La Ferté-Imbault 41084;E1.9667;N47.3833;13;
3;France;Centre;Loir-et-Cher;La Ferté-Saint-Cyr 41085;E1.6667;N47.6500;13;
3;France;Centre;Loir-et-Cher;La Fontenelle 41089;E1.0333;N48.0667;13;
3;France;Centre;Loir-et-Cher;La Madeleine-Villefrouin 41121;E1.3833;N47.7667;13;
3;France;Centre;Loir-et-Cher;La Marolle-en-Sologne 41127;E1.7833;N47.5833;13;
3;France;Centre;Loir-et-Cher;La Ville-aux-Clercs 41275;E1.0833;N47.9167;13;
3;France;Centre;Loir-et-Cher;Lamotte-Beuvron 41106;E2.0167;N47.6000;13;
3;France;Centre;Loir-et-Cher;Lancé 41107;E1.0667;N47.7000;13;
3;France;Centre;Loir-et-Cher;Lancôme 41108;E1.1167;N47.6500;13;
3;France;Centre;Loir-et-Cher;Landes-le-Gaulois 41109;E1.1833;N47.6500;13;
3;France;Centre;Loir-et-Cher;Langon 41110;E1.8333;N47.2833;13;
3;France;Centre;Loir-et-Cher;Lanthenay 41111=41194;E1.7375;N47.3829;13;
3;France;Centre;Loir-et-Cher;Lassay-sur-Croisne 41112;E1.6167;N47.3667;13;
3;France;Centre;Loir-et-Cher;Lavardin 41113;E0.8833;N47.7500;13;
3;France;Centre;Loir-et-Cher;Le Gault-Perche 41096;E0.9667;N48.0833;13;
3;France;Centre;Loir-et-Cher;Le Plessis-Dorin 41177;E0.8667;N48.0833;13;
3;France;Centre;Loir-et-Cher;Le Plessis-l'Échelle 41178;E1.4333;N47.8167;13;
3;France;Centre;Loir-et-Cher;Le Poislay 41179;E1.0667;N48.0667;13;
3;France;Centre;Loir-et-Cher;Le Temple 41254;E0.9333;N47.9167;13;
3;France;Centre;Loir-et-Cher;Les Essarts 41079;E0.7167;N47.7333;13;
3;France;Centre;Loir-et-Cher;Les Hayes 41100;E0.7667;N47.7000;13;
3;France;Centre;Loir-et-Cher;Les Montils 41147;E1.3000;N47.5000;13;
3;France;Centre;Loir-et-Cher;Les Roches-l'Évêque 41192;E0.8833;N47.7833;13;
3;France;Centre;Loir-et-Cher;Lestiou 41114;E1.5833;N47.7333;13;
3;France;Centre;Loir-et-Cher;Lignières 41115;E1.1833;N47.8667;13;
3;France;Centre;Loir-et-Cher;Lisle 41116;E1.1167;N47.8500;13;
3;France;Centre;Loir-et-Cher;Longpré 41117=41199;E0.9506;N47.6635;13;
3;France;Centre;Loir-et-Cher;Loreux 41118;E1.8333;N47.4000;13;
3;France;Centre;Loir-et-Cher;Lorges 41119;E1.5000;N47.8167;13;
3;France;Centre;Loir-et-Cher;Lunay 41120;E0.9167;N47.8000;13;
3;France;Centre;Loir-et-Cher;Maray 41122;E1.8833;N47.2500;13;
3;France;Centre;Loir-et-Cher;Marchenoir 41123;E1.4000;N47.8167;13;
3;France;Centre;Loir-et-Cher;Marcilly-en-Beauce 41124;E1.0000;N47.7667;13;
3;France;Centre;Loir-et-Cher;Marcilly-en-Gault 41125;E1.8667;N47.4500;13;
3;France;Centre;Loir-et-Cher;Mareuil-sur-Cher 41126;E1.3333;N47.2833;13;
3;France;Centre;Loir-et-Cher;Marolles 41128;E1.3000;N47.6500;13;
3;France;Centre;Loir-et-Cher;Maslives 41129;E1.4833;N47.6333;13;
3;France;Centre;Loir-et-Cher;Maves 41130;E1.3667;N47.7500;13;
3;France;Centre;Loir-et-Cher;Mazangé 41131;E0.9500;N47.8167;13;
3;France;Centre;Loir-et-Cher;Méhers 41132;E1.4500;N47.3333;13;
3;France;Centre;Loir-et-Cher;Membrolles 41133;E1.4667;N47.9833;13;
3;France;Centre;Loir-et-Cher;Menars 41134;E1.4000;N47.6333;13;
3;France;Centre;Loir-et-Cher;Mennetou-sur-Cher 41135;E1.8833;N47.2667;13;
3;France;Centre;Loir-et-Cher;Mer 41136;E1.5000;N47.7000;13;
3;France;Centre;Loir-et-Cher;Mesland 41137;E1.1167;N47.5167;13;
3;France;Centre;Loir-et-Cher;Meslay 41138;E1.1000;N47.8167;13;
3;France;Centre;Loir-et-Cher;Meusnes 41139;E1.4833;N47.2500;13;
3;France;Centre;Loir-et-Cher;Millançay 41140;E1.7667;N47.4500;13;
3;France;Centre;Loir-et-Cher;Moisy 41141;E1.3167;N47.9167;13;
3;France;Centre;Loir-et-Cher;Molineuf 41142;E1.2333;N47.5833;13;
3;France;Centre;Loir-et-Cher;Mondoubleau 41143;E0.9000;N47.9833;13;
3;France;Centre;Loir-et-Cher;Mont-près-Chambord 41150;E1.4500;N47.5667;13;
3;France;Centre;Loir-et-Cher;Monteaux 41144;E1.1167;N47.4833;13;
3;France;Centre;Loir-et-Cher;Monthou-sur-Bièvre 41145;E1.3000;N47.4667;13;
3;France;Centre;Loir-et-Cher;Monthou-sur-Cher 41146;E1.3000;N47.3500;13;
3;France;Centre;Loir-et-Cher;Montlivault 41148;E1.4500;N47.6333;13;
3;France;Centre;Loir-et-Cher;Montoire-sur-le-Loir 41149;E0.8667;N47.7500;13;
3;France;Centre;Loir-et-Cher;Montrichard 41151;E1.1833;N47.3500;13;
3;France;Centre;Loir-et-Cher;Montrieux-en-Sologne 41152;E1.7333;N47.5500;13;
3;France;Centre;Loir-et-Cher;Montrouveau 41153;E0.7333;N47.7167;13;
3;France;Centre;Loir-et-Cher;Morée 41154;E1.2333;N47.9000;13;
3;France;Centre;Loir-et-Cher;Muides-sur-Loire 41155;E1.5167;N47.6667;13;
3;France;Centre;Loir-et-Cher;Mulsans 41156;E1.3833;N47.7000;13;
3;France;Centre;Loir-et-Cher;Mur-de-Sologne 41157;E1.6167;N47.4167;13;
3;France;Centre;Loir-et-Cher;Naveil 41158;E1.0333;N47.8000;13;
3;France;Centre;Loir-et-Cher;Neung-sur-Beuvron 41159;E1.8000;N47.5333;13;
3;France;Centre;Loir-et-Cher;Neuvy 41160;E1.6000;N47.5667;13;
3;France;Centre;Loir-et-Cher;Nouan-le-Fuzelier 41161;E2.0363;N47.5449;13;
3;France;Centre;Loir-et-Cher;Nouan-sur-Loire 41162=41220;E1.5500;N47.6833;13;
3;France;Centre;Loir-et-Cher;Nourray 41163;E1.0667;N47.7167;13;
3;France;Centre;Loir-et-Cher;Noyers-sur-Cher 41164;E1.4000;N47.2833;13;
3;France;Centre;Loir-et-Cher;Oigny 41165;E0.9333;N48.0667;13;
3;France;Centre;Loir-et-Cher;Oisly 41166;E1.3833;N47.3833;13;
3;France;Centre;Loir-et-Cher;Onzain 41167;E1.1833;N47.5000;13;
3;France;Centre;Loir-et-Cher;Orçay 41168;E2.1083;N47.2917;13;
3;France;Centre;Loir-et-Cher;Orchaise 41169;E1.2000;N47.5833;13;
3;France;Centre;Loir-et-Cher;Ouchamps 41170;E1.3167;N47.4667;13;
3;France;Centre;Loir-et-Cher;Oucques 41171;E1.3000;N47.8167;13;
3;France;Centre;Loir-et-Cher;Ouzouer-le-Doyen 41172;E1.3333;N47.9333;13;
3;France;Centre;Loir-et-Cher;Ouzouer-le-Marché 41173;E1.5333;N47.9167;13;
3;France;Centre;Loir-et-Cher;Périgny 41174;E1.1500;N47.7333;13;
3;France;Centre;Loir-et-Cher;Pezou 41175;E1.1333;N47.8667;13;
3;France;Centre;Loir-et-Cher;Pierrefitte-sur-Sauldre 41176;E2.1500;N47.5083;13;
3;France;Centre;Loir-et-Cher;Pontlevoy 41180;E1.2500;N47.3833;13;
3;France;Centre;Loir-et-Cher;Pouillé 41181;E1.3000;N47.3167;13;
3;France;Centre;Loir-et-Cher;Pray 41182;E1.1167;N47.6833;13;
3;France;Centre;Loir-et-Cher;Prénouvellon 41183;E1.5333;N47.9667;13;
3;France;Centre;Loir-et-Cher;Prunay-Cassereau 41184;E0.9167;N47.7000;13;
3;France;Centre;Loir-et-Cher;Pruniers-en-Sologne 41185;E1.6667;N47.3167;13;
3;France;Centre;Loir-et-Cher;Rahart 41186;E1.0667;N47.8667;13;
3;France;Centre;Loir-et-Cher;Renay 41187;E1.1667;N47.8500;13;
3;France;Centre;Loir-et-Cher;Rhodon 41188;E1.2667;N47.7500;13;
3;France;Centre;Loir-et-Cher;Rilly-sur-Loire 41189;E1.1333;N47.4667;13;
3;France;Centre;Loir-et-Cher;Rocé 41190;E1.1500;N47.8000;13;
3;France;Centre;Loir-et-Cher;Roches 41191;E1.4500;N47.8000;13;
3;France;Centre;Loir-et-Cher;Romilly 41193;E1.0333;N47.9500;13;
3;France;Centre;Loir-et-Cher;Romorantin-Lanthenay 41194;E1.7436;N47.3589;13;
3;France;Centre;Loir-et-Cher;Rougeou 41195;E1.5333;N47.3667;13;
3;France;Centre;Loir-et-Cher;Ruan-sur-Egvonne 41196;E1.1333;N48.0000;13;
3;France;Centre;Loir-et-Cher;Saint-Agil 41197;E0.9333;N48.0333;13;
3;France;Centre;Loir-et-Cher;Saint-Aignan 41198;E1.3833;N47.2667;13;
3;France;Centre;Loir-et-Cher;Saint-Amand-Longpré 41199;E1.0167;N47.6833;13;
3;France;Centre;Loir-et-Cher;Saint-Arnoult 41201;E0.8667;N47.7000;13;
3;France;Centre;Loir-et-Cher;Saint-Avit 41202;E0.9167;N48.0833;13;
3;France;Centre;Loir-et-Cher;Saint-Bohaire 41203;E1.2667;N47.6500;13;
3;France;Centre;Loir-et-Cher;Saint-Claude-de-Diray 41204;E1.4167;N47.6167;13;
3;France;Centre;Loir-et-Cher;Saint-Cyr-du-Gault 41205;E1.0333;N47.6167;13;
3;France;Centre;Loir-et-Cher;Saint-Denis-sur-Loire 41206;E1.3833;N47.6167;13;
3;France;Centre;Loir-et-Cher;Saint-Dyé-sur-Loire 41207;E1.4833;N47.6500;13;
3;France;Centre;Loir-et-Cher;Saint-Étienne-des-Guérets 41208;E1.0667;N47.6000;13;
3;France;Centre;Loir-et-Cher;Saint-Firmin-des-Prés 41209;E1.1167;N47.8333;13;
3;France;Centre;Loir-et-Cher;Saint-Georges-sur-Cher 41211;E1.1333;N47.3167;13;
3;France;Centre;Loir-et-Cher;Saint-Gervais-la-Forêt 41212;E1.3500;N47.5667;13;
3;France;Centre;Loir-et-Cher;Saint-Gourgon 41213;E1.0167;N47.6667;13;
3;France;Centre;Loir-et-Cher;Saint-Hilaire-la-Gravelle 41214;E1.2000;N47.9167;13;
3;France;Centre;Loir-et-Cher;Saint-Jacques-des-Guérets 41215;E0.8000;N47.7667;13;
3;France;Centre;Loir-et-Cher;Saint-Jean-Froidmentel 41216;E1.2500;N47.9500;13;
3;France;Centre;Loir-et-Cher;Saint-Julien-de-Chédon 41217;E1.2000;N47.3000;13;
3;France;Centre;Loir-et-Cher;Saint-Julien-sur-Cher 41218;E1.7667;N47.2833;13;
3;France;Centre;Loir-et-Cher;Saint-Laurent-des-Bois 41219;E1.4500;N47.8500;13;
3;France;Centre;Loir-et-Cher;Saint-Laurent-Nouan 41220;E1.6000;N47.7167;13;
3;France;Centre;Loir-et-Cher;Saint-Léonard-en-Beauce 41221;E1.3833;N47.8333;13;
3;France;Centre;Loir-et-Cher;Saint-Loup 41222;E1.8333;N47.2500;13;
3;France;Centre;Loir-et-Cher;Saint-Lubin-en-Vergonnois 41223;E1.2333;N47.6167;13;
3;France;Centre;Loir-et-Cher;Saint-Marc-du-Cor 41224;E0.9500;N47.9667;13;
3;France;Centre;Loir-et-Cher;Saint-Martin-des-Bois 41225;E0.8333;N47.7167;13;
3;France;Centre;Loir-et-Cher;Saint-Ouen 41226;E1.0833;N47.8167;13;
3;France;Centre;Loir-et-Cher;Saint-Quentin-lès-Troo 41227=41149;E0.8167;N47.7667;13;
3;France;Centre;Loir-et-Cher;Saint-Rimay 41228;E0.9167;N47.7667;13;
3;France;Centre;Loir-et-Cher;Saint-Romain-sur-Cher 41229;E1.4000;N47.3167;13;
3;France;Centre;Loir-et-Cher;Saint-Sulpice-de-Pommeray 41230;E1.2667;N47.6000;13;
3;France;Centre;Loir-et-Cher;Saint-Viâtre 41231;E1.9333;N47.5167;13;
3;France;Centre;Loir-et-Cher;Sainte-Anne 41200;E1.0833;N47.7500;13;
3;France;Centre;Loir-et-Cher;Sainte-Gemmes 41210;E1.2667;N47.7833;13;
3;France;Centre;Loir-et-Cher;Salbris 41232;E2.0500;N47.4259;13;
3;France;Centre;Loir-et-Cher;Sambin 41233;E1.3000;N47.4333;13;
3;France;Centre;Loir-et-Cher;Santenay 41234;E1.1167;N47.5667;13;
3;France;Centre;Loir-et-Cher;Sargé-sur-Braye 41235;E0.8500;N47.9167;13;
3;France;Centre;Loir-et-Cher;Sasnières 41236;E0.9333;N47.7167;13;
3;France;Centre;Loir-et-Cher;Sassay 41237;E1.4333;N47.4000;13;
3;France;Centre;Loir-et-Cher;Savigny-sur-Braye 41238;E0.8167;N47.8833;13;
3;France;Centre;Loir-et-Cher;Seigy 41239;E1.4000;N47.2333;13;
3;France;Centre;Loir-et-Cher;Seillac 41240;E1.1500;N47.5500;13;
3;France;Centre;Loir-et-Cher;Selles-Saint-Denis 41241;E1.9167;N47.3833;13;
3;France;Centre;Loir-et-Cher;Selles-sur-Cher 41242;E1.5500;N47.2667;13;
3;France;Centre;Loir-et-Cher;Selommes 41243;E1.2000;N47.7500;13;
3;France;Centre;Loir-et-Cher;Semerville 41244;E1.4000;N47.9333;13;
3;France;Centre;Loir-et-Cher;Séris 41245;E1.5000;N47.7500;13;
3;France;Centre;Loir-et-Cher;Seur 41246;E1.3333;N47.5000;13;
3;France;Centre;Loir-et-Cher;Soings-en-Sologne 41247;E1.5167;N47.4167;13;
3;France;Centre;Loir-et-Cher;Souday 41248;E0.8667;N48.0333;13;
3;France;Centre;Loir-et-Cher;Souesmes 41249;E2.1833;N47.4583;13;
3;France;Centre;Loir-et-Cher;Sougé 41250;E0.7167;N47.7667;13;
3;France;Centre;Loir-et-Cher;Souvigny-en-Sologne 41251;E2.1667;N47.6417;13;
3;France;Centre;Loir-et-Cher;Suèvres 41252;E1.4667;N47.6667;13;
3;France;Centre;Loir-et-Cher;Talcy 41253;E1.4500;N47.7667;13;
3;France;Centre;Loir-et-Cher;Ternay 41255;E0.7833;N47.7333;13;
3;France;Centre;Loir-et-Cher;Theillay 41256;E2.0403;N47.3167;13;
3;France;Centre;Loir-et-Cher;Thenay 41257;E1.2833;N47.3833;13;
3;France;Centre;Loir-et-Cher;Thésée 41258;E1.3167;N47.3333;13;
3;France;Centre;Loir-et-Cher;Thoré-la-Rochette 41259;E0.9667;N47.7833;13;
3;France;Centre;Loir-et-Cher;Thoury 41260;E1.6000;N47.6333;13;
3;France;Centre;Loir-et-Cher;Tour-en-Sologne 41262;E1.5000;N47.5333;13;
3;France;Centre;Loir-et-Cher;Tourailles 41261;E1.1500;N47.6833;13;
3;France;Centre;Loir-et-Cher;Tréhet 41263;E0.6333;N47.7333;13;
3;France;Centre;Loir-et-Cher;Tripleville 41264;E1.4833;N47.9500;13;
3;France;Centre;Loir-et-Cher;Troo 41265;E0.7833;N47.7833;13;
3;France;Centre;Loir-et-Cher;Valaire 41266;E1.2667;N47.4667;13;
3;France;Centre;Loir-et-Cher;Vallières-les-Grandes 41267;E1.1500;N47.4167;13;
3;France;Centre;Loir-et-Cher;Veilleins 41268;E1.6667;N47.4167;13;
3;France;Centre;Loir-et-Cher;Vendôme 41269;E1.0667;N47.8000;13;
3;France;Centre;Loir-et-Cher;Verdes 41270;E1.4333;N47.9500;13;
3;France;Centre;Loir-et-Cher;Vernou-en-Sologne 41271;E1.6833;N47.5000;13;
3;France;Centre;Loir-et-Cher;Veuves 41272;E1.1167;N47.4667;13;
3;France;Centre;Loir-et-Cher;Vievy-le-Rayé 41273;E1.3167;N47.8667;13;
3;France;Centre;Loir-et-Cher;Villavard 41274;E0.9000;N47.7500;13;
3;France;Centre;Loir-et-Cher;Villebarou 41276;E1.3167;N47.6167;13;
3;France;Centre;Loir-et-Cher;Villebout 41277;E1.1833;N47.9833;13;
3;France;Centre;Loir-et-Cher;Villechauve 41278;E0.9500;N47.6500;13;
3;France;Centre;Loir-et-Cher;Villedieu-le-Château 41279;E0.6500;N47.7167;13;
3;France;Centre;Loir-et-Cher;Villefranche-sur-Cher 41280;E1.7667;N47.2833;13;
3;France;Centre;Loir-et-Cher;Villefrancoeur 41281;E1.2167;N47.7000;13;
3;France;Centre;Loir-et-Cher;Villeherviers 41282;E1.8000;N47.3667;13;
3;France;Centre;Loir-et-Cher;Villemardy 41283;E1.1833;N47.7333;13;
3;France;Centre;Loir-et-Cher;Villeneuve-Frouville 41284;E1.3167;N47.7833;13;
3;France;Centre;Loir-et-Cher;Villeny 41285;E1.7500;N47.6167;13;
3;France;Centre;Loir-et-Cher;Villeporcher 41286;E1.0000;N47.6333;13;
3;France;Centre;Loir-et-Cher;Villerable 41287;E1.0333;N47.7500;13;
3;France;Centre;Loir-et-Cher;Villerbon 41288;E1.3667;N47.6667;13;
3;France;Centre;Loir-et-Cher;Villermain 41289;E1.5333;N47.8667;13;
3;France;Centre;Loir-et-Cher;Villeromain 41290;E1.1500;N47.7333;13;
3;France;Centre;Loir-et-Cher;Villetrun 41291;E1.1667;N47.7833;13;
3;France;Centre;Loir-et-Cher;Villexanton 41292;E1.4167;N47.7333;13;
3;France;Centre;Loir-et-Cher;Villiers-sur-Loir 41294;E1.0000;N47.8000;13;
3;France;Centre;Loir-et-Cher;Villiersfaux 41293;E0.9833;N47.7500;13;
3;France;Centre;Loir-et-Cher;Vineuil 41295;E1.3833;N47.5833;13;
3;France;Centre;Loir-et-Cher;Vouzon 41296;E2.0593;N47.6500;13;
3;France;Centre;Loir-et-Cher;Yvoy-le-Marron 41297;E1.8500;N47.6333;13;
2;France;Centre;Loiret;;E2.4719;N48.0230;9;
3;France;Centre;Loiret;Adon 45001;E2.8000;N47.7667;13;
3;France;Centre;Loiret;Aillant-sur-Milleron 45002;E2.9333;N47.8000;13;
3;France;Centre;Loiret;Allainville-en-Beauce 45003=45240;E2.0500;N48.2333;13;
3;France;Centre;Loiret;Amilly 45004;E2.7600;N47.9700;13;
3;France;Centre;Loiret;Andonville 45005;E2.0167;N48.2667;13;
3;France;Centre;Loiret;Ardon 45006;E1.8667;N47.7833;13;
3;France;Centre;Loiret;Arrabloy 45007=45155;E2.7167;N47.7000;13;
3;France;Centre;Loiret;Artenay 45008;E1.8833;N48.0833;13;
3;France;Centre;Loiret;Aschères-le-Marché 45009;E2.0088;N48.1089;13;
3;France;Centre;Loiret;Ascoux 45010;E2.2500;N48.1167;13;
3;France;Centre;Loiret;Attray 45011;E2.1167;N48.1167;13;
3;France;Centre;Loiret;Audeville 45012;E2.2333;N48.2667;13;
3;France;Centre;Loiret;Augerville-la-Rivière 45013;E2.4333;N48.2500;13;
3;France;Centre;Loiret;Aulnay-la-Rivière 45014;E2.3833;N48.2000;13;
3;France;Centre;Loiret;Autruy-sur-Juine 45015;E2.1000;N48.2667;13;
3;France;Centre;Loiret;Autry-le-Châtel 45016;E2.6000;N47.5833;13;
3;France;Centre;Loiret;Auvilliers-en-Gâtinais 45017;E2.5000;N47.9667;13;
3;France;Centre;Loiret;Auxy 45018;E2.4667;N48.1167;13;
3;France;Centre;Loiret;Baccon 45019;E1.6333;N47.8833;13;
3;France;Centre;Loiret;Barville-en-Gâtinais 45021;E2.4000;N48.1167;13;
3;France;Centre;Loiret;Batilly-en-Gâtinais 45022;E2.3833;N48.0667;13;
3;France;Centre;Loiret;Batilly-en-Puisaye 45023;E2.8833;N47.6000;13;
3;France;Centre;Loiret;Baule 45024;E1.6667;N47.8167;13;
3;France;Centre;Loiret;Bazoches-les-Gallerandes 45025;E2.0500;N48.1667;13;
3;France;Centre;Loiret;Bazoches-sur-le-Betz 45026;E2.9833;N48.1333;13;
3;France;Centre;Loiret;Beauchamps-sur-Huillard 45027;E2.4500;N47.9333;13;
3;France;Centre;Loiret;Beaugency 45028;E1.6333;N47.7833;13;
3;France;Centre;Loiret;Beaulieu-sur-Loire 45029;E2.8167;N47.5427;13;
3;France;Centre;Loiret;Beaune-la-Rolande 45030;E2.4333;N48.0667;13;
3;France;Centre;Loiret;Bellegarde 45031;E2.4333;N47.9833;13;
3;France;Centre;Loiret;Boësses 45033;E2.4500;N48.1500;13;
3;France;Centre;Loiret;Boigny-sur-Bionne 45034;E2.0167;N47.9333;13;
3;France;Centre;Loiret;Boiscommun 45035;E2.3833;N48.0333;13;
3;France;Centre;Loiret;Boismorand 45036;E2.7167;N47.7833;13;
3;France;Centre;Loiret;Boisseaux 45037;E1.9833;N48.2500;13;
3;France;Centre;Loiret;Bondaroy 45038;E2.2833;N48.1667;13;
3;France;Centre;Loiret;Bonnée 45039;E2.3833;N47.8000;13;
3;France;Centre;Loiret;Bonny-sur-Loire 45040;E2.8333;N47.5667;13;
3;France;Centre;Loiret;Bordeaux-en-Gâtinais 45041;E2.5167;N48.1000;13;
3;France;Centre;Loiret;Bou 45043;E2.0500;N47.8667;13;
3;France;Centre;Loiret;Bougy-lez-Neuville 45044;E2.0333;N48.0333;13;
3;France;Centre;Loiret;Bouilly-en-Gâtinais 45045;E2.2833;N48.0833;13;
3;France;Centre;Loiret;Boulay-les-Barres 45046;E1.7833;N47.9833;13;
3;France;Centre;Loiret;Bouzonville-aux-Bois 45047;E2.2333;N48.1000;13;
3;France;Centre;Loiret;Bouzonville-en-Beauce 45048=45253;E2.2333;N48.2000;13;
3;France;Centre;Loiret;Bouzy-la-Forêt 45049;E2.3833;N47.8500;13;
3;France;Centre;Loiret;Boynes 45050;E2.3500;N48.1167;13;
3;France;Centre;Loiret;Bray-en-Val 45051;E2.3667;N47.8333;13;
3;France;Centre;Loiret;Breteau 45052;E2.9000;N47.6833;13;
3;France;Centre;Loiret;Briare 45053;E2.7333;N47.6333;13;
3;France;Centre;Loiret;Briarres-sur-Essonne 45054;E2.4167;N48.2333;13;
3;France;Centre;Loiret;Bricy 45055;E1.7833;N48.0000;13;
3;France;Centre;Loiret;Bromeilles 45056;E2.5000;N48.1833;13;
3;France;Centre;Loiret;Bucy-le-Roi 45058;E1.9167;N48.0667;13;
3;France;Centre;Loiret;Bucy-Saint-Liphard 45059;E1.7667;N47.9333;13;
3;France;Centre;Loiret;Cepoy 45061;E2.7333;N48.0500;13;
3;France;Centre;Loiret;Cercottes 45062;E1.8833;N47.9833;13;
3;France;Centre;Loiret;Cerdon 45063;E2.3667;N47.6333;13;
3;France;Centre;Loiret;Cernoy-en-Berry 45064;E2.6667;N47.5414;13;
3;France;Centre;Loiret;Césarville-Dossainville 45065;E2.2667;N48.2500;13;
3;France;Centre;Loiret;Chailly-en-Gâtinais 45066;E2.5500;N47.9500;13;
3;France;Centre;Loiret;Chaingy 45067;E1.7667;N47.8833;13;
3;France;Centre;Loiret;Châlette-sur-Loing 45068;E2.7333;N48.0167;13;
3;France;Centre;Loiret;Chambon-la-Forêt 45069;E2.3000;N48.0500;13;
3;France;Centre;Loiret;Champoulet 45070;E2.9167;N47.6667;13;
3;France;Centre;Loiret;Changy 45071=45332;E2.6871;N47.8563;13;
3;France;Centre;Loiret;Chanteau 45072;E1.9667;N47.9667;13;
3;France;Centre;Loiret;Chantecoq 45073;E2.9667;N48.0500;13;
3;France;Centre;Loiret;Chapelon 45078;E2.5833;N48.0333;13;
3;France;Centre;Loiret;Charmont-en-Beauce 45080;E2.1000;N48.2333;13;
3;France;Centre;Loiret;Charsonville 45081;E1.5833;N47.9333;13;
3;France;Centre;Loiret;Château-Renard 45083;E2.2333;N47.8667;13;
3;France;Centre;Loiret;Châteauneuf-sur-Loire 45082;E2.9333;N47.9333;13;
3;France;Centre;Loiret;Châtenoy 45084;E2.4000;N47.9167;13;
3;France;Centre;Loiret;Châtillon-Coligny 45085;E2.8500;N47.8333;13;
3;France;Centre;Loiret;Châtillon-le-Roi 45086;E2.1000;N48.1500;13;
3;France;Centre;Loiret;Châtillon-sur-Loire 45087;E2.7500;N47.5833;13;
3;France;Centre;Loiret;Chaussy 45088;E1.9833;N48.1667;13;
3;France;Centre;Loiret;Chécy 45089;E2.0167;N47.9000;13;
3;France;Centre;Loiret;Chemault 45090=45035;E2.3500;N48.0500;13;
3;France;Centre;Loiret;Chevannes 45091;E2.8583;N48.1333;13;
3;France;Centre;Loiret;Chevillon-sur-Huillard 45092;E2.6333;N47.9667;13;
3;France;Centre;Loiret;Chevilly 45093;E1.8833;N48.0333;13;
3;France;Centre;Loiret;Chevry-sous-le-Bignon 45094;E2.9000;N48.1333;13;
3;France;Centre;Loiret;Chilleurs-aux-Bois 45095;E2.1333;N48.0667;13;
3;France;Centre;Loiret;Chuelles 45097;E2.9667;N48.0000;13;
3;France;Centre;Loiret;Cléry-Saint-André 45098;E1.7500;N47.8167;13;
3;France;Centre;Loiret;Coinces 45099;E1.7500;N48.0167;13;
3;France;Centre;Loiret;Combleux 45100;E1.9833;N47.9000;13;
3;France;Centre;Loiret;Combreux 45101;E2.3000;N47.9500;13;
3;France;Centre;Loiret;Conflans-sur-Loing 45102;E2.7833;N47.9500;13;
3;France;Centre;Loiret;Corbeilles 45103;E2.5500;N48.0667;13;
3;France;Centre;Loiret;Corquilleroy 45104;E2.7000;N48.0500;13;
3;France;Centre;Loiret;Cortrat 45105;E2.7667;N47.9000;13;
3;France;Centre;Loiret;Coudray 45106;E2.3667;N48.2667;13;
3;France;Centre;Loiret;Coudroy 45107;E2.4667;N47.9167;13;
3;France;Centre;Loiret;Coullons 45108;E2.5000;N47.6167;13;
3;France;Centre;Loiret;Coulmiers 45109;E1.6667;N47.9333;13;
3;France;Centre;Loiret;Courcelles 45110;E2.3167;N48.0833;13;
3;France;Centre;Loiret;Courcy-aux-Loges 45111;E2.2167;N48.0667;13;
3;France;Centre;Loiret;Courtemaux 45113;E2.9333;N48.0500;13;
3;France;Centre;Loiret;Courtempierre 45114;E2.6167;N48.1000;13;
3;France;Centre;Loiret;Courtenay 45115;E3.0500;N48.0333;13;
3;France;Centre;Loiret;Cravant 45116;E1.5667;N47.8333;13;
3;France;Centre;Loiret;Creusy 45117=45093;E1.8634;N48.0552;13;
3;France;Centre;Loiret;Crottes-en-Pithiverais 45118;E2.0667;N48.1167;13;
3;France;Centre;Loiret;Dadonville 45119;E2.2667;N48.1500;13;
3;France;Centre;Loiret;Dammarie-en-Puisaye 45120;E2.8667;N47.6333;13;
3;France;Centre;Loiret;Dammarie-sur-Loing 45121;E2.8833;N47.7833;13;
3;France;Centre;Loiret;Dampierre-en-Burly 45122;E2.5167;N47.7667;13;
3;France;Centre;Loiret;Darvoy 45123;E2.1000;N47.8667;13;
3;France;Centre;Loiret;Desmonts 45124;E2.5000;N48.2333;13;
3;France;Centre;Loiret;Dimancheville 45125;E2.4333;N48.2333;13;
3;France;Centre;Loiret;Donnery 45126;E2.1000;N47.9167;13;
3;France;Centre;Loiret;Dordives 45127;E2.7667;N48.1500;13;
3;France;Centre;Loiret;Dossainville 45128=45065;E2.2667;N48.2500;13;
3;France;Centre;Loiret;Douchy 45129;E3.0500;N47.9500;13;
3;France;Centre;Loiret;Dry 45130;E1.7167;N47.8000;13;
3;France;Centre;Loiret;Échilleuses 45131;E2.4333;N48.1667;13;
3;France;Centre;Loiret;Égry 45132;E2.4333;N48.1000;13;
3;France;Centre;Loiret;Engenville 45133;E2.2500;N48.2333;13;
3;France;Centre;Loiret;Épieds-en-Beauce 45134;E1.6167;N47.9500;13;
3;France;Centre;Loiret;Erceville 45135;E2.0333;N48.2333;13;
3;France;Centre;Loiret;Ervauville 45136;E2.9833;N48.0833;13;
3;France;Centre;Loiret;Escrennes 45137;E2.1833;N48.1333;13;
3;France;Centre;Loiret;Escrignelles 45138;E2.8167;N47.7167;13;
3;France;Centre;Loiret;Estouy 45139;E2.3167;N48.1833;13;
3;France;Centre;Loiret;Faronville 45140=45240;E2.0500;N48.2167;13;
3;France;Centre;Loiret;Faverelles 45141;E2.9333;N47.5667;13;
3;France;Centre;Loiret;Fay-aux-Loges 45142;E2.1333;N47.9333;13;
3;France;Centre;Loiret;Feins-en-Gâtinais 45143;E2.8500;N47.7500;13;
3;France;Centre;Loiret;Férolles 45144;E2.1167;N47.8333;13;
3;France;Centre;Loiret;Ferrières-en-Gâtinais 45145;E2.7833;N48.0833;13;
3;France;Centre;Loiret;Fleury-les-Aubrais 45147;E1.9167;N47.9333;13;
3;France;Centre;Loiret;Fontenay-sur-Loing 45148;E2.7667;N48.1000;13;
3;France;Centre;Loiret;Foucherolles 45149;E3.0167;N48.0833;13;
3;France;Centre;Loiret;Fréville-du-Gâtinais 45150;E2.4333;N48.0167;13;
3;France;Centre;Loiret;Gaubertin 45151;E2.4167;N48.1167;13;
3;France;Centre;Loiret;Gémigny 45152;E1.7000;N47.9667;13;
3;France;Centre;Loiret;Germigny-des-Prés 45153;E2.2667;N47.8500;13;
3;France;Centre;Loiret;Gidy 45154;E1.8333;N47.9833;13;
3;France;Centre;Loiret;Gien 45155;E2.6333;N47.7000;13;
3;France;Centre;Loiret;Girolles 45156;E2.7167;N48.0667;13;
3;France;Centre;Loiret;Givraines 45157;E2.3667;N48.1500;13;
3;France;Centre;Loiret;Gondreville 45158;E2.6500;N48.0500;13;
3;France;Centre;Loiret;Grangermont 45159;E2.4167;N48.1833;13;
3;France;Centre;Loiret;Greneville-en-Beauce 45160;E2.1167;N48.1833;13;
3;France;Centre;Loiret;Griselles 45161;E2.8333;N48.0833;13;
3;France;Centre;Loiret;Guigneville 45162;E2.1667;N48.2000;13;
3;France;Centre;Loiret;Guignonville 45163=45160;E2.1167;N48.2000;13;
3;France;Centre;Loiret;Guilly 45164;E2.2833;N47.8000;13;
3;France;Centre;Loiret;Gy-les-Nonains 45165;E2.8500;N47.9333;13;
3;France;Centre;Loiret;Huêtre 45166;E1.8000;N48.0167;13;
3;France;Centre;Loiret;Huisseau-sur-Mauves 45167;E1.7000;N47.9000;13;
3;France;Centre;Loiret;Ingrannes 45168;E2.2000;N47.9833;13;
3;France;Centre;Loiret;Ingré 45169;E1.8167;N47.9167;13;
3;France;Centre;Loiret;Intville-la-Guétard 45170;E2.2167;N48.2500;13;
3;France;Centre;Loiret;Isdes 45171;E2.2500;N47.6667;13;
3;France;Centre;Loiret;Izy 45172=45025;E2.0667;N48.1333;13;
3;France;Centre;Loiret;Jargeau 45173;E2.1167;N47.8667;13;
3;France;Centre;Loiret;Jouy-en-Pithiverais 45174;E2.1167;N48.1333;13;
3;France;Centre;Loiret;Jouy-le-Potier 45175;E1.8167;N47.7500;13;
3;France;Centre;Loiret;Juranville 45176;E2.5000;N48.0500;13;
3;France;Centre;Loiret;La Bussière 45060;E2.7500;N47.7333;13;
3;France;Centre;Loiret;La Chapelle-Onzerain 45074;E1.6167;N48.0333;13;
3;France;Centre;Loiret;La Chapelle-Saint-Mesmin 45075;E1.8333;N47.8833;13;
3;France;Centre;Loiret;La Chapelle-Saint-Sépulcre 45076;E2.8500;N48.0167;13;
3;France;Centre;Loiret;La Chapelle-sur-Aveyron 45077;E2.8667;N47.8667;13;
3;France;Centre;Loiret;La Cour-Marigny 45112;E2.6000;N47.9000;13;
3;France;Centre;Loiret;La Ferté-Saint-Aubin 45146;E1.9333;N47.7167;13;
3;France;Centre;Loiret;La Neuville-sur-Essonne 45225;E2.3667;N48.1833;13;
3;France;Centre;Loiret;La Selle-en-Hermoy 45306;E2.9000;N48.0167;13;
3;France;Centre;Loiret;La Selle-sur-le-Bied 45307;E2.8833;N48.0667;13;
3;France;Centre;Loiret;Laas 45177;E2.2167;N48.1167;13;
3;France;Centre;Loiret;Labrosse 45057;E2.3833;N48.2333;13;
3;France;Centre;Loiret;Ladon 45178;E2.5333;N48.0000;13;
3;France;Centre;Loiret;Lailly-en-Val 45179;E1.6833;N47.7667;13;
3;France;Centre;Loiret;Langesse 45180;E2.6667;N47.8167;13;
3;France;Centre;Loiret;Le Bardon 45020;E1.6500;N47.8500;13;
3;France;Centre;Loiret;Le Bignon-Mirabeau 45032;E2.9167;N48.1500;13;
3;France;Centre;Loiret;Le Charme 45079;E3.0000;N47.8000;13;
3;France;Centre;Loiret;Le Moulinet-sur-Solin 45218;E2.6167;N47.8333;13;
3;France;Centre;Loiret;Léouville 45181;E2.0833;N48.2167;13;
3;France;Centre;Loiret;Les Bordes 45042;E2.4000;N47.8167;13;
3;France;Centre;Loiret;Les Choux 45096;E2.6667;N47.8000;13;
3;France;Centre;Loiret;Ligny-le-Ribault 45182;E1.7833;N47.6833;13;
3;France;Centre;Loiret;Lion-en-Beauce 45183;E1.9333;N48.1333;13;
3;France;Centre;Loiret;Lion-en-Sullias 45184;E2.4833;N47.7333;13;
3;France;Centre;Loiret;Lombreuil 45185;E2.6333;N47.9500;13;
3;France;Centre;Loiret;Lorcy 45186;E2.5333;N48.0500;13;
3;France;Centre;Loiret;Lorris 45187;E2.5167;N47.8833;13;
3;France;Centre;Loiret;Loury 45188;E2.0833;N48.0000;13;
3;France;Centre;Loiret;Louzouer 45189;E2.8833;N48.0333;13;
3;France;Centre;Loiret;Mainvilliers 45190;E2.2833;N48.3000;13;
3;France;Centre;Loiret;Malesherbes 45191;E2.4167;N48.3000;13;
3;France;Centre;Loiret;Manchecourt 45192;E2.3333;N48.2333;13;
3;France;Centre;Loiret;Marcilly-en-Villette 45193;E2.0167;N47.7667;13;
3;France;Centre;Loiret;Mardié 45194;E2.0500;N47.8833;13;
3;France;Centre;Loiret;Mareau-aux-Bois 45195;E2.1833;N48.1000;13;
3;France;Centre;Loiret;Mareau-aux-Prés 45196;E1.7833;N47.8667;13;
3;France;Centre;Loiret;Marigny-les-Usages 45197;E2.0167;N47.9500;13;
3;France;Centre;Loiret;Marsainvilliers 45198;E2.2833;N48.2167;13;
3;France;Centre;Loiret;Melleroy 45199;E2.9500;N47.9000;13;
3;France;Centre;Loiret;Ménestreau-en-Villette 45200;E2.0167;N47.7000;13;
3;France;Centre;Loiret;Mérinville 45201;E2.9333;N48.0833;13;
3;France;Centre;Loiret;Messas 45202;E1.6333;N47.8000;13;
3;France;Centre;Loiret;Meung-sur-Loire 45203;E1.7000;N47.8333;13;
3;France;Centre;Loiret;Mézières-en-Gâtinais 45205;E2.4833;N48.0333;13;
3;France;Centre;Loiret;Mézières-lez-Cléry 45204;E1.8000;N47.8167;13;
3;France;Centre;Loiret;Mignères 45206;E2.6333;N48.0500;13;
3;France;Centre;Loiret;Mignerette 45207;E2.6000;N48.0500;13;
3;France;Centre;Loiret;Montargis 45208;E2.7500;N48.0000;13;
3;France;Centre;Loiret;Montbarrois 45209;E2.4000;N48.0500;13;
3;France;Centre;Loiret;Montbouy 45210;E2.8167;N47.8667;13;
3;France;Centre;Loiret;Montcorbon 45211;E3.0667;N47.9667;13;
3;France;Centre;Loiret;Montcresson 45212;E2.8167;N47.9000;13;
3;France;Centre;Loiret;Montereau 45213;E2.5667;N47.8500;13;
3;France;Centre;Loiret;Montigny 45214;E2.1167;N48.1167;13;
3;France;Centre;Loiret;Montliard 45215;E2.4000;N48.0167;13;
3;France;Centre;Loiret;Mormant-sur-Vernisson 45216;E2.7333;N47.9500;13;
3;France;Centre;Loiret;Morville-en-Beauce 45217;E2.1667;N48.2500;13;
3;France;Centre;Loiret;Moulon 45219;E2.6000;N48.0167;13;
3;France;Centre;Loiret;Nancray-sur-Rimarde 45220;E2.3333;N48.0667;13;
3;France;Centre;Loiret;Nangeville 45221;E2.3167;N48.3000;13;
3;France;Centre;Loiret;Nargis 45222;E2.7500;N48.1000;13;
3;France;Centre;Loiret;Nesploy 45223;E2.3667;N48.0000;13;
3;France;Centre;Loiret;Neuville-aux-Bois 45224;E2.0500;N48.0667;13;
3;France;Centre;Loiret;Neuvy-en-Sullias 45226;E2.2500;N47.8000;13;
3;France;Centre;Loiret;Nevoy 45227;E2.5833;N47.7167;13;
3;France;Centre;Loiret;Nibelle 45228;E2.3333;N48.0167;13;
3;France;Centre;Loiret;Nogent-sur-Vernisson 45229;E2.7500;N47.8500;13;
3;France;Centre;Loiret;Noyers 45230;E2.5167;N47.9167;13;
3;France;Centre;Loiret;Oison 45231;E1.9667;N48.1333;13;
3;France;Centre;Loiret;Olivet 45232;E1.9000;N47.8667;13;
3;France;Centre;Loiret;Ondreville-sur-Essonne 45233;E2.4000;N48.2000;13;
3;France;Centre;Loiret;Orléans 45234;E1.9000;N47.9167;13;
3;France;Centre;Loiret;Ormes 45235;E1.8000;N47.9333;13;
3;France;Centre;Loiret;Orveau-Bellesauve 45236;E2.3333;N48.2833;13;
3;France;Centre;Loiret;Orville 45237;E2.4333;N48.2333;13;
3;France;Centre;Loiret;Ousson-sur-Loire 45238;E2.7833;N47.5833;13;
3;France;Centre;Loiret;Oussoy-en-Gâtinais 45239;E2.6500;N47.9167;13;
3;France;Centre;Loiret;Outarville 45240;E2.0167;N48.2167;13;
3;France;Centre;Loiret;Ouvrouer-les-Champs 45241;E2.1667;N47.8167;13;
3;France;Centre;Loiret;Ouzouer-des-Champs 45242;E2.7000;N47.8833;13;
3;France;Centre;Loiret;Ouzouer-sous-Bellegarde 45243;E2.4667;N47.9833;13;
3;France;Centre;Loiret;Ouzouer-sur-Loire 45244;E2.4833;N47.7667;13;
3;France;Centre;Loiret;Ouzouer-sur-Trézée 45245;E2.8000;N47.6667;13;
3;France;Centre;Loiret;Pannecières 45246;E2.1500;N48.2833;13;
3;France;Centre;Loiret;Pannes 45247;E2.6667;N48.0167;13;
3;France;Centre;Loiret;Patay 45248;E1.7000;N48.0500;13;
3;France;Centre;Loiret;Paucourt 45249;E2.8000;N48.0333;13;
3;France;Centre;Loiret;Pers-en-Gâtinais 45250;E2.9000;N48.1167;13;
3;France;Centre;Loiret;Pierrefitte-ès-Bois 45251;E2.7167;N47.5083;13;
3;France;Centre;Loiret;Pithiviers 45252;E2.2500;N48.1667;13;
3;France;Centre;Loiret;Pithiviers-le-Vieil 45253;E2.2167;N48.1667;13;
3;France;Centre;Loiret;Poilly-lez-Gien 45254;E2.6000;N47.6833;13;
3;France;Centre;Loiret;Préfontaines 45255;E2.6833;N48.1000;13;
3;France;Centre;Loiret;Presnoy 45256;E2.5500;N47.9500;13;
3;France;Centre;Loiret;Pressigny-les-Pins 45257;E2.7500;N47.8833;13;
3;France;Centre;Loiret;Puiseaux 45258;E2.4667;N48.2000;13;
3;France;Centre;Loiret;Quiers-sur-Bézonde 45259;E2.4333;N48.0000;13;
3;France;Centre;Loiret;Ramoulu 45260;E2.2833;N48.2167;13;
3;France;Centre;Loiret;Rebréchien 45261;E2.0500;N47.9833;13;
3;France;Centre;Loiret;Rosoy-le-Vieil 45265;E2.9333;N48.1167;13;
3;France;Centre;Loiret;Rouvray-Sainte-Croix 45262;E1.7333;N48.0500;13;
3;France;Centre;Loiret;Rouvres-Saint-Jean 45263;E2.2167;N48.3167;13;
3;France;Centre;Loiret;Rozières-en-Beauce 45264;E1.7000;N47.9333;13;
3;France;Centre;Loiret;Ruan 45266;E1.9333;N48.1000;13;
3;France;Centre;Loiret;Saint-Aignan-des-Gués 45267;E2.3167;N47.8500;13;
3;France;Centre;Loiret;Saint-Aignan-le-Jaillard 45268;E2.4333;N47.7500;13;
3;France;Centre;Loiret;Saint-Ay 45269;E1.7500;N47.8500;13;
3;France;Centre;Loiret;Saint-Benoît-sur-Loire 45270;E2.3000;N47.8167;13;
3;France;Centre;Loiret;Saint-Brisson-sur-Loire 45271;E2.6833;N47.6500;13;
3;France;Centre;Loiret;Saint-Cyr-en-Val 45272;E1.9667;N47.8333;13;
3;France;Centre;Loiret;Saint-Denis-de-l'Hôtel 45273;E2.1167;N47.8667;13;
3;France;Centre;Loiret;Saint-Denis-en-Val 45274;E1.9500;N47.8833;13;
3;France;Centre;Loiret;Saint-Firmin-des-Bois 45275;E2.9167;N47.9667;13;
3;France;Centre;Loiret;Saint-Firmin-sur-Loire 45276;E2.7333;N47.6167;13;
3;France;Centre;Loiret;Saint-Florent 45277;E2.4667;N47.6833;13;
3;France;Centre;Loiret;Saint-Germain-des-Prés 45279;E2.8500;N47.9500;13;
3;France;Centre;Loiret;Saint-Gondon 45280;E2.5333;N47.7000;13;
3;France;Centre;Loiret;Saint-Hilaire-les-Andrésis 45281;E3.0167;N48.0500;13;
3;France;Centre;Loiret;Saint-Hilaire-Saint-Mesmin 45282;E1.8333;N47.8667;13;
3;France;Centre;Loiret;Saint-Hilaire-sur-Puiseaux 45283;E2.7000;N47.9000;13;
3;France;Centre;Loiret;Saint-Jean-de-Braye 45284;E1.9667;N47.9000;13;
3;France;Centre;Loiret;Saint-Jean-de-la-Ruelle 45285;E1.8667;N47.9167;13;
3;France;Centre;Loiret;Saint-Jean-le-Blanc 45286;E1.9167;N47.9000;13;
3;France;Centre;Loiret;Saint-Loup-de-Gonois 45287;E2.9167;N48.0500;13;
3;France;Centre;Loiret;Saint-Loup-des-Vignes 45288;E2.4167;N48.0333;13;
3;France;Centre;Loiret;Saint-Lyé-la-Forêt 45289;E1.9833;N48.0500;13;
3;France;Centre;Loiret;Saint-Martin-d'Abbat 45290;E2.2667;N47.8500;13;
3;France;Centre;Loiret;Saint-Martin-sur-Ocre 45291;E2.6667;N47.6500;13;
3;France;Centre;Loiret;Saint-Maurice-sur-Aveyron 45292;E2.9333;N47.8500;13;
3;France;Centre;Loiret;Saint-Maurice-sur-Fessard 45293;E2.6167;N48.0000;13;
3;France;Centre;Loiret;Saint-Michel 45294;E2.3667;N48.0667;13;
3;France;Centre;Loiret;Saint-Péravy-Épreux 45295=45240;E1.9833;N48.2167;13;
3;France;Centre;Loiret;Saint-Péravy-la-Colombe 45296;E1.7000;N48.0000;13;
3;France;Centre;Loiret;Saint-Père-sur-Loire 45297;E2.3667;N47.7667;13;
3;France;Centre;Loiret;Saint-Pryvé-Saint-Mesmin 45298;E1.8667;N47.8833;13;
3;France;Centre;Loiret;Saint-Sigismond 45299;E1.6833;N47.9833;13;
3;France;Centre;Loiret;Sainte-Geneviève-des-Bois 45278;E2.8167;N47.8167;13;
3;France;Centre;Loiret;Sandillon 45300;E2.0333;N47.8500;13;
3;France;Centre;Loiret;Santeau 45301;E2.1500;N48.0833;13;
3;France;Centre;Loiret;Saran 45302;E1.8833;N47.9500;13;
3;France;Centre;Loiret;Sceaux-du-Gâtinais 45303;E2.6000;N48.1000;13;
3;France;Centre;Loiret;Sébouville 45304=45162;E2.1333;N48.2000;13;
3;France;Centre;Loiret;Seichebrières 45305;E2.2667;N47.9667;13;
3;France;Centre;Loiret;Semoy 45308;E1.9500;N47.9333;13;
3;France;Centre;Loiret;Sennely 45309;E2.1500;N47.6833;13;
3;France;Centre;Loiret;Sermaises 45310;E2.2000;N48.3000;13;
3;France;Centre;Loiret;Sigloy 45311;E2.2333;N47.8333;13;
3;France;Centre;Loiret;Solterre 45312;E2.7500;N47.9000;13;
3;France;Centre;Loiret;Sougy 45313;E1.7833;N48.0500;13;
3;France;Centre;Loiret;Sully-la-Chapelle 45314;E2.1833;N47.9667;13;
3;France;Centre;Loiret;Sully-sur-Loire 45315;E2.3667;N47.7667;13;
3;France;Centre;Loiret;Sury-aux-Bois 45316;E2.3333;N47.9667;13;
3;France;Centre;Loiret;Tavers 45317;E1.6167;N47.7500;13;
3;France;Centre;Loiret;Teillay-le-Gaudin 45318=45240;E1.9833;N48.1833;13;
3;France;Centre;Loiret;Teillay-Saint-Benoît 45319=45118;E2.0667;N48.1000;13;
3;France;Centre;Loiret;Thignonville 45320;E2.1667;N48.2833;13;
3;France;Centre;Loiret;Thimory 45321;E2.6000;N47.9167;13;
3;France;Centre;Loiret;Thorailles 45322;E2.9000;N48.0167;13;
3;France;Centre;Loiret;Thou 45323;E2.9000;N47.5667;13;
3;France;Centre;Loiret;Tigy 45324;E2.2000;N47.8000;13;
3;France;Centre;Loiret;Tivernon 45325;E1.9333;N48.1500;13;
3;France;Centre;Loiret;Tournoisis 45326;E1.6333;N48.0000;13;
3;France;Centre;Loiret;Traînou 45327;E2.1000;N47.9667;13;
3;France;Centre;Loiret;Treilles-en-Gâtinais 45328;E2.6500;N48.0667;13;
3;France;Centre;Loiret;Triguères 45329;E2.9833;N47.9333;13;
3;France;Centre;Loiret;Trinay 45330;E1.9500;N48.0833;13;
3;France;Centre;Loiret;Vannes-sur-Cosson 45331;E2.2167;N47.7167;13;
3;France;Centre;Loiret;Varennes-Changy 45332;E2.6500;N47.8500;13;
3;France;Centre;Loiret;Vennecy 45333;E2.0500;N47.9500;13;
3;France;Centre;Loiret;Vieilles-Maisons-sur-Joudry 45334;E2.4333;N47.8833;13;
3;France;Centre;Loiret;Vienne-en-Val 45335;E2.1333;N47.8000;13;
3;France;Centre;Loiret;Viglain 45336;E2.3000;N47.7333;13;
3;France;Centre;Loiret;Villamblain 45337;E1.5500;N48.0167;13;
3;France;Centre;Loiret;Villemandeur 45338;E2.7000;N47.9833;13;
3;France;Centre;Loiret;Villemoutiers 45339;E2.5500;N48.0000;13;
3;France;Centre;Loiret;Villemurlin 45340;E2.3333;N47.6833;13;
3;France;Centre;Loiret;Villeneuve-sur-Conie 45341;E1.6500;N48.0500;13;
3;France;Centre;Loiret;Villereau 45342;E1.9833;N48.0667;13;
3;France;Centre;Loiret;Villevoques 45343;E2.6333;N48.0333;13;
3;France;Centre;Loiret;Villorceau 45344;E1.6000;N47.8000;13;
3;France;Centre;Loiret;Vimory 45345;E2.6833;N47.9500;13;
3;France;Centre;Loiret;Vitry-aux-Loges 45346;E2.2649;N47.9407;13;
3;France;Centre;Loiret;Vrigny 45347;E2.2333;N48.0833;13;
3;France;Centre;Loiret;Yèvre-la-Ville 45348;E2.3167;N48.1333;13;
3;France;Centre;Loiret;Yèvre-le-Châtel 45349=45348;E2.3333;N48.1500;13;
