"Level";"Country";"State";"County";"Place";"Longitude";"Latitude";"ZoomLevel";"Icon"
2;FRA;Languedoc-Roussillon;Aude;;E2.30;N43.05;10;
3;FRA;Languedoc-Roussillon;Aude;Aigues-Vives 11001;E2.5342;N43.2305;13;
3;FRA;Languedoc-Roussillon;Aude;Airoux 11002;E1.8667;N43.3667;13;
3;FRA;Languedoc-Roussillon;Aude;Ajac 11003;E2.1500;N43.0500;13;
3;FRA;Languedoc-Roussillon;Aude;Alaigne 11004;E2.1000;N43.1167;13;
3;FRA;Languedoc-Roussillon;Aude;Alairac 11005;E2.2500;N43.1833;13;
3;FRA;Languedoc-Roussillon;Aude;Albas 11006;E2.7333;N43.0000;13;
3;FRA;Languedoc-Roussillon;Aude;Albières 11007;E2.4833;N42.9500;13;
3;FRA;Languedoc-Roussillon;Aude;Alet-les-Bains 11008;E2.2667;N43.0000;13;
3;FRA;Languedoc-Roussillon;Aude;Alzonne 11009;E2.1833;N43.2667;13;
3;FRA;Languedoc-Roussillon;Aude;Antugnac 11010;E2.2333;N42.9500;13;
3;FRA;Languedoc-Roussillon;Aude;Aragon 11011;E2.3167;N43.3000;13;
3;FRA;Languedoc-Roussillon;Aude;Argeliers 11012;E2.9167;N43.3167;13;
3;FRA;Languedoc-Roussillon;Aude;Argens-Minervois 11013;E2.7673;N43.2415;13;
3;FRA;Languedoc-Roussillon;Aude;Armissan 11014;E3.1000;N43.1833;13;
3;FRA;Languedoc-Roussillon;Aude;Arques 11015;E2.3833;N42.9500;13;
3;FRA;Languedoc-Roussillon;Aude;Arquettes-en-Val 11016;E2.5020;N43.1041;13;
3;FRA;Languedoc-Roussillon;Aude;Artigues 11017;E2.2167;N42.8000;13;
3;FRA;Languedoc-Roussillon;Aude;Arzens 11018;E2.2167;N43.2000;13;
3;FRA;Languedoc-Roussillon;Aude;Aunat 11019;E2.1000;N42.8000;13;
3;FRA;Languedoc-Roussillon;Aude;Auriac 11020;E2.5000;N42.9333;13;
3;FRA;Languedoc-Roussillon;Aude;Axat 11021;E2.2333;N42.8000;13;
3;FRA;Languedoc-Roussillon;Aude;Azille 11022;E2.6667;N43.2833;13;
3;FRA;Languedoc-Roussillon;Aude;Badens 11023;E2.5167;N43.2167;13;
3;FRA;Languedoc-Roussillon;Aude;Bages 11024;E2.9915;N43.1233;13;
3;FRA;Languedoc-Roussillon;Aude;Bagnoles 11025;E2.4364;N43.2712;13;
3;FRA;Languedoc-Roussillon;Aude;Baraigne 11026;E1.8333;N43.3333;13;
3;FRA;Languedoc-Roussillon;Aude;Barbaira 11027;E2.5167;N43.1833;13;
3;FRA;Languedoc-Roussillon;Aude;Belcaire 11028;E1.9667;N42.8167;13;
3;FRA;Languedoc-Roussillon;Aude;Belcastel-et-Buc 11029;E2.3667;N43.0333;13;
3;FRA;Languedoc-Roussillon;Aude;Belflou 11030;E1.7833;N43.3167;13;
3;FRA;Languedoc-Roussillon;Aude;Belfort-sur-Rebenty 11031;E2.0500;N42.8333;13;
3;FRA;Languedoc-Roussillon;Aude;Bellegarde-du-Razès 11032;E2.0167;N43.1000;13;
3;FRA;Languedoc-Roussillon;Aude;Belpech 11033;E1.7500;N43.2000;13;
3;FRA;Languedoc-Roussillon;Aude;Belvèze-du-Razès 11034;E2.1000;N43.1333;13;
3;FRA;Languedoc-Roussillon;Aude;Belvianes-et-Cavirac 11035;E2.2000;N42.8500;13;
3;FRA;Languedoc-Roussillon;Aude;Belvis 11036;E2.0833;N42.8500;13;
3;FRA;Languedoc-Roussillon;Aude;Berriac 11037;E2.4167;N43.2167;13;
3;FRA;Languedoc-Roussillon;Aude;Bessède-de-Sault 11038;E2.1167;N42.7833;13;
3;FRA;Languedoc-Roussillon;Aude;Bizanet 11040;E2.8833;N43.1667;13;
3;FRA;Languedoc-Roussillon;Aude;Bize-Minervois 11041;E2.8833;N43.3167;13;
3;FRA;Languedoc-Roussillon;Aude;Blomac 11042;E2.6000;N43.2000;13;
3;FRA;Languedoc-Roussillon;Aude;Bouilhonnac 11043;E2.4333;N43.2333;13;
3;FRA;Languedoc-Roussillon;Aude;Bouisse 11044;E2.4500;N42.9833;13;
3;FRA;Languedoc-Roussillon;Aude;Bouriège 11045;E2.1667;N42.9833;13;
3;FRA;Languedoc-Roussillon;Aude;Bourigeole 11046;E2.1333;N42.9833;13;
3;FRA;Languedoc-Roussillon;Aude;Boutenac 11048;E2.8000;N43.1333;13;
3;FRA;Languedoc-Roussillon;Aude;Bram 11049;E2.1167;N43.2500;13;
3;FRA;Languedoc-Roussillon;Aude;Brenac 11050;E2.1500;N42.8833;13;
3;FRA;Languedoc-Roussillon;Aude;Brézilhac 11051;E2.0667;N43.1667;13;
3;FRA;Languedoc-Roussillon;Aude;Brousses-et-Villaret 11052;E2.2667;N43.3500;13;
3;FRA;Languedoc-Roussillon;Aude;Brugairolles 11053;E2.1500;N43.1167;13;
3;FRA;Languedoc-Roussillon;Aude;Bugarach 11055;E2.3500;N42.8833;13;
3;FRA;Languedoc-Roussillon;Aude;Cabrespine 11056;E2.4667;N43.3667;13;
3;FRA;Languedoc-Roussillon;Aude;Cahuzac 11057;E1.8500;N43.1833;13;
3;FRA;Languedoc-Roussillon;Aude;Cailhau 11058;E2.1333;N43.1500;13;
3;FRA;Languedoc-Roussillon;Aude;Cailhavel 11059;E2.1167;N43.1667;13;
3;FRA;Languedoc-Roussillon;Aude;Cailla 11060;E2.2000;N42.8167;13;
3;FRA;Languedoc-Roussillon;Aude;Cambieure 11061;E2.1333;N43.1167;13;
3;FRA;Languedoc-Roussillon;Aude;Campagna-de-Sault 11062;E2.0500;N42.7667;13;
3;FRA;Languedoc-Roussillon;Aude;Campagne-sur-Aude 11063;E2.2000;N42.9167;13;
3;FRA;Languedoc-Roussillon;Aude;Camplong-d'Aude 11064;E2.6500;N43.1333;13;
3;FRA;Languedoc-Roussillon;Aude;Camps-sur-l'Agly 11065;E2.4333;N42.8667;13;
3;FRA;Languedoc-Roussillon;Aude;Camurac 11066;E1.9167;N42.8000;13;
3;FRA;Languedoc-Roussillon;Aude;Canet 11067;E2.8475;N43.2288;13;
3;FRA;Languedoc-Roussillon;Aude;Capendu 11068;E2.5667;N43.1833;13;
3;FRA;Languedoc-Roussillon;Aude;Carcassonne 11069;E2.3500;N43.2167;13;
3;FRA;Languedoc-Roussillon;Aude;Carlipa 11070;E2.1167;N43.3000;13;
3;FRA;Languedoc-Roussillon;Aude;Cascastel-des-Corbières 11071;E2.7500;N42.9833;13;
3;FRA;Languedoc-Roussillon;Aude;Cassaignes 11073;E2.3000;N42.9500;13;
3;FRA;Languedoc-Roussillon;Aude;Castans 11075;E2.4833;N43.4000;13;
3;FRA;Languedoc-Roussillon;Aude;Castelnau-d'Aude 11077;E2.6833;N43.2333;13;
3;FRA;Languedoc-Roussillon;Aude;Castelnaudary 11076;E1.9500;N43.3167;13;
3;FRA;Languedoc-Roussillon;Aude;Castelreng 11078;E2.1333;N43.0333;13;
3;FRA;Languedoc-Roussillon;Aude;Caudebronde 11079;E2.3000;N43.3833;13;
3;FRA;Languedoc-Roussillon;Aude;Caudeval 11080;E1.9500;N43.0667;13;
3;FRA;Languedoc-Roussillon;Aude;Caunes-Minervois 11081;E2.5333;N43.3167;13;
3;FRA;Languedoc-Roussillon;Aude;Caunette-sur-Lauquet 11082;E2.4333;N43.0333;13;
3;FRA;Languedoc-Roussillon;Aude;Caunettes-en-Val 11083;E2.5500;N43.0667;13;
3;FRA;Languedoc-Roussillon;Aude;Caux-et-Sauzens 11084;E2.2500;N43.2333;13;
3;FRA;Languedoc-Roussillon;Aude;Cavanac 11085;E2.3333;N43.1667;13;
3;FRA;Languedoc-Roussillon;Aude;Caves 11086;E2.9833;N42.9333;13;
3;FRA;Languedoc-Roussillon;Aude;Cazalrenoux 11087;E1.9500;N43.2000;13;
3;FRA;Languedoc-Roussillon;Aude;Cazilhac 11088;E2.3614;N43.1821;13;
3;FRA;Languedoc-Roussillon;Aude;Cenne-Monestiés 11089;E2.1167;N43.3333;13;
3;FRA;Languedoc-Roussillon;Aude;Cépie 11090;E2.2500;N43.1000;13;
3;FRA;Languedoc-Roussillon;Aude;Chalabre 11091;E2.0000;N42.9833;13;
3;FRA;Languedoc-Roussillon;Aude;Citou 11092;E2.5500;N43.3833;13;
3;FRA;Languedoc-Roussillon;Aude;Clermont-sur-Lauquet 11094;E2.4167;N43.0500;13;
3;FRA;Languedoc-Roussillon;Aude;Comigne 11095;E2.5833;N43.1667;13;
3;FRA;Languedoc-Roussillon;Aude;Comus 11096;E1.8833;N42.8167;13;
3;FRA;Languedoc-Roussillon;Aude;Conilhac-Corbières 11098;E2.7167;N43.1833;13;
3;FRA;Languedoc-Roussillon;Aude;Conilhac-de-la-Montagne 11097;E2.1917;N42.9833;13;
3;FRA;Languedoc-Roussillon;Aude;Conques-sur-Orbiel 11099;E2.4007;N43.2685;13;
3;FRA;Languedoc-Roussillon;Aude;Corbières 11100;E1.9833;N43.0500;13;
3;FRA;Languedoc-Roussillon;Aude;Coudons 11101;E2.1167;N42.8667;13;
3;FRA;Languedoc-Roussillon;Aude;Couffoulens 11102;E2.3000;N43.1667;13;
3;FRA;Languedoc-Roussillon;Aude;Couiza 11103;E2.2500;N42.9500;13;
3;FRA;Languedoc-Roussillon;Aude;Counozouls 11104;E2.2333;N42.7333;13;
3;FRA;Languedoc-Roussillon;Aude;Cournanel 11105;E2.2500;N43.0333;13;
3;FRA;Languedoc-Roussillon;Aude;Coursan 11106;E3.0667;N43.2333;13;
3;FRA;Languedoc-Roussillon;Aude;Courtauly 11107;E2.0333;N43.0333;13;
3;FRA;Languedoc-Roussillon;Aude;Coustaussa 11109;E2.2833;N42.9500;13;
3;FRA;Languedoc-Roussillon;Aude;Coustouge 11110;E2.7430;N43.0500;13;
3;FRA;Languedoc-Roussillon;Aude;Cruscades 11111;E2.8167;N43.1833;13;
3;FRA;Languedoc-Roussillon;Aude;Cubières-sur-Cinoble 11112;E2.4667;N42.8667;13;
3;FRA;Languedoc-Roussillon;Aude;Cucugnan 11113;E2.6000;N42.8500;13;
3;FRA;Languedoc-Roussillon;Aude;Cumiès 11114;E1.8500;N43.3000;13;
3;FRA;Languedoc-Roussillon;Aude;Cuxac-Cabardès 11115;E2.3000;N43.3667;13;
3;FRA;Languedoc-Roussillon;Aude;Cuxac-d'Aude 11116;E3.0000;N43.2500;13;
3;FRA;Languedoc-Roussillon;Aude;Davejean 11117;E2.6167;N42.9667;13;
3;FRA;Languedoc-Roussillon;Aude;Dernacueillette 11118;E2.6000;N42.9333;13;
3;FRA;Languedoc-Roussillon;Aude;Donazac 11121;E2.1167;N43.0833;13;
3;FRA;Languedoc-Roussillon;Aude;Douzens 11122;E2.6000;N43.1833;13;
3;FRA;Languedoc-Roussillon;Aude;Duilhac-sous-Peyrepertuse 11123;E2.5663;N42.8633;13;
3;FRA;Languedoc-Roussillon;Aude;Durban-Corbières 11124;E2.8167;N43.0000;13;
3;FRA;Languedoc-Roussillon;Aude;Embres-et-Castelmaure 11125;E2.8167;N42.9333;13;
3;FRA;Languedoc-Roussillon;Aude;Escales 11126;E2.7000;N43.2167;13;
3;FRA;Languedoc-Roussillon;Aude;Escouloubre 11127;E2.1333;N42.7333;13;
3;FRA;Languedoc-Roussillon;Aude;Espéraza 11129;E2.2167;N42.9333;13;
3;FRA;Languedoc-Roussillon;Aude;Espezel 11130;E2.0167;N42.8167;13;
3;FRA;Languedoc-Roussillon;Aude;Fa 11131;E2.1833;N42.9333;13;
3;FRA;Languedoc-Roussillon;Aude;Fabrezan 11132;E2.7000;N43.1333;13;
3;FRA;Languedoc-Roussillon;Aude;Fajac-en-Val 11133;E2.4500;N43.1167;13;
3;FRA;Languedoc-Roussillon;Aude;Fajac-la-Relenque 11134;E1.7167;N43.2833;13;
3;FRA;Languedoc-Roussillon;Aude;Fanjeaux 11136;E2.0500;N43.2000;13;
3;FRA;Languedoc-Roussillon;Aude;Félines-Termenès 11137;E2.6167;N42.9833;13;
3;FRA;Languedoc-Roussillon;Aude;Fendeille 11138;E1.9500;N43.2667;13;
3;FRA;Languedoc-Roussillon;Aude;Fenouillet-du-Razès 11139;E2.0167;N43.1500;13;
3;FRA;Languedoc-Roussillon;Aude;Ferrals-les-Corbières 11140;E2.7333;N43.1500;13;
3;FRA;Languedoc-Roussillon;Aude;Ferran 11141;E2.0833;N43.1500;13;
3;FRA;Languedoc-Roussillon;Aude;Festes-et-Saint-André 11142;E2.1500;N42.9667;13;
3;FRA;Languedoc-Roussillon;Aude;Feuilla 11143;E2.9167;N42.9333;13;
3;FRA;Languedoc-Roussillon;Aude;Fitou 11144;E2.9833;N42.9000;13;
3;FRA;Languedoc-Roussillon;Aude;Fleury 11145;E3.1350;N43.2284;13;
3;FRA;Languedoc-Roussillon;Aude;Floure 11146;E2.4833;N43.1833;13;
3;FRA;Languedoc-Roussillon;Aude;Fontanès-de-Sault 11147;E2.0833;N42.7667;13;
3;FRA;Languedoc-Roussillon;Aude;Fontcouverte 11148;E2.7000;N43.1667;13;
3;FRA;Languedoc-Roussillon;Aude;Fonters-du-Razès 11149;E1.9333;N43.2333;13;
3;FRA;Languedoc-Roussillon;Aude;Fontiers-Cabardès 11150;E2.2486;N43.3706;13;
3;FRA;Languedoc-Roussillon;Aude;Fontiès-d'Aude 11151;E2.4500;N43.1833;13;
3;FRA;Languedoc-Roussillon;Aude;Fontjoncouse 11152;E2.7833;N43.0500;13;
3;FRA;Languedoc-Roussillon;Aude;Fournes-Cabardès 11154;E2.4000;N43.3500;13;
3;FRA;Languedoc-Roussillon;Aude;Fourtou 11155;E2.4333;N42.9167;13;
3;FRA;Languedoc-Roussillon;Aude;Fraisse-Cabardès 11156;E2.2750;N43.3250;13;
3;FRA;Languedoc-Roussillon;Aude;Fraissé-des-Corbières 11157;E2.8667;N42.9667;13;
3;FRA;Languedoc-Roussillon;Aude;Gaja-et-Villedieu 11158;E2.2000;N43.0833;13;
3;FRA;Languedoc-Roussillon;Aude;Gaja-la-Selve 11159;E1.8833;N43.2000;13;
3;FRA;Languedoc-Roussillon;Aude;Galinagues 11160;E2.0500;N42.8167;13;
3;FRA;Languedoc-Roussillon;Aude;Gardie 11161;E2.3167;N43.0667;13;
3;FRA;Languedoc-Roussillon;Aude;Generville 11162;E1.9333;N43.2167;13;
3;FRA;Languedoc-Roussillon;Aude;Gincla 11163;E2.3333;N42.7667;13;
3;FRA;Languedoc-Roussillon;Aude;Ginestas 11164;E2.8833;N43.2667;13;
3;FRA;Languedoc-Roussillon;Aude;Ginoles 11165;E2.1500;N42.8667;13;
3;FRA;Languedoc-Roussillon;Aude;Gourvieille 11166;E1.7833;N43.3333;13;
3;FRA;Languedoc-Roussillon;Aude;Gramazie 11167;E2.0833;N43.1333;13;
3;FRA;Languedoc-Roussillon;Aude;Granès 11168;E2.2500;N42.9000;13;
3;FRA;Languedoc-Roussillon;Aude;Greffeil 11169;E2.3833;N43.0833;13;
3;FRA;Languedoc-Roussillon;Aude;Gruissan 11170;E3.0833;N43.1000;13;
3;FRA;Languedoc-Roussillon;Aude;Gueytes-et-Labastide 11171;E2.0000;N43.0667;13;
3;FRA;Languedoc-Roussillon;Aude;Homps 11172;E2.7167;N43.2667;13;
3;FRA;Languedoc-Roussillon;Aude;Hounoux 11173;E2.0000;N43.1167;13;
3;FRA;Languedoc-Roussillon;Aude;Issel 11175;E1.9833;N43.3667;13;
3;FRA;Languedoc-Roussillon;Aude;Jonquières 11176;E2.7291;N43.0395;13;
3;FRA;Languedoc-Roussillon;Aude;Joucou 11177;E2.0833;N42.8333;13;
3;FRA;Languedoc-Roussillon;Aude;La Bezole 11039;E2.1000;N43.0333;13;
3;FRA;Languedoc-Roussillon;Aude;La Cassaigne 11072;E2.0000;N43.2000;13;
3;FRA;Languedoc-Roussillon;Aude;La Courtète 11108;E2.0333;N43.1500;13;
3;FRA;Languedoc-Roussillon;Aude;La Digne-d'Amont 11119;E2.1500;N43.0333;13;
3;FRA;Languedoc-Roussillon;Aude;La Digne-d'Aval 11120;E2.1833;N43.0500;13;
3;FRA;Languedoc-Roussillon;Aude;La Fajolle 11135;E1.9667;N42.7667;13;
3;FRA;Languedoc-Roussillon;Aude;La Force 11153;E2.1000;N43.2000;13;
3;FRA;Languedoc-Roussillon;Aude;La Louvière-Lauragais 11208;E1.7500;N43.2667;13;
3;FRA;Languedoc-Roussillon;Aude;La Palme 11188;E2.9923;N42.9750;13;
3;FRA;Languedoc-Roussillon;Aude;La Pomarède 11292;E1.9500;N43.4000;13;
3;FRA;Languedoc-Roussillon;Aude;La Redorte 11190;E2.6541;N43.2522;13;
3;FRA;Languedoc-Roussillon;Aude;La Serpent 11376;E2.1833;N42.9667;13;
3;FRA;Languedoc-Roussillon;Aude;La Tourette-Cabardès 11391;E2.3500;N43.3833;13;
3;FRA;Languedoc-Roussillon;Aude;Labastide-d'Anjou 11178;E1.8667;N43.3333;13;
3;FRA;Languedoc-Roussillon;Aude;Labastide-en-Val 11179;E2.4833;N43.0667;13;
3;FRA;Languedoc-Roussillon;Aude;Labastide-Esparbairenque 11180;E2.4167;N43.3833;13;
3;FRA;Languedoc-Roussillon;Aude;Labécède-Lauragais 11181;E2.0000;N43.3833;13;
3;FRA;Languedoc-Roussillon;Aude;Lacombe 11182;E2.2333;N43.4000;13;
3;FRA;Languedoc-Roussillon;Aude;Ladern-sur-Lauquet 11183;E2.3500;N43.1167;13;
3;FRA;Languedoc-Roussillon;Aude;Lafage 11184;E1.8667;N43.1750;13;
3;FRA;Languedoc-Roussillon;Aude;Lagrasse 11185;E2.6167;N43.1000;13;
3;FRA;Languedoc-Roussillon;Aude;Lairière 11186;E2.4833;N43.0167;13;
3;FRA;Languedoc-Roussillon;Aude;Lanet 11187;E2.5000;N42.9667;13;
3;FRA;Languedoc-Roussillon;Aude;Laprade 11189;E2.2667;N43.4333;13;
3;FRA;Languedoc-Roussillon;Aude;Laroque-de-Fa 11191;E2.5667;N42.9500;13;
3;FRA;Languedoc-Roussillon;Aude;Lasbordes 11192;E2.0333;N43.3000;13;
3;FRA;Languedoc-Roussillon;Aude;Lasserre-de-Prouille 11193;E2.0667;N43.1833;13;
3;FRA;Languedoc-Roussillon;Aude;Lastours 11194;E2.3833;N43.3333;13;
3;FRA;Languedoc-Roussillon;Aude;Laurabuc 11195;E1.9833;N43.2500;13;
3;FRA;Languedoc-Roussillon;Aude;Laurac 11196;E1.9833;N43.2333;13;
3;FRA;Languedoc-Roussillon;Aude;Lauraguel 11197;E2.1667;N43.1000;13;
3;FRA;Languedoc-Roussillon;Aude;Laure-Minervois 11198;E2.5167;N43.2667;13;
3;FRA;Languedoc-Roussillon;Aude;Lavalette 11199;E2.2833;N43.1833;13;
3;FRA;Languedoc-Roussillon;Aude;Le Bousquet 11047;E2.1667;N42.7500;13;
3;FRA;Languedoc-Roussillon;Aude;Le Clat 11093;E2.1667;N42.7833;13;
3;FRA;Languedoc-Roussillon;Aude;Les Brunels 11054;E2.0500;N43.4000;13;
3;FRA;Languedoc-Roussillon;Aude;Les Cassés 11074;E1.8667;N43.4333;13;
3;FRA;Languedoc-Roussillon;Aude;Les Ilhes 11174;E2.4000;N43.3500;13;
3;FRA;Languedoc-Roussillon;Aude;Les Martys 11221;E2.3167;N43.4000;13;
3;FRA;Languedoc-Roussillon;Aude;Lespinassière 11200;E2.5500;N43.4000;13;
3;FRA;Languedoc-Roussillon;Aude;Leuc 11201;E2.3333;N43.1500;13;
3;FRA;Languedoc-Roussillon;Aude;Leucate 11202;E3.0333;N42.9167;13;
3;FRA;Languedoc-Roussillon;Aude;Lézignan-Corbières 11203;E2.7667;N43.2000;13;
3;FRA;Languedoc-Roussillon;Aude;Lignairolles 11204;E1.9833;N43.1000;13;
3;FRA;Languedoc-Roussillon;Aude;Limousis 11205;E2.4167;N43.3333;13;
3;FRA;Languedoc-Roussillon;Aude;Limoux 11206;E2.2333;N43.0667;13;
3;FRA;Languedoc-Roussillon;Aude;Loupia 11207;E2.1000;N43.0667;13;
3;FRA;Languedoc-Roussillon;Aude;Luc-sur-Aude 11209;E2.2667;N42.9667;13;
3;FRA;Languedoc-Roussillon;Aude;Luc-sur-Orbieu 11210;E2.7833;N43.1833;13;
3;FRA;Languedoc-Roussillon;Aude;Magrie 11211;E2.2000;N43.0333;13;
3;FRA;Languedoc-Roussillon;Aude;Mailhac 11212;E2.8333;N43.3000;13;
3;FRA;Languedoc-Roussillon;Aude;Maisons 11213;E2.6333;N42.9333;13;
3;FRA;Languedoc-Roussillon;Aude;Malras 11214;E2.1667;N43.0667;13;
3;FRA;Languedoc-Roussillon;Aude;Malves-en-Minervois 11215;E2.4414;N43.2530;13;
3;FRA;Languedoc-Roussillon;Aude;Malviès 11216;E2.1833;N43.1167;13;
3;FRA;Languedoc-Roussillon;Aude;Marcorignan 11217;E2.9167;N43.2333;13;
3;FRA;Languedoc-Roussillon;Aude;Marquein 11218;E1.7167;N43.3000;13;
3;FRA;Languedoc-Roussillon;Aude;Marsa 11219;E2.1500;N42.8167;13;
3;FRA;Languedoc-Roussillon;Aude;Marseillette 11220;E2.5500;N43.2000;13;
3;FRA;Languedoc-Roussillon;Aude;Mas-Cabardès 11222;E2.3667;N43.3667;13;
3;FRA;Languedoc-Roussillon;Aude;Mas-des-Cours 11223;E2.4167;N43.1167;13;
3;FRA;Languedoc-Roussillon;Aude;Mas-Saintes-Puelles 11225;E1.8833;N43.3167;13;
3;FRA;Languedoc-Roussillon;Aude;Massac 11224;E2.5833;N42.9167;13;
3;FRA;Languedoc-Roussillon;Aude;Mayreville 11226;E1.8500;N43.2333;13;
3;FRA;Languedoc-Roussillon;Aude;Mayronnes 11227;E2.5333;N43.0500;13;
3;FRA;Languedoc-Roussillon;Aude;Mazerolles-du-Razès 11228;E2.0667;N43.1333;13;
3;FRA;Languedoc-Roussillon;Aude;Mazuby 11229;E2.0333;N42.8000;13;
3;FRA;Languedoc-Roussillon;Aude;Mérial 11230;E1.9833;N42.7833;13;
3;FRA;Languedoc-Roussillon;Aude;Mézerville 11231;E1.8000;N43.2667;13;
3;FRA;Languedoc-Roussillon;Aude;Miraval-Cabardes 11232;E2.3667;N43.3833;13;
3;FRA;Languedoc-Roussillon;Aude;Mirepeisset 11233;E2.9000;N43.2833;13;
3;FRA;Languedoc-Roussillon;Aude;Mireval-Lauragais 11234;E1.9667;N43.2500;13;
3;FRA;Languedoc-Roussillon;Aude;Missègre 11235;E2.3667;N43.0000;13;
3;FRA;Languedoc-Roussillon;Aude;Molandier 11236;E1.7333;N43.2500;13;
3;FRA;Languedoc-Roussillon;Aude;Molières-sur-l'Alberte 11237=11183;E2.4188;N43.1078;13;
3;FRA;Languedoc-Roussillon;Aude;Molleville 11238;E1.8333;N43.3167;13;
3;FRA;Languedoc-Roussillon;Aude;Montauriol 11239;E1.8357;N43.2771;13;
3;FRA;Languedoc-Roussillon;Aude;Montazels 11240;E2.2500;N42.9500;13;
3;FRA;Languedoc-Roussillon;Aude;Montbrun-des-Corbières 11241;E2.6833;N43.2000;13;
3;FRA;Languedoc-Roussillon;Aude;Montclar 11242;E2.2500;N43.1333;13;
3;FRA;Languedoc-Roussillon;Aude;Montferrand 11243;E1.8167;N43.3667;13;
3;FRA;Languedoc-Roussillon;Aude;Montfort-sur-Boulzane 11244;E2.3000;N42.7500;13;
3;FRA;Languedoc-Roussillon;Aude;Montgaillard 11245;E2.6333;N42.9167;13;
3;FRA;Languedoc-Roussillon;Aude;Montgradail 11246;E2.0333;N43.1167;13;
3;FRA;Languedoc-Roussillon;Aude;Monthaut 11247;E2.0333;N43.0833;13;
3;FRA;Languedoc-Roussillon;Aude;Montirat 11248;E2.4500;N43.1667;13;
3;FRA;Languedoc-Roussillon;Aude;Montjardin 11249;E2.0333;N42.9667;13;
3;FRA;Languedoc-Roussillon;Aude;Montjoi 11250;E2.4833;N43.0000;13;
3;FRA;Languedoc-Roussillon;Aude;Montlaur 11251;E2.5667;N43.1333;13;
3;FRA;Languedoc-Roussillon;Aude;Montmaur 11252;E1.8500;N43.4000;13;
3;FRA;Languedoc-Roussillon;Aude;Montolieu 11253;E2.2167;N43.3000;13;
3;FRA;Languedoc-Roussillon;Aude;Montréal 11254;E2.1500;N43.2000;13;
3;FRA;Languedoc-Roussillon;Aude;Montredon-des-Corbières 11255;E2.9275;N43.1914;13;
3;FRA;Languedoc-Roussillon;Aude;Montséret 11256;E2.8167;N43.1000;13;
3;FRA;Languedoc-Roussillon;Aude;Monze 11257;E2.4667;N43.1500;13;
3;FRA;Languedoc-Roussillon;Aude;Moussan 11258;E2.9500;N43.2333;13;
3;FRA;Languedoc-Roussillon;Aude;Moussoulens 11259;E2.2333;N43.2833;13;
3;FRA;Languedoc-Roussillon;Aude;Mouthoumet 11260;E2.5333;N42.9667;13;
3;FRA;Languedoc-Roussillon;Aude;Moux 11261;E2.6500;N43.1833;13;
3;FRA;Languedoc-Roussillon;Aude;Narbonne 11262;E3.0000;N43.1833;13;
3;FRA;Languedoc-Roussillon;Aude;Nébias 11263;E2.1167;N42.9000;13;
3;FRA;Languedoc-Roussillon;Aude;Névian 11264;E2.9000;N43.2167;13;
3;FRA;Languedoc-Roussillon;Aude;Niort-de-Sault 11265;E2.0000;N42.8000;13;
3;FRA;Languedoc-Roussillon;Aude;Ornaisons 11267;E2.8333;N43.1833;13;
3;FRA;Languedoc-Roussillon;Aude;Orsans 11268;E1.9667;N43.1500;13;
3;FRA;Languedoc-Roussillon;Aude;Ouveillan 11269;E2.9667;N43.3000;13;
3;FRA;Languedoc-Roussillon;Aude;Padern 11270;E2.6667;N42.8667;13;
3;FRA;Languedoc-Roussillon;Aude;Palairac 11271;E2.6667;N42.9500;13;
3;FRA;Languedoc-Roussillon;Aude;Palaja 11272;E2.3833;N43.1667;13;
3;FRA;Languedoc-Roussillon;Aude;Paraza 11273;E2.8333;N43.2500;13;
3;FRA;Languedoc-Roussillon;Aude;Pauligne 11274;E2.1500;N43.0667;13;
3;FRA;Languedoc-Roussillon;Aude;Payra-sur-l'Hers 11275;E1.8667;N43.2667;13;
3;FRA;Languedoc-Roussillon;Aude;Paziols 11276;E2.7167;N42.8500;13;
3;FRA;Languedoc-Roussillon;Aude;Pech-Luna 11278;E1.8333;N43.2167;13;
3;FRA;Languedoc-Roussillon;Aude;Pécharic-et-le-Py 11277;E1.8333;N43.1833;13;
3;FRA;Languedoc-Roussillon;Aude;Pennautier 11279;E2.3333;N43.2500;13;
3;FRA;Languedoc-Roussillon;Aude;Pépieux 11280;E2.7000;N43.3000;13;
3;FRA;Languedoc-Roussillon;Aude;Pexiora 11281;E2.0333;N43.2667;13;
3;FRA;Languedoc-Roussillon;Aude;Peyrefitte-du-Razès 11282;E2.0167;N43.0667;13;
3;FRA;Languedoc-Roussillon;Aude;Peyrefitte-sur-l'Hers 11283;E1.8333;N43.2500;13;
3;FRA;Languedoc-Roussillon;Aude;Peyrens 11284;E1.9833;N43.3667;13;
3;FRA;Languedoc-Roussillon;Aude;Peyriac-de-Mer 11285;E2.9667;N43.0833;13;
3;FRA;Languedoc-Roussillon;Aude;Peyriac-Minervois 11286;E2.5667;N43.3000;13;
3;FRA;Languedoc-Roussillon;Aude;Peyrolles 11287;E2.3167;N42.9667;13;
3;FRA;Languedoc-Roussillon;Aude;Pezens 11288;E2.2833;N43.2500;13;
3;FRA;Languedoc-Roussillon;Aude;Pieusse 11289;E2.2333;N43.0833;13;
3;FRA;Languedoc-Roussillon;Aude;Plaigne 11290;E1.8167;N43.1667;13;
3;FRA;Languedoc-Roussillon;Aude;Plavilla 11291;E1.9333;N43.1500;13;
3;FRA;Languedoc-Roussillon;Aude;Pomas 11293;E2.3000;N43.1167;13;
3;FRA;Languedoc-Roussillon;Aude;Pomy 11294;E2.0500;N43.0500;13;
3;FRA;Languedoc-Roussillon;Aude;Port-la-Nouvelle 11266;E3.0500;N43.0167;13;
3;FRA;Languedoc-Roussillon;Aude;Portel-des-Corbières 11295;E2.9215;N43.0563;13;
3;FRA;Languedoc-Roussillon;Aude;Pouzols-Minervois 11296;E2.8333;N43.2833;13;
3;FRA;Languedoc-Roussillon;Aude;Pradelles-Cabardès 11297;E2.4500;N43.4000;13;
3;FRA;Languedoc-Roussillon;Aude;Pradelles-en-Val 11298;E2.5167;N43.1500;13;
3;FRA;Languedoc-Roussillon;Aude;Preixan 11299;E2.3000;N43.1500;13;
3;FRA;Languedoc-Roussillon;Aude;Puginier 11300;E1.9500;N43.3833;13;
3;FRA;Languedoc-Roussillon;Aude;Puichéric 11301;E2.6333;N43.2333;13;
3;FRA;Languedoc-Roussillon;Aude;Puilaurens 11302;E2.3000;N42.8167;13;
3;FRA;Languedoc-Roussillon;Aude;Puivert 11303;E2.0500;N42.9333;13;
3;FRA;Languedoc-Roussillon;Aude;Quillan 11304;E2.1833;N42.8667;13;
3;FRA;Languedoc-Roussillon;Aude;Quintillan 11305;E2.7167;N42.9667;13;
3;FRA;Languedoc-Roussillon;Aude;Quirbajou 11306;E2.1833;N42.8333;13;
3;FRA;Languedoc-Roussillon;Aude;Raissac-d'Aude 11307;E2.8833;N43.2333;13;
3;FRA;Languedoc-Roussillon;Aude;Raissac-sur-Lampy 11308;E2.1667;N43.2833;13;
3;FRA;Languedoc-Roussillon;Aude;Rennes-le-Château 11309;E2.2667;N42.9333;13;
3;FRA;Languedoc-Roussillon;Aude;Rennes-les-Bains 11310;E2.3167;N42.9167;13;
3;FRA;Languedoc-Roussillon;Aude;Ribaute 11311;E2.6333;N43.1000;13;
3;FRA;Languedoc-Roussillon;Aude;Ribouisse 11312;E1.9167;N43.1833;13;
3;FRA;Languedoc-Roussillon;Aude;Ricaud 11313;E1.9000;N43.3500;13;
3;FRA;Languedoc-Roussillon;Aude;Rieux-en-Val 11314;E2.5333;N43.0833;13;
3;FRA;Languedoc-Roussillon;Aude;Rieux-Minervois 11315;E2.5833;N43.2833;13;
3;FRA;Languedoc-Roussillon;Aude;Rivel 11316;E1.9833;N42.9500;13;
3;FRA;Languedoc-Roussillon;Aude;Rodome 11317;E2.0667;N42.8000;13;
3;FRA;Languedoc-Roussillon;Aude;Roquecourbe-Minervois 11318;E2.6500;N43.2167;13;
3;FRA;Languedoc-Roussillon;Aude;Roquefère 11319;E2.3833;N43.3833;13;
3;FRA;Languedoc-Roussillon;Aude;Roquefeuil 11320;E2.0000;N42.8167;13;
3;FRA;Languedoc-Roussillon;Aude;Roquefort-de-Sault 11321;E2.2000;N42.7500;13;
3;FRA;Languedoc-Roussillon;Aude;Roquefort-des-Corbières 11322;E2.9500;N43.0000;13;
3;FRA;Languedoc-Roussillon;Aude;Roquetaillade 11323;E2.2000;N43.0000;13;
3;FRA;Languedoc-Roussillon;Aude;Roubia 11324;E2.8000;N43.2500;13;
3;FRA;Languedoc-Roussillon;Aude;Rouffiac-d'Aude 11325;E2.3000;N43.1167;13;
3;FRA;Languedoc-Roussillon;Aude;Rouffiac-des-Corbières 11326;E2.5500;N42.8833;13;
3;FRA;Languedoc-Roussillon;Aude;Roullens 11327;E2.2833;N43.1667;13;
3;FRA;Languedoc-Roussillon;Aude;Routier 11328;E2.1268;N43.1078;13;
3;FRA;Languedoc-Roussillon;Aude;Rouvenac 11329;E2.1500;N42.9333;13;
3;FRA;Languedoc-Roussillon;Aude;Rustiques 11330;E2.4833;N43.2167;13;
3;FRA;Languedoc-Roussillon;Aude;Saint-Amans 11331;E1.8865;N43.2280;13;
3;FRA;Languedoc-Roussillon;Aude;Saint-André-de-Roquelongue 11332;E2.8333;N43.1167;13;
3;FRA;Languedoc-Roussillon;Aude;Saint-Benoît 11333;E2.0667;N43.0167;13;
3;FRA;Languedoc-Roussillon;Aude;Saint-Couat-d'Aude 11337;E2.6333;N43.2000;13;
3;FRA;Languedoc-Roussillon;Aude;Saint-Couat-du-Razès 11338;E2.1167;N43.0000;13;
3;FRA;Languedoc-Roussillon;Aude;Saint-Denis 11339;E2.2167;N43.3667;13;
3;FRA;Languedoc-Roussillon;Aude;Saint-Ferriol 11341;E2.2167;N42.9000;13;
3;FRA;Languedoc-Roussillon;Aude;Saint-Frichoux 11342;E2.5500;N43.2500;13;
3;FRA;Languedoc-Roussillon;Aude;Saint-Gaudéric 11343;E1.9500;N43.1167;13;
3;FRA;Languedoc-Roussillon;Aude;Saint-Hilaire 11344;E2.3167;N43.1000;13;
3;FRA;Languedoc-Roussillon;Aude;Saint-Jean-de-Barrou 11345;E2.8333;N42.9500;13;
3;FRA;Languedoc-Roussillon;Aude;Saint-Jean-de-Paracol 11346;E2.1167;N42.9333;13;
3;FRA;Languedoc-Roussillon;Aude;Saint-Julia-de-Bec 11347;E2.2500;N42.8667;13;
3;FRA;Languedoc-Roussillon;Aude;Saint-Julien-de-Briola 11348;E1.9333;N43.1500;13;
3;FRA;Languedoc-Roussillon;Aude;Saint-Just-de-Bélengard 11349=11128;E2.0167;N43.0833;13;
3;FRA;Languedoc-Roussillon;Aude;Saint-Just-et-le-Bézu 11350;E2.2667;N42.8833;13;
3;FRA;Languedoc-Roussillon;Aude;Saint-Laurent-de-la-Cabrerisse 11351;E2.6992;N43.0844;13;
3;FRA;Languedoc-Roussillon;Aude;Saint-Louis-et-Parahou 11352;E2.3167;N42.8500;13;
3;FRA;Languedoc-Roussillon;Aude;Saint-Marcel-sur-Aude 11353;E2.9234;N43.2426;13;
3;FRA;Languedoc-Roussillon;Aude;Saint-Martin-de-Villereglan 11355;E2.2167;N43.1000;13;
3;FRA;Languedoc-Roussillon;Aude;Saint-Martin-des-Puits 11354;E2.5667;N43.0333;13;
3;FRA;Languedoc-Roussillon;Aude;Saint-Martin-Lalande 11356;E2.0167;N43.3000;13;
3;FRA;Languedoc-Roussillon;Aude;Saint-Martin-le-Vieil 11357;E2.1500;N43.2833;13;
3;FRA;Languedoc-Roussillon;Aude;Saint-Martin-Lys 11358;E2.2333;N42.8333;13;
3;FRA;Languedoc-Roussillon;Aude;Saint-Michel-de-Lanès 11359;E1.7667;N43.3333;13;
3;FRA;Languedoc-Roussillon;Aude;Saint-Nazaire-d'Aude 11360;E2.9000;N43.2333;13;
3;FRA;Languedoc-Roussillon;Aude;Saint-Papoul 11361;E2.0333;N43.3333;13;
3;FRA;Languedoc-Roussillon;Aude;Saint-Paulet 11362;E1.8833;N43.4167;13;
3;FRA;Languedoc-Roussillon;Aude;Saint-Pierre-des-Champs 11363;E2.6000;N43.0500;13;
3;FRA;Languedoc-Roussillon;Aude;Saint-Polycarpe 11364;E2.3000;N43.0333;13;
3;FRA;Languedoc-Roussillon;Aude;Saint-Sernin 11365;E1.8000;N43.2333;13;
3;FRA;Languedoc-Roussillon;Aude;Sainte-Camelle 11334;E1.8000;N43.2667;13;
3;FRA;Languedoc-Roussillon;Aude;Sainte-Colombe-sur-Guette 11335;E2.2333;N42.7500;13;
3;FRA;Languedoc-Roussillon;Aude;Sainte-Colombe-sur-l'Hers 11336;E1.9667;N42.9500;13;
3;FRA;Languedoc-Roussillon;Aude;Sainte-Eulalie 11340;E2.2167;N43.2500;13;
3;FRA;Languedoc-Roussillon;Aude;Sainte-Valière 11366;E2.8500;N43.2833;13;
3;FRA;Languedoc-Roussillon;Aude;Saissac 11367;E2.1667;N43.3667;13;
3;FRA;Languedoc-Roussillon;Aude;Sallèles-Cabardès 11368;E2.4333;N43.3167;13;
3;FRA;Languedoc-Roussillon;Aude;Sallèles-d'Aude 11369;E2.9500;N43.2667;13;
3;FRA;Languedoc-Roussillon;Aude;Salles-d'Aude 11370;E3.1167;N43.2333;13;
3;FRA;Languedoc-Roussillon;Aude;Salles-sur-l'Hers 11371;E1.7833;N43.3000;13;
3;FRA;Languedoc-Roussillon;Aude;Salsigne 11372;E2.3667;N43.3333;13;
3;FRA;Languedoc-Roussillon;Aude;Salvezines 11373;E2.3167;N42.7833;13;
3;FRA;Languedoc-Roussillon;Aude;Salza 11374;E2.5000;N42.9833;13;
3;FRA;Languedoc-Roussillon;Aude;Seignalens 11375;E1.9500;N43.1000;13;
3;FRA;Languedoc-Roussillon;Aude;Serres 11377;E2.3167;N42.9500;13;
3;FRA;Languedoc-Roussillon;Aude;Serviès-en-Val 11378;E2.5167;N43.0833;13;
3;FRA;Languedoc-Roussillon;Aude;Sigean 11379;E2.9833;N43.0333;13;
3;FRA;Languedoc-Roussillon;Aude;Sonnac-sur-l'Hers 11380;E1.9833;N43.0000;13;
3;FRA;Languedoc-Roussillon;Aude;Sougraigne 11381;E2.3500;N42.9000;13;
3;FRA;Languedoc-Roussillon;Aude;Souilhanels 11382;E1.9167;N43.3500;13;
3;FRA;Languedoc-Roussillon;Aude;Souilhe 11383;E1.9167;N43.3667;13;
3;FRA;Languedoc-Roussillon;Aude;Soulatgé 11384;E2.5000;N42.8833;13;
3;FRA;Languedoc-Roussillon;Aude;Soupex 11385;E1.9000;N43.3833;13;
3;FRA;Languedoc-Roussillon;Aude;Talairan 11386;E2.6667;N43.0500;13;
3;FRA;Languedoc-Roussillon;Aude;Taurize 11387;E2.5000;N43.0667;13;
3;FRA;Languedoc-Roussillon;Aude;Termes 11388;E2.5667;N43.0000;13;
3;FRA;Languedoc-Roussillon;Aude;Terroles 11389;E2.3394;N42.9854;13;
3;FRA;Languedoc-Roussillon;Aude;Thézan-des-Corbières 11390;E2.7702;N43.1035;13;
3;FRA;Languedoc-Roussillon;Aude;Tournissan 11392;E2.6667;N43.0833;13;
3;FRA;Languedoc-Roussillon;Aude;Tourouzelle 11393;E2.7333;N43.2500;13;
3;FRA;Languedoc-Roussillon;Aude;Tourreilles 11394;E2.1667;N43.0167;13;
3;FRA;Languedoc-Roussillon;Aude;Trassanel 11395;E2.4333;N43.3500;13;
3;FRA;Languedoc-Roussillon;Aude;Trausse 11396;E2.5667;N43.3167;13;
3;FRA;Languedoc-Roussillon;Aude;Trèbes 11397;E2.4333;N43.2167;13;
3;FRA;Languedoc-Roussillon;Aude;Treilles 11398;E2.9500;N42.9167;13;
3;FRA;Languedoc-Roussillon;Aude;Tréville 11399;E1.9500;N43.3833;13;
3;FRA;Languedoc-Roussillon;Aude;Tréziers 11400;E1.9500;N43.0500;13;
3;FRA;Languedoc-Roussillon;Aude;Tuchan 11401;E2.7167;N42.8833;13;
3;FRA;Languedoc-Roussillon;Aude;Valmigère 11402;E2.3667;N42.9833;13;
3;FRA;Languedoc-Roussillon;Aude;Vendémies 11403=11206;E2.2639;N43.0262;13;
3;FRA;Languedoc-Roussillon;Aude;Ventenac-Cabardès 11404;E2.2833;N43.2667;13;
3;FRA;Languedoc-Roussillon;Aude;Ventenac-en-Minervois 11405;E2.8598;N43.2480;13;
3;FRA;Languedoc-Roussillon;Aude;Véraza 11406;E2.3000;N42.9833;13;
3;FRA;Languedoc-Roussillon;Aude;Verdun-en-Lauragais 11407;E2.0667;N43.3667;13;
3;FRA;Languedoc-Roussillon;Aude;Verzeille 11408;E2.3333;N43.1167;13;
3;FRA;Languedoc-Roussillon;Aude;Vignevieille 11409;E2.5333;N43.0000;13;
3;FRA;Languedoc-Roussillon;Aude;Villalier 11410;E2.4167;N43.2500;13;
3;FRA;Languedoc-Roussillon;Aude;Villanière 11411;E2.3833;N43.3500;13;
3;FRA;Languedoc-Roussillon;Aude;Villar-en-Val 11414;E2.4667;N43.0833;13;
3;FRA;Languedoc-Roussillon;Aude;Villar-Saint-Anselme 11415;E2.3167;N43.0667;13;
3;FRA;Languedoc-Roussillon;Aude;Villardebelle 11412;E2.4000;N43.0167;13;
3;FRA;Languedoc-Roussillon;Aude;Villardonnel 11413;E2.3167;N43.3333;13;
3;FRA;Languedoc-Roussillon;Aude;Villarzel-Cabardès 11416;E2.4667;N43.2833;13;
3;FRA;Languedoc-Roussillon;Aude;Villarzel-du-Razès 11417;E2.2167;N43.1333;13;
3;FRA;Languedoc-Roussillon;Aude;Villasavary 11418;E2.0333;N43.2167;13;
3;FRA;Languedoc-Roussillon;Aude;Villautou 11419;E1.8333;N43.1500;13;
3;FRA;Languedoc-Roussillon;Aude;Villebazy 11420;E2.3333;N43.0667;13;
3;FRA;Languedoc-Roussillon;Aude;Villedaigne 11421;E2.8667;N43.2167;13;
3;FRA;Languedoc-Roussillon;Aude;Villedubert 11422;E2.4167;N43.2333;13;
3;FRA;Languedoc-Roussillon;Aude;Villefloure 11423;E2.3833;N43.1167;13;
3;FRA;Languedoc-Roussillon;Aude;Villefort 11424;E2.0331;N42.9547;13;
3;FRA;Languedoc-Roussillon;Aude;Villegailhenc 11425;E2.3667;N43.2667;13;
3;FRA;Languedoc-Roussillon;Aude;Villegly 11426;E2.4500;N43.2833;13;
3;FRA;Languedoc-Roussillon;Aude;Villelongue-d'Aude 11427;E2.0833;N43.0500;13;
3;FRA;Languedoc-Roussillon;Aude;Villemagne 11428;E2.1333;N43.3500;13;
3;FRA;Languedoc-Roussillon;Aude;Villemoustaussou 11429;E2.3667;N43.2500;13;
3;FRA;Languedoc-Roussillon;Aude;Villeneuve-la-Comptal 11430;E1.9333;N43.2833;13;
3;FRA;Languedoc-Roussillon;Aude;Villeneuve-les-Corbières 11431;E2.7667;N42.9667;13;
3;FRA;Languedoc-Roussillon;Aude;Villeneuve-lès-Montréal 11432;E2.1000;N43.1833;13;
3;FRA;Languedoc-Roussillon;Aude;Villeneuve-Minervois 11433;E2.4667;N43.3167;13;
3;FRA;Languedoc-Roussillon;Aude;Villepinte 11434;E2.1000;N43.2833;13;
3;FRA;Languedoc-Roussillon;Aude;Villerouge-Termenès 11435;E2.6333;N43.0000;13;
3;FRA;Languedoc-Roussillon;Aude;Villesèque-des-Corbières 11436;E2.8500;N43.0167;13;
3;FRA;Languedoc-Roussillon;Aude;Villesèquelande 11437;E2.2333;N43.2333;13;
3;FRA;Languedoc-Roussillon;Aude;Villesiscle 11438;E2.1167;N43.2333;13;
3;FRA;Languedoc-Roussillon;Aude;Villespy 11439;E2.0833;N43.3167;13;
3;FRA;Languedoc-Roussillon;Aude;Villetritouls 11440;E2.4833;N43.0667;13;
3;FRA;Languedoc-Roussillon;Aude;Vinassan 11441;E3.0667;N43.2000;13;
2;FRA;Languedoc-Roussillon;Gard;;E4.15;N43.97;10;
3;FRA;Languedoc-Roussillon;Gard;Aigaliers 30001;E4.3167;N44.0667;13;
3;FRA;Languedoc-Roussillon;Gard;Aigremont 30002;E4.1167;N43.9667;13;
3;FRA;Languedoc-Roussillon;Gard;Aigues-Mortes 30003;E4.1917;N43.5667;13;
3;FRA;Languedoc-Roussillon;Gard;Aigues-Vives 30004;E4.1803;N43.7385;13;
3;FRA;Languedoc-Roussillon;Gard;Aiguèze 30005;E4.5667;N44.3000;13;
3;FRA;Languedoc-Roussillon;Gard;Aimargues 30006;E4.2000;N43.6833;13;
3;FRA;Languedoc-Roussillon;Gard;Alès 30007;E4.0833;N44.1333;13;
3;FRA;Languedoc-Roussillon;Gard;Allègre-les-Fumades 30008;E4.2667;N44.2167;13;
3;FRA;Languedoc-Roussillon;Gard;Alzon 30009;E3.4400;N43.9667;13;
3;FRA;Languedoc-Roussillon;Gard;Anduze 30010;E3.9833;N44.0500;13;
3;FRA;Languedoc-Roussillon;Gard;Aramon 30012;E4.6833;N43.8833;13;
3;FRA;Languedoc-Roussillon;Gard;Argilliers 30013;E4.5000;N43.9833;13;
3;FRA;Languedoc-Roussillon;Gard;Arpaillargues-et-Aureillac 30014;E4.3726;N44.0002;13;
3;FRA;Languedoc-Roussillon;Gard;Arphy 30015;E3.6000;N44.0333;13;
3;FRA;Languedoc-Roussillon;Gard;Arre 30016;E3.5000;N43.9500;13;
3;FRA;Languedoc-Roussillon;Gard;Arrigas 30017;E3.4833;N43.9833;13;
3;FRA;Languedoc-Roussillon;Gard;Aspères 30018;E4.0500;N43.8000;13;
3;FRA;Languedoc-Roussillon;Gard;Aubais 30019;E4.1500;N43.7500;13;
3;FRA;Languedoc-Roussillon;Gard;Aubord 30020;E4.3167;N43.7500;13;
3;FRA;Languedoc-Roussillon;Gard;Aubussargues 30021;E4.3333;N44.0167;13;
3;FRA;Languedoc-Roussillon;Gard;Aujac 30022;E4.0167;N44.3500;13;
3;FRA;Languedoc-Roussillon;Gard;Aujargues 30023;E4.1167;N43.7833;13;
3;FRA;Languedoc-Roussillon;Gard;Aulas 30024;E3.5833;N44.0000;13;
3;FRA;Languedoc-Roussillon;Gard;Aumessas 30025;E3.5000;N43.9833;13;
3;FRA;Languedoc-Roussillon;Gard;Avèze 30026;E3.6000;N43.9833;13;
3;FRA;Languedoc-Roussillon;Gard;Bagard 30027;E4.0667;N44.0833;13;
3;FRA;Languedoc-Roussillon;Gard;Bagnols-sur-Cèze 30028;E4.6167;N44.1667;13;
3;FRA;Languedoc-Roussillon;Gard;Barjac 30029;E4.3500;N44.3000;13;
3;FRA;Languedoc-Roussillon;Gard;Baron 30030;E4.2833;N44.0333;13;
3;FRA;Languedoc-Roussillon;Gard;Beaucaire 30032;E4.6333;N43.8000;13;
3;FRA;Languedoc-Roussillon;Gard;Beauvoisin 30033;E4.3167;N43.7167;13;
3;FRA;Languedoc-Roussillon;Gard;Bellegarde 30034;E4.5167;N43.7500;13;
3;FRA;Languedoc-Roussillon;Gard;Belvézet 30035;E4.3667;N44.0833;13;
3;FRA;Languedoc-Roussillon;Gard;Bernis 30036;E4.2833;N43.7667;13;
3;FRA;Languedoc-Roussillon;Gard;Bessèges 30037;E4.1000;N44.2833;13;
3;FRA;Languedoc-Roussillon;Gard;Bez-et-Esparon 30038;E3.5167;N43.9667;13;
3;FRA;Languedoc-Roussillon;Gard;Bezouce 30039;E4.4833;N43.8833;13;
3;FRA;Languedoc-Roussillon;Gard;Blandas 30040;E3.5000;N43.9167;13;
3;FRA;Languedoc-Roussillon;Gard;Blauzac 30041;E4.3667;N43.9667;13;
3;FRA;Languedoc-Roussillon;Gard;Boisset-et-Gaujac 30042;E4.0000;N44.0500;13;
3;FRA;Languedoc-Roussillon;Gard;Boissières 30043;E4.2333;N43.7667;13;
3;FRA;Languedoc-Roussillon;Gard;Bonnevaux 30044;E4.0309;N44.3676;13;
3;FRA;Languedoc-Roussillon;Gard;Bordezac 30045;E4.0333;N44.3167;13;
3;FRA;Languedoc-Roussillon;Gard;Boucoiran-et-Nozières 30046;E4.1833;N43.9833;13;
3;FRA;Languedoc-Roussillon;Gard;Bouillargues 30047;E4.4333;N43.8000;13;
3;FRA;Languedoc-Roussillon;Gard;Bouquet 30048;E4.2833;N44.1667;13;
3;FRA;Languedoc-Roussillon;Gard;Bourdic 30049;E4.3333;N43.9833;13;
3;FRA;Languedoc-Roussillon;Gard;Bragassargues 30050;E4.0500;N43.9167;13;
3;FRA;Languedoc-Roussillon;Gard;Branoux-les-Taillades 30051;E3.9833;N44.2167;13;
3;FRA;Languedoc-Roussillon;Gard;Bréau-et-Salagosse 30052;E3.5833;N43.9833;13;
3;FRA;Languedoc-Roussillon;Gard;Brignon 30053;E4.2167;N43.9833;13;
3;FRA;Languedoc-Roussillon;Gard;Brouzet-lès-Alès 30055;E4.2500;N44.1333;13;
3;FRA;Languedoc-Roussillon;Gard;Brouzet-lès-Quissac 30054;E3.9894;N43.8619;13;
3;FRA;Languedoc-Roussillon;Gard;Cabrières 30057;E4.4667;N43.9000;13;
3;FRA;Languedoc-Roussillon;Gard;Caissargues 30060;E4.3833;N43.8000;13;
3;FRA;Languedoc-Roussillon;Gard;Calvisson 30062;E4.1833;N43.7833;13;
3;FRA;Languedoc-Roussillon;Gard;Cambo 30063=30058;E3.4167;N43.9500;13;
3;FRA;Languedoc-Roussillon;Gard;Campestre-et-Luc 30064;E3.4833;N44.1167;13;
3;FRA;Languedoc-Roussillon;Gard;Canaules-et-Argentières 30065;E4.0500;N43.9833;13;
3;FRA;Languedoc-Roussillon;Gard;Cannes-et-Clairan 30066;E4.0833;N43.9167;13;
3;FRA;Languedoc-Roussillon;Gard;Cardet 30068;E4.0833;N44.0167;13;
3;FRA;Languedoc-Roussillon;Gard;Carnas 30069;E3.9833;N43.8167;13;
3;FRA;Languedoc-Roussillon;Gard;Carsan 30070;E4.5833;N44.2333;13;
3;FRA;Languedoc-Roussillon;Gard;Cassagnoles 30071;E4.1303;N44.0223;13;
3;FRA;Languedoc-Roussillon;Gard;Castelnau-Valence 30072;E4.2508;N44.0083;13;
3;FRA;Languedoc-Roussillon;Gard;Castillon-du-Gard 30073;E4.5500;N43.9667;13;
3;FRA;Languedoc-Roussillon;Gard;Causse-Bégon 30074;E3.3583;N44.0583;13;
3;FRA;Languedoc-Roussillon;Gard;Caveirac 30075;E4.2667;N43.8167;13;
3;FRA;Languedoc-Roussillon;Gard;Cavillargues 30076;E4.5167;N44.1167;13;
3;FRA;Languedoc-Roussillon;Gard;Cendras 30077;E4.0667;N44.1500;13;
3;FRA;Languedoc-Roussillon;Gard;Cézas 30078=30325;E3.7784;N43.9751;13;
3;FRA;Languedoc-Roussillon;Gard;Chambon 30079;E4.0000;N44.3000;13;
3;FRA;Languedoc-Roussillon;Gard;Chamborigaud 30080;E3.9833;N44.3000;13;
3;FRA;Languedoc-Roussillon;Gard;Chusclan 30081;E4.6833;N44.1500;13;
3;FRA;Languedoc-Roussillon;Gard;Clarensac 30082;E4.2167;N43.8167;13;
3;FRA;Languedoc-Roussillon;Gard;Codognan 30083;E4.2333;N43.7333;13;
3;FRA;Languedoc-Roussillon;Gard;Codolet 30084;E4.7000;N44.1167;13;
3;FRA;Languedoc-Roussillon;Gard;Collias 30085;E4.4833;N43.9500;13;
3;FRA;Languedoc-Roussillon;Gard;Collorgues 30086;E4.3000;N44.0000;13;
3;FRA;Languedoc-Roussillon;Gard;Colognac 30087;E3.8167;N44.0333;13;
3;FRA;Languedoc-Roussillon;Gard;Combas 30088;E4.1167;N43.8500;13;
3;FRA;Languedoc-Roussillon;Gard;Comps 30089;E4.6000;N43.8500;13;
3;FRA;Languedoc-Roussillon;Gard;Concoules 30090;E3.9500;N44.3833;13;
3;FRA;Languedoc-Roussillon;Gard;Congénies 30091;E4.1667;N43.7667;13;
3;FRA;Languedoc-Roussillon;Gard;Connaux 30092;E4.6000;N44.0833;13;
3;FRA;Languedoc-Roussillon;Gard;Conqueyrac 30093;E3.9000;N43.9500;13;
3;FRA;Languedoc-Roussillon;Gard;Corbès 30094;E3.9500;N44.0833;13;
3;FRA;Languedoc-Roussillon;Gard;Corconne 30095;E3.9333;N43.8667;13;
3;FRA;Languedoc-Roussillon;Gard;Cornillon 30096;E4.4833;N44.2167;13;
3;FRA;Languedoc-Roussillon;Gard;Courry 30097;E4.1500;N44.3000;13;
3;FRA;Languedoc-Roussillon;Gard;Crespian 30098;E4.1000;N43.8833;13;
3;FRA;Languedoc-Roussillon;Gard;Cros 30099;E3.8333;N43.9833;13;
3;FRA;Languedoc-Roussillon;Gard;Cruviers-Lascours 30100;E4.2167;N44.0000;13;
3;FRA;Languedoc-Roussillon;Gard;Deaux 30101;E4.1500;N44.0833;13;
3;FRA;Languedoc-Roussillon;Gard;Dions 30102;E4.3167;N43.9333;13;
3;FRA;Languedoc-Roussillon;Gard;Domazan 30103;E4.6500;N43.9333;13;
3;FRA;Languedoc-Roussillon;Gard;Domessargues 30104;E4.1833;N43.9667;13;
3;FRA;Languedoc-Roussillon;Gard;Dourbies 30105;E3.4463;N44.0667;13;
3;FRA;Languedoc-Roussillon;Gard;Estézargues 30107;E4.6333;N43.9500;13;
3;FRA;Languedoc-Roussillon;Gard;Euzet 30109;E4.2333;N44.0667;13;
3;FRA;Languedoc-Roussillon;Gard;Flaux 30110;E4.5000;N44.0167;13;
3;FRA;Languedoc-Roussillon;Gard;Foissac 30111;E4.3167;N44.0333;13;
3;FRA;Languedoc-Roussillon;Gard;Fons 30112;E4.1951;N43.9078;13;
3;FRA;Languedoc-Roussillon;Gard;Fons-sur-Lussan 30113;E4.3333;N44.1833;13;
3;FRA;Languedoc-Roussillon;Gard;Fontanès 30114;E4.1340;N43.9691;13;
3;FRA;Languedoc-Roussillon;Gard;Fontarèches 30115;E4.4500;N44.1167;13;
3;FRA;Languedoc-Roussillon;Gard;Fournès 30116;E4.6000;N43.9333;13;
3;FRA;Languedoc-Roussillon;Gard;Fourques 30117;E4.1333;N44.2833;13;
3;FRA;Languedoc-Roussillon;Gard;Foussignargues 30118=30037;E4.3500;N43.6500;13;
3;FRA;Languedoc-Roussillon;Gard;Fressac 30119;E3.9000;N43.9833;13;
3;FRA;Languedoc-Roussillon;Gard;Gagnières 30120;E4.1500;N44.3000;13;
3;FRA;Languedoc-Roussillon;Gard;Gailhan 30121;E4.0333;N43.8333;13;
3;FRA;Languedoc-Roussillon;Gard;Gajan 30122;E4.2167;N43.9000;13;
3;FRA;Languedoc-Roussillon;Gard;Gallargues-le-Montueux 30123;E4.3000;N43.6500;13;
3;FRA;Languedoc-Roussillon;Gard;Garons 30125;E4.4167;N43.7667;13;
3;FRA;Languedoc-Roussillon;Gard;Garrigues-Sainte-Eulalie 30126;E4.3153;N43.9939;13;
3;FRA;Languedoc-Roussillon;Gard;Gaujac 30127;E4.5833;N44.0833;13;
3;FRA;Languedoc-Roussillon;Gard;Générac 30128;E4.3500;N43.7333;13;
3;FRA;Languedoc-Roussillon;Gard;Générargues 30129;E3.9667;N44.0833;13;
3;FRA;Languedoc-Roussillon;Gard;Génolhac 30130;E3.9500;N44.3500;13;
3;FRA;Languedoc-Roussillon;Gard;Goudargues 30131;E4.4667;N44.2167;13;
3;FRA;Languedoc-Roussillon;Gard;Issirac 30134;E4.4833;N44.2833;13;
3;FRA;Languedoc-Roussillon;Gard;Jonquières-Saint-Vincent 30135;E4.1167;N43.7667;13;
3;FRA;Languedoc-Roussillon;Gard;Junas 30136;E4.7000;N44.1000;13;
3;FRA;Languedoc-Roussillon;Gard;L'Estréchure 30108;E3.7833;N44.1000;13;
3;FRA;Languedoc-Roussillon;Gard;La Bastide-d'Engras 30031;E4.4833;N44.1000;13;
3;FRA;Languedoc-Roussillon;Gard;La Bruguière 30056;E4.4167;N44.1167;13;
3;FRA;Languedoc-Roussillon;Gard;La Cadière-et-Cambo 30058;E3.8041;N43.9783;13;
3;FRA;Languedoc-Roussillon;Gard;La Calmette 30061;E4.2667;N43.9167;13;
3;FRA;Languedoc-Roussillon;Gard;La Capelle-et-Masmolène 30067;E4.5500;N44.0500;13;
3;FRA;Languedoc-Roussillon;Gard;La Grand-Combe 30132;E4.0333;N44.2167;13;
3;FRA;Languedoc-Roussillon;Gard;La Roque-sur-Cèze 30222;E4.5167;N44.2000;13;
3;FRA;Languedoc-Roussillon;Gard;La Rouvière 30224;E4.2500;N43.9333;13;
3;FRA;Languedoc-Roussillon;Gard;La Vernarède 30345;E4.0167;N44.2833;13;
3;FRA;Languedoc-Roussillon;Gard;Lamelouze 30137;E3.9500;N44.2000;13;
3;FRA;Languedoc-Roussillon;Gard;Langlade 30138;E4.2500;N43.8000;13;
3;FRA;Languedoc-Roussillon;Gard;Lanuéjols 30139;E3.3815;N44.1307;13;
3;FRA;Languedoc-Roussillon;Gard;Lasalle 30140;E3.8500;N44.0500;13;
3;FRA;Languedoc-Roussillon;Gard;Laudun-l'Ardoise 30141;E4.6667;N44.1000;13;
3;FRA;Languedoc-Roussillon;Gard;Laval-Pradel 30142;E4.0667;N44.2000;13;
3;FRA;Languedoc-Roussillon;Gard;Laval-Saint-Roman 30143;E4.5062;N44.2987;13;
3;FRA;Languedoc-Roussillon;Gard;Le Cailar 30059;E4.2333;N43.6667;13;
3;FRA;Languedoc-Roussillon;Gard;Le Garn 30124;E4.4833;N44.3000;13;
3;FRA;Languedoc-Roussillon;Gard;Le Grau-du-Roi 30133;E4.1417;N43.5333;13;
3;FRA;Languedoc-Roussillon;Gard;Le Martinet 30159;E4.0833;N44.2500;13;
3;FRA;Languedoc-Roussillon;Gard;Le Pin 30196;E4.5500;N44.1000;13;
3;FRA;Languedoc-Roussillon;Gard;Le Vigan 30350;E3.6000;N43.9833;13;
3;FRA;Languedoc-Roussillon;Gard;Lecques 30144;E4.0667;N43.8333;13;
3;FRA;Languedoc-Roussillon;Gard;Lédenon 30145;E4.5167;N43.9167;13;
3;FRA;Languedoc-Roussillon;Gard;Lédignan 30146;E4.1000;N43.9833;13;
3;FRA;Languedoc-Roussillon;Gard;Les Angles 30011;E4.7663;N43.9524;13;
3;FRA;Languedoc-Roussillon;Gard;Les Mages 30152;E4.1500;N44.2333;13;
3;FRA;Languedoc-Roussillon;Gard;Les Plans 30197;E4.2167;N44.1500;13;
3;FRA;Languedoc-Roussillon;Gard;Les Plantiers 30198;E3.7333;N44.1167;13;
3;FRA;Languedoc-Roussillon;Gard;Les Salles-du-Gardon 30307;E4.0333;N44.2000;13;
3;FRA;Languedoc-Roussillon;Gard;Lézan 30147;E4.0500;N44.0167;13;
3;FRA;Languedoc-Roussillon;Gard;Liouc 30148;E3.9833;N43.9000;13;
3;FRA;Languedoc-Roussillon;Gard;Lirac 30149;E4.6833;N44.0333;13;
3;FRA;Languedoc-Roussillon;Gard;Logrian-Florian 30150;E4.0290;N43.9566;13;
3;FRA;Languedoc-Roussillon;Gard;Lussan 30151;E4.3667;N44.1500;13;
3;FRA;Languedoc-Roussillon;Gard;Malons-et-Elze 30153;E4.0234;N44.4176;13;
3;FRA;Languedoc-Roussillon;Gard;Mandagout 30154;E3.6167;N44.0167;13;
3;FRA;Languedoc-Roussillon;Gard;Manduel 30155;E4.4667;N43.8167;13;
3;FRA;Languedoc-Roussillon;Gard;Marguerittes 30156;E4.4500;N43.8500;13;
3;FRA;Languedoc-Roussillon;Gard;Mars 30157;E3.5667;N44.0000;13;
3;FRA;Languedoc-Roussillon;Gard;Martignargues 30158;E4.1833;N44.0333;13;
3;FRA;Languedoc-Roussillon;Gard;Maruéjols-lès-Gardon 30160;E4.1315;N44.0057;13;
3;FRA;Languedoc-Roussillon;Gard;Massanes 30161;E4.1133;N44.0231;13;
3;FRA;Languedoc-Roussillon;Gard;Massillargues-Attuech 30162;E4.0167;N44.0167;13;
3;FRA;Languedoc-Roussillon;Gard;Mauressargues 30163;E4.1667;N43.9667;13;
3;FRA;Languedoc-Roussillon;Gard;Méjannes-le-Clap 30164;E4.3333;N44.2333;13;
3;FRA;Languedoc-Roussillon;Gard;Méjannes-lès-Alès 30165;E4.1500;N44.1000;13;
3;FRA;Languedoc-Roussillon;Gard;Meynes 30166;E4.5667;N43.8833;13;
3;FRA;Languedoc-Roussillon;Gard;Meyrannes 30167;E4.1667;N44.2667;13;
3;FRA;Languedoc-Roussillon;Gard;Mialet 30168;E3.9500;N44.1167;13;
3;FRA;Languedoc-Roussillon;Gard;Milhaud 30169;E4.3000;N43.7833;13;
3;FRA;Languedoc-Roussillon;Gard;Molières-Cavaillac 30170;E3.5667;N43.9667;13;
3;FRA;Languedoc-Roussillon;Gard;Molières-sur-Cèze 30171;E4.1500;N44.2500;13;
3;FRA;Languedoc-Roussillon;Gard;Monoblet 30172;E3.8833;N44.0000;13;
3;FRA;Languedoc-Roussillon;Gard;Mons 30173;E4.1740;N44.1147;13;
3;FRA;Languedoc-Roussillon;Gard;Montagnac 30354;E4.1667;N43.9500;13;
3;FRA;Languedoc-Roussillon;Gard;Montaren-et-Saint-Médiers 30174;E4.3833;N44.0333;13;
3;FRA;Languedoc-Roussillon;Gard;Montclus 30175;E4.4333;N44.2667;13;
3;FRA;Languedoc-Roussillon;Gard;Montdardier 30176;E3.5833;N43.9333;13;
3;FRA;Languedoc-Roussillon;Gard;Monteils 30177;E4.1833;N44.1000;13;
3;FRA;Languedoc-Roussillon;Gard;Montfaucon 30178;E4.7500;N44.0833;13;
3;FRA;Languedoc-Roussillon;Gard;Montfrin 30179;E4.6000;N43.8833;13;
3;FRA;Languedoc-Roussillon;Gard;Montignargues 30180;E4.2167;N43.9333;13;
3;FRA;Languedoc-Roussillon;Gard;Montmirat 30181;E4.1000;N43.9167;13;
3;FRA;Languedoc-Roussillon;Gard;Montpezat 30182;E4.1500;N43.8500;13;
3;FRA;Languedoc-Roussillon;Gard;Moulézan 30183;E4.1333;N43.9333;13;
3;FRA;Languedoc-Roussillon;Gard;Moussac 30184;E4.2167;N43.9833;13;
3;FRA;Languedoc-Roussillon;Gard;Mus 30185;E4.2000;N43.7333;13;
3;FRA;Languedoc-Roussillon;Gard;Nages-et-Solorgues 30186;E4.2333;N43.7833;13;
3;FRA;Languedoc-Roussillon;Gard;Navacelles 30187;E4.2500;N44.1667;13;
3;FRA;Languedoc-Roussillon;Gard;Ners 30188;E4.1667;N44.0167;13;
3;FRA;Languedoc-Roussillon;Gard;Nîmes 30189;E4.3500;N43.8333;13;
3;FRA;Languedoc-Roussillon;Gard;Notre-Dame-de-la-Rouvière 30190;E3.7000;N44.0500;13;
3;FRA;Languedoc-Roussillon;Gard;Orsan 30191;E4.6667;N44.1333;13;
3;FRA;Languedoc-Roussillon;Gard;Orthoux-Sérignac-Quilhan 30192;E4.0288;N43.8902;13;
3;FRA;Languedoc-Roussillon;Gard;Parignargues 30193;E4.2000;N43.8667;13;
3;FRA;Languedoc-Roussillon;Gard;Peyremale 30194;E4.0333;N44.3000;13;
3;FRA;Languedoc-Roussillon;Gard;Peyroles 30195;E3.8333;N44.1167;13;
3;FRA;Languedoc-Roussillon;Gard;Pommiers 30199;E3.6000;N43.9500;13;
3;FRA;Languedoc-Roussillon;Gard;Pompignan 30200;E3.8500;N43.9000;13;
3;FRA;Languedoc-Roussillon;Gard;Pont-Saint-Esprit 30202;E4.6500;N44.2500;13;
3;FRA;Languedoc-Roussillon;Gard;Ponteils-et-Brésis 30201;E3.9667;N44.4000;13;
3;FRA;Languedoc-Roussillon;Gard;Portes 30203;E4.0333;N44.2667;13;
3;FRA;Languedoc-Roussillon;Gard;Potelières 30204;E4.2500;N44.2333;13;
3;FRA;Languedoc-Roussillon;Gard;Pougnadoresse 30205;E4.5167;N44.1000;13;
3;FRA;Languedoc-Roussillon;Gard;Poulx 30206;E4.4167;N43.9167;13;
3;FRA;Languedoc-Roussillon;Gard;Pouzilhac 30207;E4.5833;N44.0500;13;
3;FRA;Languedoc-Roussillon;Gard;Puechredon 30208;E4.0333;N43.9500;13;
3;FRA;Languedoc-Roussillon;Gard;Pujaut 30209;E4.7833;N44.0000;13;
3;FRA;Languedoc-Roussillon;Gard;Quissac 30210;E4.0000;N43.9167;13;
3;FRA;Languedoc-Roussillon;Gard;Redessan 30211;E4.5000;N43.8333;13;
3;FRA;Languedoc-Roussillon;Gard;Remoulins 30212;E4.5667;N43.9333;13;
3;FRA;Languedoc-Roussillon;Gard;Revens 30213;E3.3000;N44.0917;13;
3;FRA;Languedoc-Roussillon;Gard;Ribaute-les-Tavernes 30214;E4.0833;N44.0333;13;
3;FRA;Languedoc-Roussillon;Gard;Rivières 30215;E4.2833;N44.2500;13;
3;FRA;Languedoc-Roussillon;Gard;Robiac-Rochessadoule 30216;E4.1221;N44.2742;13;
3;FRA;Languedoc-Roussillon;Gard;Rochefort-du-Gard 30217;E4.6833;N43.9667;13;
3;FRA;Languedoc-Roussillon;Gard;Rochegude 30218;E4.3000;N44.2500;13;
3;FRA;Languedoc-Roussillon;Gard;Rodilhan 30356;E4.4333;N43.8333;13;
3;FRA;Languedoc-Roussillon;Gard;Rogues 30219;E3.5833;N43.8833;13;
3;FRA;Languedoc-Roussillon;Gard;Roquedur 30220;E3.6667;N43.9667;13;
3;FRA;Languedoc-Roussillon;Gard;Roquemaure 30221;E4.7833;N44.0500;13;
3;FRA;Languedoc-Roussillon;Gard;Rousson 30223;E4.1500;N44.2000;13;
3;FRA;Languedoc-Roussillon;Gard;Sabran 30225;E4.5500;N44.1500;13;
3;FRA;Languedoc-Roussillon;Gard;Saint-Alexandre 30226;E4.6333;N44.2167;13;
3;FRA;Languedoc-Roussillon;Gard;Saint-Ambroix 30227;E4.1833;N44.2500;13;
3;FRA;Languedoc-Roussillon;Gard;Saint-André-d'Olérargues 30232;E4.4833;N44.1667;13;
3;FRA;Languedoc-Roussillon;Gard;Saint-André-de-Majencoules 30229;E3.6667;N44.0333;13;
3;FRA;Languedoc-Roussillon;Gard;Saint-André-de-Roquepertuis 30230;E4.4500;N44.2333;13;
3;FRA;Languedoc-Roussillon;Gard;Saint-André-de-Valborgne 30231;E3.6833;N44.1500;13;
3;FRA;Languedoc-Roussillon;Gard;Saint-Bauzély 30233;E4.2167;N43.9167;13;
3;FRA;Languedoc-Roussillon;Gard;Saint-Bénézet 30234;E4.1500;N43.9833;13;
3;FRA;Languedoc-Roussillon;Gard;Saint-Bonnet-de-Salendrinque 30236;E3.8699;N44.0348;13;
3;FRA;Languedoc-Roussillon;Gard;Saint-Bonnet-du-Gard 30235;E4.5500;N43.9333;13;
3;FRA;Languedoc-Roussillon;Gard;Saint-Brès 30237;E4.1991;N44.2773;13;
3;FRA;Languedoc-Roussillon;Gard;Saint-Bresson 30238;E3.6500;N43.9500;13;
3;FRA;Languedoc-Roussillon;Gard;Saint-Césaire-de-Gauzignan 30240;E4.2167;N44.0167;13;
3;FRA;Languedoc-Roussillon;Gard;Saint-Chaptes 30241;E4.2833;N43.9667;13;
3;FRA;Languedoc-Roussillon;Gard;Saint-Christol-de-Rodières 30242;E4.5000;N44.2667;13;
3;FRA;Languedoc-Roussillon;Gard;Saint-Christol-lès-Alès 30243;E4.0833;N44.0833;13;
3;FRA;Languedoc-Roussillon;Gard;Saint-Clément 30244;E4.0333;N43.8167;13;
3;FRA;Languedoc-Roussillon;Gard;Saint-Côme-et-Maruéjols 30245;E4.2000;N43.8167;13;
3;FRA;Languedoc-Roussillon;Gard;Saint-Denis 30247;E4.2500;N44.2500;13;
3;FRA;Languedoc-Roussillon;Gard;Saint-Dézéry 30248;E4.2667;N44.0000;13;
3;FRA;Languedoc-Roussillon;Gard;Saint-Dionizy 30249;E4.2333;N43.8000;13;
3;FRA;Languedoc-Roussillon;Gard;Saint-Étienne-de-l'Olm 30250;E4.1846;N44.0580;13;
3;FRA;Languedoc-Roussillon;Gard;Saint-Étienne-des-Sorts 30251;E4.7000;N44.1833;13;
3;FRA;Languedoc-Roussillon;Gard;Saint-Félix-de-Pallières 30252;E3.9333;N44.0167;13;
3;FRA;Languedoc-Roussillon;Gard;Saint-Florent-sur-Auzonnet 30253;E4.1167;N44.2333;13;
3;FRA;Languedoc-Roussillon;Gard;Saint-Geniès-de-Comolas 30254;E4.7333;N44.0667;13;
3;FRA;Languedoc-Roussillon;Gard;Saint-Geniès-de-Malgoirès 30255;E4.2167;N43.9500;13;
3;FRA;Languedoc-Roussillon;Gard;Saint-Gervais 30256;E4.5667;N44.1833;13;
3;FRA;Languedoc-Roussillon;Gard;Saint-Gervasy 30257;E4.4833;N43.8833;13;
3;FRA;Languedoc-Roussillon;Gard;Saint-Gilles 30258;E4.4333;N43.6833;13;
3;FRA;Languedoc-Roussillon;Gard;Saint-Hilaire-d'Ozilhan 30260;E4.5833;N43.9667;13;
3;FRA;Languedoc-Roussillon;Gard;Saint-Hilaire-de-Brethmas 30259;E4.1333;N44.0833;13;
3;FRA;Languedoc-Roussillon;Gard;Saint-Hippolyte-de-Caton 30261;E4.2167;N44.0833;13;
3;FRA;Languedoc-Roussillon;Gard;Saint-Hippolyte-de-Montaigu 30262;E4.4833;N44.0333;13;
3;FRA;Languedoc-Roussillon;Gard;Saint-Hippolyte-du-Fort 30263;E3.8500;N43.9667;13;
3;FRA;Languedoc-Roussillon;Gard;Saint-Jean-de-Ceyrargues 30264;E4.2333;N44.0500;13;
3;FRA;Languedoc-Roussillon;Gard;Saint-Jean-de-Crieulon 30265;E3.9833;N43.9500;13;
3;FRA;Languedoc-Roussillon;Gard;Saint-Jean-de-Serres 30267;E4.0667;N44.0000;13;
3;FRA;Languedoc-Roussillon;Gard;Saint-Jean-de-Valériscle 30268;E4.1333;N44.2333;13;
3;FRA;Languedoc-Roussillon;Gard;Saint-Jean-du-Gard 30269;E3.8833;N44.1000;13;
3;FRA;Languedoc-Roussillon;Gard;Saint-Jean-du-Pin 30270;E4.0525;N44.1165;13;
3;FRA;Languedoc-Roussillon;Gard;Saint-Julien-de-Cassagnas 30271;E4.2000;N44.2333;13;
3;FRA;Languedoc-Roussillon;Gard;Saint-Julien-de-la-Nef 30272;E3.6833;N43.9500;13;
3;FRA;Languedoc-Roussillon;Gard;Saint-Julien-de-Peyrolas 30273;E4.5833;N44.2833;13;
3;FRA;Languedoc-Roussillon;Gard;Saint-Julien-les-Rosiers 30274;E4.0911;N44.1792;13;
3;FRA;Languedoc-Roussillon;Gard;Saint-Just-et-Vacquières 30275;E4.2167;N44.1167;13;
3;FRA;Languedoc-Roussillon;Gard;Saint-Laurent-d'Aigouze 30276;E4.2000;N43.6333;13;
3;FRA;Languedoc-Roussillon;Gard;Saint-Laurent-de-Carnols 30277;E4.5333;N44.2000;13;
3;FRA;Languedoc-Roussillon;Gard;Saint-Laurent-des-Arbres 30278;E4.7000;N44.0500;13;
3;FRA;Languedoc-Roussillon;Gard;Saint-Laurent-la-Vernède 30279;E4.4667;N44.1000;13;
3;FRA;Languedoc-Roussillon;Gard;Saint-Laurent-le-Minier 30280;E3.6500;N43.9333;13;
3;FRA;Languedoc-Roussillon;Gard;Saint-Mamert-du-Gard 30281;E4.2000;N43.8833;13;
3;FRA;Languedoc-Roussillon;Gard;Saint-Marcel-de-Careiret 30282;E4.4833;N44.1500;13;
3;FRA;Languedoc-Roussillon;Gard;Saint-Martial 30283;E3.7333;N44.0333;13;
3;FRA;Languedoc-Roussillon;Gard;Saint-Martin-de-Valgalgues 30284;E4.0833;N44.1667;13;
3;FRA;Languedoc-Roussillon;Gard;Saint-Maurice-de-Cazevieille 30285;E4.2333;N44.0333;13;
3;FRA;Languedoc-Roussillon;Gard;Saint-Maximin 30286;E4.4500;N44.0000;13;
3;FRA;Languedoc-Roussillon;Gard;Saint-Michel-d'Euzet 30287;E4.5333;N44.2000;13;
3;FRA;Languedoc-Roussillon;Gard;Saint-Nazaire 30288;E4.6243;N44.1961;13;
3;FRA;Languedoc-Roussillon;Gard;Saint-Nazaire-des-Gardies 30289;E4.0167;N43.9833;13;
3;FRA;Languedoc-Roussillon;Gard;Saint-Paul-la-Coste 30291;E3.9667;N44.1667;13;
3;FRA;Languedoc-Roussillon;Gard;Saint-Paul-les-Fonts 30355;E4.6167;N44.0833;13;
3;FRA;Languedoc-Roussillon;Gard;Saint-Paulet-de-Caisson 30290;E4.6000;N44.2667;13;
3;FRA;Languedoc-Roussillon;Gard;Saint-Pons-la-Calm 30292;E4.5500;N44.1000;13;
3;FRA;Languedoc-Roussillon;Gard;Saint-Privat-de-Champclos 30293;E4.3833;N44.2833;13;
3;FRA;Languedoc-Roussillon;Gard;Saint-Privat-des-Vieux 30294;E4.1333;N44.1333;13;
3;FRA;Languedoc-Roussillon;Gard;Saint-Quentin-la-Poterie 30295;E4.4333;N44.0500;13;
3;FRA;Languedoc-Roussillon;Gard;Saint-Roman-de-Codières 30296;E3.7833;N44.0000;13;
3;FRA;Languedoc-Roussillon;Gard;Saint-Sauveur-Camprieu 30297;E3.4522;N44.1142;13;
3;FRA;Languedoc-Roussillon;Gard;Saint-Sébastien-d'Aigrefeuille 30298;E3.9864;N44.1298;13;
3;FRA;Languedoc-Roussillon;Gard;Saint-Siffret 30299;E4.4667;N44.0167;13;
3;FRA;Languedoc-Roussillon;Gard;Saint-Théodorit 30300;E4.0833;N43.9333;13;
3;FRA;Languedoc-Roussillon;Gard;Saint-Victor-de-Malcap 30303;E4.2167;N44.2500;13;
3;FRA;Languedoc-Roussillon;Gard;Saint-Victor-des-Oules 30301;E4.4833;N44.0500;13;
3;FRA;Languedoc-Roussillon;Gard;Saint-Victor-la-Coste 30302;E4.6333;N44.0667;13;
3;FRA;Languedoc-Roussillon;Gard;Sainte-Anastasie 30228;E4.3228;N43.9371;13;
3;FRA;Languedoc-Roussillon;Gard;Sainte-Cécile-d'Andorge 30239;E3.9667;N44.2500;13;
3;FRA;Languedoc-Roussillon;Gard;Sainte-Croix-de-Caderle 30246;E3.8601;N44.0725;13;
3;FRA;Languedoc-Roussillon;Gard;Salazac 30304;E4.5167;N44.2667;13;
3;FRA;Languedoc-Roussillon;Gard;Salindres 30305;E4.1667;N44.1667;13;
3;FRA;Languedoc-Roussillon;Gard;Salinelles 30306;E4.0833;N43.8000;13;
3;FRA;Languedoc-Roussillon;Gard;Sanilhac-Sagriès 30308;E4.4185;N43.9794;13;
3;FRA;Languedoc-Roussillon;Gard;Sardan 30309;E4.0500;N43.8667;13;
3;FRA;Languedoc-Roussillon;Gard;Saumane 30310;E3.7583;N44.1250;13;
3;FRA;Languedoc-Roussillon;Gard;Sauve 30311;E3.9500;N43.9333;13;
3;FRA;Languedoc-Roussillon;Gard;Sauveterre 30312;E4.7900;N44.0230;13;
3;FRA;Languedoc-Roussillon;Gard;Sauzet 30313;E4.2167;N43.9667;13;
3;FRA;Languedoc-Roussillon;Gard;Savignargues 30314;E4.0833;N43.9667;13;
3;FRA;Languedoc-Roussillon;Gard;Saze 30315;E4.6833;N43.9333;13;
3;FRA;Languedoc-Roussillon;Gard;Sénéchas 30316;E4.0000;N44.3167;13;
3;FRA;Languedoc-Roussillon;Gard;Sernhac 30317;E4.5500;N43.9167;13;
3;FRA;Languedoc-Roussillon;Gard;Servas 30318;E4.1833;N44.1500;13;
3;FRA;Languedoc-Roussillon;Gard;Serviers-et-Labaume 30319;E4.3500;N44.0500;13;
3;FRA;Languedoc-Roussillon;Gard;Seynes 30320;E4.3000;N44.1167;13;
3;FRA;Languedoc-Roussillon;Gard;Sommières 30321;E4.0833;N43.7833;13;
3;FRA;Languedoc-Roussillon;Gard;Soudorgues 30322;E3.8333;N44.0667;13;
3;FRA;Languedoc-Roussillon;Gard;Soustelle 30323;E4.0000;N44.1833;13;
3;FRA;Languedoc-Roussillon;Gard;Souvignargues 30324;E4.1167;N43.8000;13;
3;FRA;Languedoc-Roussillon;Gard;Sumène 30325;E3.7167;N43.9833;13;
3;FRA;Languedoc-Roussillon;Gard;Tavel 30326;E4.7000;N44.0167;13;
3;FRA;Languedoc-Roussillon;Gard;Tharaux 30327;E4.3167;N44.2500;13;
3;FRA;Languedoc-Roussillon;Gard;Théziers 30328;E4.6167;N43.9000;13;
3;FRA;Languedoc-Roussillon;Gard;Thoiras 30329;E3.9333;N44.0667;13;
3;FRA;Languedoc-Roussillon;Gard;Tornac 30330;E3.9833;N44.0167;13;
3;FRA;Languedoc-Roussillon;Gard;Tresques 30331;E4.5833;N44.1167;13;
3;FRA;Languedoc-Roussillon;Gard;Trèves 30332;E3.3917;N44.0750;13;
3;FRA;Languedoc-Roussillon;Gard;Uchaud 30333;E4.2667;N43.7500;13;
3;FRA;Languedoc-Roussillon;Gard;Uzès 30334;E4.4167;N44.0167;13;
3;FRA;Languedoc-Roussillon;Gard;Vabres 30335;E3.8833;N44.0167;13;
3;FRA;Languedoc-Roussillon;Gard;Vallabrègues 30336;E4.6333;N43.8500;13;
3;FRA;Languedoc-Roussillon;Gard;Vallabrix 30337;E4.4833;N44.0667;13;
3;FRA;Languedoc-Roussillon;Gard;Vallérargues 30338;E4.3500;N44.1333;13;
3;FRA;Languedoc-Roussillon;Gard;Valleraugue 30339;E3.6333;N44.0833;13;
3;FRA;Languedoc-Roussillon;Gard;Valliguières 30340;E4.5833;N44.0000;13;
3;FRA;Languedoc-Roussillon;Gard;Vauvert 30341;E4.2833;N43.7000;13;
3;FRA;Languedoc-Roussillon;Gard;Vénéjan 30342;E4.6667;N44.2000;13;
3;FRA;Languedoc-Roussillon;Gard;Verfeuil 30343;E4.4500;N44.1667;13;
3;FRA;Languedoc-Roussillon;Gard;Vergèze 30344;E4.2167;N43.7333;13;
3;FRA;Languedoc-Roussillon;Gard;Vers-Pont-du-Gard 30346;E4.5251;N43.9670;13;
3;FRA;Languedoc-Roussillon;Gard;Vestric-et-Candiac 30347;E4.2500;N43.7333;13;
3;FRA;Languedoc-Roussillon;Gard;Vézénobres 30348;E4.1500;N44.0500;13;
3;FRA;Languedoc-Roussillon;Gard;Vic-le-Fesq 30349;E4.0833;N43.8667;13;
3;FRA;Languedoc-Roussillon;Gard;Villeneuve-lès-Avignon 30351;E4.7972;N43.9631;13;
3;FRA;Languedoc-Roussillon;Gard;Villevieille 30352;E4.1000;N43.7833;13;
3;FRA;Languedoc-Roussillon;Gard;Vissec 30353;E3.4590;N43.9000;13;
2;FRA;Languedoc-Roussillon;Hérault;;E3.47;N43.59;9;
3;FRA;Languedoc-Roussillon;Hérault;Abeilhan 34001;E3.30;N43.45;13;
3;FRA;Languedoc-Roussillon;Hérault;Adissan 34002;E3.4333;N43.5333;13;
3;FRA;Languedoc-Roussillon;Hérault;Agde 34003;E3.4667;N43.3167;13;
3;FRA;Languedoc-Roussillon;Hérault;Agel 34004;E2.8500;N43.3333;13;
3;FRA;Languedoc-Roussillon;Hérault;Agonès 34005;E3.7500;N43.9167;13;
3;FRA;Languedoc-Roussillon;Hérault;Aigne 34006;E2.8167;N43.3333;13;
3;FRA;Languedoc-Roussillon;Hérault;Aigues-Vives 34007;E2.8167;N43.3333;13;
3;FRA;Languedoc-Roussillon;Hérault;Alignan-du-Vent 34009;E3.3500;N43.4667;13;
3;FRA;Languedoc-Roussillon;Hérault;Aniane 34010;E3.5833;N43.6833;13;
3;FRA;Languedoc-Roussillon;Hérault;Arboras 34011;E3.4833;N43.7167;13;
3;FRA;Languedoc-Roussillon;Hérault;Argelliers 34012;E3.6833;N43.7000;13;
3;FRA;Languedoc-Roussillon;Hérault;Aspiran 34013;E3.4333;N43.5667;13;
3;FRA;Languedoc-Roussillon;Hérault;Assas 34014;E3.8833;N43.7000;13;
3;FRA;Languedoc-Roussillon;Hérault;Assignan 34015;E2.8833;N43.4000;13;
3;FRA;Languedoc-Roussillon;Hérault;Aumelas 34016;E3.6370;N43.5980;13;
3;FRA;Languedoc-Roussillon;Hérault;Aumes 34017;E3.4667;N43.4667;13;
3;FRA;Languedoc-Roussillon;Hérault;Autignac 34018;E3.1667;N43.5000;13;
3;FRA;Languedoc-Roussillon;Hérault;Avène 34019;E3.1000;N43.7500;13;
3;FRA;Languedoc-Roussillon;Hérault;Azillanet 34020;E2.7500;N43.3167;13;
3;FRA;Languedoc-Roussillon;Hérault;Babeau-Bouldoux 34021;E2.9000;N43.4333;13;
3;FRA;Languedoc-Roussillon;Hérault;Baillargues 34022;E4.0167;N43.6667;13;
3;FRA;Languedoc-Roussillon;Hérault;Balaruc-le-Vieux 34024;E3.6833;N43.4500;13;
3;FRA;Languedoc-Roussillon;Hérault;Balaruc-les-Bains 34023;E3.6667;N43.4333;13;
3;FRA;Languedoc-Roussillon;Hérault;Bassan 34025;E3.2500;N43.4000;13;
3;FRA;Languedoc-Roussillon;Hérault;Beaufort 34026;E2.7667;N43.3000;13;
3;FRA;Languedoc-Roussillon;Hérault;Beaulieu 34027;E4.0167;N43.7333;13;
3;FRA;Languedoc-Roussillon;Hérault;Bédarieux 34028;E3.1500;N43.6167;13;
3;FRA;Languedoc-Roussillon;Hérault;Bélarga 34029;E3.4833;N43.5500;13;
3;FRA;Languedoc-Roussillon;Hérault;Berlou 34030;E2.9500;N43.4833;13;
3;FRA;Languedoc-Roussillon;Hérault;Bessan 34031;E3.4167;N43.3667;13;
3;FRA;Languedoc-Roussillon;Hérault;Béziers 34032;E3.2500;N43.3500;13;
3;FRA;Languedoc-Roussillon;Hérault;Boisseron 34033;E4.0833;N43.7500;13;
3;FRA;Languedoc-Roussillon;Hérault;Boisset 34034;E2.7051;N43.4016;13;
3;FRA;Languedoc-Roussillon;Hérault;Boujan-sur-Libron 34037;E3.2500;N43.3667;13;
3;FRA;Languedoc-Roussillon;Hérault;Bouzigues 34039;E3.6500;N43.4500;13;
3;FRA;Languedoc-Roussillon;Hérault;Brenas 34040;E3.2500;N43.6500;13;
3;FRA;Languedoc-Roussillon;Hérault;Brignac 34041;E3.4667;N43.6167;13;
3;FRA;Languedoc-Roussillon;Hérault;Brissac 34042;E3.7000;N43.8667;13;
3;FRA;Languedoc-Roussillon;Hérault;Buzignargues 34043;E4.0000;N43.7667;13;
3;FRA;Languedoc-Roussillon;Hérault;Cabrerolles 34044;E3.1333;N43.5333;13;
3;FRA;Languedoc-Roussillon;Hérault;Cabrières 34045;E3.3667;N43.5833;13;
3;FRA;Languedoc-Roussillon;Hérault;Cambon-et-Salvergues 34046;E2.8667;N43.6167;13;
3;FRA;Languedoc-Roussillon;Hérault;Campagnan 34047;E3.4833;N43.5333;13;
3;FRA;Languedoc-Roussillon;Hérault;Campagne 34048;E4.0333;N43.7833;13;
3;FRA;Languedoc-Roussillon;Hérault;Camplong 34049;E3.1333;N43.6667;13;
3;FRA;Languedoc-Roussillon;Hérault;Candillargues 34050;E4.0667;N43.6167;13;
3;FRA;Languedoc-Roussillon;Hérault;Canet 34051;E3.5000;N43.6000;13;
3;FRA;Languedoc-Roussillon;Hérault;Capestang 34052;E3.0333;N43.3333;13;
3;FRA;Languedoc-Roussillon;Hérault;Carlencas-et-Levas 34053;E3.2333;N43.6333;13;
3;FRA;Languedoc-Roussillon;Hérault;Cassagnoles 34054;E2.6167;N43.3833;13;
3;FRA;Languedoc-Roussillon;Hérault;Castanet-le-Haut 34055;E2.9667;N43.6667;13;
3;FRA;Languedoc-Roussillon;Hérault;Castelnau-de-Guers 34056;E3.4333;N43.4333;13;
3;FRA;Languedoc-Roussillon;Hérault;Castelnau-le-Lez 34057;E3.9000;N43.6333;13;
3;FRA;Languedoc-Roussillon;Hérault;Castries 34058;E3.9833;N43.6667;13;
3;FRA;Languedoc-Roussillon;Hérault;Causse-de-la-Selle 34060;E3.6500;N43.8000;13;
3;FRA;Languedoc-Roussillon;Hérault;Causses-et-Veyran 34061;E3.0833;N43.4667;13;
3;FRA;Languedoc-Roussillon;Hérault;Caussiniojouls 34062;E3.1500;N43.5500;13;
3;FRA;Languedoc-Roussillon;Hérault;Caux 34063;E3.3667;N43.5000;13;
3;FRA;Languedoc-Roussillon;Hérault;Cazedarnes 34065;E3.0333;N43.4167;13;
3;FRA;Languedoc-Roussillon;Hérault;Cazevieille 34066;E3.8000;N43.7667;13;
3;FRA;Languedoc-Roussillon;Hérault;Cazilhac 34067;E3.7000;N43.9250;13;
3;FRA;Languedoc-Roussillon;Hérault;Cazouls-d'Hérault 34068;E3.4667;N43.4833;13;
3;FRA;Languedoc-Roussillon;Hérault;Cazouls-lès-Béziers 34069;E3.1000;N43.3833;13;
3;FRA;Languedoc-Roussillon;Hérault;Cébazan 34070;E2.9833;N43.4000;13;
3;FRA;Languedoc-Roussillon;Hérault;Ceilhes-et-Rocozels 34071;E3.1000;N43.8000;13;
3;FRA;Languedoc-Roussillon;Hérault;Celles 34072;E3.3500;N43.6667;13;
3;FRA;Languedoc-Roussillon;Hérault;Cers 34073;E3.3000;N43.3167;13;
3;FRA;Languedoc-Roussillon;Hérault;Cessenon-sur-Orb 34074;E3.0480;N43.4495;13;
3;FRA;Languedoc-Roussillon;Hérault;Cesseras 34075;E2.7167;N43.3333;13;
3;FRA;Languedoc-Roussillon;Hérault;Ceyras 34076;E3.4573;N43.6454;13;
3;FRA;Languedoc-Roussillon;Hérault;Clapiers 34077;E3.8833;N43.6500;13;
3;FRA;Languedoc-Roussillon;Hérault;Claret 34078;E3.9000;N43.8667;13;
3;FRA;Languedoc-Roussillon;Hérault;Clermont-l'Hérault 34079;E3.4333;N43.6167;13;
3;FRA;Languedoc-Roussillon;Hérault;Colombières-sur-Orb 34080;E3.0121;N43.5808;13;
3;FRA;Languedoc-Roussillon;Hérault;Colombiers 34081;E3.1333;N43.3167;13;
3;FRA;Languedoc-Roussillon;Hérault;Combaillaux 34082;E3.7500;N43.6667;13;
3;FRA;Languedoc-Roussillon;Hérault;Combes 34083;E3.0667;N43.6000;13;
3;FRA;Languedoc-Roussillon;Hérault;Corneilhan 34084;E3.1833;N43.4000;13;
3;FRA;Languedoc-Roussillon;Hérault;Coulobres 34085;E3.2833;N43.4500;13;
3;FRA;Languedoc-Roussillon;Hérault;Courniou 34086;E2.7333;N43.4667;13;
3;FRA;Languedoc-Roussillon;Hérault;Cournonsec 34087;E3.7167;N43.5500;13;
3;FRA;Languedoc-Roussillon;Hérault;Cournonterral 34088;E3.7167;N43.5500;13;
3;FRA;Languedoc-Roussillon;Hérault;Creissan 34089;E3.0167;N43.3667;13;
3;FRA;Languedoc-Roussillon;Hérault;Cruzy 34092;E2.9500;N43.3500;13;
3;FRA;Languedoc-Roussillon;Hérault;Dio-et-Valquières 34093;E3.2000;N43.6667;13;
3;FRA;Languedoc-Roussillon;Hérault;Espondeilhan 34094;E3.2667;N43.4333;13;
3;FRA;Languedoc-Roussillon;Hérault;Fabrègues 34095;E3.7667;N43.5500;13;
3;FRA;Languedoc-Roussillon;Hérault;Faugères 34096;E3.1833;N43.5667;13;
3;FRA;Languedoc-Roussillon;Hérault;Félines-Minervois 34097;E2.6000;N43.3333;13;
3;FRA;Languedoc-Roussillon;Hérault;Ferrals-les-Montagnes 34098;E2.6333;N43.4000;13;
3;FRA;Languedoc-Roussillon;Hérault;Ferrières-les-Verreries 34099;E3.8000;N43.8833;13;
3;FRA;Languedoc-Roussillon;Hérault;Ferrières-Poussarou 34100;E2.8833;N43.4833;13;
3;FRA;Languedoc-Roussillon;Hérault;Florensac 34101;E3.4500;N43.3833;13;
3;FRA;Languedoc-Roussillon;Hérault;Fontanès 34102;E3.9143;N43.7934;13;
3;FRA;Languedoc-Roussillon;Hérault;Fontès 34103;E3.3667;N43.5333;13;
3;FRA;Languedoc-Roussillon;Hérault;Fos 34104;E3.2500;N43.5667;13;
3;FRA;Languedoc-Roussillon;Hérault;Fouzilhon 34105;E3.2500;N43.5000;13;
3;FRA;Languedoc-Roussillon;Hérault;Fozières 34106;E3.3500;N43.7500;13;
3;FRA;Languedoc-Roussillon;Hérault;Fraisse-sur-Agout 34107;E2.8167;N43.6000;13;
3;FRA;Languedoc-Roussillon;Hérault;Frontignan 34108;E3.7500;N43.4500;13;
3;FRA;Languedoc-Roussillon;Hérault;Gabian 34109;E3.2667;N43.5000;13;
3;FRA;Languedoc-Roussillon;Hérault;Galargues 34110;E4.0167;N43.7667;13;
3;FRA;Languedoc-Roussillon;Hérault;Ganges 34111;E3.7000;N43.9333;13;
3;FRA;Languedoc-Roussillon;Hérault;Garrigues 34112;E4.0167;N43.8000;13;
3;FRA;Languedoc-Roussillon;Hérault;Gigean 34113;E3.7000;N43.5000;13;
3;FRA;Languedoc-Roussillon;Hérault;Gignac 34114;E3.5500;N43.6500;13;
3;FRA;Languedoc-Roussillon;Hérault;Gorniès 34115;E3.6333;N43.9000;13;
3;FRA;Languedoc-Roussillon;Hérault;Grabels 34116;E3.7833;N43.6500;13;
3;FRA;Languedoc-Roussillon;Hérault;Graissessac 34117;E3.0833;N43.6667;13;
3;FRA;Languedoc-Roussillon;Hérault;Guzargues 34118;E3.9167;N43.7167;13;
3;FRA;Languedoc-Roussillon;Hérault;Hérépian 34119;E3.1167;N43.6000;13;
3;FRA;Languedoc-Roussillon;Hérault;Jacou 34120;E3.9000;N43.6667;13;
3;FRA;Languedoc-Roussillon;Hérault;Joncels 34121;E3.1833;N43.7333;13;
3;FRA;Languedoc-Roussillon;Hérault;Jonquières 34122;E3.4667;N43.6833;13;
3;FRA;Languedoc-Roussillon;Hérault;Juvignac 34123;E3.8000;N43.6167;13;
3;FRA;Languedoc-Roussillon;Hérault;La Boissière 34035;E3.6500;N43.6667;13;
3;FRA;Languedoc-Roussillon;Hérault;La Caunette 34059;E2.7833;N43.3500;13;
3;FRA;Languedoc-Roussillon;Hérault;La Grande-Motte 34344;E4.0833;N43.5667;13;
3;FRA;Languedoc-Roussillon;Hérault;La Livinière 34141;E2.6333;N43.3167;13;
3;FRA;Languedoc-Roussillon;Hérault;La Salvetat-sur-Agout 34293;E2.7050;N43.6010;13;
3;FRA;Languedoc-Roussillon;Hérault;La Tour-sur-Orb 34312;E3.1500;N43.6500;13;
3;FRA;Languedoc-Roussillon;Hérault;Lacoste 34124;E3.4333;N43.6500;13;
3;FRA;Languedoc-Roussillon;Hérault;Lagamas 34125;E3.5167;N43.6667;13;
3;FRA;Languedoc-Roussillon;Hérault;Lamalou-les-Bains 34126;E3.0667;N43.6000;13;
3;FRA;Languedoc-Roussillon;Hérault;Lansargues 34127;E4.0667;N43.6500;13;
3;FRA;Languedoc-Roussillon;Hérault;Laroque 34128;E3.7333;N43.9167;13;
3;FRA;Languedoc-Roussillon;Hérault;Lattes 34129;E3.9000;N43.5667;13;
3;FRA;Languedoc-Roussillon;Hérault;Laurens 34130;E3.2000;N43.5167;13;
3;FRA;Languedoc-Roussillon;Hérault;Lauret 34131;E3.8833;N43.8333;13;
3;FRA;Languedoc-Roussillon;Hérault;Lauroux 34132;E3.2833;N43.7833;13;
3;FRA;Languedoc-Roussillon;Hérault;Lavalette 34133;E3.2667;N43.7000;13;
3;FRA;Languedoc-Roussillon;Hérault;Lavérune 34134;E3.8333;N43.5833;13;
3;FRA;Languedoc-Roussillon;Hérault;Le Bosc 34036;E3.3833;N43.7167;13;
3;FRA;Languedoc-Roussillon;Hérault;Le Bousquet-d'Orb 34038;E3.1667;N43.7000;13;
3;FRA;Languedoc-Roussillon;Hérault;Le Caylar 34064;E3.3000;N43.8500;13;
3;FRA;Languedoc-Roussillon;Hérault;Le Crès 34090;E3.9333;N43.6500;13;
3;FRA;Languedoc-Roussillon;Hérault;Le Cros 34091;E3.3667;N43.8667;13;
3;FRA;Languedoc-Roussillon;Hérault;Le Pouget 34210;E3.5167;N43.5833;13;
3;FRA;Languedoc-Roussillon;Hérault;Le Poujol-sur-Orb 34211;E3.0500;N43.5833;13;
3;FRA;Languedoc-Roussillon;Hérault;Le Pradal 34216;E3.1167;N43.6333;13;
3;FRA;Languedoc-Roussillon;Hérault;Le Puech 34220;E3.3167;N43.7000;13;
3;FRA;Languedoc-Roussillon;Hérault;Le Soulié 34305;E2.7167;N43.5500;13;
3;FRA;Languedoc-Roussillon;Hérault;Le Triadou 34314;E3.8667;N43.7333;13;
3;FRA;Languedoc-Roussillon;Hérault;Les Aires 34008;E3.1167;N43.5833;13;
3;FRA;Languedoc-Roussillon;Hérault;Les Matelles 34153;E3.8167;N43.7333;13;
3;FRA;Languedoc-Roussillon;Hérault;Les Plans 34205;E3.2833;N43.7500;13;
3;FRA;Languedoc-Roussillon;Hérault;Les Rives 34230;E3.2667;N43.8333;13;
3;FRA;Languedoc-Roussillon;Hérault;Lespignan 34135;E3.1667;N43.2667;13;
3;FRA;Languedoc-Roussillon;Hérault;Lézignan-la-Cèbe 34136;E3.4333;N43.5000;13;
3;FRA;Languedoc-Roussillon;Hérault;Liausson 34137;E3.3833;N43.6333;13;
3;FRA;Languedoc-Roussillon;Hérault;Lieuran-Cabrières 34138;E3.4333;N43.5833;13;
3;FRA;Languedoc-Roussillon;Hérault;Lieuran-lès-Béziers 34139;E3.2333;N43.4167;13;
3;FRA;Languedoc-Roussillon;Hérault;Lignan-sur-Orb 34140;E3.1833;N43.3833;13;
3;FRA;Languedoc-Roussillon;Hérault;Lodève 34142;E3.3167;N43.7167;13;
3;FRA;Languedoc-Roussillon;Hérault;Loupian 34143;E3.6167;N43.4500;13;
3;FRA;Languedoc-Roussillon;Hérault;Lunas 34144;E3.2000;N43.7000;13;
3;FRA;Languedoc-Roussillon;Hérault;Lunel 34145;E4.1333;N43.6833;13;
3;FRA;Languedoc-Roussillon;Hérault;Lunel-Viel 34146;E4.0833;N43.6833;13;
3;FRA;Languedoc-Roussillon;Hérault;Magalas 34147;E3.2167;N43.4667;13;
3;FRA;Languedoc-Roussillon;Hérault;Maraussan 34148;E3.1500;N43.3667;13;
3;FRA;Languedoc-Roussillon;Hérault;Margon 34149;E3.3167;N43.4833;13;
3;FRA;Languedoc-Roussillon;Hérault;Marseillan 34150;E3.5333;N43.3500;13;
3;FRA;Languedoc-Roussillon;Hérault;Marsillargues 34151;E4.1833;N43.6667;13;
3;FRA;Languedoc-Roussillon;Hérault;Mas-de-Londres 34152;E3.7500;N43.7833;13;
3;FRA;Languedoc-Roussillon;Hérault;Mauguio 34154;E4.0167;N43.6167;13;
3;FRA;Languedoc-Roussillon;Hérault;Maureilhan 34155;E3.1197;N43.3586;13;
3;FRA;Languedoc-Roussillon;Hérault;Mérifons 34156;E3.2833;N43.6333;13;
3;FRA;Languedoc-Roussillon;Hérault;Mèze 34157;E3.6000;N43.4167;13;
3;FRA;Languedoc-Roussillon;Hérault;Minerve 34158;E2.7500;N43.3500;13;
3;FRA;Languedoc-Roussillon;Hérault;Mireval 34159;E3.8000;N43.5000;13;
3;FRA;Languedoc-Roussillon;Hérault;Mons 34160;E2.9554;N43.5706;13;
3;FRA;Languedoc-Roussillon;Hérault;Montady 34161;E3.1167;N43.3333;13;
3;FRA;Languedoc-Roussillon;Hérault;Montagnac 34162;E3.4833;N43.4833;13;
3;FRA;Languedoc-Roussillon;Hérault;Montarnaud 34163;E3.7000;N43.6500;13;
3;FRA;Languedoc-Roussillon;Hérault;Montaud 34164;E3.9500;N43.7500;13;
3;FRA;Languedoc-Roussillon;Hérault;Montbazin 34165;E3.6833;N43.5167;13;
3;FRA;Languedoc-Roussillon;Hérault;Montblanc 34166;E3.3667;N43.4000;13;
3;FRA;Languedoc-Roussillon;Hérault;Montels 34167;E3.0333;N43.3000;13;
3;FRA;Languedoc-Roussillon;Hérault;Montesquieu 34168;E3.2667;N43.5667;13;
3;FRA;Languedoc-Roussillon;Hérault;Montferrier-sur-Lez 34169;E3.8500;N43.6667;13;
3;FRA;Languedoc-Roussillon;Hérault;Montouliers 34170;E2.9000;N43.3333;13;
3;FRA;Languedoc-Roussillon;Hérault;Montoulieu 34171;E3.8000;N43.9333;13;
3;FRA;Languedoc-Roussillon;Hérault;Montpellier 34172;E3.8833;N43.6000;13;
3;FRA;Languedoc-Roussillon;Hérault;Montpeyroux 34173;E3.5000;N43.6833;13;
3;FRA;Languedoc-Roussillon;Hérault;Moulès-et-Baucels 34174;E3.7167;N43.9500;13;
3;FRA;Languedoc-Roussillon;Hérault;Mourèze 34175;E3.3667;N43.6167;13;
3;FRA;Languedoc-Roussillon;Hérault;Mudaison 34176;E4.0403;N43.6488;13;
3;FRA;Languedoc-Roussillon;Hérault;Murles 34177;E3.7667;N43.6833;13;
3;FRA;Languedoc-Roussillon;Hérault;Murviel-lès-Béziers 34178;E3.1449;N43.4407;13;
3;FRA;Languedoc-Roussillon;Hérault;Murviel-lès-Montpellier 34179;E3.7333;N43.6167;13;
3;FRA;Languedoc-Roussillon;Hérault;Nébian 34180;E3.4333;N43.6000;13;
3;FRA;Languedoc-Roussillon;Hérault;Neffiès 34181;E3.3333;N43.5333;13;
3;FRA;Languedoc-Roussillon;Hérault;Nézignan-l'Évêque 34182;E3.4167;N43.4167;13;
3;FRA;Languedoc-Roussillon;Hérault;Nissan-lez-Enserune 34183;E3.1333;N43.2833;13;
3;FRA;Languedoc-Roussillon;Hérault;Nizas 34184;E3.4167;N43.5167;13;
3;FRA;Languedoc-Roussillon;Hérault;Notre-Dame-de-Londres 34185;E3.7833;N43.8167;13;
3;FRA;Languedoc-Roussillon;Hérault;Octon 34186;E3.3000;N43.6500;13;
3;FRA;Languedoc-Roussillon;Hérault;Olargues 34187;E2.9167;N43.5500;13;
3;FRA;Languedoc-Roussillon;Hérault;Olmet-et-Villecun 34188;E3.3167;N43.7167;13;
3;FRA;Languedoc-Roussillon;Hérault;Olonzac 34189;E2.7333;N43.2667;13;
3;FRA;Languedoc-Roussillon;Hérault;Oupia 34190;E2.7667;N43.2833;13;
3;FRA;Languedoc-Roussillon;Hérault;Pailhès 34191;E3.1833;N43.4333;13;
3;FRA;Languedoc-Roussillon;Hérault;Palavas-les-Flots 34192;E3.9333;N43.5333;13;
3;FRA;Languedoc-Roussillon;Hérault;Pardailhan 34193;E2.8500;N43.4500;13;
3;FRA;Languedoc-Roussillon;Hérault;Paulhan 34194;E3.4500;N43.5333;13;
3;FRA;Languedoc-Roussillon;Hérault;Pégairolles-de-Buèges 34195;E3.5833;N43.8000;13;
3;FRA;Languedoc-Roussillon;Hérault;Pégairolles-de-l'Escalette 34196;E3.3231;N43.8017;13;
3;FRA;Languedoc-Roussillon;Hérault;Péret 34197;E3.4167;N43.5833;13;
3;FRA;Languedoc-Roussillon;Hérault;Pérols 34198;E3.9500;N43.5667;13;
3;FRA;Languedoc-Roussillon;Hérault;Pézenas 34199;E3.4167;N43.4500;13;
3;FRA;Languedoc-Roussillon;Hérault;Pézènes-les-Mines 34200;E3.2500;N43.5833;13;
3;FRA;Languedoc-Roussillon;Hérault;Pierrerue 34201;E2.9667;N43.4333;13;
3;FRA;Languedoc-Roussillon;Hérault;Pignan 34202;E3.7667;N43.5833;13;
3;FRA;Languedoc-Roussillon;Hérault;Pinet 34203;E3.5167;N43.4000;13;
3;FRA;Languedoc-Roussillon;Hérault;Plaissan 34204;E3.5333;N43.5500;13;
3;FRA;Languedoc-Roussillon;Hérault;Poilhes 34206;E3.0833;N43.3167;13;
3;FRA;Languedoc-Roussillon;Hérault;Pomérols 34207;E3.5000;N43.4000;13;
3;FRA;Languedoc-Roussillon;Hérault;Popian 34208;E3.5333;N43.6167;13;
3;FRA;Languedoc-Roussillon;Hérault;Portiragnes 34209;E3.3333;N43.3000;13;
3;FRA;Languedoc-Roussillon;Hérault;Poujols 34212;E3.3333;N43.7667;13;
3;FRA;Languedoc-Roussillon;Hérault;Poussan 34213;E3.6667;N43.4833;13;
3;FRA;Languedoc-Roussillon;Hérault;Pouzolles 34214;E3.2667;N43.4833;13;
3;FRA;Languedoc-Roussillon;Hérault;Pouzols 34215;E3.5000;N43.6167;13;
3;FRA;Languedoc-Roussillon;Hérault;Prades-le-Lez 34217;E3.8667;N43.7000;13;
3;FRA;Languedoc-Roussillon;Hérault;Prades-sur-Vernazobre 34218;E2.9833;N43.4500;13;
3;FRA;Languedoc-Roussillon;Hérault;Prémian 34219;E2.8333;N43.5333;13;
3;FRA;Languedoc-Roussillon;Hérault;Puéchabon 34221;E3.6167;N43.7167;13;
3;FRA;Languedoc-Roussillon;Hérault;Puilacher 34222;E3.5000;N43.5667;13;
3;FRA;Languedoc-Roussillon;Hérault;Puimisson 34223;E3.2000;N43.4333;13;
3;FRA;Languedoc-Roussillon;Hérault;Puissalicon 34224;E3.2333;N43.4500;13;
3;FRA;Languedoc-Roussillon;Hérault;Puisserguier 34225;E3.0333;N43.3667;13;
3;FRA;Languedoc-Roussillon;Hérault;Quarante 34226;E2.9667;N43.3500;13;
3;FRA;Languedoc-Roussillon;Hérault;Restinclières 34227;E4.0333;N43.7167;13;
3;FRA;Languedoc-Roussillon;Hérault;Rieussec 34228;E2.7500;N43.4167;13;
3;FRA;Languedoc-Roussillon;Hérault;Riols 34229;E2.7833;N43.5000;13;
3;FRA;Languedoc-Roussillon;Hérault;Romiguières 34231;E3.2333;N43.8167;13;
3;FRA;Languedoc-Roussillon;Hérault;Roquebrun 34232;E3.0167;N43.5000;13;
3;FRA;Languedoc-Roussillon;Hérault;Roqueredonde 34233;E3.2167;N43.8000;13;
3;FRA;Languedoc-Roussillon;Hérault;Roquessels 34234;E3.2167;N43.5500;13;
3;FRA;Languedoc-Roussillon;Hérault;Rosis 34235;E3.0000;N43.6167;13;
3;FRA;Languedoc-Roussillon;Hérault;Rouet 34236;E3.7905;N43.8181;13;
3;FRA;Languedoc-Roussillon;Hérault;Roujan 34237;E3.3000;N43.5167;13;
3;FRA;Languedoc-Roussillon;Hérault;Saint-André-de-Buèges 34238;E3.6626;N43.8482;13;
3;FRA;Languedoc-Roussillon;Hérault;Saint-André-de-Sangonis 34239;E3.5000;N43.6500;13;
3;FRA;Languedoc-Roussillon;Hérault;Saint-Aunès 34240;E3.9667;N43.6333;13;
3;FRA;Languedoc-Roussillon;Hérault;Saint-Bauzille-de-la-Sylve 34241;E3.5500;N43.6167;13;
3;FRA;Languedoc-Roussillon;Hérault;Saint-Bauzille-de-Montmel 34242;E3.9500;N43.7667;13;
3;FRA;Languedoc-Roussillon;Hérault;Saint-Bauzille-de-Putois 34243;E3.7333;N43.9000;13;
3;FRA;Languedoc-Roussillon;Hérault;Saint-Brès 34244;E4.0250;N43.6667;13;
3;FRA;Languedoc-Roussillon;Hérault;Saint-Chinian 34245;E2.9500;N43.4167;13;
3;FRA;Languedoc-Roussillon;Hérault;Saint-Christol 34246;E4.0833;N43.7333;13;
3;FRA;Languedoc-Roussillon;Hérault;Saint-Clément-de-Rivière 34247;E3.8496;N43.6827;13;
3;FRA;Languedoc-Roussillon;Hérault;Saint-Drézéry 34249;E3.9833;N43.7333;13;
3;FRA;Languedoc-Roussillon;Hérault;Saint-Étienne-d'Albagnan 34250;E2.8500;N43.5333;13;
3;FRA;Languedoc-Roussillon;Hérault;Saint-Étienne-de-Gourgas 34251;E3.3833;N43.7667;13;
3;FRA;Languedoc-Roussillon;Hérault;Saint-Étienne-Estréchoux 34252;E3.0833;N43.6667;13;
3;FRA;Languedoc-Roussillon;Hérault;Saint-Félix-de-l'Héras 34253;E3.3000;N43.8333;13;
3;FRA;Languedoc-Roussillon;Hérault;Saint-Félix-de-Lodez 34254;E3.4500;N43.6500;13;
3;FRA;Languedoc-Roussillon;Hérault;Saint-Gély-du-Fesc 34255;E3.8000;N43.7000;13;
3;FRA;Languedoc-Roussillon;Hérault;Saint-Geniès-de-Fontedit 34258;E3.1787;N43.4686;13;
3;FRA;Languedoc-Roussillon;Hérault;Saint-Geniès-de-Varensal 34257;E3.0000;N43.6667;13;
3;FRA;Languedoc-Roussillon;Hérault;Saint-Geniès-des-Mourgues 34256;E4.0333;N43.7000;13;
3;FRA;Languedoc-Roussillon;Hérault;Saint-Georges-d'Orques 34259;E3.7833;N43.6167;13;
3;FRA;Languedoc-Roussillon;Hérault;Saint-Gervais-sur-Mare 34260;E3.0333;N43.6500;13;
3;FRA;Languedoc-Roussillon;Hérault;Saint-Guilhem-le-Désert 34261;E3.5500;N43.7333;13;
3;FRA;Languedoc-Roussillon;Hérault;Saint-Guiraud 34262;E3.4500;N43.6833;13;
3;FRA;Languedoc-Roussillon;Hérault;Saint-Hilaire-de-Beauvoir 34263;E4.0167;N43.7500;13;
3;FRA;Languedoc-Roussillon;Hérault;Saint-Jean-de-Buèges 34264;E3.6167;N43.8333;13;
3;FRA;Languedoc-Roussillon;Hérault;Saint-Jean-de-Cornies 34265;E4.0000;N43.7333;13;
3;FRA;Languedoc-Roussillon;Hérault;Saint-Jean-de-Cuculles 34266;E3.8333;N43.7500;13;
3;FRA;Languedoc-Roussillon;Hérault;Saint-Jean-de-Fos 34267;E3.5500;N43.7000;13;
3;FRA;Languedoc-Roussillon;Hérault;Saint-Jean-de-la-Blaquière 34268;E3.4167;N43.7000;13;
3;FRA;Languedoc-Roussillon;Hérault;Saint-Jean-de-Minervois 34269;E2.8333;N43.3833;13;
3;FRA;Languedoc-Roussillon;Hérault;Saint-Jean-de-Védas 34270;E3.8333;N43.5833;13;
3;FRA;Languedoc-Roussillon;Hérault;Saint-Julien 34271;E2.9167;N43.5667;13;
3;FRA;Languedoc-Roussillon;Hérault;Saint-Just 34272;E4.1167;N43.6500;13;
3;FRA;Languedoc-Roussillon;Hérault;Saint-Martin-de-l'Arçon 34273;E2.9833;N43.5833;13;
3;FRA;Languedoc-Roussillon;Hérault;Saint-Martin-de-Londres 34274;E3.7333;N43.7833;13;
3;FRA;Languedoc-Roussillon;Hérault;Saint-Martin-des-Combes 34275=34186;E3.2622;N43.6736;13;
3;FRA;Languedoc-Roussillon;Hérault;Saint-Mathieu-de-Tréviers 34276;E3.8500;N43.7667;13;
3;FRA;Languedoc-Roussillon;Hérault;Saint-Maurice-Navacelles 34277;E3.5000;N43.8333;13;
3;FRA;Languedoc-Roussillon;Hérault;Saint-Michel 34278;E3.3833;N43.8500;13;
3;FRA;Languedoc-Roussillon;Hérault;Saint-Nazaire-de-Ladarez 34279;E3.0833;N43.5000;13;
3;FRA;Languedoc-Roussillon;Hérault;Saint-Nazaire-de-Pézan 34280;E4.1333;N43.6333;13;
3;FRA;Languedoc-Roussillon;Hérault;Saint-Pargoire 34281;E3.5167;N43.5333;13;
3;FRA;Languedoc-Roussillon;Hérault;Saint-Paul-et-Valmalle 34282;E3.6667;N43.6333;13;
3;FRA;Languedoc-Roussillon;Hérault;Saint-Pierre-de-la-Fage 34283;E3.4167;N43.7833;13;
3;FRA;Languedoc-Roussillon;Hérault;Saint-Pons-de-Mauchiens 34285;E3.5167;N43.5167;13;
3;FRA;Languedoc-Roussillon;Hérault;Saint-Pons-de-Thomières 34284;E2.7609;N43.4884;13;
3;FRA;Languedoc-Roussillon;Hérault;Saint-Privat 34286;E3.4167;N43.7500;13;
3;FRA;Languedoc-Roussillon;Hérault;Saint-Saturnin-de-Lucian 34287;E3.4703;N43.6949;13;
3;FRA;Languedoc-Roussillon;Hérault;Saint-Sériès 34288;E4.1000;N43.7333;13;
3;FRA;Languedoc-Roussillon;Hérault;Saint-Thibéry 34289;E3.4167;N43.4000;13;
3;FRA;Languedoc-Roussillon;Hérault;Saint-Vincent-d'Olargues 34291;E2.8788;N43.5608;13;
3;FRA;Languedoc-Roussillon;Hérault;Saint-Vincent-de-Barbeyrargues 34290;E3.8768;N43.7059;13;
3;FRA;Languedoc-Roussillon;Hérault;Sainte-Croix-de-Quintillargues 34248;E3.9082;N43.7732;13;
3;FRA;Languedoc-Roussillon;Hérault;Salasc 34292;E3.3167;N43.6167;13;
3;FRA;Languedoc-Roussillon;Hérault;Saturargues 34294;E4.1167;N43.7167;13;
3;FRA;Languedoc-Roussillon;Hérault;Saussan 34295;E3.8000;N43.5833;13;
3;FRA;Languedoc-Roussillon;Hérault;Saussines 34296;E4.0570;N43.7637;13;
3;FRA;Languedoc-Roussillon;Hérault;Sauteyrargues 34297;E3.9167;N43.8333;13;
3;FRA;Languedoc-Roussillon;Hérault;Sauvian 34298;E3.2667;N43.3000;13;
3;FRA;Languedoc-Roussillon;Hérault;Sérignan 34299;E3.2833;N43.2833;13;
3;FRA;Languedoc-Roussillon;Hérault;Servian 34300;E3.3000;N43.4167;13;
3;FRA;Languedoc-Roussillon;Hérault;Sète 34301;E3.6833;N43.4000;13;
3;FRA;Languedoc-Roussillon;Hérault;Siran 34302;E2.6667;N43.3167;13;
3;FRA;Languedoc-Roussillon;Hérault;Sorbs 34303;E3.4000;N43.8833;13;
3;FRA;Languedoc-Roussillon;Hérault;Soubès 34304;E3.3500;N43.7667;13;
3;FRA;Languedoc-Roussillon;Hérault;Soumont 34306;E3.3667;N43.7333;13;
3;FRA;Languedoc-Roussillon;Hérault;Sussargues 34307;E4.0000;N43.7000;13;
3;FRA;Languedoc-Roussillon;Hérault;Taussac-la-Billière 34308;E3.1000;N43.6167;13;
3;FRA;Languedoc-Roussillon;Hérault;Teyran 34309;E3.9167;N43.6833;13;
3;FRA;Languedoc-Roussillon;Hérault;Thézan-lès-Béziers 34310;E3.1667;N43.4167;13;
3;FRA;Languedoc-Roussillon;Hérault;Tourbes 34311;E3.3833;N43.4500;13;
3;FRA;Languedoc-Roussillon;Hérault;Tressan 34313;E3.5000;N43.5667;13;
3;FRA;Languedoc-Roussillon;Hérault;Usclas-d'Hérault 34315;E3.4651;N43.5188;13;
3;FRA;Languedoc-Roussillon;Hérault;Usclas-du-Bosc 34316;E3.4000;N43.7167;13;
3;FRA;Languedoc-Roussillon;Hérault;Vacquières 34318;E3.9445;N43.8446;13;
3;FRA;Languedoc-Roussillon;Hérault;Vailhan 34319;E3.3000;N43.5500;13;
3;FRA;Languedoc-Roussillon;Hérault;Vailhauquès 34320;E3.7167;N43.6667;13;
3;FRA;Languedoc-Roussillon;Hérault;Valergues 34321;E4.0667;N43.6667;13;
3;FRA;Languedoc-Roussillon;Hérault;Valflaunès 34322;E3.8667;N43.8000;13;
3;FRA;Languedoc-Roussillon;Hérault;Valmascle 34323;E3.3000;N43.6000;13;
3;FRA;Languedoc-Roussillon;Hérault;Valras-Plage 34324;E3.2833;N43.2500;13;
3;FRA;Languedoc-Roussillon;Hérault;Valros 34325;E3.3667;N43.4167;13;
3;FRA;Languedoc-Roussillon;Hérault;Vélieux 34326;E2.7500;N43.3833;13;
3;FRA;Languedoc-Roussillon;Hérault;Vendargues 34327;E3.9667;N43.6500;13;
3;FRA;Languedoc-Roussillon;Hérault;Vendémian 34328;E3.5667;N43.5833;13;
3;FRA;Languedoc-Roussillon;Hérault;Vendres 34329;E3.2167;N43.2667;13;
3;FRA;Languedoc-Roussillon;Hérault;Vérargues 34330;E4.1000;N43.7167;13;
3;FRA;Languedoc-Roussillon;Hérault;Verreries-de-Moussans 34331;E2.7000;N43.4500;13;
3;FRA;Languedoc-Roussillon;Hérault;Vias 34332;E3.4167;N43.3000;13;
3;FRA;Languedoc-Roussillon;Hérault;Vic-la-Gardiole 34333;E3.8000;N43.4833;13;
3;FRA;Languedoc-Roussillon;Hérault;Vieussan 34334;E2.9833;N43.5333;13;
3;FRA;Languedoc-Roussillon;Hérault;Villemagne-l'Argentière 34335;E3.1196;N43.6174;13;
3;FRA;Languedoc-Roussillon;Hérault;Villeneuve-lès-Béziers 34336;E3.2667;N43.3167;13;
3;FRA;Languedoc-Roussillon;Hérault;Villeneuve-lès-Maguelone 34337;E3.8800;N43.5176;13;
3;FRA;Languedoc-Roussillon;Hérault;Villeneuvette 34338;E3.4167;N43.6167;13;
3;FRA;Languedoc-Roussillon;Hérault;Villespassans 34339;E2.9000;N43.3833;13;
3;FRA;Languedoc-Roussillon;Hérault;Villetelle 34340;E4.1500;N43.7333;13;
3;FRA;Languedoc-Roussillon;Hérault;Villeveyrac 34341;E3.6000;N43.5000;13;
3;FRA;Languedoc-Roussillon;Hérault;Viols-en-Laval 34342;E3.7309;N43.7520;13;
3;FRA;Languedoc-Roussillon;Hérault;Viols-le-Fort 34343;E3.7000;N43.7500;13;
2;FRA;Languedoc-Roussillon;Lozère;;E3.52;N44.47;9;
3;FRA;Languedoc-Roussillon;Lozère;Albaret-le-Comtal 48001;E3.1500;N44.8667;13;
3;FRA;Languedoc-Roussillon;Lozère;Albaret-Sainte-Marie 48002;E3.2667;N44.8833;13;
3;FRA;Languedoc-Roussillon;Lozère;Allenc 48003;E3.6667;N44.5333;13;
3;FRA;Languedoc-Roussillon;Lozère;Altier 48004;E3.8667;N44.4667;13;
3;FRA;Languedoc-Roussillon;Lozère;Antrenas 48005;E3.2667;N44.5833;13;
3;FRA;Languedoc-Roussillon;Lozère;Arcomie 48006=48012;E3.2333;N44.8667;13;
3;FRA;Languedoc-Roussillon;Lozère;Arzenc-d'Apcher 48007;E3.1167;N44.8500;13;
3;FRA;Languedoc-Roussillon;Lozère;Arzenc-de-Randon 48008;E3.6167;N44.6500;13;
3;FRA;Languedoc-Roussillon;Lozère;Aumont-Aubrac 48009;E3.2833;N44.7167;13;
3;FRA;Languedoc-Roussillon;Lozère;Auroux 48010;E3.7333;N44.7500;13;
3;FRA;Languedoc-Roussillon;Lozère;Auxillac 48011=48034;E3.2333;N44.4667;13;
3;FRA;Languedoc-Roussillon;Lozère;Badaroux 48013;E3.5500;N44.5333;13;
3;FRA;Languedoc-Roussillon;Lozère;Bagnols-les-Bains 48014;E3.6667;N44.5000;13;
3;FRA;Languedoc-Roussillon;Lozère;Balsièges 48016;E3.4667;N44.4833;13;
3;FRA;Languedoc-Roussillon;Lozère;Banassac 48017;E3.2000;N44.4333;13;
3;FRA;Languedoc-Roussillon;Lozère;Barjac 48018;E3.4000;N44.5000;13;
3;FRA;Languedoc-Roussillon;Lozère;Barre-des-Cévennes 48019;E3.6500;N44.2500;13;
3;FRA;Languedoc-Roussillon;Lozère;Bassurels 48020;E3.6167;N44.1833;13;
3;FRA;Languedoc-Roussillon;Lozère;Bédouès 48022;E3.6000;N44.3500;13;
3;FRA;Languedoc-Roussillon;Lozère;Belvezet 48023;E3.7500;N44.5500;13;
3;FRA;Languedoc-Roussillon;Lozère;Berc 48024=48012;E3.2167;N44.8333;13;
3;FRA;Languedoc-Roussillon;Lozère;Blavignac 48026;E3.2833;N44.8833;13;
3;FRA;Languedoc-Roussillon;Lozère;Brenoux 48030;E3.5333;N44.4833;13;
3;FRA;Languedoc-Roussillon;Lozère;Brion 48031;E3.0833;N44.7500;13;
3;FRA;Languedoc-Roussillon;Lozère;Canilhac 48033;E3.1500;N44.4167;13;
3;FRA;Languedoc-Roussillon;Lozère;Cassagnas 48036;E3.7500;N44.2667;13;
3;FRA;Languedoc-Roussillon;Lozère;Chadenet 48037;E3.6167;N44.5000;13;
3;FRA;Languedoc-Roussillon;Lozère;Chambon-le-Château 48038;E3.6667;N44.8500;13;
3;FRA;Languedoc-Roussillon;Lozère;Chanac 48039;E3.3333;N44.4667;13;
3;FRA;Languedoc-Roussillon;Lozère;Chasseradès 48040;E3.8167;N44.5500;13;
3;FRA;Languedoc-Roussillon;Lozère;Chastanier 48041;E3.7500;N44.7167;13;
3;FRA;Languedoc-Roussillon;Lozère;Chastel-Nouvel 48042;E3.5167;N44.5667;13;
3;FRA;Languedoc-Roussillon;Lozère;Châteauneuf-de-Randon 48043;E3.6667;N44.6500;13;
3;FRA;Languedoc-Roussillon;Lozère;Chauchailles 48044;E3.1000;N44.7833;13;
3;FRA;Languedoc-Roussillon;Lozère;Chaudeyrac 48045;E3.7500;N44.6500;13;
3;FRA;Languedoc-Roussillon;Lozère;Chaulhac 48046;E3.2500;N44.9167;13;
3;FRA;Languedoc-Roussillon;Lozère;Cheylard-l'Évêque 48048;E3.8000;N44.6500;13;
3;FRA;Languedoc-Roussillon;Lozère;Chirac 48049;E3.2667;N44.5333;13;
3;FRA;Languedoc-Roussillon;Lozère;Cocurès 48050;E3.6167;N44.3500;13;
3;FRA;Languedoc-Roussillon;Lozère;Combret 48052=48004;E3.1828;N44.5074;13;
3;FRA;Languedoc-Roussillon;Lozère;Cubières 48053;E3.7667;N44.4667;13;
3;FRA;Languedoc-Roussillon;Lozère;Cubiérettes 48054;E3.7833;N44.4500;13;
3;FRA;Languedoc-Roussillon;Lozère;Cultures 48055;E3.3833;N44.5000;13;
3;FRA;Languedoc-Roussillon;Lozère;Esclanèdes 48056;E3.3667;N44.4833;13;
3;FRA;Languedoc-Roussillon;Lozère;Estables 48057;E3.4167;N44.6667;13;
3;FRA;Languedoc-Roussillon;Lozère;Fau-de-Peyre 48060;E3.2167;N44.7333;13;
3;FRA;Languedoc-Roussillon;Lozère;Florac 48061;E3.6000;N44.3167;13;
3;FRA;Languedoc-Roussillon;Lozère;Fontanes 48062;E3.7833;N44.7667;13;
3;FRA;Languedoc-Roussillon;Lozère;Fontans 48063;E3.4000;N44.7333;13;
3;FRA;Languedoc-Roussillon;Lozère;Fournels 48064;E3.1167;N44.8167;13;
3;FRA;Languedoc-Roussillon;Lozère;Fraissinet-de-Fourques 48065;E3.5333;N44.2167;13;
3;FRA;Languedoc-Roussillon;Lozère;Fraissinet-de-Lozère 48066;E3.7000;N44.3833;13;
3;FRA;Languedoc-Roussillon;Lozère;Gabriac 48067;E3.7333;N44.1833;13;
3;FRA;Languedoc-Roussillon;Lozère;Gabrias 48068;E3.3833;N44.5500;13;
3;FRA;Languedoc-Roussillon;Lozère;Gatuzières 48069;E3.4833;N44.2000;13;
3;FRA;Languedoc-Roussillon;Lozère;Grandrieu 48070;E3.6333;N44.7833;13;
3;FRA;Languedoc-Roussillon;Lozère;Grandvals 48071;E3.0500;N44.7333;13;
3;FRA;Languedoc-Roussillon;Lozère;Grèzes 48072;E3.3333;N44.5167;13;
3;FRA;Languedoc-Roussillon;Lozère;Hures-la-Parade 48074;E3.3516;N44.2441;13;
3;FRA;Languedoc-Roussillon;Lozère;Ispagnac 48075;E3.5333;N44.3667;13;
3;FRA;Languedoc-Roussillon;Lozère;Javols 48076;E3.3500;N44.6833;13;
3;FRA;Languedoc-Roussillon;Lozère;Julianges 48077;E3.3167;N44.9333;13;
3;FRA;Languedoc-Roussillon;Lozère;La Bastide-Puylaurent 48021;E3.9000;N44.6000;13;
3;FRA;Languedoc-Roussillon;Lozère;La Canourgue 48034;E3.2167;N44.4167;13;
3;FRA;Languedoc-Roussillon;Lozère;La Capelle 48035=48034;E3.3000;N44.4000;13;
3;FRA;Languedoc-Roussillon;Lozère;La Chaze-de-Peyre 48047;E3.2500;N44.7000;13;
3;FRA;Languedoc-Roussillon;Lozère;La Fage-Montivernoux 48058;E3.1833;N44.7500;13;
3;FRA;Languedoc-Roussillon;Lozère;La Fage-Saint-Julien 48059;E3.2000;N44.8000;13;
3;FRA;Languedoc-Roussillon;Lozère;La Malène 48088;E3.3167;N44.3000;13;
3;FRA;Languedoc-Roussillon;Lozère;La Panouse 48108;E3.5833;N44.7333;13;
3;FRA;Languedoc-Roussillon;Lozère;La Parade 48109=48074;E3.3516;N44.2441;13;
3;FRA;Languedoc-Roussillon;Lozère;La Salle-Prunet 48186;E3.6145;N44.3158;13;
3;FRA;Languedoc-Roussillon;Lozère;La Tieule 48191;E3.1500;N44.3833;13;
3;FRA;Languedoc-Roussillon;Lozère;La Villedieu 48197;E3.5000;N44.7000;13;
3;FRA;Languedoc-Roussillon;Lozère;Lachamp 48078;E3.3833;N44.6167;13;
3;FRA;Languedoc-Roussillon;Lozère;Lajo 48079;E3.4333;N44.8333;13;
3;FRA;Languedoc-Roussillon;Lozère;Langogne 48080;E3.8500;N44.7167;13;
3;FRA;Languedoc-Roussillon;Lozère;Lanuéjols 48081;E3.5667;N44.5000;13;
3;FRA;Languedoc-Roussillon;Lozère;Laubert 48082;E3.6333;N44.5500;13;
3;FRA;Languedoc-Roussillon;Lozère;Laval-Atger 48084;E3.6833;N44.8000;13;
3;FRA;Languedoc-Roussillon;Lozère;Laval-du-Tarn 48085;E3.3500;N44.3500;13;
3;FRA;Languedoc-Roussillon;Lozère;Le Bleymard 48027;E3.7333;N44.4833;13;
3;FRA;Languedoc-Roussillon;Lozère;Le Born 48029;E3.5500;N44.5667;13;
3;FRA;Languedoc-Roussillon;Lozère;Le Buisson 48032;E3.2333;N44.6333;13;
3;FRA;Languedoc-Roussillon;Lozère;Le Collet-de-Dèze 48051;E3.9167;N44.2500;13;
3;FRA;Languedoc-Roussillon;Lozère;Le Malzieu-Forain 48089;E3.3749;N44.8516;13;
3;FRA;Languedoc-Roussillon;Lozère;Le Malzieu-Ville 48090;E3.3500;N44.8500;13;
3;FRA;Languedoc-Roussillon;Lozère;Le Massegros 48094;E3.1833;N44.3000;13;
3;FRA;Languedoc-Roussillon;Lozère;Le Monastier-Pin-Moriès 48099;E3.2397;N44.4908;13;
3;FRA;Languedoc-Roussillon;Lozère;Le Pompidou 48115;E3.6500;N44.2000;13;
3;FRA;Languedoc-Roussillon;Lozère;Le Pont-de-Montvert 48116;E3.7500;N44.3667;13;
3;FRA;Languedoc-Roussillon;Lozère;Le Recoux 48125;E3.1500;N44.3333;13;
3;FRA;Languedoc-Roussillon;Lozère;Le Rozier 48131;E3.2167;N44.1833;13;
3;FRA;Languedoc-Roussillon;Lozère;Le Villard 48196=48039;E3.3000;N44.4833;13;
3;FRA;Languedoc-Roussillon;Lozère;Les Bessons 48025;E3.2500;N44.7667;13;
3;FRA;Languedoc-Roussillon;Lozère;Les Bondons 48028;E3.6167;N44.3833;13;
3;FRA;Languedoc-Roussillon;Lozère;Les Hermaux 48073;E3.1167;N44.5167;13;
3;FRA;Languedoc-Roussillon;Lozère;Les Laubies 48083;E3.4333;N44.6833;13;
3;FRA;Languedoc-Roussillon;Lozère;Les Monts-Verts 48012;E3.2274;N44.8497;13;
3;FRA;Languedoc-Roussillon;Lozère;Les Salces 48187;E3.1500;N44.5333;13;
3;FRA;Languedoc-Roussillon;Lozère;Les Salelles 48185;E3.2833;N44.4833;13;
3;FRA;Languedoc-Roussillon;Lozère;Les Vignes 48195;E3.2333;N44.2833;13;
3;FRA;Languedoc-Roussillon;Lozère;Luc 48086;E3.8833;N44.6500;13;
3;FRA;Languedoc-Roussillon;Lozère;Malbouzon 48087;E3.1333;N44.7000;13;
3;FRA;Languedoc-Roussillon;Lozère;Marchastel 48091;E3.1167;N44.6500;13;
3;FRA;Languedoc-Roussillon;Lozère;Marvejols 48092;E3.2833;N44.5500;13;
3;FRA;Languedoc-Roussillon;Lozère;Mas-d'Orcières 48093;E3.4000;N44.3167;13;
3;FRA;Languedoc-Roussillon;Lozère;Mas-Saint-Chély 48141;E3.7000;N44.4667;13;
3;FRA;Languedoc-Roussillon;Lozère;Mende 48095;E3.5000;N44.5167;13;
3;FRA;Languedoc-Roussillon;Lozère;Meyrueis 48096;E3.4333;N44.1667;13;
3;FRA;Languedoc-Roussillon;Lozère;Moissac-Vallée-Française 48097;E3.7685;N44.1656;13;
3;FRA;Languedoc-Roussillon;Lozère;Molezon 48098;E3.6667;N44.2167;13;
3;FRA;Languedoc-Roussillon;Lozère;Montbel 48100;E3.7167;N44.5833;13;
3;FRA;Languedoc-Roussillon;Lozère;Montbrun 48101;E3.5000;N44.3333;13;
3;FRA;Languedoc-Roussillon;Lozère;Montjézieu 48102=48034;E3.2000;N44.4833;13;
3;FRA;Languedoc-Roussillon;Lozère;Montrodat 48103;E3.3333;N44.5500;13;
3;FRA;Languedoc-Roussillon;Lozère;Nasbinals 48104;E3.0500;N44.6667;13;
3;FRA;Languedoc-Roussillon;Lozère;Naussac 48105;E3.7833;N44.7500;13;
3;FRA;Languedoc-Roussillon;Lozère;Noalhac 48106;E3.1333;N44.8167;13;
3;FRA;Languedoc-Roussillon;Lozère;Palhers 48107;E3.3000;N44.5333;13;
3;FRA;Languedoc-Roussillon;Lozère;Paulhac-en-Margeride 48110;E3.3833;N44.8667;13;
3;FRA;Languedoc-Roussillon;Lozère;Pelouse 48111;E3.6175;N44.5681;13;
3;FRA;Languedoc-Roussillon;Lozère;Pied-de-Borne 48015;E3.9847;N44.4759;13;
3;FRA;Languedoc-Roussillon;Lozère;Pierrefiche 48112;E3.7333;N44.6833;13;
3;FRA;Languedoc-Roussillon;Lozère;Pin-Moriès 48113=48099;E3.2402;N44.4909;13;
3;FRA;Languedoc-Roussillon;Lozère;Planchamp 48114=48015;E3.9782;N44.4792;13;
3;FRA;Languedoc-Roussillon;Lozère;Pourcharesses 48117;E3.9181;N44.4710;13;
3;FRA;Languedoc-Roussillon;Lozère;Prades 48118=48146;E3.4667;N44.3500;13;
3;FRA;Languedoc-Roussillon;Lozère;Prévenchères 48119;E3.9167;N44.5167;13;
3;FRA;Languedoc-Roussillon;Lozère;Prinsuéjols 48120;E3.1833;N44.6667;13;
3;FRA;Languedoc-Roussillon;Lozère;Prunières 48121;E3.3500;N44.8167;13;
3;FRA;Languedoc-Roussillon;Lozère;Quézac 48122;E3.5333;N44.3667;13;
3;FRA;Languedoc-Roussillon;Lozère;Recoules-d'Aubrac 48123;E3.0333;N44.6833;13;
3;FRA;Languedoc-Roussillon;Lozère;Recoules-de-Fumas 48124;E3.3500;N44.6333;13;
3;FRA;Languedoc-Roussillon;Lozère;Ribennes 48126;E3.4000;N44.6333;13;
3;FRA;Languedoc-Roussillon;Lozère;Rieutort-de-Randon 48127;E3.4792;N44.6353;13;
3;FRA;Languedoc-Roussillon;Lozère;Rimeize 48128;E3.3167;N44.7667;13;
3;FRA;Languedoc-Roussillon;Lozère;Rocles 48129;E3.7833;N44.7000;13;
3;FRA;Languedoc-Roussillon;Lozère;Rousses 48130;E3.6000;N44.2000;13;
3;FRA;Languedoc-Roussillon;Lozère;Saint-Alban-sur-Limagnole 48132;E3.3833;N44.7833;13;
3;FRA;Languedoc-Roussillon;Lozère;Saint-Amans 48133;E3.4500;N44.6583;13;
3;FRA;Languedoc-Roussillon;Lozère;Saint-Andéol-de-Clerguemort 48134;E3.9000;N44.2833;13;
3;FRA;Languedoc-Roussillon;Lozère;Saint-André-Capcèze 48135;E3.9500;N44.4167;13;
3;FRA;Languedoc-Roussillon;Lozère;Saint-André-de-Lancize 48136;E3.8167;N44.2667;13;
3;FRA;Languedoc-Roussillon;Lozère;Saint-Bauzile 48137;E3.5021;N44.4817;13;
3;FRA;Languedoc-Roussillon;Lozère;Saint-Bonnet-de-Chirac 48138;E3.2667;N44.5167;13;
3;FRA;Languedoc-Roussillon;Lozère;Saint-Bonnet-de-Montauroux 48139;E3.7167;N44.8167;13;
3;FRA;Languedoc-Roussillon;Lozère;Saint-Chély-d'Apcher 48140;E3.2833;N44.8000;13;
3;FRA;Languedoc-Roussillon;Lozère;Saint-Denis-en-Margeride 48145;E3.4725;N44.7364;13;
3;FRA;Languedoc-Roussillon;Lozère;Saint-Étienne-du-Valdonnez 48147;E3.5667;N44.4500;13;
3;FRA;Languedoc-Roussillon;Lozère;Saint-Étienne-Vallée-Française 48148;E3.8425;N44.1678;13;
3;FRA;Languedoc-Roussillon;Lozère;Saint-Flour-de-Mercoire 48150;E3.8333;N44.7000;13;
3;FRA;Languedoc-Roussillon;Lozère;Saint-Frézal-d'Albuges 48151;E3.7667;N44.5500;13;
3;FRA;Languedoc-Roussillon;Lozère;Saint-Frézal-de-Ventalon 48152;E3.8667;N44.2833;13;
3;FRA;Languedoc-Roussillon;Lozère;Saint-Gal 48153;E3.4333;N44.6667;13;
3;FRA;Languedoc-Roussillon;Lozère;Saint-Georges-de-Lévéjac 48154;E3.2333;N44.3167;13;
3;FRA;Languedoc-Roussillon;Lozère;Saint-Germain-de-Calberte 48155;E3.8000;N44.2167;13;
3;FRA;Languedoc-Roussillon;Lozère;Saint-Germain-du-Teil 48156;E3.1667;N44.4833;13;
3;FRA;Languedoc-Roussillon;Lozère;Saint-Hilaire-de-Lavit 48158;E3.8667;N44.2500;13;
3;FRA;Languedoc-Roussillon;Lozère;Saint-Jean-Chazorne 48159=48015;E3.9824;N44.5010;13;
3;FRA;Languedoc-Roussillon;Lozère;Saint-Jean-la-Fouillouse 48160;E3.6667;N44.7000;13;
3;FRA;Languedoc-Roussillon;Lozère;Saint-Juéry 48161;E3.1000;N44.8333;13;
3;FRA;Languedoc-Roussillon;Lozère;Saint-Julien-d'Arpaon 48162;E3.6667;N44.3000;13;
3;FRA;Languedoc-Roussillon;Lozère;Saint-Julien-des-Points 48163;E3.9667;N44.2667;13;
3;FRA;Languedoc-Roussillon;Lozère;Saint-Julien-du-Tournel 48164;E3.6667;N44.4833;13;
3;FRA;Languedoc-Roussillon;Lozère;Saint-Laurent-de-Muret 48165;E3.2000;N44.6000;13;
3;FRA;Languedoc-Roussillon;Lozère;Saint-Laurent-de-Trèves 48166;E3.6000;N44.2667;13;
3;FRA;Languedoc-Roussillon;Lozère;Saint-Laurent-de-Veyrès 48167;E3.1500;N44.7667;13;
3;FRA;Languedoc-Roussillon;Lozère;Saint-Léger-de-Peyre 48168;E3.3000;N44.6000;13;
3;FRA;Languedoc-Roussillon;Lozère;Saint-Léger-du-Malzieu 48169;E3.3167;N44.8833;13;
3;FRA;Languedoc-Roussillon;Lozère;Saint-Martin-de-Boubaux 48170;E3.9167;N44.2000;13;
3;FRA;Languedoc-Roussillon;Lozère;Saint-Martin-de-Lansuscle 48171;E3.7500;N44.2167;13;
3;FRA;Languedoc-Roussillon;Lozère;Saint-Maurice-de-Ventalon 48172;E3.8333;N44.3167;13;
3;FRA;Languedoc-Roussillon;Lozère;Saint-Michel-de-Dèze 48173;E3.9000;N44.2333;13;
3;FRA;Languedoc-Roussillon;Lozère;Saint-Paul-le-Froid 48174;E3.5667;N44.7833;13;
3;FRA;Languedoc-Roussillon;Lozère;Saint-Pierre-de-Nogaret 48175;E3.1333;N44.4833;13;
3;FRA;Languedoc-Roussillon;Lozère;Saint-Pierre-des-Tripiers 48176;E3.2833;N44.2333;13;
3;FRA;Languedoc-Roussillon;Lozère;Saint-Pierre-le-Vieux 48177;E3.3191;N44.8412;13;
3;FRA;Languedoc-Roussillon;Lozère;Saint-Privat-de-Vallongue 48178;E3.8333;N44.2833;13;
3;FRA;Languedoc-Roussillon;Lozère;Saint-Privat-du-Fau 48179;E3.3500;N44.9167;13;
3;FRA;Languedoc-Roussillon;Lozère;Saint-Rome-de-Dolan 48180;E3.2167;N44.2667;13;
3;FRA;Languedoc-Roussillon;Lozère;Saint-Saturnin 48181;E3.1917;N44.4083;13;
3;FRA;Languedoc-Roussillon;Lozère;Saint-Sauveur-de-Ginestoux 48182;E3.6000;N44.7000;13;
3;FRA;Languedoc-Roussillon;Lozère;Saint-Sauveur-de-Peyre 48183;E3.2833;N44.6500;13;
3;FRA;Languedoc-Roussillon;Lozère;Saint-Symphorien 48184;E3.6167;N44.8333;13;
3;FRA;Languedoc-Roussillon;Lozère;Sainte-Colombe-de-Montauroux 48143=48070;E3.6933;N44.7800;13;
3;FRA;Languedoc-Roussillon;Lozère;Sainte-Colombe-de-Peyre 48142;E3.2333;N44.6833;13;
3;FRA;Languedoc-Roussillon;Lozère;Sainte-Croix-Vallée-Française 48144;E3.7405;N44.1803;13;
3;FRA;Languedoc-Roussillon;Lozère;Sainte-Enimie 48146;E3.4167;N44.3667;13;
3;FRA;Languedoc-Roussillon;Lozère;Sainte-Eulalie 48149;E3.4500;N44.7833;13;
3;FRA;Languedoc-Roussillon;Lozère;Sainte-Hélène 48157;E3.6035;N44.5187;13;
3;FRA;Languedoc-Roussillon;Lozère;Serverette 48188;E3.3833;N44.7000;13;
3;FRA;Languedoc-Roussillon;Lozère;Servières 48189;E3.4167;N44.5833;13;
3;FRA;Languedoc-Roussillon;Lozère;Termes 48190;E3.1668;N44.8133;13;
3;FRA;Languedoc-Roussillon;Lozère;Trélans 48192;E3.0833;N44.5000;13;
3;FRA;Languedoc-Roussillon;Lozère;Vebron 48193;E3.5667;N44.2333;13;
3;FRA;Languedoc-Roussillon;Lozère;Vialas 48194;E3.9000;N44.3333;13;
3;FRA;Languedoc-Roussillon;Lozère;Villefort 48198;E3.9328;N44.4403;13;
2;FRA;Languedoc-Roussillon;Pyrénées-Orientales;;E2.72;N42.67;9;
3;FRA;Languedoc-Roussillon;Pyrénées-Orientales;Alénya 66002;E2.9833;N42.6333;13;
3;FRA;Languedoc-Roussillon;Pyrénées-Orientales;Amélie-les-Bains 66235=66003;E2.6694;N47.4722;13;
3;FRA;Languedoc-Roussillon;Pyrénées-Orientales;Amélie-les-Bains-Palalda 66003;E2.6667;N42.4667;13;
3;FRA;Languedoc-Roussillon;Pyrénées-Orientales;Ansignan 66006;E2.5167;N42.7667;13;
3;FRA;Languedoc-Roussillon;Pyrénées-Orientales;Arboussols 66007;E2.4833;N42.6667;13;
3;FRA;Languedoc-Roussillon;Pyrénées-Orientales;Argelès-sur-Mer 66008;E3.0167;N42.5500;13;
3;FRA;Languedoc-Roussillon;Pyrénées-Orientales;Arles-sur-Tech 66009;E2.6333;N42.4500;13;
3;FRA;Languedoc-Roussillon;Pyrénées-Orientales;Ayguatébia-Talau 66010;E2.1963;N42.5649;13;
3;FRA;Languedoc-Roussillon;Pyrénées-Orientales;Bages 66011;E2.8941;N42.6053;13;
3;FRA;Languedoc-Roussillon;Pyrénées-Orientales;Baho 66012;E2.8333;N42.7000;13;
3;FRA;Languedoc-Roussillon;Pyrénées-Orientales;Baillestavy 66013;E2.5333;N42.5667;13;
3;FRA;Languedoc-Roussillon;Pyrénées-Orientales;Baixas 66014;E2.8167;N42.7500;13;
3;FRA;Languedoc-Roussillon;Pyrénées-Orientales;Banyuls-dels-Aspres 66015;E2.8667;N42.5667;13;
3;FRA;Languedoc-Roussillon;Pyrénées-Orientales;Banyuls-sur-Mer 66016;E3.1333;N42.4833;13;
3;FRA;Languedoc-Roussillon;Pyrénées-Orientales;Bélesta 66019;E2.6000;N42.7167;13;
3;FRA;Languedoc-Roussillon;Pyrénées-Orientales;Bolquère 66020;E2.0833;N42.5000;13;
3;FRA;Languedoc-Roussillon;Pyrénées-Orientales;Bompas 66021;E2.9333;N42.7333;13;
3;FRA;Languedoc-Roussillon;Pyrénées-Orientales;Boule-d'Amont 66022;E2.6167;N42.5833;13;
3;FRA;Languedoc-Roussillon;Pyrénées-Orientales;Bouleternère 66023;E2.5833;N42.6500;13;
3;FRA;Languedoc-Roussillon;Pyrénées-Orientales;Bourg-Madame 66025;E1.9333;N42.4333;13;
3;FRA;Languedoc-Roussillon;Pyrénées-Orientales;Brouilla 66026;E2.9000;N42.5667;13;
3;FRA;Languedoc-Roussillon;Pyrénées-Orientales;Cabestany 66028;E2.9333;N42.6833;13;
3;FRA;Languedoc-Roussillon;Pyrénées-Orientales;Caixas 66029;E2.6833;N42.5833;13;
3;FRA;Languedoc-Roussillon;Pyrénées-Orientales;Calce 66030;E2.7500;N42.7667;13;
3;FRA;Languedoc-Roussillon;Pyrénées-Orientales;Caldégas 66031=66025;E1.9500;N42.4500;13;
3;FRA;Languedoc-Roussillon;Pyrénées-Orientales;Calmeilles 66032;E2.6833;N42.5500;13;
3;FRA;Languedoc-Roussillon;Pyrénées-Orientales;Camélas 66033;E2.6833;N42.6333;13;
3;FRA;Languedoc-Roussillon;Pyrénées-Orientales;Campôme 66034;E2.3667;N42.6500;13;
3;FRA;Languedoc-Roussillon;Pyrénées-Orientales;Campoussy 66035;E2.4500;N42.7167;13;
3;FRA;Languedoc-Roussillon;Pyrénées-Orientales;Canaveilles 66036;E2.2500;N42.5333;13;
3;FRA;Languedoc-Roussillon;Pyrénées-Orientales;Canet-en-Roussillon 66037;E3.0078;N42.7067;13;
3;FRA;Languedoc-Roussillon;Pyrénées-Orientales;Canohès 66038;E2.8333;N42.6500;13;
3;FRA;Languedoc-Roussillon;Pyrénées-Orientales;Caramany 66039;E2.5667;N42.7333;13;
3;FRA;Languedoc-Roussillon;Pyrénées-Orientales;Casefabre 66040;E2.6167;N42.6167;13;
3;FRA;Languedoc-Roussillon;Pyrénées-Orientales;Cases-de-Pène 66041;E2.7833;N42.7833;13;
3;FRA;Languedoc-Roussillon;Pyrénées-Orientales;Cassagnes 66042;E2.6167;N42.7500;13;
3;FRA;Languedoc-Roussillon;Pyrénées-Orientales;Casteil 66043;E2.4000;N42.5333;13;
3;FRA;Languedoc-Roussillon;Pyrénées-Orientales;Castelnou 66044;E2.7000;N42.6167;13;
3;FRA;Languedoc-Roussillon;Pyrénées-Orientales;Catllar 66045;E2.4167;N42.6333;13;
3;FRA;Languedoc-Roussillon;Pyrénées-Orientales;Caudiès-de-Conflent 66047;E2.1615;N42.5668;13;
3;FRA;Languedoc-Roussillon;Pyrénées-Orientales;Caudiès-de-Fenouillèdes 66046;E2.3833;N42.8167;13;
3;FRA;Languedoc-Roussillon;Pyrénées-Orientales;Cerbère 66048;E3.1667;N42.4500;13;
3;FRA;Languedoc-Roussillon;Pyrénées-Orientales;Céret 66049;E2.7500;N42.4833;13;
3;FRA;Languedoc-Roussillon;Pyrénées-Orientales;Claira 66050;E2.9500;N42.7500;13;
3;FRA;Languedoc-Roussillon;Pyrénées-Orientales;Clara 66051;E2.4333;N42.5833;13;
3;FRA;Languedoc-Roussillon;Pyrénées-Orientales;Codalet 66052;E2.4167;N42.6167;13;
3;FRA;Languedoc-Roussillon;Pyrénées-Orientales;Collioure 66053;E3.0833;N42.5167;13;
3;FRA;Languedoc-Roussillon;Pyrénées-Orientales;Conat 66054;E2.3500;N42.6167;13;
3;FRA;Languedoc-Roussillon;Pyrénées-Orientales;Corbère 66055;E2.6667;N42.6500;13;
3;FRA;Languedoc-Roussillon;Pyrénées-Orientales;Corbère-les-Cabanes 66056;E2.6833;N42.6500;13;
3;FRA;Languedoc-Roussillon;Pyrénées-Orientales;Corneilla-de-Conflent 66057;E2.3833;N42.5667;13;
3;FRA;Languedoc-Roussillon;Pyrénées-Orientales;Corneilla-del-Vercol 66059;E2.9500;N42.6333;13;
3;FRA;Languedoc-Roussillon;Pyrénées-Orientales;Corneilla-la-Rivière 66058;E2.7333;N42.7000;13;
3;FRA;Languedoc-Roussillon;Pyrénées-Orientales;Corsavy 66060;E2.5833;N42.4667;13;
3;FRA;Languedoc-Roussillon;Pyrénées-Orientales;Coustouges 66061;E2.6500;N42.3667;13;
3;FRA;Languedoc-Roussillon;Pyrénées-Orientales;Dorres 66062;E1.9333;N42.4833;13;
3;FRA;Languedoc-Roussillon;Pyrénées-Orientales;Égat 66064;E2.0167;N42.5000;13;
3;FRA;Languedoc-Roussillon;Pyrénées-Orientales;Elne 66065;E2.9667;N42.6000;13;
3;FRA;Languedoc-Roussillon;Pyrénées-Orientales;Enveitg 66066;E1.9167;N42.4667;13;
3;FRA;Languedoc-Roussillon;Pyrénées-Orientales;Err 66067;E2.0167;N42.4333;13;
3;FRA;Languedoc-Roussillon;Pyrénées-Orientales;Escaro 66068;E2.3167;N42.5333;13;
3;FRA;Languedoc-Roussillon;Pyrénées-Orientales;Espira-de-Conflent 66070;E2.5000;N42.6167;13;
3;FRA;Languedoc-Roussillon;Pyrénées-Orientales;Espira-de-l'Agly 66069;E2.8333;N42.7833;13;
3;FRA;Languedoc-Roussillon;Pyrénées-Orientales;Estagel 66071;E2.7000;N42.7667;13;
3;FRA;Languedoc-Roussillon;Pyrénées-Orientales;Estavar 66072;E1.9833;N42.4667;13;
3;FRA;Languedoc-Roussillon;Pyrénées-Orientales;Estoher 66073;E2.4833;N42.6000;13;
3;FRA;Languedoc-Roussillon;Pyrénées-Orientales;Eus 66074;E2.4500;N42.6500;13;
3;FRA;Languedoc-Roussillon;Pyrénées-Orientales;Eyne 66075;E2.0667;N42.4667;13;
3;FRA;Languedoc-Roussillon;Pyrénées-Orientales;Felluns 66076;E2.4833;N42.7667;13;
3;FRA;Languedoc-Roussillon;Pyrénées-Orientales;Fenouillet 66077;E2.3833;N42.8000;13;
3;FRA;Languedoc-Roussillon;Pyrénées-Orientales;Fillols 66078;E2.4167;N42.5667;13;
3;FRA;Languedoc-Roussillon;Pyrénées-Orientales;Finestret 66079;E2.5167;N42.6167;13;
3;FRA;Languedoc-Roussillon;Pyrénées-Orientales;Font-Romeu-Odeillo-Via 66124;E2.0347;N42.4983;13;
3;FRA;Languedoc-Roussillon;Pyrénées-Orientales;Fontpédrouse 66080;E2.1833;N42.5167;13;
3;FRA;Languedoc-Roussillon;Pyrénées-Orientales;Fontrabiouse 66081;E2.1000;N42.6333;13;
3;FRA;Languedoc-Roussillon;Pyrénées-Orientales;Formiguères 66082;E2.1000;N42.6167;13;
3;FRA;Languedoc-Roussillon;Pyrénées-Orientales;Fosse 66083;E2.4333;N42.7833;13;
3;FRA;Languedoc-Roussillon;Pyrénées-Orientales;Fourques 66084;E2.7833;N42.5833;13;
3;FRA;Languedoc-Roussillon;Pyrénées-Orientales;Fuilla 66085;E2.3667;N42.5667;13;
3;FRA;Languedoc-Roussillon;Pyrénées-Orientales;Glorianes 66086;E2.5667;N42.5833;13;
3;FRA;Languedoc-Roussillon;Pyrénées-Orientales;Ille-sur-Têt 66088;E2.6167;N42.6667;13;
3;FRA;Languedoc-Roussillon;Pyrénées-Orientales;Joch 66089;E2.5333;N42.6167;13;
3;FRA;Languedoc-Roussillon;Pyrénées-Orientales;Jujols 66090;E2.3000;N42.5750;13;
3;FRA;Languedoc-Roussillon;Pyrénées-Orientales;L'Albère 66001;E2.9000;N42.4833;13;
3;FRA;Languedoc-Roussillon;Pyrénées-Orientales;La Bastide 66018;E2.5833;N42.5500;13;
3;FRA;Languedoc-Roussillon;Pyrénées-Orientales;La Cabanasse 66027;E2.1167;N42.5000;13;
3;FRA;Languedoc-Roussillon;Pyrénées-Orientales;La Llagonne 66098;E2.1167;N42.5333;13;
3;FRA;Languedoc-Roussillon;Pyrénées-Orientales;Lamanère 66091;E2.5167;N42.3667;13;
3;FRA;Languedoc-Roussillon;Pyrénées-Orientales;Lansac 66092;E2.5667;N42.7667;13;
3;FRA;Languedoc-Roussillon;Pyrénées-Orientales;Laroque-des-Albères 66093;E2.9333;N42.5167;13;
3;FRA;Languedoc-Roussillon;Pyrénées-Orientales;Las Illas 66087=66106;E2.7833;N42.4333;13;
3;FRA;Languedoc-Roussillon;Pyrénées-Orientales;Latour-Bas-Elne 66094;E3.0000;N42.6167;13;
3;FRA;Languedoc-Roussillon;Pyrénées-Orientales;Latour-de-Carol 66095;E1.9000;N42.4667;13;
3;FRA;Languedoc-Roussillon;Pyrénées-Orientales;Latour-de-France 66096;E2.6500;N42.7667;13;
3;FRA;Languedoc-Roussillon;Pyrénées-Orientales;Le Barcarès 66017;E3.0333;N42.7833;13;
3;FRA;Languedoc-Roussillon;Pyrénées-Orientales;Le Boulou 66024;E2.8333;N42.5167;13;
3;FRA;Languedoc-Roussillon;Pyrénées-Orientales;Le Perthus 66137;E2.8667;N42.4667;13;
3;FRA;Languedoc-Roussillon;Pyrénées-Orientales;Le Soler 66195;E2.8000;N42.6833;13;
3;FRA;Languedoc-Roussillon;Pyrénées-Orientales;Le Tech 66206;E2.5500;N42.4167;13;
3;FRA;Languedoc-Roussillon;Pyrénées-Orientales;Le Vivier 66234;E2.4500;N42.7667;13;
3;FRA;Languedoc-Roussillon;Pyrénées-Orientales;Les Angles 66004;E2.0742;N42.5774;13;
3;FRA;Languedoc-Roussillon;Pyrénées-Orientales;Les Cluses 66063;E2.8382;N42.4868;13;
3;FRA;Languedoc-Roussillon;Pyrénées-Orientales;Lesquerde 66097;E2.5333;N42.8000;13;
3;FRA;Languedoc-Roussillon;Pyrénées-Orientales;Llauro 66099;E2.7333;N42.5500;13;
3;FRA;Languedoc-Roussillon;Pyrénées-Orientales;Llo 66100;E2.0500;N42.4500;13;
3;FRA;Languedoc-Roussillon;Pyrénées-Orientales;Llupia 66101;E2.7667;N42.6167;13;
3;FRA;Languedoc-Roussillon;Pyrénées-Orientales;Los Masos 66104;E2.4500;N42.6333;13;
3;FRA;Languedoc-Roussillon;Pyrénées-Orientales;Mantet 66102;E2.3000;N42.4833;13;
3;FRA;Languedoc-Roussillon;Pyrénées-Orientales;Marquixanes 66103;E2.4833;N42.6500;13;
3;FRA;Languedoc-Roussillon;Pyrénées-Orientales;Matemale 66105;E2.1167;N42.5833;13;
3;FRA;Languedoc-Roussillon;Pyrénées-Orientales;Maureillas-las-Illas 66106;E2.8106;N42.4917;13;
3;FRA;Languedoc-Roussillon;Pyrénées-Orientales;Maury 66107;E2.6000;N42.8167;13;
3;FRA;Languedoc-Roussillon;Pyrénées-Orientales;Millas 66108;E2.7000;N42.7000;13;
3;FRA;Languedoc-Roussillon;Pyrénées-Orientales;Molitg-les-Bains 66109;E2.3869;N42.6527;13;
3;FRA;Languedoc-Roussillon;Pyrénées-Orientales;Mont-Louis 66117;E2.1167;N42.5167;13;
3;FRA;Languedoc-Roussillon;Pyrénées-Orientales;Montalba-d'Amélie 66110=66003;E2.6846;N42.4443;13;
3;FRA;Languedoc-Roussillon;Pyrénées-Orientales;Montalba-le-Château 66111;E2.5667;N42.7000;13;
3;FRA;Languedoc-Roussillon;Pyrénées-Orientales;Montauriol 66112;E2.7167;N42.5833;13;
3;FRA;Languedoc-Roussillon;Pyrénées-Orientales;Montbolo 66113;E2.6500;N42.4833;13;
3;FRA;Languedoc-Roussillon;Pyrénées-Orientales;Montescot 66114;E2.9333;N42.6167;13;
3;FRA;Languedoc-Roussillon;Pyrénées-Orientales;Montesquieu-des-Albères 66115;E2.8809;N42.5168;13;
3;FRA;Languedoc-Roussillon;Pyrénées-Orientales;Montferrer 66116;E2.5667;N42.4333;13;
3;FRA;Languedoc-Roussillon;Pyrénées-Orientales;Montner 66118;E2.6833;N42.7500;13;
3;FRA;Languedoc-Roussillon;Pyrénées-Orientales;Mosset 66119;E2.3500;N42.6667;13;
3;FRA;Languedoc-Roussillon;Pyrénées-Orientales;Nahuja 66120;E1.9833;N42.4167;13;
3;FRA;Languedoc-Roussillon;Pyrénées-Orientales;Néfiach 66121;E2.6667;N42.7000;13;
3;FRA;Languedoc-Roussillon;Pyrénées-Orientales;Nohèdes 66122;E2.3000;N42.6167;13;
3;FRA;Languedoc-Roussillon;Pyrénées-Orientales;Nyer 66123;E2.2833;N42.5333;13;
3;FRA;Languedoc-Roussillon;Pyrénées-Orientales;Olette 66125;E2.2667;N42.5500;13;
3;FRA;Languedoc-Roussillon;Pyrénées-Orientales;Oms 66126;E2.7000;N42.5500;13;
3;FRA;Languedoc-Roussillon;Pyrénées-Orientales;Opoul-Périllos 66127;E2.8733;N42.8703;13;
3;FRA;Languedoc-Roussillon;Pyrénées-Orientales;Oreilla 66128;E2.2500;N42.5667;13;
3;FRA;Languedoc-Roussillon;Pyrénées-Orientales;Ortaffa 66129;E2.9333;N42.5833;13;
3;FRA;Languedoc-Roussillon;Pyrénées-Orientales;Osséja 66130;E1.9833;N42.4167;13;
3;FRA;Languedoc-Roussillon;Pyrénées-Orientales;Palalda 66131=66003;E2.6749;N42.4850;13;
3;FRA;Languedoc-Roussillon;Pyrénées-Orientales;Palau-de-Cerdagne 66132;E1.9500;N42.4167;13;
3;FRA;Languedoc-Roussillon;Pyrénées-Orientales;Palau-del-Vidre 66133;E2.9667;N42.5667;13;
3;FRA;Languedoc-Roussillon;Pyrénées-Orientales;Passa 66134;E2.8167;N42.5833;13;
3;FRA;Languedoc-Roussillon;Pyrénées-Orientales;Périllos 66135=66127;E2.8500;N42.8833;13;
3;FRA;Languedoc-Roussillon;Pyrénées-Orientales;Perpignan 66136;E2.8833;N42.6833;13;
3;FRA;Languedoc-Roussillon;Pyrénées-Orientales;Peyrestortes 66138;E2.8500;N42.7500;13;
3;FRA;Languedoc-Roussillon;Pyrénées-Orientales;Pézilla-de-Conflent 66139;E2.4833;N42.7500;13;
3;FRA;Languedoc-Roussillon;Pyrénées-Orientales;Pézilla-la-Rivière 66140;E2.7667;N42.7000;13;
3;FRA;Languedoc-Roussillon;Pyrénées-Orientales;Pia 66141;E2.9167;N42.7500;13;
3;FRA;Languedoc-Roussillon;Pyrénées-Orientales;Planès 66142;E2.1333;N42.5000;13;
3;FRA;Languedoc-Roussillon;Pyrénées-Orientales;Planèzes 66143;E2.6333;N42.7667;13;
3;FRA;Languedoc-Roussillon;Pyrénées-Orientales;Pollestres 66144;E2.8667;N42.6333;13;
3;FRA;Languedoc-Roussillon;Pyrénées-Orientales;Ponteilla 66145;E2.8167;N42.6333;13;
3;FRA;Languedoc-Roussillon;Pyrénées-Orientales;Port-Vendres 66148;E3.1167;N42.5167;13;
3;FRA;Languedoc-Roussillon;Pyrénées-Orientales;Porta 66146;E1.8167;N42.5333;13;
3;FRA;Languedoc-Roussillon;Pyrénées-Orientales;Porté-Puymorens 66147;E1.8333;N42.5500;13;
3;FRA;Languedoc-Roussillon;Pyrénées-Orientales;Prades 66149;E2.4333;N42.6167;13;
3;FRA;Languedoc-Roussillon;Pyrénées-Orientales;Prats-de-Mollo-la-Preste 66150;E2.4833;N42.4000;13;
3;FRA;Languedoc-Roussillon;Pyrénées-Orientales;Prats-de-Sournia 66151;E2.4500;N42.7500;13;
3;FRA;Languedoc-Roussillon;Pyrénées-Orientales;Prugnanes 66152;E2.4333;N42.8333;13;
3;FRA;Languedoc-Roussillon;Pyrénées-Orientales;Prunet-et-Belpuig 66153;E2.6500;N42.5667;13;
3;FRA;Languedoc-Roussillon;Pyrénées-Orientales;Puyvalador 66154;E2.1167;N42.6500;13;
3;FRA;Languedoc-Roussillon;Pyrénées-Orientales;Py 66155;E2.3500;N42.5000;13;
3;FRA;Languedoc-Roussillon;Pyrénées-Orientales;Rabouillet 66156;E2.3833;N42.7333;13;
3;FRA;Languedoc-Roussillon;Pyrénées-Orientales;Railleu 66157;E2.1833;N42.5833;13;
3;FRA;Languedoc-Roussillon;Pyrénées-Orientales;Rasiguères 66158;E2.6167;N42.7667;13;
3;FRA;Languedoc-Roussillon;Pyrénées-Orientales;Réal 66159;E2.1333;N42.6333;13;
3;FRA;Languedoc-Roussillon;Pyrénées-Orientales;Reynès 66160;E2.7000;N42.4833;13;
3;FRA;Languedoc-Roussillon;Pyrénées-Orientales;Ria-Sirach 66161;E2.4035;N42.6049;13;
3;FRA;Languedoc-Roussillon;Pyrénées-Orientales;Rigarda 66162;E2.5333;N42.6333;13;
3;FRA;Languedoc-Roussillon;Pyrénées-Orientales;Riunoguès 66163=66106;E2.8167;N42.4667;13;
3;FRA;Languedoc-Roussillon;Pyrénées-Orientales;Rivesaltes 66164;E2.8667;N42.7667;13;
3;FRA;Languedoc-Roussillon;Pyrénées-Orientales;Rodès 66165;E2.5667;N42.6500;13;
3;FRA;Languedoc-Roussillon;Pyrénées-Orientales;Sahorre 66166;E2.3667;N42.5333;13;
3;FRA;Languedoc-Roussillon;Pyrénées-Orientales;Saillagouse 66167;E2.0333;N42.4500;13;
3;FRA;Languedoc-Roussillon;Pyrénées-Orientales;Saint-André 66168;E2.9667;N42.5500;13;
3;FRA;Languedoc-Roussillon;Pyrénées-Orientales;Saint-Arnac 66169;E2.5333;N42.7833;13;
3;FRA;Languedoc-Roussillon;Pyrénées-Orientales;Saint-Cyprien 66171;E3.0000;N42.6167;13;
3;FRA;Languedoc-Roussillon;Pyrénées-Orientales;Saint-Estève 66172;E2.8500;N42.7000;13;
3;FRA;Languedoc-Roussillon;Pyrénées-Orientales;Saint-Féliu-d'Amont 66173;E2.7167;N42.6833;13;
3;FRA;Languedoc-Roussillon;Pyrénées-Orientales;Saint-Féliu-d'Avall 66174;E2.7333;N42.6833;13;
3;FRA;Languedoc-Roussillon;Pyrénées-Orientales;Saint-Génis-des-Fontaines 66175;E2.9208;N42.5428;13;
3;FRA;Languedoc-Roussillon;Pyrénées-Orientales;Saint-Hippolyte 66176;E2.9667;N42.7833;13;
3;FRA;Languedoc-Roussillon;Pyrénées-Orientales;Saint-Jean-Lasseille 66177;E2.8667;N42.5833;13;
3;FRA;Languedoc-Roussillon;Pyrénées-Orientales;Saint-Jean-Pla-de-Corts 66178;E2.7833;N42.5167;13;
3;FRA;Languedoc-Roussillon;Pyrénées-Orientales;Saint-Laurent-de-Cerdans 66179;E2.6167;N42.3833;13;
3;FRA;Languedoc-Roussillon;Pyrénées-Orientales;Saint-Laurent-de-la-Salanque 66180;E2.9833;N42.7667;13;
3;FRA;Languedoc-Roussillon;Pyrénées-Orientales;Saint-Marsal 66183;E2.6167;N42.5333;13;
3;FRA;Languedoc-Roussillon;Pyrénées-Orientales;Saint-Martin 66184;E2.4667;N42.7833;13;
3;FRA;Languedoc-Roussillon;Pyrénées-Orientales;Saint-Michel-de-Llotes 66185;E2.6333;N42.6500;13;
3;FRA;Languedoc-Roussillon;Pyrénées-Orientales;Saint-Nazaire 66186;E2.9908;N42.6693;13;
3;FRA;Languedoc-Roussillon;Pyrénées-Orientales;Saint-Paul-de-Fenouillet 66187;E2.5000;N42.8167;13;
3;FRA;Languedoc-Roussillon;Pyrénées-Orientales;Saint-Pierre-dels-Forcats 66188;E2.1167;N42.5000;13;
3;FRA;Languedoc-Roussillon;Pyrénées-Orientales;Sainte-Colombe-de-la-Commanderie 66170;E2.7483;N42.6148;13;
3;FRA;Languedoc-Roussillon;Pyrénées-Orientales;Sainte-Léocadie 66181;E1.9833;N42.4333;13;
3;FRA;Languedoc-Roussillon;Pyrénées-Orientales;Sainte-Marie 66182;E3.0164;N42.7269;13;
3;FRA;Languedoc-Roussillon;Pyrénées-Orientales;Saleilles 66189;E2.9500;N42.6500;13;
3;FRA;Languedoc-Roussillon;Pyrénées-Orientales;Salses-le-Château 66190;E2.9188;N42.8332;13;
3;FRA;Languedoc-Roussillon;Pyrénées-Orientales;Sansa 66191;E2.1667;N42.6000;13;
3;FRA;Languedoc-Roussillon;Pyrénées-Orientales;Sauto 66192;E2.1500;N42.5167;13;
3;FRA;Languedoc-Roussillon;Pyrénées-Orientales;Serdinya 66193;E2.3333;N42.5667;13;
3;FRA;Languedoc-Roussillon;Pyrénées-Orientales;Serralongue 66194;E2.5667;N42.4000;13;
3;FRA;Languedoc-Roussillon;Pyrénées-Orientales;Sorède 66196;E2.9500;N42.5333;13;
3;FRA;Languedoc-Roussillon;Pyrénées-Orientales;Souanyas 66197;E2.2833;N42.5500;13;
3;FRA;Languedoc-Roussillon;Pyrénées-Orientales;Sournia 66198;E2.4500;N42.7333;13;
3;FRA;Languedoc-Roussillon;Pyrénées-Orientales;Taillet 66199;E2.6667;N42.5333;13;
3;FRA;Languedoc-Roussillon;Pyrénées-Orientales;Talau 66200=66010;E2.2000;N42.5667;13;
3;FRA;Languedoc-Roussillon;Pyrénées-Orientales;Tarerach 66201;E2.5000;N42.7000;13;
3;FRA;Languedoc-Roussillon;Pyrénées-Orientales;Targassonne 66202;E2.0000;N42.5000;13;
3;FRA;Languedoc-Roussillon;Pyrénées-Orientales;Taulis 66203;E2.6333;N42.5167;13;
3;FRA;Languedoc-Roussillon;Pyrénées-Orientales;Taurinya 66204;E2.4167;N42.5833;13;
3;FRA;Languedoc-Roussillon;Pyrénées-Orientales;Tautavel 66205;E2.7500;N42.8167;13;
3;FRA;Languedoc-Roussillon;Pyrénées-Orientales;Terrats 66207;E2.7667;N42.6167;13;
3;FRA;Languedoc-Roussillon;Pyrénées-Orientales;Théza 66208;E2.9500;N42.6333;13;
3;FRA;Languedoc-Roussillon;Pyrénées-Orientales;Thuès-Entre-Valls 66209;E2.2333;N42.5167;13;
3;FRA;Languedoc-Roussillon;Pyrénées-Orientales;Thuir 66210;E2.7500;N42.6333;13;
3;FRA;Languedoc-Roussillon;Pyrénées-Orientales;Tordères 66211;E2.7500;N42.5667;13;
3;FRA;Languedoc-Roussillon;Pyrénées-Orientales;Torreilles 66212;E2.9833;N42.7500;13;
3;FRA;Languedoc-Roussillon;Pyrénées-Orientales;Toulouges 66213;E2.8333;N42.6667;13;
3;FRA;Languedoc-Roussillon;Pyrénées-Orientales;Tresserre 66214;E2.8333;N42.5667;13;
3;FRA;Languedoc-Roussillon;Pyrénées-Orientales;Trévillach 66215;E2.5333;N42.7167;13;
3;FRA;Languedoc-Roussillon;Pyrénées-Orientales;Trilla 66216;E2.5167;N42.7500;13;
3;FRA;Languedoc-Roussillon;Pyrénées-Orientales;Trouillas 66217;E2.8167;N42.6167;13;
3;FRA;Languedoc-Roussillon;Pyrénées-Orientales;Ur 66218;E1.9333;N42.4667;13;
3;FRA;Languedoc-Roussillon;Pyrénées-Orientales;Urbanya 66219;E2.3167;N42.6333;13;
3;FRA;Languedoc-Roussillon;Pyrénées-Orientales;Valcebollère 66220;E2.0333;N42.3833;13;
3;FRA;Languedoc-Roussillon;Pyrénées-Orientales;Valmanya 66221;E2.5333;N42.5333;13;
3;FRA;Languedoc-Roussillon;Pyrénées-Orientales;Vernet-les-Bains 66222;E2.3833;N42.5500;13;
3;FRA;Languedoc-Roussillon;Pyrénées-Orientales;Villefranche-de-Conflent 66223;E2.3667;N42.5833;13;
3;FRA;Languedoc-Roussillon;Pyrénées-Orientales;Villelongue-de-la-Salanque 66224;E2.9845;N42.7269;13;
3;FRA;Languedoc-Roussillon;Pyrénées-Orientales;Villelongue-dels-Monts 66225;E2.9000;N42.5333;13;
3;FRA;Languedoc-Roussillon;Pyrénées-Orientales;Villemolaque 66226;E2.8333;N42.5833;13;
3;FRA;Languedoc-Roussillon;Pyrénées-Orientales;Villeneuve-de-la-Raho 66227;E2.9167;N42.6333;13;
3;FRA;Languedoc-Roussillon;Pyrénées-Orientales;Villeneuve-des-Escaldes 66229=66005;E1.9500;N42.4667;13;
3;FRA;Languedoc-Roussillon;Pyrénées-Orientales;Villeneuve-la-Rivière 66228;E2.8000;N42.7000;13;
3;FRA;Languedoc-Roussillon;Pyrénées-Orientales;Vinça 66230;E2.5333;N42.6500;13;
3;FRA;Languedoc-Roussillon;Pyrénées-Orientales;Vingrau 66231;E2.7833;N42.8500;13;
3;FRA;Languedoc-Roussillon;Pyrénées-Orientales;Vira 66232;E2.4167;N42.7667;13;
3;FRA;Languedoc-Roussillon;Pyrénées-Orientales;Vivès 66233;E2.7667;N42.5333;13;