"Level";"Country";"State";"County";"Place";"Longitude";"Latitude";"ZoomLevel";"Icon"
2;France;Champagne-Ardenne;Ardennes;;E4.6939;N49.6338;9;
3;France;Champagne-Ardenne;Ardennes;Acy-Romance 08001;E4.3333;N49.5000;13;
3;France;Champagne-Ardenne;Ardennes;Adon 08002=08113;E4.2694;N49.6342;13;
3;France;Champagne-Ardenne;Ardennes;Aiglemont 08003;E4.7833;N49.7833;13;
3;France;Champagne-Ardenne;Ardennes;Aire 08004;E4.1667;N49.4817;13;
3;France;Champagne-Ardenne;Ardennes;Alincourt 08005;E4.3500;N49.4000;13;
3;France;Champagne-Ardenne;Ardennes;Alland'Huy-et-Sausseuil 08006;E4.5667;N49.5167;13;
3;France;Champagne-Ardenne;Ardennes;Amagne 08008;E4.5000;N49.5167;13;
3;France;Champagne-Ardenne;Ardennes;Amblimont 08009;E5.0667;N49.6333;13;
3;France;Champagne-Ardenne;Ardennes;Ambly-Fleury 08010;E4.4833;N49.4833;13;
3;France;Champagne-Ardenne;Ardennes;Anchamps 08011;E4.6833;N49.9333;13;
3;France;Champagne-Ardenne;Ardennes;Andevanne 08012=08437;E5.0833;N49.3833;13;
3;France;Champagne-Ardenne;Ardennes;Angecourt 08013;E4.9833;N49.6333;13;
3;France;Champagne-Ardenne;Ardennes;Annelles 08014;E4.4167;N49.4333;13;
3;France;Champagne-Ardenne;Ardennes;Antheny 08015;E4.3167;N49.8500;13;
3;France;Champagne-Ardenne;Ardennes;Aouste 08016;E4.3167;N49.7833;13;
3;France;Champagne-Ardenne;Ardennes;Apremont 08017;E5.0000;N49.2667;13;
3;France;Champagne-Ardenne;Ardennes;Ardeuil-et-Montfauxelles 08018;E4.7167;N49.2667;13;
3;France;Champagne-Ardenne;Ardennes;Arnicourt 08021;E4.3500;N49.5500;13;
3;France;Champagne-Ardenne;Ardennes;Arreux 08022;E4.6500;N49.8333;13;
3;France;Champagne-Ardenne;Ardennes;Artaise-le-Vivier 08023;E4.9000;N49.5833;13;
3;France;Champagne-Ardenne;Ardennes;Asfeld 08024;E4.1167;N49.4667;13;
3;France;Champagne-Ardenne;Ardennes;Attigny 08025;E4.5833;N49.4833;13;
3;France;Champagne-Ardenne;Ardennes;Aubigny-les-Pothées 08026;E4.4333;N49.7833;13;
3;France;Champagne-Ardenne;Ardennes;Auboncourt-Vauzelles 08027;E4.5000;N49.5500;13;
3;France;Champagne-Ardenne;Ardennes;Aubrives 08028;E4.7667;N50.1000;13;
3;France;Champagne-Ardenne;Ardennes;Auflance 08029;E5.2833;N49.6167;13;
3;France;Champagne-Ardenne;Ardennes;Auge 08030;E4.2667;N49.8500;13;
3;France;Champagne-Ardenne;Ardennes;Aure 08031;E4.6333;N49.2740;13;
3;France;Champagne-Ardenne;Ardennes;Aussonce 08032;E4.3167;N49.3500;13;
3;France;Champagne-Ardenne;Ardennes;Authe 08033;E4.8833;N49.4500;13;
3;France;Champagne-Ardenne;Ardennes;Autrecourt-et-Pourron 08034;E5.0333;N49.6167;13;
3;France;Champagne-Ardenne;Ardennes;Autruche 08035;E4.9000;N49.4500;13;
3;France;Champagne-Ardenne;Ardennes;Autry 08036;E4.8333;N49.2667;13;
3;France;Champagne-Ardenne;Ardennes;Auvillers-les-Forges 08037;E4.3500;N49.8667;13;
3;France;Champagne-Ardenne;Ardennes;Avançon 08038;E4.2500;N49.4833;13;
3;France;Champagne-Ardenne;Ardennes;Avaux 08039;E4.0833;N49.4500;13;
3;France;Champagne-Ardenne;Ardennes;Baâlons 08041;E4.6667;N49.5833;13;
3;France;Champagne-Ardenne;Ardennes;Balaives-et-Butz 08042;E4.7333;N49.6667;13;
3;France;Champagne-Ardenne;Ardennes;Balan 08043;E4.9667;N49.6833;13;
3;France;Champagne-Ardenne;Ardennes;Balham 08044;E4.1667;N49.4833;13;
3;France;Champagne-Ardenne;Ardennes;Ballay 08045;E4.7500;N49.4333;13;
3;France;Champagne-Ardenne;Ardennes;Banogne-Recouvrance 08046;E4.1167;N49.5667;13;
3;France;Champagne-Ardenne;Ardennes;Bar-lès-Buzancy 08049;E4.9500;N49.4333;13;
3;France;Champagne-Ardenne;Ardennes;Barbaise 08047;E4.5667;N49.6667;13;
3;France;Champagne-Ardenne;Ardennes;Barby 08048;E4.3167;N49.5167;13;
3;France;Champagne-Ardenne;Ardennes;Barricourt 08050=08437;E5.0500;N49.4167;13;
3;France;Champagne-Ardenne;Ardennes;Bay 08051=08069;E4.2333;N49.7667;13;
3;France;Champagne-Ardenne;Ardennes;Bayonville 08052;E5.0000;N49.3833;13;
3;France;Champagne-Ardenne;Ardennes;Bazeilles 08053;E4.9833;N49.6667;13;
3;France;Champagne-Ardenne;Ardennes;Beaulieu 08054=08319;E4.3447;N49.8993;13;
3;France;Champagne-Ardenne;Ardennes;Beaumont-en-Argonne 08055;E5.0500;N49.5333;13;
3;France;Champagne-Ardenne;Ardennes;Beffu-et-le-Morthomme 08056;E4.9000;N49.3667;13;
3;France;Champagne-Ardenne;Ardennes;Belleville-et-Châtillon-sur-Bar 08057;E4.8167;N49.4333;13;
3;France;Champagne-Ardenne;Ardennes;Belval 08058;E4.6333;N49.7833;13;
3;France;Champagne-Ardenne;Ardennes;Belval-Bois-des-Dames 08059;E5.0333;N49.4667;13;
3;France;Champagne-Ardenne;Ardennes;Bergnicourt 08060;E4.2500;N49.4167;13;
3;France;Champagne-Ardenne;Ardennes;Bertoncourt 08062;E4.4000;N49.5333;13;
3;France;Champagne-Ardenne;Ardennes;Biermes 08064;E4.3833;N49.4833;13;
3;France;Champagne-Ardenne;Ardennes;Bièvres 08065;E5.2667;N49.5583;13;
3;France;Champagne-Ardenne;Ardennes;Bignicourt 08066;E4.4167;N49.4000;13;
3;France;Champagne-Ardenne;Ardennes;Blagny 08067;E5.1833;N49.6167;13;
3;France;Champagne-Ardenne;Ardennes;Blaise 08068=08490;E4.6667;N49.3833;13;
3;France;Champagne-Ardenne;Ardennes;Blanchefosse-et-Bay 08069;E4.2333;N49.7667;13;
3;France;Champagne-Ardenne;Ardennes;Blanzy-la-Salonnaise 08070;E4.1667;N49.4833;13;
3;France;Champagne-Ardenne;Ardennes;Blombay 08071;E4.4500;N49.8167;13;
3;France;Champagne-Ardenne;Ardennes;Bogny-sur-Meuse 08081;E4.7678;N49.8508;13;
3;France;Champagne-Ardenne;Ardennes;Bosseval-et-Briancourt 08072;E4.8667;N49.7500;13;
3;France;Champagne-Ardenne;Ardennes;Bossus-lès-Rumigny 08073;E4.2500;N49.8333;13;
3;France;Champagne-Ardenne;Ardennes;Bouconville 08074;E4.7667;N49.2500;13;
3;France;Champagne-Ardenne;Ardennes;Boult-aux-Bois 08075;E4.8333;N49.4333;13;
3;France;Champagne-Ardenne;Ardennes;Boulzicourt 08076;E4.7000;N49.7000;13;
3;France;Champagne-Ardenne;Ardennes;Bourcq 08077;E4.6333;N49.3833;13;
3;France;Champagne-Ardenne;Ardennes;Bourg-Fidèle 08078;E4.5333;N49.8833;13;
3;France;Champagne-Ardenne;Ardennes;Boutancourt 08079;E4.7667;N49.6833;13;
3;France;Champagne-Ardenne;Ardennes;Bouvellemont 08080;E4.6500;N49.5833;13;
3;France;Champagne-Ardenne;Ardennes;Brécy-Brières 08082;E4.7667;N49.3167;13;
3;France;Champagne-Ardenne;Ardennes;Brévilly 08083;E5.0833;N49.6667;13;
3;France;Champagne-Ardenne;Ardennes;Brienne-sur-Aisne 08084;E4.0500;N49.4333;13;
3;France;Champagne-Ardenne;Ardennes;Brieulles-sur-Bar 08085;E4.8500;N49.4833;13;
3;France;Champagne-Ardenne;Ardennes;Briquenay 08086;E4.8833;N49.4000;13;
3;France;Champagne-Ardenne;Ardennes;Brognon 08087;E4.3000;N49.9333;13;
3;France;Champagne-Ardenne;Ardennes;Bulson 08088;E4.9167;N49.6333;13;
3;France;Champagne-Ardenne;Ardennes;Buzancy 08089;E4.9500;N49.4167;13;
3;France;Champagne-Ardenne;Ardennes;Carignan 08090;E5.1667;N49.6333;13;
3;France;Champagne-Ardenne;Ardennes;Cauroy 08092;E4.4667;N49.3500;13;
3;France;Champagne-Ardenne;Ardennes;Cernion 08094;E4.4250;N49.8000;13;
3;France;Champagne-Ardenne;Ardennes;Chagny 08095;E4.7000;N49.5833;13;
3;France;Champagne-Ardenne;Ardennes;Chalandry-Elaire 08096;E4.7500;N49.7167;13;
3;France;Champagne-Ardenne;Ardennes;Challerange 08097;E4.7500;N49.3167;13;
3;France;Champagne-Ardenne;Ardennes;Champigneul-sur-Vence 08099;E4.6500;N49.7000;13;
3;France;Champagne-Ardenne;Ardennes;Champigneulle 08098;E4.9167;N49.3500;13;
3;France;Champagne-Ardenne;Ardennes;Champlin 08100;E4.3333;N49.8333;13;
3;France;Champagne-Ardenne;Ardennes;Chappes 08102;E4.2750;N49.6083;13;
3;France;Champagne-Ardenne;Ardennes;Charbogne 08103;E4.6000;N49.5000;13;
3;France;Champagne-Ardenne;Ardennes;Chardeny 08104;E4.6000;N49.4167;13;
3;France;Champagne-Ardenne;Ardennes;Charleville-Mézières 08105;E4.7167;N49.7667;13;
3;France;Champagne-Ardenne;Ardennes;Charnois 08106;E4.8080;N50.1000;13;
3;France;Champagne-Ardenne;Ardennes;Château-Porcien 08107;E4.2500;N49.5333;13;
3;France;Champagne-Ardenne;Ardennes;Château-Regnault-Bogny 08108=08081;E4.7376;N49.8592;13;
3;France;Champagne-Ardenne;Ardennes;Chatel-Chéhéry 08109;E4.9500;N49.2833;13;
3;France;Champagne-Ardenne;Ardennes;Châtillon-sur-Bar 08112=08057;E4.8167;N49.4667;13;
3;France;Champagne-Ardenne;Ardennes;Chaumont-Porcien 08113;E4.2500;N49.6500;13;
3;France;Champagne-Ardenne;Ardennes;Chéhéry 08114;E4.8667;N49.6500;13;
3;France;Champagne-Ardenne;Ardennes;Chémery-sur-Bar 08115;E4.8667;N49.6000;13;
3;France;Champagne-Ardenne;Ardennes;Chesnois-Auboncourt 08117;E4.5667;N49.5667;13;
3;France;Champagne-Ardenne;Ardennes;Chestres 08118=08490;E4.7275;N49.4080;13;
3;France;Champagne-Ardenne;Ardennes;Cheveuges 08119;E4.8667;N49.6667;13;
3;France;Champagne-Ardenne;Ardennes;Chevières 08120;E4.9000;N49.3333;13;
3;France;Champagne-Ardenne;Ardennes;Chilly 08121;E4.4667;N49.8333;13;
3;France;Champagne-Ardenne;Ardennes;Chooz 08122;E4.8083;N50.1000;13;
3;France;Champagne-Ardenne;Ardennes;Chuffilly-Roche 08123;E4.6167;N49.4500;13;
3;France;Champagne-Ardenne;Ardennes;Clavy-Warby 08124;E4.5500;N49.7500;13;
3;France;Champagne-Ardenne;Ardennes;Cliron 08125;E4.6000;N49.8000;13;
3;France;Champagne-Ardenne;Ardennes;Condé-lès-Autry 08128;E4.8500;N49.2500;13;
3;France;Champagne-Ardenne;Ardennes;Condé-lès-Herpy 08126;E4.2333;N49.5333;13;
3;France;Champagne-Ardenne;Ardennes;Condé-lès-Vouziers 08127=08490;E4.7003;N49.4117;13;
3;France;Champagne-Ardenne;Ardennes;Connage 08129=08115;E4.8500;N49.6333;13;
3;France;Champagne-Ardenne;Ardennes;Contreuve 08130;E4.6333;N49.3667;13;
3;France;Champagne-Ardenne;Ardennes;Cornay 08131;E4.9500;N49.3000;13;
3;France;Champagne-Ardenne;Ardennes;Corny-Machéroménil 08132;E4.4333;N49.5833;13;
3;France;Champagne-Ardenne;Ardennes;Coucy 08133;E4.4500;N49.5000;13;
3;France;Champagne-Ardenne;Ardennes;Coulommes-et-Marqueny 08134;E4.5833;N49.4333;13;
3;France;Champagne-Ardenne;Ardennes;Daigny 08136;E5.0000;N49.7167;13;
3;France;Champagne-Ardenne;Ardennes;Damouzy 08137;E4.6667;N49.8000;13;
3;France;Champagne-Ardenne;Ardennes;Deville 08139;E4.7000;N49.8833;13;
3;France;Champagne-Ardenne;Ardennes;Dom-le-Mesnil 08140;E4.8000;N49.6833;13;
3;France;Champagne-Ardenne;Ardennes;Dommery 08141;E4.4667;N49.6667;13;
3;France;Champagne-Ardenne;Ardennes;Donchery 08142;E4.8667;N49.7000;13;
3;France;Champagne-Ardenne;Ardennes;Doumely-Bégny 08143;E4.3000;N49.6167;13;
3;France;Champagne-Ardenne;Ardennes;Doux 08144;E4.4333;N49.5000;13;
3;France;Champagne-Ardenne;Ardennes;Douzy 08145;E5.0500;N49.6667;13;
3;France;Champagne-Ardenne;Ardennes;Draize 08146;E4.3333;N49.6500;13;
3;France;Champagne-Ardenne;Ardennes;Dricourt 08147;E4.5167;N49.4000;13;
3;France;Champagne-Ardenne;Ardennes;Écly 08150;E4.2833;N49.5500;13;
3;France;Champagne-Ardenne;Ardennes;Écordal 08151;E4.5833;N49.5333;13;
3;France;Champagne-Ardenne;Ardennes;Élan 08152;E4.7500;N49.6500;13;
3;France;Champagne-Ardenne;Ardennes;Escombres-et-le-Chesnois 08153;E5.1167;N49.7000;13;
3;France;Champagne-Ardenne;Ardennes;Estrebay 08154;E4.3500;N49.8333;13;
3;France;Champagne-Ardenne;Ardennes;Étalle 08155;E4.4333;N49.8500;13;
3;France;Champagne-Ardenne;Ardennes;Éteignières 08156;E4.3833;N49.8833;13;
3;France;Champagne-Ardenne;Ardennes;Étion 08157=08105;E4.6946;N49.7882;13;
3;France;Champagne-Ardenne;Ardennes;Étrépigny 08158;E4.7500;N49.6833;13;
3;France;Champagne-Ardenne;Ardennes;Euilly-et-Lombut 08159;E5.1167;N49.6333;13;
3;France;Champagne-Ardenne;Ardennes;Évigny 08160;E4.6667;N49.7333;13;
3;France;Champagne-Ardenne;Ardennes;Exermont 08161;E5.0000;N49.3000;13;
3;France;Champagne-Ardenne;Ardennes;Fagnon 08162;E4.6333;N49.7333;13;
3;France;Champagne-Ardenne;Ardennes;Faissault 08163;E4.5000;N49.6167;13;
3;France;Champagne-Ardenne;Ardennes;Falaise 08164;E4.7333;N49.3667;13;
3;France;Champagne-Ardenne;Ardennes;Faux 08165;E4.5000;N49.5333;13;
3;France;Champagne-Ardenne;Ardennes;Fépin 08166;E4.7333;N50.0167;13;
3;France;Champagne-Ardenne;Ardennes;Flaignes-Havys 08169;E4.4000;N49.8167;13;
3;France;Champagne-Ardenne;Ardennes;Fleigneux 08170;E4.9500;N49.7500;13;
3;France;Champagne-Ardenne;Ardennes;Fléville 08171;E4.9667;N49.3000;13;
3;France;Champagne-Ardenne;Ardennes;Fligny 08172;E4.2833;N49.8833;13;
3;France;Champagne-Ardenne;Ardennes;Flize 08173;E4.7667;N49.7000;13;
3;France;Champagne-Ardenne;Ardennes;Floing 08174;E4.9333;N49.7167;13;
3;France;Champagne-Ardenne;Ardennes;Foisches 08175;E4.7750;N50.1250;13;
3;France;Champagne-Ardenne;Ardennes;Fossé 08176;E5.0000;N49.4500;13;
3;France;Champagne-Ardenne;Ardennes;Foulzy 08177=08189;E4.3667;N49.8500;13;
3;France;Champagne-Ardenne;Ardennes;Fraillicourt 08178;E4.1500;N49.6667;13;
3;France;Champagne-Ardenne;Ardennes;Francheval 08179;E5.0500;N49.7000;13;
3;France;Champagne-Ardenne;Ardennes;Frénois 08181=08409;E4.9042;N49.6911;13;
3;France;Champagne-Ardenne;Ardennes;Fromelennes 08183;E4.8583;N50.1250;13;
3;France;Champagne-Ardenne;Ardennes;Fromy 08184;E5.2500;N49.6000;13;
3;France;Champagne-Ardenne;Ardennes;Fumay 08185;E4.7000;N49.9833;13;
3;France;Champagne-Ardenne;Ardennes;Germont 08186;E4.8833;N49.4333;13;
3;France;Champagne-Ardenne;Ardennes;Gernelle 08187;E4.8167;N49.7667;13;
3;France;Champagne-Ardenne;Ardennes;Gespunsart 08188;E4.8333;N49.8167;13;
3;France;Champagne-Ardenne;Ardennes;Girondelle 08189;E4.3833;N49.8500;13;
3;France;Champagne-Ardenne;Ardennes;Givet 08190;E4.8167;N50.1333;13;
3;France;Champagne-Ardenne;Ardennes;Givonne 08191;E4.9833;N49.7167;13;
3;France;Champagne-Ardenne;Ardennes;Givron 08192;E4.2833;N49.6500;13;
3;France;Champagne-Ardenne;Ardennes;Givry 08193;E4.5333;N49.4833;13;
3;France;Champagne-Ardenne;Ardennes;Glaire 08194;E4.9000;N49.7000;13;
3;France;Champagne-Ardenne;Ardennes;Gomont 08195;E4.1667;N49.5000;13;
3;France;Champagne-Ardenne;Ardennes;Grandchamp 08196;E4.4000;N49.6333;13;
3;France;Champagne-Ardenne;Ardennes;Grandham 08197;E4.8667;N49.3000;13;
3;France;Champagne-Ardenne;Ardennes;Grandpré 08198;E4.8667;N49.3333;13;
3;France;Champagne-Ardenne;Ardennes;Grivy-Loisy 08200;E4.6333;N49.4167;13;
3;France;Champagne-Ardenne;Ardennes;Gruyères 08201;E4.6000;N49.7167;13;
3;France;Champagne-Ardenne;Ardennes;Gué-d'Hossus 08202;E4.5333;N49.9500;13;
3;France;Champagne-Ardenne;Ardennes;Guignicourt-sur-Vence 08203;E4.6500;N49.6833;13;
3;France;Champagne-Ardenne;Ardennes;Guincourt 08204;E4.6333;N49.5667;13;
3;France;Champagne-Ardenne;Ardennes;Hagnicourt 08205;E4.5667;N49.6167;13;
3;France;Champagne-Ardenne;Ardennes;Ham-les-Moines 08206;E4.6000;N49.8000;13;
3;France;Champagne-Ardenne;Ardennes;Ham-sur-Meuse 08207;E4.7833;N50.1167;13;
3;France;Champagne-Ardenne;Ardennes;Hannappes 08208;E4.2167;N49.8167;13;
3;France;Champagne-Ardenne;Ardennes;Hannogne-Saint-Martin 08209;E4.8333;N49.6667;13;
3;France;Champagne-Ardenne;Ardennes;Hannogne-Saint-Rémy 08210;E4.1333;N49.6000;13;
3;France;Champagne-Ardenne;Ardennes;Haraucourt 08211;E4.9667;N49.6167;13;
3;France;Champagne-Ardenne;Ardennes;Harcy 08212;E4.5667;N49.8333;13;
3;France;Champagne-Ardenne;Ardennes;Hargnies 08214;E4.7833;N50.0167;13;
3;France;Champagne-Ardenne;Ardennes;Harricourt 08215;E4.9167;N49.4333;13;
3;France;Champagne-Ardenne;Ardennes;Haudrecy 08216;E4.6167;N49.7833;13;
3;France;Champagne-Ardenne;Ardennes;Haulmé 08217;E4.7833;N49.8667;13;
3;France;Champagne-Ardenne;Ardennes;Hauteville 08219;E4.3000;N49.5833;13;
3;France;Champagne-Ardenne;Ardennes;Hauviné 08220;E4.4000;N49.3000;13;
3;France;Champagne-Ardenne;Ardennes;Havys 08221=08169;E4.4000;N49.8000;13;
3;France;Champagne-Ardenne;Ardennes;Haybes 08222;E4.7000;N50.0000;13;
3;France;Champagne-Ardenne;Ardennes;Herbeuval 08223;E5.3333;N49.6000;13;
3;France;Champagne-Ardenne;Ardennes;Herbigny 08224=08240;E4.3241;N49.6097;13;
3;France;Champagne-Ardenne;Ardennes;Herpy-l'Arlésienne 08225;E4.2167;N49.5167;13;
3;France;Champagne-Ardenne;Ardennes;Hierges 08226;E4.7412;N50.1000;13;
3;France;Champagne-Ardenne;Ardennes;Hocmont 08227=08203;E4.6111;N49.6774;13;
3;France;Champagne-Ardenne;Ardennes;Houdilcourt 08229;E4.1167;N49.4167;13;
3;France;Champagne-Ardenne;Ardennes;Houldizy 08230;E4.6667;N49.8167;13;
3;France;Champagne-Ardenne;Ardennes;Iges 08231=08194;E4.9085;N49.7307;13;
3;France;Champagne-Ardenne;Ardennes;Illy 08232;E4.9667;N49.7500;13;
3;France;Champagne-Ardenne;Ardennes;Imécourt 08233;E4.9833;N49.3667;13;
3;France;Champagne-Ardenne;Ardennes;Inaumont 08234;E4.3167;N49.5667;13;
3;France;Champagne-Ardenne;Ardennes;Issancourt-et-Rumel 08235;E4.8167;N49.7500;13;
3;France;Champagne-Ardenne;Ardennes;Jandun 08236;E4.5500;N49.6500;13;
3;France;Champagne-Ardenne;Ardennes;Joigny-sur-Meuse 08237;E4.7667;N49.8333;13;
3;France;Champagne-Ardenne;Ardennes;Jonval 08238;E4.6500;N49.5667;13;
3;France;Champagne-Ardenne;Ardennes;Juniville 08239;E4.3833;N49.4000;13;
3;France;Champagne-Ardenne;Ardennes;Justine-Herbigny 08240;E4.3167;N49.5833;13;
3;France;Champagne-Ardenne;Ardennes;Juzancourt 08241=08024;E4.1147;N49.4897;13;
3;France;Champagne-Ardenne;Ardennes;L'Écaille 08148;E4.2167;N49.4167;13;
3;France;Champagne-Ardenne;Ardennes;L'Échelle 08149;E4.4667;N49.8000;13;
3;France;Champagne-Ardenne;Ardennes;La Berlière 08061;E4.9167;N49.5333;13;
3;France;Champagne-Ardenne;Ardennes;La Besace 08063;E4.9667;N49.5667;13;
3;France;Champagne-Ardenne;Ardennes;La Cassine 08091=08469;E4.8167;N49.5833;13;
3;France;Champagne-Ardenne;Ardennes;La Cerleau 08093=08344;E4.3667;N49.8000;13;
3;France;Champagne-Ardenne;Ardennes;La Chapelle 08101;E5.0167;N49.7333;13;
3;France;Champagne-Ardenne;Ardennes;La Croix-aux-Bois 08135;E4.8000;N49.4000;13;
3;France;Champagne-Ardenne;Ardennes;La Férée 08167;E4.3000;N49.7500;13;
3;France;Champagne-Ardenne;Ardennes;La Ferté-sur-Chiers 08168;E5.2333;N49.5667;13;
3;France;Champagne-Ardenne;Ardennes;La Francheville 08180;E4.7167;N49.7333;13;
3;France;Champagne-Ardenne;Ardennes;La Grandville 08199;E4.8000;N49.7833;13;
3;France;Champagne-Ardenne;Ardennes;La Hardoye 08213=08366;E4.2167;N49.6833;13;
3;France;Champagne-Ardenne;Ardennes;La Horgne 08228;E4.6667;N49.6333;13;
3;France;Champagne-Ardenne;Ardennes;La Moncelle 08294;E5.0000;N49.6833;13;
3;France;Champagne-Ardenne;Ardennes;La Neuville-à-Maire 08317;E4.8667;N49.5833;13;
3;France;Champagne-Ardenne;Ardennes;La Neuville-aux-Joûtes 08318;E4.2333;N49.9167;13;
3;France;Champagne-Ardenne;Ardennes;La Neuville-en-Tourne-à-Fuy 08320;E4.3667;N49.3333;13;
3;France;Champagne-Ardenne;Ardennes;La Neuville-lès-Wasigny 08323;E4.3667;N49.6333;13;
3;France;Champagne-Ardenne;Ardennes;La Romagne 08369;E4.3167;N49.6833;13;
3;France;Champagne-Ardenne;Ardennes;La Sabotterie 08374;E4.6667;N49.5500;13;
3;France;Champagne-Ardenne;Ardennes;Laifour 08242;E4.6833;N49.9000;13;
3;France;Champagne-Ardenne;Ardennes;Lalobbe 08243;E4.3667;N49.6667;13;
3;France;Champagne-Ardenne;Ardennes;Lametz 08244;E4.7000;N49.5333;13;
3;France;Champagne-Ardenne;Ardennes;Lançon 08245;E4.8833;N49.2667;13;
3;France;Champagne-Ardenne;Ardennes;Landres-et-Saint-Georges 08246;E5.0167;N49.3500;13;
3;France;Champagne-Ardenne;Ardennes;Landrichamps 08247;E4.8286;N50.0833;13;
3;France;Champagne-Ardenne;Ardennes;Launois-sur-Vence 08248;E4.5333;N49.6500;13;
3;France;Champagne-Ardenne;Ardennes;Laval-Morency 08249;E4.4833;N49.8333;13;
3;France;Champagne-Ardenne;Ardennes;Le Châtelet-sur-Retourne 08111;E4.2833;N49.4167;13;
3;France;Champagne-Ardenne;Ardennes;Le Châtelet-sur-Sormonne 08110;E4.5167;N49.8333;13;
3;France;Champagne-Ardenne;Ardennes;Le Chesne 08116;E4.7667;N49.5167;13;
3;France;Champagne-Ardenne;Ardennes;Le Fréty 08182;E4.2833;N49.7333;13;
3;France;Champagne-Ardenne;Ardennes;Le Mont-Dieu 08300;E4.8500;N49.5333;13;
3;France;Champagne-Ardenne;Ardennes;Le Theux 08447=08105;E4.7399;N49.7578;13;
3;France;Champagne-Ardenne;Ardennes;Le Thour 08451;E4.0833;N49.5333;13;
3;France;Champagne-Ardenne;Ardennes;Leffincourt 08250;E4.5500;N49.3833;13;
3;France;Champagne-Ardenne;Ardennes;Lépron-les-Vallées 08251;E4.4500;N49.7500;13;
3;France;Champagne-Ardenne;Ardennes;Les Alleux 08007;E4.7333;N49.4667;13;
3;France;Champagne-Ardenne;Ardennes;Les Ayvelles 08040;E4.7667;N49.7000;13;
3;France;Champagne-Ardenne;Ardennes;Les Deux-Villes 08138;E5.2167;N49.6500;13;
3;France;Champagne-Ardenne;Ardennes;Les Grandes-Armoises 08019;E4.9000;N49.5333;13;
3;France;Champagne-Ardenne;Ardennes;Les Hautes-Rivières 08218;E4.8333;N49.8833;13;
3;France;Champagne-Ardenne;Ardennes;Les Mazures 08284;E4.7667;N49.9333;13;
3;France;Champagne-Ardenne;Ardennes;Les Petites-Armoises 08020;E4.6333;N49.8833;13;
3;France;Champagne-Ardenne;Ardennes;Létanne 08252;E4.8167;N49.5000;13;
3;France;Champagne-Ardenne;Ardennes;Levrézy 08253=08081;E5.0833;N49.5500;13;
3;France;Champagne-Ardenne;Ardennes;Liart 08254;E4.3333;N49.7667;13;
3;France;Champagne-Ardenne;Ardennes;Linay 08255;E5.2167;N49.6167;13;
3;France;Champagne-Ardenne;Ardennes;Liry 08256;E4.6667;N49.3000;13;
3;France;Champagne-Ardenne;Ardennes;Logny-Bogny 08257;E4.4000;N49.7667;13;
3;France;Champagne-Ardenne;Ardennes;Logny-lès-Chaumont 08258=08113;E4.2333;N49.6333;13;
3;France;Champagne-Ardenne;Ardennes;Longwé 08259;E4.8000;N49.3833;13;
3;France;Champagne-Ardenne;Ardennes;Lonny 08260;E4.5833;N49.8167;13;
3;France;Champagne-Ardenne;Ardennes;Louvergny 08261;E4.7333;N49.5500;13;
3;France;Champagne-Ardenne;Ardennes;Lucquy 08262;E4.4667;N49.5333;13;
3;France;Champagne-Ardenne;Ardennes;Lumes 08263;E4.7833;N49.7333;13;
3;France;Champagne-Ardenne;Ardennes;Machault 08264;E4.5000;N49.3500;13;
3;France;Champagne-Ardenne;Ardennes;Mainbresson 08265=08366;E4.2000;N49.7167;13;
3;France;Champagne-Ardenne;Ardennes;Mainbressy 08266=08366;E4.2167;N49.7000;13;
3;France;Champagne-Ardenne;Ardennes;Mairy 08267;E5.0500;N49.6500;13;
3;France;Champagne-Ardenne;Ardennes;Maisoncelle-et-Villers 08268;E4.9000;N49.6000;13;
3;France;Champagne-Ardenne;Ardennes;Malandry 08269;E5.1833;N49.5833;13;
3;France;Champagne-Ardenne;Ardennes;Malmy 08270=08115;E4.8505;N49.6025;13;
3;France;Champagne-Ardenne;Ardennes;Manre 08271;E4.6667;N49.2667;13;
3;France;Champagne-Ardenne;Ardennes;Maranwez 08272;E4.3500;N49.7167;13;
3;France;Champagne-Ardenne;Ardennes;Marby 08273;E4.4167;N49.8167;13;
3;France;Champagne-Ardenne;Ardennes;Marcq 08274;E4.9167;N49.3167;13;
3;France;Champagne-Ardenne;Ardennes;Margny 08275;E5.3500;N49.6000;13;
3;France;Champagne-Ardenne;Ardennes;Margut 08276;E5.2667;N49.5833;13;
3;France;Champagne-Ardenne;Ardennes;Marlemont 08277;E4.3667;N49.7500;13;
3;France;Champagne-Ardenne;Ardennes;Marquigny 08278;E4.7000;N49.5500;13;
3;France;Champagne-Ardenne;Ardennes;Mars-sous-Bourcq 08279;E4.6500;N49.3978;13;
3;France;Champagne-Ardenne;Ardennes;Marvaux-Vieux 08280;E4.6833;N49.2833;13;
3;France;Champagne-Ardenne;Ardennes;Matton-et-Clémency 08281;E5.2000;N49.6667;13;
3;France;Champagne-Ardenne;Ardennes;Maubert-Fontaine 08282;E4.4333;N49.8667;13;
3;France;Champagne-Ardenne;Ardennes;Mazerny 08283;E4.6000;N49.6000;13;
3;France;Champagne-Ardenne;Ardennes;Meillier-Fontaine 08285=08328;E4.7167;N49.8333;13;
3;France;Champagne-Ardenne;Ardennes;Ménil-Annelles 08286;E4.4500;N49.4333;13;
3;France;Champagne-Ardenne;Ardennes;Ménil-Lépinois 08287;E4.2833;N49.3667;13;
3;France;Champagne-Ardenne;Ardennes;Mesmont 08288;E4.4000;N49.6167;13;
3;France;Champagne-Ardenne;Ardennes;Messincourt 08289;E5.1500;N49.6833;13;
3;France;Champagne-Ardenne;Ardennes;Mézières 08290=08105;E4.7174;N49.7554;13;
3;France;Champagne-Ardenne;Ardennes;Mogues 08291;E5.2667;N49.6500;13;
3;France;Champagne-Ardenne;Ardennes;Mohon 08292=08105;E4.7317;N49.7527;13;
3;France;Champagne-Ardenne;Ardennes;Moiry 08293;E5.2667;N49.6000;13;
3;France;Champagne-Ardenne;Ardennes;Mondigny 08295;E4.6333;N49.7167;13;
3;France;Champagne-Ardenne;Ardennes;Mont-Laurent 08306;E4.4833;N49.4667;13;
3;France;Champagne-Ardenne;Ardennes;Mont-Saint-Martin 08308;E4.6500;N49.3333;13;
3;France;Champagne-Ardenne;Ardennes;Mont-Saint-Remy 08309;E4.4833;N49.3833;13;
3;France;Champagne-Ardenne;Ardennes;Montcheutin 08296;E4.8333;N49.2833;13;
3;France;Champagne-Ardenne;Ardennes;Montcornet 08297;E4.6333;N49.8333;13;
3;France;Champagne-Ardenne;Ardennes;Montcy-Notre-Dame 08298;E4.7500;N49.7833;13;
3;France;Champagne-Ardenne;Ardennes;Montcy-Saint-Pierre 08299=08105;E4.7337;N49.7772;13;
3;France;Champagne-Ardenne;Ardennes;Montgon 08301;E4.7167;N49.5000;13;
3;France;Champagne-Ardenne;Ardennes;Monthermé 08302;E4.7333;N49.8833;13;
3;France;Champagne-Ardenne;Ardennes;Monthois 08303;E4.7167;N49.3167;13;
3;France;Champagne-Ardenne;Ardennes;Montigny-sur-Meuse 08304;E4.7167;N50.0500;13;
3;France;Champagne-Ardenne;Ardennes;Montigny-sur-Vence 08305;E4.6167;N49.6500;13;
3;France;Champagne-Ardenne;Ardennes;Montmeillant 08307;E4.3333;N49.6833;13;
3;France;Champagne-Ardenne;Ardennes;Mouron 08310;E4.7833;N49.3167;13;
3;France;Champagne-Ardenne;Ardennes;Mouzon 08311;E5.0833;N49.6000;13;
3;France;Champagne-Ardenne;Ardennes;Murtin-et-Bogny 08312;E4.5333;N49.8167;13;
3;France;Champagne-Ardenne;Ardennes;Nanteuil-sur-Aisne 08313;E4.3000;N49.5133;13;
3;France;Champagne-Ardenne;Ardennes;Neuflize 08314;E4.3000;N49.4167;13;
3;France;Champagne-Ardenne;Ardennes;Neufmaison 08315;E4.5000;N49.7667;13;
3;France;Champagne-Ardenne;Ardennes;Neufmanil 08316;E4.8000;N49.8167;13;
3;France;Champagne-Ardenne;Ardennes;Neuville-Day 08321;E4.6833;N49.5000;13;
3;France;Champagne-Ardenne;Ardennes;Neuville-lès-This 08322;E4.6000;N49.7500;13;
3;France;Champagne-Ardenne;Ardennes;Neuville-lez-Beaulieu 08319;E4.3167;N49.8667;13;
3;France;Champagne-Ardenne;Ardennes;Neuvizy 08324;E4.5333;N49.6333;13;
3;France;Champagne-Ardenne;Ardennes;Noirval 08325;E4.8000;N49.4667;13;
3;France;Champagne-Ardenne;Ardennes;Nouart 08326;E5.0500;N49.4333;13;
3;France;Champagne-Ardenne;Ardennes;Nouvion-sur-Meuse 08327;E4.8000;N49.7000;13;
3;France;Champagne-Ardenne;Ardennes;Nouzonville 08328;E4.7500;N49.8167;13;
3;France;Champagne-Ardenne;Ardennes;Novion-Porcien 08329;E4.4167;N49.6000;13;
3;France;Champagne-Ardenne;Ardennes;Novy-Chevrières 08330;E4.4500;N49.5333;13;
3;France;Champagne-Ardenne;Ardennes;Noyers-Pont-Maugis 08331;E4.9500;N49.6667;13;
3;France;Champagne-Ardenne;Ardennes;Oches 08332;E4.9333;N49.5000;13;
3;France;Champagne-Ardenne;Ardennes;Olizy-Primat 08333;E4.7667;N49.3333;13;
3;France;Champagne-Ardenne;Ardennes;Omicourt 08334;E4.8333;N49.6333;13;
3;France;Champagne-Ardenne;Ardennes;Omont 08335;E4.7333;N49.6000;13;
3;France;Champagne-Ardenne;Ardennes;Osnes 08336;E5.1500;N49.6500;13;
3;France;Champagne-Ardenne;Ardennes;Pargny-Resson 08337=08362;E4.4000;N49.5000;13;
3;France;Champagne-Ardenne;Ardennes;Pauvres 08338;E4.5000;N49.4167;13;
3;France;Champagne-Ardenne;Ardennes;Perthes 08339;E4.3500;N49.4500;13;
3;France;Champagne-Ardenne;Ardennes;Poilcourt-Sydney 08340;E4.1000;N49.4167;13;
3;France;Champagne-Ardenne;Ardennes;Poix-Terron 08341;E4.6500;N49.6500;13;
3;France;Champagne-Ardenne;Ardennes;Pouru-aux-Bois 08342;E5.0833;N49.7000;13;
3;France;Champagne-Ardenne;Ardennes;Pouru-Saint-Remy 08343;E5.0833;N49.6833;13;
3;France;Champagne-Ardenne;Ardennes;Prez 08344;E4.3500;N49.8000;13;
3;France;Champagne-Ardenne;Ardennes;Primat 08345=08333;E4.7667;N49.3667;13;
3;France;Champagne-Ardenne;Ardennes;Prix-lès-Mézières 08346;E4.6833;N49.7500;13;
3;France;Champagne-Ardenne;Ardennes;Puilly-et-Charbeaux 08347;E5.2500;N49.6333;13;
3;France;Champagne-Ardenne;Ardennes;Puiseux 08348;E4.5333;N49.6000;13;
3;France;Champagne-Ardenne;Ardennes;Pure 08349;E5.1667;N49.6667;13;
3;France;Champagne-Ardenne;Ardennes;Quatre-Champs 08350;E4.7667;N49.4500;13;
3;France;Champagne-Ardenne;Ardennes;Quilly 08351;E4.6000;N49.4167;13;
3;France;Champagne-Ardenne;Ardennes;Raillicourt 08352;E4.5833;N49.6500;13;
3;France;Champagne-Ardenne;Ardennes;Rancennes 08353;E4.7833;N50.1083;13;
3;France;Champagne-Ardenne;Ardennes;Raucourt-et-Flaba 08354;E4.9500;N49.6000;13;
3;France;Champagne-Ardenne;Ardennes;Regniowez 08355;E4.4167;N49.9333;13;
3;France;Champagne-Ardenne;Ardennes;Remaucourt 08356;E4.2333;N49.6167;13;
3;France;Champagne-Ardenne;Ardennes;Remilly-Aillicourt 08357;E5.0000;N49.6500;13;
3;France;Champagne-Ardenne;Ardennes;Remilly-les-Pothées 08358;E4.5167;N49.7833;13;
3;France;Champagne-Ardenne;Ardennes;Rémonville 08359=08437;E5.0333;N49.4000;13;
3;France;Champagne-Ardenne;Ardennes;Renneville 08360;E4.1167;N49.6500;13;
3;France;Champagne-Ardenne;Ardennes;Renwez 08361;E4.6000;N49.8333;13;
3;France;Champagne-Ardenne;Ardennes;Rethel 08362;E4.3667;N49.5167;13;
3;France;Champagne-Ardenne;Ardennes;Revin 08363;E4.6333;N49.9333;13;
3;France;Champagne-Ardenne;Ardennes;Rilly-sur-Aisne 08364;E4.6333;N49.4833;13;
3;France;Champagne-Ardenne;Ardennes;Rimogne 08365;E4.5500;N49.8333;13;
3;France;Champagne-Ardenne;Ardennes;Rocquigny 08366;E4.2500;N49.6833;13;
3;France;Champagne-Ardenne;Ardennes;Rocroi 08367;E4.5167;N49.9167;13;
3;France;Champagne-Ardenne;Ardennes;Roizy 08368;E4.1833;N49.4167;13;
3;France;Champagne-Ardenne;Ardennes;Rouvroy-sur-Audry 08370;E4.4833;N49.7833;13;
3;France;Champagne-Ardenne;Ardennes;Rubécourt-et-Lamécourt 08371;E5.0333;N49.6833;13;
3;France;Champagne-Ardenne;Ardennes;Rubigny 08372;E4.1833;N49.6833;13;
3;France;Champagne-Ardenne;Ardennes;Rumigny 08373;E4.2667;N49.8000;13;
3;France;Champagne-Ardenne;Ardennes;Sachy 08375;E5.1333;N49.6667;13;
3;France;Champagne-Ardenne;Ardennes;Sailly 08376;E5.1667;N49.6000;13;
3;France;Champagne-Ardenne;Ardennes;Saint-Aignan 08377;E4.8500;N49.6500;13;
3;France;Champagne-Ardenne;Ardennes;Saint-Clément-à-Arnes 08378;E4.4333;N49.3000;13;
3;France;Champagne-Ardenne;Ardennes;Saint-Étienne-à-Arnes 08379;E4.5000;N49.3167;13;
3;France;Champagne-Ardenne;Ardennes;Saint-Fergeux 08380;E4.2167;N49.5667;13;
3;France;Champagne-Ardenne;Ardennes;Saint-Germainmont 08381;E4.1167;N49.5000;13;
3;France;Champagne-Ardenne;Ardennes;Saint-Jean-aux-Bois 08382;E4.3000;N49.7167;13;
3;France;Champagne-Ardenne;Ardennes;Saint-Juvin 08383;E4.9333;N49.3333;13;
3;France;Champagne-Ardenne;Ardennes;Saint-Lambert-et-Mont-de-Jeux 08384;E4.6167;N49.5000;13;
3;France;Champagne-Ardenne;Ardennes;Saint-Laurent 08385;E4.7500;N49.7667;13;
3;France;Champagne-Ardenne;Ardennes;Saint-Loup-en-Champagne 08386;E4.2167;N49.4500;13;
3;France;Champagne-Ardenne;Ardennes;Saint-Loup-Terrier 08387;E4.6167;N49.5833;13;
3;France;Champagne-Ardenne;Ardennes;Saint-Marceau 08388;E4.7333;N49.7167;13;
3;France;Champagne-Ardenne;Ardennes;Saint-Marcel 08389;E4.5667;N49.7667;13;
3;France;Champagne-Ardenne;Ardennes;Saint-Menges 08391;E4.9333;N49.7333;13;
3;France;Champagne-Ardenne;Ardennes;Saint-Morel 08392;E4.7000;N49.3333;13;
3;France;Champagne-Ardenne;Ardennes;Saint-Pierre-à-Arnes 08393;E4.4500;N49.3000;13;
3;France;Champagne-Ardenne;Ardennes;Saint-Pierre-sur-Vence 08395;E4.6667;N49.7000;13;
3;France;Champagne-Ardenne;Ardennes;Saint-Pierremont 08394;E4.9333;N49.4833;13;
3;France;Champagne-Ardenne;Ardennes;Saint-Quentin-le-Petit 08396;E4.0833;N49.5833;13;
3;France;Champagne-Ardenne;Ardennes;Saint-Remy-le-Petit 08397;E4.2333;N49.4167;13;
3;France;Champagne-Ardenne;Ardennes;Sainte-Marie 08390;E4.6667;N49.3833;13;
3;France;Champagne-Ardenne;Ardennes;Sainte-Vaubourg 08398;E4.6000;N49.4667;13;
3;France;Champagne-Ardenne;Ardennes;Sapogne-et-Feuchères 08400;E4.8000;N49.6500;13;
3;France;Champagne-Ardenne;Ardennes;Sapogne-sur-Marche 08399;E5.3000;N49.6000;13;
3;France;Champagne-Ardenne;Ardennes;Saulces-Champenoises 08401;E4.5000;N49.4500;13;
3;France;Champagne-Ardenne;Ardennes;Saulces-Monclin 08402;E4.4833;N49.5833;13;
3;France;Champagne-Ardenne;Ardennes;Sault-lès-Rethel 08403;E4.3667;N49.5000;13;
3;France;Champagne-Ardenne;Ardennes;Sault-Saint-Remy 08404;E4.1667;N49.4333;13;
3;France;Champagne-Ardenne;Ardennes;Sauville 08405;E4.8000;N49.5500;13;
3;France;Champagne-Ardenne;Ardennes;Savigny-sur-Aisne 08406;E4.7333;N49.3500;13;
3;France;Champagne-Ardenne;Ardennes;Séchault 08407;E4.7333;N49.2667;13;
3;France;Champagne-Ardenne;Ardennes;Sécheval 08408;E4.6500;N49.8667;13;
3;France;Champagne-Ardenne;Ardennes;Sedan 08409;E4.9500;N49.7000;13;
3;France;Champagne-Ardenne;Ardennes;Semide 08410;E4.5833;N49.3333;13;
3;France;Champagne-Ardenne;Ardennes;Semuy 08411;E4.6500;N49.4833;13;
3;France;Champagne-Ardenne;Ardennes;Senuc 08412;E4.8333;N49.3167;13;
3;France;Champagne-Ardenne;Ardennes;Seraincourt 08413;E4.2000;N49.6167;13;
3;France;Champagne-Ardenne;Ardennes;Servion 08414=08370;E4.5000;N49.7833;13;
3;France;Champagne-Ardenne;Ardennes;Sery 08415;E4.3500;N49.5833;13;
3;France;Champagne-Ardenne;Ardennes;Seuil 08416;E4.4500;N49.4833;13;
3;France;Champagne-Ardenne;Ardennes;Sévigny-la-Forêt 08417;E4.5000;N49.8667;13;
3;France;Champagne-Ardenne;Ardennes;Sévigny-Waleppe 08418;E4.0667;N49.6000;13;
3;France;Champagne-Ardenne;Ardennes;Signy-l'Abbaye 08419;E4.4167;N49.7000;13;
3;France;Champagne-Ardenne;Ardennes;Signy-le-Petit 08420;E4.2833;N49.9000;13;
3;France;Champagne-Ardenne;Ardennes;Signy-Montlibert 08421;E5.3000;N49.5750;13;
3;France;Champagne-Ardenne;Ardennes;Singly 08422;E4.6833;N49.6500;13;
3;France;Champagne-Ardenne;Ardennes;Sivry-lès-Buzancy 08423=08089;E4.9667;N49.4000;13;
3;France;Champagne-Ardenne;Ardennes;Sommauthe 08424;E4.9833;N49.4833;13;
3;France;Champagne-Ardenne;Ardennes;Sommerance 08425;E4.9833;N49.3167;13;
3;France;Champagne-Ardenne;Ardennes;Son 08426;E4.2667;N49.5833;13;
3;France;Champagne-Ardenne;Ardennes;Sorbon 08427;E4.3333;N49.5333;13;
3;France;Champagne-Ardenne;Ardennes;Sorcy-Bauthémont 08428;E4.5333;N49.5500;13;
3;France;Champagne-Ardenne;Ardennes;Sormonne 08429;E4.5667;N49.8167;13;
3;France;Champagne-Ardenne;Ardennes;Stonne 08430;E4.9167;N49.5500;13;
3;France;Champagne-Ardenne;Ardennes;Sugny 08431;E4.6667;N49.3500;13;
3;France;Champagne-Ardenne;Ardennes;Sury 08432;E4.6000;N49.7500;13;
3;France;Champagne-Ardenne;Ardennes;Suzanne 08433;E4.6333;N49.5167;13;
3;France;Champagne-Ardenne;Ardennes;Sy 08434;E4.8667;N49.5167;13;
3;France;Champagne-Ardenne;Ardennes;Tagnon 08435;E4.2833;N49.4333;13;
3;France;Champagne-Ardenne;Ardennes;Taillette 08436;E4.4833;N49.9333;13;
3;France;Champagne-Ardenne;Ardennes;Tailly 08437;E5.0833;N49.4333;13;
3;France;Champagne-Ardenne;Ardennes;Taizy 08438;E4.2667;N49.5167;13;
3;France;Champagne-Ardenne;Ardennes;Tannay 08439;E4.8333;N49.5167;13;
3;France;Champagne-Ardenne;Ardennes;Tarzy 08440;E4.3000;N49.8667;13;
3;France;Champagne-Ardenne;Ardennes;Termes 08441;E4.8333;N49.3167;13;
3;France;Champagne-Ardenne;Ardennes;Terron-lès-Vendresse 08442=08469;E4.7780;N49.6005;13;
3;France;Champagne-Ardenne;Ardennes;Terron-sur-Aisne 08443;E4.7000;N49.4500;13;
3;France;Champagne-Ardenne;Ardennes;Tétaigne 08444;E5.1333;N49.6333;13;
3;France;Champagne-Ardenne;Ardennes;Thelonne 08445;E4.9500;N49.6500;13;
3;France;Champagne-Ardenne;Ardennes;Thénorgues 08446;E4.9333;N49.4000;13;
3;France;Champagne-Ardenne;Ardennes;Thilay 08448;E4.8167;N49.8667;13;
3;France;Champagne-Ardenne;Ardennes;Thin-le-Moutier 08449;E4.5000;N49.7167;13;
3;France;Champagne-Ardenne;Ardennes;This 08450;E4.6167;N49.7500;13;
3;France;Champagne-Ardenne;Ardennes;Thugny-Trugny 08452;E4.4167;N49.4833;13;
3;France;Champagne-Ardenne;Ardennes;Toges 08453;E4.7833;N49.4333;13;
3;France;Champagne-Ardenne;Ardennes;Touligny 08454;E4.6333;N49.6667;13;
3;France;Champagne-Ardenne;Ardennes;Tourcelles-Chaumont 08455;E4.6167;N49.4000;13;
3;France;Champagne-Ardenne;Ardennes;Tournavaux 08456;E4.7833;N49.8667;13;
3;France;Champagne-Ardenne;Ardennes;Tournes 08457;E4.6333;N49.8000;13;
3;France;Champagne-Ardenne;Ardennes;Tourteron 08458;E4.6500;N49.5333;13;
3;France;Champagne-Ardenne;Ardennes;Tremblois-lès-Carignan 08459;E5.2500;N49.6500;13;
3;France;Champagne-Ardenne;Ardennes;Tremblois-lès-Rocroi 08460;E4.5000;N49.8500;13;
3;France;Champagne-Ardenne;Ardennes;Vandy 08461;E4.7167;N49.4333;13;
3;France;Champagne-Ardenne;Ardennes;Vaux-Champagne 08462;E4.5500;N49.4500;13;
3;France;Champagne-Ardenne;Ardennes;Vaux-en-Dieulet 08463;E4.9833;N49.4833;13;
3;France;Champagne-Ardenne;Ardennes;Vaux-lès-Mouron 08464;E4.7833;N49.3000;13;
3;France;Champagne-Ardenne;Ardennes;Vaux-lès-Mouzon 08466;E5.1333;N49.6000;13;
3;France;Champagne-Ardenne;Ardennes;Vaux-lès-Rubigny 08465;E4.1833;N49.6833;13;
3;France;Champagne-Ardenne;Ardennes;Vaux-Montreuil 08467;E4.5500;N49.5667;13;
3;France;Champagne-Ardenne;Ardennes;Vaux-Villaine 08468;E4.4667;N49.7667;13;
3;France;Champagne-Ardenne;Ardennes;Vendresse 08469;E4.7833;N49.6000;13;
3;France;Champagne-Ardenne;Ardennes;Verpel 08470;E4.9333;N49.3833;13;
3;France;Champagne-Ardenne;Ardennes;Verrières 08471;E4.8667;N49.4833;13;
3;France;Champagne-Ardenne;Ardennes;Viel-Saint-Remy 08472;E4.5000;N49.6333;13;
3;France;Champagne-Ardenne;Ardennes;Vieux-lès-Asfeld 08473;E4.1000;N49.4667;13;
3;France;Champagne-Ardenne;Ardennes;Ville-sur-Lumes 08483;E4.8000;N49.7500;13;
3;France;Champagne-Ardenne;Ardennes;Ville-sur-Retourne 08484;E4.4500;N49.4000;13;
3;France;Champagne-Ardenne;Ardennes;Villemontry 08474=08311;E5.0791;N49.5821;13;
3;France;Champagne-Ardenne;Ardennes;Villers-Cernay 08475;E5.0333;N49.7167;13;
3;France;Champagne-Ardenne;Ardennes;Villers-devant-le-Thour 08476;E4.0833;N49.5000;13;
3;France;Champagne-Ardenne;Ardennes;Villers-devant-Mouzon 08477;E5.0333;N49.6167;13;
3;France;Champagne-Ardenne;Ardennes;Villers-le-Tilleul 08478;E4.7333;N49.6333;13;
3;France;Champagne-Ardenne;Ardennes;Villers-le-Tourneur 08479;E4.5667;N49.6333;13;
3;France;Champagne-Ardenne;Ardennes;Villers-Semeuse 08480;E4.7500;N49.7333;13;
3;France;Champagne-Ardenne;Ardennes;Villers-sur-Bar 08481;E4.8500;N49.6667;13;
3;France;Champagne-Ardenne;Ardennes;Villers-sur-le-Mont 08482;E4.6833;N49.6667;13;
3;France;Champagne-Ardenne;Ardennes;Villy 08485;E5.2167;N49.6000;13;
3;France;Champagne-Ardenne;Ardennes;Vireux-Molhain 08486;E4.7247;N50.0777;13;
3;France;Champagne-Ardenne;Ardennes;Vireux-Wallerand 08487;E4.7247;N50.0778;13;
3;France;Champagne-Ardenne;Ardennes;Vivier-au-Court 08488;E4.8333;N49.7333;13;
3;France;Champagne-Ardenne;Ardennes;Voncq 08489;E4.6667;N49.4667;13;
3;France;Champagne-Ardenne;Ardennes;Vouziers 08490;E4.7000;N49.4000;13;
3;France;Champagne-Ardenne;Ardennes;Vrigne-aux-Bois 08491;E4.8500;N49.7333;13;
3;France;Champagne-Ardenne;Ardennes;Vrigne-Meuse 08492;E4.8500;N49.7000;13;
3;France;Champagne-Ardenne;Ardennes;Vrizy 08493;E4.6833;N49.4333;13;
3;France;Champagne-Ardenne;Ardennes;Wadelincourt 08494;E4.9333;N49.6833;13;
3;France;Champagne-Ardenne;Ardennes;Wadimont 08495=08113;E4.2000;N49.6833;13;
3;France;Champagne-Ardenne;Ardennes;Wagnon 08496;E4.4167;N49.6333;13;
3;France;Champagne-Ardenne;Ardennes;Warcq 08497;E4.6833;N49.7667;13;
3;France;Champagne-Ardenne;Ardennes;Warnécourt 08498;E4.6500;N49.7333;13;
3;France;Champagne-Ardenne;Ardennes;Wasigny 08499;E4.3500;N49.6333;13;
3;France;Champagne-Ardenne;Ardennes;Wignicourt 08500;E4.5667;N49.5833;13;
3;France;Champagne-Ardenne;Ardennes;Williers 08501;E5.3098;N49.6667;13;
3;France;Champagne-Ardenne;Ardennes;Yoncq 08502;E5.0167;N49.5667;13;
3;France;Champagne-Ardenne;Ardennes;Yvernaumont 08503;E4.6500;N49.6667;13;
2;France;Champagne-Ardenne;Aube;;E4.2270;N48.2466;9;
3;France;Champagne-Ardenne;Aube;Ailleville 10002;E4.6833;N48.2500;13;
3;France;Champagne-Ardenne;Aube;Aix-en-Othe 10003;E3.7333;N48.2167;13;
3;France;Champagne-Ardenne;Aube;Allibaudières 10004;E4.1167;N48.5833;13;
3;France;Champagne-Ardenne;Aube;Amance 10005;E4.5167;N48.3000;13;
3;France;Champagne-Ardenne;Aube;Arcis-sur-Aube 10006;E4.1333;N48.5333;13;
3;France;Champagne-Ardenne;Aube;Arconville 10007;E4.7167;N48.1667;13;
3;France;Champagne-Ardenne;Aube;Argançon 10008;E4.6000;N48.2500;13;
3;France;Champagne-Ardenne;Aube;Arrelles 10009;E4.2833;N48.0500;13;
3;France;Champagne-Ardenne;Aube;Arrembécourt 10010;E4.6000;N48.5500;13;
3;France;Champagne-Ardenne;Aube;Arrentières 10011;E4.7500;N48.2667;13;
3;France;Champagne-Ardenne;Aube;Arsonval 10012;E4.6500;N48.2667;13;
3;France;Champagne-Ardenne;Aube;Assenay 10013;E4.0667;N48.1833;13;
3;France;Champagne-Ardenne;Aube;Assencières 10014;E4.2000;N48.3500;13;
3;France;Champagne-Ardenne;Aube;Aubeterre 10015;E4.1167;N48.4333;13;
3;France;Champagne-Ardenne;Aube;Aubigny 10016=10174;E4.2663;N48.5246;13;
3;France;Champagne-Ardenne;Aube;Aulnay 10017;E4.4000;N48.4667;13;
3;France;Champagne-Ardenne;Aube;Auxon 10018;E3.9167;N48.1000;13;
3;France;Champagne-Ardenne;Aube;Avant-lès-Marcilly 10020;E3.5667;N48.4167;13;
3;France;Champagne-Ardenne;Aube;Avant-lès-Ramerupt 10021;E4.2833;N48.4500;13;
3;France;Champagne-Ardenne;Aube;Avirey-Lingey 10022;E4.3000;N48.0333;13;
3;France;Champagne-Ardenne;Aube;Avon-la-Pèze 10023;E3.6500;N48.3833;13;
3;France;Champagne-Ardenne;Aube;Avreuil 10024;E4.0000;N48.0500;13;
3;France;Champagne-Ardenne;Aube;Bagneux-la-Fosse 10025;E4.2833;N47.9833;13;
3;France;Champagne-Ardenne;Aube;Bailly-le-Franc 10026;E4.6500;N48.5167;13;
3;France;Champagne-Ardenne;Aube;Balignicourt 10027;E4.4667;N48.5167;13;
3;France;Champagne-Ardenne;Aube;Balnot-la-Grange 10028;E4.2000;N47.9833;13;
3;France;Champagne-Ardenne;Aube;Balnot-sur-Laignes 10029;E4.3667;N48.0333;13;
3;France;Champagne-Ardenne;Aube;Bar-sur-Aube 10033;E4.7167;N48.2333;13;
3;France;Champagne-Ardenne;Aube;Bar-sur-Seine 10034;E4.3667;N48.1167;13;
3;France;Champagne-Ardenne;Aube;Barberey-Saint-Sulpice 10030;E4.0333;N48.3333;13;
3;France;Champagne-Ardenne;Aube;Barbuise 10031;E3.5833;N48.5500;13;
3;France;Champagne-Ardenne;Aube;Baroville 10032;E4.7833;N48.2000;13;
3;France;Champagne-Ardenne;Aube;Bayel 10035;E4.3000;N47.9667;13;
3;France;Champagne-Ardenne;Aube;Beauvoir-sur-Sarce 10036=10058;E4.1500;N48.3000;13;
3;France;Champagne-Ardenne;Aube;Bercenay-en-Othe 10037;E3.8833;N48.2167;13;
3;France;Champagne-Ardenne;Aube;Bercenay-le-Hayer 10038;E3.5833;N48.3333;13;
3;France;Champagne-Ardenne;Aube;Bergères 10039;E4.6667;N48.1833;13;
3;France;Champagne-Ardenne;Aube;Bernon 10040;E3.9833;N47.9833;13;
3;France;Champagne-Ardenne;Aube;Bertignolles 10041;E4.5167;N48.1333;13;
3;France;Champagne-Ardenne;Aube;Bérulle 10042;E3.6667;N48.1833;13;
3;France;Champagne-Ardenne;Aube;Bessy 10043;E4.0235;N48.5471;13;
3;France;Champagne-Ardenne;Aube;Bétignicourt 10044;E4.4500;N48.4500;13;
3;France;Champagne-Ardenne;Aube;Beurey 10045;E4.4667;N48.1833;13;
3;France;Champagne-Ardenne;Aube;Blaincourt-sur-Aube 10046;E4.4500;N48.3833;13;
3;France;Champagne-Ardenne;Aube;Blignicourt 10047;E4.5333;N48.4667;13;
3;France;Champagne-Ardenne;Aube;Bligny 10048;E4.6158;N48.1730;13;
3;France;Champagne-Ardenne;Aube;Bossancourt 10050;E4.6000;N48.2833;13;
3;France;Champagne-Ardenne;Aube;Bouilly 10051;E4.0000;N48.2000;13;
3;France;Champagne-Ardenne;Aube;Boulages 10052;E3.9167;N48.5833;13;
3;France;Champagne-Ardenne;Aube;Bouranton 10053;E4.1833;N48.3167;13;
3;France;Champagne-Ardenne;Aube;Bourdenay 10054;E3.5879;N48.3594;13;
3;France;Champagne-Ardenne;Aube;Bourguignons 10055;E4.3667;N48.1333;13;
3;France;Champagne-Ardenne;Aube;Bouy-Luxembourg 10056;E4.2667;N48.3833;13;
3;France;Champagne-Ardenne;Aube;Bouy-sur-Orvin 10057;E3.5000;N48.4167;13;
3;France;Champagne-Ardenne;Aube;Bragelogne-Beauvoir 10058;E4.2500;N47.9667;13;
3;France;Champagne-Ardenne;Aube;Braux 10059;E4.4667;N48.4833;13;
3;France;Champagne-Ardenne;Aube;Bréviandes 10060;E4.1000;N48.2500;13;
3;France;Champagne-Ardenne;Aube;Brévonnes 10061;E4.4000;N48.3667;13;
3;France;Champagne-Ardenne;Aube;Briel-sur-Barse 10062;E4.3500;N48.2167;13;
3;France;Champagne-Ardenne;Aube;Brienne-la-Vieille 10063;E4.5333;N48.3667;13;
3;France;Champagne-Ardenne;Aube;Brienne-le-Château 10064;E4.5333;N48.4000;13;
3;France;Champagne-Ardenne;Aube;Brillecourt 10065;E4.3667;N48.4667;13;
3;France;Champagne-Ardenne;Aube;Bucey-en-Othe 10066;E3.8667;N48.2667;13;
3;France;Champagne-Ardenne;Aube;Buchères 10067;E4.1167;N48.2333;13;
3;France;Champagne-Ardenne;Aube;Buxeuil 10068;E4.3952;N48.0554;13;
3;France;Champagne-Ardenne;Aube;Buxières-sur-Arce 10069;E4.4500;N48.1333;13;
3;France;Champagne-Ardenne;Aube;Celles-sur-Ource 10070;E4.4000;N48.0833;13;
3;France;Champagne-Ardenne;Aube;Chacenay 10071;E4.5333;N48.1167;13;
3;France;Champagne-Ardenne;Aube;Chalette-sur-Voire 10073;E4.4333;N48.4500;13;
3;France;Champagne-Ardenne;Aube;Chamoy 10074;E3.9667;N48.1167;13;
3;France;Champagne-Ardenne;Aube;Champ-sur-Barse 10078;E4.4000;N48.2333;13;
3;France;Champagne-Ardenne;Aube;Champfleury 10075;E4.0000;N48.6167;13;
3;France;Champagne-Ardenne;Aube;Champignol-lez-Mondeville 10076;E4.6833;N48.1333;13;
3;France;Champagne-Ardenne;Aube;Champigny-sur-Aube 10077;E4.0667;N48.5667;13;
3;France;Champagne-Ardenne;Aube;Channes 10079;E4.2500;N47.9333;13;
3;France;Champagne-Ardenne;Aube;Chaource 10080;E4.1333;N48.0667;13;
3;France;Champagne-Ardenne;Aube;Chapelle-Vallon 10082;E4.0333;N48.4333;13;
3;France;Champagne-Ardenne;Aube;Chappes 10083;E4.2500;N48.1667;13;
3;France;Champagne-Ardenne;Aube;Charmont-sous-Barbuise 10084;E4.1667;N48.4167;13;
3;France;Champagne-Ardenne;Aube;Charmoy 10085;E3.4833;N47.9333;13;
3;France;Champagne-Ardenne;Aube;Charny-le-Bachot 10086;E3.9500;N48.5500;13;
3;France;Champagne-Ardenne;Aube;Chaserey 10087;E4.0667;N47.9500;13;
3;France;Champagne-Ardenne;Aube;Chassericourt 10088=10094;E4.5678;N48.5297;13;
3;France;Champagne-Ardenne;Aube;Châtres 10089;E3.8500;N48.5000;13;
3;France;Champagne-Ardenne;Aube;Chauchigny 10090;E3.9667;N48.4333;13;
3;France;Champagne-Ardenne;Aube;Chaudrey 10091;E4.2833;N48.5000;13;
3;France;Champagne-Ardenne;Aube;Chauffour-lès-Bailly 10092;E4.3333;N48.2000;13;
3;France;Champagne-Ardenne;Aube;Chaumesnil 10093;E4.6000;N48.3667;13;
3;France;Champagne-Ardenne;Aube;Chavanges 10094;E4.5667;N48.5167;13;
3;France;Champagne-Ardenne;Aube;Chennegy 10096;E3.8500;N48.2167;13;
3;France;Champagne-Ardenne;Aube;Chervey 10097;E4.5000;N48.1333;13;
3;France;Champagne-Ardenne;Aube;Chesley 10098;E4.1167;N47.9667;13;
3;France;Champagne-Ardenne;Aube;Chessy-les-Prés 10099;E3.9167;N48.0167;13;
3;France;Champagne-Ardenne;Aube;Clérey 10100;E4.2000;N48.2000;13;
3;France;Champagne-Ardenne;Aube;Coclois 10101;E4.3333;N48.4667;13;
3;France;Champagne-Ardenne;Aube;Colombé-la-Fosse 10102;E4.8000;N48.2667;13;
3;France;Champagne-Ardenne;Aube;Colombé-le-Sec 10103;E4.8000;N48.2500;13;
3;France;Champagne-Ardenne;Aube;Cormost 10104;E4.1333;N48.1667;13;
3;France;Champagne-Ardenne;Aube;Courcelles-sur-Voire 10105;E4.5333;N48.4667;13;
3;France;Champagne-Ardenne;Aube;Courceroy 10106;E3.4167;N48.4667;13;
3;France;Champagne-Ardenne;Aube;Coursan-en-Othe 10107;E3.8333;N48.0667;13;
3;France;Champagne-Ardenne;Aube;Courtaoult 10108;E3.8667;N48.0167;13;
3;France;Champagne-Ardenne;Aube;Courtenot 10109;E4.3000;N48.1500;13;
3;France;Champagne-Ardenne;Aube;Courteranges 10110;E4.2333;N48.2667;13;
3;France;Champagne-Ardenne;Aube;Courteron 10111;E4.4500;N48.0167;13;
3;France;Champagne-Ardenne;Aube;Coussegrey 10112;E4.0167;N47.9500;13;
3;France;Champagne-Ardenne;Aube;Couvignon 10113;E4.6500;N48.2000;13;
3;France;Champagne-Ardenne;Aube;Crancey 10114;E3.6333;N48.5167;13;
3;France;Champagne-Ardenne;Aube;Creney-près-Troyes 10115;E4.1333;N48.3333;13;
3;France;Champagne-Ardenne;Aube;Crésantignes 10116;E4.0167;N48.1333;13;
3;France;Champagne-Ardenne;Aube;Crespy-le-Neuf 10117;E4.6000;N48.4000;13;
3;France;Champagne-Ardenne;Aube;Cunfin 10119;E4.6667;N48.0500;13;
3;France;Champagne-Ardenne;Aube;Cussangy 10120;E4.1000;N48.0167;13;
3;France;Champagne-Ardenne;Aube;Dampierre 10121;E4.3667;N48.5500;13;
3;France;Champagne-Ardenne;Aube;Davrey 10122;E3.9500;N48.0500;13;
3;France;Champagne-Ardenne;Aube;Dienville 10123;E4.5333;N48.3500;13;
3;France;Champagne-Ardenne;Aube;Dierrey-Saint-Julien 10124;E3.8333;N48.3167;13;
3;France;Champagne-Ardenne;Aube;Dierrey-Saint-Pierre 10125;E3.8333;N48.3333;13;
3;France;Champagne-Ardenne;Aube;Dolancourt 10126;E4.6167;N48.2667;13;
3;France;Champagne-Ardenne;Aube;Dommartin-le-Coq 10127;E4.3500;N48.5000;13;
3;France;Champagne-Ardenne;Aube;Donnement 10128;E4.4333;N48.5167;13;
3;France;Champagne-Ardenne;Aube;Dosches 10129;E4.2500;N48.3167;13;
3;France;Champagne-Ardenne;Aube;Dosnon 10130;E4.2333;N48.6167;13;
3;France;Champagne-Ardenne;Aube;Droupt-Saint-Basle 10131;E3.9333;N48.4833;13;
3;France;Champagne-Ardenne;Aube;Droupt-Sainte-Marie 10132;E3.9167;N48.5000;13;
3;France;Champagne-Ardenne;Aube;Eaux-Puiseaux 10133;E3.8833;N48.1167;13;
3;France;Champagne-Ardenne;Aube;Échemines 10134;E3.8333;N48.3833;13;
3;France;Champagne-Ardenne;Aube;Éclance 10135;E4.6333;N48.3000;13;
3;France;Champagne-Ardenne;Aube;Éguilly-sous-Bois 10136;E4.5333;N48.1333;13;
3;France;Champagne-Ardenne;Aube;Engente 10137;E4.7500;N48.2667;13;
3;France;Champagne-Ardenne;Aube;Épagne 10138;E4.4667;N48.4000;13;
3;France;Champagne-Ardenne;Aube;Épothémont 10139;E4.6500;N48.4167;13;
3;France;Champagne-Ardenne;Aube;Ervy-le-Châtel 10140;E3.9167;N48.0333;13;
3;France;Champagne-Ardenne;Aube;Essoyes 10141;E4.5333;N48.0667;13;
3;France;Champagne-Ardenne;Aube;Estissac 10142;E3.8167;N48.2667;13;
3;France;Champagne-Ardenne;Aube;Étourvy 10143;E4.1333;N47.9500;13;
3;France;Champagne-Ardenne;Aube;Étrelles-sur-Aube 10144;E3.8667;N48.5667;13;
3;France;Champagne-Ardenne;Aube;Faux-Villecerf 10145;E3.7333;N48.3333;13;
3;France;Champagne-Ardenne;Aube;Fay-lès-Marcilly 10146;E3.6000;N48.4000;13;
3;France;Champagne-Ardenne;Aube;Fays-la-Chapelle 10147;E4.0167;N48.1333;13;
3;France;Champagne-Ardenne;Aube;Ferreux-Quincey 10148;E3.6000;N48.4500;13;
3;France;Champagne-Ardenne;Aube;Feuges 10149;E4.1167;N48.4000;13;
3;France;Champagne-Ardenne;Aube;Fontaine 10150;E4.7167;N48.2167;13;
3;France;Champagne-Ardenne;Aube;Fontaine-les-Grès 10151;E3.9000;N48.4167;13;
3;France;Champagne-Ardenne;Aube;Fontaine-Luyères 10152=10084;E4.1833;N48.4000;13;
3;France;Champagne-Ardenne;Aube;Fontaine-Mâcon 10153;E3.5000;N48.4667;13;
3;France;Champagne-Ardenne;Aube;Fontenay-de-Bossery 10154;E3.4500;N48.4500;13;
3;France;Champagne-Ardenne;Aube;Fontette 10155;E4.6167;N48.0833;13;
3;France;Champagne-Ardenne;Aube;Fontvannes 10156;E3.8667;N48.2833;13;
3;France;Champagne-Ardenne;Aube;Fouchères 10158;E4.2667;N48.1500;13;
3;France;Champagne-Ardenne;Aube;Fralignes 10159;E4.3667;N48.1667;13;
3;France;Champagne-Ardenne;Aube;Fravaux 10160;E4.6333;N48.2333;13;
3;France;Champagne-Ardenne;Aube;Fresnay 10161;E4.7500;N48.3000;13;
3;France;Champagne-Ardenne;Aube;Fresnoy-le-Château 10162;E4.2333;N48.2000;13;
3;France;Champagne-Ardenne;Aube;Fuligny 10163;E4.7000;N48.3333;13;
3;France;Champagne-Ardenne;Aube;Gélannes 10164;E3.6667;N48.4833;13;
3;France;Champagne-Ardenne;Aube;Géraudot 10165;E4.3167;N48.3000;13;
3;France;Champagne-Ardenne;Aube;Grandville 10167;E4.2333;N48.6000;13;
3;France;Champagne-Ardenne;Aube;Gumery 10169;E3.4333;N48.4500;13;
3;France;Champagne-Ardenne;Aube;Gyé-sur-Seine 10170;E4.4333;N48.0333;13;
3;France;Champagne-Ardenne;Aube;Hampigny 10171;E4.6000;N48.4500;13;
3;France;Champagne-Ardenne;Aube;Herbisse 10172;E4.1167;N48.6167;13;
3;France;Champagne-Ardenne;Aube;Isle-Aubigny 10174;E4.2500;N48.5167;13;
3;France;Champagne-Ardenne;Aube;Isle-Aumont 10173;E4.1333;N48.2167;13;
3;France;Champagne-Ardenne;Aube;Jasseines 10175;E4.3833;N48.5000;13;
3;France;Champagne-Ardenne;Aube;Jaucourt 10176;E4.6500;N48.2667;13;
3;France;Champagne-Ardenne;Aube;Javernant 10177;E4.0000;N48.1667;13;
3;France;Champagne-Ardenne;Aube;Jessains 10178;E4.5833;N48.3000;13;
3;France;Champagne-Ardenne;Aube;Jeugny 10179;E4.0333;N48.1333;13;
3;France;Champagne-Ardenne;Aube;Joncreuil 10180;E4.6167;N48.5167;13;
3;France;Champagne-Ardenne;Aube;Jully-sur-Sarce 10181;E4.3000;N48.1000;13;
3;France;Champagne-Ardenne;Aube;Juvancourt 10182;E4.8000;N48.1167;13;
3;France;Champagne-Ardenne;Aube;Juvanzé 10183;E4.5667;N48.3167;13;
3;France;Champagne-Ardenne;Aube;Juzanvigny 10184;E4.5833;N48.4167;13;
3;France;Champagne-Ardenne;Aube;L'Abbaye-sous-Plancy 10001=10289;E3.9413;N48.5698;13;
3;France;Champagne-Ardenne;Aube;La Chaise 10072;E4.6667;N48.3667;13;
3;France;Champagne-Ardenne;Aube;La Chapelle-Saint-Luc 10081;E4.0500;N48.3333;13;
3;France;Champagne-Ardenne;Aube;La Fosse-Corduan 10157;E3.6500;N48.4500;13;
3;France;Champagne-Ardenne;Aube;La Loge-aux-Chèvres 10200;E4.4167;N48.2833;13;
3;France;Champagne-Ardenne;Aube;La Loge-Pomblin 10201;E4.0333;N48.0500;13;
3;France;Champagne-Ardenne;Aube;La Louptière-Thénard 10208;E3.4333;N48.3833;13;
3;France;Champagne-Ardenne;Aube;La Motte-Tilly 10259;E3.4333;N48.4667;13;
3;France;Champagne-Ardenne;Aube;La Rivière-de-Corps 10321;E4.0333;N48.2833;13;
3;France;Champagne-Ardenne;Aube;La Rothière 10327;E4.5667;N48.3500;13;
3;France;Champagne-Ardenne;Aube;La Saulsotte 10367;E3.5000;N48.5333;13;
3;France;Champagne-Ardenne;Aube;La Vendue-Mignot 10402;E4.1167;N48.1667;13;
3;France;Champagne-Ardenne;Aube;La Ville-aux-Bois 10411;E4.5000;N48.2833;13;
3;France;Champagne-Ardenne;Aube;La Villeneuve-au-Châtelot 10421;E3.6000;N48.5500;13;
3;France;Champagne-Ardenne;Aube;La Villeneuve-au-Chêne 10423;E4.3833;N48.2333;13;
3;France;Champagne-Ardenne;Aube;Lagesse 10185;E4.1333;N48.0167;13;
3;France;Champagne-Ardenne;Aube;Laines-aux-Bois 10186;E3.9833;N48.2333;13;
3;France;Champagne-Ardenne;Aube;Landreville 10187;E4.4667;N48.0667;13;
3;France;Champagne-Ardenne;Aube;Lantages 10188;E4.2167;N48.0667;13;
3;France;Champagne-Ardenne;Aube;Lassicourt 10189;E4.4833;N48.4333;13;
3;France;Champagne-Ardenne;Aube;Laubressel 10190;E4.2167;N48.3000;13;
3;France;Champagne-Ardenne;Aube;Lavau 10191;E4.0833;N48.3167;13;
3;France;Champagne-Ardenne;Aube;Le Chêne 10095;E4.1833;N48.5500;13;
3;France;Champagne-Ardenne;Aube;Le Mériot 10231;E3.4500;N48.5000;13;
3;France;Champagne-Ardenne;Aube;Le Pavillon-Sainte-Julie 10281;E3.9000;N48.3667;13;
3;France;Champagne-Ardenne;Aube;Lentilles 10192;E4.6167;N48.4833;13;
3;France;Champagne-Ardenne;Aube;Les Bordes-Aumont 10049;E4.1167;N48.1833;13;
3;France;Champagne-Ardenne;Aube;Les Croûtes 10118;E3.8667;N48.0000;13;
3;France;Champagne-Ardenne;Aube;Les Grandes-Chapelles 10166;E4.0167;N48.4667;13;
3;France;Champagne-Ardenne;Aube;Les Granges 10168;E3.7833;N48.5000;13;
3;France;Champagne-Ardenne;Aube;Les Loges-Margueron 10202;E4.1167;N48.0833;13;
3;France;Champagne-Ardenne;Aube;Les Noës-près-Troyes 10265;E4.0333;N48.3000;13;
3;France;Champagne-Ardenne;Aube;Les Riceys 10317;E4.3667;N47.9833;13;
3;France;Champagne-Ardenne;Aube;Lesmont 10193;E4.4167;N48.4333;13;
3;France;Champagne-Ardenne;Aube;Lévigny 10194;E4.7000;N48.3000;13;
3;France;Champagne-Ardenne;Aube;Lhuître 10195;E4.2500;N48.5667;13;
3;France;Champagne-Ardenne;Aube;Lignières 10196;E3.9667;N47.9500;13;
3;France;Champagne-Ardenne;Aube;Lignol-le-Château 10197;E4.8167;N48.2167;13;
3;France;Champagne-Ardenne;Aube;Lirey 10198;E4.0500;N48.1500;13;
3;France;Champagne-Ardenne;Aube;Loches-sur-Ource 10199;E4.5000;N48.0667;13;
3;France;Champagne-Ardenne;Aube;Longchamp-sur-Aujon 10203;E4.8333;N48.1500;13;
3;France;Champagne-Ardenne;Aube;Longeville-sur-Mogne 10204;E4.0500;N48.1333;13;
3;France;Champagne-Ardenne;Aube;Longpré-le-Sec 10205;E4.5167;N48.1833;13;
3;France;Champagne-Ardenne;Aube;Longsols 10206;E4.2833;N48.4333;13;
3;France;Champagne-Ardenne;Aube;Longueville-sur-Aube 10207;E3.9167;N48.5500;13;
3;France;Champagne-Ardenne;Aube;Lusigny-sur-Barse 10209;E4.2667;N48.2500;13;
3;France;Champagne-Ardenne;Aube;Luyères 10210;E4.2000;N48.3833;13;
3;France;Champagne-Ardenne;Aube;Macey 10211;E3.9167;N48.3000;13;
3;France;Champagne-Ardenne;Aube;Machy 10212;E4.0500;N48.1333;13;
3;France;Champagne-Ardenne;Aube;Magnant 10213;E4.4167;N48.1667;13;
3;France;Champagne-Ardenne;Aube;Magnicourt 10214;E4.3833;N48.4500;13;
3;France;Champagne-Ardenne;Aube;Magny-Fouchard 10215;E4.5333;N48.2500;13;
3;France;Champagne-Ardenne;Aube;Mailly-le-Camp 10216;E4.2167;N48.6667;13;
3;France;Champagne-Ardenne;Aube;Maison-des-Champs 10217;E4.5667;N48.2500;13;
3;France;Champagne-Ardenne;Aube;Maisons-lès-Chaource 10218;E4.1667;N48.0167;13;
3;France;Champagne-Ardenne;Aube;Maisons-lès-Soulaines 10219;E4.7833;N48.2833;13;
3;France;Champagne-Ardenne;Aube;Maizières-la-Grande-Paroisse 10220;E3.7833;N48.5000;13;
3;France;Champagne-Ardenne;Aube;Maizières-lès-Brienne 10221;E4.5833;N48.4333;13;
3;France;Champagne-Ardenne;Aube;Maraye-en-Othe 10222;E3.8500;N48.1667;13;
3;France;Champagne-Ardenne;Aube;Marcilly-le-Hayer 10223;E3.6333;N48.3500;13;
3;France;Champagne-Ardenne;Aube;Marigny-le-Châtel 10224;E3.7333;N48.4000;13;
3;France;Champagne-Ardenne;Aube;Marnay-sur-Seine 10225;E3.5500;N48.5167;13;
3;France;Champagne-Ardenne;Aube;Marolles-lès-Bailly 10226;E4.3500;N48.1833;13;
3;France;Champagne-Ardenne;Aube;Marolles-sous-Lignières 10227;E3.9167;N47.9500;13;
3;France;Champagne-Ardenne;Aube;Mathaux 10228;E4.4833;N48.3667;13;
3;France;Champagne-Ardenne;Aube;Maupas 10229;E4.0667;N48.1333;13;
3;France;Champagne-Ardenne;Aube;Mergey 10230;E4.0167;N48.3833;13;
3;France;Champagne-Ardenne;Aube;Merrey-sur-Arce 10232;E4.3833;N48.1000;13;
3;France;Champagne-Ardenne;Aube;Méry-sur-Seine 10233;E3.8833;N48.5000;13;
3;France;Champagne-Ardenne;Aube;Mesgrigny 10234;E3.8833;N48.4833;13;
3;France;Champagne-Ardenne;Aube;Mesnil-la-Comtesse 10235;E4.2000;N48.5000;13;
3;France;Champagne-Ardenne;Aube;Mesnil-Lettre 10236;E4.2667;N48.4500;13;
3;France;Champagne-Ardenne;Aube;Mesnil-Saint-Loup 10237;E3.7667;N48.3000;13;
3;France;Champagne-Ardenne;Aube;Mesnil-Saint-Père 10238;E4.3333;N48.2500;13;
3;France;Champagne-Ardenne;Aube;Mesnil-Sellières 10239;E4.2167;N48.3333;13;
3;France;Champagne-Ardenne;Aube;Messon 10240;E3.9000;N48.2667;13;
3;France;Champagne-Ardenne;Aube;Metz-Robert 10241;E4.1167;N48.0667;13;
3;France;Champagne-Ardenne;Aube;Meurville 10242;E4.6167;N48.2000;13;
3;France;Champagne-Ardenne;Aube;Molins-sur-Aube 10243;E4.3833;N48.4333;13;
3;France;Champagne-Ardenne;Aube;Montangon 10244=10019;E4.3500;N48.4000;13;
3;France;Champagne-Ardenne;Aube;Montaulin 10245;E4.2000;N48.2500;13;
3;France;Champagne-Ardenne;Aube;Montceaux-lès-Vaudes 10246;E4.1667;N48.1667;13;
3;France;Champagne-Ardenne;Aube;Montfey 10247;E3.8833;N48.0667;13;
3;France;Champagne-Ardenne;Aube;Montgueux 10248;E3.9667;N48.3000;13;
3;France;Champagne-Ardenne;Aube;Montier-en-l'Isle 10250;E4.6667;N48.2667;13;
3;France;Champagne-Ardenne;Aube;Montiéramey 10249;E4.3000;N48.2167;13;
3;France;Champagne-Ardenne;Aube;Montigny-les-Monts 10251;E3.9500;N48.1000;13;
3;France;Champagne-Ardenne;Aube;Montmartin-le-Haut 10252;E4.5500;N48.2167;13;
3;France;Champagne-Ardenne;Aube;Montmorency-Beaufort 10253;E4.5667;N48.4833;13;
3;France;Champagne-Ardenne;Aube;Montpothier 10254;E3.5167;N48.5667;13;
3;France;Champagne-Ardenne;Aube;Montreuil-sur-Barse 10255;E4.3000;N48.2167;13;
3;France;Champagne-Ardenne;Aube;Montsuzain 10256;E4.1333;N48.4500;13;
3;France;Champagne-Ardenne;Aube;Morembert 10257;E4.3333;N48.5000;13;
3;France;Champagne-Ardenne;Aube;Morvilliers 10258;E4.6167;N48.3833;13;
3;France;Champagne-Ardenne;Aube;Moussey 10260;E4.1000;N48.2167;13;
3;France;Champagne-Ardenne;Aube;Mussy-sur-Seine 10261;E4.5000;N47.9667;13;
3;France;Champagne-Ardenne;Aube;Neuville-sur-Seine 10262;E4.4167;N48.0333;13;
3;France;Champagne-Ardenne;Aube;Neuville-sur-Vannes 10263;E3.7667;N48.2500;13;
3;France;Champagne-Ardenne;Aube;Noë-les-Mallets 10264;E4.5667;N48.1000;13;
3;France;Champagne-Ardenne;Aube;Nogent-en-Othe 10266;E3.8000;N48.1500;13;
3;France;Champagne-Ardenne;Aube;Nogent-sur-Aube 10267;E4.3167;N48.5000;13;
3;France;Champagne-Ardenne;Aube;Nogent-sur-Seine 10268;E3.5000;N48.4833;13;
3;France;Champagne-Ardenne;Aube;Nozay 10269;E4.1000;N48.5167;13;
3;France;Champagne-Ardenne;Aube;Onjon 10270;E4.2833;N48.4000;13;
3;France;Champagne-Ardenne;Aube;Origny-le-Sec 10271;E3.7667;N48.4667;13;
3;France;Champagne-Ardenne;Aube;Ormes 10272;E4.1167;N48.5500;13;
3;France;Champagne-Ardenne;Aube;Ortillon 10273;E4.2500;N48.5167;13;
3;France;Champagne-Ardenne;Aube;Orvilliers-Saint-Julien 10274;E3.8333;N48.4500;13;
3;France;Champagne-Ardenne;Aube;Ossey-les-Trois-Maisons 10275;E3.7500;N48.4333;13;
3;France;Champagne-Ardenne;Aube;Paisy-Cosdon 10276;E3.7167;N48.2333;13;
3;France;Champagne-Ardenne;Aube;Palis 10277;E3.7000;N48.2833;13;
3;France;Champagne-Ardenne;Aube;Pargues 10278;E4.1833;N48.0167;13;
3;France;Champagne-Ardenne;Aube;Pars-lès-Chavanges 10279;E4.5000;N48.5000;13;
3;France;Champagne-Ardenne;Aube;Pars-lès-Romilly 10280;E3.7333;N48.4833;13;
3;France;Champagne-Ardenne;Aube;Payns 10282;E3.9667;N48.3833;13;
3;France;Champagne-Ardenne;Aube;Pel-et-Der 10283;E4.4167;N48.4000;13;
3;France;Champagne-Ardenne;Aube;Périgny-la-Rose 10284;E3.6333;N48.5500;13;
3;France;Champagne-Ardenne;Aube;Perthes-lès-Brienne 10285;E4.5333;N48.4333;13;
3;France;Champagne-Ardenne;Aube;Petit-Mesnil 10286;E4.5833;N48.3500;13;
3;France;Champagne-Ardenne;Aube;Piney 10287;E4.3333;N48.3667;13;
3;France;Champagne-Ardenne;Aube;Plaines-Saint-Lange 10288;E4.4667;N47.9833;13;
3;France;Champagne-Ardenne;Aube;Plancy-l'Abbaye 10289;E3.9667;N48.5667;13;
3;France;Champagne-Ardenne;Aube;Planty 10290;E3.6500;N48.2667;13;
3;France;Champagne-Ardenne;Aube;Plessis-Barbuise 10291;E3.5833;N48.5667;13;
3;France;Champagne-Ardenne;Aube;Plessis-Gatebled 10292=10208;E3.4385;N48.3789;13;
3;France;Champagne-Ardenne;Aube;Poivres 10293;E4.2667;N48.6833;13;
3;France;Champagne-Ardenne;Aube;Poligny 10294;E4.3500;N48.1667;13;
3;France;Champagne-Ardenne;Aube;Polisot 10295;E4.3667;N48.0833;13;
3;France;Champagne-Ardenne;Aube;Polisy 10296;E4.4667;N48.0667;13;
3;France;Champagne-Ardenne;Aube;Pont-Sainte-Marie 10297;E4.1000;N48.3167;13;
3;France;Champagne-Ardenne;Aube;Pont-sur-Seine 10298;E3.6000;N48.5167;13;
3;France;Champagne-Ardenne;Aube;Pouan-les-Vallées 10299;E4.0667;N48.5333;13;
3;France;Champagne-Ardenne;Aube;Pougy 10300;E4.3667;N48.4500;13;
3;France;Champagne-Ardenne;Aube;Pouy-sur-Vannes 10301;E3.5833;N48.3000;13;
3;France;Champagne-Ardenne;Aube;Praslin 10302;E4.2000;N48.0500;13;
3;France;Champagne-Ardenne;Aube;Précy-Notre-Dame 10303;E4.4333;N48.4167;13;
3;France;Champagne-Ardenne;Aube;Précy-Saint-Martin 10304;E4.4500;N48.4167;13;
3;France;Champagne-Ardenne;Aube;Prémierfait 10305;E4.0333;N48.5000;13;
3;France;Champagne-Ardenne;Aube;Proverville 10306;E4.7000;N48.2333;13;
3;France;Champagne-Ardenne;Aube;Prugny 10307;E3.9500;N48.2500;13;
3;France;Champagne-Ardenne;Aube;Prunay-Belleville 10308;E3.7833;N48.3667;13;
3;France;Champagne-Ardenne;Aube;Prusy 10309;E4.0500;N47.9667;13;
3;France;Champagne-Ardenne;Aube;Puits-et-Nuisement 10310;E4.5000;N48.2167;13;
3;France;Champagne-Ardenne;Aube;Quincey 10311=10148;E3.5833;N48.4667;13;
3;France;Champagne-Ardenne;Aube;Racines 10312;E3.8500;N48.0500;13;
3;France;Champagne-Ardenne;Aube;Radonvilliers 10313;E4.5167;N48.3667;13;
3;France;Champagne-Ardenne;Aube;Ramerupt 10314;E4.3000;N48.5167;13;
3;France;Champagne-Ardenne;Aube;Rances 10315;E4.5500;N48.4667;13;
3;France;Champagne-Ardenne;Aube;Rhèges 10316;E4.0000;N48.5500;13;
3;France;Champagne-Ardenne;Aube;Rigny-la-Nonneuse 10318;E3.6667;N48.4167;13;
3;France;Champagne-Ardenne;Aube;Rigny-le-Ferron 10319;E3.6333;N48.2000;13;
3;France;Champagne-Ardenne;Aube;Rilly-Sainte-Syre 10320;E3.9500;N48.4500;13;
3;France;Champagne-Ardenne;Aube;Romaines 10322=10314;E4.3167;N48.5167;13;
3;France;Champagne-Ardenne;Aube;Romilly-sur-Seine 10323;E3.7167;N48.5167;13;
3;France;Champagne-Ardenne;Aube;Roncenay 10324;E4.0500;N48.2000;13;
3;France;Champagne-Ardenne;Aube;Rosières-près-Troyes 10325;E4.0667;N48.2667;13;
3;France;Champagne-Ardenne;Aube;Rosnay-l'Hôpital 10326;E4.5000;N48.4667;13;
3;France;Champagne-Ardenne;Aube;Rouilly-Sacey 10328;E4.2667;N48.3500;13;
3;France;Champagne-Ardenne;Aube;Rouilly-Saint-Loup 10329;E4.1500;N48.2667;13;
3;France;Champagne-Ardenne;Aube;Rouvres-les-Vignes 10330;E4.8167;N48.2333;13;
3;France;Champagne-Ardenne;Aube;Rumilly-lès-Vaudes 10331;E4.2167;N48.1500;13;
3;France;Champagne-Ardenne;Aube;Ruvigny 10332;E4.1833;N48.2667;13;
3;France;Champagne-Ardenne;Aube;Saint-André-les-Vergers 10333;E4.0500;N48.2833;13;
3;France;Champagne-Ardenne;Aube;Saint-Aubin 10334;E3.5500;N48.4667;13;
3;France;Champagne-Ardenne;Aube;Saint-Benoist-sur-Vanne 10335;E3.6667;N48.2333;13;
3;France;Champagne-Ardenne;Aube;Saint-Benoît-sur-Seine 10336;E4.0333;N48.3667;13;
3;France;Champagne-Ardenne;Aube;Saint-Christophe-Dodinicourt 10337;E4.4667;N48.4333;13;
3;France;Champagne-Ardenne;Aube;Saint-Étienne-sous-Barbuise 10338;E4.1167;N48.5000;13;
3;France;Champagne-Ardenne;Aube;Saint-Flavy 10339;E3.7667;N48.4000;13;
3;France;Champagne-Ardenne;Aube;Saint-Germain 10340;E4.0333;N48.2500;13;
3;France;Champagne-Ardenne;Aube;Saint-Hilaire-sous-Romilly 10341;E3.6667;N48.5167;13;
3;France;Champagne-Ardenne;Aube;Saint-Jean-de-Bonneval 10342;E4.0500;N48.1667;13;
3;France;Champagne-Ardenne;Aube;Saint-Julien-les-Villas 10343;E4.1000;N48.2667;13;
3;France;Champagne-Ardenne;Aube;Saint-Léger-près-Troyes 10344;E4.0833;N48.2333;13;
3;France;Champagne-Ardenne;Aube;Saint-Léger-sous-Brienne 10345;E4.5000;N48.4000;13;
3;France;Champagne-Ardenne;Aube;Saint-Léger-sous-Margerie 10346;E4.4833;N48.5333;13;
3;France;Champagne-Ardenne;Aube;Saint-Loup-de-Buffigny 10347;E3.6333;N48.4500;13;
3;France;Champagne-Ardenne;Aube;Saint-Lupien 10348;E3.7000;N48.3500;13;
3;France;Champagne-Ardenne;Aube;Saint-Lyé 10349;E4.0000;N48.3667;13;
3;France;Champagne-Ardenne;Aube;Saint-Mards-en-Othe 10350;E3.8000;N48.1667;13;
3;France;Champagne-Ardenne;Aube;Saint-Martin-de-Bossenay 10351;E3.6833;N48.4333;13;
3;France;Champagne-Ardenne;Aube;Saint-Mesmin 10353;E3.9333;N48.4500;13;
3;France;Champagne-Ardenne;Aube;Saint-Nabord-sur-Aube 10354;E4.2167;N48.5333;13;
3;France;Champagne-Ardenne;Aube;Saint-Nicolas-la-Chapelle 10355;E3.4667;N48.5333;13;
3;France;Champagne-Ardenne;Aube;Saint-Oulph 10356;E3.8667;N48.5167;13;
3;France;Champagne-Ardenne;Aube;Saint-Parres-aux-Tertres 10357;E4.1167;N48.3000;13;
3;France;Champagne-Ardenne;Aube;Saint-Parres-lès-Vaudes 10358;E4.2167;N48.1667;13;
3;France;Champagne-Ardenne;Aube;Saint-Phal 10359;E4.0000;N48.1167;13;
3;France;Champagne-Ardenne;Aube;Saint-Pouange 10360;E4.0333;N48.2333;13;
3;France;Champagne-Ardenne;Aube;Saint-Remy-sous-Barbuise 10361;E4.1167;N48.4833;13;
3;France;Champagne-Ardenne;Aube;Saint-Thibault 10363;E4.1333;N48.2000;13;
3;France;Champagne-Ardenne;Aube;Saint-Usage 10364;E4.6167;N48.1000;13;
3;France;Champagne-Ardenne;Aube;Sainte-Maure 10352;E4.0500;N48.3500;13;
3;France;Champagne-Ardenne;Aube;Sainte-Savine 10362;E4.0500;N48.3000;13;
3;France;Champagne-Ardenne;Aube;Salon 10365;E4.0000;N48.6333;13;
3;France;Champagne-Ardenne;Aube;Saulcy 10366;E4.8333;N48.2833;13;
3;France;Champagne-Ardenne;Aube;Savières 10368;E3.9500;N48.4167;13;
3;France;Champagne-Ardenne;Aube;Semoine 10369;E4.0833;N48.6833;13;
3;France;Champagne-Ardenne;Aube;Soligny-les-Étangs 10370;E3.5000;N48.4000;13;
3;France;Champagne-Ardenne;Aube;Sommeval 10371;E3.9667;N48.1667;13;
3;France;Champagne-Ardenne;Aube;Soulaines-Dhuys 10372;E4.7333;N48.3667;13;
3;France;Champagne-Ardenne;Aube;Souligny 10373;E4.0000;N48.2000;13;
3;France;Champagne-Ardenne;Aube;Spoy 10374;E4.6167;N48.2333;13;
3;France;Champagne-Ardenne;Aube;Thennelières 10375;E4.1833;N48.2833;13;
3;France;Champagne-Ardenne;Aube;Thieffrain 10376;E4.4333;N48.2000;13;
3;France;Champagne-Ardenne;Aube;Thil 10377;E4.7833;N48.3333;13;
3;France;Champagne-Ardenne;Aube;Thors 10378;E4.8167;N48.3000;13;
3;France;Champagne-Ardenne;Aube;Torcy-le-Grand 10379;E4.1667;N48.5333;13;
3;France;Champagne-Ardenne;Aube;Torcy-le-Petit 10380;E4.2000;N48.5333;13;
3;France;Champagne-Ardenne;Aube;Torvilliers 10381;E3.9667;N48.2667;13;
3;France;Champagne-Ardenne;Aube;Traînel 10382;E3.4500;N48.4167;13;
3;France;Champagne-Ardenne;Aube;Trancault 10383;E3.5333;N48.3667;13;
3;France;Champagne-Ardenne;Aube;Trannes 10384;E4.5833;N48.3000;13;
3;France;Champagne-Ardenne;Aube;Trouan-le-Grand 10385=10386;E4.2333;N48.6333;13;
3;France;Champagne-Ardenne;Aube;Trouans 10386;E4.2333;N48.6167;13;
3;France;Champagne-Ardenne;Aube;Troyes 10387;E4.0833;N48.3000;13;
3;France;Champagne-Ardenne;Aube;Turgy 10388;E4.0500;N48.0167;13;
3;France;Champagne-Ardenne;Aube;Unienville 10389;E4.5500;N48.3333;13;
3;France;Champagne-Ardenne;Aube;Urville 10390;E4.6500;N48.1667;13;
3;France;Champagne-Ardenne;Aube;Vailly 10391;E4.1167;N48.3667;13;
3;France;Champagne-Ardenne;Aube;Val-d'Auzon 10019;E4.3500;N48.4000;13;
3;France;Champagne-Ardenne;Aube;Vallant-Saint-Georges 10392;E3.9000;N48.4667;13;
3;France;Champagne-Ardenne;Aube;Vallentigny 10393;E4.5833;N48.4500;13;
3;France;Champagne-Ardenne;Aube;Vallières 10394;E4.0500;N48.0000;13;
3;France;Champagne-Ardenne;Aube;Vanlay 10395;E4.0167;N48.0333;13;
3;France;Champagne-Ardenne;Aube;Vauchassis 10396;E3.9167;N48.2167;13;
3;France;Champagne-Ardenne;Aube;Vauchonvilliers 10397;E4.5333;N48.2667;13;
3;France;Champagne-Ardenne;Aube;Vaucogne 10398;E4.3500;N48.5333;13;
3;France;Champagne-Ardenne;Aube;Vaudes 10399;E4.1833;N48.1833;13;
3;France;Champagne-Ardenne;Aube;Vaupoisson 10400;E4.2333;N48.5167;13;
3;France;Champagne-Ardenne;Aube;Vendeuvre-sur-Barse 10401;E4.4667;N48.2333;13;
3;France;Champagne-Ardenne;Aube;Vernonvilliers 10403;E4.6833;N48.3167;13;
3;France;Champagne-Ardenne;Aube;Verpillières-sur-Ource 10404;E4.5667;N48.0500;13;
3;France;Champagne-Ardenne;Aube;Verricourt 10405;E4.3500;N48.4500;13;
3;France;Champagne-Ardenne;Aube;Verrières 10406;E4.1333;N48.2333;13;
3;France;Champagne-Ardenne;Aube;Viâpres-le-Grand 10407=10289;E4.0167;N48.5667;13;
3;France;Champagne-Ardenne;Aube;Viâpres-le-Petit 10408;E4.0333;N48.5667;13;
3;France;Champagne-Ardenne;Aube;Villacerf 10409;E3.9833;N48.4000;13;
3;France;Champagne-Ardenne;Aube;Villadin 10410;E3.6833;N48.3167;13;
3;France;Champagne-Ardenne;Aube;Ville-sous-la-Ferté 10426;E4.7833;N48.1167;13;
3;France;Champagne-Ardenne;Aube;Ville-sur-Arce 10427;E4.4500;N48.1167;13;
3;France;Champagne-Ardenne;Aube;Ville-sur-Terre 10428;E4.7500;N48.3333;13;
3;France;Champagne-Ardenne;Aube;Villechétif 10412;E4.1500;N48.3167;13;
3;France;Champagne-Ardenne;Aube;Villehardouin 10413=10019;E4.3833;N48.3833;13;
3;France;Champagne-Ardenne;Aube;Villeloup 10414;E3.8667;N48.3667;13;
3;France;Champagne-Ardenne;Aube;Villemaur-sur-Vanne 10415;E3.7333;N48.2500;13;
3;France;Champagne-Ardenne;Aube;Villemereuil 10416;E4.0833;N48.2000;13;
3;France;Champagne-Ardenne;Aube;Villemoiron-en-Othe 10417;E3.7833;N48.2000;13;
3;France;Champagne-Ardenne;Aube;Villemorien 10418;E4.3000;N48.0833;13;
3;France;Champagne-Ardenne;Aube;Villemoyenne 10419;E4.2333;N48.1833;13;
3;France;Champagne-Ardenne;Aube;Villenauxe-la-Grande 10420;E3.5500;N48.5833;13;
3;France;Champagne-Ardenne;Aube;Villeneuve-au-Chemin 10422;E3.8500;N48.0833;13;
3;France;Champagne-Ardenne;Aube;Villeret 10424;E4.5833;N48.4833;13;
3;France;Champagne-Ardenne;Aube;Villery 10425;E4.0167;N48.1667;13;
3;France;Champagne-Ardenne;Aube;Villette-sur-Aube 10429;E4.1000;N48.5333;13;
3;France;Champagne-Ardenne;Aube;Villiers-Herbisse 10430;E4.1167;N48.6333;13;
3;France;Champagne-Ardenne;Aube;Villiers-le-Bois 10431;E4.1833;N47.9500;13;
3;France;Champagne-Ardenne;Aube;Villiers-sous-Praslin 10432;E4.2500;N48.0667;13;
3;France;Champagne-Ardenne;Aube;Villy-en-Trodes 10433;E4.3833;N48.2000;13;
3;France;Champagne-Ardenne;Aube;Villy-le-Bois 10434;E4.1000;N48.1667;13;
3;France;Champagne-Ardenne;Aube;Villy-le-Maréchal 10435;E4.0833;N48.1833;13;
3;France;Champagne-Ardenne;Aube;Vinets 10436;E4.2333;N48.5333;13;
3;France;Champagne-Ardenne;Aube;Virey-sous-Bar 10437;E4.3167;N48.1333;13;
3;France;Champagne-Ardenne;Aube;Vitry-le-Croisé 10438;E4.5667;N48.1500;13;
3;France;Champagne-Ardenne;Aube;Viviers-sur-Artaut 10439;E4.5000;N48.1000;13;
3;France;Champagne-Ardenne;Aube;Voigny 10440;E4.7667;N48.2333;13;
3;France;Champagne-Ardenne;Aube;Vosnon 10441;E3.8500;N48.1000;13;
3;France;Champagne-Ardenne;Aube;Voué 10442;E4.1167;N48.4667;13;
3;France;Champagne-Ardenne;Aube;Vougrey 10443;E4.2333;N48.0833;13;
3;France;Champagne-Ardenne;Aube;Vulaines 10444;E3.6167;N48.2333;13;
3;France;Champagne-Ardenne;Aube;Yèvres-le-Petit 10445;E4.4833;N48.4833;13;
2;France;Champagne-Ardenne;Haute-Marne;;E5.3915;N47.9881;9;
3;France;Champagne-Ardenne;Haute-Marne;Ageville 52001;E5.3500;N48.1167;13;
3;France;Champagne-Ardenne;Haute-Marne;Aigremont 52002;E5.7167;N48.0167;13;
3;France;Champagne-Ardenne;Haute-Marne;Aillianville 52003;E5.4833;N48.3500;13;
3;France;Champagne-Ardenne;Haute-Marne;Aingoulaincourt 52004;E5.2833;N48.4500;13;
3;France;Champagne-Ardenne;Haute-Marne;Aizanville 52005;E4.9000;N48.1000;13;
3;France;Champagne-Ardenne;Haute-Marne;Allichamps 52006;E4.8833;N48.5667;13;
3;France;Champagne-Ardenne;Haute-Marne;Ambonville 52007;E5.0167;N48.3167;13;
3;France;Champagne-Ardenne;Haute-Marne;Andelot-Blancheville 52008;E5.2833;N48.2333;13;
3;France;Champagne-Ardenne;Haute-Marne;Andilly-en-Bassigny 52009;E5.5167;N47.9167;13;
3;France;Champagne-Ardenne;Haute-Marne;Anglus 52010=52088;E4.7333;N48.4000;13;
3;France;Champagne-Ardenne;Haute-Marne;Annéville-la-Prairie 52011;E5.0833;N48.2000;13;
3;France;Champagne-Ardenne;Haute-Marne;Annonville 52012;E5.2667;N48.3833;13;
3;France;Champagne-Ardenne;Haute-Marne;Anrosey 52013;E5.6667;N47.8333;13;
3;France;Champagne-Ardenne;Haute-Marne;Aprey 52014;E5.2333;N47.7667;13;
3;France;Champagne-Ardenne;Haute-Marne;Arbigny-sous-Varennes 52015;E5.6167;N47.8667;13;
3;France;Champagne-Ardenne;Haute-Marne;Arbot 52016;E5.0167;N47.8500;13;
3;France;Champagne-Ardenne;Haute-Marne;Arc-en-Barrois 52017;E5.0000;N47.9500;13;
3;France;Champagne-Ardenne;Haute-Marne;Argentolles 52018=52140;E4.8833;N48.2500;13;
3;France;Champagne-Ardenne;Haute-Marne;Arnancourt 52019;E4.9167;N48.3500;13;
3;France;Champagne-Ardenne;Haute-Marne;Arnoncourt-sur-Apance 52020=52273;E5.7000;N48.0000;13;
3;France;Champagne-Ardenne;Haute-Marne;Attancourt 52021;E4.9333;N48.5333;13;
3;France;Champagne-Ardenne;Haute-Marne;Aubepierre-sur-Aube 52022;E4.9167;N47.9167;13;
3;France;Champagne-Ardenne;Haute-Marne;Auberive 52023;E5.0500;N47.7833;13;
3;France;Champagne-Ardenne;Haute-Marne;Aubigny-sur-Badin 52024=52509;E5.2799;N47.6629;13;
3;France;Champagne-Ardenne;Haute-Marne;Audeloncourt 52025;E5.5167;N48.1167;13;
3;France;Champagne-Ardenne;Haute-Marne;Augeville 52026=52379;E5.3167;N48.3667;13;
3;France;Champagne-Ardenne;Haute-Marne;Aujeurres 52027;E5.1833;N47.7333;13;
3;France;Champagne-Ardenne;Haute-Marne;Aulnoy-sur-Aube 52028;E5.0333;N47.8333;13;
3;France;Champagne-Ardenne;Haute-Marne;Autigny-le-Grand 52029;E5.1333;N48.4667;13;
3;France;Champagne-Ardenne;Haute-Marne;Autigny-le-Petit 52030;E5.1333;N48.4833;13;
3;France;Champagne-Ardenne;Haute-Marne;Autreville-sur-la-Renne 52031;E4.9667;N48.1167;13;
3;France;Champagne-Ardenne;Haute-Marne;Avrainville 52032=52497;E5.0500;N48.5333;13;
3;France;Champagne-Ardenne;Haute-Marne;Avrecourt 52033=52332;E5.5333;N47.9667;13;
3;France;Champagne-Ardenne;Haute-Marne;Bailly-aux-Forges 52034;E4.9167;N48.4667;13;
3;France;Champagne-Ardenne;Haute-Marne;Baissey 52035;E5.2500;N47.7500;13;
3;France;Champagne-Ardenne;Haute-Marne;Balesmes-sur-Marne 52036;E5.3833;N47.8167;13;
3;France;Champagne-Ardenne;Haute-Marne;Bannes 52037;E5.4000;N47.9000;13;
3;France;Champagne-Ardenne;Haute-Marne;Bassoncourt 52038;E5.5667;N48.0667;13;
3;France;Champagne-Ardenne;Haute-Marne;Baudrecourt 52039;E4.9500;N48.4000;13;
3;France;Champagne-Ardenne;Haute-Marne;Bay-sur-Aube 52040;E5.0667;N47.8167;13;
3;France;Champagne-Ardenne;Haute-Marne;Bayard-sur-Marne 52265;E5.6667;N47.9833;13;
3;France;Champagne-Ardenne;Haute-Marne;Beaucharmoy 52041=52400;E5.2500;N47.9000;13;
3;France;Champagne-Ardenne;Haute-Marne;Beauchemin 52042;E5.5500;N47.7167;13;
3;France;Champagne-Ardenne;Haute-Marne;Belmont 52043;E5.2500;N48.3000;13;
3;France;Champagne-Ardenne;Haute-Marne;Bettancourt-la-Ferrée 52045;E4.9667;N48.6500;13;
3;France;Champagne-Ardenne;Haute-Marne;Bettoncourt-le-Haut 52046=52187;E5.3000;N48.3833;13;
3;France;Champagne-Ardenne;Haute-Marne;Beurville 52047;E4.8333;N48.3167;13;
3;France;Champagne-Ardenne;Haute-Marne;Bienville 52048=52194;E5.0500;N48.5667;13;
3;France;Champagne-Ardenne;Haute-Marne;Biernes 52049=52140;E4.9167;N48.2667;13;
3;France;Champagne-Ardenne;Haute-Marne;Biesles 52050;E5.3000;N48.0833;13;
3;France;Champagne-Ardenne;Haute-Marne;Bize 52051;E5.6333;N47.8333;13;
3;France;Champagne-Ardenne;Haute-Marne;Blaise 52052=52140;E4.9667;N48.2833;13;
3;France;Champagne-Ardenne;Haute-Marne;Blaisy 52053;E5.0000;N48.1833;13;
3;France;Champagne-Ardenne;Haute-Marne;Blancheville 52054=52008;E5.2667;N48.2167;13;
3;France;Champagne-Ardenne;Haute-Marne;Blécourt 52055;E5.0833;N48.3833;13;
3;France;Champagne-Ardenne;Haute-Marne;Blessonville 52056;E5.0000;N48.0667;13;
3;France;Champagne-Ardenne;Haute-Marne;Blumeray 52057;E4.8500;N48.3667;13;
3;France;Champagne-Ardenne;Haute-Marne;Bologne 52058;E5.1333;N48.2000;13;
3;France;Champagne-Ardenne;Haute-Marne;Bonnecourt 52059;E5.4667;N47.9500;13;
3;France;Champagne-Ardenne;Haute-Marne;Bourbonne-les-Bains 52060;E5.7500;N47.9500;13;
3;France;Champagne-Ardenne;Haute-Marne;Bourdons-sur-Rognon 52061;E5.3500;N48.1667;13;
3;France;Champagne-Ardenne;Haute-Marne;Bourg 52062;E5.3167;N47.8000;13;
3;France;Champagne-Ardenne;Haute-Marne;Bourg-Sainte-Marie 52063;E5.5500;N48.1833;13;
3;France;Champagne-Ardenne;Haute-Marne;Bourmont 52064;E5.5833;N48.2000;13;
3;France;Champagne-Ardenne;Haute-Marne;Bouzancourt 52065;E4.9500;N48.3167;13;
3;France;Champagne-Ardenne;Haute-Marne;Brachay 52066;E5.0333;N48.3833;13;
3;France;Champagne-Ardenne;Haute-Marne;Brainville-sur-Meuse 52067;E5.5833;N48.1833;13;
3;France;Champagne-Ardenne;Haute-Marne;Braucourt 52068=52182;E4.8167;N48.5333;13;
3;France;Champagne-Ardenne;Haute-Marne;Braux-le-Châtel 52069;E4.9500;N48.1000;13;
3;France;Champagne-Ardenne;Haute-Marne;Brennes 52070;E5.2833;N47.8000;13;
3;France;Champagne-Ardenne;Haute-Marne;Bressoncourt 52071=52491;E5.3500;N48.4333;13;
3;France;Champagne-Ardenne;Haute-Marne;Brethenay 52072;E5.1333;N48.1500;13;
3;France;Champagne-Ardenne;Haute-Marne;Breuil-sur-Marne 52073=52123;E5.1167;N48.5000;13;
3;France;Champagne-Ardenne;Haute-Marne;Breuvannes-en-Bassigny 52074;E5.6000;N48.0833;13;
3;France;Champagne-Ardenne;Haute-Marne;Briaucourt 52075;E5.1833;N48.2167;13;
3;France;Champagne-Ardenne;Haute-Marne;Bricon 52076;E4.9667;N48.0833;13;
3;France;Champagne-Ardenne;Haute-Marne;Broncourt 52077=52197;E5.6667;N47.7667;13;
3;France;Champagne-Ardenne;Haute-Marne;Brottes 52078=52121;E5.1333;N48.0833;13;
3;France;Champagne-Ardenne;Haute-Marne;Brousseval 52079;E4.9667;N48.4833;13;
3;France;Champagne-Ardenne;Haute-Marne;Brouthières 52080=52491;E5.3333;N48.4000;13;
3;France;Champagne-Ardenne;Haute-Marne;Buchey 52081=52426;E4.8833;N48.2667;13;
3;France;Champagne-Ardenne;Haute-Marne;Bugnières 52082;E5.1000;N47.9500;13;
3;France;Champagne-Ardenne;Haute-Marne;Busson 52084;E5.3667;N48.3333;13;
3;France;Champagne-Ardenne;Haute-Marne;Buxières-lès-Clefmont 52085;E5.4667;N48.1000;13;
3;France;Champagne-Ardenne;Haute-Marne;Buxières-lès-Froncles 52086=52211;E5.1500;N48.3000;13;
3;France;Champagne-Ardenne;Haute-Marne;Buxières-lès-Villiers 52087;E5.0333;N48.1000;13;
3;France;Champagne-Ardenne;Haute-Marne;Ceffonds 52088;E4.7667;N48.4667;13;
3;France;Champagne-Ardenne;Haute-Marne;Celles-en-Bassigny 52089;E5.5500;N47.9167;13;
3;France;Champagne-Ardenne;Haute-Marne;Celsoy 52090;E5.4833;N47.8667;13;
3;France;Champagne-Ardenne;Haute-Marne;Cerisières 52091;E5.0667;N48.3000;13;
3;France;Champagne-Ardenne;Haute-Marne;Chalancey 52092;E5.1500;N47.6833;13;
3;France;Champagne-Ardenne;Haute-Marne;Chalindrey 52093;E5.4333;N47.8000;13;
3;France;Champagne-Ardenne;Haute-Marne;Chalvraines 52095;E5.4833;N48.2333;13;
3;France;Champagne-Ardenne;Haute-Marne;Chamarandes 52096=52125;E5.1500;N48.0833;13;
3;France;Champagne-Ardenne;Haute-Marne;Chamarandes-Choignes 52125;E5.1667;N48.1000;13;
3;France;Champagne-Ardenne;Haute-Marne;Chambroncourt 52097;E5.4000;N48.3500;13;
3;France;Champagne-Ardenne;Haute-Marne;Chameroy 52098=52431;E5.1167;N47.8333;13;
3;France;Champagne-Ardenne;Haute-Marne;Chamouilley 52099;E5.0500;N48.6000;13;
3;France;Champagne-Ardenne;Haute-Marne;Champcourt 52100=52140;E4.9500;N48.2833;13;
3;France;Champagne-Ardenne;Haute-Marne;Champigneulles-en-Bassigny 52101;E5.6333;N48.1167;13;
3;France;Champagne-Ardenne;Haute-Marne;Champigny-lès-Langres 52102;E5.3500;N47.9000;13;
3;France;Champagne-Ardenne;Haute-Marne;Champigny-sous-Varennes 52103;E5.6500;N47.8667;13;
3;France;Champagne-Ardenne;Haute-Marne;Champsevraine 52083;E5.5500;N47.7333;13;
3;France;Champagne-Ardenne;Haute-Marne;Chancenay 52104;E4.9833;N48.6667;13;
3;France;Champagne-Ardenne;Haute-Marne;Changey 52105;E5.3833;N47.9333;13;
3;France;Champagne-Ardenne;Haute-Marne;Chanoy 52106;E5.2833;N47.9167;13;
3;France;Champagne-Ardenne;Haute-Marne;Chantraines 52107;E5.2500;N48.2167;13;
3;France;Champagne-Ardenne;Haute-Marne;Charmes 52108;E5.3500;N47.9167;13;
3;France;Champagne-Ardenne;Haute-Marne;Charmes-en-l'Angle 52109;E5.0000;N48.3667;13;
3;France;Champagne-Ardenne;Haute-Marne;Charmes-la-Grande 52110;E4.9833;N48.3833;13;
3;France;Champagne-Ardenne;Haute-Marne;Charmoilles 52111=52432;E5.3667;N47.9500;13;
3;France;Champagne-Ardenne;Haute-Marne;Charmoy 52112=52197;E5.6184;N47.8085;13;
3;France;Champagne-Ardenne;Haute-Marne;Chassigny 52113;E5.3833;N47.7167;13;
3;France;Champagne-Ardenne;Haute-Marne;Châteauvillain 52114;E4.9167;N48.0333;13;
3;France;Champagne-Ardenne;Haute-Marne;Chatenay-Mâcheron 52115;E5.4000;N47.8500;13;
3;France;Champagne-Ardenne;Haute-Marne;Chatenay-Vaudin 52116;E5.4500;N47.8500;13;
3;France;Champagne-Ardenne;Haute-Marne;Chatoillenot 52117=52189;E5.2500;N47.6833;13;
3;France;Champagne-Ardenne;Haute-Marne;Chatonrupt-Sommermont 52118;E5.1167;N48.4833;13;
3;France;Champagne-Ardenne;Haute-Marne;Chaudenay 52119;E5.5000;N47.8333;13;
3;France;Champagne-Ardenne;Haute-Marne;Chauffourt 52120;E5.4333;N47.9667;13;
3;France;Champagne-Ardenne;Haute-Marne;Chaumont 52121;E5.1333;N48.1167;13;
3;France;Champagne-Ardenne;Haute-Marne;Chaumont-la-Ville 52122;E5.6500;N48.1500;13;
3;France;Champagne-Ardenne;Haute-Marne;Chevillon 52123;E5.1333;N48.5333;13;
3;France;Champagne-Ardenne;Haute-Marne;Chézeaux 52124=52504;E5.6500;N47.8833;13;
3;France;Champagne-Ardenne;Haute-Marne;Choilley-Dardenay 52126;E5.3500;N47.6500;13;
3;France;Champagne-Ardenne;Haute-Marne;Choiseul 52127;E5.5667;N48.0667;13;
3;France;Champagne-Ardenne;Haute-Marne;Cirey-lès-Mareilles 52128;E5.2833;N48.2000;13;
3;France;Champagne-Ardenne;Haute-Marne;Cirey-sur-Blaise 52129;E4.9333;N48.3333;13;
3;France;Champagne-Ardenne;Haute-Marne;Cirfontaines-en-Azois 52130;E4.8667;N48.1167;13;
3;France;Champagne-Ardenne;Haute-Marne;Cirfontaines-en-Ornois 52131;E5.3833;N48.4500;13;
3;France;Champagne-Ardenne;Haute-Marne;Clefmont 52132;E5.5167;N48.1000;13;
3;France;Champagne-Ardenne;Haute-Marne;Clinchamp 52133;E5.4500;N48.2000;13;
3;France;Champagne-Ardenne;Haute-Marne;Cohons 52134;E5.3500;N47.7833;13;
3;France;Champagne-Ardenne;Haute-Marne;Coiffy-le-Bas 52135;E5.6833;N47.9167;13;
3;France;Champagne-Ardenne;Haute-Marne;Coiffy-le-Haut 52136;E5.7000;N47.9000;13;
3;France;Champagne-Ardenne;Haute-Marne;Colmier-le-Bas 52137;E4.9500;N47.7667;13;
3;France;Champagne-Ardenne;Haute-Marne;Colmier-le-Haut 52138;E4.9667;N47.7833;13;
3;France;Champagne-Ardenne;Haute-Marne;Colombey-lès-Choiseul 52139=52074;E5.6333;N48.0667;13;
3;France;Champagne-Ardenne;Haute-Marne;Colombey-les-Deux-Églises 52140;E4.8833;N48.2167;13;
3;France;Champagne-Ardenne;Haute-Marne;Condes 52141;E5.1500;N48.1500;13;
3;France;Champagne-Ardenne;Haute-Marne;Consigny 52142;E5.4167;N48.1667;13;
3;France;Champagne-Ardenne;Haute-Marne;Corgirnon 52143=52083;E5.5000;N47.8000;13;
3;France;Champagne-Ardenne;Haute-Marne;Corlée 52144=52269;E5.3667;N47.8333;13;
3;France;Champagne-Ardenne;Haute-Marne;Coublanc 52145;E5.4667;N47.7000;13;
3;France;Champagne-Ardenne;Haute-Marne;Coupray 52146;E4.9333;N47.9667;13;
3;France;Champagne-Ardenne;Haute-Marne;Cour-l'Évêque 52151;E4.9833;N47.9667;13;
3;France;Champagne-Ardenne;Haute-Marne;Courcelles-en-Montagne 52147;E5.2167;N47.8333;13;
3;France;Champagne-Ardenne;Haute-Marne;Courcelles-sur-Aujon 52148=52450;E5.1000;N47.9000;13;
3;France;Champagne-Ardenne;Haute-Marne;Courcelles-sur-Blaise 52149;E4.9333;N48.4167;13;
3;France;Champagne-Ardenne;Haute-Marne;Courcelles-Val-d'Esnoms 52150=52189;E5.2333;N47.7000;13;
3;France;Champagne-Ardenne;Haute-Marne;Couzon-sur-Coulange 52152=52509;E5.2672;N47.6425;13;
3;France;Champagne-Ardenne;Haute-Marne;Créancey 52153=52114;E4.8833;N48.0167;13;
3;France;Champagne-Ardenne;Haute-Marne;Crenay 52154=52205;E5.1667;N48.0167;13;
3;France;Champagne-Ardenne;Haute-Marne;Culmont 52155;E5.4333;N47.8167;13;
3;France;Champagne-Ardenne;Haute-Marne;Curel 52156;E5.1333;N48.5000;13;
3;France;Champagne-Ardenne;Haute-Marne;Curmont 52157;E4.9500;N48.2667;13;
3;France;Champagne-Ardenne;Haute-Marne;Cusey 52158;E5.3500;N47.6333;13;
3;France;Champagne-Ardenne;Haute-Marne;Cuves 52159;E5.4333;N48.1000;13;
3;France;Champagne-Ardenne;Haute-Marne;Daillancourt 52160;E4.9500;N48.3000;13;
3;France;Champagne-Ardenne;Haute-Marne;Daillecourt 52161;E5.5000;N48.0833;13;
3;France;Champagne-Ardenne;Haute-Marne;Dammartin-sur-Meuse 52162;E5.5667;N47.9833;13;
3;France;Champagne-Ardenne;Haute-Marne;Dampierre 52163;E5.4000;N47.9500;13;
3;France;Champagne-Ardenne;Haute-Marne;Damrémont 52164;E5.6500;N47.9500;13;
3;France;Champagne-Ardenne;Haute-Marne;Dancevoir 52165;E4.8667;N47.9167;13;
3;France;Champagne-Ardenne;Haute-Marne;Dardenay 52166=52126;E5.3500;N47.6500;13;
3;France;Champagne-Ardenne;Haute-Marne;Darmannes 52167;E5.2167;N48.1667;13;
3;France;Champagne-Ardenne;Haute-Marne;Dinteville 52168;E4.8000;N48.0333;13;
3;France;Champagne-Ardenne;Haute-Marne;Domblain 52169;E4.9833;N48.4667;13;
3;France;Champagne-Ardenne;Haute-Marne;Dommarien 52170;E5.3500;N47.6833;13;
3;France;Champagne-Ardenne;Haute-Marne;Dommartin-le-Franc 52171;E4.9667;N48.4333;13;
3;France;Champagne-Ardenne;Haute-Marne;Dommartin-le-Saint-Père 52172;E4.9167;N48.4000;13;
3;France;Champagne-Ardenne;Haute-Marne;Domremy-Landéville 52173;E5.2500;N48.3500;13;
3;France;Champagne-Ardenne;Haute-Marne;Doncourt-sur-Meuse 52174;E5.5667;N48.1500;13;
3;France;Champagne-Ardenne;Haute-Marne;Donjeux 52175;E5.1500;N48.3667;13;
3;France;Champagne-Ardenne;Haute-Marne;Donnemarie 52176=52353;E5.4000;N48.0667;13;
3;France;Champagne-Ardenne;Haute-Marne;Doulaincourt-Saucourt 52177;E5.2000;N48.3167;13;
3;France;Champagne-Ardenne;Haute-Marne;Doulevant-le-Château 52178;E4.9167;N48.3833;13;
3;France;Champagne-Ardenne;Haute-Marne;Doulevant-le-Petit 52179;E4.9500;N48.4500;13;
3;France;Champagne-Ardenne;Haute-Marne;Droyes 52180;E4.7000;N48.5167;13;
3;France;Champagne-Ardenne;Haute-Marne;Échenay 52181;E5.3167;N48.4667;13;
3;France;Champagne-Ardenne;Haute-Marne;Éclaron-Braucourt-Sainte-Livière 52182;E4.8667;N48.5833;13;
3;France;Champagne-Ardenne;Haute-Marne;Ecot-la-Combe 52183;E5.3833;N48.2167;13;
3;France;Champagne-Ardenne;Haute-Marne;Effincourt 52184;E5.2667;N48.5000;13;
3;France;Champagne-Ardenne;Haute-Marne;Enfonvelle 52185;E5.8667;N47.9333;13;
3;France;Champagne-Ardenne;Haute-Marne;Épinant 52186=52332;E5.4500;N48.0000;13;
3;France;Champagne-Ardenne;Haute-Marne;Épizon 52187;E5.3500;N48.3833;13;
3;France;Champagne-Ardenne;Haute-Marne;Ériseul 52188=52450;E5.0833;N47.8833;13;
3;France;Champagne-Ardenne;Haute-Marne;Esnouveaux 52190;E5.3667;N48.1333;13;
3;France;Champagne-Ardenne;Haute-Marne;Essey-les-Eaux 52191=52353;E5.4167;N48.0500;13;
3;France;Champagne-Ardenne;Haute-Marne;Essey-les-Ponts 52192=52114;E4.8833;N48.0667;13;
3;France;Champagne-Ardenne;Haute-Marne;Euffigneix 52193;E5.0333;N48.1333;13;
3;France;Champagne-Ardenne;Haute-Marne;Eurville-Bienville 52194;E5.0333;N48.5833;13;
3;France;Champagne-Ardenne;Haute-Marne;Farincourt 52195;E5.6833;N47.7000;13;
3;France;Champagne-Ardenne;Haute-Marne;Faverolles 52196;E5.2167;N47.9500;13;
3;France;Champagne-Ardenne;Haute-Marne;Fayl-Billot 52197;E5.6000;N47.7833;13;
3;France;Champagne-Ardenne;Haute-Marne;Fays 52198;E5.0333;N48.4667;13;
3;France;Champagne-Ardenne;Haute-Marne;Ferrière-et-Lafolie 52199;E5.0833;N48.4000;13;
3;France;Champagne-Ardenne;Haute-Marne;Flagey 52200;E5.2500;N47.7833;13;
3;France;Champagne-Ardenne;Haute-Marne;Flammerécourt 52201;E5.0500;N48.3667;13;
3;France;Champagne-Ardenne;Haute-Marne;Flornoy 52202=52497;E5.0000;N48.5167;13;
3;France;Champagne-Ardenne;Haute-Marne;Fontaines-sur-Marne 52203;E5.1000;N48.5500;13;
3;France;Champagne-Ardenne;Haute-Marne;Forcey 52204;E5.3500;N48.1500;13;
3;France;Champagne-Ardenne;Haute-Marne;Foulain 52205;E5.2167;N48.0333;13;
3;France;Champagne-Ardenne;Haute-Marne;Frampas 52206;E4.8333;N48.5167;13;
3;France;Champagne-Ardenne;Haute-Marne;Frécourt 52207;E5.4500;N47.9500;13;
3;France;Champagne-Ardenne;Haute-Marne;Fresnes-sur-Apance 52208;E5.8333;N47.9333;13;
3;France;Champagne-Ardenne;Haute-Marne;Fresnoy-en-Bassigny 52209=52377;E5.6667;N48.0333;13;
3;France;Champagne-Ardenne;Haute-Marne;Frettes 52210=70122;E5.5656;N47.6779;13;
3;France;Champagne-Ardenne;Haute-Marne;Froncles 52211;E5.1500;N48.3000;13;
3;France;Champagne-Ardenne;Haute-Marne;Fronville 52212;E5.1500;N48.4000;13;
3;France;Champagne-Ardenne;Haute-Marne;Genevrières 52213;E5.6000;N47.7167;13;
3;France;Champagne-Ardenne;Haute-Marne;Genrupt 52215=52060;E5.7500;N47.9167;13;
3;France;Champagne-Ardenne;Haute-Marne;Germaines 52216;E5.0333;N47.8000;13;
3;France;Champagne-Ardenne;Haute-Marne;Germainvilliers 52217;E5.6500;N48.1167;13;
3;France;Champagne-Ardenne;Haute-Marne;Germay 52218;E5.3500;N48.4167;13;
3;France;Champagne-Ardenne;Haute-Marne;Germisay 52219;E5.3500;N48.4000;13;
3;France;Champagne-Ardenne;Haute-Marne;Giey-sur-Aujon 52220;E5.0667;N47.9000;13;
3;France;Champagne-Ardenne;Haute-Marne;Gillancourt 52221;E5.0000;N48.1667;13;
3;France;Champagne-Ardenne;Haute-Marne;Gillaumé 52222;E5.3333;N48.4667;13;
3;France;Champagne-Ardenne;Haute-Marne;Gilley 52223;E5.6333;N47.6833;13;
3;France;Champagne-Ardenne;Haute-Marne;Gonaincourt 52224=52064;E5.6000;N48.2167;13;
3;France;Champagne-Ardenne;Haute-Marne;Goncourt 52225;E5.6000;N48.2333;13;
3;France;Champagne-Ardenne;Haute-Marne;Gourzon 52226=52265;E5.0833;N48.5500;13;
3;France;Champagne-Ardenne;Haute-Marne;Graffigny-Chemin 52227;E5.6333;N48.1667;13;
3;France;Champagne-Ardenne;Haute-Marne;Grandchamp 52228;E5.4500;N47.7250;13;
3;France;Champagne-Ardenne;Haute-Marne;Grenant 52229;E5.5000;N47.7167;13;
3;France;Champagne-Ardenne;Haute-Marne;Gudmont-Villiers 52230;E5.1333;N48.3333;13;
3;France;Champagne-Ardenne;Haute-Marne;Guindrecourt-aux-Ormes 52231;E5.0333;N48.4500;13;
3;France;Champagne-Ardenne;Haute-Marne;Guindrecourt-sur-Blaise 52232;E4.9667;N48.3000;13;
3;France;Champagne-Ardenne;Haute-Marne;Guyonvelle 52233;E5.7167;N47.8500;13;
3;France;Champagne-Ardenne;Haute-Marne;Hâcourt 52234;E5.5667;N48.1667;13;
3;France;Champagne-Ardenne;Haute-Marne;Hallignicourt 52235;E4.8667;N48.6500;13;
3;France;Champagne-Ardenne;Haute-Marne;Harméville 52236=52288;E5.3500;N48.4500;13;
3;France;Champagne-Ardenne;Haute-Marne;Harréville-les-Chanteurs 52237;E5.6333;N48.2667;13;
3;France;Champagne-Ardenne;Haute-Marne;Harricourt 52238=52140;E4.9192;N48.2825;13;
3;France;Champagne-Ardenne;Haute-Marne;Haute-Amance 52242;E5.5500;N47.8333;13;
3;France;Champagne-Ardenne;Haute-Marne;Heuilley-Cotton 52239;E5.3667;N47.7667;13;
3;France;Champagne-Ardenne;Haute-Marne;Heuilley-le-Grand 52240;E5.4000;N47.7500;13;
3;France;Champagne-Ardenne;Haute-Marne;Hoëricourt 52241=52448;E5.5500;N47.8333;13;
3;France;Champagne-Ardenne;Haute-Marne;Huilliécourt 52243;E5.5500;N48.1667;13;
3;France;Champagne-Ardenne;Haute-Marne;Humbécourt 52244;E4.9000;N48.5833;13;
3;France;Champagne-Ardenne;Haute-Marne;Humberville 52245;E5.3833;N48.2833;13;
3;France;Champagne-Ardenne;Haute-Marne;Humes-Jorquenay 52246;E5.3000;N47.9000;13;
3;France;Champagne-Ardenne;Haute-Marne;Illoud 52247;E5.5667;N48.2167;13;
3;France;Champagne-Ardenne;Haute-Marne;Is-en-Bassigny 52248;E5.4500;N48.0333;13;
3;France;Champagne-Ardenne;Haute-Marne;Isômes 52249;E5.3000;N47.6500;13;
3;France;Champagne-Ardenne;Haute-Marne;Joinville 52250;E5.1333;N48.4500;13;
3;France;Champagne-Ardenne;Haute-Marne;Jonchery 52251;E5.0833;N48.1333;13;
3;France;Champagne-Ardenne;Haute-Marne;Jorquenay 52252=52246;E5.3167;N47.9000;13;
3;France;Champagne-Ardenne;Haute-Marne;Juzennecourt 52253;E4.9833;N48.1833;13;
3;France;Champagne-Ardenne;Haute-Marne;La Genevroye 52214;E5.0500;N48.2833;13;
3;France;Champagne-Ardenne;Haute-Marne;Lachapelle-en-Blaisy 52254;E4.9667;N48.2000;13;
3;France;Champagne-Ardenne;Haute-Marne;Lacrète 52255=52061;E5.3183;N48.2051;13;
3;France;Champagne-Ardenne;Haute-Marne;Lafauche 52256;E5.5000;N48.3000;13;
3;France;Champagne-Ardenne;Haute-Marne;Laferté-sur-Amance 52257;E5.7000;N47.8333;13;
3;France;Champagne-Ardenne;Haute-Marne;Laferté-sur-Aube 52258;E4.7833;N48.1000;13;
3;France;Champagne-Ardenne;Haute-Marne;Laharmand 52259=52251;E5.0833;N48.1667;13;
3;France;Champagne-Ardenne;Haute-Marne;Lamancine 52260;E5.1167;N48.2167;13;
3;France;Champagne-Ardenne;Haute-Marne;Lamargelle-aux-Bois 52261=52094;E5.0500;N47.7000;13;
3;France;Champagne-Ardenne;Haute-Marne;Lamothe-en-Blaisy 52262;E4.9500;N48.2333;13;
3;France;Champagne-Ardenne;Haute-Marne;Landéville 52263=52173;E5.2833;N48.3667;13;
3;France;Champagne-Ardenne;Haute-Marne;Laneuvelle 52264;E5.6667;N47.9167;13;
3;France;Champagne-Ardenne;Haute-Marne;Laneuville-à-Rémy 52266=52427;E5.0667;N48.5500;13;
3;France;Champagne-Ardenne;Haute-Marne;Laneuville-au-Bois 52268=52288;E4.8833;N48.4833;13;
3;France;Champagne-Ardenne;Haute-Marne;Laneuville-au-Pont 52267;E4.8667;N48.6333;13;
3;France;Champagne-Ardenne;Haute-Marne;Langres 52269;E5.3333;N47.8667;13;
3;France;Champagne-Ardenne;Haute-Marne;Lannes 52270=52432;E5.3167;N47.9333;13;
3;France;Champagne-Ardenne;Haute-Marne;Lanques-sur-Rognon 52271;E5.3667;N48.0833;13;
3;France;Champagne-Ardenne;Haute-Marne;Lanty-sur-Aube 52272;E4.7667;N48.0167;13;
3;France;Champagne-Ardenne;Haute-Marne;Larivière-Arnoncourt 52273;E5.7167;N48.0167;13;
3;France;Champagne-Ardenne;Haute-Marne;Latrecey-Ormoy-sur-Aube 52274;E4.8500;N47.9833;13;
3;France;Champagne-Ardenne;Haute-Marne;Lavernoy 52275;E5.5667;N47.9167;13;
3;France;Champagne-Ardenne;Haute-Marne;Laville-aux-Bois 52276;E5.2333;N48.1000;13;
3;France;Champagne-Ardenne;Haute-Marne;Lavilleneuve 52277;E5.5167;N48.0333;13;
3;France;Champagne-Ardenne;Haute-Marne;Lavilleneuve-au-Roi 52278=52031;E4.9333;N48.1667;13;
3;France;Champagne-Ardenne;Haute-Marne;Lavilleneuve-aux-Fresnes 52279=52140;E4.8500;N48.2167;13;
3;France;Champagne-Ardenne;Haute-Marne;Le Châtelet-sur-Meuse 52400;E5.6167;N47.9667;13;
3;France;Champagne-Ardenne;Haute-Marne;Le Pailly 52374;E5.4167;N47.8000;13;
3;France;Champagne-Ardenne;Haute-Marne;Le Puits-des-Mèzes 52412=52050;E5.2667;N48.1333;13;
3;France;Champagne-Ardenne;Haute-Marne;Le Val-d'Esnoms 52189;E5.2000;N47.6833;13;
3;France;Champagne-Ardenne;Haute-Marne;Lecey 52280;E5.4333;N47.8667;13;
3;France;Champagne-Ardenne;Haute-Marne;Lécourt 52281=52332;E5.5667;N48.0167;13;
3;France;Champagne-Ardenne;Haute-Marne;Leffonds 52282;E5.1667;N47.9667;13;
3;France;Champagne-Ardenne;Haute-Marne;Lénizeul 52283=52332;E5.5500;N48.0500;13;
3;France;Champagne-Ardenne;Haute-Marne;Les Loges 52290;E5.5000;N47.7833;13;
3;France;Champagne-Ardenne;Haute-Marne;Leschères-sur-le-Blaiseron 52284;E5.0333;N48.3333;13;
3;France;Champagne-Ardenne;Haute-Marne;Leuchey 52285;E5.2167;N47.7333;13;
3;France;Champagne-Ardenne;Haute-Marne;Leurville 52286;E5.3833;N48.3333;13;
3;France;Champagne-Ardenne;Haute-Marne;Levécourt 52287;E5.5667;N48.1333;13;
3;France;Champagne-Ardenne;Haute-Marne;Lezéville 52288;E5.3833;N48.4333;13;
3;France;Champagne-Ardenne;Haute-Marne;Liffol-le-Petit 52289;E5.5333;N48.3000;13;
3;France;Champagne-Ardenne;Haute-Marne;Longchamp 52291;E5.4333;N48.1333;13;
3;France;Champagne-Ardenne;Haute-Marne;Longeau-Percey 52292;E5.3000;N47.7667;13;
3;France;Champagne-Ardenne;Haute-Marne;Longeville-sur-la-Laines 52293;E4.6833;N48.4500;13;
3;France;Champagne-Ardenne;Haute-Marne;Louvemont 52294;E4.9000;N48.5500;13;
3;France;Champagne-Ardenne;Haute-Marne;Louvières 52295;E5.2833;N48.0333;13;
3;France;Champagne-Ardenne;Haute-Marne;Louze 52296;E4.7167;N48.4333;13;
3;France;Champagne-Ardenne;Haute-Marne;Luzy-sur-Marne 52297;E5.1833;N48.0500;13;
3;France;Champagne-Ardenne;Haute-Marne;Maâtz 52298;E5.4500;N47.7000;13;
3;France;Champagne-Ardenne;Haute-Marne;Maconcourt 52299=52456;E5.2500;N48.3833;13;
3;France;Champagne-Ardenne;Haute-Marne;Magneux 52300;E5.0000;N48.5100;13;
3;France;Champagne-Ardenne;Haute-Marne;Maisoncelles 52301;E5.5333;N48.1333;13;
3;France;Champagne-Ardenne;Haute-Marne;Maizières 52302;E5.0667;N48.5000;13;
3;France;Champagne-Ardenne;Haute-Marne;Maizières-sur-Amance 52303;E5.6167;N47.8333;13;
3;France;Champagne-Ardenne;Haute-Marne;Malaincourt-sur-Meuse 52304;E5.6000;N48.1500;13;
3;France;Champagne-Ardenne;Haute-Marne;Mandres-la-Côte 52305;E5.3333;N48.0667;13;
3;France;Champagne-Ardenne;Haute-Marne;Manois 52306;E5.3667;N48.2833;13;
3;France;Champagne-Ardenne;Haute-Marne;Marac 52307;E5.2000;N47.9167;13;
3;France;Champagne-Ardenne;Haute-Marne;Maranville 52308;E4.8667;N48.1333;13;
3;France;Champagne-Ardenne;Haute-Marne;Marault 52309=52058;E5.1000;N48.1833;13;
3;France;Champagne-Ardenne;Haute-Marne;Marbéville 52310;E5.0167;N48.2833;13;
3;France;Champagne-Ardenne;Haute-Marne;Marcilly-en-Bassigny 52311;E5.5167;N47.9000;13;
3;France;Champagne-Ardenne;Haute-Marne;Mardor 52312;E5.2000;N47.8833;13;
3;France;Champagne-Ardenne;Haute-Marne;Mareilles 52313;E5.2667;N48.1833;13;
3;France;Champagne-Ardenne;Haute-Marne;Marmesse 52314=52114;E4.9167;N48.0500;13;
3;France;Champagne-Ardenne;Haute-Marne;Marnay-sur-Marne 52315;E5.2333;N48.0000;13;
3;France;Champagne-Ardenne;Haute-Marne;Mathons 52316;E5.0333;N48.4167;13;
3;France;Champagne-Ardenne;Haute-Marne;Maulain 52317=52332;E5.5833;N48.0167;13;
3;France;Champagne-Ardenne;Haute-Marne;Melay 52318;E5.8000;N47.8833;13;
3;France;Champagne-Ardenne;Haute-Marne;Mennouveaux 52319;E5.4167;N48.1000;13;
3;France;Champagne-Ardenne;Haute-Marne;Merrey 52320;E5.6000;N48.0500;13;
3;France;Champagne-Ardenne;Haute-Marne;Mertrud 52321;E4.8833;N48.4167;13;
3;France;Champagne-Ardenne;Haute-Marne;Meures 52322;E5.0667;N48.2000;13;
3;France;Champagne-Ardenne;Haute-Marne;Meuse 52323=52332;E5.4907;N47.9991;13;
3;France;Champagne-Ardenne;Haute-Marne;Meuvy 52324=52074;E5.5500;N48.0833;13;
3;France;Champagne-Ardenne;Haute-Marne;Millières 52325;E5.4167;N48.1333;13;
3;France;Champagne-Ardenne;Haute-Marne;Mirbel 52326;E5.0500;N48.2833;13;
3;France;Champagne-Ardenne;Haute-Marne;Moëslains 52327;E4.9000;N48.6167;13;
3;France;Champagne-Ardenne;Haute-Marne;Montcharvot 52328;E5.7333;N47.9000;13;
3;France;Champagne-Ardenne;Haute-Marne;Montesson 52329=52388;E5.6667;N47.8167;13;
3;France;Champagne-Ardenne;Haute-Marne;Montheries 52330;E4.9167;N48.1667;13;
3;France;Champagne-Ardenne;Haute-Marne;Montier-en-Der 52331;E4.7667;N48.4833;13;
3;France;Champagne-Ardenne;Haute-Marne;Montlandon 52333=52242;E5.5000;N48.0000;13;
3;France;Champagne-Ardenne;Haute-Marne;Montormentier 52334=52158;E5.4833;N47.8500;13;
3;France;Champagne-Ardenne;Haute-Marne;Montot-sur-Rognon 52335;E5.2833;N48.2833;13;
3;France;Champagne-Ardenne;Haute-Marne;Montreuil-sur-Blaise 52336;E4.9667;N48.4833;13;
3;France;Champagne-Ardenne;Haute-Marne;Montreuil-sur-Thonnance 52337;E5.2333;N48.4500;13;
3;France;Champagne-Ardenne;Haute-Marne;Montribourg 52338=52114;E4.9256;N47.9971;13;
3;France;Champagne-Ardenne;Haute-Marne;Montsaon 52339=52469;E5.0333;N48.0833;13;
3;France;Champagne-Ardenne;Haute-Marne;Montsaugeon 52340;E5.3167;N47.6667;13;
3;France;Champagne-Ardenne;Haute-Marne;Morancourt 52341;E5.0000;N48.4333;13;
3;France;Champagne-Ardenne;Haute-Marne;Morionvilliers 52342;E5.4167;N48.3667;13;
3;France;Champagne-Ardenne;Haute-Marne;Morteau 52343=52128;E5.3139;N48.2242;13;
3;France;Champagne-Ardenne;Haute-Marne;Mouilleron 52344;E5.1167;N47.7000;13;
3;France;Champagne-Ardenne;Haute-Marne;Musseau 52345=52094;E5.1167;N47.7000;13;
3;France;Champagne-Ardenne;Haute-Marne;Mussey-sur-Marne 52346;E5.1500;N48.3833;13;
3;France;Champagne-Ardenne;Haute-Marne;Narcy 52347;E5.0833;N48.5833;13;
3;France;Champagne-Ardenne;Haute-Marne;Neuilly-l'Évêque 52348;E5.4333;N47.9167;13;
3;France;Champagne-Ardenne;Haute-Marne;Neuilly-sur-Suize 52349;E5.1500;N48.0500;13;
3;France;Champagne-Ardenne;Haute-Marne;Neuvelle-lès-Voisey 52350;E5.8000;N47.8667;13;
3;France;Champagne-Ardenne;Haute-Marne;Nijon 52351;E5.6333;N48.2000;13;
3;France;Champagne-Ardenne;Haute-Marne;Ninville 52352;E5.4333;N48.0667;13;
3;France;Champagne-Ardenne;Haute-Marne;Nogent 52353;E5.3333;N48.0167;13;
3;France;Champagne-Ardenne;Haute-Marne;Noidant-Chatenoy 52354;E5.3833;N47.8000;13;
3;France;Champagne-Ardenne;Haute-Marne;Noidant-le-Rocheux 52355;E5.2333;N47.8167;13;
3;France;Champagne-Ardenne;Haute-Marne;Nomécourt 52356;E5.0667;N48.4333;13;
3;France;Champagne-Ardenne;Haute-Marne;Noncourt-sur-le-Rongeant 52357;E5.2500;N48.4167;13;
3;France;Champagne-Ardenne;Haute-Marne;Noyers 52358;E5.4833;N48.0667;13;
3;France;Champagne-Ardenne;Haute-Marne;Nully-Trémilly 52359;E4.8000;N48.3667;13;
3;France;Champagne-Ardenne;Haute-Marne;Occey 52360;E5.2667;N47.6167;13;
3;France;Champagne-Ardenne;Haute-Marne;Odival 52361=52353;E5.3667;N48.0333;13;
3;France;Champagne-Ardenne;Haute-Marne;Orbigny-au-Mont 52362;E5.4500;N47.8833;13;
3;France;Champagne-Ardenne;Haute-Marne;Orbigny-au-Val 52363;E5.4333;N47.8833;13;
3;France;Champagne-Ardenne;Haute-Marne;Orcevaux 52364;E5.2667;N47.7833;13;
3;France;Champagne-Ardenne;Haute-Marne;Orges 52365;E4.9333;N48.0833;13;
3;France;Champagne-Ardenne;Haute-Marne;Ormancey 52366;E5.1833;N47.9000;13;
3;France;Champagne-Ardenne;Haute-Marne;Ormoy-lès-Sexfontaines 52367;E5.0667;N48.2167;13;
3;France;Champagne-Ardenne;Haute-Marne;Ormoy-sur-Aube 52368=52274;E4.8167;N48.0000;13;
3;France;Champagne-Ardenne;Haute-Marne;Orquevaux 52369;E5.4000;N48.3000;13;
3;France;Champagne-Ardenne;Haute-Marne;Osne-le-Val 52370;E5.1833;N48.5000;13;
3;France;Champagne-Ardenne;Haute-Marne;Oudincourt 52371;E5.0833;N48.2167;13;
3;France;Champagne-Ardenne;Haute-Marne;Outremécourt 52372;E5.6833;N48.2167;13;
3;France;Champagne-Ardenne;Haute-Marne;Ozières 52373;E5.4667;N48.1667;13;
3;France;Champagne-Ardenne;Haute-Marne;Palaiseul 52375;E5.4167;N47.7667;13;
3;France;Champagne-Ardenne;Haute-Marne;Pancey 52376;E5.2833;N48.4667;13;
3;France;Champagne-Ardenne;Haute-Marne;Parnoy-en-Bassigny 52377;E5.6333;N48.0000;13;
3;France;Champagne-Ardenne;Haute-Marne;Paroy-sur-Saulx 52378;E5.2667;N48.5167;13;
3;France;Champagne-Ardenne;Haute-Marne;Pautaines-Augeville 52379;E5.3000;N48.3500;13;
3;France;Champagne-Ardenne;Haute-Marne;Peigney 52380;E5.3667;N47.8833;13;
3;France;Champagne-Ardenne;Haute-Marne;Percey-le-Pautel 52381=52292;E5.3167;N47.7500;13;
3;France;Champagne-Ardenne;Haute-Marne;Percey-sous-Montormentier 52382=52158;E5.3643;N47.6141;13;
3;France;Champagne-Ardenne;Haute-Marne;Perrancey-les-Vieux-Moulins 52383;E5.2667;N47.8500;13;
3;France;Champagne-Ardenne;Haute-Marne;Perrogney-les-Fontaines 52384;E5.1833;N47.8000;13;
3;France;Champagne-Ardenne;Haute-Marne;Perrusse 52385;E5.4833;N48.1000;13;
3;France;Champagne-Ardenne;Haute-Marne;Perthes 52386;E4.8167;N48.6500;13;
3;France;Champagne-Ardenne;Haute-Marne;Piépape 52387=52529;E5.3167;N47.7167;13;
3;France;Champagne-Ardenne;Haute-Marne;Pierrefontaines 52389=52384;E5.2000;N47.8000;13;
3;France;Champagne-Ardenne;Haute-Marne;Pierremont-sur-Amance 52388;E5.6500;N47.7833;13;
3;France;Champagne-Ardenne;Haute-Marne;Pisseloup 52390;E5.7333;N47.8333;13;
3;France;Champagne-Ardenne;Haute-Marne;Planrupt 52391;E4.7833;N48.5000;13;
3;France;Champagne-Ardenne;Haute-Marne;Plesnoy 52392;E5.5000;N47.8833;13;
3;France;Champagne-Ardenne;Haute-Marne;Poinsenot 52393;E5.0000;N47.7167;13;
3;France;Champagne-Ardenne;Haute-Marne;Poinson-lès-Fayl 52394;E5.6000;N47.7500;13;
3;France;Champagne-Ardenne;Haute-Marne;Poinson-lès-Grancey 52395;E4.9833;N47.7000;13;
3;France;Champagne-Ardenne;Haute-Marne;Poinson-lès-Nogent 52396;E5.3667;N48.0000;13;
3;France;Champagne-Ardenne;Haute-Marne;Poiseul 52397;E5.4833;N47.9167;13;
3;France;Champagne-Ardenne;Haute-Marne;Poissons 52398;E5.2167;N48.4167;13;
3;France;Champagne-Ardenne;Haute-Marne;Pont-la-Ville 52399;E4.8833;N48.0833;13;
3;France;Champagne-Ardenne;Haute-Marne;Poulangy 52401;E5.2500;N48.0333;13;
3;France;Champagne-Ardenne;Haute-Marne;Prangey 52402=52529;E5.2667;N47.7333;13;
3;France;Champagne-Ardenne;Haute-Marne;Praslay 52403;E5.1000;N47.7333;13;
3;France;Champagne-Ardenne;Haute-Marne;Pratz 52404=52140;E4.9000;N48.2500;13;
3;France;Champagne-Ardenne;Haute-Marne;Prauthoy 52405;E5.2833;N47.6667;13;
3;France;Champagne-Ardenne;Haute-Marne;Pressigny 52406;E5.6667;N47.7500;13;
3;France;Champagne-Ardenne;Haute-Marne;Prez-sous-Lafauche 52407;E5.5000;N48.2833;13;
3;France;Champagne-Ardenne;Haute-Marne;Prez-sur-Marne 52408=52265;E5.0500;N48.5667;13;
3;France;Champagne-Ardenne;Haute-Marne;Provenchères-sur-Marne 52409=52211;E5.1167;N48.3167;13;
3;France;Champagne-Ardenne;Haute-Marne;Provenchères-sur-Meuse 52410=52332;E5.5333;N48.0000;13;
3;France;Champagne-Ardenne;Haute-Marne;Puellemontier 52411;E4.7000;N48.5000;13;
3;France;Champagne-Ardenne;Haute-Marne;Rachecourt-sur-Marne 52414;E5.1000;N48.5333;13;
3;France;Champagne-Ardenne;Haute-Marne;Rachecourt-Suzémont 52413;E4.9500;N48.4500;13;
3;France;Champagne-Ardenne;Haute-Marne;Rançonnières 52415;E5.5500;N47.9333;13;
3;France;Champagne-Ardenne;Haute-Marne;Rangecourt 52416;E5.4833;N48.0500;13;
3;France;Champagne-Ardenne;Haute-Marne;Ravennefontaines 52417=52332;E5.6000;N48.0333;13;
3;France;Champagne-Ardenne;Haute-Marne;Récourt 52418=52332;E5.5000;N47.9667;13;
3;France;Champagne-Ardenne;Haute-Marne;Rennepont 52419;E4.8500;N48.1500;13;
3;France;Champagne-Ardenne;Haute-Marne;Reynel 52420;E5.3333;N48.3000;13;
3;France;Champagne-Ardenne;Haute-Marne;Riaucourt 52421;E5.1500;N48.1833;13;
3;France;Champagne-Ardenne;Haute-Marne;Richebourg 52422;E5.0667;N48.0167;13;
3;France;Champagne-Ardenne;Haute-Marne;Rimaucourt 52423;E5.3333;N48.2500;13;
3;France;Champagne-Ardenne;Haute-Marne;Rivière-les-Fosses 52425;E5.2333;N47.6667;13;
3;France;Champagne-Ardenne;Haute-Marne;Rivières-le-Bois 52424;E5.4333;N47.7333;13;
3;France;Champagne-Ardenne;Haute-Marne;Rizaucourt-Buchey 52426;E4.8500;N48.2667;13;
3;France;Champagne-Ardenne;Haute-Marne;Robert-Magny-Laneuville-à-Rémy 52427;E4.8333;N48.4500;13;
3;France;Champagne-Ardenne;Haute-Marne;Rochefort-sur-la-Côte 52428;E5.2000;N48.2167;13;
3;France;Champagne-Ardenne;Haute-Marne;Roches-Bettaincourt 52044;E5.2500;N48.3000;13;
3;France;Champagne-Ardenne;Haute-Marne;Roches-sur-Marne 52429;E5.0167;N48.6167;13;
3;France;Champagne-Ardenne;Haute-Marne;Roches-sur-Rognon 52430=52044;E5.2667;N48.3000;13;
3;France;Champagne-Ardenne;Haute-Marne;Rochetaillée 52431;E5.1000;N47.8500;13;
3;France;Champagne-Ardenne;Haute-Marne;Rolampont 52432;E5.2667;N47.9500;13;
3;France;Champagne-Ardenne;Haute-Marne;Romain-sur-Meuse 52433;E5.5333;N48.1667;13;
3;France;Champagne-Ardenne;Haute-Marne;Roôcourt-la-Côte 52434=52058;E5.1500;N48.2167;13;
3;France;Champagne-Ardenne;Haute-Marne;Rosoy-sur-Amance 52435=52242;E5.5333;N47.8333;13;
3;France;Champagne-Ardenne;Haute-Marne;Rouécourt 52436;E5.0667;N48.3333;13;
3;France;Champagne-Ardenne;Haute-Marne;Rouelles 52437;E5.0833;N47.8000;13;
3;France;Champagne-Ardenne;Haute-Marne;Rougeux 52438;E5.5833;N47.8167;13;
3;France;Champagne-Ardenne;Haute-Marne;Rouvres-sur-Aube 52439;E4.9667;N47.8500;13;
3;France;Champagne-Ardenne;Haute-Marne;Rouvroy-sur-Marne 52440;E5.1500;N48.3500;13;
3;France;Champagne-Ardenne;Haute-Marne;Rozières 52441=52479;E4.8167;N48.4167;13;
3;France;Champagne-Ardenne;Haute-Marne;Rupt 52442;E5.1333;N48.4167;13;
3;France;Champagne-Ardenne;Haute-Marne;Sailly 52443;E5.2667;N48.4333;13;
3;France;Champagne-Ardenne;Haute-Marne;Saint-Blin 52444;E5.4150;N48.2700;13;
3;France;Champagne-Ardenne;Haute-Marne;Saint-Broingt-le-Bois 52445;E5.4167;N47.7333;13;
3;France;Champagne-Ardenne;Haute-Marne;Saint-Broingt-les-Fosses 52446;E5.2667;N47.7167;13;
3;France;Champagne-Ardenne;Haute-Marne;Saint-Ciergues 52447;E5.2500;N47.8833;13;
3;France;Champagne-Ardenne;Haute-Marne;Saint-Dizier 52448;E4.9500;N48.6333;13;
3;France;Champagne-Ardenne;Haute-Marne;Saint-Loup-sur-Aujon 52450;E5.0833;N47.8833;13;
3;France;Champagne-Ardenne;Haute-Marne;Saint-Martin-lès-Langres 52452;E5.2667;N47.8833;13;
3;France;Champagne-Ardenne;Haute-Marne;Saint-Martin-sur-la-Renne 52451=52031;E4.9500;N48.1500;13;
3;France;Champagne-Ardenne;Haute-Marne;Saint-Maurice 52453;E5.4000;N47.8500;13;
3;France;Champagne-Ardenne;Haute-Marne;Saint-Michel 52454=52529;E5.3000;N47.7167;13;
3;France;Champagne-Ardenne;Haute-Marne;Saint-Thiébault 52455;E5.5833;N48.2000;13;
3;France;Champagne-Ardenne;Haute-Marne;Saint-Urbain-Maconcourt 52456;E5.1667;N48.4000;13;
3;France;Champagne-Ardenne;Haute-Marne;Saint-Vallier-sur-Marne 52457;E5.4000;N47.8333;13;
3;France;Champagne-Ardenne;Haute-Marne;Saints-Geosmes 52449;E5.3333;N47.8333;13;
3;France;Champagne-Ardenne;Haute-Marne;Santenoge 52458=52526;E5.0000;N47.7333;13;
3;France;Champagne-Ardenne;Haute-Marne;Sarcey 52459;E5.3000;N48.0500;13;
3;France;Champagne-Ardenne;Haute-Marne;Sarcicourt 52460=52251;E5.0667;N48.1500;13;
3;France;Champagne-Ardenne;Haute-Marne;Sarrey 52461;E5.4333;N48.0000;13;
3;France;Champagne-Ardenne;Haute-Marne;Saucourt-sur-Rognon 52462=52177;E5.1833;N48.3500;13;
3;France;Champagne-Ardenne;Haute-Marne;Saudron 52463;E5.3333;N48.5000;13;
3;France;Champagne-Ardenne;Haute-Marne;Saulles 52464;E5.5167;N47.7167;13;
3;France;Champagne-Ardenne;Haute-Marne;Saulxures 52465=52332;E5.5833;N47.9500;13;
3;France;Champagne-Ardenne;Haute-Marne;Sauvage-Magny 52466=52088;E4.7333;N48.4167;13;
3;France;Champagne-Ardenne;Haute-Marne;Savigny 52467;E5.6500;N47.7167;13;
3;France;Champagne-Ardenne;Haute-Marne;Semilly 52468;E5.4667;N48.2667;13;
3;France;Champagne-Ardenne;Haute-Marne;Semoutiers-Montsaon 52469;E5.0500;N48.0500;13;
3;France;Champagne-Ardenne;Haute-Marne;Serqueux 52470;E5.7333;N47.9833;13;
3;France;Champagne-Ardenne;Haute-Marne;Seuchey 52471=52464;E5.5261;N47.6874;13;
3;France;Champagne-Ardenne;Haute-Marne;Sexfontaines 52472;E5.0333;N48.2000;13;
3;France;Champagne-Ardenne;Haute-Marne;Signéville 52473;E5.2667;N48.2667;13;
3;France;Champagne-Ardenne;Haute-Marne;Silvarouvres 52474;E4.7833;N48.0667;13;
3;France;Champagne-Ardenne;Haute-Marne;Sommancourt 52475;E5.0333;N48.5000;13;
3;France;Champagne-Ardenne;Haute-Marne;Sommerécourt 52476;E5.6667;N48.2333;13;
3;France;Champagne-Ardenne;Haute-Marne;Sommermont 52477=52118;E5.1000;N48.4667;13;
3;France;Champagne-Ardenne;Haute-Marne;Sommeville 52478=52123;E5.1000;N48.5333;13;
3;France;Champagne-Ardenne;Haute-Marne;Sommevoire 52479;E4.8333;N48.4167;13;
3;France;Champagne-Ardenne;Haute-Marne;Soncourt-sur-Marne 52480;E5.1167;N48.2500;13;
3;France;Champagne-Ardenne;Haute-Marne;Soulaincourt 52481=52491;E5.3167;N48.4333;13;
3;France;Champagne-Ardenne;Haute-Marne;Soulaucourt-sur-Mouzon 52482;E5.6833;N48.2000;13;
3;France;Champagne-Ardenne;Haute-Marne;Soyers 52483;E5.7000;N47.8667;13;
3;France;Champagne-Ardenne;Haute-Marne;Suzannecourt 52484;E5.1667;N48.4500;13;
3;France;Champagne-Ardenne;Haute-Marne;Suzémont 52485=52413;E4.9617;N48.4528;13;
3;France;Champagne-Ardenne;Haute-Marne;Ternat 52486;E5.1333;N47.9000;13;
3;France;Champagne-Ardenne;Haute-Marne;Terre-Natale 52504;E5.6167;N47.8833;13;
3;France;Champagne-Ardenne;Haute-Marne;Thilleux 52487;E4.8000;N48.4333;13;
3;France;Champagne-Ardenne;Haute-Marne;Thivet 52488;E5.2833;N47.9833;13;
3;France;Champagne-Ardenne;Haute-Marne;Thol-lès-Millières 52489;E5.4833;N48.1500;13;
3;France;Champagne-Ardenne;Haute-Marne;Thonnance-lès-Joinville 52490;E5.1667;N48.4500;13;
3;France;Champagne-Ardenne;Haute-Marne;Thonnance-les-Moulins 52491;E5.3000;N48.4167;13;
3;France;Champagne-Ardenne;Haute-Marne;Torcenay 52492;E5.4667;N47.8167;13;
3;France;Champagne-Ardenne;Haute-Marne;Tornay 52493;E5.6000;N47.7000;13;
3;France;Champagne-Ardenne;Haute-Marne;Treix 52494;E5.1833;N48.1500;13;
3;France;Champagne-Ardenne;Haute-Marne;Trémilly 52495=52359;E4.7833;N48.3667;13;
3;France;Champagne-Ardenne;Haute-Marne;Troischamps 52496=52242;E5.5167;N47.8833;13;
3;France;Champagne-Ardenne;Haute-Marne;Troisfontaines-la-Ville 52497;E5.0167;N48.5333;13;
3;France;Champagne-Ardenne;Haute-Marne;Tronchoy 52498=52432;E5.3333;N47.9500;13;
3;France;Champagne-Ardenne;Haute-Marne;Vaillant 52499;E5.1500;N47.7000;13;
3;France;Champagne-Ardenne;Haute-Marne;Val-de-Meuse 52332;E5.4833;N48.0000;13;
3;France;Champagne-Ardenne;Haute-Marne;Valcourt 52500;E4.9000;N48.6167;13;
3;France;Champagne-Ardenne;Haute-Marne;Valdelancourt 52501=52031;E5.0000;N48.1000;13;
3;France;Champagne-Ardenne;Haute-Marne;Valleret 52502;E5.0000;N48.4833;13;
3;France;Champagne-Ardenne;Haute-Marne;Valleroy 52503;E5.6500;N47.7000;13;
3;France;Champagne-Ardenne;Haute-Marne;Vals-des-Tilles 52094;E5.0667;N47.7000;13;
3;France;Champagne-Ardenne;Haute-Marne;Vaudrecourt 52505;E5.6500;N48.2000;13;
3;France;Champagne-Ardenne;Haute-Marne;Vaudrémont 52506;E4.9000;N48.1333;13;
3;France;Champagne-Ardenne;Haute-Marne;Vaux-la-Douce 52508=52544;E5.7333;N47.8667;13;
3;France;Champagne-Ardenne;Haute-Marne;Vaux-sous-Aubigny 52509;E5.2833;N47.6500;13;
3;France;Champagne-Ardenne;Haute-Marne;Vaux-sur-Blaise 52510;E4.9667;N48.4667;13;
3;France;Champagne-Ardenne;Haute-Marne;Vaux-sur-Saint-Urbain 52511;E5.2000;N48.3833;13;
3;France;Champagne-Ardenne;Haute-Marne;Vauxbons 52507;E5.1500;N47.8833;13;
3;France;Champagne-Ardenne;Haute-Marne;Vecqueville 52512;E5.1500;N48.4500;13;
3;France;Champagne-Ardenne;Haute-Marne;Velles 52513;E5.7167;N47.8333;13;
3;France;Champagne-Ardenne;Haute-Marne;Verbiesles 52514;E5.1833;N48.0667;13;
3;France;Champagne-Ardenne;Haute-Marne;Verseilles-le-Bas 52515;E5.2833;N47.7667;13;
3;France;Champagne-Ardenne;Haute-Marne;Verseilles-le-Haut 52516;E5.3000;N47.7667;13;
3;France;Champagne-Ardenne;Haute-Marne;Vesaignes-sous-Lafauche 52517;E5.4333;N48.2833;13;
3;France;Champagne-Ardenne;Haute-Marne;Vesaignes-sur-Marne 52518;E5.2667;N48.0000;13;
3;France;Champagne-Ardenne;Haute-Marne;Vesvres-sous-Chalancey 52519;E5.1667;N47.7000;13;
3;France;Champagne-Ardenne;Haute-Marne;Vicq 52520;E5.6000;N47.9167;13;
3;France;Champagne-Ardenne;Haute-Marne;Vieux-Moulins 52521=52383;E5.2500;N47.8500;13;
3;France;Champagne-Ardenne;Haute-Marne;Viéville 52522;E5.1333;N48.2333;13;
3;France;Champagne-Ardenne;Haute-Marne;Vignes-la-Côte 52523;E5.3000;N48.2667;13;
3;France;Champagne-Ardenne;Haute-Marne;Vignory 52524;E5.1000;N48.2833;13;
3;France;Champagne-Ardenne;Haute-Marne;Villars-en-Azois 52525;E4.7500;N48.0667;13;
3;France;Champagne-Ardenne;Haute-Marne;Villars-Saint-Marcellin 52527=52060;E5.7833;N47.9333;13;
3;France;Champagne-Ardenne;Haute-Marne;Villars-Santenoge 52526;E4.9667;N47.7500;13;
3;France;Champagne-Ardenne;Haute-Marne;Ville-en-Blaisois 52528;E4.9667;N48.4333;13;
3;France;Champagne-Ardenne;Haute-Marne;Villegusien-le-Lac 52529;E5.3167;N47.7333;13;
3;France;Champagne-Ardenne;Haute-Marne;Villemervry 52530=52094;E5.0667;N47.6833;13;
3;France;Champagne-Ardenne;Haute-Marne;Villemoron 52531=52094;E5.1000;N47.6667;13;
3;France;Champagne-Ardenne;Haute-Marne;Villiers-aux-Bois 52532=52497;E4.9833;N48.5500;13;
3;France;Champagne-Ardenne;Haute-Marne;Villiers-aux-Chênes 52533=52178;E4.9000;N48.3667;13;
3;France;Champagne-Ardenne;Haute-Marne;Villiers-en-Lieu 52534;E4.9000;N48.6667;13;
3;France;Champagne-Ardenne;Haute-Marne;Villiers-le-Sec 52535;E5.0667;N48.1000;13;
3;France;Champagne-Ardenne;Haute-Marne;Villiers-lès-Aprey 52536;E5.2167;N47.7500;13;
3;France;Champagne-Ardenne;Haute-Marne;Villiers-sur-Marne 52537=52230;E5.1500;N48.3333;13;
3;France;Champagne-Ardenne;Haute-Marne;Villiers-sur-Suize 52538;E5.2000;N47.9833;13;
3;France;Champagne-Ardenne;Haute-Marne;Violot 52539;E5.4333;N47.7667;13;
3;France;Champagne-Ardenne;Haute-Marne;Vitry-en-Montagne 52540;E5.0833;N47.8333;13;
3;France;Champagne-Ardenne;Haute-Marne;Vitry-lès-Nogent 52541;E5.3500;N47.9833;13;
3;France;Champagne-Ardenne;Haute-Marne;Vivey 52542;E5.0667;N47.7333;13;
3;France;Champagne-Ardenne;Haute-Marne;Voillecomte 52543;E4.8667;N48.5000;13;
3;France;Champagne-Ardenne;Haute-Marne;Voisey 52544;E5.7833;N47.8833;13;
3;France;Champagne-Ardenne;Haute-Marne;Voisines 52545;E5.1667;N47.8500;13;
3;France;Champagne-Ardenne;Haute-Marne;Voncourt 52546;E5.6667;N47.7167;13;
3;France;Champagne-Ardenne;Haute-Marne;Vouécourt 52547;E5.1333;N48.2667;13;
3;France;Champagne-Ardenne;Haute-Marne;Vraincourt 52548;E5.1167;N48.2333;13;
3;France;Champagne-Ardenne;Haute-Marne;Vroncourt-la-Côte 52549;E5.5167;N48.1500;13;
3;France;Champagne-Ardenne;Haute-Marne;Wassy 52550;E4.9500;N48.5000;13;
2;France;Champagne-Ardenne;Marne;;E4.2160;N48.9856;9;
3;France;Champagne-Ardenne;Marne;Ablancourt 51001;E4.5333;N48.8167;13;
3;France;Champagne-Ardenne;Marne;Aigny 51003;E4.2167;N49.0333;13;
3;France;Champagne-Ardenne;Marne;Allemanche-Launay-et-Soyer 51004;E3.7800;N48.6000;13;
3;France;Champagne-Ardenne;Marne;Allemant 51005;E3.8000;N48.7667;13;
3;France;Champagne-Ardenne;Marne;Alliancelles 51006;E4.8833;N48.8000;13;
3;France;Champagne-Ardenne;Marne;Ambonnay 51007;E4.1667;N49.0667;13;
3;France;Champagne-Ardenne;Marne;Ambrières 51008;E4.8333;N48.6333;13;
3;France;Champagne-Ardenne;Marne;Anglure 51009;E3.8167;N48.5833;13;
3;France;Champagne-Ardenne;Marne;Angluzelles-et-Courcelles 51010;E3.8833;N48.6667;13;
3;France;Champagne-Ardenne;Marne;Ante 51011=51537;E4.8991;N49.0012;13;
3;France;Champagne-Ardenne;Marne;Anthenay 51012;E3.7333;N49.1500;13;
3;France;Champagne-Ardenne;Marne;Aougny 51013;E3.7333;N49.1833;13;
3;France;Champagne-Ardenne;Marne;Arcis-le-Ponsart 51014;E3.7000;N49.2333;13;
3;France;Champagne-Ardenne;Marne;Argers 51015;E4.8500;N49.0667;13;
3;France;Champagne-Ardenne;Marne;Arrigny 51016;E4.7167;N48.6167;13;
3;France;Champagne-Ardenne;Marne;Arzillières-Neuville 51017;E4.5833;N48.6333;13;
3;France;Champagne-Ardenne;Marne;Athis 51018;E4.1333;N49.0167;13;
3;France;Champagne-Ardenne;Marne;Aubérive 51019;E4.4167;N49.2000;13;
3;France;Champagne-Ardenne;Marne;Aubilly 51020;E3.8667;N49.2167;13;
3;France;Champagne-Ardenne;Marne;Aulnay-aux-Planches 51021=51158;E3.9500;N48.8167;13;
3;France;Champagne-Ardenne;Marne;Aulnay-l'Aître 51022;E4.5667;N48.8333;13;
3;France;Champagne-Ardenne;Marne;Aulnay-sur-Marne 51023;E4.2000;N49.0000;13;
3;France;Champagne-Ardenne;Marne;Aulnizeux 51024=51158;E3.9333;N48.8333;13;
3;France;Champagne-Ardenne;Marne;Auménancourt 51025;E4.0500;N49.3667;13;
3;France;Champagne-Ardenne;Marne;Auménancourt-le-Petit 51026=51025;E4.0570;N49.3788;13;
3;France;Champagne-Ardenne;Marne;Auve 51027;E4.7000;N49.0333;13;
3;France;Champagne-Ardenne;Marne;Avenay-Val-d'Or 51028;E4.0500;N49.0667;13;
3;France;Champagne-Ardenne;Marne;Avize 51029;E4.0167;N48.9667;13;
3;France;Champagne-Ardenne;Marne;Ay 51030;E4.0000;N49.0500;13;
3;France;Champagne-Ardenne;Marne;Baconnes 51031;E4.3333;N49.1667;13;
3;France;Champagne-Ardenne;Marne;Bagneux 51032;E3.8333;N48.5667;13;
3;France;Champagne-Ardenne;Marne;Bannay 51034;E3.7333;N48.8667;13;
3;France;Champagne-Ardenne;Marne;Bannes 51035;E3.9167;N48.8000;13;
3;France;Champagne-Ardenne;Marne;Barbonne-Fayel 51036;E3.7000;N48.6500;13;
3;France;Champagne-Ardenne;Marne;Baslieux-lès-Fismes 51037;E3.7167;N49.3167;13;
3;France;Champagne-Ardenne;Marne;Baslieux-sous-Châtillon 51038;E3.8000;N49.1167;13;
3;France;Champagne-Ardenne;Marne;Bassu 51039;E4.7000;N48.8333;13;
3;France;Champagne-Ardenne;Marne;Bassuet 51040;E4.6667;N48.8000;13;
3;France;Champagne-Ardenne;Marne;Baudement 51041;E3.7833;N48.5833;13;
3;France;Champagne-Ardenne;Marne;Baye 51042;E3.7667;N48.8500;13;
3;France;Champagne-Ardenne;Marne;Bazancourt 51043;E4.1667;N49.3667;13;
3;France;Champagne-Ardenne;Marne;Beaumont-sur-Vesle 51044;E4.1833;N49.1667;13;
3;France;Champagne-Ardenne;Marne;Beaunay 51045;E3.8833;N48.8833;13;
3;France;Champagne-Ardenne;Marne;Beine-Nauroy 51046;E4.2167;N49.2500;13;
3;France;Champagne-Ardenne;Marne;Belval-en-Argonne 51047;E5.0000;N48.9500;13;
3;France;Champagne-Ardenne;Marne;Belval-sous-Châtillon 51048;E3.8500;N49.1167;13;
3;France;Champagne-Ardenne;Marne;Bergères-lès-Vertus 51049;E4.0000;N48.8833;13;
3;France;Champagne-Ardenne;Marne;Bergères-sous-Montmirail 51050;E3.5833;N48.8667;13;
3;France;Champagne-Ardenne;Marne;Berméricourt 51051;E3.9833;N49.3500;13;
3;France;Champagne-Ardenne;Marne;Berru 51052;E4.1500;N49.2667;13;
3;France;Champagne-Ardenne;Marne;Berzieux 51053;E4.8000;N49.1667;13;
3;France;Champagne-Ardenne;Marne;Bétheniville 51054;E4.3667;N49.3000;13;
3;France;Champagne-Ardenne;Marne;Bétheny 51055;E4.0500;N49.2833;13;
3;France;Champagne-Ardenne;Marne;Bethon 51056;E3.6167;N48.6167;13;
3;France;Champagne-Ardenne;Marne;Bettancourt-la-Longue 51057;E4.8833;N48.8333;13;
3;France;Champagne-Ardenne;Marne;Bezannes 51058;E3.9833;N49.2167;13;
3;France;Champagne-Ardenne;Marne;Bignicourt-sur-Marne 51059;E4.6167;N48.6833;13;
3;France;Champagne-Ardenne;Marne;Bignicourt-sur-Saulx 51060;E4.7833;N48.7667;13;
3;France;Champagne-Ardenne;Marne;Billy-le-Grand 51061;E4.2333;N49.1000;13;
3;France;Champagne-Ardenne;Marne;Binarville 51062;E4.9000;N49.2333;13;
3;France;Champagne-Ardenne;Marne;Binson-et-Orquigny 51063;E3.7833;N49.0833;13;
3;France;Champagne-Ardenne;Marne;Bisseuil 51064;E4.0833;N49.0500;13;
3;France;Champagne-Ardenne;Marne;Blacy 51065;E4.5500;N48.7333;13;
3;France;Champagne-Ardenne;Marne;Blaise-sous-Arzillières 51066;E4.5833;N48.6667;13;
3;France;Champagne-Ardenne;Marne;Blaise-sous-Hauteville 51067=51277;E4.7768;N48.6200;13;
3;France;Champagne-Ardenne;Marne;Blesme 51068;E4.7833;N48.7333;13;
3;France;Champagne-Ardenne;Marne;Bligny 51069;E3.8667;N49.1833;13;
3;France;Champagne-Ardenne;Marne;Boissy-le-Repos 51070;E3.6500;N48.8500;13;
3;France;Champagne-Ardenne;Marne;Bouchy-Saint-Genest 51071;E3.5000;N48.6500;13;
3;France;Champagne-Ardenne;Marne;Bouilly 51072;E3.8833;N49.2000;13;
3;France;Champagne-Ardenne;Marne;Bouleuse 51073;E3.8333;N49.2167;13;
3;France;Champagne-Ardenne;Marne;Boult-sur-Suippe 51074;E4.1500;N49.3667;13;
3;France;Champagne-Ardenne;Marne;Bourgogne 51075;E4.0667;N49.3500;13;
3;France;Champagne-Ardenne;Marne;Boursault 51076;E3.8500;N49.0500;13;
3;France;Champagne-Ardenne;Marne;Bouvancourt 51077;E3.8333;N49.3333;13;
3;France;Champagne-Ardenne;Marne;Bouy 51078;E4.3500;N49.0833;13;
3;France;Champagne-Ardenne;Marne;Bouzy 51079;E4.1500;N49.0833;13;
3;France;Champagne-Ardenne;Marne;Brandonvillers 51080;E4.5500;N48.6000;13;
3;France;Champagne-Ardenne;Marne;Branscourt 51081;E3.8167;N49.2667;13;
3;France;Champagne-Ardenne;Marne;Braux-Saint-Remy 51083;E4.8667;N49.0167;13;
3;France;Champagne-Ardenne;Marne;Braux-Sainte-Cohière 51082;E4.8333;N49.0833;13;
3;France;Champagne-Ardenne;Marne;Bréban 51084;E4.4000;N48.5833;13;
3;France;Champagne-Ardenne;Marne;Breuil 51086;E3.7667;N49.3000;13;
3;France;Champagne-Ardenne;Marne;Breuvery-sur-Coole 51087;E4.3167;N48.8667;13;
3;France;Champagne-Ardenne;Marne;Brimont 51088;E4.0167;N49.3333;13;
3;France;Champagne-Ardenne;Marne;Brouillet 51089;E3.7333;N49.2167;13;
3;France;Champagne-Ardenne;Marne;Broussy-le-Grand 51090;E3.8833;N48.7833;13;
3;France;Champagne-Ardenne;Marne;Broussy-le-Petit 51091;E3.8333;N48.8000;13;
3;France;Champagne-Ardenne;Marne;Broyes 51092;E3.7667;N48.7667;13;
3;France;Champagne-Ardenne;Marne;Brugny-Vaudancourt 51093;E3.8833;N49.0000;13;
3;France;Champagne-Ardenne;Marne;Brusson 51094;E4.7000;N48.7500;13;
3;France;Champagne-Ardenne;Marne;Bussy-aux-Bois 51096=51270;E4.5802;N48.6184;13;
3;France;Champagne-Ardenne;Marne;Bussy-le-Château 51097;E4.5500;N49.0667;13;
3;France;Champagne-Ardenne;Marne;Bussy-le-Repos 51098;E4.7667;N48.9000;13;
3;France;Champagne-Ardenne;Marne;Bussy-Lettrée 51099;E4.2667;N48.8000;13;
3;France;Champagne-Ardenne;Marne;Caurel 51101;E4.1500;N49.3000;13;
3;France;Champagne-Ardenne;Marne;Cauroy-lès-Hermonville 51102;E3.9167;N49.3500;13;
3;France;Champagne-Ardenne;Marne;Cernay-en-Dormois 51104;E4.7667;N49.2167;13;
3;France;Champagne-Ardenne;Marne;Cernay-lès-Reims 51105;E4.1000;N49.2667;13;
3;France;Champagne-Ardenne;Marne;Cernon 51106;E4.3500;N48.8333;13;
3;France;Champagne-Ardenne;Marne;Chaintrix-Bierges 51107;E4.1000;N48.9000;13;
3;France;Champagne-Ardenne;Marne;Châlons-en-Champagne 51108;E4.3667;N48.9583;13;
3;France;Champagne-Ardenne;Marne;Châlons-sur-Vesle 51109;E3.9167;N49.2833;13;
3;France;Champagne-Ardenne;Marne;Chaltrait 51110;E3.9000;N48.9333;13;
3;France;Champagne-Ardenne;Marne;Chambrecy 51111;E3.8167;N49.1667;13;
3;France;Champagne-Ardenne;Marne;Chamery 51112;E3.9667;N49.1667;13;
3;France;Champagne-Ardenne;Marne;Champaubert 51113;E3.7833;N48.8833;13;
3;France;Champagne-Ardenne;Marne;Champaubert-aux-Bois 51114=51269;E4.7528;N48.5530;13;
3;France;Champagne-Ardenne;Marne;Champfleury 51115;E4.0167;N49.1833;13;
3;France;Champagne-Ardenne;Marne;Champguyon 51116;E3.5500;N48.7833;13;
3;France;Champagne-Ardenne;Marne;Champigneul-Champagne 51117;E4.1667;N48.9667;13;
3;France;Champagne-Ardenne;Marne;Champigny 51118;E3.9667;N49.2667;13;
3;France;Champagne-Ardenne;Marne;Champillon 51119;E3.9833;N49.0833;13;
3;France;Champagne-Ardenne;Marne;Champlat-et-Boujacourt 51120;E3.8333;N49.1500;13;
3;France;Champagne-Ardenne;Marne;Champvoisy 51121;E3.6333;N49.1333;13;
3;France;Champagne-Ardenne;Marne;Changy 51122;E4.6667;N48.7667;13;
3;France;Champagne-Ardenne;Marne;Chantecoq 51123=51269;E4.7528;N48.5530;13;
3;France;Champagne-Ardenne;Marne;Chantemerle 51124;E3.6500;N48.6000;13;
3;France;Champagne-Ardenne;Marne;Chapelaine 51125;E4.5000;N48.5833;13;
3;France;Champagne-Ardenne;Marne;Charleville 51129;E3.6667;N48.8167;13;
3;France;Champagne-Ardenne;Marne;Charmont 51130;E4.8667;N48.8833;13;
3;France;Champagne-Ardenne;Marne;Charmontois-l'Abbé 51131=51132;E5.0006;N48.9672;13;
3;France;Champagne-Ardenne;Marne;Châtelraould-Saint-Louvent 51134;E4.5500;N48.6833;13;
3;France;Champagne-Ardenne;Marne;Châtillon-sur-Broué 51135;E4.7000;N48.5500;13;
3;France;Champagne-Ardenne;Marne;Châtillon-sur-Marne 51136;E3.7500;N49.1000;13;
3;France;Champagne-Ardenne;Marne;Châtillon-sur-Morin 51137;E3.5833;N48.7000;13;
3;France;Champagne-Ardenne;Marne;Châtrices 51138;E4.9333;N49.0333;13;
3;France;Champagne-Ardenne;Marne;Chaudefontaine 51139;E4.8667;N49.1000;13;
3;France;Champagne-Ardenne;Marne;Chaumuzy 51140;E3.8667;N49.1667;13;
3;France;Champagne-Ardenne;Marne;Chavot-Courcourt 51142;E3.9167;N49.0000;13;
3;France;Champagne-Ardenne;Marne;Cheminon 51144;E4.9000;N48.7333;13;
3;France;Champagne-Ardenne;Marne;Chenay 51145;E3.9333;N49.3000;13;
3;France;Champagne-Ardenne;Marne;Cheniers 51146;E4.2500;N48.8833;13;
3;France;Champagne-Ardenne;Marne;Cheppes-la-Prairie 51148;E4.4667;N48.8333;13;
3;France;Champagne-Ardenne;Marne;Chepy 51149;E4.4333;N48.9000;13;
3;France;Champagne-Ardenne;Marne;Cherville 51150;E4.1667;N49.0167;13;
3;France;Champagne-Ardenne;Marne;Chichey 51151;E3.7667;N48.6833;13;
3;France;Champagne-Ardenne;Marne;Chigny-les-Roses 51152;E4.0500;N49.1500;13;
3;France;Champagne-Ardenne;Marne;Chouilly 51153;E4.0167;N49.0167;13;
3;France;Champagne-Ardenne;Marne;Clamanges 51154;E4.0833;N48.8333;13;
3;France;Champagne-Ardenne;Marne;Clesles 51155;E3.8333;N48.5333;13;
3;France;Champagne-Ardenne;Marne;Cloyes-sur-Marne 51156;E4.6333;N48.6667;13;
3;France;Champagne-Ardenne;Marne;Coizard-Joches 51157;E3.8667;N48.8167;13;
3;France;Champagne-Ardenne;Marne;Comblizy 51159=51298;E3.6976;N49.0376;13;
3;France;Champagne-Ardenne;Marne;Compertrix 51160;E4.3500;N48.9333;13;
3;France;Champagne-Ardenne;Marne;Condé-sur-Marne 51161;E4.1833;N49.0500;13;
3;France;Champagne-Ardenne;Marne;Conflans-sur-Seine 51162;E3.6833;N48.5500;13;
3;France;Champagne-Ardenne;Marne;Congy 51163;E3.8333;N48.8667;13;
3;France;Champagne-Ardenne;Marne;Connantray-Vaurefroy 51164;E4.0500;N48.7500;13;
3;France;Champagne-Ardenne;Marne;Connantre 51165;E3.9167;N48.7167;13;
3;France;Champagne-Ardenne;Marne;Contault 51166;E4.7833;N48.9000;13;
3;France;Champagne-Ardenne;Marne;Coole 51167;E4.4000;N48.7333;13;
3;France;Champagne-Ardenne;Marne;Coolus 51168;E4.3500;N48.9167;13;
3;France;Champagne-Ardenne;Marne;Corbeil 51169;E4.4333;N48.5833;13;
3;France;Champagne-Ardenne;Marne;Corfélix 51170;E3.7000;N48.8333;13;
3;France;Champagne-Ardenne;Marne;Cormicy 51171;E3.9000;N49.3667;13;
3;France;Champagne-Ardenne;Marne;Cormontreuil 51172;E4.0500;N49.2167;13;
3;France;Champagne-Ardenne;Marne;Cormoyeux 51173;E3.9167;N49.1000;13;
3;France;Champagne-Ardenne;Marne;Corribert 51174;E3.7667;N48.9500;13;
3;France;Champagne-Ardenne;Marne;Corrobert 51175;E3.6000;N48.9167;13;
3;France;Champagne-Ardenne;Marne;Corroy 51176;E3.9333;N48.7000;13;
3;France;Champagne-Ardenne;Marne;Coulommes-la-Montagne 51177;E3.9167;N49.2167;13;
3;France;Champagne-Ardenne;Marne;Coupetz 51178;E4.3667;N48.8167;13;
3;France;Champagne-Ardenne;Marne;Coupéville 51179;E4.6167;N48.9167;13;
3;France;Champagne-Ardenne;Marne;Courbetaux 51180=51380;E3.5558;N48.8553;13;
3;France;Champagne-Ardenne;Marne;Courcelles-Sapicourt 51181;E3.8333;N49.2667;13;
3;France;Champagne-Ardenne;Marne;Courcemain 51182;E3.9167;N48.6167;13;
3;France;Champagne-Ardenne;Marne;Courcy 51183;E4.0000;N49.3167;13;
3;France;Champagne-Ardenne;Marne;Courdemanges 51184;E4.5500;N48.7000;13;
3;France;Champagne-Ardenne;Marne;Courgivaux 51185;E3.4833;N48.7000;13;
3;France;Champagne-Ardenne;Marne;Courjeonnet 51186;E3.8333;N48.8333;13;
3;France;Champagne-Ardenne;Marne;Courlandon 51187;E3.7333;N49.3167;13;
3;France;Champagne-Ardenne;Marne;Courmas 51188;E3.9000;N49.1833;13;
3;France;Champagne-Ardenne;Marne;Courmelois 51189=51571;E4.2158;N49.1657;13;
3;France;Champagne-Ardenne;Marne;Courtagnon 51190;E3.9333;N49.1333;13;
3;France;Champagne-Ardenne;Marne;Courtémont 51191;E4.7833;N49.1333;13;
3;France;Champagne-Ardenne;Marne;Courthiézy 51192;E3.6000;N49.0500;13;
3;France;Champagne-Ardenne;Marne;Courtisols 51193;E4.5167;N48.9833;13;
3;France;Champagne-Ardenne;Marne;Courville 51194;E3.7000;N49.2667;13;
3;France;Champagne-Ardenne;Marne;Couvrot 51195;E4.5667;N48.7500;13;
3;France;Champagne-Ardenne;Marne;Cramant 51196;E3.9833;N48.9833;13;
3;France;Champagne-Ardenne;Marne;Crugny 51198;E3.7333;N49.2500;13;
3;France;Champagne-Ardenne;Marne;Cuchery 51199;E3.8167;N49.1333;13;
3;France;Champagne-Ardenne;Marne;Cuis 51200;E3.9667;N49.0000;13;
3;France;Champagne-Ardenne;Marne;Cuisles 51201=51136;E3.7667;N49.1333;13;
3;France;Champagne-Ardenne;Marne;Cumières 51202;E3.9333;N49.0667;13;
3;France;Champagne-Ardenne;Marne;Cuperly 51203;E4.4333;N49.0667;13;
3;France;Champagne-Ardenne;Marne;Damery 51204;E3.8833;N49.0667;13;
3;France;Champagne-Ardenne;Marne;Dampierre-au-Temple 51205;E4.3833;N49.0500;13;
3;France;Champagne-Ardenne;Marne;Dampierre-le-Château 51206;E4.8000;N49.0000;13;
3;France;Champagne-Ardenne;Marne;Dampierre-sur-Auve 51207=51211;E4.8248;N49.0666;13;
3;France;Champagne-Ardenne;Marne;Dampierre-sur-Moivre 51208;E4.5500;N48.9000;13;
3;France;Champagne-Ardenne;Marne;Daucourt 51209=51228;E4.8799;N49.0390;13;
3;France;Champagne-Ardenne;Marne;Dizy 51210;E3.9667;N49.0667;13;
3;France;Champagne-Ardenne;Marne;Dommartin-Dampierre 51211;E4.8167;N49.0667;13;
3;France;Champagne-Ardenne;Marne;Dommartin-Lettrée 51212;E4.3000;N48.7667;13;
3;France;Champagne-Ardenne;Marne;Dommartin-sous-Hans 51213;E4.7833;N49.1167;13;
3;France;Champagne-Ardenne;Marne;Dommartin-Varimont 51214;E4.7667;N48.9667;13;
3;France;Champagne-Ardenne;Marne;Dompremy 51215;E4.7333;N48.7333;13;
3;France;Champagne-Ardenne;Marne;Dontrien 51216;E4.4167;N49.2333;13;
3;France;Champagne-Ardenne;Marne;Dormans 51217;E3.6333;N49.0667;13;
3;France;Champagne-Ardenne;Marne;Drosnay 51219;E4.6167;N48.5833;13;
3;France;Champagne-Ardenne;Marne;Drouilly 51220;E4.5167;N48.7667;13;
3;France;Champagne-Ardenne;Marne;Éclaires 51222;E5.0000;N49.0000;13;
3;France;Champagne-Ardenne;Marne;Écollemont 51223;E4.7333;N48.6167;13;
3;France;Champagne-Ardenne;Marne;Écriennes 51224;E4.6833;N48.6833;13;
3;France;Champagne-Ardenne;Marne;Écueil 51225;E3.9500;N49.1833;13;
3;France;Champagne-Ardenne;Marne;Écury-le-Repos 51226;E4.0333;N48.8000;13;
3;France;Champagne-Ardenne;Marne;Écury-sur-Coole 51227;E4.3333;N48.9000;13;
3;France;Champagne-Ardenne;Marne;Élise-Daucourt 51228;E4.8667;N49.0333;13;
3;France;Champagne-Ardenne;Marne;Épense 51229;E4.8333;N48.9667;13;
3;France;Champagne-Ardenne;Marne;Épernay 51230;E3.9500;N49.0500;13;
3;France;Champagne-Ardenne;Marne;Époye 51232;E4.2333;N49.2833;13;
3;France;Champagne-Ardenne;Marne;Escardes 51233;E3.5167;N48.7000;13;
3;France;Champagne-Ardenne;Marne;Esclavolles-Lurey 51234;E3.6667;N48.5500;13;
3;France;Champagne-Ardenne;Marne;Esternay 51237;E3.5667;N48.7333;13;
3;France;Champagne-Ardenne;Marne;Étoges 51238;E3.8500;N48.8833;13;
3;France;Champagne-Ardenne;Marne;Étréchy 51239;E3.9500;N48.8833;13;
3;France;Champagne-Ardenne;Marne;Étrepy 51240;E4.8167;N48.7667;13;
3;France;Champagne-Ardenne;Marne;Euvy 51241;E4.0333;N48.7167;13;
3;France;Champagne-Ardenne;Marne;Fagnières 51242;E4.3167;N48.9667;13;
3;France;Champagne-Ardenne;Marne;Faux-Fresnay 51243;E3.9500;N48.6500;13;
3;France;Champagne-Ardenne;Marne;Faux-Vésigneul 51244;E4.4000;N48.7667;13;
3;France;Champagne-Ardenne;Marne;Faverolles-et-Coëmy 51245;E3.8000;N49.2333;13;
3;France;Champagne-Ardenne;Marne;Favresse 51246;E4.7333;N48.7167;13;
3;France;Champagne-Ardenne;Marne;Fère-Champenoise 51248;E3.9833;N48.7500;13;
3;France;Champagne-Ardenne;Marne;Fèrebrianges 51247;E3.8500;N48.8667;13;
3;France;Champagne-Ardenne;Marne;Festigny 51249;E3.7500;N49.0500;13;
3;France;Champagne-Ardenne;Marne;Fismes 51250;E3.6833;N49.3000;13;
3;France;Champagne-Ardenne;Marne;Flavigny 51251;E4.0500;N48.9833;13;
3;France;Champagne-Ardenne;Marne;Fleury-la-Rivière 51252;E3.8833;N49.0833;13;
3;France;Champagne-Ardenne;Marne;Florent-en-Argonne 51253;E4.9500;N49.1333;13;
3;France;Champagne-Ardenne;Marne;Fontaine-Denis-Nuisy 51254;E3.6833;N48.6333;13;
3;France;Champagne-Ardenne;Marne;Fontaine-en-Dormois 51255;E4.7167;N49.2333;13;
3;France;Champagne-Ardenne;Marne;Fontaine-sur-Ay 51256;E4.0667;N49.0833;13;
3;France;Champagne-Ardenne;Marne;Fontaine-sur-Coole 51257=51244;E4.3833;N48.8000;13;
3;France;Champagne-Ardenne;Marne;Francheville 51259;E4.5333;N48.9000;13;
3;France;Champagne-Ardenne;Marne;Fresne-lès-Reims 51261;E4.1000;N49.3333;13;
3;France;Champagne-Ardenne;Marne;Frignicourt 51262;E4.6000;N48.7000;13;
3;France;Champagne-Ardenne;Marne;Fromentières 51263;E3.7167;N48.9000;13;
3;France;Champagne-Ardenne;Marne;Gaye 51265;E3.8000;N48.6833;13;
3;France;Champagne-Ardenne;Marne;Germaine 51266;E4.0333;N49.1167;13;
3;France;Champagne-Ardenne;Marne;Germigny 51267;E3.8667;N49.2500;13;
3;France;Champagne-Ardenne;Marne;Germinon 51268;E4.1667;N48.8833;13;
3;France;Champagne-Ardenne;Marne;Giffaumont-Champaubert 51269;E4.7500;N48.5500;13;
3;France;Champagne-Ardenne;Marne;Gigny-Bussy 51270;E4.5667;N48.6000;13;
3;France;Champagne-Ardenne;Marne;Gionges 51271;E3.9667;N48.9333;13;
3;France;Champagne-Ardenne;Marne;Givry-en-Argonne 51272;E4.8833;N48.9500;13;
3;France;Champagne-Ardenne;Marne;Givry-lès-Loisy 51273;E3.9083;N48.8917;13;
3;France;Champagne-Ardenne;Marne;Gizaucourt 51274;E4.7833;N49.0500;13;
3;France;Champagne-Ardenne;Marne;Glannes 51275;E4.5333;N48.7167;13;
3;France;Champagne-Ardenne;Marne;Gourgançon 51276;E4.0167;N48.7000;13;
3;France;Champagne-Ardenne;Marne;Granges-sur-Aube 51279;E3.8500;N48.5833;13;
3;France;Champagne-Ardenne;Marne;Gratreuil 51280;E4.7000;N49.2500;13;
3;France;Champagne-Ardenne;Marne;Grauves 51281;E3.9667;N48.9667;13;
3;France;Champagne-Ardenne;Marne;Gueux 51282;E3.9167;N49.2500;13;
3;France;Champagne-Ardenne;Marne;Hans 51283;E4.7500;N49.1167;13;
3;France;Champagne-Ardenne;Marne;Haussignémont 51284;E4.7500;N48.7167;13;
3;France;Champagne-Ardenne;Marne;Haussimont 51285;E4.1667;N48.7500;13;
3;France;Champagne-Ardenne;Marne;Hauteville 51286;E4.7667;N48.6333;13;
3;France;Champagne-Ardenne;Marne;Hautvillers 51287;E3.9500;N49.0833;13;
3;France;Champagne-Ardenne;Marne;Heiltz-l'Évêque 51290;E4.7500;N48.7833;13;
3;France;Champagne-Ardenne;Marne;Heiltz-le-Hutier 51288;E4.7667;N48.6833;13;
3;France;Champagne-Ardenne;Marne;Heiltz-le-Maurupt 51289;E4.8167;N48.8000;13;
3;France;Champagne-Ardenne;Marne;Hermonville 51291;E3.9000;N49.3333;13;
3;France;Champagne-Ardenne;Marne;Herpont 51292;E4.7333;N49.0000;13;
3;France;Champagne-Ardenne;Marne;Heutrégiville 51293;E4.2500;N49.3167;13;
3;France;Champagne-Ardenne;Marne;Hourges 51294;E3.7667;N49.2833;13;
3;France;Champagne-Ardenne;Marne;Huiron 51295;E4.5333;N48.7000;13;
3;France;Champagne-Ardenne;Marne;Humbauville 51296;E4.4167;N48.6667;13;
3;France;Champagne-Ardenne;Marne;Hurlus 51297=51659;E4.6468;N49.1717;13;
3;France;Champagne-Ardenne;Marne;Igny-Comblizy 51298;E3.7000;N49.0167;13;
3;France;Champagne-Ardenne;Marne;Isle-sur-Marne 51300;E4.6833;N48.6500;13;
3;France;Champagne-Ardenne;Marne;Isles-sur-Suippe 51299;E4.2000;N49.3500;13;
3;France;Champagne-Ardenne;Marne;Isse 51301;E4.2000;N49.0667;13;
3;France;Champagne-Ardenne;Marne;Jâlons 51303;E4.1833;N49.0000;13;
3;France;Champagne-Ardenne;Marne;Janvilliers 51304;E3.6500;N48.9000;13;
3;France;Champagne-Ardenne;Marne;Janvry 51305;E3.8833;N49.2500;13;
3;France;Champagne-Ardenne;Marne;Joiselle 51306;E3.5167;N48.7667;13;
3;France;Champagne-Ardenne;Marne;Jonchery-sur-Suippe 51307;E4.4667;N49.1500;13;
3;France;Champagne-Ardenne;Marne;Jonchery-sur-Vesle 51308;E3.8167;N49.2833;13;
3;France;Champagne-Ardenne;Marne;Jonquery 51309;E3.7833;N49.1500;13;
3;France;Champagne-Ardenne;Marne;Jouy-lès-Reims 51310;E3.9333;N49.2000;13;
3;France;Champagne-Ardenne;Marne;Jussecourt-Minecourt 51311;E4.7833;N48.8000;13;
3;France;Champagne-Ardenne;Marne;Juvigny 51312;E4.2667;N49.0167;13;
3;France;Champagne-Ardenne;Marne;L'Échelle 51221=51380;E3.5683;N48.8900;13;
3;France;Champagne-Ardenne;Marne;L'Épine 51231;E4.4667;N48.9833;13;
3;France;Champagne-Ardenne;Marne;La Caure 51100;E3.7833;N48.9167;13;
3;France;Champagne-Ardenne;Marne;La Celle-sous-Chantemerle 51103;E3.6833;N48.6167;13;
3;France;Champagne-Ardenne;Marne;La Chapelle-Felcourt 51126;E4.7667;N49.0500;13;
3;France;Champagne-Ardenne;Marne;La Chapelle-Lasson 51127;E3.8333;N48.6333;13;
3;France;Champagne-Ardenne;Marne;La Chapelle-sous-Orbais 51128;E3.7333;N48.9167;13;
3;France;Champagne-Ardenne;Marne;La Chaussée-sur-Marne 51141;E4.5167;N48.8333;13;
3;France;Champagne-Ardenne;Marne;La Cheppe 51147;E4.5000;N49.0500;13;
3;France;Champagne-Ardenne;Marne;La Croix-en-Champagne 51197;E4.6500;N49.0667;13;
3;France;Champagne-Ardenne;Marne;La Forestière 51258;E3.5833;N48.6500;13;
3;France;Champagne-Ardenne;Marne;La Neuville-au-Pont 51399;E4.8667;N49.1167;13;
3;France;Champagne-Ardenne;Marne;La Neuville-aux-Bois 51397;E4.9000;N48.9667;13;
3;France;Champagne-Ardenne;Marne;La Neuville-aux-Larris 51398;E3.8333;N49.1500;13;
3;France;Champagne-Ardenne;Marne;La Neuvillette 51401=51454;E4.0045;N49.2881;13;
3;France;Champagne-Ardenne;Marne;La Noue 51407;E3.6000;N48.7333;13;
3;France;Champagne-Ardenne;Marne;La Veuve 51617;E4.3167;N49.0333;13;
3;France;Champagne-Ardenne;Marne;La Ville-sous-Orbais 51639;E3.6833;N48.9667;13;
3;France;Champagne-Ardenne;Marne;La Villeneuve-lès-Charleville 51626;E3.6833;N48.8000;13;
3;France;Champagne-Ardenne;Marne;Lachy 51313;E3.7167;N48.7667;13;
3;France;Champagne-Ardenne;Marne;Lagery 51314;E3.7500;N49.2000;13;
3;France;Champagne-Ardenne;Marne;Landricourt 51315;E4.8167;N48.6167;13;
3;France;Champagne-Ardenne;Marne;Larzicourt 51316;E4.7167;N48.6333;13;
3;France;Champagne-Ardenne;Marne;Laval-sur-Tourbe 51317;E4.6833;N49.1333;13;
3;France;Champagne-Ardenne;Marne;Lavannes 51318;E4.1667;N49.3167;13;
3;France;Champagne-Ardenne;Marne;Le Baizil 51033;E3.8000;N48.9667;13;
3;France;Champagne-Ardenne;Marne;Le Breuil 51085;E3.6333;N48.9667;13;
3;France;Champagne-Ardenne;Marne;Le Buisson 51095;E4.7500;N48.7500;13;
3;France;Champagne-Ardenne;Marne;Le Châtelier 51133;E4.9000;N48.9333;13;
3;France;Champagne-Ardenne;Marne;Le Chemin 51143;E4.9667;N49.0000;13;
3;France;Champagne-Ardenne;Marne;Le Fresne 51260;E4.6333;N48.9167;13;
3;France;Champagne-Ardenne;Marne;Le Gault-Soigny 51264;E3.5833;N48.8000;13;
3;France;Champagne-Ardenne;Marne;Le Meix-Saint-Epoing 51360;E3.6500;N48.7000;13;
3;France;Champagne-Ardenne;Marne;Le Meix-Tiercelin 51361;E4.4167;N48.6333;13;
3;France;Champagne-Ardenne;Marne;Le Mesnil-lès-Hurlus 51366=51368;E4.6717;N49.1828;13;
3;France;Champagne-Ardenne;Marne;Le Mesnil-sur-Oger 51367;E4.0167;N48.9500;13;
3;France;Champagne-Ardenne;Marne;Le Thoult-Trosnay 51570;E3.6833;N48.8500;13;
3;France;Champagne-Ardenne;Marne;Le Vézier 51618;E3.4667;N48.8000;13;
3;France;Champagne-Ardenne;Marne;Le Vieil-Dampierre 51619;E4.8833;N48.9833;13;
3;France;Champagne-Ardenne;Marne;Lenharrée 51319;E4.1167;N48.7667;13;
3;France;Champagne-Ardenne;Marne;Les Charmontois 51132;E5.0000;N48.9667;13;
3;France;Champagne-Ardenne;Marne;Les Essarts-le-Vicomte 51236;E3.5500;N48.6667;13;
3;France;Champagne-Ardenne;Marne;Les Essarts-lès-Sézanne 51235;E3.6500;N48.7500;13;
3;France;Champagne-Ardenne;Marne;Les Grandes-Loges 51278;E4.3000;N49.0500;13;
3;France;Champagne-Ardenne;Marne;Les Istres-et-Bury 51302;E4.0833;N48.9833;13;
3;France;Champagne-Ardenne;Marne;Les Mesneux 51365;E3.9667;N49.2167;13;
3;France;Champagne-Ardenne;Marne;Les Petites-Loges 51428;E4.2250;N49.1333;13;
3;France;Champagne-Ardenne;Marne;Les Rivières-Henruel 51463;E4.5667;N48.6500;13;
3;France;Champagne-Ardenne;Marne;Leuvrigny 51320;E3.7667;N49.0667;13;
3;France;Champagne-Ardenne;Marne;Lhéry 51321;E3.7667;N49.2000;13;
3;France;Champagne-Ardenne;Marne;Lignon 51322;E4.5333;N48.5833;13;
3;France;Champagne-Ardenne;Marne;Linthelles 51323;E3.8167;N48.7167;13;
3;France;Champagne-Ardenne;Marne;Linthes 51324;E3.8500;N48.7333;13;
3;France;Champagne-Ardenne;Marne;Lisse-en-Champagne 51325;E4.6333;N48.8000;13;
3;France;Champagne-Ardenne;Marne;Livry-Louvercy 51326;E4.3000;N49.1000;13;
3;France;Champagne-Ardenne;Marne;Loisy-en-Brie 51327;E3.9000;N48.8833;13;
3;France;Champagne-Ardenne;Marne;Loisy-sur-Marne 51328;E4.5500;N48.7667;13;
3;France;Champagne-Ardenne;Marne;Loivre 51329;E3.9833;N49.3500;13;
3;France;Champagne-Ardenne;Marne;Louvercy 51330=51326;E4.3196;N49.1092;13;
3;France;Champagne-Ardenne;Marne;Louvois 51331;E4.1167;N49.1000;13;
3;France;Champagne-Ardenne;Marne;Lucy 51332=51381;E3.8000;N48.9333;13;
3;France;Champagne-Ardenne;Marne;Ludes 51333;E4.0833;N49.1500;13;
3;France;Champagne-Ardenne;Marne;Luxémont-et-Villotte 51334;E4.6333;N48.7000;13;
3;France;Champagne-Ardenne;Marne;Maclaunay 51335=51380;E3.5500;N48.8500;13;
3;France;Champagne-Ardenne;Marne;Maffrécourt 51336;E4.8167;N49.1167;13;
3;France;Champagne-Ardenne;Marne;Magenta 51663;E3.9667;N49.0500;13;
3;France;Champagne-Ardenne;Marne;Magneux 51337;E3.7100;N49.3000;13;
3;France;Champagne-Ardenne;Marne;Mailly-Champagne 51338;E4.1167;N49.1500;13;
3;France;Champagne-Ardenne;Marne;Mairy-sur-Marne 51339;E4.4167;N48.8667;13;
3;France;Champagne-Ardenne;Marne;Maisons-en-Champagne 51340;E4.5000;N48.7500;13;
3;France;Champagne-Ardenne;Marne;Malmy 51341;E4.8083;N49.1750;13;
3;France;Champagne-Ardenne;Marne;Mancy 51342;E3.9333;N48.9833;13;
3;France;Champagne-Ardenne;Marne;Marcilly-sur-Seine 51343;E3.7000;N48.5667;13;
3;France;Champagne-Ardenne;Marne;Mardeuil 51344;E3.9333;N49.0500;13;
3;France;Champagne-Ardenne;Marne;Mareuil-en-Brie 51345;E3.7500;N48.9500;13;
3;France;Champagne-Ardenne;Marne;Mareuil-le-Port 51346;E3.7500;N49.0833;13;
3;France;Champagne-Ardenne;Marne;Mareuil-sur-Ay 51347;E4.0333;N49.0500;13;
3;France;Champagne-Ardenne;Marne;Marfaux 51348;E3.8833;N49.1667;13;
3;France;Champagne-Ardenne;Marne;Margerie-Hancourt 51349;E4.5167;N48.5500;13;
3;France;Champagne-Ardenne;Marne;Margny 51350;E3.6333;N48.9167;13;
3;France;Champagne-Ardenne;Marne;Marigny 51351;E3.8667;N48.6667;13;
3;France;Champagne-Ardenne;Marne;Marolles 51352;E4.6333;N48.7167;13;
3;France;Champagne-Ardenne;Marne;Marsangis 51353;E3.8333;N48.6000;13;
3;France;Champagne-Ardenne;Marne;Marson 51354;E4.5333;N48.9167;13;
3;France;Champagne-Ardenne;Marne;Massiges 51355;E4.7500;N49.1833;13;
3;France;Champagne-Ardenne;Marne;Matignicourt-Goncourt 51356;E4.6833;N48.6833;13;
3;France;Champagne-Ardenne;Marne;Matougues 51357;E4.2500;N48.9833;13;
3;France;Champagne-Ardenne;Marne;Maurupt-le-Montois 51358;E4.8500;N48.7500;13;
3;France;Champagne-Ardenne;Marne;Mécringes 51359;E3.5000;N48.8667;13;
3;France;Champagne-Ardenne;Marne;Merfy 51362;E3.9500;N49.3000;13;
3;France;Champagne-Ardenne;Marne;Merlaut 51363;E4.6667;N48.7667;13;
3;France;Champagne-Ardenne;Marne;Méry-Prémecy 51364;E3.8667;N49.2167;13;
3;France;Champagne-Ardenne;Marne;Minaucourt-le-Mesnil-lès-Hurlus 51368;E4.7000;N49.1667;13;
3;France;Champagne-Ardenne;Marne;Moeurs-Verdey 51369;E3.6667;N48.7167;13;
3;France;Champagne-Ardenne;Marne;Moiremont 51370;E4.8833;N49.1333;13;
3;France;Champagne-Ardenne;Marne;Moivre 51371;E4.6667;N48.9167;13;
3;France;Champagne-Ardenne;Marne;Moncetz-l'Abbaye 51373;E4.6500;N48.6500;13;
3;France;Champagne-Ardenne;Marne;Moncetz-Longevas 51372;E4.4333;N48.9167;13;
3;France;Champagne-Ardenne;Marne;Mondement-Montgivroux 51374;E3.7833;N48.7833;13;
3;France;Champagne-Ardenne;Marne;Mont-sur-Courville 51382;E3.6833;N49.2500;13;
3;France;Champagne-Ardenne;Marne;Montbré 51375;E4.0333;N49.1833;13;
3;France;Champagne-Ardenne;Marne;Montépreux 51377;E4.1333;N48.7167;13;
3;France;Champagne-Ardenne;Marne;Montgenost 51376;E3.6000;N48.6000;13;
3;France;Champagne-Ardenne;Marne;Monthelon 51378;E3.9333;N48.9833;13;
3;France;Champagne-Ardenne;Marne;Montigny-sur-Vesle 51379;E3.8000;N49.3167;13;
3;France;Champagne-Ardenne;Marne;Montmirail 51380;E3.5333;N48.8667;13;
3;France;Champagne-Ardenne;Marne;Montmort-Lucy 51381;E3.8000;N48.9167;13;
3;France;Champagne-Ardenne;Marne;Morains 51383=51158;E3.9936;N48.8131;13;
3;France;Champagne-Ardenne;Marne;Morangis 51384;E3.9167;N48.9667;13;
3;France;Champagne-Ardenne;Marne;Moronvilliers 51385=51440;E4.3319;N49.2412;13;
3;France;Champagne-Ardenne;Marne;Morsains 51386;E3.5333;N48.8000;13;
3;France;Champagne-Ardenne;Marne;Moslins 51387;E3.9333;N48.9667;13;
3;France;Champagne-Ardenne;Marne;Mourmelon-le-Grand 51388;E4.3667;N49.1333;13;
3;France;Champagne-Ardenne;Marne;Mourmelon-le-Petit 51389;E4.3167;N49.1333;13;
3;France;Champagne-Ardenne;Marne;Moussy 51390;E3.9167;N49.0167;13;
3;France;Champagne-Ardenne;Marne;Muizon 51391;E3.8833;N49.2667;13;
3;France;Champagne-Ardenne;Marne;Mutigny 51392;E4.0167;N49.0667;13;
3;France;Champagne-Ardenne;Marne;Nanteuil-la-Forêt 51393;E3.9167;N49.1167;13;
3;France;Champagne-Ardenne;Marne;Nauroy 51394=51046;E4.2661;N49.2381;13;
3;France;Champagne-Ardenne;Marne;Nesle-la-Reposte 51395;E3.5500;N48.6333;13;
3;France;Champagne-Ardenne;Marne;Nesle-le-Repons 51396;E3.7167;N49.0500;13;
3;France;Champagne-Ardenne;Marne;Neuville-sous-Arzillières 51400=51017;E4.6167;N48.6500;13;
3;France;Champagne-Ardenne;Marne;Neuvy 51402;E3.5167;N48.7500;13;
3;France;Champagne-Ardenne;Marne;Nogent-l'Abbesse 51403;E4.1500;N49.2500;13;
3;France;Champagne-Ardenne;Marne;Noirlieu 51404;E4.8167;N48.9500;13;
3;France;Champagne-Ardenne;Marne;Normée 51405=51248;E4.0667;N48.7833;13;
3;France;Champagne-Ardenne;Marne;Norrois 51406;E4.6167;N48.6667;13;
3;France;Champagne-Ardenne;Marne;Nuisement-aux-Bois 51408=51277;E4.7745;N48.6067;13;
3;France;Champagne-Ardenne;Marne;Nuisement-sur-Coole 51409;E4.3000;N48.8833;13;
3;France;Champagne-Ardenne;Marne;Oeuilly 51410;E3.8000;N49.0667;13;
3;France;Champagne-Ardenne;Marne;Oger 51411;E4.0167;N48.9500;13;
3;France;Champagne-Ardenne;Marne;Ognes 51412;E3.9000;N48.7000;13;
3;France;Champagne-Ardenne;Marne;Oiry 51413;E4.0500;N49.0167;13;
3;France;Champagne-Ardenne;Marne;Olizy 51414;E3.7583;N49.1500;13;
3;France;Champagne-Ardenne;Marne;Omey 51415;E4.5000;N48.9500;13;
3;France;Champagne-Ardenne;Marne;Orbais-l'Abbaye 51416;E3.6833;N48.9500;13;
3;France;Champagne-Ardenne;Marne;Orconte 51417;E4.7333;N48.6667;13;
3;France;Champagne-Ardenne;Marne;Ormes 51418;E3.9500;N49.2333;13;
3;France;Champagne-Ardenne;Marne;Outines 51419;E4.6500;N48.5500;13;
3;France;Champagne-Ardenne;Marne;Outrepont 51420;E4.6833;N48.7667;13;
3;France;Champagne-Ardenne;Marne;Oyes 51421;E3.7833;N48.8167;13;
3;France;Champagne-Ardenne;Marne;Pargny-lès-Reims 51422;E3.9167;N49.2167;13;
3;France;Champagne-Ardenne;Marne;Pargny-sur-Saulx 51423;E4.8333;N48.7667;13;
3;France;Champagne-Ardenne;Marne;Passavant-en-Argonne 51424;E5.0000;N49.0167;13;
3;France;Champagne-Ardenne;Marne;Passy-Grigny 51425;E3.6833;N49.1167;13;
3;France;Champagne-Ardenne;Marne;Péas 51426;E3.7833;N48.7500;13;
3;France;Champagne-Ardenne;Marne;Perthes-lès-Hurlus 51427=51553;E4.6226;N49.1814;13;
3;France;Champagne-Ardenne;Marne;Pévy 51429;E3.8333;N49.3167;13;
3;France;Champagne-Ardenne;Marne;Pierre-Morains 51430;E4.0167;N48.8333;13;
3;France;Champagne-Ardenne;Marne;Pierry 51431;E3.9333;N49.0167;13;
3;France;Champagne-Ardenne;Marne;Pleurs 51432;E3.8667;N48.6833;13;
3;France;Champagne-Ardenne;Marne;Plichancourt 51433;E4.6667;N48.7500;13;
3;France;Champagne-Ardenne;Marne;Plivot 51434;E4.0667;N49.0167;13;
3;France;Champagne-Ardenne;Marne;Pocancy 51435;E4.1500;N48.9500;13;
3;France;Champagne-Ardenne;Marne;Pogny 51436;E4.4833;N48.8667;13;
3;France;Champagne-Ardenne;Marne;Poilly 51437;E3.8167;N49.2167;13;
3;France;Champagne-Ardenne;Marne;Poix 51438;E4.6333;N48.9667;13;
3;France;Champagne-Ardenne;Marne;Pomacle 51439;E4.1500;N49.3333;13;
3;France;Champagne-Ardenne;Marne;Pontfaverger-Moronvilliers 51440;E4.3167;N49.2833;13;
3;France;Champagne-Ardenne;Marne;Ponthion 51441;E4.7167;N48.7667;13;
3;France;Champagne-Ardenne;Marne;Possesse 51442;E4.8000;N48.8833;13;
3;France;Champagne-Ardenne;Marne;Potangis 51443;E3.6500;N48.5833;13;
3;France;Champagne-Ardenne;Marne;Pouillon 51444;E3.9500;N49.3167;13;
3;France;Champagne-Ardenne;Marne;Pourcy 51445;E3.9167;N49.1500;13;
3;France;Champagne-Ardenne;Marne;Pringy 51446;E4.5167;N48.7833;13;
3;France;Champagne-Ardenne;Marne;Prosnes 51447;E4.2833;N49.1833;13;
3;France;Champagne-Ardenne;Marne;Prouilly 51448;E3.8500;N49.3000;13;
3;France;Champagne-Ardenne;Marne;Prunay 51449;E4.1833;N49.1833;13;
3;France;Champagne-Ardenne;Marne;Puisieulx 51450;E4.1167;N49.1833;13;
3;France;Champagne-Ardenne;Marne;Queudes 51451;E3.7667;N48.6500;13;
3;France;Champagne-Ardenne;Marne;Rapsécourt 51452;E4.8000;N49.0167;13;
3;France;Champagne-Ardenne;Marne;Recy 51453;E4.3167;N48.9833;13;
3;France;Champagne-Ardenne;Marne;Reims 51454;E4.0333;N49.2500;13;
3;France;Champagne-Ardenne;Marne;Reims-la-Brûlée 51455;E4.6667;N48.7167;13;
3;France;Champagne-Ardenne;Marne;Remicourt 51456;E4.8833;N48.9500;13;
3;France;Champagne-Ardenne;Marne;Reuil 51457;E3.8000;N49.0667;13;
3;France;Champagne-Ardenne;Marne;Reuves 51458;E3.8000;N48.8000;13;
3;France;Champagne-Ardenne;Marne;Réveillon 51459;E3.4500;N48.7500;13;
3;France;Champagne-Ardenne;Marne;Rieux 51460;E3.5000;N48.8500;13;
3;France;Champagne-Ardenne;Marne;Rilly-la-Montagne 51461;E4.0500;N49.1667;13;
3;France;Champagne-Ardenne;Marne;Ripont 51462=51470;E4.7081;N49.2280;13;
3;France;Champagne-Ardenne;Marne;Romain 51464;E3.7667;N49.3333;13;
3;France;Champagne-Ardenne;Marne;Romery 51465;E3.9167;N49.1000;13;
3;France;Champagne-Ardenne;Marne;Romigny 51466;E3.7667;N49.1667;13;
3;France;Champagne-Ardenne;Marne;Rosay 51467=51218;E4.7452;N48.8185;13;
3;France;Champagne-Ardenne;Marne;Rosnay 51468;E3.8667;N49.2500;13;
3;France;Champagne-Ardenne;Marne;Rouffy 51469;E4.1000;N48.9333;13;
3;France;Champagne-Ardenne;Marne;Rouvroy-Ripont 51470;E4.7333;N49.2167;13;
3;France;Champagne-Ardenne;Marne;Sacy 51471;E3.9500;N49.2000;13;
3;France;Champagne-Ardenne;Marne;Saint-Amand-sur-Fion 51472;E4.6000;N48.8167;13;
3;France;Champagne-Ardenne;Marne;Saint-Bon 51473;E3.4667;N48.6667;13;
3;France;Champagne-Ardenne;Marne;Saint-Brice-Courcelles 51474;E3.9833;N49.2500;13;
3;France;Champagne-Ardenne;Marne;Saint-Chéron 51475;E4.5667;N48.6333;13;
3;France;Champagne-Ardenne;Marne;Saint-Étienne-au-Temple 51476;E4.4167;N49.0167;13;
3;France;Champagne-Ardenne;Marne;Saint-Étienne-sur-Suippe 51477;E4.1000;N49.3833;13;
3;France;Champagne-Ardenne;Marne;Saint-Eulien 51478;E4.8833;N48.6833;13;
3;France;Champagne-Ardenne;Marne;Saint-Euphraise-et-Clairizet 51479;E3.8833;N49.2000;13;
3;France;Champagne-Ardenne;Marne;Saint-Genest 51481=51071;E3.4648;N48.6566;13;
3;France;Champagne-Ardenne;Marne;Saint-Germain-la-Ville 51482;E4.4500;N48.8833;13;
3;France;Champagne-Ardenne;Marne;Saint-Gibrien 51483;E4.3000;N48.9667;13;
3;France;Champagne-Ardenne;Marne;Saint-Gilles 51484;E3.6833;N49.2833;13;
3;France;Champagne-Ardenne;Marne;Saint-Hilaire-au-Temple 51485;E4.3833;N49.0500;13;
3;France;Champagne-Ardenne;Marne;Saint-Hilaire-le-Grand 51486;E4.4667;N49.1667;13;
3;France;Champagne-Ardenne;Marne;Saint-Hilaire-le-Petit 51487;E4.3833;N49.2667;13;
3;France;Champagne-Ardenne;Marne;Saint-Imoges 51488;E3.9667;N49.1000;13;
3;France;Champagne-Ardenne;Marne;Saint-Jean-devant-Possesse 51489;E4.8000;N48.8833;13;
3;France;Champagne-Ardenne;Marne;Saint-Jean-sur-Moivre 51490;E4.5833;N48.9000;13;
3;France;Champagne-Ardenne;Marne;Saint-Jean-sur-Tourbe 51491;E4.6833;N49.1333;13;
3;France;Champagne-Ardenne;Marne;Saint-Just-Sauvage 51492;E3.7833;N48.5500;13;
3;France;Champagne-Ardenne;Marne;Saint-Léonard 51493;E4.1000;N49.2167;13;
3;France;Champagne-Ardenne;Marne;Saint-Loup 51495;E3.8167;N48.7333;13;
3;France;Champagne-Ardenne;Marne;Saint-Lumier-en-Champagne 51496;E4.6333;N48.8000;13;
3;France;Champagne-Ardenne;Marne;Saint-Lumier-la-Populeuse 51497;E4.8000;N48.7333;13;
3;France;Champagne-Ardenne;Marne;Saint-Mard-lès-Rouffy 51499;E4.1167;N48.9500;13;
3;France;Champagne-Ardenne;Marne;Saint-Mard-sur-Auve 51498;E4.7333;N49.0333;13;
3;France;Champagne-Ardenne;Marne;Saint-Mard-sur-le-Mont 51500;E4.8500;N48.9167;13;
3;France;Champagne-Ardenne;Marne;Saint-Martin-aux-Champs 51502;E4.4833;N48.8167;13;
3;France;Champagne-Ardenne;Marne;Saint-Martin-d'Ablois 51002;E3.8667;N49.0000;13;
3;France;Champagne-Ardenne;Marne;Saint-Martin-l'Heureux 51503;E4.4000;N49.2500;13;
3;France;Champagne-Ardenne;Marne;Saint-Martin-sur-le-Pré 51504;E4.3333;N48.9833;13;
3;France;Champagne-Ardenne;Marne;Saint-Masmes 51505;E4.2667;N49.3167;13;
3;France;Champagne-Ardenne;Marne;Saint-Memmie 51506;E4.3833;N48.9500;13;
3;France;Champagne-Ardenne;Marne;Saint-Ouen-Domprot 51508;E4.4000;N48.6000;13;
3;France;Champagne-Ardenne;Marne;Saint-Pierre 51509;E4.2500;N48.9500;13;
3;France;Champagne-Ardenne;Marne;Saint-Quentin-le-Verger 51511;E3.7500;N48.6167;13;
3;France;Champagne-Ardenne;Marne;Saint-Quentin-les-Marais 51510;E4.6500;N48.7833;13;
3;France;Champagne-Ardenne;Marne;Saint-Quentin-sur-Coole 51512;E4.3333;N48.8500;13;
3;France;Champagne-Ardenne;Marne;Saint-Remy-sous-Broyes 51514;E3.7833;N48.7000;13;
3;France;Champagne-Ardenne;Marne;Saint-Remy-sur-Bussy 51515;E4.5833;N49.0500;13;
3;France;Champagne-Ardenne;Marne;Saint-Saturnin 51516;E3.9000;N48.6167;13;
3;France;Champagne-Ardenne;Marne;Saint-Souplet-sur-Py 51517;E4.4667;N49.2333;13;
3;France;Champagne-Ardenne;Marne;Saint-Thierry 51518;E3.9667;N49.3000;13;
3;France;Champagne-Ardenne;Marne;Saint-Thomas-en-Argonne 51519;E4.8667;N49.1833;13;
3;France;Champagne-Ardenne;Marne;Saint-Utin 51520;E4.5000;N48.5500;13;
3;France;Champagne-Ardenne;Marne;Saint-Vrain 51521;E4.8000;N48.7000;13;
3;France;Champagne-Ardenne;Marne;Sainte-Gemme 51480;E3.6667;N49.1500;13;
3;France;Champagne-Ardenne;Marne;Sainte-Livière 51494=52182;E4.8239;N48.6016;13;
3;France;Champagne-Ardenne;Marne;Sainte-Marie-à-Py 51501;E4.5000;N49.2333;13;
3;France;Champagne-Ardenne;Marne;Sainte-Marie-du-Lac-Nuisement 51277;E4.7667;N48.6000;13;
3;France;Champagne-Ardenne;Marne;Sainte-Menehould 51507;E4.9000;N49.0833;13;
3;France;Champagne-Ardenne;Marne;Sapignicourt 51522;E4.8167;N48.6500;13;
3;France;Champagne-Ardenne;Marne;Sarcy 51523;E3.8167;N49.2000;13;
3;France;Champagne-Ardenne;Marne;Saron-sur-Aube 51524;E3.7333;N48.5667;13;
3;France;Champagne-Ardenne;Marne;Sarry 51525;E4.4000;N48.9167;13;
3;France;Champagne-Ardenne;Marne;Saudoy 51526;E3.7167;N48.6833;13;
3;France;Champagne-Ardenne;Marne;Savigny-sur-Ardres 51527;E3.7833;N49.2333;13;
3;France;Champagne-Ardenne;Marne;Scrupt 51528;E4.7833;N48.7167;13;
3;France;Champagne-Ardenne;Marne;Selles 51529;E4.2833;N49.3000;13;
3;France;Champagne-Ardenne;Marne;Sept-Saulx 51530;E4.2500;N49.1500;13;
3;France;Champagne-Ardenne;Marne;Sermaize-les-Bains 51531;E4.9167;N48.7833;13;
3;France;Champagne-Ardenne;Marne;Sermiers 51532;E3.9833;N49.1500;13;
3;France;Champagne-Ardenne;Marne;Servon-Melzicourt 51533;E4.8500;N49.2167;13;
3;France;Champagne-Ardenne;Marne;Serzy-et-Prin 51534;E3.7667;N49.2500;13;
3;France;Champagne-Ardenne;Marne;Sézanne 51535;E3.7167;N48.7167;13;
3;France;Champagne-Ardenne;Marne;Sillery 51536;E4.1333;N49.2000;13;
3;France;Champagne-Ardenne;Marne;Sivry-Ante 51537;E4.8667;N49.0000;13;
3;France;Champagne-Ardenne;Marne;Sogny-aux-Moulins 51538;E4.4000;N48.9000;13;
3;France;Champagne-Ardenne;Marne;Sogny-en-l'Angle 51539;E4.8000;N48.8167;13;
3;France;Champagne-Ardenne;Marne;Soigny 51540=51264;E3.6228;N48.8298;13;
3;France;Champagne-Ardenne;Marne;Soilly 51541=51217;E3.6167;N49.0667;13;
3;France;Champagne-Ardenne;Marne;Soizy-aux-Bois 51542;E3.7333;N48.8167;13;
3;France;Champagne-Ardenne;Marne;Somme-Bionne 51543;E4.7333;N49.1000;13;
3;France;Champagne-Ardenne;Marne;Somme-Suippe 51546;E4.5833;N49.1167;13;
3;France;Champagne-Ardenne;Marne;Somme-Tourbe 51547;E4.6667;N49.1000;13;
3;France;Champagne-Ardenne;Marne;Somme-Vesle 51548;E4.5833;N48.9833;13;
3;France;Champagne-Ardenne;Marne;Somme-Yèvre 51549;E4.7667;N48.9500;13;
3;France;Champagne-Ardenne;Marne;Sommepy-Tahure 51544;E4.5500;N49.2500;13;
3;France;Champagne-Ardenne;Marne;Sommesous 51545;E4.2000;N48.7333;13;
3;France;Champagne-Ardenne;Marne;Sompuis 51550;E4.3833;N48.6833;13;
3;France;Champagne-Ardenne;Marne;Somsois 51551;E4.5000;N48.6000;13;
3;France;Champagne-Ardenne;Marne;Songy 51552;E4.5000;N48.8000;13;
3;France;Champagne-Ardenne;Marne;Souain-Perthes-lès-Hurlus 51553;E4.5333;N49.1833;13;
3;France;Champagne-Ardenne;Marne;Soudé 51555;E4.3000;N48.7333;13;
3;France;Champagne-Ardenne;Marne;Soudé-Notre-Dame-ou-le-Petit 51554=51555;E4.3098;N48.7473;13;
3;France;Champagne-Ardenne;Marne;Soudron 51556;E4.2000;N48.8500;13;
3;France;Champagne-Ardenne;Marne;Soulanges 51557;E4.5333;N48.7833;13;
3;France;Champagne-Ardenne;Marne;Soulières 51558;E3.9333;N48.9000;13;
3;France;Champagne-Ardenne;Marne;Suippes 51559;E4.5333;N49.1333;13;
3;France;Champagne-Ardenne;Marne;Suizy-le-Franc 51560;E3.7333;N48.9500;13;
3;France;Champagne-Ardenne;Marne;Tahure 51561=51544;E4.6439;N49.2158;13;
3;France;Champagne-Ardenne;Marne;Taissy 51562;E4.1000;N49.2167;13;
3;France;Champagne-Ardenne;Marne;Talus-Saint-Prix 51563;E3.7500;N48.8333;13;
3;France;Champagne-Ardenne;Marne;Tauxières-Mutry 51564;E4.1000;N49.0833;13;
3;France;Champagne-Ardenne;Marne;Thaas 51565;E3.8833;N48.6500;13;
3;France;Champagne-Ardenne;Marne;Thibie 51566;E4.2167;N48.9333;13;
3;France;Champagne-Ardenne;Marne;Thiéblemont-Farémont 51567;E4.7333;N48.6833;13;
3;France;Champagne-Ardenne;Marne;Thil 51568;E3.9667;N49.3167;13;
3;France;Champagne-Ardenne;Marne;Thillois 51569;E3.9500;N49.2500;13;
3;France;Champagne-Ardenne;Marne;Tilloy-et-Bellay 51572;E4.6167;N49.0000;13;
3;France;Champagne-Ardenne;Marne;Tinqueux 51573;E3.9833;N49.2500;13;
3;France;Champagne-Ardenne;Marne;Togny-aux-Boeufs 51574;E4.4500;N48.8500;13;
3;France;Champagne-Ardenne;Marne;Toulon-la-Montagne 51575=51611;E3.8833;N48.8500;13;
3;France;Champagne-Ardenne;Marne;Tours-sur-Marne 51576;E4.1167;N49.0500;13;
3;France;Champagne-Ardenne;Marne;Tramery 51577;E3.8000;N49.2167;13;
3;France;Champagne-Ardenne;Marne;Trécon 51578;E4.0833;N48.8667;13;
3;France;Champagne-Ardenne;Marne;Tréfols 51579;E3.5000;N48.7833;13;
3;France;Champagne-Ardenne;Marne;Trépail 51580;E4.1833;N49.1000;13;
3;France;Champagne-Ardenne;Marne;Treslon 51581;E3.8167;N49.2333;13;
3;France;Champagne-Ardenne;Marne;Trigny 51582;E3.9000;N49.3000;13;
3;France;Champagne-Ardenne;Marne;Trois-Fontaines-l'Abbaye 51583;E4.9500;N48.7167;13;
3;France;Champagne-Ardenne;Marne;Trois-Puits 51584;E4.0333;N49.2000;13;
3;France;Champagne-Ardenne;Marne;Troissy 51585;E3.7167;N49.0833;13;
3;France;Champagne-Ardenne;Marne;Unchair 51586;E3.7500;N49.2833;13;
3;France;Champagne-Ardenne;Marne;Vadenay 51587;E4.4000;N49.0667;13;
3;France;Champagne-Ardenne;Marne;Val-de-Vesle 51571;E4.2167;N49.1667;13;
3;France;Champagne-Ardenne;Marne;Val-de-Vière 51218;E4.7333;N48.8000;13;
3;France;Champagne-Ardenne;Marne;Val-des-Marais 51158;E3.9500;N48.8333;13;
3;France;Champagne-Ardenne;Marne;Valmy 51588;E4.7667;N49.0833;13;
3;France;Champagne-Ardenne;Marne;Vanault-le-Châtel 51589;E4.7333;N48.8667;13;
3;France;Champagne-Ardenne;Marne;Vanault-les-Dames 51590;E4.7667;N48.8500;13;
3;France;Champagne-Ardenne;Marne;Vandeuil 51591;E3.7833;N49.2833;13;
3;France;Champagne-Ardenne;Marne;Vandières 51592;E3.7333;N49.1000;13;
3;France;Champagne-Ardenne;Marne;Varimont 51593=51214;E4.7758;N48.9679;13;
3;France;Champagne-Ardenne;Marne;Vassimont-et-Chapelaine 51594;E4.1500;N48.7667;13;
3;France;Champagne-Ardenne;Marne;Vatry 51595;E4.2500;N48.8167;13;
3;France;Champagne-Ardenne;Marne;Vauchamps 51596;E3.6167;N48.8833;13;
3;France;Champagne-Ardenne;Marne;Vauciennes 51597;E3.8833;N49.0500;13;
3;France;Champagne-Ardenne;Marne;Vauclerc 51598;E4.6500;N48.7167;13;
3;France;Champagne-Ardenne;Marne;Vaudemange 51599;E4.2167;N49.0833;13;
3;France;Champagne-Ardenne;Marne;Vaudesincourt 51600;E4.4000;N49.2167;13;
3;France;Champagne-Ardenne;Marne;Vavray-le-Grand 51601;E4.7167;N48.8000;13;
3;France;Champagne-Ardenne;Marne;Vavray-le-Petit 51602;E4.7167;N48.8000;13;
3;France;Champagne-Ardenne;Marne;Vélye 51603;E4.1167;N48.8833;13;
3;France;Champagne-Ardenne;Marne;Ventelay 51604;E3.8000;N49.3333;13;
3;France;Champagne-Ardenne;Marne;Venteuil 51605;E3.8333;N49.0833;13;
3;France;Champagne-Ardenne;Marne;Verdey 51606=51235;E3.6969;N48.7448;13;
3;France;Champagne-Ardenne;Marne;Verdon 51607;E3.6167;N48.9500;13;
3;France;Champagne-Ardenne;Marne;Vernancourt 51608;E4.8333;N48.8667;13;
3;France;Champagne-Ardenne;Marne;Verneuil 51609;E3.6667;N49.1000;13;
3;France;Champagne-Ardenne;Marne;Verrières 51610;E4.9000;N49.0500;13;
3;France;Champagne-Ardenne;Marne;Vert-Toulon 51611;E3.9000;N48.8333;13;
3;France;Champagne-Ardenne;Marne;Vertus 51612;E4.0000;N48.9000;13;
3;France;Champagne-Ardenne;Marne;Verzenay 51613;E4.1500;N49.1667;13;
3;France;Champagne-Ardenne;Marne;Verzy 51614;E4.1667;N49.1500;13;
3;France;Champagne-Ardenne;Marne;Vésigneul-sur-Coole 51615=51244;E4.3944;N48.7848;13;
3;France;Champagne-Ardenne;Marne;Vésigneul-sur-Marne 51616;E4.4500;N48.8667;13;
3;France;Champagne-Ardenne;Marne;Vienne-la-Ville 51620;E4.8500;N49.1667;13;
3;France;Champagne-Ardenne;Marne;Vienne-le-Château 51621;E4.8833;N49.1833;13;
3;France;Champagne-Ardenne;Marne;Ville-Dommange 51622;E3.9333;N49.2000;13;
3;France;Champagne-Ardenne;Marne;Ville-en-Selve 51623;E4.0833;N49.1167;13;
3;France;Champagne-Ardenne;Marne;Ville-en-Tardenois 51624;E3.8000;N49.1833;13;
3;France;Champagne-Ardenne;Marne;Ville-sur-Tourbe 51640;E4.7833;N49.1833;13;
3;France;Champagne-Ardenne;Marne;Villeneuve-la-Lionne 51625;E3.4500;N48.7667;13;
3;France;Champagne-Ardenne;Marne;Villeneuve-Renneville-Chevigny 51627;E4.0500;N48.9167;13;
3;France;Champagne-Ardenne;Marne;Villers-Allerand 51629;E4.0167;N49.1667;13;
3;France;Champagne-Ardenne;Marne;Villers-aux-Bois 51630;E3.9333;N48.9333;13;
3;France;Champagne-Ardenne;Marne;Villers-aux-Noeuds 51631;E3.9833;N49.1833;13;
3;France;Champagne-Ardenne;Marne;Villers-en-Argonne 51632;E4.9333;N49.0167;13;
3;France;Champagne-Ardenne;Marne;Villers-Franqueux 51633;E3.9333;N49.3333;13;
3;France;Champagne-Ardenne;Marne;Villers-le-Château 51634;E4.2667;N48.9500;13;
3;France;Champagne-Ardenne;Marne;Villers-le-Sec 51635;E4.8500;N48.8167;13;
3;France;Champagne-Ardenne;Marne;Villers-Marmery 51636;E4.2000;N49.1333;13;
3;France;Champagne-Ardenne;Marne;Villers-sous-Châtillon 51637;E3.8000;N49.1000;13;
3;France;Champagne-Ardenne;Marne;Villeseneux 51638;E4.1500;N48.8333;13;
3;France;Champagne-Ardenne;Marne;Villevenard 51641;E3.8000;N48.8333;13;
3;France;Champagne-Ardenne;Marne;Villiers-aux-Corneilles 51642;E3.6833;N48.5833;13;
3;France;Champagne-Ardenne;Marne;Vinay 51643;E3.9000;N49.0167;13;
3;France;Champagne-Ardenne;Marne;Vincelles 51644;E3.6500;N49.1000;13;
3;France;Champagne-Ardenne;Marne;Vindey 51645;E3.7167;N48.7000;13;
3;France;Champagne-Ardenne;Marne;Virginy 51646;E4.7667;N49.1667;13;
3;France;Champagne-Ardenne;Marne;Vitry-en-Perthois 51647;E4.6167;N48.7500;13;
3;France;Champagne-Ardenne;Marne;Vitry-la-Ville 51648;E4.4667;N48.8333;13;
3;France;Champagne-Ardenne;Marne;Vitry-le-François 51649;E4.5833;N48.7333;13;
3;France;Champagne-Ardenne;Marne;Voilemont 51650;E4.8000;N49.0500;13;
3;France;Champagne-Ardenne;Marne;Voipreux 51651;E4.0333;N48.9000;13;
3;France;Champagne-Ardenne;Marne;Vouarces 51652;E3.9000;N48.5833;13;
3;France;Champagne-Ardenne;Marne;Vouciennes 51653=51648;E4.4500;N48.8500;13;
3;France;Champagne-Ardenne;Marne;Vouillers 51654;E4.8333;N48.6833;13;
3;France;Champagne-Ardenne;Marne;Vouzy 51655;E4.1000;N48.9167;13;
3;France;Champagne-Ardenne;Marne;Vraux 51656;E4.2333;N49.0167;13;
3;France;Champagne-Ardenne;Marne;Vrigny 51657;E3.9167;N49.2333;13;
3;France;Champagne-Ardenne;Marne;Vroil 51658;E4.9167;N48.8500;13;
3;France;Champagne-Ardenne;Marne;Wargemoulin-Hurlus 51659;E4.7000;N49.1500;13;
3;France;Champagne-Ardenne;Marne;Warmeriville 51660;E4.2167;N49.3500;13;
3;France;Champagne-Ardenne;Marne;Wez 51661=51571;E4.2109;N49.1777;13;
3;France;Champagne-Ardenne;Marne;Witry-lès-Reims 51662;E4.1167;N49.3000;13;
