"Level";"Country";"State";"County";"Place";"Longitude";"Latitude";"ZoomLevel";"Icon"
2;FRA;Limousin;Corrèze;;E1.73;N45.28;9;
3;FRA;Limousin;Corrèze;Affieux 19001;E1.7642;N45.5209;13;
3;FRA;Limousin;Corrèze;Aix 19002;E2.3833;N45.6167;13;
3;FRA;Limousin;Corrèze;Albignac 19003;E1.6771;N45.1383;13;
3;FRA;Limousin;Corrèze;Albussac 19004;E1.8347;N45.1398;13;
3;FRA;Limousin;Corrèze;Allassac 19005;E1.4751;N45.2582;13;
3;FRA;Limousin;Corrèze;Alleyrat 19006;E2.2158;N45.5762;13;
3;FRA;Limousin;Corrèze;Altillac 19007;E1.8478;N44.9782;13;
3;FRA;Limousin;Corrèze;Ambrugeat 19008;E2.1197;N45.5285;13;
3;FRA;Limousin;Corrèze;Argentat 19010;E1.9372;N45.0947;13;
3;FRA;Limousin;Corrèze;Arnac-Pompadour 19011;E1.3667;N45.4167;13;
3;FRA;Limousin;Corrèze;Astaillac 19012;E1.8304;N44.9536;13;
3;FRA;Limousin;Corrèze;Aubazines 19013;E1.6703;N45.1744;13;
3;FRA;Limousin;Corrèze;Auriac 19014;E2.1667;N45.2000;13;
3;FRA;Limousin;Corrèze;Ayen 19015;E1.3167;N45.2500;13;
3;FRA;Limousin;Corrèze;Bar 19016;E1.8167;N45.3500;13;
3;FRA;Limousin;Corrèze;Bassignac-le-Bas 19017;E1.8667;N45.0167;13;
3;FRA;Limousin;Corrèze;Bassignac-le-Haut 19018;E2.0667;N45.2167;13;
3;FRA;Limousin;Corrèze;Beaulieu-sur-Dordogne 19019;E1.8333;N44.9833;13;
3;FRA;Limousin;Corrèze;Beaumont 19020;E1.8026;N45.4222;13;
3;FRA;Limousin;Corrèze;Bellechassagne 19021;E2.2333;N45.6500;13;
3;FRA;Limousin;Corrèze;Benayes 19022;E1.4667;N45.5167;13;
3;FRA;Limousin;Corrèze;Beynat 19023;E1.8019;N45.4223;13;
3;FRA;Limousin;Corrèze;Beyssac 19024;E1.4000;N45.3667;13;
3;FRA;Limousin;Corrèze;Beyssenac 19025;E1.2667;N45.4000;13;
3;FRA;Limousin;Corrèze;Billac 19026;E1.7833;N44.9500;13;
3;FRA;Limousin;Corrèze;Bonnefond 19027;E1.9833;N45.5333;13;
3;FRA;Limousin;Corrèze;Bort-les-Orgues 19028;E2.5000;N45.4000;13;
3;FRA;Limousin;Corrèze;Branceilles 19029;E1.7000;N45.0167;13;
3;FRA;Limousin;Corrèze;Brignac-la-Plaine 19030;E1.3333;N45.1833;13;
3;FRA;Limousin;Corrèze;Brive-la-Gaillarde 19031;E1.5333;N45.1500;13;
3;FRA;Limousin;Corrèze;Brivezac 19032;E1.8500;N45.0333;13;
3;FRA;Limousin;Corrèze;Bugeat 19033;E1.9333;N45.6000;13;
3;FRA;Limousin;Corrèze;Camps-Saint-Mathurin-Léobazel 19034;E1.9896;N44.9832;13;
3;FRA;Limousin;Corrèze;Chabrignac 19035;E1.3333;N45.3167;13;
3;FRA;Limousin;Corrèze;Chamberet 19036;E1.7167;N45.5833;13;
3;FRA;Limousin;Corrèze;Chamboulive 19037;E1.7000;N45.4333;13;
3;FRA;Limousin;Corrèze;Chameyrat 19038;E1.7000;N45.2333;13;
3;FRA;Limousin;Corrèze;Champagnac-la-Noaille 19039;E2.0167;N45.3167;13;
3;FRA;Limousin;Corrèze;Champagnac-la-Prune 19040;E1.9833;N45.1833;13;
3;FRA;Limousin;Corrèze;Chanac-les-Mines 19041;E1.8167;N45.2667;13;
3;FRA;Limousin;Corrèze;Chanteix 19042;E1.6333;N45.3000;13;
3;FRA;Limousin;Corrèze;Chapelle-Spinasse 19046;E2.0426;N45.3602;13;
3;FRA;Limousin;Corrèze;Chartrier-Ferrière 19047;E1.4333;N45.0667;13;
3;FRA;Limousin;Corrèze;Chasteaux 19049;E1.4667;N45.1000;13;
3;FRA;Limousin;Corrèze;Chauffour-sur-Vell 19050;E1.6667;N45.0167;13;
3;FRA;Limousin;Corrèze;Chaumeil 19051;E1.8813;N45.4561;13;
3;FRA;Limousin;Corrèze;Chavanac 19052;E2.1000;N45.6333;13;
3;FRA;Limousin;Corrèze;Chaveroche 19053;E2.2500;N45.5833;13;
3;FRA;Limousin;Corrèze;Chenailler-Mascheix 19054;E1.8047;N45.0696;13;
3;FRA;Limousin;Corrèze;Chirac-Bellevue 19055;E2.3167;N45.4500;13;
3;FRA;Limousin;Corrèze;Clergoux 19056;E1.9833;N45.2833;13;
3;FRA;Limousin;Corrèze;Collonges-la-Rouge 19057;E1.6556;N45.0619;13;
3;FRA;Limousin;Corrèze;Combressol 19058;E2.1667;N45.4833;13;
3;FRA;Limousin;Corrèze;Concèze 19059;E1.3500;N45.3500;13;
3;FRA;Limousin;Corrèze;Condat-sur-Ganaveix 19060;E1.6000;N45.4667;13;
3;FRA;Limousin;Corrèze;Confolent-Port-Dieu 19167;E2.5167;N45.5500;13;
3;FRA;Limousin;Corrèze;Cornil 19061;E1.6833;N45.2167;13;
3;FRA;Limousin;Corrèze;Corrèze 19062;E1.8833;N45.3667;13;
3;FRA;Limousin;Corrèze;Cosnac 19063;E1.6000;N45.1333;13;
3;FRA;Limousin;Corrèze;Couffy-sur-Sarsonne 19064;E2.3333;N45.6667;13;
3;FRA;Limousin;Corrèze;Courteix 19065;E2.3500;N45.6500;13;
3;FRA;Limousin;Corrèze;Cublac 19066;E1.3167;N45.1500;13;
3;FRA;Limousin;Corrèze;Curemonte 19067;E1.7500;N45.0000;13;
3;FRA;Limousin;Corrèze;Dampniat 19068;E1.6333;N45.1667;13;
3;FRA;Limousin;Corrèze;Darazac 19069;E2.1000;N45.1833;13;
3;FRA;Limousin;Corrèze;Darnets 19070;E2.1104;N45.4261;13;
3;FRA;Limousin;Corrèze;Davignac 19071;E2.1000;N45.4833;13;
3;FRA;Limousin;Corrèze;Donzenac 19072;E1.5333;N45.2333;13;
3;FRA;Limousin;Corrèze;Égletons 19073;E2.0500;N45.4000;13;
3;FRA;Limousin;Corrèze;Espagnac 19075;E1.9000;N45.2333;13;
3;FRA;Limousin;Corrèze;Espartignac 19076;E1.6000;N45.4167;13;
3;FRA;Limousin;Corrèze;Estivals 19077;E1.4667;N45.0333;13;
3;FRA;Limousin;Corrèze;Estivaux 19078;E1.4833;N45.3167;13;
3;FRA;Limousin;Corrèze;Eyburie 19079;E1.6333;N45.4500;13;
3;FRA;Limousin;Corrèze;Eygurande 19080;E2.4667;N45.6667;13;
3;FRA;Limousin;Corrèze;Eyrein 19081;E1.9500;N45.3333;13;
3;FRA;Limousin;Corrèze;Favars 19082;E1.6667;N45.2667;13;
3;FRA;Limousin;Corrèze;Feyt 19083;E2.4833;N45.7000;13;
3;FRA;Limousin;Corrèze;Forgès 19084;E1.8833;N45.1667;13;
3;FRA;Limousin;Corrèze;Gimel-les-Cascades 19085;E1.8516;N45.2990;13;
3;FRA;Limousin;Corrèze;Goulles 19086;E2.0833;N45.0500;13;
3;FRA;Limousin;Corrèze;Gourdon-Murat 19087;E1.9000;N45.5333;13;
3;FRA;Limousin;Corrèze;Grandsaigne 19088;E1.9333;N45.4833;13;
3;FRA;Limousin;Corrèze;Gros-Chastang 19089;E1.9833;N45.2167;13;
3;FRA;Limousin;Corrèze;Gumond 19090;E1.9833;N45.2167;13;
3;FRA;Limousin;Corrèze;Hautefage 19091;E2.0167;N45.0833;13;
3;FRA;Limousin;Corrèze;Jugeals-Nazareth 19093;E1.5500;N45.0833;13;
3;FRA;Limousin;Corrèze;Juillac 19094;E1.3167;N45.3167;13;
3;FRA;Limousin;Corrèze;L'Église-aux-Bois 19074;E1.8000;N45.6500;13;
3;FRA;Limousin;Corrèze;La Chapelle-aux-Brocs 19043;E1.6167;N45.1500;13;
3;FRA;Limousin;Corrèze;La Chapelle-aux-Saints 19044;E1.7167;N44.9833;13;
3;FRA;Limousin;Corrèze;La Chapelle-Saint-Géraud 19045;E1.9667;N45.0333;13;
3;FRA;Limousin;Corrèze;La Roche-Canillac 19174;E1.9667;N45.2000;13;
3;FRA;Limousin;Corrèze;La Tourette 19267=19275;E2.3167;N45.5833;13;
3;FRA;Limousin;Corrèze;Lacelle 19095;E1.8167;N45.6500;13;
3;FRA;Limousin;Corrèze;Ladignac-sur-Rondelles 19096;E1.8363;N45.2326;13;
3;FRA;Limousin;Corrèze;Lafage-sur-Sombre 19097;E2.0833;N45.3000;13;
3;FRA;Limousin;Corrèze;Lagarde-Enval 19098;E1.8167;N45.1833;13;
3;FRA;Limousin;Corrèze;Lagleygeolle 19099;E1.7000;N45.0833;13;
3;FRA;Limousin;Corrèze;Lagraulière 19100;E1.6333;N45.3500;13;
3;FRA;Limousin;Corrèze;Laguenne 19101;E1.7833;N45.2333;13;
3;FRA;Limousin;Corrèze;Lamazière-Basse 19102;E2.1667;N45.3667;13;
3;FRA;Limousin;Corrèze;Lamazière-Haute 19103;E2.4000;N45.6667;13;
3;FRA;Limousin;Corrèze;Lamongerie 19104;E1.5667;N45.5333;13;
3;FRA;Limousin;Corrèze;Lanteuil 19105;E1.6667;N45.1333;13;
3;FRA;Limousin;Corrèze;Lapleau 19106;E2.1667;N45.2833;13;
3;FRA;Limousin;Corrèze;Larche 19107;E1.4167;N45.1167;13;
3;FRA;Limousin;Corrèze;Laroche-près-Feyt 19108;E2.5167;N45.7000;13;
3;FRA;Limousin;Corrèze;Lascaux 19109;E1.3667;N45.3333;13;
3;FRA;Limousin;Corrèze;Latronche 19110;E2.2304;N45.2959;13;
3;FRA;Limousin;Corrèze;Laval-sur-Luzège 19111;E2.1500;N45.2333;13;
3;FRA;Limousin;Corrèze;Le Chastang 19048;E1.7333;N45.1833;13;
3;FRA;Limousin;Corrèze;Le Jardin 19092;E2.0500;N45.3167;13;
3;FRA;Limousin;Corrèze;Le Lonzac 19118;E1.7167;N45.4667;13;
3;FRA;Limousin;Corrèze;Le Pescher 19163;E1.7333;N45.0833;13;
3;FRA;Limousin;Corrèze;Les Angles-sur-Corrèze 19009;E1.8000;N45.3000;13;
3;FRA;Limousin;Corrèze;Lestards 19112;E1.8667;N45.5167;13;
3;FRA;Limousin;Corrèze;Liginiac 19113;E2.3331;N45.4148;13;
3;FRA;Limousin;Corrèze;Lignareix 19114;E2.3000;N45.6167;13;
3;FRA;Limousin;Corrèze;Ligneyrac 19115;E1.6167;N45.0500;13;
3;FRA;Limousin;Corrèze;Liourdres 19116;E1.8000;N44.9333;13;
3;FRA;Limousin;Corrèze;Lissac-sur-Couze 19117;E1.4667;N45.1000;13;
3;FRA;Limousin;Corrèze;Lostanges 19119;E1.7667;N45.0667;13;
3;FRA;Limousin;Corrèze;Louignac 19120;E1.2667;N45.2167;13;
3;FRA;Limousin;Corrèze;Lubersac 19121;E1.4000;N45.4500;13;
3;FRA;Limousin;Corrèze;Madranges 19122;E1.7833;N45.4833;13;
3;FRA;Limousin;Corrèze;Malemort-sur-Corrèze 19123;E1.5500;N45.1667;13;
3;FRA;Limousin;Corrèze;Mansac 19124;E1.3833;N45.1667;13;
3;FRA;Limousin;Corrèze;Marc-la-Tour 19127;E1.8500;N45.2000;13;
3;FRA;Limousin;Corrèze;Marcillac-la-Croisille 19125;E2.0333;N45.2833;13;
3;FRA;Limousin;Corrèze;Marcillac-la-Croze 19126;E1.7455;N45.0362;13;
3;FRA;Limousin;Corrèze;Margerides 19128;E2.4000;N45.4500;13;
3;FRA;Limousin;Corrèze;Masseret 19129;E1.5167;N45.5333;13;
3;FRA;Limousin;Corrèze;Maussac 19130;E2.1500;N45.4833;13;
3;FRA;Limousin;Corrèze;Meilhards 19131;E1.6500;N45.5500;13;
3;FRA;Limousin;Corrèze;Ménoire 19132;E1.8000;N45.1000;13;
3;FRA;Limousin;Corrèze;Mercoeur 19133;E1.9500;N45.0167;13;
3;FRA;Limousin;Corrèze;Merlines 19134;E2.4602;N45.6469;13;
3;FRA;Limousin;Corrèze;Mestes 19135;E2.3167;N45.5000;13;
3;FRA;Limousin;Corrèze;Meymac 19136;E2.1667;N45.5333;13;
3;FRA;Limousin;Corrèze;Meyrignac-l'Église 19137;E1.8500;N45.4000;13;
3;FRA;Limousin;Corrèze;Meyssac 19138;E1.6667;N45.0500;13;
3;FRA;Limousin;Corrèze;Millevaches 19139;E2.1000;N45.6500;13;
3;FRA;Limousin;Corrèze;Monceaux-sur-Dordogne 19140;E1.9167;N45.0833;13;
3;FRA;Limousin;Corrèze;Monestier-Merlines 19141;E2.4833;N45.6500;13;
3;FRA;Limousin;Corrèze;Monestier-Port-Dieu 19142;E2.5167;N45.5000;13;
3;FRA;Limousin;Corrèze;Montaignac-Saint-Hippolyte 19143;E2.0167;N45.3500;13;
3;FRA;Limousin;Corrèze;Montgibaud 19144;E1.4167;N45.5167;13;
3;FRA;Limousin;Corrèze;Moustier-Ventadour 19145;E2.1167;N45.4000;13;
3;FRA;Limousin;Corrèze;Naves 19146;E1.7667;N45.3167;13;
3;FRA;Limousin;Corrèze;Nespouls 19147;E1.5000;N45.0500;13;
3;FRA;Limousin;Corrèze;Neuvic 19148;E2.2833;N45.3833;13;
3;FRA;Limousin;Corrèze;Neuville 19149;E1.8333;N45.1167;13;
3;FRA;Limousin;Corrèze;Noailhac 19150;E1.6000;N45.0833;13;
3;FRA;Limousin;Corrèze;Noailles 19151;E1.5333;N45.1000;13;
3;FRA;Limousin;Corrèze;Nonards 19152;E1.8000;N45.0333;13;
3;FRA;Limousin;Corrèze;Objat 19153;E1.4167;N45.2667;13;
3;FRA;Limousin;Corrèze;Orgnac-sur-Vézère 19154;E1.4333;N45.3333;13;
3;FRA;Limousin;Corrèze;Orliac-de-Bar 19155;E1.8000;N45.3667;13;
3;FRA;Limousin;Corrèze;Palazinges 19156;E1.7000;N45.1500;13;
3;FRA;Limousin;Corrèze;Palisse 19157;E2.2167;N45.4167;13;
3;FRA;Limousin;Corrèze;Pandrignes 19158;E1.8500;N45.2333;13;
3;FRA;Limousin;Corrèze;Péret-Bel-Air 19159;E2.0500;N45.4833;13;
3;FRA;Limousin;Corrèze;Pérols-sur-Vézère 19160;E1.9833;N45.5833;13;
3;FRA;Limousin;Corrèze;Perpezac-le-Blanc 19161;E1.3333;N45.2167;13;
3;FRA;Limousin;Corrèze;Perpezac-le-Noir 19162;E1.5500;N45.3167;13;
3;FRA;Limousin;Corrèze;Peyrelevade 19164;E2.0667;N45.7000;13;
3;FRA;Limousin;Corrèze;Peyrissac 19165;E1.6833;N45.5000;13;
3;FRA;Limousin;Corrèze;Pierrefitte 19166;E1.6167;N45.4167;13;
3;FRA;Limousin;Corrèze;Pradines 19168;E1.9167;N45.5167;13;
3;FRA;Limousin;Corrèze;Puy-d'Arnac 19169;E1.8000;N45.0333;13;
3;FRA;Limousin;Corrèze;Queyssac-les-Vignes 19170;E1.7667;N44.9667;13;
3;FRA;Limousin;Corrèze;Reygade 19171;E1.9167;N45.0167;13;
3;FRA;Limousin;Corrèze;Rilhac-Treignac 19172;E1.6667;N45.5333;13;
3;FRA;Limousin;Corrèze;Rilhac-Xaintrie 19173;E2.2000;N45.1667;13;
3;FRA;Limousin;Corrèze;Roche-le-Peyroux 19175;E2.3667;N45.4333;13;
3;FRA;Limousin;Corrèze;Rosiers-d'Égletons 19176;E2.0167;N45.3833;13;
3;FRA;Limousin;Corrèze;Rosiers-de-Juillac 19177;E1.3000;N45.3000;13;
3;FRA;Limousin;Corrèze;Sadroc 19178;E1.5500;N45.2833;13;
3;FRA;Limousin;Corrèze;Saillac 19179;E1.6333;N45.0333;13;
3;FRA;Limousin;Corrèze;Saint-Angel 19180;E2.2333;N45.5000;13;
3;FRA;Limousin;Corrèze;Saint-Augustin 19181;E1.8333;N45.4167;13;
3;FRA;Limousin;Corrèze;Saint-Aulaire 19182;E1.3667;N45.2333;13;
3;FRA;Limousin;Corrèze;Saint-Bazile-de-la-Roche 19183;E1.9667;N45.1667;13;
3;FRA;Limousin;Corrèze;Saint-Bazile-de-Meyssac 19184;E1.7333;N45.0500;13;
3;FRA;Limousin;Corrèze;Saint-Bonnet-Avalouze 19185;E1.8330;N45.2564;13;
3;FRA;Limousin;Corrèze;Saint-Bonnet-Elvert 19186;E1.9167;N45.1667;13;
3;FRA;Limousin;Corrèze;Saint-Bonnet-l'Enfantier 19188;E1.5167;N45.3000;13;
3;FRA;Limousin;Corrèze;Saint-Bonnet-la-Rivière 19187;E1.3667;N45.3000;13;
3;FRA;Limousin;Corrèze;Saint-Bonnet-les-Tours-de-Merle 19189;E2.0833;N45.0667;13;
3;FRA;Limousin;Corrèze;Saint-Bonnet-près-Bort 19190;E2.4167;N45.5000;13;
3;FRA;Limousin;Corrèze;Saint-Cernin-de-Larche 19191;E1.4167;N45.1000;13;
3;FRA;Limousin;Corrèze;Saint-Chamant 19192;E1.9000;N45.1333;13;
3;FRA;Limousin;Corrèze;Saint-Cirgues-la-Loutre 19193;E2.1167;N45.0833;13;
3;FRA;Limousin;Corrèze;Saint-Clément 19194;E1.6833;N45.3333;13;
3;FRA;Limousin;Corrèze;Saint-Cyprien 19195;E1.3500;N45.2500;13;
3;FRA;Limousin;Corrèze;Saint-Cyr-la-Roche 19196;E1.4000;N45.2667;13;
3;FRA;Limousin;Corrèze;Saint-Dézery 19197=19275;E2.3667;N45.5833;13;
3;FRA;Limousin;Corrèze;Saint-Éloy-les-Tuileries 19198;E1.2833;N45.4500;13;
3;FRA;Limousin;Corrèze;Saint-Étienne-aux-Clos 19199;E2.4667;N45.5667;13;
3;FRA;Limousin;Corrèze;Saint-Étienne-la-Geneste 19200;E2.3500;N45.4500;13;
3;FRA;Limousin;Corrèze;Saint-Exupéry-les-Roches 19201;E2.3833;N45.5167;13;
3;FRA;Limousin;Corrèze;Saint-Fréjoux 19204;E2.3833;N45.5333;13;
3;FRA;Limousin;Corrèze;Saint-Geniez-ô-Merle 19205;E2.0833;N45.0667;13;
3;FRA;Limousin;Corrèze;Saint-Germain-Lavolps 19206;E2.2167;N45.6167;13;
3;FRA;Limousin;Corrèze;Saint-Germain-les-Vergnes 19207;E1.6333;N45.2667;13;
3;FRA;Limousin;Corrèze;Saint-Hilaire-Foissac 19208;E2.1333;N45.3333;13;
3;FRA;Limousin;Corrèze;Saint-Hilaire-les-Courbes 19209;E1.8333;N45.6000;13;
3;FRA;Limousin;Corrèze;Saint-Hilaire-Luc 19210;E2.2000;N45.3667;13;
3;FRA;Limousin;Corrèze;Saint-Hilaire-Peyroux 19211;E1.6500;N45.2167;13;
3;FRA;Limousin;Corrèze;Saint-Hilaire-Taurieux 19212;E1.8500;N45.0667;13;
3;FRA;Limousin;Corrèze;Saint-Jal 19213;E1.6333;N45.4000;13;
3;FRA;Limousin;Corrèze;Saint-Julien-aux-Bois 19214;E2.1333;N45.1333;13;
3;FRA;Limousin;Corrèze;Saint-Julien-le-Pèlerin 19215;E2.1000;N45.0167;13;
3;FRA;Limousin;Corrèze;Saint-Julien-le-Vendômois 19216;E1.3167;N45.4667;13;
3;FRA;Limousin;Corrèze;Saint-Julien-Maumont 19217;E1.7833;N45.0333;13;
3;FRA;Limousin;Corrèze;Saint-Julien-près-Bort 19218;E2.4000;N45.4167;13;
3;FRA;Limousin;Corrèze;Saint-Martial-de-Gimel 19220;E1.8667;N45.2667;13;
3;FRA;Limousin;Corrèze;Saint-Martial-Entraygues 19221;E1.9833;N45.1167;13;
3;FRA;Limousin;Corrèze;Saint-Martin-la-Méanne 19222;E1.9833;N45.1667;13;
3;FRA;Limousin;Corrèze;Saint-Martin-Sepert 19223;E1.4667;N45.4333;13;
3;FRA;Limousin;Corrèze;Saint-Mathurin-Léobazel 19224=19034;E2.0333;N45.0167;13;
3;FRA;Limousin;Corrèze;Saint-Merd-de-Lapleau 19225;E2.0833;N45.2667;13;
3;FRA;Limousin;Corrèze;Saint-Merd-les-Oussines 19226;E2.0500;N45.6333;13;
3;FRA;Limousin;Corrèze;Saint-Mexant 19227;E1.6500;N45.2833;13;
3;FRA;Limousin;Corrèze;Saint-Pantaléon-de-Lapleau 19228;E2.2000;N45.3167;13;
3;FRA;Limousin;Corrèze;Saint-Pantaléon-de-Larche 19229;E1.4500;N45.1333;13;
3;FRA;Limousin;Corrèze;Saint-Pardoux-Corbier 19230;E1.4500;N45.4333;13;
3;FRA;Limousin;Corrèze;Saint-Pardoux-l'Ortigier 19234;E1.5667;N45.3000;13;
3;FRA;Limousin;Corrèze;Saint-Pardoux-la-Croisille 19231;E1.9833;N45.2500;13;
3;FRA;Limousin;Corrèze;Saint-Pardoux-le-Neuf 19232;E2.3309;N45.6113;13;
3;FRA;Limousin;Corrèze;Saint-Pardoux-le-Vieux 19233;E2.2833;N45.6167;13;
3;FRA;Limousin;Corrèze;Saint-Paul 19235;E1.9000;N45.2167;13;
3;FRA;Limousin;Corrèze;Saint-Priest-de-Gimel 19236;E1.8667;N45.3000;13;
3;FRA;Limousin;Corrèze;Saint-Privat 19237;E2.1000;N45.1333;13;
3;FRA;Limousin;Corrèze;Saint-Rémy 19238;E2.2833;N45.6500;13;
3;FRA;Limousin;Corrèze;Saint-Robert 19239;E1.3000;N45.2500;13;
3;FRA;Limousin;Corrèze;Saint-Salvadour 19240;E1.7667;N45.3833;13;
3;FRA;Limousin;Corrèze;Saint-Setiers 19241;E2.1333;N45.7000;13;
3;FRA;Limousin;Corrèze;Saint-Solve 19242;E1.4000;N45.3000;13;
3;FRA;Limousin;Corrèze;Saint-Sornin-Lavolps 19243;E1.3667;N45.3833;13;
3;FRA;Limousin;Corrèze;Saint-Sulpice-les-Bois 19244;E2.1500;N45.6167;13;
3;FRA;Limousin;Corrèze;Saint-Sylvain 19245;E1.8833;N45.1833;13;
3;FRA;Limousin;Corrèze;Saint-Viance 19246;E1.4500;N45.2167;13;
3;FRA;Limousin;Corrèze;Saint-Victour 19247;E2.3833;N45.4667;13;
3;FRA;Limousin;Corrèze;Saint-Ybard 19248;E1.5333;N45.4500;13;
3;FRA;Limousin;Corrèze;Saint-Yrieix-le-Déjalat 19249;E1.9667;N45.4500;13;
3;FRA;Limousin;Corrèze;Sainte-Féréole 19202;E1.5833;N45.2333;13;
3;FRA;Limousin;Corrèze;Sainte-Fortunade 19203;E1.7667;N45.2000;13;
3;FRA;Limousin;Corrèze;Sainte-Marie-Lapanouze 19219;E2.3500;N45.4333;13;
3;FRA;Limousin;Corrèze;Salon-la-Tour 19250;E1.5333;N45.5000;13;
3;FRA;Limousin;Corrèze;Sarran 19251;E1.9500;N45.4167;13;
3;FRA;Limousin;Corrèze;Sarroux 19252;E2.4333;N45.4167;13;
3;FRA;Limousin;Corrèze;Segonzac 19253;E1.2667;N45.2667;13;
3;FRA;Limousin;Corrèze;Ségur-le-Château 19254;E1.3167;N45.4333;13;
3;FRA;Limousin;Corrèze;Seilhac 19255;E1.7167;N45.3667;13;
3;FRA;Limousin;Corrèze;Sérandon 19256;E2.3500;N45.3667;13;
3;FRA;Limousin;Corrèze;Sérilhac 19257;E1.7333;N45.1000;13;
3;FRA;Limousin;Corrèze;Servières-le-Château 19258;E2.0333;N45.1333;13;
3;FRA;Limousin;Corrèze;Sexcles 19259;E2.0167;N45.0500;13;
3;FRA;Limousin;Corrèze;Sioniac 19260;E1.8167;N44.9833;13;
3;FRA;Limousin;Corrèze;Sornac 19261;E2.2000;N45.6667;13;
3;FRA;Limousin;Corrèze;Soudaine-Lavinadière 19262;E1.7333;N45.5500;13;
3;FRA;Limousin;Corrèze;Soudeilles 19263;E2.0833;N45.4500;13;
3;FRA;Limousin;Corrèze;Soursac 19264;E2.2000;N45.2833;13;
3;FRA;Limousin;Corrèze;Tarnac 19265;E1.9500;N45.6833;13;
3;FRA;Limousin;Corrèze;Thalamy 19266;E2.4594;N45.5142;13;
3;FRA;Limousin;Corrèze;Toy-Viam 19268;E1.9333;N45.6500;13;
3;FRA;Limousin;Corrèze;Treignac 19269;E1.8000;N45.5333;13;
3;FRA;Limousin;Corrèze;Troche 19270;E1.4333;N45.3833;13;
3;FRA;Limousin;Corrèze;Tudeils 19271;E1.8000;N45.0500;13;
3;FRA;Limousin;Corrèze;Tulle 19272;E1.7667;N45.2667;13;
3;FRA;Limousin;Corrèze;Turenne 19273;E1.5833;N45.0500;13;
3;FRA;Limousin;Corrèze;Ussac 19274;E1.6167;N45.1167;13;
3;FRA;Limousin;Corrèze;Ussel 19275;E2.3167;N45.5500;13;
3;FRA;Limousin;Corrèze;Uzerche 19276;E1.5667;N45.4167;13;
3;FRA;Limousin;Corrèze;Valiergues 19277;E2.3000;N45.4833;13;
3;FRA;Limousin;Corrèze;Varetz 19278;E1.4500;N45.2000;13;
3;FRA;Limousin;Corrèze;Vars-sur-Roseix 19279;E1.3667;N45.2500;13;
3;FRA;Limousin;Corrèze;Végennes 19280;E1.7500;N44.9833;13;
3;FRA;Limousin;Corrèze;Veix 19281;E1.8333;N45.5167;13;
3;FRA;Limousin;Corrèze;Venarsal 19282;E1.6167;N45.2000;13;
3;FRA;Limousin;Corrèze;Veyrières 19283;E2.3936;N45.4901;13;
3;FRA;Limousin;Corrèze;Viam 19284;E1.8833;N45.6000;13;
3;FRA;Limousin;Corrèze;Vigeois 19285;E1.5167;N45.3833;13;
3;FRA;Limousin;Corrèze;Vignols 19286;E1.4000;N45.3167;13;
3;FRA;Limousin;Corrèze;Vitrac-sur-Montane 19287;E1.9500;N45.3833;13;
3;FRA;Limousin;Corrèze;Voutezac 19288;E1.4333;N45.2833;13;
3;FRA;Limousin;Corrèze;Yssandon 19289;E1.3667;N45.2000;13;
2;FRA;Limousin;Creuse;;E2.13;N46.06;9;
3;FRA;Limousin;Creuse;Ahun 23001;E2.0500;N46.0833;13;
3;FRA;Limousin;Creuse;Ajain 23002;E2.0000;N46.2000;13;
3;FRA;Limousin;Creuse;Alleyrat 23003;E2.1500;N45.9833;13;
3;FRA;Limousin;Creuse;Anzême 23004;E1.8667;N46.2667;13;
3;FRA;Limousin;Creuse;Arfeuille-Châtain 23005;E2.4333;N46.0667;13;
3;FRA;Limousin;Creuse;Arrènes 23006;E1.5667;N46.0667;13;
3;FRA;Limousin;Creuse;Ars 23007;E2.0667;N46.0000;13;
3;FRA;Limousin;Creuse;Aubusson 23008;E2.1667;N45.9500;13;
3;FRA;Limousin;Creuse;Auge 23009;E2.3167;N46.2500;13;
3;FRA;Limousin;Creuse;Augères 23010;E1.7333;N46.0833;13;
3;FRA;Limousin;Creuse;Aulon 23011;E1.7000;N46.0833;13;
3;FRA;Limousin;Creuse;Auriat 23012;E1.6333;N45.8833;13;
3;FRA;Limousin;Creuse;Auzances 23013;E2.5000;N46.0167;13;
3;FRA;Limousin;Creuse;Azat-Châtenet 23014;E1.7667;N46.0667;13;
3;FRA;Limousin;Creuse;Azerables 23015;E1.4833;N46.3500;13;
3;FRA;Limousin;Creuse;Banize 23016;E1.9972;N45.9305;13;
3;FRA;Limousin;Creuse;Basville 23017;E2.4000;N45.8667;13;
3;FRA;Limousin;Creuse;Bazelat 23018;E1.5333;N46.3500;13;
3;FRA;Limousin;Creuse;Beissat 23019;E2.2833;N45.7667;13;
3;FRA;Limousin;Creuse;Bellegarde-en-Marche 23020;E2.3000;N45.9833;13;
3;FRA;Limousin;Creuse;Bénévent-l'Abbaye 23021;E1.6333;N46.1167;13;
3;FRA;Limousin;Creuse;Bétête 23022;E2.0833;N46.3667;13;
3;FRA;Limousin;Creuse;Blaudeix 23023;E2.0667;N46.2333;13;
3;FRA;Limousin;Creuse;Blessac 23024;E2.1167;N45.9500;13;
3;FRA;Limousin;Creuse;Bonnat 23025;E1.9000;N46.3333;13;
3;FRA;Limousin;Creuse;Bord-Saint-Georges 23026;E2.3000;N46.2667;13;
3;FRA;Limousin;Creuse;Bosmoreau-les-Mines 23027;E1.7539;N45.9998;13;
3;FRA;Limousin;Creuse;Bosroger 23028;E1.7500;N46.0000;13;
3;FRA;Limousin;Creuse;Bourganeuf 23030;E1.7500;N45.9500;13;
3;FRA;Limousin;Creuse;Boussac 23031;E2.2130;N46.3488;13;
3;FRA;Limousin;Creuse;Boussac-Bourg 23032;E2.2333;N46.3667;13;
3;FRA;Limousin;Creuse;Brousse 23034;E2.4500;N45.9667;13;
3;FRA;Limousin;Creuse;Budelière 23035;E2.4667;N46.2167;13;
3;FRA;Limousin;Creuse;Bussière-Dunoise 23036;E1.7667;N46.2667;13;
3;FRA;Limousin;Creuse;Bussière-Nouvelle 23037;E2.4167;N46.0167;13;
3;FRA;Limousin;Creuse;Bussière-Saint-Georges 23038;E2.1333;N46.4000;13;
3;FRA;Limousin;Creuse;Ceyroux 23042;E1.6667;N46.0667;13;
3;FRA;Limousin;Creuse;Chamberaud 23043;E2.0333;N46.0500;13;
3;FRA;Limousin;Creuse;Chambon-Sainte-Croix 23044;E1.7667;N46.3500;13;
3;FRA;Limousin;Creuse;Chambon-sur-Voueize 23045;E2.4167;N46.1833;13;
3;FRA;Limousin;Creuse;Chambonchard 23046;E2.5500;N46.1833;13;
3;FRA;Limousin;Creuse;Chamborand 23047;E1.5667;N46.1500;13;
3;FRA;Limousin;Creuse;Champagnat 23048;E2.2833;N46.0167;13;
3;FRA;Limousin;Creuse;Champsanglard 23049;E1.8833;N46.2667;13;
3;FRA;Limousin;Creuse;Chard 23053;E2.4833;N45.9500;13;
3;FRA;Limousin;Creuse;Charron 23054;E2.5667;N46.0667;13;
3;FRA;Limousin;Creuse;Châtelard 23055;E2.4667;N45.9667;13;
3;FRA;Limousin;Creuse;Châtelus-le-Marcheix 23056;E1.6000;N46.0000;13;
3;FRA;Limousin;Creuse;Châtelus-Malvaleix 23057;E2.0167;N46.3000;13;
3;FRA;Limousin;Creuse;Chavanat 23060;E1.9667;N45.9500;13;
3;FRA;Limousin;Creuse;Chénérailles 23061;E2.1667;N46.1167;13;
3;FRA;Limousin;Creuse;Chéniers 23062;E1.8333;N46.3500;13;
3;FRA;Limousin;Creuse;Clairavaux 23063;E2.1667;N45.7833;13;
3;FRA;Limousin;Creuse;Clugnat 23064;E2.1167;N46.3000;13;
3;FRA;Limousin;Creuse;Colondannes 23065;E1.6167;N46.2833;13;
3;FRA;Limousin;Creuse;Cressat 23068;E2.1000;N46.1333;13;
3;FRA;Limousin;Creuse;Crocq 23069;E2.3667;N45.8667;13;
3;FRA;Limousin;Creuse;Crozant 23070;E1.6167;N46.4000;13;
3;FRA;Limousin;Creuse;Croze 23071;E2.1583;N45.8167;13;
3;FRA;Limousin;Creuse;Domeyrot 23072;E2.1500;N46.2500;13;
3;FRA;Limousin;Creuse;Dontreix 23073;E2.5667;N45.9833;13;
3;FRA;Limousin;Creuse;Dun-le-Palestel 23075;E1.6667;N46.3000;13;
3;FRA;Limousin;Creuse;Évaux-les-Bains 23076;E2.4833;N46.1667;13;
3;FRA;Limousin;Creuse;Faux-la-Montagne 23077;E1.9333;N45.7500;13;
3;FRA;Limousin;Creuse;Faux-Mazuras 23078;E1.7833;N45.9500;13;
3;FRA;Limousin;Creuse;Felletin 23079;E2.1833;N45.8833;13;
3;FRA;Limousin;Creuse;Féniers 23080;E2.1333;N45.7500;13;
3;FRA;Limousin;Creuse;Flayat 23081;E2.3833;N45.7833;13;
3;FRA;Limousin;Creuse;Fleurat 23082;E1.6781;N46.2401;13;
3;FRA;Limousin;Creuse;Fontanières 23083;E2.5000;N46.1000;13;
3;FRA;Limousin;Creuse;Fransèches 23086;E2.0333;N46.0167;13;
3;FRA;Limousin;Creuse;Fresselines 23087;E1.6833;N46.3833;13;
3;FRA;Limousin;Creuse;Gartempe 23088;E1.7333;N46.1500;13;
3;FRA;Limousin;Creuse;Genouillac 23089;E2.0000;N46.3500;13;
3;FRA;Limousin;Creuse;Gentioux-Pigerolles 23090;E2.0673;N45.7786;13;
3;FRA;Limousin;Creuse;Gioux 23091;E2.1250;N45.8083;13;
3;FRA;Limousin;Creuse;Glénic 23092;E1.9333;N46.2167;13;
3;FRA;Limousin;Creuse;Gouzon 23093;E2.2333;N46.1833;13;
3;FRA;Limousin;Creuse;Gouzougnat 23094=23093;E2.1833;N46.1667;13;
3;FRA;Limousin;Creuse;Guéret 23096;E1.8667;N46.1667;13;
3;FRA;Limousin;Creuse;Issoudun-Létrieix 23097;E2.1500;N46.0667;13;
3;FRA;Limousin;Creuse;Jalesches 23098;E2.0958;N46.3005;13;
3;FRA;Limousin;Creuse;Janaillat 23099;E1.7500;N46.0500;13;
3;FRA;Limousin;Creuse;Jarnages 23100;E2.0833;N46.1833;13;
3;FRA;Limousin;Creuse;Jouillat 23101;E1.9500;N46.2667;13;
3;FRA;Limousin;Creuse;La Brionne 23033;E1.7833;N46.1667;13;
3;FRA;Limousin;Creuse;La Celle-Dunoise 23039;E1.7694;N46.3085;13;
3;FRA;Limousin;Creuse;La Celle-sous-Gouzon 23040;E2.2000;N46.2167;13;
3;FRA;Limousin;Creuse;La Cellette 23041;E2.0000;N46.4000;13;
3;FRA;Limousin;Creuse;La Chapelle-Baloue 23050;E1.5833;N46.3667;13;
3;FRA;Limousin;Creuse;La Chapelle-Saint-Martial 23051;E1.9333;N46.0167;13;
3;FRA;Limousin;Creuse;La Chapelle-Taillefert 23052;E1.8333;N46.1000;13;
3;FRA;Limousin;Creuse;La Chaussade 23059;E2.2333;N45.9833;13;
3;FRA;Limousin;Creuse;La Courtine 23067;E2.2667;N45.7000;13;
3;FRA;Limousin;Creuse;La Forêt-du-Temple 23084;E1.9000;N46.4167;13;
3;FRA;Limousin;Creuse;La Mazière-aux-Bons-Hommes 23129;E2.4407;N45.8837;13;
3;FRA;Limousin;Creuse;La Nouaille 23144;E2.0667;N45.8500;13;
3;FRA;Limousin;Creuse;La Pouge 23157;E1.9500;N45.9833;13;
3;FRA;Limousin;Creuse;La Rochette 23163=23220;E2.1000;N46.0167;13;
3;FRA;Limousin;Creuse;La Saunière 23169;E1.9500;N46.1333;13;
3;FRA;Limousin;Creuse;La Serre-Bussière-Vieille 23172;E2.3167;N46.0500;13;
3;FRA;Limousin;Creuse;La Souterraine 23176;E1.4833;N46.2333;13;
3;FRA;Limousin;Creuse;La Villedieu 23264;E1.8833;N45.7333;13;
3;FRA;Limousin;Creuse;La Villeneuve 23265;E2.4083;N45.8984;13;
3;FRA;Limousin;Creuse;La Villetelle 23266;E2.3500;N45.9167;13;
3;FRA;Limousin;Creuse;Ladapeyre 23102;E2.0500;N46.2500;13;
3;FRA;Limousin;Creuse;Lafat 23103;E1.6500;N46.3333;13;
3;FRA;Limousin;Creuse;Lavaufranche 23104;E2.2667;N46.3167;13;
3;FRA;Limousin;Creuse;Lavaveix-les-Mines 23105;E2.0833;N46.0667;13;
3;FRA;Limousin;Creuse;Le Bourg-d'Hem 23029;E1.8333;N46.3000;13;
3;FRA;Limousin;Creuse;Le Chauchet 23058;E2.4667;N45.9833;13;
3;FRA;Limousin;Creuse;Le Compas 23066;E1.8667;N45.9000;13;
3;FRA;Limousin;Creuse;Le Donzeil 23074;E1.9667;N46.0333;13;
3;FRA;Limousin;Creuse;Le Grand-Bourg 23095;E1.6500;N46.1667;13;
3;FRA;Limousin;Creuse;Le Mas-d'Artige 23125;E2.1833;N45.7333;13;
3;FRA;Limousin;Creuse;Le Monteil-au-Vicomte 23134;E1.9500;N45.9333;13;
3;FRA;Limousin;Creuse;Le Trucq 23256=23067;E2.225;N45.7385;13;
3;FRA;Limousin;Creuse;Lépaud 23106;E2.3833;N46.2333;13;
3;FRA;Limousin;Creuse;Lépinas 23107;E1.9333;N46.0833;13;
3;FRA;Limousin;Creuse;Les Forges 23085=23093;E2.2019;N46.1750;13;
3;FRA;Limousin;Creuse;Les Mars 23123;E2.4833;N45.9833;13;
3;FRA;Limousin;Creuse;Leyrat 23108;E2.2833;N46.3667;13;
3;FRA;Limousin;Creuse;Linard 23109;E1.8667;N46.3667;13;
3;FRA;Limousin;Creuse;Lioux-les-Monges 23110;E2.4500;N45.9500;13;
3;FRA;Limousin;Creuse;Lizières 23111;E1.5667;N46.2167;13;
3;FRA;Limousin;Creuse;Lourdoueix-Saint-Pierre 23112;E1.8167;N46.4167;13;
3;FRA;Limousin;Creuse;Lupersat 23113;E2.3500;N45.9833;13;
3;FRA;Limousin;Creuse;Lussat 23114;E2.3333;N46.1833;13;
3;FRA;Limousin;Creuse;Magnat-l'Étrange 23115;E2.2833;N45.7833;13;
3;FRA;Limousin;Creuse;Mainsat 23116;E2.3833;N46.0500;13;
3;FRA;Limousin;Creuse;Maison-Feyne 23117;E1.6667;N46.3500;13;
3;FRA;Limousin;Creuse;Maisonnisses 23118;E1.9000;N46.0667;13;
3;FRA;Limousin;Creuse;Malleret 23119;E2.3167;N45.7667;13;
3;FRA;Limousin;Creuse;Malleret-Boussac 23120;E2.1333;N46.3500;13;
3;FRA;Limousin;Creuse;Malval 23121;E1.8833;N46.3500;13;
3;FRA;Limousin;Creuse;Mansat-la-Courrière 23122;E1.8000;N45.9667;13;
3;FRA;Limousin;Creuse;Marsac 23124;E1.6000;N46.1000;13;
3;FRA;Limousin;Creuse;Masbaraud-Mérignat 23126;E1.7500;N45.9833;13;
3;FRA;Limousin;Creuse;Mautes 23127;E2.3833;N45.9500;13;
3;FRA;Limousin;Creuse;Mazeirat 23128;E1.9667;N46.1500;13;
3;FRA;Limousin;Creuse;Méasnes 23130;E1.7833;N46.4167;13;
3;FRA;Limousin;Creuse;Mérinchal 23131;E2.4833;N45.9167;13;
3;FRA;Limousin;Creuse;Montaigut-le-Blanc 23132;E1.7333;N46.1167;13;
3;FRA;Limousin;Creuse;Montboucher 23133;E1.6833;N45.9500;13;
3;FRA;Limousin;Creuse;Morterolles 23135=23227;E1.8242;N45.9195;13;
3;FRA;Limousin;Creuse;Mortroux 23136;E1.9167;N46.4000;13;
3;FRA;Limousin;Creuse;Mourioux-Vieilleville 23137;E1.6716;N46.0927;13;
3;FRA;Limousin;Creuse;Moutier-d'Ahun 23138;E2.0500;N46.1000;13;
3;FRA;Limousin;Creuse;Moutier-Malcard 23139;E1.9500;N46.3833;13;
3;FRA;Limousin;Creuse;Moutier-Rozeille 23140;E2.2000;N45.9167;13;
3;FRA;Limousin;Creuse;Naillat 23141;E1.6333;N46.2667;13;
3;FRA;Limousin;Creuse;Néoux 23142;E2.2500;N45.9167;13;
3;FRA;Limousin;Creuse;Noth 23143;E1.5833;N46.2333;13;
3;FRA;Limousin;Creuse;Nouhant 23145;E2.3833;N46.2833;13;
3;FRA;Limousin;Creuse;Nouzerines 23146;E2.1167;N46.3833;13;
3;FRA;Limousin;Creuse;Nouzerolles 23147;E1.7333;N46.3833;13;
3;FRA;Limousin;Creuse;Nouziers 23148;E1.9667;N46.4333;13;
3;FRA;Limousin;Creuse;Parsac 23149;E2.1500;N46.2000;13;
3;FRA;Limousin;Creuse;Peyrabout 23150;E1.9167;N46.1000;13;
3;FRA;Limousin;Creuse;Peyrat-la-Nonière 23151;E2.2500;N46.0833;13;
3;FRA;Limousin;Creuse;Pierrefitte 23152;E2.2333;N46.1500;13;
3;FRA;Limousin;Creuse;Pigerolles 23153=23090;E2.0833;N45.7833;13;
3;FRA;Limousin;Creuse;Pionnat 23154;E2.0167;N46.1667;13;
3;FRA;Limousin;Creuse;Pontarion 23155;E1.8500;N46.0000;13;
3;FRA;Limousin;Creuse;Pontcharraud 23156;E2.2833;N45.8667;13;
3;FRA;Limousin;Creuse;Poussanges 23158;E2.2167;N45.8167;13;
3;FRA;Limousin;Creuse;Puy-Malsignat 23159;E2.2167;N46.0333;13;
3;FRA;Limousin;Creuse;Reterre 23160;E2.4667;N46.1000;13;
3;FRA;Limousin;Creuse;Rimondeix 23161;E2.0833;N46.2333;13;
3;FRA;Limousin;Creuse;Roches 23162;E1.9833;N46.2833;13;
3;FRA;Limousin;Creuse;Rougnat 23164;E2.5000;N46.0583;13;
3;FRA;Limousin;Creuse;Royère-de-Vassivière 23165;E1.9119;N45.8419;13;
3;FRA;Limousin;Creuse;Sagnat 23166;E1.6333;N46.3000;13;
3;FRA;Limousin;Creuse;Saint-Agnant-de-Versillat 23177;E1.5167;N46.2833;13;
3;FRA;Limousin;Creuse;Saint-Agnant-près-Crocq 23178;E2.3500;N45.8000;13;
3;FRA;Limousin;Creuse;Saint-Alpinien 23179;E2.2333;N45.9833;13;
3;FRA;Limousin;Creuse;Saint-Amand 23180;E2.2000;N45.9833;13;
3;FRA;Limousin;Creuse;Saint-Amand-Jartoudeix 23181;E1.6667;N45.9167;13;
3;FRA;Limousin;Creuse;Saint-Avit-de-Tardes 23182;E2.2833;N45.9167;13;
3;FRA;Limousin;Creuse;Saint-Avit-le-Pauvre 23183;E2.0333;N46.0000;13;
3;FRA;Limousin;Creuse;Saint-Bard 23184;E2.4000;N45.9167;13;
3;FRA;Limousin;Creuse;Saint-Chabrais 23185;E2.2000;N46.1333;13;
3;FRA;Limousin;Creuse;Saint-Christophe 23186;E1.8667;N46.1000;13;
3;FRA;Limousin;Creuse;Saint-Dizier-la-Tour 23187;E2.1667;N46.1333;13;
3;FRA;Limousin;Creuse;Saint-Dizier-les-Domaines 23188;E2.0167;N46.3167;13;
3;FRA;Limousin;Creuse;Saint-Dizier-Leyrenne 23189;E1.7167;N46.0333;13;
3;FRA;Limousin;Creuse;Saint-Domet 23190;E2.3000;N46.0500;13;
3;FRA;Limousin;Creuse;Saint-Éloi 23191;E1.8333;N46.0667;13;
3;FRA;Limousin;Creuse;Saint-Étienne-de-Fursac 23192;E1.5167;N46.1500;13;
3;FRA;Limousin;Creuse;Saint-Fiel 23195;E1.9000;N46.2167;13;
3;FRA;Limousin;Creuse;Saint-Frion 23196;E2.2333;N45.8667;13;
3;FRA;Limousin;Creuse;Saint-Georges-la-Pouge 23197;E1.9833;N45.9833;13;
3;FRA;Limousin;Creuse;Saint-Georges-Nigremont 23198;E2.2667;N45.8333;13;
3;FRA;Limousin;Creuse;Saint-Germain-Beaupré 23199;E1.5500;N46.3167;13;
3;FRA;Limousin;Creuse;Saint-Goussaud 23200;E1.5833;N46.0333;13;
3;FRA;Limousin;Creuse;Saint-Hilaire-la-Plaine 23201;E1.9833;N46.1333;13;
3;FRA;Limousin;Creuse;Saint-Hilaire-le-Château 23202;E1.9000;N45.9833;13;
3;FRA;Limousin;Creuse;Saint-Julien-la-Genête 23203;E2.4667;N46.1500;13;
3;FRA;Limousin;Creuse;Saint-Julien-le-Châtel 23204;E2.2667;N46.1167;13;
3;FRA;Limousin;Creuse;Saint-Junien-la-Bregère 23205;E1.7500;N45.8833;13;
3;FRA;Limousin;Creuse;Saint-Laurent 23206;E1.9667;N46.1667;13;
3;FRA;Limousin;Creuse;Saint-Léger-Bridereix 23207;E1.5833;N46.2833;13;
3;FRA;Limousin;Creuse;Saint-Léger-le-Guérétois 23208;E1.8167;N46.1500;13;
3;FRA;Limousin;Creuse;Saint-Loup 23209;E2.2667;N46.1333;13;
3;FRA;Limousin;Creuse;Saint-Maixant 23210;E2.2000;N46.0000;13;
3;FRA;Limousin;Creuse;Saint-Marc-à-Frongier 23211;E2.1167;N45.9333;13;
3;FRA;Limousin;Creuse;Saint-Marc-à-Loubaud 23212;E2.0000;N45.8500;13;
3;FRA;Limousin;Creuse;Saint-Marien 23213;E2.2333;N46.4167;13;
3;FRA;Limousin;Creuse;Saint-Martial-le-Mont 23214;E2.0833;N46.0500;13;
3;FRA;Limousin;Creuse;Saint-Martial-le-Vieux 23215;E2.2833;N45.6667;13;
3;FRA;Limousin;Creuse;Saint-Martin-Château 23216;E1.8000;N45.8667;13;
3;FRA;Limousin;Creuse;Saint-Martin-Sainte-Catherine 23217;E1.5833;N45.9667;13;
3;FRA;Limousin;Creuse;Saint-Maurice-la-Souterraine 23219;E1.4333;N46.2167;13;
3;FRA;Limousin;Creuse;Saint-Maurice-près-Crocq 23218;E2.3333;N45.8667;13;
3;FRA;Limousin;Creuse;Saint-Médard-la-Rochette 23220;E2.1460;N46.0433;13;
3;FRA;Limousin;Creuse;Saint-Merd-la-Breuille 23221;E2.4333;N45.7500;13;
3;FRA;Limousin;Creuse;Saint-Michel-de-Veisse 23222;E2.0500;N45.9500;13;
3;FRA;Limousin;Creuse;Saint-Moreil 23223;E1.6833;N45.8500;13;
3;FRA;Limousin;Creuse;Saint-Oradoux-de-Chirouze 23224;E2.3333;N45.7333;13;
3;FRA;Limousin;Creuse;Saint-Oradoux-près-Crocq 23225;E2.4000;N45.8833;13;
3;FRA;Limousin;Creuse;Saint-Pardoux-d'Arnet 23226;E2.3333;N45.8833;13;
3;FRA;Limousin;Creuse;Saint-Pardoux-le-Neuf 23228;E2.2333;N45.9333;13;
3;FRA;Limousin;Creuse;Saint-Pardoux-les-Cards 23229;E2.1167;N46.0833;13;
3;FRA;Limousin;Creuse;Saint-Pardoux-Morterolles 23227;E1.8207;N45.8976;13;
3;FRA;Limousin;Creuse;Saint-Pierre-Bellevue 23232;E1.8833;N45.9167;13;
3;FRA;Limousin;Creuse;Saint-Pierre-Chérignat 23230;E1.6083;N45.9744;13;
3;FRA;Limousin;Creuse;Saint-Pierre-de-Fursac 23231;E1.5167;N46.1500;13;
3;FRA;Limousin;Creuse;Saint-Pierre-le-Bost 23233;E2.2667;N46.4000;13;
3;FRA;Limousin;Creuse;Saint-Priest 23234;E2.3333;N46.0833;13;
3;FRA;Limousin;Creuse;Saint-Priest-la-Feuille 23235;E1.5333;N46.2000;13;
3;FRA;Limousin;Creuse;Saint-Priest-la-Plaine 23236;E1.6333;N46.2000;13;
3;FRA;Limousin;Creuse;Saint-Priest-Palus 23237;E1.6667;N45.9000;13;
3;FRA;Limousin;Creuse;Saint-Quentin-la-Chabanne 23238;E2.1667;N45.8667;13;
3;FRA;Limousin;Creuse;Saint-Sébastien 23239;E1.5333;N46.4000;13;
3;FRA;Limousin;Creuse;Saint-Silvain-Bas-le-Roc 23240;E2.2333;N46.3333;13;
3;FRA;Limousin;Creuse;Saint-Silvain-Bellegarde 23241;E2.3024;N45.9730;13;
3;FRA;Limousin;Creuse;Saint-Silvain-Montaigut 23242;E1.7500;N46.1500;13;
3;FRA;Limousin;Creuse;Saint-Silvain-sous-Toulx 23243;E2.1667;N46.2667;13;
3;FRA;Limousin;Creuse;Saint-Sulpice-le-Dunois 23244;E1.7333;N46.3000;13;
3;FRA;Limousin;Creuse;Saint-Sulpice-le-Guérétois 23245;E1.8333;N46.2000;13;
3;FRA;Limousin;Creuse;Saint-Sulpice-les-Champs 23246;E2.0167;N46.1500;13;
3;FRA;Limousin;Creuse;Saint-Vaury 23247;E1.7500;N46.2000;13;
3;FRA;Limousin;Creuse;Saint-Victor-en-Marche 23248;E1.8145;N46.1186;13;
3;FRA;Limousin;Creuse;Saint-Yrieix-la-Montagne 23249;E2.0333;N45.8833;13;
3;FRA;Limousin;Creuse;Saint-Yrieix-les-Bois 23250;E1.9667;N46.1000;13;
3;FRA;Limousin;Creuse;Sainte-Feyre 23193;E1.9151;N46.1392;13;
3;FRA;Limousin;Creuse;Sainte-Feyre-la-Montagne 23194;E2.2435;N45.8994;13;
3;FRA;Limousin;Creuse;Sannat 23167;E2.4000;N46.1167;13;
3;FRA;Limousin;Creuse;Sardent 23168;E1.8500;N46.0500;13;
3;FRA;Limousin;Creuse;Savennes 23170;E1.9000;N46.1000;13;
3;FRA;Limousin;Creuse;Sermur 23171;E2.4333;N45.9833;13;
3;FRA;Limousin;Creuse;Soubrebost 23173;E1.8500;N45.9667;13;
3;FRA;Limousin;Creuse;Soumans 23174;E2.3167;N46.3000;13;
3;FRA;Limousin;Creuse;Sous-Parsat 23175;E1.9667;N46.0500;13;
3;FRA;Limousin;Creuse;Tardes 23251;E2.3333;N46.1333;13;
3;FRA;Limousin;Creuse;Tercillat 23252;E2.0500;N46.4167;13;
3;FRA;Limousin;Creuse;Thauron 23253;E1.8167;N46.0000;13;
3;FRA;Limousin;Creuse;Toulx-Sainte-Croix 23254;E2.2167;N46.2833;13;
3;FRA;Limousin;Creuse;Trois-Fonds 23255;E2.2400;N46.2401;13;
3;FRA;Limousin;Creuse;Vallière 23257;E2.0333;N45.9000;13;
3;FRA;Limousin;Creuse;Vareilles 23258;E1.4833;N46.3000;13;
3;FRA;Limousin;Creuse;Verneiges 23259;E2.3333;N46.2667;13;
3;FRA;Limousin;Creuse;Vidaillat 23260;E1.9167;N45.9667;13;
3;FRA;Limousin;Creuse;Viersat 23261;E2.4333;N46.2833;13;
3;FRA;Limousin;Creuse;Vigeville 23262;E2.0667;N46.1667;13;
3;FRA;Limousin;Creuse;Villard 23263;E1.7000;N46.3333;13;
2;FRA;Limousin;Haute-Vienne;;E1.29;N45.80;9;
3;FRA;Limousin;Haute-Vienne;Aixe-sur-Vienne 87001;E1.1333;N45.8000;13;
3;FRA;Limousin;Haute-Vienne;Ambazac 87002;E1.4000;N45.9500;13;
3;FRA;Limousin;Haute-Vienne;Arnac-la-Poste 87003;E1.3748;N46.2663;13;
3;FRA;Limousin;Haute-Vienne;Augne 87004;E1.7000;N45.7833;13;
3;FRA;Limousin;Haute-Vienne;Aureil 87005;E1.4000;N45.8000;13;
3;FRA;Limousin;Haute-Vienne;Azat-le-Ris 87006;E1.0600;N46.3196;13;
3;FRA;Limousin;Haute-Vienne;Balledent 87007;E1.2167;N46.1167;13;
3;FRA;Limousin;Haute-Vienne;Beaumont-du-Lac 87009;E1.8344;N45.7713;13;
3;FRA;Limousin;Haute-Vienne;Beaune-les-Mines 87010=87085;E1.3000;N45.9167;13;
3;FRA;Limousin;Haute-Vienne;Bellac 87011;E1.0500;N46.1167;13;
3;FRA;Limousin;Haute-Vienne;Berneuil 87012;E1.1000;N46.0667;13;
3;FRA;Limousin;Haute-Vienne;Bersac-sur-Rivalier 87013;E1.4167;N46.0833;13;
3;FRA;Limousin;Haute-Vienne;Bessines-sur-Gartempe 87014;E1.3667;N46.1000;13;
3;FRA;Limousin;Haute-Vienne;Beynac 87015;E1.1500;N45.7667;13;
3;FRA;Limousin;Haute-Vienne;Blanzac 87017;E1.1167;N46.1333;13;
3;FRA;Limousin;Haute-Vienne;Blond 87018;E1.0167;N46.0500;13;
3;FRA;Limousin;Haute-Vienne;Boisseuil 87019;E1.3167;N45.7667;13;
3;FRA;Limousin;Haute-Vienne;Bonnac-la-Côte 87020;E1.2833;N45.9333;13;
3;FRA;Limousin;Haute-Vienne;Bosmie-l'Aiguille 87021;E1.1961;N45.7797;13;
3;FRA;Limousin;Haute-Vienne;Breuilaufa 87022;E1.1000;N46.0500;13;
3;FRA;Limousin;Haute-Vienne;Bujaleuf 87024;E1.6333;N45.8000;13;
3;FRA;Limousin;Haute-Vienne;Burgnac 87025;E1.1500;N45.7167;13;
3;FRA;Limousin;Haute-Vienne;Bussière-Boffy 87026;E0.8500;N46.0500;13;
3;FRA;Limousin;Haute-Vienne;Bussière-Galant 87027;E1.0333;N45.6167;13;
3;FRA;Limousin;Haute-Vienne;Bussière-Poitevine 87028;E0.9167;N46.2333;13;
3;FRA;Limousin;Haute-Vienne;Chaillac-sur-Vienne 87030;E0.8667;N45.8833;13;
3;FRA;Limousin;Haute-Vienne;Châlus 87032;E0.9833;N45.6500;13;
3;FRA;Limousin;Haute-Vienne;Chamboret 87033;E1.1333;N46.0000;13;
3;FRA;Limousin;Haute-Vienne;Champagnac-la-Rivière 87034;E0.9167;N45.7000;13;
3;FRA;Limousin;Haute-Vienne;Champnétery 87035;E1.5667;N45.8333;13;
3;FRA;Limousin;Haute-Vienne;Champsac 87036;E0.9500;N45.7000;13;
3;FRA;Limousin;Haute-Vienne;Chaptelat 87038;E1.2667;N45.9000;13;
3;FRA;Limousin;Haute-Vienne;Château-Chervix 87039;E1.3500;N45.6000;13;
3;FRA;Limousin;Haute-Vienne;Châteauneuf-la-Forêt 87040;E1.6167;N45.7167;13;
3;FRA;Limousin;Haute-Vienne;Châteauponsac 87041;E1.2833;N46.1333;13;
3;FRA;Limousin;Haute-Vienne;Cheissoux 87043;E1.6500;N45.8333;13;
3;FRA;Limousin;Haute-Vienne;Chéronnac 87044;E0.7500;N45.7667;13;
3;FRA;Limousin;Haute-Vienne;Cieux 87045;E1.0500;N45.9833;13;
3;FRA;Limousin;Haute-Vienne;Cognac-la-Forêt 87046;E1.0095;N45.8340;13;
3;FRA;Limousin;Haute-Vienne;Compreignac 87047;E1.2667;N46.0000;13;
3;FRA;Limousin;Haute-Vienne;Condat-sur-Vienne 87048;E1.2333;N45.8000;13;
3;FRA;Limousin;Haute-Vienne;Coussac-Bonneval 87049;E1.3167;N45.5000;13;
3;FRA;Limousin;Haute-Vienne;Couzeix 87050;E1.2333;N45.8667;13;
3;FRA;Limousin;Haute-Vienne;Cromac 87053;E1.3000;N46.3500;13;
3;FRA;Limousin;Haute-Vienne;Cussac 87054;E0.8514;N45.7059;13;
3;FRA;Limousin;Haute-Vienne;Darnac 87055;E0.9601;N46.2247;13;
3;FRA;Limousin;Haute-Vienne;Dinsac 87056;E1.1167;N46.2333;13;
3;FRA;Limousin;Haute-Vienne;Dompierre-les-Églises 87057;E1.2543;N46.2269;13;
3;FRA;Limousin;Haute-Vienne;Domps 87058;E1.7000;N45.6667;13;
3;FRA;Limousin;Haute-Vienne;Dournazac 87060;E0.9167;N45.6167;13;
3;FRA;Limousin;Haute-Vienne;Droux 87061;E1.1500;N46.1667;13;
3;FRA;Limousin;Haute-Vienne;Eybouleuf 87062;E1.4667;N45.8000;13;
3;FRA;Limousin;Haute-Vienne;Eyjeaux 87063;E1.3833;N45.7833;13;
3;FRA;Limousin;Haute-Vienne;Eymoutiers 87064;E1.7333;N45.7333;13;
3;FRA;Limousin;Haute-Vienne;Feytiat 87065;E1.3333;N45.8000;13;
3;FRA;Limousin;Haute-Vienne;Flavignac 87066;E1.1000;N45.7000;13;
3;FRA;Limousin;Haute-Vienne;Folles 87067;E1.4667;N46.1167;13;
3;FRA;Limousin;Haute-Vienne;Fromental 87068;E1.4000;N46.1667;13;
3;FRA;Limousin;Haute-Vienne;Gajoubert 87069;E0.8333;N46.1167;13;
3;FRA;Limousin;Haute-Vienne;Glandon 87071;E1.2167;N45.4833;13;
3;FRA;Limousin;Haute-Vienne;Glanges 87072;E1.4500;N45.6667;13;
3;FRA;Limousin;Haute-Vienne;Gorre 87073;E0.9833;N45.7333;13;
3;FRA;Limousin;Haute-Vienne;Isle 87075;E1.2167;N45.8167;13;
3;FRA;Limousin;Haute-Vienne;Jabreilles-les-Bordes 87076;E1.5304;N46.0228;13;
3;FRA;Limousin;Haute-Vienne;Janailhac 87077;E1.2333;N45.6333;13;
3;FRA;Limousin;Haute-Vienne;Javerdat 87078;E0.9833;N45.9500;13;
3;FRA;Limousin;Haute-Vienne;Jouac 87080;E1.2667;N46.3500;13;
3;FRA;Limousin;Haute-Vienne;Jourgnac 87081;E1.2000;N45.7167;13;
3;FRA;Limousin;Haute-Vienne;La Bazeuge 87008;E1.1000;N46.2500;13;
3;FRA;Limousin;Haute-Vienne;La Chapelle-Montbrandeix 87037;E0.8500;N45.6500;13;
3;FRA;Limousin;Haute-Vienne;La Croisille-sur-Briance 87051;E1.5833;N45.6333;13;
3;FRA;Limousin;Haute-Vienne;La Croix-sur-Gartempe 87052;E0.9833;N46.1667;13;
3;FRA;Limousin;Haute-Vienne;La Geneytouse 87070;E1.4667;N45.7833;13;
3;FRA;Limousin;Haute-Vienne;La Jonchère-Saint-Maurice 87079;E1.4667;N46.0000;13;
3;FRA;Limousin;Haute-Vienne;La Meyze 87096;E1.2167;N45.6167;13;
3;FRA;Limousin;Haute-Vienne;La Porcherie 87120;E1.5333;N45.5833;13;
3;FRA;Limousin;Haute-Vienne;La Roche-l'Abeille 87127;E1.2500;N45.6000;13;
3;FRA;Limousin;Haute-Vienne;Ladignac-le-Long 87082;E1.1167;N45.5833;13;
3;FRA;Limousin;Haute-Vienne;Laurière 87083;E1.4833;N46.0833;13;
3;FRA;Limousin;Haute-Vienne;Lavignac 87084;E1.1333;N45.7167;13;
3;FRA;Limousin;Haute-Vienne;Le Buis 87023;E1.2000;N46.0333;13;
3;FRA;Limousin;Haute-Vienne;Le Chalard 87031;E1.1261;N45.5468;13;
3;FRA;Limousin;Haute-Vienne;Le Châtenet-en-Dognon 87042;E1.5000;N45.9000;13;
3;FRA;Limousin;Haute-Vienne;Le Dorat 87059;E1.0833;N46.2167;13;
3;FRA;Limousin;Haute-Vienne;Le Palais-sur-Vienne 87113;E1.3167;N45.8667;13;
3;FRA;Limousin;Haute-Vienne;Le Vigen 87205;E1.2833;N45.7500;13;
3;FRA;Limousin;Haute-Vienne;Les Billanges 87016;E1.5333;N45.9667;13;
3;FRA;Limousin;Haute-Vienne;Les Cars 87029;E1.0833;N45.6833;13;
3;FRA;Limousin;Haute-Vienne;Les Grands-Chézeaux 87074;E1.4000;N46.3500;13;
3;FRA;Limousin;Haute-Vienne;Les Salles-Lavauguyon 87189;E0.7000;N45.7500;13;
3;FRA;Limousin;Haute-Vienne;Limoges 87085;E1.2500;N45.8500;13;
3;FRA;Limousin;Haute-Vienne;Linards 87086;E1.5333;N45.7000;13;
3;FRA;Limousin;Haute-Vienne;Lussac-les-Églises 87087;E1.1833;N46.3500;13;
3;FRA;Limousin;Haute-Vienne;Magnac-Bourg 87088;E1.4333;N45.6167;13;
3;FRA;Limousin;Haute-Vienne;Magnac-Laval 87089;E1.1667;N46.2167;13;
3;FRA;Limousin;Haute-Vienne;Mailhac-sur-Benaize 87090;E1.3333;N46.3333;13;
3;FRA;Limousin;Haute-Vienne;Maisonnais-sur-Tardoire 87091;E0.6917;N45.7167;13;
3;FRA;Limousin;Haute-Vienne;Marval 87092;E0.8000;N45.6333;13;
3;FRA;Limousin;Haute-Vienne;Masléon 87093;E1.5667;N45.7667;13;
3;FRA;Limousin;Haute-Vienne;Meilhac 87094;E1.1500;N45.7167;13;
3;FRA;Limousin;Haute-Vienne;Meuzac 87095;E1.4333;N45.5500;13;
3;FRA;Limousin;Haute-Vienne;Mézières-sur-Issoire 87097;E0.9076;N46.1089;13;
3;FRA;Limousin;Haute-Vienne;Milhaguet 87098=87092;E0.7833;N45.6667;13;
3;FRA;Limousin;Haute-Vienne;Moissannes 87099;E1.5667;N45.8833;13;
3;FRA;Limousin;Haute-Vienne;Montrol-Sénard 87100;E0.9667;N46.0333;13;
3;FRA;Limousin;Haute-Vienne;Mortemart 87101;E0.9667;N46.0500;13;
3;FRA;Limousin;Haute-Vienne;Morterolles-sur-Semme 87102=87014;E1.3667;N46.1500;13;
3;FRA;Limousin;Haute-Vienne;Nantiat 87103;E1.1833;N46.0167;13;
3;FRA;Limousin;Haute-Vienne;Nedde 87104;E1.8333;N45.7167;13;
3;FRA;Limousin;Haute-Vienne;Neuvic-Entier 87105;E1.6167;N45.7167;13;
3;FRA;Limousin;Haute-Vienne;Nexon 87106;E1.1833;N45.6833;13;
3;FRA;Limousin;Haute-Vienne;Nieul 87107;E1.1833;N45.9333;13;
3;FRA;Limousin;Haute-Vienne;Nouic 87108;E0.9167;N46.0667;13;
3;FRA;Limousin;Haute-Vienne;Oradour-Saint-Genest 87109;E1.0333;N46.2333;13;
3;FRA;Limousin;Haute-Vienne;Oradour-sur-Glane 87110;E1.0333;N45.9333;13;
3;FRA;Limousin;Haute-Vienne;Oradour-sur-Vayres 87111;E0.8667;N45.7333;13;
3;FRA;Limousin;Haute-Vienne;Pageas 87112;E1.0000;N45.6833;13;
3;FRA;Limousin;Haute-Vienne;Panazol 87114;E1.3000;N45.8333;13;
3;FRA;Limousin;Haute-Vienne;Pensol 87115;E0.8167;N45.6167;13;
3;FRA;Limousin;Haute-Vienne;Peyrat-de-Bellac 87116;E1.0333;N46.1500;13;
3;FRA;Limousin;Haute-Vienne;Peyrat-le-Château 87117;E1.7667;N45.8167;13;
3;FRA;Limousin;Haute-Vienne;Peyrilhac 87118;E1.1333;N45.9500;13;
3;FRA;Limousin;Haute-Vienne;Pierre-Buffière 87119;E1.3500;N45.7000;13;
3;FRA;Limousin;Haute-Vienne;Rancon 87121;E1.1833;N46.1333;13;
3;FRA;Limousin;Haute-Vienne;Razès 87122;E1.3333;N46.0333;13;
3;FRA;Limousin;Haute-Vienne;Rempnat 87123;E1.8833;N45.7000;13;
3;FRA;Limousin;Haute-Vienne;Rilhac-Lastours 87124;E1.1167;N45.6667;13;
3;FRA;Limousin;Haute-Vienne;Rilhac-Rancon 87125;E1.3167;N45.9000;13;
3;FRA;Limousin;Haute-Vienne;Rochechouart 87126;E0.8167;N45.8167;13;
3;FRA;Limousin;Haute-Vienne;Roussac 87128;E1.2000;N46.0833;13;
3;FRA;Limousin;Haute-Vienne;Royères 87129;E1.4333;N45.8583;13;
3;FRA;Limousin;Haute-Vienne;Roziers-Saint-Georges 87130;E1.5500;N45.7500;13;
3;FRA;Limousin;Haute-Vienne;Saillat-sur-Vienne 87131;E0.8167;N45.8667;13;
3;FRA;Limousin;Haute-Vienne;Saint-Amand-le-Petit 87132;E1.7500;N45.7667;13;
3;FRA;Limousin;Haute-Vienne;Saint-Amand-Magnazeix 87133;E1.3500;N46.1833;13;
3;FRA;Limousin;Haute-Vienne;Saint-Auvent 87135;E0.9333;N45.8000;13;
3;FRA;Limousin;Haute-Vienne;Saint-Barbant 87136;E0.8500;N46.1667;13;
3;FRA;Limousin;Haute-Vienne;Saint-Bazile 87137;E0.8167;N45.7333;13;
3;FRA;Limousin;Haute-Vienne;Saint-Bonnet-Briance 87138;E1.4833;N45.7000;13;
3;FRA;Limousin;Haute-Vienne;Saint-Bonnet-de-Bellac 87139;E0.9500;N46.1667;13;
3;FRA;Limousin;Haute-Vienne;Saint-Brice-sur-Vienne 87140;E0.9500;N45.8833;13;
3;FRA;Limousin;Haute-Vienne;Saint-Cyr 87141;E0.9500;N45.8000;13;
3;FRA;Limousin;Haute-Vienne;Saint-Denis-des-Murs 87142;E1.5333;N45.7833;13;
3;FRA;Limousin;Haute-Vienne;Saint-Gence 87143;E1.1333;N45.9167;13;
3;FRA;Limousin;Haute-Vienne;Saint-Genest-sur-Roselle 87144;E1.4167;N45.7000;13;
3;FRA;Limousin;Haute-Vienne;Saint-Georges-les-Landes 87145;E1.3333;N46.3500;13;
3;FRA;Limousin;Haute-Vienne;Saint-Germain-les-Belles 87146;E1.5000;N45.6167;13;
3;FRA;Limousin;Haute-Vienne;Saint-Gilles-les-Forêts 87147;E1.6500;N45.6333;13;
3;FRA;Limousin;Haute-Vienne;Saint-Hilaire-Bonneval 87148;E1.3667;N45.7167;13;
3;FRA;Limousin;Haute-Vienne;Saint-Hilaire-la-Treille 87149;E1.3167;N46.2500;13;
3;FRA;Limousin;Haute-Vienne;Saint-Hilaire-les-Places 87150;E1.1667;N45.6667;13;
3;FRA;Limousin;Haute-Vienne;Saint-Jean-Ligoure 87151;E1.3167;N45.6833;13;
3;FRA;Limousin;Haute-Vienne;Saint-Jouvent 87152;E1.2000;N45.9500;13;
3;FRA;Limousin;Haute-Vienne;Saint-Julien-le-Petit 87153;E1.7000;N45.8167;13;
3;FRA;Limousin;Haute-Vienne;Saint-Junien 87154;E0.9000;N45.8833;13;
3;FRA;Limousin;Haute-Vienne;Saint-Junien-les-Combes 87155;E1.1333;N46.0833;13;
3;FRA;Limousin;Haute-Vienne;Saint-Just-le-Martel 87156;E1.3833;N45.8667;13;
3;FRA;Limousin;Haute-Vienne;Saint-Laurent-les-Églises 87157;E1.5000;N45.9500;13;
3;FRA;Limousin;Haute-Vienne;Saint-Laurent-sur-Gorre 87158;E0.9500;N45.7667;13;
3;FRA;Limousin;Haute-Vienne;Saint-Léger-la-Montagne 87159;E1.4167;N46.0333;13;
3;FRA;Limousin;Haute-Vienne;Saint-Léger-Magnazeix 87160;E1.2500;N46.2833;13;
3;FRA;Limousin;Haute-Vienne;Saint-Léonard-de-Noblat 87161;E1.4833;N45.8333;13;
3;FRA;Limousin;Haute-Vienne;Saint-Martial-sur-Isop 87163;E0.8500;N46.1667;13;
3;FRA;Limousin;Haute-Vienne;Saint-Martin-de-Jussac 87164;E0.9333;N45.8833;13;
3;FRA;Limousin;Haute-Vienne;Saint-Martin-le-Mault 87165;E1.2191;N46.3646;13;
3;FRA;Limousin;Haute-Vienne;Saint-Martin-le-Vieux 87166;E1.1167;N45.7500;13;
3;FRA;Limousin;Haute-Vienne;Saint-Martin-Terressus 87167;E1.4500;N45.9167;13;
3;FRA;Limousin;Haute-Vienne;Saint-Mathieu 87168;E0.7667;N45.7000;13;
3;FRA;Limousin;Haute-Vienne;Saint-Maurice-les-Brousses 87169;E1.2411;N45.7065;13;
3;FRA;Limousin;Haute-Vienne;Saint-Méard 87170;E1.5500;N45.6667;13;
3;FRA;Limousin;Haute-Vienne;Saint-Nicolas-Courbefy 87171=87027;E1.0667;N45.5833;13;
3;FRA;Limousin;Haute-Vienne;Saint-Ouen-sur-Gartempe 87172;E1.0667;N46.1667;13;
3;FRA;Limousin;Haute-Vienne;Saint-Pardoux 87173;E1.2833;N46.0500;13;
3;FRA;Limousin;Haute-Vienne;Saint-Paul 87174;E1.4324;N45.7500;13;
3;FRA;Limousin;Haute-Vienne;Saint-Priest-le-Betoux 87175=87180;E1.2667;N46.1833;13;
3;FRA;Limousin;Haute-Vienne;Saint-Priest-Ligoure 87176;E1.3000;N45.6500;13;
3;FRA;Limousin;Haute-Vienne;Saint-Priest-sous-Aixe 87177;E1.1000;N45.8167;13;
3;FRA;Limousin;Haute-Vienne;Saint-Priest-Taurion 87178;E1.4000;N45.8833;13;
3;FRA;Limousin;Haute-Vienne;Saint-Sornin-la-Marche 87179;E0.9833;N46.1833;13;
3;FRA;Limousin;Haute-Vienne;Saint-Sornin-Leulac 87180;E1.3000;N46.2000;13;
3;FRA;Limousin;Haute-Vienne;Saint-Sulpice-Laurière 87181;E1.4667;N46.0500;13;
3;FRA;Limousin;Haute-Vienne;Saint-Sulpice-les-Feuilles 87182;E1.3667;N46.3167;13;
3;FRA;Limousin;Haute-Vienne;Saint-Sylvestre 87183;E1.3833;N46.0000;13;
3;FRA;Limousin;Haute-Vienne;Saint-Symphorien-sur-Couze 87184;E1.2354;N46.0587;13;
3;FRA;Limousin;Haute-Vienne;Saint-Victurnien 87185;E1.0000;N45.8833;13;
3;FRA;Limousin;Haute-Vienne;Saint-Vitte-sur-Briance 87186;E1.5500;N45.6167;13;
3;FRA;Limousin;Haute-Vienne;Saint-Yrieix-la-Perche 87187;E1.2000;N45.5167;13;
3;FRA;Limousin;Haute-Vienne;Saint-Yrieix-sous-Aixe 87188;E1.0833;N45.8667;13;
3;FRA;Limousin;Haute-Vienne;Sainte-Anne-Saint-Priest 87134;E1.7000;N45.7167;13;
3;FRA;Limousin;Haute-Vienne;Sainte-Marie-de-Vaux 87162;E1.0500;N45.8667;13;
3;FRA;Limousin;Haute-Vienne;Sauviat-sur-Vige 87190;E1.6167;N45.9000;13;
3;FRA;Limousin;Haute-Vienne;Séreilhac 87191;E1.0833;N45.7667;13;
3;FRA;Limousin;Haute-Vienne;Solignac 87192;E1.2667;N45.7500;13;
3;FRA;Limousin;Haute-Vienne;Surdoux 87193;E1.6500;N45.6000;13;
3;FRA;Limousin;Haute-Vienne;Sussac 87194;E1.6500;N45.6667;13;
3;FRA;Limousin;Haute-Vienne;Tersannes 87195;E1.1167;N46.3000;13;
3;FRA;Limousin;Haute-Vienne;Thiat 87196;E0.9667;N46.2667;13;
3;FRA;Limousin;Haute-Vienne;Thouron 87197;E1.2188;N45.9991;13;
3;FRA;Limousin;Haute-Vienne;Vaulry 87198;E1.0833;N46.0167;13;
3;FRA;Limousin;Haute-Vienne;Vayres 87199;E0.8000;N45.7500;13;
3;FRA;Limousin;Haute-Vienne;Verneuil-Moustiers 87200;E1.1333;N46.3500;13;
3;FRA;Limousin;Haute-Vienne;Verneuil-sur-Vienne 87201;E1.1333;N45.8500;13;
3;FRA;Limousin;Haute-Vienne;Veyrac 87202;E1.1167;N45.9000;13;
3;FRA;Limousin;Haute-Vienne;Vicq-sur-Breuilh 87203;E1.3833;N45.6500;13;
3;FRA;Limousin;Haute-Vienne;Videix 87204;E0.7345;N45.7897;13;
3;FRA;Limousin;Haute-Vienne;Villefavard 87206;E1.2126;N46.1663;13;