"Level";"Country";"State";"County";"Place";"Longitude";"Latitude";"ZoomLevel";"Icon"
2;FRA;Basse-Normandie;Calvados;;W0.3131;N49.0811;9;
3;FRA;Basse-Normandie;Calvados;Ablon 14001;E0.3000;N49.4000;13;
3;FRA;Basse-Normandie;Calvados;Acqueville 14002;W0.3600;N48.9700;13;
3;FRA;Basse-Normandie;Calvados;Agy 14003;W0.7667;N49.2500;13;
3;FRA;Basse-Normandie;Calvados;Aignerville 14004;W0.9167;N49.3167;13;
3;FRA;Basse-Normandie;Calvados;Airan 14005;W0.1500;N49.1000;13;
3;FRA;Basse-Normandie;Calvados;Amayé-sur-Orne 14006;W0.4333;N49.0833;13;
3;FRA;Basse-Normandie;Calvados;Amayé-sur-Seulles 14007;W0.7167;N49.0833;13;
3;FRA;Basse-Normandie;Calvados;Amblie 14008;W0.4833;N49.3000;13;
3;FRA;Basse-Normandie;Calvados;Amfreville 14009;W0.2333;N49.2500;13;
3;FRA;Basse-Normandie;Calvados;Ammeville 14010=14697;E0.0333;N48.9333;13;
3;FRA;Basse-Normandie;Calvados;Anctoville 14011;W0.7000;N49.1000;13;
3;FRA;Basse-Normandie;Calvados;Angerville 14012;W0.0333;N49.2500;13;
3;FRA;Basse-Normandie;Calvados;Angoville 14013;W0.3833;N48.9333;13;
3;FRA;Basse-Normandie;Calvados;Anguerny 14014;W0.4000;N49.2667;13;
3;FRA;Basse-Normandie;Calvados;Anisy 14015;W0.3833;N49.2500;13;
3;FRA;Basse-Normandie;Calvados;Annebault 14016;E0.0667;N49.2500;13;
3;FRA;Basse-Normandie;Calvados;Annebecq 14017=14352;W0.9667;N48.9000;13;
3;FRA;Basse-Normandie;Calvados;Arclais 14018=14655;W0.7748;N48.9569;13;
3;FRA;Basse-Normandie;Calvados;Arganchy 14019;W0.7500;N49.2333;13;
3;FRA;Basse-Normandie;Calvados;Argences 14020;W0.1667;N49.1333;13;
3;FRA;Basse-Normandie;Calvados;Arromanches-les-Bains 14021;W0.6167;N49.3333;13;
3;FRA;Basse-Normandie;Calvados;Asnelles 14022;W0.5833;N49.3333;13;
3;FRA;Basse-Normandie;Calvados;Asnières-en-Bessin 14023;W0.9333;N49.3667;13;
3;FRA;Basse-Normandie;Calvados;Auberville 14024;W0.0333;N49.3167;13;
3;FRA;Basse-Normandie;Calvados;Aubigny 14025;W0.2167;N48.9167;13;
3;FRA;Basse-Normandie;Calvados;Audrieu 14026;W0.6000;N49.2000;13;
3;FRA;Basse-Normandie;Calvados;Aunay-sur-Odon 14027;W0.6333;N49.0167;13;
3;FRA;Basse-Normandie;Calvados;Auquainville 14028;E0.2500;N49.0500;13;
3;FRA;Basse-Normandie;Calvados;Authie 14030;W0.4333;N49.2000;13;
3;FRA;Basse-Normandie;Calvados;Auvillars 14033;E0.0667;N49.2000;13;
3;FRA;Basse-Normandie;Calvados;Avenay 14034;W0.4667;N49.1000;13;
3;FRA;Basse-Normandie;Calvados;Balleroy 14035;W0.8333;N49.1833;13;
3;FRA;Basse-Normandie;Calvados;Banneville-la-Campagne 14036;W0.2167;N49.1833;13;
3;FRA;Basse-Normandie;Calvados;Banneville-sur-Ajon 14037;W0.5667;N49.0667;13;
3;FRA;Basse-Normandie;Calvados;Banville 14038;W0.5000;N49.3167;13;
3;FRA;Basse-Normandie;Calvados;Barbery 14039;W0.3500;N49.0167;13;
3;FRA;Basse-Normandie;Calvados;Barbeville 14040;W0.7500;N49.2833;13;
3;FRA;Basse-Normandie;Calvados;Barneville-la-Bertran 14041;E0.1833;N49.3833;13;
3;FRA;Basse-Normandie;Calvados;Baron-sur-Odon 14042;W0.4833;N49.1333;13;
3;FRA;Basse-Normandie;Calvados;Barou-en-Auge 14043;W0.0333;N48.9333;13;
3;FRA;Basse-Normandie;Calvados;Basly 14044;W0.4167;N49.2833;13;
3;FRA;Basse-Normandie;Calvados;Basseneville 14045;W0.1500;N49.2167;13;
3;FRA;Basse-Normandie;Calvados;Bauquay 14056;W0.6167;N49.0333;13;
3;FRA;Basse-Normandie;Calvados;Bavent 14046;W0.1833;N49.2333;13;
3;FRA;Basse-Normandie;Calvados;Bayeux 14047;W0.7000;N49.2667;13;
3;FRA;Basse-Normandie;Calvados;Baynes 14048=14614;W0.9618;N49.2210;13;
3;FRA;Basse-Normandie;Calvados;Bazenville 14049;W0.5833;N49.3000;13;
3;FRA;Basse-Normandie;Calvados;Beaufour 14051=14231;E0.0167;N49.2167;13;
3;FRA;Basse-Normandie;Calvados;Beaufour-Druval 14231;E0.0247;N49.2131;13;
3;FRA;Basse-Normandie;Calvados;Beaulieu 14052;W0.8187;N48.9000;13;
3;FRA;Basse-Normandie;Calvados;Beaumais 14053;W0.0833;N48.9000;13;
3;FRA;Basse-Normandie;Calvados;Beaumesnil 14054;W0.9833;N48.9000;13;
3;FRA;Basse-Normandie;Calvados;Beaumont-en-Auge 14055;E0.1167;N49.2833;13;
3;FRA;Basse-Normandie;Calvados;Bellengreville 14057;W0.2167;N49.1333;13;
3;FRA;Basse-Normandie;Calvados;Bellou 14058;E0.2333;N48.9833;13;
3;FRA;Basse-Normandie;Calvados;Benerville-sur-Mer 14059;E0.0333;N49.3500;13;
3;FRA;Basse-Normandie;Calvados;Bénouville 14060;W0.2833;N49.2500;13;
3;FRA;Basse-Normandie;Calvados;Bény-sur-Mer 14062;W0.4333;N49.2833;13;
3;FRA;Basse-Normandie;Calvados;Bernesq 14063;W0.9333;N49.2667;13;
3;FRA;Basse-Normandie;Calvados;Bernières-d'Ailly 14064;W0.0833;N48.9667;13;
3;FRA;Basse-Normandie;Calvados;Bernières-le-Patry 14065;W0.7333;N48.8167;13;
3;FRA;Basse-Normandie;Calvados;Bernières-sur-Mer 14066;W0.4167;N49.3333;13;
3;FRA;Basse-Normandie;Calvados;Berville 14067=14697;E0.0000;N49.0000;13;
3;FRA;Basse-Normandie;Calvados;Beuvillers 14069;E0.2500;N49.1333;13;
3;FRA;Basse-Normandie;Calvados;Beuvron-en-Auge 14070;W0.0500;N49.1833;13;
3;FRA;Basse-Normandie;Calvados;Biéville-Beuville 14068;W0.3167;N49.2333;13;
3;FRA;Basse-Normandie;Calvados;Biéville-en-Auge 14071=14527;W0.0333;N49.1333;13;
3;FRA;Basse-Normandie;Calvados;Biéville-Quétiéville 14527;W0.0407;N49.1032;13;
3;FRA;Basse-Normandie;Calvados;Biéville-sur-Orne 14072=14068;W0.3333;N49.2333;13;
3;FRA;Basse-Normandie;Calvados;Billy 14074;W0.2000;N49.0833;13;
3;FRA;Basse-Normandie;Calvados;Bissières 14075;W0.0833;N49.1167;13;
3;FRA;Basse-Normandie;Calvados;Blainville-sur-Orne 14076;W0.3000;N49.2333;13;
3;FRA;Basse-Normandie;Calvados;Blangy-le-Château 14077;E0.2833;N49.2333;13;
3;FRA;Basse-Normandie;Calvados;Blay 14078;W0.8333;N49.2667;13;
3;FRA;Basse-Normandie;Calvados;Blonville-sur-Mer 14079;E0.0333;N49.3167;13;
3;FRA;Basse-Normandie;Calvados;Boissey 14081;E0.0500;N49.0167;13;
3;FRA;Basse-Normandie;Calvados;Bonnebosq 14083;E0.0833;N49.2000;13;
3;FRA;Basse-Normandie;Calvados;Bonnemaison 14084;W0.5833;N49.0167;13;
3;FRA;Basse-Normandie;Calvados;Bonneville-la-Louvet 14085;E0.3333;N49.2667;13;
3;FRA;Basse-Normandie;Calvados;Bonneville-sur-Touques 14086;E0.1167;N49.3333;13;
3;FRA;Basse-Normandie;Calvados;Bonnoeil 14087;W0.3667;N48.9167;13;
3;FRA;Basse-Normandie;Calvados;Bons-Tassilly 14088;W0.2167;N48.9500;13;
3;FRA;Basse-Normandie;Calvados;Bougy 14089;W0.5167;N49.1167;13;
3;FRA;Basse-Normandie;Calvados;Boulon 14090;W0.4000;N49.0500;13;
3;FRA;Basse-Normandie;Calvados;Bourgeauville 14091;E0.0500;N49.2667;13;
3;FRA;Basse-Normandie;Calvados;Bourguébus 14092;W0.3000;N49.1167;13;
3;FRA;Basse-Normandie;Calvados;Branville 14093;E0.0333;N49.2667;13;
3;FRA;Basse-Normandie;Calvados;Bray-la-Campagne 14094=14268;W0.1667;N49.0667;13;
3;FRA;Basse-Normandie;Calvados;Brécy 14095=14577;W0.05746;N49.2636;13;
3;FRA;Basse-Normandie;Calvados;Brémoy 14096;W0.7833;N48.9833;13;
3;FRA;Basse-Normandie;Calvados;Bretteville-l'Orgueilleuse 14098;W0.5000;N49.2000;13;
3;FRA;Basse-Normandie;Calvados;Bretteville-le-Rabet 14097;W0.2667;N49.0167;13;
3;FRA;Basse-Normandie;Calvados;Bretteville-sur-Dives 14099;W0.0167;N49.0333;13;
3;FRA;Basse-Normandie;Calvados;Bretteville-sur-Laize 14100;W0.3333;N49.0500;13;
3;FRA;Basse-Normandie;Calvados;Bretteville-sur-Odon 14101;W0.4167;N49.1667;13;
3;FRA;Basse-Normandie;Calvados;Bréville 14106;W0.2333;N49.2333;13;
3;FRA;Basse-Normandie;Calvados;Bricqueville 14107;W0.9667;N49.2833;13;
3;FRA;Basse-Normandie;Calvados;Brocottes 14108=14335;W0.0667;N49.1833;13;
3;FRA;Basse-Normandie;Calvados;Brouay 14109;W0.5667;N49.2167;13;
3;FRA;Basse-Normandie;Calvados;Brucourt 14110;W0.1000;N49.2500;13;
3;FRA;Basse-Normandie;Calvados;Bucéels 14111;W0.6333;N49.2000;13;
3;FRA;Basse-Normandie;Calvados;Bully 14112=14266;W0.4167;N49.1000;13;
3;FRA;Basse-Normandie;Calvados;Burcy 14113;W0.8000;N48.8667;13;
3;FRA;Basse-Normandie;Calvados;Bures-les-Monts 14115;W0.9667;N48.9500;13;
3;FRA;Basse-Normandie;Calvados;Bures-sur-Dives 14114=14712;W0.1667;N49.2000;13;
3;FRA;Basse-Normandie;Calvados;Cabourg 14117;E0.1333;N49.2833;13;
3;FRA;Basse-Normandie;Calvados;Caen 14118;W0.3500;N49.1833;13;
3;FRA;Basse-Normandie;Calvados;Cagny 14119;W0.2500;N49.1500;13;
3;FRA;Basse-Normandie;Calvados;Cahagnes 14120;W0.7667;N49.0667;13;
3;FRA;Basse-Normandie;Calvados;Cahagnolles 14121;W0.7667;N49.1667;13;
3;FRA;Basse-Normandie;Calvados;Cairon 14123;W0.4500;N49.2500;13;
3;FRA;Basse-Normandie;Calvados;Cambes-en-Plaine 14125;W0.3833;N49.2333;13;
3;FRA;Basse-Normandie;Calvados;Cambremer 14126;E0.0500;N49.1500;13;
3;FRA;Basse-Normandie;Calvados;Campagnolles 14127;W0.9167;N48.8833;13;
3;FRA;Basse-Normandie;Calvados;Campandré-Valcongrain 14128;W0.5833;N48.9833;13;
3;FRA;Basse-Normandie;Calvados;Campeaux 14129;W0.9333;N48.9500;13;
3;FRA;Basse-Normandie;Calvados;Campigny 14130;W0.8000;N49.2500;13;
3;FRA;Basse-Normandie;Calvados;Canapville 14131;E0.1333;N49.3167;13;
3;FRA;Basse-Normandie;Calvados;Canchy 14132;W0.9833;N49.3333;13;
3;FRA;Basse-Normandie;Calvados;Canon 14133=14431;W0.1000;N49.0833;13;
3;FRA;Basse-Normandie;Calvados;Canteloup 14134;W0.1333;N49.1333;13;
3;FRA;Basse-Normandie;Calvados;Carcagny 14135;W0.6000;N49.2333;13;
3;FRA;Basse-Normandie;Calvados;Cardonville 14136;W1.0667;N49.3500;13;
3;FRA;Basse-Normandie;Calvados;Carpiquet 14137;W0.4500;N49.1833;13;
3;FRA;Basse-Normandie;Calvados;Cartigny-l'Épinay 14138;W1.0000;N49.2333;13;
3;FRA;Basse-Normandie;Calvados;Carville 14139;W0.8667;N48.9333;13;
3;FRA;Basse-Normandie;Calvados;Castillon 14140;W0.8000;N49.2000;13;
3;FRA;Basse-Normandie;Calvados;Castillon-en-Auge 14141;E0.0833;N49.0333;13;
3;FRA;Basse-Normandie;Calvados;Castilly 14142;W1.0333;N49.2833;13;
3;FRA;Basse-Normandie;Calvados;Caumont-l'Éventé 14143;W0.8000;N49.0833;13;
3;FRA;Basse-Normandie;Calvados;Caumont-sur-Orne 14144;W0.4667;N48.9500;13;
3;FRA;Basse-Normandie;Calvados;Cauvicourt 14145;W0.2500;N49.0500;13;
3;FRA;Basse-Normandie;Calvados;Cauville 14146;W0.5667;N48.9500;13;
3;FRA;Basse-Normandie;Calvados;Cernay 14147;E0.3333;N49.0167;13;
3;FRA;Basse-Normandie;Calvados;Cerqueux 14148;E0.3667;N49.0000;13;
3;FRA;Basse-Normandie;Calvados;Cesny-aux-Vignes-Ouézy 14149;W0.1167;N49.0833;13;
3;FRA;Basse-Normandie;Calvados;Cesny-Bois-Halbout 14150;W0.4000;N48.9833;13;
3;FRA;Basse-Normandie;Calvados;Champ-du-Boult 14151;W1.0000;N48.8000;13;
3;FRA;Basse-Normandie;Calvados;Cheffreville-Tonnencourt 14155;E0.2500;N49.0333;13;
3;FRA;Basse-Normandie;Calvados;Chênedollé 14156;W0.7667;N48.8500;13;
3;FRA;Basse-Normandie;Calvados;Cheux 14157;W0.5167;N49.1667;13;
3;FRA;Basse-Normandie;Calvados;Chicheboville 14158;W0.2167;N49.1167;13;
3;FRA;Basse-Normandie;Calvados;Chouain 14159;W0.6333;N49.2167;13;
3;FRA;Basse-Normandie;Calvados;Cintheaux 14160;W0.2833;N49.0500;13;
3;FRA;Basse-Normandie;Calvados;Clarbec 14161;E0.1333;N49.2500;13;
3;FRA;Basse-Normandie;Calvados;Clécy 14162;W0.4833;N48.9167;13;
3;FRA;Basse-Normandie;Calvados;Cléville 14163;W0.1000;N49.1500;13;
3;FRA;Basse-Normandie;Calvados;Clinchamps-sur-Orne 14164;W0.4000;N49.0833;13;
3;FRA;Basse-Normandie;Calvados;Colleville-Montgomery 14166;W0.3000;N49.2833;13;
3;FRA;Basse-Normandie;Calvados;Colleville-sur-Mer 14165;W0.8500;N49.3500;13;
3;FRA;Basse-Normandie;Calvados;Colombelles 14167;W0.3000;N49.2000;13;
3;FRA;Basse-Normandie;Calvados;Colombières 14168;W0.9833;N49.3000;13;
3;FRA;Basse-Normandie;Calvados;Colombiers-sur-Seulles 14169;W0.5167;N49.3000;13;
3;FRA;Basse-Normandie;Calvados;Colomby-sur-Thaon 14170;W0.4167;N49.2667;13;
3;FRA;Basse-Normandie;Calvados;Combray 14171;W0.4333;N48.9500;13;
3;FRA;Basse-Normandie;Calvados;Commes 14172;W0.7333;N49.3333;13;
3;FRA;Basse-Normandie;Calvados;Condé-sur-Ifs 14173;W0.1167;N49.0500;13;
3;FRA;Basse-Normandie;Calvados;Condé-sur-Noireau 14174;W0.5500;N48.8500;13;
3;FRA;Basse-Normandie;Calvados;Condé-sur-Seulles 14175;W0.6333;N49.2333;13;
3;FRA;Basse-Normandie;Calvados;Conteville 14176;W0.2333;N49.0833;13;
3;FRA;Basse-Normandie;Calvados;Coquainvilliers 14177;E0.2167;N49.2000;13;
3;FRA;Basse-Normandie;Calvados;Corbon 14178;E0.0000;N49.1333;13;
3;FRA;Basse-Normandie;Calvados;Cordebugle 14179;E0.3833;N49.1167;13;
3;FRA;Basse-Normandie;Calvados;Cordey 14180;W0.2333;N48.8500;13;
3;FRA;Basse-Normandie;Calvados;Cormelles-le-Royal 14181;W0.3308;N49.1545;13;
3;FRA;Basse-Normandie;Calvados;Cormolain 14182;W0.8500;N49.1333;13;
3;FRA;Basse-Normandie;Calvados;Cossesseville 14183;W0.4167;N48.9000;13;
3;FRA;Basse-Normandie;Calvados;Cottun 14184;W0.7833;N49.2667;13;
3;FRA;Basse-Normandie;Calvados;Coudray-Rabut 14185;E0.1667;N49.3000;13;
3;FRA;Basse-Normandie;Calvados;Coulombs 14186;W0.5667;N49.2500;13;
3;FRA;Basse-Normandie;Calvados;Coulonces 14187;W0.9143;N48.8738;13;
3;FRA;Basse-Normandie;Calvados;Coulvain 14188;W0.7167;N49.0500;13;
3;FRA;Basse-Normandie;Calvados;Coupesarte 14189;E0.1167;N49.0500;13;
3;FRA;Basse-Normandie;Calvados;Courcy 14190;W0.0500;N48.9667;13;
3;FRA;Basse-Normandie;Calvados;Courseulles-sur-Mer 14191;W0.4500;N49.3333;13;
3;FRA;Basse-Normandie;Calvados;Courson 14192;W1.0833;N48.8500;13;
3;FRA;Basse-Normandie;Calvados;Courtonne-la-Meurdrac 14193;E0.3167;N49.1167;13;
3;FRA;Basse-Normandie;Calvados;Courtonne-les-Deux-Églises 14194;E0.3709;N49.0846;13;
3;FRA;Basse-Normandie;Calvados;Courvaudon 14195;W0.5754;N49.0318;13;
3;FRA;Basse-Normandie;Calvados;Crépon 14196;W0.5500;N49.3167;13;
3;FRA;Basse-Normandie;Calvados;Cresserons 14197;W0.3500;N49.2833;13;
3;FRA;Basse-Normandie;Calvados;Cresseveuille 14198;E0.0333;N49.2333;13;
3;FRA;Basse-Normandie;Calvados;Creully 14200;W0.5333;N49.2833;13;
3;FRA;Basse-Normandie;Calvados;Crèvecoeur-en-Auge 14201;E0.0167;N49.1167;13;
3;FRA;Basse-Normandie;Calvados;Cricqueboeuf 14202;E0.1500;N49.4000;13;
3;FRA;Basse-Normandie;Calvados;Cricqueville-en-Auge 14203;W0.0667;N49.2333;13;
3;FRA;Basse-Normandie;Calvados;Cricqueville-en-Bessin 14204;W1.0000;N49.3833;13;
3;FRA;Basse-Normandie;Calvados;Cristot 14205;W0.5833;N49.2000;13;
3;FRA;Basse-Normandie;Calvados;Crocy 14206;W0.0667;N48.8833;13;
3;FRA;Basse-Normandie;Calvados;Croisilles 14207;W0.4500;N49.0000;13;
3;FRA;Basse-Normandie;Calvados;Croissanville 14208;W0.1000;N49.1167;13;
3;FRA;Basse-Normandie;Calvados;Crouay 14209;W0.8000;N49.2667;13;
3;FRA;Basse-Normandie;Calvados;Culey-le-Patry 14211;W0.5333;N48.9500;13;
3;FRA;Basse-Normandie;Calvados;Cully 14212;W0.5333;N49.2500;13;
3;FRA;Basse-Normandie;Calvados;Curcy-sur-Orne 14213;W0.5167;N49.0167;13;
3;FRA;Basse-Normandie;Calvados;Cussy 14214;W0.7667;N49.2833;13;
3;FRA;Basse-Normandie;Calvados;Cuverville 14215;W0.2667;N49.1833;13;
3;FRA;Basse-Normandie;Calvados;Damblainville 14216;W0.1167;N48.9167;13;
3;FRA;Basse-Normandie;Calvados;Dampierre 14217;W0.8667;N49.0500;13;
3;FRA;Basse-Normandie;Calvados;Danestal 14218;E0.0167;N49.2500;13;
3;FRA;Basse-Normandie;Calvados;Danvou-la-Ferrière 14219;W0.6739;N48.9546;13;
3;FRA;Basse-Normandie;Calvados;Deauville 14220;E0.0753;N49.3600;13;
3;FRA;Basse-Normandie;Calvados;Démouville 14221;W0.2667;N49.1833;13;
3;FRA;Basse-Normandie;Calvados;Deux-Jumeaux 14224;W0.9667;N49.3500;13;
3;FRA;Basse-Normandie;Calvados;Dives-sur-Mer 14225;W0.1000;N49.2833;13;
3;FRA;Basse-Normandie;Calvados;Donnay 14226;W0.4167;N48.9500;13;
3;FRA;Basse-Normandie;Calvados;Douville-en-Auge 14227;W0.0167;N49.2667;13;
3;FRA;Basse-Normandie;Calvados;Douvres-la-Délivrande 14228;W0.3833;N49.2833;13;
3;FRA;Basse-Normandie;Calvados;Dozulé 14229;W0.0500;N49.2333;13;
3;FRA;Basse-Normandie;Calvados;Drubec 14230;E0.1167;N49.2500;13;
3;FRA;Basse-Normandie;Calvados;Ducy-Sainte-Marguerite 14232;W0.6167;N49.2167;13;
3;FRA;Basse-Normandie;Calvados;Écajeul 14233=14422;W0.0333;N49.0667;13;
3;FRA;Basse-Normandie;Calvados;Écots 14234=14697;E0.0333;N48.9833;13;
3;FRA;Basse-Normandie;Calvados;Écrammeville 14235;W0.9500;N49.3167;13;
3;FRA;Basse-Normandie;Calvados;Ellon 14236;W0.6833;N49.2167;13;
3;FRA;Basse-Normandie;Calvados;Émiéville 14237;W0.2167;N49.1500;13;
3;FRA;Basse-Normandie;Calvados;Englesqueville-en-Auge 14238;E0.1500;N49.3333;13;
3;FRA;Basse-Normandie;Calvados;Englesqueville-la-Percée 14239;W0.9500;N49.3833;13;
3;FRA;Basse-Normandie;Calvados;Épaney 14240;W0.1667;N48.9500;13;
3;FRA;Basse-Normandie;Calvados;Épinay-sur-Odon 14241;W0.6167;N49.0833;13;
3;FRA;Basse-Normandie;Calvados;Épron 14242;W0.3667;N49.2167;13;
3;FRA;Basse-Normandie;Calvados;Équemauville 14243;E0.2000;N49.4000;13;
3;FRA;Basse-Normandie;Calvados;Eraines 14244;W0.1667;N48.9000;13;
3;FRA;Basse-Normandie;Calvados;Ernes 14245;W0.1333;N49.0167;13;
3;FRA;Basse-Normandie;Calvados;Escoville 14246;W0.2500;N49.2167;13;
3;FRA;Basse-Normandie;Calvados;Escures-sur-Favières 14247=14735;W0.0833;N49.0333;13;
3;FRA;Basse-Normandie;Calvados;Espins 14248;W0.4167;N49.0000;13;
3;FRA;Basse-Normandie;Calvados;Esquay-Notre-Dame 14249;W0.4667;N49.1167;13;
3;FRA;Basse-Normandie;Calvados;Esquay-sur-Seulles 14250;W0.6167;N49.2667;13;
3;FRA;Basse-Normandie;Calvados;Esson 14251;W0.4500;N48.9667;13;
3;FRA;Basse-Normandie;Calvados;Estrées-la-Campagne 14252;W0.2333;N49.0167;13;
3;FRA;Basse-Normandie;Calvados;Estry 14253;W0.7333;N48.9000;13;
3;FRA;Basse-Normandie;Calvados;Éterville 14254;W0.4333;N49.1500;13;
3;FRA;Basse-Normandie;Calvados;Étouvy 14255;W0.8833;N48.9000;13;
3;FRA;Basse-Normandie;Calvados;Étréham 14256;W0.8000;N49.3167;13;
3;FRA;Basse-Normandie;Calvados;Évrecy 14257;W0.5000;N49.1000;13;
3;FRA;Basse-Normandie;Calvados;Falaise 14258;W0.2000;N48.9000;13;
3;FRA;Basse-Normandie;Calvados;Familly 14259;E0.3500;N48.9667;13;
3;FRA;Basse-Normandie;Calvados;Fauguernon 14260;E0.2667;N49.1833;13;
3;FRA;Basse-Normandie;Calvados;Fervaques 14265;E0.2500;N49.0333;13;
3;FRA;Basse-Normandie;Calvados;Feuguerolles-Bully 14266;W0.4054;N49.1158;13;
3;FRA;Basse-Normandie;Calvados;Feuguerolles-sur-Seulles 14267=14011;W0.6667;N49.1167;13;
3;FRA;Basse-Normandie;Calvados;Fierville-Bray 14268;W0.1903;N49.0689;13;
3;FRA;Basse-Normandie;Calvados;Fierville-les-Parcs 14269;E0.2333;N49.2500;13;
3;FRA;Basse-Normandie;Calvados;Firfol 14270;E0.3167;N49.1500;13;
3;FRA;Basse-Normandie;Calvados;Fleury-sur-Orne 14271;W0.3833;N49.1500;13;
3;FRA;Basse-Normandie;Calvados;Fontaine-Étoupefour 14274;W0.4500;N49.1500;13;
3;FRA;Basse-Normandie;Calvados;Fontaine-Henry 14275;W0.4500;N49.2833;13;
3;FRA;Basse-Normandie;Calvados;Fontaine-le-Pin 14276;W0.2833;N48.9667;13;
3;FRA;Basse-Normandie;Calvados;Fontenay-le-Marmion 14277;W0.3500;N49.1000;13;
3;FRA;Basse-Normandie;Calvados;Fontenay-le-Pesnel 14278;W0.5833;N49.1667;13;
3;FRA;Basse-Normandie;Calvados;Fontenermont 14279;W1.1000;N48.8167;13;
3;FRA;Basse-Normandie;Calvados;Formentin 14280;E0.1500;N49.2000;13;
3;FRA;Basse-Normandie;Calvados;Formigny 14281;W0.9000;N49.3333;13;
3;FRA;Basse-Normandie;Calvados;Foulognes 14282;W0.8167;N49.1500;13;
3;FRA;Basse-Normandie;Calvados;Fourches 14283;W0.0833;N48.8667;13;
3;FRA;Basse-Normandie;Calvados;Fourneaux-le-Val 14284;W0.2667;N48.8500;13;
3;FRA;Basse-Normandie;Calvados;Fourneville 14286;E0.2333;N49.3500;13;
3;FRA;Basse-Normandie;Calvados;Frénouville 14287;W0.2441;N49.1370;13;
3;FRA;Basse-Normandie;Calvados;Fresné-la-Mère 14289;W0.1167;N48.9000;13;
3;FRA;Basse-Normandie;Calvados;Fresney-le-Puceux 14290;W0.3667;N49.0667;13;
3;FRA;Basse-Normandie;Calvados;Fresney-le-Vieux 14291;W0.3833;N49.0000;13;
3;FRA;Basse-Normandie;Calvados;Friardel 14292;E0.3833;N49.0000;13;
3;FRA;Basse-Normandie;Calvados;Fumichon 14293;E0.3667;N49.1667;13;
3;FRA;Basse-Normandie;Calvados;Garcelles-Secqueville 14294;W0.2833;N49.1000;13;
3;FRA;Basse-Normandie;Calvados;Garnetot 14295=14697;E0.0500;N48.9333;13;
3;FRA;Basse-Normandie;Calvados;Gavrus 14297;W0.5167;N49.1167;13;
3;FRA;Basse-Normandie;Calvados;Géfosse-Fontenay 14298;W1.0833;N49.3667;13;
3;FRA;Basse-Normandie;Calvados;Genneville 14299;E0.2833;N49.3667;13;
3;FRA;Basse-Normandie;Calvados;Gerrots 14300;E0.0000;N49.2000;13;
3;FRA;Basse-Normandie;Calvados;Giberville 14301;W0.2833;N49.1833;13;
3;FRA;Basse-Normandie;Calvados;Glanville 14302;E0.0667;N49.2833;13;
3;FRA;Basse-Normandie;Calvados;Glos 14303;E0.2786;N49.1238;13;
3;FRA;Basse-Normandie;Calvados;Gonneville-en-Auge 14306;W0.1833;N49.2667;13;
3;FRA;Basse-Normandie;Calvados;Gonneville-sur-Honfleur 14304;E0.2500;N49.4000;13;
3;FRA;Basse-Normandie;Calvados;Gonneville-sur-Mer 14305;W0.0333;N49.2833;13;
3;FRA;Basse-Normandie;Calvados;Goupillières 14307;W0.4833;N49.0333;13;
3;FRA;Basse-Normandie;Calvados;Goustranville 14308;W0.1000;N49.2167;13;
3;FRA;Basse-Normandie;Calvados;Gouvix 14309;W0.3000;N49.0333;13;
3;FRA;Basse-Normandie;Calvados;Grainville-Langannerie 14310;W0.2667;N49.0167;13;
3;FRA;Basse-Normandie;Calvados;Grainville-sur-Odon 14311;W0.5333;N49.1333;13;
3;FRA;Basse-Normandie;Calvados;Grandcamp-Maisy 14312;W1.0479;N49.3863;13;
3;FRA;Basse-Normandie;Calvados;Grandchamp-le-Château 14313;E0.0667;N49.0833;13;
3;FRA;Basse-Normandie;Calvados;Grandmesnil 14314=14697;E0.0333;N48.9167;13;
3;FRA;Basse-Normandie;Calvados;Grandouet 14315=14126;E0.0667;N49.1667;13;
3;FRA;Basse-Normandie;Calvados;Grangues 14316;W0.0500;N49.2667;13;
3;FRA;Basse-Normandie;Calvados;Graye-sur-Mer 14318;W0.4667;N49.3333;13;
3;FRA;Basse-Normandie;Calvados;Grentheville 14319;W0.2833;N49.1500;13;
3;FRA;Basse-Normandie;Calvados;Grimbosq 14320;W0.4500;N49.0500;13;
3;FRA;Basse-Normandie;Calvados;Grisy 14321=14735;W0.0667;N49.0000;13;
3;FRA;Basse-Normandie;Calvados;Guéron 14322;W0.7167;N49.2500;13;
3;FRA;Basse-Normandie;Calvados;Hamars 14324;W0.5500;N49.0000;13;
3;FRA;Basse-Normandie;Calvados;Hermanville-sur-Mer 14325;W0.3167;N49.2833;13;
3;FRA;Basse-Normandie;Calvados;Hermival-les-Vaux 14326;E0.2833;N49.1667;13;
3;FRA;Basse-Normandie;Calvados;Hérouville-Saint-Clair 14327;W0.3167;N49.2000;13;
3;FRA;Basse-Normandie;Calvados;Hérouvillette 14328;W0.2333;N49.2167;13;
3;FRA;Basse-Normandie;Calvados;Heuland 14329;E0.0000;N49.2667;13;
3;FRA;Basse-Normandie;Calvados;Heurtevent 14330;E0.1333;N48.9833;13;
3;FRA;Basse-Normandie;Calvados;Hiéville 14331;W0.0167;N49.0167;13;
3;FRA;Basse-Normandie;Calvados;Honfleur 14333;E0.2333;N49.4167;13;
3;FRA;Basse-Normandie;Calvados;Hotot-en-Auge 14335;W0.0500;N49.1667;13;
3;FRA;Basse-Normandie;Calvados;Hottot-les-Bagues 14336;W0.6500;N49.1500;13;
3;FRA;Basse-Normandie;Calvados;Houlgate 14338;W0.0667;N49.3000;13;
3;FRA;Basse-Normandie;Calvados;Hubert-Folie 14339;W0.3167;N49.1333;13;
3;FRA;Basse-Normandie;Calvados;Huppain 14340=14515;W0.7667;N49.3500;13;
3;FRA;Basse-Normandie;Calvados;Ifs 14341;W0.3500;N49.1333;13;
3;FRA;Basse-Normandie;Calvados;Isigny-sur-Mer 14342;W1.1000;N49.3167;13;
3;FRA;Basse-Normandie;Calvados;Janville 14344;W0.1500;N49.1667;13;
3;FRA;Basse-Normandie;Calvados;Jort 14345;W0.0833;N48.9667;13;
3;FRA;Basse-Normandie;Calvados;Juaye-Mondaye 14346;W0.6833;N49.2000;13;
3;FRA;Basse-Normandie;Calvados;Jurques 14347;W0.7500;N49.0167;13;
3;FRA;Basse-Normandie;Calvados;Juvigny-sur-Seulles 14348;W0.6167;N49.1667;13;
3;FRA;Basse-Normandie;Calvados;L'Hôtellerie 14334;E0.4000;N49.1333;13;
3;FRA;Basse-Normandie;Calvados;L'Oudon 14697;E0.0096;N48.9972;13;
3;FRA;Basse-Normandie;Calvados;La Bazoque 14050;W0.8500;N49.1500;13;
3;FRA;Basse-Normandie;Calvados;La Bigne 14073;W0.7167;N49.0167;13;
3;FRA;Basse-Normandie;Calvados;La Boissière 14082;E0.1500;N49.1333;13;
3;FRA;Basse-Normandie;Calvados;La Brévière 14105;E0.1667;N48.9667;13;
3;FRA;Basse-Normandie;Calvados;La Caine 14122;W0.5167;N49.0333;13;
3;FRA;Basse-Normandie;Calvados;La Cambe 14124;W1.0000;N49.3500;13;
3;FRA;Basse-Normandie;Calvados;La Chapelle-Engerbold 14152;W0.6000;N48.9000;13;
3;FRA;Basse-Normandie;Calvados;La Chapelle-Haute-Grue 14153;E0.1500;N48.9667;13;
3;FRA;Basse-Normandie;Calvados;La Chapelle-Yvon 14154;E0.3333;N49.0667;13;
3;FRA;Basse-Normandie;Calvados;La Cressonnière 14199=14621;E0.3667;N49.0333;13;
3;FRA;Basse-Normandie;Calvados;La Croupte 14210;E0.2833;N49.0167;13;
3;FRA;Basse-Normandie;Calvados;La Ferrière-au-Doyen 14262=14629;W0.8119;N49.0326;13;
3;FRA;Basse-Normandie;Calvados;La Ferrière-Duval 14263=14219;W0.6667;N48.9667;13;
3;FRA;Basse-Normandie;Calvados;La Ferrière-Harang 14264;W0.8833;N48.9667;13;
3;FRA;Basse-Normandie;Calvados;La Folie 14272;W0.9783;N49.2589;13;
3;FRA;Basse-Normandie;Calvados;La Folletière-Abenon 14273;E0.4333;N48.9833;13;
3;FRA;Basse-Normandie;Calvados;La Graverie 14317;W0.8833;N48.9000;13;
3;FRA;Basse-Normandie;Calvados;La Hoguette 14332;W0.1667;N48.8833;13;
3;FRA;Basse-Normandie;Calvados;La Houblonnière 14337;E0.1000;N49.1333;13;
3;FRA;Basse-Normandie;Calvados;La Lande-sur-Drôme 14350;W0.8667;N49.0667;13;
3;FRA;Basse-Normandie;Calvados;La Lande-Vaumont 14351=14584;W0.8667;N48.7833;13;
3;FRA;Basse-Normandie;Calvados;La Pommeraye 14510;W0.4167;N48.9000;13;
3;FRA;Basse-Normandie;Calvados;La Rivière-Saint-Sauveur 14536;E0.2667;N49.4167;13;
3;FRA;Basse-Normandie;Calvados;La Rocque 14539;W0.6667;N48.8833;13;
3;FRA;Basse-Normandie;Calvados;La Roque-Baignard 14541;E0.1000;N49.1833;13;
3;FRA;Basse-Normandie;Calvados;La Vacquerie 14722;W0.8500;N49.1000;13;
3;FRA;Basse-Normandie;Calvados;La Vespière 14740;E0.4167;N49.0167;13;
3;FRA;Basse-Normandie;Calvados;La Villette 14756;W0.5500;N48.9167;13;
3;FRA;Basse-Normandie;Calvados;Laize-la-Ville 14349;W0.3833;N49.0833;13;
3;FRA;Basse-Normandie;Calvados;Landelles-et-Coupigny 14352;W1.0000;N48.8833;13;
3;FRA;Basse-Normandie;Calvados;Landes-sur-Ajon 14353;W0.5833;N49.0833;13;
3;FRA;Basse-Normandie;Calvados;Langrune-sur-Mer 14354;W0.3667;N49.3167;13;
3;FRA;Basse-Normandie;Calvados;Lantheuil 14355;W0.5167;N49.2667;13;
3;FRA;Basse-Normandie;Calvados;Lasson 14356;W0.4667;N49.2333;13;
3;FRA;Basse-Normandie;Calvados;Lassy 14357;W0.6667;N48.9167;13;
3;FRA;Basse-Normandie;Calvados;Le Bény-Bocage 14061;W0.8333;N48.9333;13;
3;FRA;Basse-Normandie;Calvados;Le Bô 14080;W0.4500;N48.9000;13;
3;FRA;Basse-Normandie;Calvados;Le Breuil-en-Auge 14102;E0.2333;N49.2333;13;
3;FRA;Basse-Normandie;Calvados;Le Breuil-en-Bessin 14103;W0.8667;N49.2500;13;
3;FRA;Basse-Normandie;Calvados;Le Brévedent 14104;E0.3000;N49.2333;13;
3;FRA;Basse-Normandie;Calvados;Le Bû-sur-Rouvres 14116;W0.1833;N49.0333;13;
3;FRA;Basse-Normandie;Calvados;Le Désert 14222;W0.8167;N48.9000;13;
3;FRA;Basse-Normandie;Calvados;Le Détroit 14223;W0.3500;N48.8667;13;
3;FRA;Basse-Normandie;Calvados;Le Faulq 14261;E0.3167;N49.2333;13;
3;FRA;Basse-Normandie;Calvados;Le Fournet 14285;E0.1000;N49.2000;13;
3;FRA;Basse-Normandie;Calvados;Le Fresne-Camilly 14288;W0.4833;N49.2667;13;
3;FRA;Basse-Normandie;Calvados;Le Gast 14296;W1.0833;N48.8000;13;
3;FRA;Basse-Normandie;Calvados;Le Ham 14323=14335;W0.1000;N49.1833;13;
3;FRA;Basse-Normandie;Calvados;Le Locheur 14373;W0.5500;N49.1000;13;
3;FRA;Basse-Normandie;Calvados;Le Manoir 14400;W0.6000;N49.2833;13;
3;FRA;Basse-Normandie;Calvados;Le Marais-la-Chapelle 14402;W0.0167;N48.8833;13;
3;FRA;Basse-Normandie;Calvados;Le Mesnil-au-Grain 14412;W0.6000;N49.0500;13;
3;FRA;Basse-Normandie;Calvados;Le Mesnil-Auzouf 14413;W0.7500;N48.9833;13;
3;FRA;Basse-Normandie;Calvados;Le Mesnil-Bacley 14414;E0.1500;N49.0000;13;
3;FRA;Basse-Normandie;Calvados;Le Mesnil-Benoist 14415;W0.9833;N48.8667;13;
3;FRA;Basse-Normandie;Calvados;Le Mesnil-Caussois 14416;W1.0167;N48.8500;13;
3;FRA;Basse-Normandie;Calvados;Le Mesnil-Durand 14418;E0.1333;N49.0500;13;
3;FRA;Basse-Normandie;Calvados;Le Mesnil-Eudes 14419;E0.1833;N49.1000;13;
3;FRA;Basse-Normandie;Calvados;Le Mesnil-Germain 14420;E0.1833;N49.0500;13;
3;FRA;Basse-Normandie;Calvados;Le Mesnil-Guillaume 14421;E0.3000;N49.1000;13;
3;FRA;Basse-Normandie;Calvados;Le Mesnil-Mauger 14422;E0.0167;N49.0833;13;
3;FRA;Basse-Normandie;Calvados;Le Mesnil-Patry 14423;W0.5500;N49.2000;13;
3;FRA;Basse-Normandie;Calvados;Le Mesnil-Robert 14424;W0.9500;N48.8833;13;
3;FRA;Basse-Normandie;Calvados;Le Mesnil-Simon 14425;E0.1000;N49.0833;13;
3;FRA;Basse-Normandie;Calvados;Le Mesnil-sur-Blangy 14426;E0.2500;N49.2667;13;
3;FRA;Basse-Normandie;Calvados;Le Mesnil-Villement 14427;W0.3667;N48.8500;13;
3;FRA;Basse-Normandie;Calvados;Le Molay 14434=14370;W0.8871;N49.2533;13;
3;FRA;Basse-Normandie;Calvados;Le Molay-Littry 14370;W0.8833;N49.2500;13;
3;FRA;Basse-Normandie;Calvados;Le Pin 14504;E0.3333;N49.2167;13;
3;FRA;Basse-Normandie;Calvados;Le Plessis-Grimoult 14508;W0.6167;N48.9667;13;
3;FRA;Basse-Normandie;Calvados;Le Pré-d'Auge 14520;E0.1500;N49.1500;13;
3;FRA;Basse-Normandie;Calvados;Le Reculey 14532;W0.8500;N48.9167;13;
3;FRA;Basse-Normandie;Calvados;Le Theil-Bocage 14686;W0.7158;N48.8809;13;
3;FRA;Basse-Normandie;Calvados;Le Theil-en-Auge 14687;E0.2500;N49.3500;13;
3;FRA;Basse-Normandie;Calvados;Le Torquesne 14694;E0.1667;N49.2167;13;
3;FRA;Basse-Normandie;Calvados;Le Tourneur 14704;W0.8167;N48.9667;13;
3;FRA;Basse-Normandie;Calvados;Le Tronquay 14714;W0.8167;N49.2333;13;
3;FRA;Basse-Normandie;Calvados;Le Vey 14741;W0.4667;N48.9167;13;
3;FRA;Basse-Normandie;Calvados;Léaupartie 14358;E0.0500;N49.1833;13;
3;FRA;Basse-Normandie;Calvados;Lécaude 14359;E0.0833;N49.1000;13;
3;FRA;Basse-Normandie;Calvados;Leffard 14360;W0.3000;N48.9167;13;
3;FRA;Basse-Normandie;Calvados;Lénault 14361;W0.6333;N48.9333;13;
3;FRA;Basse-Normandie;Calvados;Les Autels-Saint-Bazile 14029;E0.1000;N48.9333;13;
3;FRA;Basse-Normandie;Calvados;Les Authieux-Papion 14031;E0.0500;N49.0667;13;
3;FRA;Basse-Normandie;Calvados;Les Authieux-sur-Calonne 14032;E0.2833;N49.3000;13;
3;FRA;Basse-Normandie;Calvados;Les Isles-Bardel 14343;W0.3333;N48.8500;13;
3;FRA;Basse-Normandie;Calvados;Les Loges 14374;W0.8068;N49.0427;13;
3;FRA;Basse-Normandie;Calvados;Les Loges-Saulces 14375;W0.3000;N48.8667;13;
3;FRA;Basse-Normandie;Calvados;Les Monceaux 14435;E0.1167;N49.1167;13;
3;FRA;Basse-Normandie;Calvados;Les Moutiers-en-Auge 14457;W0.0167;N48.9000;13;
3;FRA;Basse-Normandie;Calvados;Les Moutiers-en-Cinglais 14458;W0.4215;N49.0311;13;
3;FRA;Basse-Normandie;Calvados;Les Moutiers-Hubert 14459;E0.2667;N48.9667;13;
3;FRA;Basse-Normandie;Calvados;Les Oubeaux 14481;W1.0667;N49.2833;13;
3;FRA;Basse-Normandie;Calvados;Lessard-et-le-Chêne 14362;E0.1167;N49.0667;13;
3;FRA;Basse-Normandie;Calvados;Lieury 14363=14697;W0.0167;N48.9833;13;
3;FRA;Basse-Normandie;Calvados;Lingèvres 14364;W0.6667;N49.1833;13;
3;FRA;Basse-Normandie;Calvados;Lion-sur-Mer 14365;W0.3167;N49.3000;13;
3;FRA;Basse-Normandie;Calvados;Lisieux 14366;E0.2333;N49.1500;13;
3;FRA;Basse-Normandie;Calvados;Lison 14367;W1.0500;N49.2500;13;
3;FRA;Basse-Normandie;Calvados;Lisores 14368;E0.2167;N48.9667;13;
3;FRA;Basse-Normandie;Calvados;Litteau 14369;W0.9000;N49.1500;13;
3;FRA;Basse-Normandie;Calvados;Livarot 14371;E0.1500;N49.0167;13;
3;FRA;Basse-Normandie;Calvados;Livry 14372;W0.7667;N49.1000;13;
3;FRA;Basse-Normandie;Calvados;Longraye 14376;W0.7000;N49.1500;13;
3;FRA;Basse-Normandie;Calvados;Longues-sur-Mer 14377;W0.7000;N49.3333;13;
3;FRA;Basse-Normandie;Calvados;Longueville 14378;W0.9648;N49.3413;13;
3;FRA;Basse-Normandie;Calvados;Longvillers 14379;W0.6333;N49.0500;13;
3;FRA;Basse-Normandie;Calvados;Loucelles 14380;W0.5833;N49.2167;13;
3;FRA;Basse-Normandie;Calvados;Louvagny 14381;W0.0500;N48.9500;13;
3;FRA;Basse-Normandie;Calvados;Louvières 14382;W0.9167;N49.3667;13;
3;FRA;Basse-Normandie;Calvados;Louvigny 14383;W0.3833;N49.1667;13;
3;FRA;Basse-Normandie;Calvados;Luc-sur-Mer 14384;W0.3500;N49.3000;13;
3;FRA;Basse-Normandie;Calvados;Magny-en-Bessin 14385;W0.6667;N49.3000;13;
3;FRA;Basse-Normandie;Calvados;Magny-la-Campagne 14386;W0.1000;N49.0500;13;
3;FRA;Basse-Normandie;Calvados;Magny-le-Freule 14387;W0.0667;N49.1000;13;
3;FRA;Basse-Normandie;Calvados;Maisoncelles-la-Jourdan 14388;W0.8500;N48.8000;13;
3;FRA;Basse-Normandie;Calvados;Maisoncelles-Pelvey 14389;W0.6667;N49.0500;13;
3;FRA;Basse-Normandie;Calvados;Maisoncelles-sur-Ajon 14390;W0.5333;N49.0500;13;
3;FRA;Basse-Normandie;Calvados;Maisons 14391;W0.7500;N49.3167;13;
3;FRA;Basse-Normandie;Calvados;Maisy 14392=14312;W1.0500;N49.3833;13;
3;FRA;Basse-Normandie;Calvados;Maizet 14393;W0.4667;N49.0833;13;
3;FRA;Basse-Normandie;Calvados;Maizières 14394;W0.1500;N49.0167;13;
3;FRA;Basse-Normandie;Calvados;Malloué 14395;W0.9667;N48.9333;13;
3;FRA;Basse-Normandie;Calvados;Maltot 14396;W0.4167;N49.1333;13;
3;FRA;Basse-Normandie;Calvados;Mandeville-en-Bessin 14397;W0.8833;N49.3000;13;
3;FRA;Basse-Normandie;Calvados;Manerbe 14398;E0.1833;N49.1833;13;
3;FRA;Basse-Normandie;Calvados;Manneville-la-Pipard 14399;E0.2167;N49.2667;13;
3;FRA;Basse-Normandie;Calvados;Manvieux 14401;W0.6500;N49.3333;13;
3;FRA;Basse-Normandie;Calvados;Marolles 14403;E0.3667;N49.1333;13;
3;FRA;Basse-Normandie;Calvados;Martainville 14404;W0.3333;N48.9500;13;
3;FRA;Basse-Normandie;Calvados;Martigny-sur-l'Ante 14405;W0.2833;N48.9000;13;
3;FRA;Basse-Normandie;Calvados;Martragny 14406;W0.6000;N49.2500;13;
3;FRA;Basse-Normandie;Calvados;Mathieu 14407;W0.3667;N49.2500;13;
3;FRA;Basse-Normandie;Calvados;May-sur-Orne 14408;W0.3667;N49.1000;13;
3;FRA;Basse-Normandie;Calvados;Merville-Franceville-Plage 14409;W0.2048;N49.2816;13;
3;FRA;Basse-Normandie;Calvados;Méry-Corbon 14410;W0.0833;N49.1333;13;
3;FRA;Basse-Normandie;Calvados;Meslay 14411;W0.4000;N48.9667;13;
3;FRA;Basse-Normandie;Calvados;Mesnil-Clinchamps 14417;W0.9833;N48.8500;13;
3;FRA;Basse-Normandie;Calvados;Mestry 14428=14142;W1.0086;N49.2770;13;
3;FRA;Basse-Normandie;Calvados;Meulles 14429;E0.3333;N48.9833;13;
3;FRA;Basse-Normandie;Calvados;Meuvaines 14430;W0.5667;N49.3333;13;
3;FRA;Basse-Normandie;Calvados;Mézidon-Canon 14431;W0.0904;N49.0747;13;
3;FRA;Basse-Normandie;Calvados;Missy 14432;W0.5500;N49.1167;13;
3;FRA;Basse-Normandie;Calvados;Mittois 14433;E0.0333;N49.0167;13;
3;FRA;Basse-Normandie;Calvados;Monceaux-en-Bessin 14436;W0.6833;N49.2500;13;
3;FRA;Basse-Normandie;Calvados;Mondeville 14437;W0.3167;N49.1667;13;
3;FRA;Basse-Normandie;Calvados;Mondrainville 14438;W0.5167;N49.1333;13;
3;FRA;Basse-Normandie;Calvados;Monfréville 14439;W1.0333;N49.3167;13;
3;FRA;Basse-Normandie;Calvados;Mont-Bertrand 14441;W0.9167;N48.9667;13;
3;FRA;Basse-Normandie;Calvados;Montamy 14440;W0.7667;N48.9833;13;
3;FRA;Basse-Normandie;Calvados;Montchamp 14442;W0.7667;N48.9167;13;
3;FRA;Basse-Normandie;Calvados;Montchauvet 14443;W0.7333;N48.9500;13;
3;FRA;Basse-Normandie;Calvados;Monteille 14444;E0.0500;N49.1167;13;
3;FRA;Basse-Normandie;Calvados;Montfiquet 14445;W0.9000;N49.1667;13;
3;FRA;Basse-Normandie;Calvados;Montigny 14446;W0.5314;N49.0449;13;
3;FRA;Basse-Normandie;Calvados;Montpinçon 14447=14697;E0.0833;N48.9500;13;
3;FRA;Basse-Normandie;Calvados;Montreuil-en-Auge 14448;E0.0500;N49.1667;13;
3;FRA;Basse-Normandie;Calvados;Monts-en-Bessin 14449;W0.6000;N49.1167;13;
3;FRA;Basse-Normandie;Calvados;Montviette 14450;E0.1000;N49.0000;13;
3;FRA;Basse-Normandie;Calvados;Morières 14451=14735;W0.0605;N49.9959;13;
3;FRA;Basse-Normandie;Calvados;Morteaux-Couliboeuf 14452;W0.0667;N48.9333;13;
3;FRA;Basse-Normandie;Calvados;Mosles 14453;W0.8167;N49.3167;13;
3;FRA;Basse-Normandie;Calvados;Mouen 14454;W0.4833;N49.1500;13;
3;FRA;Basse-Normandie;Calvados;Moulines 14455;W0.3380;N48.9897;13;
3;FRA;Basse-Normandie;Calvados;Moult 14456;W0.1667;N49.1167;13;
3;FRA;Basse-Normandie;Calvados;Moyaux 14460;E0.3500;N49.2000;13;
3;FRA;Basse-Normandie;Calvados;Mutrécy 14461;W0.4167;N49.0667;13;
3;FRA;Basse-Normandie;Calvados;Neuilly-la-Forêt 14462;W1.1000;N49.2667;13;
3;FRA;Basse-Normandie;Calvados;Neuilly-le-Malherbe 14463=14721;W0.5333;N49.1000;13;
3;FRA;Basse-Normandie;Calvados;Neuville 14464=14762;W0.8832;N48.8563;13;
3;FRA;Basse-Normandie;Calvados;Nonant 14465;W0.6333;N49.2500;13;
3;FRA;Basse-Normandie;Calvados;Norolles 14466;E0.2500;N49.2000;13;
3;FRA;Basse-Normandie;Calvados;Noron-l'Abbaye 14467;W0.2500;N48.9000;13;
3;FRA;Basse-Normandie;Calvados;Noron-la-Poterie 14468;W0.7667;N49.2167;13;
3;FRA;Basse-Normandie;Calvados;Norrey-en-Auge 14469;W0.0167;N48.9167;13;
3;FRA;Basse-Normandie;Calvados;Norrey-en-Bessin 14470=14610;W0.5167;N49.2000;13;
3;FRA;Basse-Normandie;Calvados;Notre-Dame-d'Estrées 14474;E0.0167;N49.1500;13;
3;FRA;Basse-Normandie;Calvados;Notre-Dame-de-Courson 14471;E0.2667;N48.9833;13;
3;FRA;Basse-Normandie;Calvados;Notre-Dame-de-Fresnay 14472=14697;E0.0500;N48.9667;13;
3;FRA;Basse-Normandie;Calvados;Notre-Dame-de-Livaye 14473;E0.0500;N49.1167;13;
3;FRA;Basse-Normandie;Calvados;Noyers-Bocage 14475;W0.5667;N49.1333;13;
3;FRA;Basse-Normandie;Calvados;Olendon 14476;W0.1667;N48.9667;13;
3;FRA;Basse-Normandie;Calvados;Ondefontaine 14477;W0.6833;N49.0000;13;
3;FRA;Basse-Normandie;Calvados;Orbec 14478;E0.4065;N49.0215;13;
3;FRA;Basse-Normandie;Calvados;Orbois 14479=14011;W0.6833;N49.1333;13;
3;FRA;Basse-Normandie;Calvados;Osmanville 14480;W1.0833;N49.3333;13;
3;FRA;Basse-Normandie;Calvados;Ouézy 14482=14149;W0.1000;N49.0833;13;
3;FRA;Basse-Normandie;Calvados;Ouffières 14483;W0.4833;N49.0167;13;
3;FRA;Basse-Normandie;Calvados;Ouilly-du-Houley 14484;E0.3333;N49.1667;13;
3;FRA;Basse-Normandie;Calvados;Ouilly-le-Basset 14485=14764;W0.3858;N48.8783;13;
3;FRA;Basse-Normandie;Calvados;Ouilly-le-Tesson 14486;W0.2167;N48.9833;13;
3;FRA;Basse-Normandie;Calvados;Ouilly-le-Vicomte 14487;E0.2167;N49.1833;13;
3;FRA;Basse-Normandie;Calvados;Ouistreham 14488;W0.2500;N49.2833;13;
3;FRA;Basse-Normandie;Calvados;Ouville-la-Bien-Tournée 14489;W0.0167;N49.0500;13;
3;FRA;Basse-Normandie;Calvados;Parfouru-l'Éclin 14490=14372;W0.7500;N49.1333;13;
3;FRA;Basse-Normandie;Calvados;Parfouru-sur-Odon 14491;W0.6000;N49.0833;13;
3;FRA;Basse-Normandie;Calvados;Pennedepie 14492;E0.1833;N49.4167;13;
3;FRA;Basse-Normandie;Calvados;Percy-en-Auge 14493;W0.0667;N49.0500;13;
3;FRA;Basse-Normandie;Calvados;Périers-en-Auge 14494;W0.1000;N49.2667;13;
3;FRA;Basse-Normandie;Calvados;Périers-sur-le-Dan 14495;W0.3500;N49.2667;13;
3;FRA;Basse-Normandie;Calvados;Périgny 14496;W0.6000;N48.9167;13;
3;FRA;Basse-Normandie;Calvados;Perrières 14497;W0.1333;N48.9667;13;
3;FRA;Basse-Normandie;Calvados;Pertheville-Ners 14498;W0.1167;N48.8667;13;
3;FRA;Basse-Normandie;Calvados;Petiville 14499;W0.1667;N49.2500;13;
3;FRA;Basse-Normandie;Calvados;Pierrefitte-en-Auge 14500;W0.2017;N49.2587;13;
3;FRA;Basse-Normandie;Calvados;Pierrefitte-en-Cinglais 14501;W0.3833;N48.9000;13;
3;FRA;Basse-Normandie;Calvados;Pierrepont 14502;W0.3247;N48.8914;13;
3;FRA;Basse-Normandie;Calvados;Pierres 14503;W0.7333;N48.8667;13;
3;FRA;Basse-Normandie;Calvados;Placy 14505;W0.4167;N48.9833;13;
3;FRA;Basse-Normandie;Calvados;Planquery 14506;W0.8333;N49.1500;13;
3;FRA;Basse-Normandie;Calvados;Pleines-Oeuvres 14507=14513;W1.0000;N48.9333;13;
3;FRA;Basse-Normandie;Calvados;Plumetot 14509;W0.3500;N49.2833;13;
3;FRA;Basse-Normandie;Calvados;Pont-Bellanger 14511;W0.9667;N48.9333;13;
3;FRA;Basse-Normandie;Calvados;Pont-d'Ouilly 14764;W0.4092;N48.8742;13;
3;FRA;Basse-Normandie;Calvados;Pont-Farcy 14513;W1.0334;N48.9366;13;
3;FRA;Basse-Normandie;Calvados;Pont-l'Évêque 14514;E0.1833;N49.3000;13;
3;FRA;Basse-Normandie;Calvados;Pontécoulant 14512;W0.5833;N48.8833;13;
3;FRA;Basse-Normandie;Calvados;Port-en-Bessin-Huppain 14515;W0.7500;N49.3500;13;
3;FRA;Basse-Normandie;Calvados;Potigny 14516;W0.2333;N48.9667;13;
3;FRA;Basse-Normandie;Calvados;Poussy-la-Campagne 14517;W0.2167;N49.0833;13;
3;FRA;Basse-Normandie;Calvados;Préaux-Bocage 14519;W0.5000;N49.0500;13;
3;FRA;Basse-Normandie;Calvados;Préaux-Saint-Sébastien 14518;E0.3072;N48.9869;13;
3;FRA;Basse-Normandie;Calvados;Presles 14521;W0.7833;N48.8833;13;
3;FRA;Basse-Normandie;Calvados;Prêtreville 14522;E0.2500;N49.0833;13;
3;FRA;Basse-Normandie;Calvados;Proussy 14523;W0.5333;N48.8833;13;
3;FRA;Basse-Normandie;Calvados;Putot-en-Auge 14524;W0.0667;N49.2167;13;
3;FRA;Basse-Normandie;Calvados;Putot-en-Bessin 14525;W0.5333;N49.2167;13;
3;FRA;Basse-Normandie;Calvados;Quesnay-Guesnon 14526=14695;W0.0333;N49.1000;13;
3;FRA;Basse-Normandie;Calvados;Quetteville 14528;E0.3000;N49.3333;13;
3;FRA;Basse-Normandie;Calvados;Ranchy 14529;W0.7500;N49.2500;13;
3;FRA;Basse-Normandie;Calvados;Ranville 14530;W0.2500;N49.2333;13;
3;FRA;Basse-Normandie;Calvados;Rapilly 14531;W0.3333;N48.8667;13;
3;FRA;Basse-Normandie;Calvados;Repentigny 14533;E0.0500;N49.2000;13;
3;FRA;Basse-Normandie;Calvados;Reux 14534;E0.1500;N49.2833;13;
3;FRA;Basse-Normandie;Calvados;Reviers 14535;W0.4667;N49.3000;13;
3;FRA;Basse-Normandie;Calvados;Robehomme 14537=14046;W0.1500;N49.2333;13;
3;FRA;Basse-Normandie;Calvados;Rocquancourt 14538;W0.3167;N49.1000;13;
3;FRA;Basse-Normandie;Calvados;Rocques 14540;E0.2500;N49.1667;13;
3;FRA;Basse-Normandie;Calvados;Rosel 14542;W0.4500;N49.2333;13;
3;FRA;Basse-Normandie;Calvados;Rots 14543;W0.4667;N49.2167;13;
3;FRA;Basse-Normandie;Calvados;Roucamps 14544;W0.6167;N48.9833;13;
3;FRA;Basse-Normandie;Calvados;Roullours 14545;W0.8333;N48.8333;13;
3;FRA;Basse-Normandie;Calvados;Rouvres 14546;W0.1667;N49.0000;13;
3;FRA;Basse-Normandie;Calvados;Rubercy 14547;W0.8833;N49.2833;13;
3;FRA;Basse-Normandie;Calvados;Rucqueville 14548;W0.5833;N49.2500;13;
3;FRA;Basse-Normandie;Calvados;Rully 14549;W0.7167;N48.8333;13;
3;FRA;Basse-Normandie;Calvados;Rumesnil 14550;E0.0333;N49.1833;13;
3;FRA;Basse-Normandie;Calvados;Russy 14551;W0.8167;N49.3333;13;
3;FRA;Basse-Normandie;Calvados;Ryes 14552;W0.6167;N49.3167;13;
3;FRA;Basse-Normandie;Calvados;Saint-Agnan-le-Malherbe 14553;W0.5833;N49.0500;13;
3;FRA;Basse-Normandie;Calvados;Saint-Aignan-de-Cramesnil 14554;W0.2667;N49.0833;13;
3;FRA;Basse-Normandie;Calvados;Saint-André-d'Hébertot 14555;E0.2833;N49.3167;13;
3;FRA;Basse-Normandie;Calvados;Saint-André-sur-Orne 14556;W0.3833;N49.1167;13;
3;FRA;Basse-Normandie;Calvados;Saint-Arnoult 14557;E0.0833;N49.3333;13;
3;FRA;Basse-Normandie;Calvados;Saint-Aubin-d'Arquenay 14558;W0.2833;N49.2667;13;
3;FRA;Basse-Normandie;Calvados;Saint-Aubin-des-Bois 14559;W1.1333;N48.8333;13;
3;FRA;Basse-Normandie;Calvados;Saint-Aubin-Lébizay 14560=14231;E0.0000;N49.2000;13;
3;FRA;Basse-Normandie;Calvados;Saint-Aubin-sur-Algot 14561=14126;E0.0833;N49.1333;13;
3;FRA;Basse-Normandie;Calvados;Saint-Aubin-sur-Mer 14562;W0.4000;N49.3333;13;
3;FRA;Basse-Normandie;Calvados;Saint-Benoît-d'Hébertot 14563;E0.2698;N49.3168;13;
3;FRA;Basse-Normandie;Calvados;Saint-Charles-de-Percy 14564;W0.7833;N48.9333;13;
3;FRA;Basse-Normandie;Calvados;Saint-Côme-de-Fresné 14565;W0.6000;N49.3333;13;
3;FRA;Basse-Normandie;Calvados;Saint-Contest 14566;W0.4000;N49.2167;13;
3;FRA;Basse-Normandie;Calvados;Saint-Crespin 14567=14422;E0.0500;N49.0833;13;
3;FRA;Basse-Normandie;Calvados;Saint-Cyr-du-Ronceray 14570;E0.3000;N49.0500;13;
3;FRA;Basse-Normandie;Calvados;Saint-Denis-de-Mailloc 14571;E0.3167;N49.1000;13;
3;FRA;Basse-Normandie;Calvados;Saint-Denis-de-Méré 14572;W0.5167;N48.8667;13;
3;FRA;Basse-Normandie;Calvados;Saint-Denis-Maisoncelles 14573;W0.8500;N48.9833;13;
3;FRA;Basse-Normandie;Calvados;Saint-Désir 14574;E0.2167;N49.1500;13;
3;FRA;Basse-Normandie;Calvados;Saint-Étienne-la-Thillaye 14575;E0.1167;N49.2833;13;
3;FRA;Basse-Normandie;Calvados;Saint-Gabriel-Brécy 14577;W0.5646;N49.2766;13;
3;FRA;Basse-Normandie;Calvados;Saint-Gatien-des-Bois 14578;E0.1833;N49.3500;13;
3;FRA;Basse-Normandie;Calvados;Saint-Georges-d'Aunay 14579;W0.6833;N49.0333;13;
3;FRA;Basse-Normandie;Calvados;Saint-Georges-en-Auge 14580;E0.0667;N48.9833;13;
3;FRA;Basse-Normandie;Calvados;Saint-Germain-d'Ectot 14581;W0.7167;N49.1167;13;
3;FRA;Basse-Normandie;Calvados;Saint-Germain-de-Livet 14582;E0.2167;N49.0833;13;
3;FRA;Basse-Normandie;Calvados;Saint-Germain-de-Montgommery 14583;E0.1667;N48.9333;13;
3;FRA;Basse-Normandie;Calvados;Saint-Germain-du-Crioult 14585;W0.6000;N48.8500;13;
3;FRA;Basse-Normandie;Calvados;Saint-Germain-du-Pert 14586;W1.0333;N49.3333;13;
3;FRA;Basse-Normandie;Calvados;Saint-Germain-la-Blanche-Herbe 14587;W0.4000;N49.1833;13;
3;FRA;Basse-Normandie;Calvados;Saint-Germain-Langot 14588;W0.3167;N48.9167;13;
3;FRA;Basse-Normandie;Calvados;Saint-Germain-le-Vasson 14589;W0.3000;N49.0000;13;
3;FRA;Basse-Normandie;Calvados;Saint-Hymer 14593;E0.1667;N49.2500;13;
3;FRA;Basse-Normandie;Calvados;Saint-Jacques 14594=14366;E0.2252;N49.1437;13;
3;FRA;Basse-Normandie;Calvados;Saint-Jean-de-Livet 14595;E0.2333;N49.0833;13;
3;FRA;Basse-Normandie;Calvados;Saint-Jean-des-Essartiers 14596;W0.8333;N49.0500;13;
3;FRA;Basse-Normandie;Calvados;Saint-Jean-le-Blanc 14597;W0.6500;N48.9333;13;
3;FRA;Basse-Normandie;Calvados;Saint-Jouin 14598;W0.0167;N49.2167;13;
3;FRA;Basse-Normandie;Calvados;Saint-Julien-de-Mailloc 14599;E0.3333;N49.0833;13;
3;FRA;Basse-Normandie;Calvados;Saint-Julien-le-Faucon 14600;E0.0833;N49.0667;13;
3;FRA;Basse-Normandie;Calvados;Saint-Julien-sur-Calonne 14601;E0.2333;N49.2833;13;
3;FRA;Basse-Normandie;Calvados;Saint-Lambert 14602;W0.5500;N48.9333;13;
3;FRA;Basse-Normandie;Calvados;Saint-Laurent-de-Condel 14603;W0.4167;N49.0500;13;
3;FRA;Basse-Normandie;Calvados;Saint-Laurent-du-Mont 14604;E0.0333;N49.1333;13;
3;FRA;Basse-Normandie;Calvados;Saint-Laurent-sur-Mer 14605;W0.8833;N49.3667;13;
3;FRA;Basse-Normandie;Calvados;Saint-Léger-Dubosq 14606;W0.0333;N49.2333;13;
3;FRA;Basse-Normandie;Calvados;Saint-Louet-sur-Seulles 14607;W0.6667;N49.1000;13;
3;FRA;Basse-Normandie;Calvados;Saint-Loup-de-Fribois 14608;E0.0167;N49.1167;13;
3;FRA;Basse-Normandie;Calvados;Saint-Loup-Hors 14609;W0.7167;N49.2500;13;
3;FRA;Basse-Normandie;Calvados;Saint-Manvieu-Bocage 14611;W0.9833;N48.8333;13;
3;FRA;Basse-Normandie;Calvados;Saint-Manvieu-Norrey 14610;W0.5021;N49.1807;13;
3;FRA;Basse-Normandie;Calvados;Saint-Marc-d'Ouilly 14612=14764;W0.4343;N48.8805;13;
3;FRA;Basse-Normandie;Calvados;Saint-Marcouf 14613;W0.9914;N49.2518;13;
3;FRA;Basse-Normandie;Calvados;Saint-Martin-aux-Chartrains 14620;E0.1500;N49.3167;13;
3;FRA;Basse-Normandie;Calvados;Saint-Martin-de-Blagny 14622;W0.9500;N49.2500;13;
3;FRA;Basse-Normandie;Calvados;Saint-Martin-de-Fontenay 14623;W0.3667;N49.1167;13;
3;FRA;Basse-Normandie;Calvados;Saint-Martin-de-Fresnay 14624=14697;E0.0333;N48.9833;13;
3;FRA;Basse-Normandie;Calvados;Saint-Martin-de-la-Lieue 14625;E0.2167;N49.1167;13;
3;FRA;Basse-Normandie;Calvados;Saint-Martin-de-Mailloc 14626;E0.3167;N49.1000;13;
3;FRA;Basse-Normandie;Calvados;Saint-Martin-de-Mieux 14627;W0.2333;N48.8667;13;
3;FRA;Basse-Normandie;Calvados;Saint-Martin-de-Sallen 14628;W0.5167;N48.9667;13;
3;FRA;Basse-Normandie;Calvados;Saint-Martin-de-Tallevende 14631=14762;W0.9333;N48.8333;13;
3;FRA;Basse-Normandie;Calvados;Saint-Martin-des-Besaces 14629;W0.8500;N49.0167;13;
3;FRA;Basse-Normandie;Calvados;Saint-Martin-des-Entrées 14630;W0.6667;N49.2667;13;
3;FRA;Basse-Normandie;Calvados;Saint-Martin-Don 14632;W0.9500;N48.9333;13;
3;FRA;Basse-Normandie;Calvados;Saint-Martin-du-Mesnil-Oury 14633;E0.1333;N49.0333;13;
3;FRA;Basse-Normandie;Calvados;Saint-Michel-de-Livet 14634;E0.1333;N49.0167;13;
3;FRA;Basse-Normandie;Calvados;Saint-Omer 14635;W0.4333;N48.9167;13;
3;FRA;Basse-Normandie;Calvados;Saint-Ouen-des-Besaces 14636;W0.8500;N49.0167;13;
3;FRA;Basse-Normandie;Calvados;Saint-Ouen-du-Mesnil-Oger 14637;W0.1167;N49.1667;13;
3;FRA;Basse-Normandie;Calvados;Saint-Ouen-le-Houx 14638;E0.1833;N48.9833;13;
3;FRA;Basse-Normandie;Calvados;Saint-Ouen-le-Pin 14639;E0.1167;N49.1500;13;
3;FRA;Basse-Normandie;Calvados;Saint-Pair 14640;W0.1833;N49.1667;13;
3;FRA;Basse-Normandie;Calvados;Saint-Pair-du-Mont 14641=14126;E0.0333;N49.1333;13;
3;FRA;Basse-Normandie;Calvados;Saint-Paul-de-Courtonne 14642=14194;E0.3833;N49.0833;13;
3;FRA;Basse-Normandie;Calvados;Saint-Paul-du-Vernay 14643;W0.7667;N49.1833;13;
3;FRA;Basse-Normandie;Calvados;Saint-Philbert-des-Champs 14644;E0.2830;N49.2089;13;
3;FRA;Basse-Normandie;Calvados;Saint-Pierre-Azif 14645;E0.0500;N49.3000;13;
3;FRA;Basse-Normandie;Calvados;Saint-Pierre-Canivet 14646;W0.2167;N48.9333;13;
3;FRA;Basse-Normandie;Calvados;Saint-Pierre-de-Mailloc 14647;E0.3167;N49.0667;13;
3;FRA;Basse-Normandie;Calvados;Saint-Pierre-des-Ifs 14648;E0.1667;N49.1167;13;
3;FRA;Basse-Normandie;Calvados;Saint-Pierre-du-Bû 14649;W0.2167;N48.8667;13;
3;FRA;Basse-Normandie;Calvados;Saint-Pierre-du-Fresne 14650;W0.7500;N49.0333;13;
3;FRA;Basse-Normandie;Calvados;Saint-Pierre-du-Jonquet 14651;W0.1167;N49.1667;13;
3;FRA;Basse-Normandie;Calvados;Saint-Pierre-du-Mont 14652;W0.9833;N49.4000;13;
3;FRA;Basse-Normandie;Calvados;Saint-Pierre-la-Vieille 14653;W0.5667;N48.9167;13;
3;FRA;Basse-Normandie;Calvados;Saint-Pierre-sur-Dives 14654;W0.0333;N49.0167;13;
3;FRA;Basse-Normandie;Calvados;Saint-Pierre-Tarentaine 14655;W0.8000;N48.9667;13;
3;FRA;Basse-Normandie;Calvados;Saint-Rémy 14656;W0.5000;N48.9333;13;
3;FRA;Basse-Normandie;Calvados;Saint-Samson 14657;W0.1500;N49.1833;13;
3;FRA;Basse-Normandie;Calvados;Saint-Sever-Calvados 14658;W1.0333;N48.8333;13;
3;FRA;Basse-Normandie;Calvados;Saint-Sylvain 14659;W0.2167;N49.0500;13;
3;FRA;Basse-Normandie;Calvados;Saint-Vaast-en-Auge 14660;E0.0000;N49.2833;13;
3;FRA;Basse-Normandie;Calvados;Saint-Vaast-sur-Seulles 14661;W0.6333;N49.1500;13;
3;FRA;Basse-Normandie;Calvados;Saint-Vigor-des-Mézerets 14662;W0.6333;N48.9167;13;
3;FRA;Basse-Normandie;Calvados;Saint-Vigor-le-Grand 14663;W0.6833;N49.2833;13;
3;FRA;Basse-Normandie;Calvados;Sainte-Croix-Grand-Tonne 14568;W0.5500;N49.2333;13;
3;FRA;Basse-Normandie;Calvados;Sainte-Croix-sur-Mer 14569;W0.5167;N49.3167;13;
3;FRA;Basse-Normandie;Calvados;Sainte-Foy-de-Montgommery 14576;E0.1833;N48.9500;13;
3;FRA;Basse-Normandie;Calvados;Sainte-Honorine-de-Ducy 14590;W0.7833;N49.1500;13;
3;FRA;Basse-Normandie;Calvados;Sainte-Honorine-des-Pertes 14591;W0.8000;N49.3500;13;
3;FRA;Basse-Normandie;Calvados;Sainte-Honorine-du-Fay 14592;W0.5000;N49.0833;13;
3;FRA;Basse-Normandie;Calvados;Sainte-Marguerite-d'Elle 14614;W1.0167;N49.2167;13;
3;FRA;Basse-Normandie;Calvados;Sainte-Marguerite-de-Viette 14616;E0.0833;N49.0167;13;
3;FRA;Basse-Normandie;Calvados;Sainte-Marguerite-des-Loges 14615;E0.2000;N49.0167;13;
3;FRA;Basse-Normandie;Calvados;Sainte-Marie-aux-Anglais 14617=14422;E0.0333;N49.0667;13;
3;FRA;Basse-Normandie;Calvados;Sainte-Marie-Laumont 14618;W0.9000;N48.9167;13;
3;FRA;Basse-Normandie;Calvados;Sainte-Marie-Outre-l'Eau 14619;W1.0167;N48.9333;13;
3;FRA;Basse-Normandie;Calvados;Sallen 14664;W0.8333;N49.1167;13;
3;FRA;Basse-Normandie;Calvados;Sallenelles 14665;W0.2333;N49.2667;13;
3;FRA;Basse-Normandie;Calvados;Sannerville 14666;W0.2167;N49.1833;13;
3;FRA;Basse-Normandie;Calvados;Saon 14667;W0.8500;N49.2667;13;
3;FRA;Basse-Normandie;Calvados;Saonnet 14668;W0.8833;N49.2667;13;
3;FRA;Basse-Normandie;Calvados;Sassy 14669;W0.1333;N48.9833;13;
3;FRA;Basse-Normandie;Calvados;Secqueville-en-Bessin 14670;W0.5167;N49.2333;13;
3;FRA;Basse-Normandie;Calvados;Sept-Frères 14671;W1.0333;N48.8667;13;
3;FRA;Basse-Normandie;Calvados;Sept-Vents 14672;W0.8167;N49.0833;13;
3;FRA;Basse-Normandie;Calvados;Sermentot 14673=14011;W0.6667;N49.1333;13;
3;FRA;Basse-Normandie;Calvados;Soignolles 14674;W0.2167;N49.0333;13;
3;FRA;Basse-Normandie;Calvados;Soliers 14675;W0.3000;N49.1333;13;
3;FRA;Basse-Normandie;Calvados;Sommervieu 14676;W0.6500;N49.3000;13;
3;FRA;Basse-Normandie;Calvados;Soulangy 14677;W0.2167;N48.9500;13;
3;FRA;Basse-Normandie;Calvados;Soumont-Saint-Quentin 14678;W0.2333;N48.9833;13;
3;FRA;Basse-Normandie;Calvados;Subles 14679;W0.7500;N49.2333;13;
3;FRA;Basse-Normandie;Calvados;Sully 14680;W0.7333;N49.3000;13;
3;FRA;Basse-Normandie;Calvados;Surrain 14681;W0.8667;N49.3333;13;
3;FRA;Basse-Normandie;Calvados;Surville 14682;E0.2123;N49.3003;13;
3;FRA;Basse-Normandie;Calvados;Tailleville 14683=14228;W0.4167;N49.3000;13;
3;FRA;Basse-Normandie;Calvados;Tessel 14684;W0.5833;N49.1500;13;
3;FRA;Basse-Normandie;Calvados;Thaon 14685;W0.4500;N49.2667;13;
3;FRA;Basse-Normandie;Calvados;Thiéville 14688;W0.0167;N49.0333;13;
3;FRA;Basse-Normandie;Calvados;Thury-Harcourt 14689;W0.4833;N48.9833;13;
3;FRA;Basse-Normandie;Calvados;Tierceville 14690;W0.5333;N49.2833;13;
3;FRA;Basse-Normandie;Calvados;Tilly-la-Campagne 14691;W0.3000;N49.1167;13;
3;FRA;Basse-Normandie;Calvados;Tilly-sur-Seulles 14692;W0.6167;N49.1833;13;
3;FRA;Basse-Normandie;Calvados;Tordouet 14693;E0.3333;N49.0500;13;
3;FRA;Basse-Normandie;Calvados;Torteval-Quesnay 14695;W0.7304;N49.1371;13;
3;FRA;Basse-Normandie;Calvados;Tortisambert 14696;E0.1167;N48.9667;13;
3;FRA;Basse-Normandie;Calvados;Touffréville 14698;W0.2167;N49.1833;13;
3;FRA;Basse-Normandie;Calvados;Touques 14699;E0.1000;N49.3333;13;
3;FRA;Basse-Normandie;Calvados;Tour-en-Bessin 14700;W0.7833;N49.3000;13;
3;FRA;Basse-Normandie;Calvados;Tourgéville 14701;E0.0667;N49.3167;13;
3;FRA;Basse-Normandie;Calvados;Tournay-sur-Odon 14702;W0.5833;N49.1000;13;
3;FRA;Basse-Normandie;Calvados;Tournebu 14703;W0.3333;N48.9667;13;
3;FRA;Basse-Normandie;Calvados;Tournières 14705;W0.9333;N49.2333;13;
3;FRA;Basse-Normandie;Calvados;Tourville-en-Auge 14706;E0.2000;N49.3167;13;
3;FRA;Basse-Normandie;Calvados;Tourville-sur-Odon 14707;W0.5000;N49.1333;13;
3;FRA;Basse-Normandie;Calvados;Tracy-Bocage 14708;W0.6833;N49.0667;13;
3;FRA;Basse-Normandie;Calvados;Tracy-sur-Mer 14709;W0.6500;N49.3333;13;
3;FRA;Basse-Normandie;Calvados;Tréprel 14710;W0.3500;N48.9000;13;
3;FRA;Basse-Normandie;Calvados;Trévières 14711;W0.9000;N49.3167;13;
3;FRA;Basse-Normandie;Calvados;Troarn 14712;W0.1833;N49.1833;13;
3;FRA;Basse-Normandie;Calvados;Trois-Monts 14713;W0.4833;N49.0500;13;
3;FRA;Basse-Normandie;Calvados;Trouville-sur-Mer 14715;E0.0833;N49.3667;13;
3;FRA;Basse-Normandie;Calvados;Trungy 14716;W0.7333;N49.2000;13;
3;FRA;Basse-Normandie;Calvados;Truttemer-le-Grand 14717;W0.8167;N48.7833;13;
3;FRA;Basse-Normandie;Calvados;Truttemer-le-Petit 14718;W0.8167;N48.7667;13;
3;FRA;Basse-Normandie;Calvados;Urville 14719;W0.3000;N49.0333;13;
3;FRA;Basse-Normandie;Calvados;Ussy 14720;W0.2833;N48.9500;13;
3;FRA;Basse-Normandie;Calvados;Vacognes-Neuilly 14721;W0.5234;N49.0737;13;
3;FRA;Basse-Normandie;Calvados;Valsemé 14723;E0.1000;N49.2333;13;
3;FRA;Basse-Normandie;Calvados;Varaville 14724;W0.1500;N49.2500;13;
3;FRA;Basse-Normandie;Calvados;Vasouy 14725=14333;E0.1833;N49.4167;13;
3;FRA;Basse-Normandie;Calvados;Vassy 14726;W0.6667;N48.8500;13;
3;FRA;Basse-Normandie;Calvados;Vaubadon 14727;W0.8333;N49.2000;13;
3;FRA;Basse-Normandie;Calvados;Vaucelles 14728;W0.7333;N49.2833;13;
3;FRA;Basse-Normandie;Calvados;Vaudeloges 14729;E0.0000;N48.9500;13;
3;FRA;Basse-Normandie;Calvados;Vaudry 14730;W0.8500;N48.8333;13;
3;FRA;Basse-Normandie;Calvados;Vauville 14731;E0.0566;N49.3189;13;
3;FRA;Basse-Normandie;Calvados;Vaux-sur-Aure 14732;W0.7000;N49.3000;13;
3;FRA;Basse-Normandie;Calvados;Vaux-sur-Seulles 14733;W0.6333;N49.2667;13;
3;FRA;Basse-Normandie;Calvados;Vendes 14734;W0.6000;N49.1500;13;
3;FRA;Basse-Normandie;Calvados;Vendeuvre 14735;W0.0833;N48.9833;13;
3;FRA;Basse-Normandie;Calvados;Venoix 14736=14118;W0.4005;N49.1739;13;
3;FRA;Basse-Normandie;Calvados;Ver-sur-Mer 14739;W0.5333;N49.3333;13;
3;FRA;Basse-Normandie;Calvados;Versainville 14737;W0.1833;N48.9167;13;
3;FRA;Basse-Normandie;Calvados;Verson 14738;W0.4500;N49.1500;13;
3;FRA;Basse-Normandie;Calvados;Vicques 14742;W0.0833;N48.9500;13;
3;FRA;Basse-Normandie;Calvados;Victot-Pontfol 14743;W0.0167;N49.1667;13;
3;FRA;Basse-Normandie;Calvados;Vienne-en-Bessin 14744;W0.6000;N49.2833;13;
3;FRA;Basse-Normandie;Calvados;Vierville-sur-Mer 14745;W0.9000;N49.3667;13;
3;FRA;Basse-Normandie;Calvados;Viessoix 14746;W0.8000;N48.8333;13;
3;FRA;Basse-Normandie;Calvados;Vieux 14747;W0.4333;N49.1000;13;
3;FRA;Basse-Normandie;Calvados;Vieux-Bourg 14748;E0.2500;N49.3083;13;
3;FRA;Basse-Normandie;Calvados;Vieux-Fumé 14749;W0.1167;N49.0500;13;
3;FRA;Basse-Normandie;Calvados;Vieux-Pont-en-Auge 14750;E0.0517;N49.0368;13;
3;FRA;Basse-Normandie;Calvados;Vignats 14751;W0.1000;N48.8500;13;
3;FRA;Basse-Normandie;Calvados;Villers-Bocage 14752;W0.6500;N49.0833;13;
3;FRA;Basse-Normandie;Calvados;Villers-Canivet 14753;W0.2500;N48.9333;13;
3;FRA;Basse-Normandie;Calvados;Villers-sur-Mer 14754;E0.0000;N49.3167;13;
3;FRA;Basse-Normandie;Calvados;Villerville 14755;E0.1333;N49.4000;13;
3;FRA;Basse-Normandie;Calvados;Villiers-le-Sec 14757;W0.5667;N49.2833;13;
3;FRA;Basse-Normandie;Calvados;Villons-les-Buissons 14758;W0.4000;N49.2333;13;
3;FRA;Basse-Normandie;Calvados;Villy-Bocage 14760;W0.6333;N49.1000;13;
3;FRA;Basse-Normandie;Calvados;Villy-lez-Falaise 14759;W0.1338;N48.8988;13;
3;FRA;Basse-Normandie;Calvados;Vimont 14761;W0.2000;N49.1167;13;
3;FRA;Basse-Normandie;Calvados;Vire 14762;W0.8833;N48.8333;13;
3;FRA;Basse-Normandie;Calvados;Vouilly 14763;W1.0000;N49.2833;13;
2;FRA;Basse-Normandie;Manche;;W1.3156;N49.0901;9;
3;FRA;Basse-Normandie;Manche;Acqueville 50001;W1.7500;N49.6083;13;
3;FRA;Basse-Normandie;Manche;Agneaux 50002;W1.1000;N49.1167;13;
3;FRA;Basse-Normandie;Manche;Agon-Coutainville 50003;W1.5750;N49.0417;13;
3;FRA;Basse-Normandie;Manche;Airel 50004;W1.0833;N49.2167;13;
3;FRA;Basse-Normandie;Manche;Amfreville 50005;W1.3833;N49.4167;13;
3;FRA;Basse-Normandie;Manche;Amigny 50006;W1.1833;N49.1500;13;
3;FRA;Basse-Normandie;Manche;Ancteville 50007;W1.4833;N49.1000;13;
3;FRA;Basse-Normandie;Manche;Anctoville-sur-Boscq 50008;W1.5326;N48.8438;13;
3;FRA;Basse-Normandie;Manche;Angey 50009;W1.5000;N48.7500;13;
3;FRA;Basse-Normandie;Manche;Angoville-au-Plain 50010;W1.2500;N49.3500;13;
3;FRA;Basse-Normandie;Manche;Angoville-en-Saire 50011=50142;W1.3667;N49.6833;13;
3;FRA;Basse-Normandie;Manche;Angoville-sur-Ay 50012;W1.5500;N49.2500;13;
3;FRA;Basse-Normandie;Manche;Anneville-en-Saire 50013;W1.2833;N49.6333;13;
3;FRA;Basse-Normandie;Manche;Anneville-sur-Mer 50014;W1.5833;N49.1167;13;
3;FRA;Basse-Normandie;Manche;Annoville 50015;W1.5333;N48.9667;13;
3;FRA;Basse-Normandie;Manche;Appeville 50016;W1.3333;N49.3167;13;
3;FRA;Basse-Normandie;Manche;Ardevon 50017=50410;W1.4667;N48.6000;13;
3;FRA;Basse-Normandie;Manche;Argouges 50018;W1.4000;N48.5000;13;
3;FRA;Basse-Normandie;Manche;Aucey-la-Plaine 50019;W1.4833;N48.5333;13;
3;FRA;Basse-Normandie;Manche;Auderville 50020;W1.9310;N49.7136;13;
3;FRA;Basse-Normandie;Manche;Audouville-la-Hubert 50021;W1.2333;N49.4167;13;
3;FRA;Basse-Normandie;Manche;Aumeville-Lestre 50022;W1.3167;N49.5333;13;
3;FRA;Basse-Normandie;Manche;Auvers 50023;W1.3167;N49.3000;13;
3;FRA;Basse-Normandie;Manche;Auxais 50024;W1.2833;N49.2167;13;
3;FRA;Basse-Normandie;Manche;Avranches 50025;W1.3667;N48.6833;13;
3;FRA;Basse-Normandie;Manche;Azeville 50026;W1.3167;N49.4667;13;
3;FRA;Basse-Normandie;Manche;Bacilly 50027;W1.4333;N48.7000;13;
3;FRA;Basse-Normandie;Manche;Barenton 50029;W0.8333;N48.6000;13;
3;FRA;Basse-Normandie;Manche;Barfleur 50030;W1.2500;N49.6667;13;
3;FRA;Basse-Normandie;Manche;Barneville-Carteret 50031;W1.7500;N49.3667;13;
3;FRA;Basse-Normandie;Manche;Baubigny 50033;W1.8202;N49.4292;13;
3;FRA;Basse-Normandie;Manche;Baudre 50034;W1.0667;N49.0833;13;
3;FRA;Basse-Normandie;Manche;Baudreville 50035;W1.6333;N49.3000;13;
3;FRA;Basse-Normandie;Manche;Baupte 50036;W1.3500;N49.3000;13;
3;FRA;Basse-Normandie;Manche;Beauchamps 50038;W1.3667;N48.8333;13;
3;FRA;Basse-Normandie;Manche;Beaucoudray 50039;W1.1333;N48.9667;13;
3;FRA;Basse-Normandie;Manche;Beauficel 50040;W0.9500;N48.7333;13;
3;FRA;Basse-Normandie;Manche;Beaumont-Hague 50041;W1.8500;N49.6667;13;
3;FRA;Basse-Normandie;Manche;Beauvoir 50042;W1.5000;N48.6000;13;
3;FRA;Basse-Normandie;Manche;Bellefontaine 50043;W0.9667;N48.6833;13;
3;FRA;Basse-Normandie;Manche;Belval 50044;W1.3667;N49.0333;13;
3;FRA;Basse-Normandie;Manche;Benoîtville 50045;W1.7833;N49.5333;13;
3;FRA;Basse-Normandie;Manche;Bérigny 50046;W0.9333;N49.1500;13;
3;FRA;Basse-Normandie;Manche;Beslon 50048;W1.1500;N48.8500;13;
3;FRA;Basse-Normandie;Manche;Besneville 50049;W1.6333;N49.3667;13;
3;FRA;Basse-Normandie;Manche;Beuvrigny 50050;W1.0000;N48.9667;13;
3;FRA;Basse-Normandie;Manche;Beuzeville-au-Plain 50051;W1.3000;N49.4333;13;
3;FRA;Basse-Normandie;Manche;Beuzeville-la-Bastille 50052;W1.3667;N49.3500;13;
3;FRA;Basse-Normandie;Manche;Biéville 50054;W0.8833;N49.0833;13;
3;FRA;Basse-Normandie;Manche;Biniville 50055;W1.4833;N49.4333;13;
3;FRA;Basse-Normandie;Manche;Bion 50056;W0.9167;N48.6167;13;
3;FRA;Basse-Normandie;Manche;Biville 50057;W1.8167;N49.6167;13;
3;FRA;Basse-Normandie;Manche;Blainville-sur-Mer 50058;W1.5833;N49.0667;13;
3;FRA;Basse-Normandie;Manche;Blosville 50059;W1.2833;N49.3667;13;
3;FRA;Basse-Normandie;Manche;Boisroger 50061;W1.5500;N49.0833;13;
3;FRA;Basse-Normandie;Manche;Boisyvon 50062;W1.1333;N48.8000;13;
3;FRA;Basse-Normandie;Manche;Bolleville 50063;W1.5667;N49.3000;13;
3;FRA;Basse-Normandie;Manche;Boucey 50065=50410;W1.5000;N48.5333;13;
3;FRA;Basse-Normandie;Manche;Bourey 50068=50109;W1.4384;N48.8880;13;
3;FRA;Basse-Normandie;Manche;Bourguenolles 50069;W1.3000;N48.8000;13;
3;FRA;Basse-Normandie;Manche;Boutteville 50070;W1.2500;N49.3833;13;
3;FRA;Basse-Normandie;Manche;Braffais 50071;W1.2667;N48.7500;13;
3;FRA;Basse-Normandie;Manche;Brainville 50072;W1.5000;N49.0833;13;
3;FRA;Basse-Normandie;Manche;Branville-Hague 50073;W1.7833;N49.6500;13;
3;FRA;Basse-Normandie;Manche;Brécey 50074;W1.1667;N48.7333;13;
3;FRA;Basse-Normandie;Manche;Brectouville 50075;W1.0167;N49.0167;13;
3;FRA;Basse-Normandie;Manche;Bréhal 50076;W1.5167;N48.9000;13;
3;FRA;Basse-Normandie;Manche;Bretteville 50077;W1.5167;N49.6500;13;
3;FRA;Basse-Normandie;Manche;Bretteville-sur-Ay 50078;W1.6333;N49.2667;13;
3;FRA;Basse-Normandie;Manche;Breuville 50079;W1.6833;N49.5333;13;
3;FRA;Basse-Normandie;Manche;Brévands 50080;W1.1833;N49.3333;13;
3;FRA;Basse-Normandie;Manche;Bréville-sur-Mer 50081;W1.5500;N48.8667;13;
3;FRA;Basse-Normandie;Manche;Bricquebec 50082;W1.6333;N49.4667;13;
3;FRA;Basse-Normandie;Manche;Bricquebosq 50083;W1.7167;N49.5333;13;
3;FRA;Basse-Normandie;Manche;Bricqueville-la-Blouette 50084;W1.4833;N49.0333;13;
3;FRA;Basse-Normandie;Manche;Bricqueville-sur-Mer 50085;W1.5167;N48.9167;13;
3;FRA;Basse-Normandie;Manche;Brillevast 50086;W1.4000;N49.6333;13;
3;FRA;Basse-Normandie;Manche;Brix 50087;W1.5833;N49.5500;13;
3;FRA;Basse-Normandie;Manche;Brouains 50088;W0.9500;N48.7167;13;
3;FRA;Basse-Normandie;Manche;Brucheville 50089;W1.2000;N49.3667;13;
3;FRA;Basse-Normandie;Manche;Buais 50090;W0.9667;N48.5167;13;
3;FRA;Basse-Normandie;Manche;Cambernon 50092;W1.3833;N49.0833;13;
3;FRA;Basse-Normandie;Manche;Cametours 50093;W1.2833;N49.0667;13;
3;FRA;Basse-Normandie;Manche;Camprond 50094;W1.3500;N49.0833;13;
3;FRA;Basse-Normandie;Manche;Canisy 50095;W1.1667;N49.0833;13;
3;FRA;Basse-Normandie;Manche;Canteloup 50096;W1.3500;N49.6333;13;
3;FRA;Basse-Normandie;Manche;Canville-la-Rocque 50097;W1.6333;N49.3500;13;
3;FRA;Basse-Normandie;Manche;Carantilly 50098;W1.2333;N49.0667;13;
3;FRA;Basse-Normandie;Manche;Carentan 50099;W1.2333;N49.3000;13;
3;FRA;Basse-Normandie;Manche;Carnet 50100;W1.3500;N48.5167;13;
3;FRA;Basse-Normandie;Manche;Carneville 50101;W1.4500;N49.6667;13;
3;FRA;Basse-Normandie;Manche;Carolles 50102;W1.5500;N48.7500;13;
3;FRA;Basse-Normandie;Manche;Carquebut 50103;W1.3333;N49.3667;13;
3;FRA;Basse-Normandie;Manche;Carteret 50104=50031;W1.7863;N49.3792;13;
3;FRA;Basse-Normandie;Manche;Catteville 50105;W1.5667;N49.3500;13;
3;FRA;Basse-Normandie;Manche;Catz 50107;W1.1833;N49.3167;13;
3;FRA;Basse-Normandie;Manche;Cavigny 50106;W1.1000;N49.2000;13;
3;FRA;Basse-Normandie;Manche;Céaux 50108;W1.3833;N48.6333;13;
3;FRA;Basse-Normandie;Manche;Cérences 50109;W1.4333;N48.9167;13;
3;FRA;Basse-Normandie;Manche;Cerisy-la-Forêt 50110;W0.9333;N49.2000;13;
3;FRA;Basse-Normandie;Manche;Cerisy-la-Salle 50111;W1.2833;N49.0333;13;
3;FRA;Basse-Normandie;Manche;Chalandrey 50113=50256;W1.2167;N48.6167;13;
3;FRA;Basse-Normandie;Manche;Champcervon 50115;W1.4000;N48.7833;13;
3;FRA;Basse-Normandie;Manche;Champcey 50116;W1.4500;N48.7333;13;
3;FRA;Basse-Normandie;Manche;Champeaux 50117;W1.5333;N48.7333;13;
3;FRA;Basse-Normandie;Manche;Champrepus 50118;W1.3167;N48.8333;13;
3;FRA;Basse-Normandie;Manche;Chanteloup 50120;W1.4833;N48.9000;13;
3;FRA;Basse-Normandie;Manche;Chasseguey 50125;W1.0833;N48.6500;13;
3;FRA;Basse-Normandie;Manche;Chaulieu 50514;W0.8500;N48.7333;13;
3;FRA;Basse-Normandie;Manche;Chavoy 50126;W1.3333;N48.7333;13;
3;FRA;Basse-Normandie;Manche;Chef-du-Pont 50127;W1.3333;N49.3833;13;
3;FRA;Basse-Normandie;Manche;Cherbourg-Octeville 50129;W1.6500;N49.6500;13;
3;FRA;Basse-Normandie;Manche;Chérencé-le-Héron 50130;W1.1833;N48.8000;13;
3;FRA;Basse-Normandie;Manche;Chérencé-le-Roussel 50131;W1.0167;N48.7000;13;
3;FRA;Basse-Normandie;Manche;Chèvreville 50133;W1.0500;N48.6167;13;
3;FRA;Basse-Normandie;Manche;Chevry 50134;W1.1167;N48.9667;13;
3;FRA;Basse-Normandie;Manche;Clitourps 50135;W1.3667;N49.6500;13;
3;FRA;Basse-Normandie;Manche;Coigny 50136;W1.3833;N49.3167;13;
3;FRA;Basse-Normandie;Manche;Colomby 50138;W1.4833;N49.4500;13;
3;FRA;Basse-Normandie;Manche;Condé-sur-Vire 50139;W1.0333;N49.0500;13;
3;FRA;Basse-Normandie;Manche;Contrières 50140;W1.4333;N48.9833;13;
3;FRA;Basse-Normandie;Manche;Cormeray 50141=50410;W1.4500;N48.5500;13;
3;FRA;Basse-Normandie;Manche;Cosqueville 50142;W1.4000;N49.7000;13;
3;FRA;Basse-Normandie;Manche;Coudeville-sur-Mer 50143;W1.5167;N48.8833;13;
3;FRA;Basse-Normandie;Manche;Coulouvray-Boisbenâtre 50144;W1.1000;N48.7833;13;
3;FRA;Basse-Normandie;Manche;Courcy 50145;W1.4000;N49.0500;13;
3;FRA;Basse-Normandie;Manche;Courtils 50146;W1.4333;N48.6333;13;
3;FRA;Basse-Normandie;Manche;Coutances 50147;W1.4333;N49.0500;13;
3;FRA;Basse-Normandie;Manche;Couvains 50148;W1.0000;N49.1667;13;
3;FRA;Basse-Normandie;Manche;Couville 50149;W1.6833;N49.5500;13;
3;FRA;Basse-Normandie;Manche;Crasville 50150;W1.3333;N49.5500;13;
3;FRA;Basse-Normandie;Manche;Créances 50151;W1.5667;N49.2000;13;
3;FRA;Basse-Normandie;Manche;Cretteville 50153;W1.3833;N49.3500;13;
3;FRA;Basse-Normandie;Manche;Crollon 50155;W1.3833;N48.5833;13;
3;FRA;Basse-Normandie;Manche;Crosville-sur-Douve 50156;W1.4833;N49.3833;13;
3;FRA;Basse-Normandie;Manche;Curey 50157=50410;W1.4667;N48.5667;13;
3;FRA;Basse-Normandie;Manche;Cuves 50158;W1.1167;N48.7167;13;
3;FRA;Basse-Normandie;Manche;Dangy 50159;W1.2167;N49.0500;13;
3;FRA;Basse-Normandie;Manche;Denneville 50160;W1.6500;N49.3167;13;
3;FRA;Basse-Normandie;Manche;Digosville 50162;W1.5333;N49.6333;13;
3;FRA;Basse-Normandie;Manche;Digulleville 50163;W1.8667;N49.7000;13;
3;FRA;Basse-Normandie;Manche;Domjean 50164;W1.0333;N48.9833;13;
3;FRA;Basse-Normandie;Manche;Donville-les-Bains 50165;W1.5667;N48.8500;13;
3;FRA;Basse-Normandie;Manche;Doville 50166;W1.5333;N49.3333;13;
3;FRA;Basse-Normandie;Manche;Dragey-Ronthon 50167;W1.4833;N48.7000;13;
3;FRA;Basse-Normandie;Manche;Ducey 50168;W1.3000;N48.6167;13;
3;FRA;Basse-Normandie;Manche;Écausseville 50169;W1.3667;N49.4667;13;
3;FRA;Basse-Normandie;Manche;Écoquenéauville 50170;W1.2833;N49.4000;13;
3;FRA;Basse-Normandie;Manche;Éculleville 50171;W1.8167;N49.6833;13;
3;FRA;Basse-Normandie;Manche;Émondeville 50172;W1.3333;N49.4667;13;
3;FRA;Basse-Normandie;Manche;Équeurdreville-Hainneville 50173;W1.6500;N49.6333;13;
3;FRA;Basse-Normandie;Manche;Équilly 50174;W1.3833;N48.8333;13;
3;FRA;Basse-Normandie;Manche;Éroudeville 50175;W1.3833;N49.4833;13;
3;FRA;Basse-Normandie;Manche;Étienville 50177;W1.4167;N49.3833;13;
3;FRA;Basse-Normandie;Manche;Fermanville 50178;W1.4500;N49.6833;13;
3;FRA;Basse-Normandie;Manche;Ferrières 50179;W0.9500;N48.5333;13;
3;FRA;Basse-Normandie;Manche;Fervaches 50180;W1.0833;N49.0000;13;
3;FRA;Basse-Normandie;Manche;Feugères 50181;W1.3167;N49.1500;13;
3;FRA;Basse-Normandie;Manche;Fierville-les-Mines 50183;W1.6667;N49.3833;13;
3;FRA;Basse-Normandie;Manche;Flamanville 50184;W1.8667;N49.5333;13;
3;FRA;Basse-Normandie;Manche;Fleury 50185;W1.2833;N48.8500;13;
3;FRA;Basse-Normandie;Manche;Flottemanville 50186;W1.4500;N49.4833;13;
3;FRA;Basse-Normandie;Manche;Flottemanville-Hague 50187;W1.7167;N49.6167;13;
3;FRA;Basse-Normandie;Manche;Folligny 50188;W1.4167;N48.8167;13;
3;FRA;Basse-Normandie;Manche;Fontenay 50189;W1.0167;N48.6167;13;
3;FRA;Basse-Normandie;Manche;Fontenay-sur-Mer 50190;W1.3167;N49.4833;13;
3;FRA;Basse-Normandie;Manche;Foucarville 50191;W1.2500;N49.4500;13;
3;FRA;Basse-Normandie;Manche;Fourneaux 50192;W1.0333;N48.9667;13;
3;FRA;Basse-Normandie;Manche;Fresville 50194;W1.3500;N49.4333;13;
3;FRA;Basse-Normandie;Manche;Gathemo 50195;W0.9667;N48.7667;13;
3;FRA;Basse-Normandie;Manche;Gatteville-le-Phare 50196;W1.2833;N49.6833;13;
3;FRA;Basse-Normandie;Manche;Gavray 50197;W1.3500;N48.9167;13;
3;FRA;Basse-Normandie;Manche;Geffosses 50198;W1.5500;N49.1333;13;
3;FRA;Basse-Normandie;Manche;Genêts 50199;W1.4833;N48.6833;13;
3;FRA;Basse-Normandie;Manche;Ger 50200;W0.8000;N48.6833;13;
3;FRA;Basse-Normandie;Manche;Gerville-la-Forêt 50201=50629;W1.4833;N49.2667;13;
3;FRA;Basse-Normandie;Manche;Giéville 50202;W0.9833;N49.0167;13;
3;FRA;Basse-Normandie;Manche;Glatigny 50204;W1.6333;N49.2833;13;
3;FRA;Basse-Normandie;Manche;Golleville 50207;W1.5167;N49.4333;13;
3;FRA;Basse-Normandie;Manche;Gonfreville 50208;W1.4000;N49.2333;13;
3;FRA;Basse-Normandie;Manche;Gonneville 50209;W1.4667;N49.6333;13;
3;FRA;Basse-Normandie;Manche;Gorges 50210;W1.4000;N49.2667;13;
3;FRA;Basse-Normandie;Manche;Gouberville 50211;W1.3167;N49.6833;13;
3;FRA;Basse-Normandie;Manche;Gourbesville 50212;W1.4167;N49.4167;13;
3;FRA;Basse-Normandie;Manche;Gourfaleur 50213;W1.1167;N49.0833;13;
3;FRA;Basse-Normandie;Manche;Gouvets 50214;W1.1000;N48.9333;13;
3;FRA;Basse-Normandie;Manche;Gouville-sur-Mer 50215;W1.5833;N49.1000;13;
3;FRA;Basse-Normandie;Manche;Graignes 50216;W1.2000;N49.2500;13;
3;FRA;Basse-Normandie;Manche;Granville 50218;W1.6000;N48.8333;13;
3;FRA;Basse-Normandie;Manche;Gratot 50219;W1.4833;N49.0667;13;
3;FRA;Basse-Normandie;Manche;Gréville-Hague 50220;W1.8000;N49.6667;13;
3;FRA;Basse-Normandie;Manche;Grimesnil 50221;W1.3500;N48.9500;13;
3;FRA;Basse-Normandie;Manche;Grosville 50222;W1.7500;N49.5000;13;
3;FRA;Basse-Normandie;Manche;Guéhébert 50223;W1.3667;N48.9667;13;
3;FRA;Basse-Normandie;Manche;Guilberville 50224;W0.9500;N48.9833;13;
3;FRA;Basse-Normandie;Manche;Hainneville 50226=50173;W1.6837;N49.6481;13;
3;FRA;Basse-Normandie;Manche;Hambye 50228;W1.2667;N48.9500;13;
3;FRA;Basse-Normandie;Manche;Hamelin 50229;W1.2167;N48.5500;13;
3;FRA;Basse-Normandie;Manche;Hardinvast 50230;W1.6500;N49.5833;13;
3;FRA;Basse-Normandie;Manche;Hauteville-la-Guichard 50232;W1.3000;N49.1167;13;
3;FRA;Basse-Normandie;Manche;Hauteville-sur-Mer 50231;W1.5333;N48.9833;13;
3;FRA;Basse-Normandie;Manche;Hautteville-Bocage 50233;W1.4667;N49.4333;13;
3;FRA;Basse-Normandie;Manche;Héauville 50238;W1.8000;N49.5833;13;
3;FRA;Basse-Normandie;Manche;Hébécrevon 50239;W1.1667;N49.1333;13;
3;FRA;Basse-Normandie;Manche;Helleville 50240;W1.7833;N49.5500;13;
3;FRA;Basse-Normandie;Manche;Hémevez 50241;W1.4333;N49.4667;13;
3;FRA;Basse-Normandie;Manche;Hérenguerville 50244;W1.5000;N48.9833;13;
3;FRA;Basse-Normandie;Manche;Herqueville 50242;W1.8833;N49.6667;13;
3;FRA;Basse-Normandie;Manche;Heugueville-sur-Sienne 50243;W1.5167;N49.0333;13;
3;FRA;Basse-Normandie;Manche;Heussé 50245;W0.9000;N48.5000;13;
3;FRA;Basse-Normandie;Manche;Hiesville 50246;W1.2667;N49.3667;13;
3;FRA;Basse-Normandie;Manche;Hocquigny 50247;W1.4167;N48.8167;13;
3;FRA;Basse-Normandie;Manche;Houesville 50249;W1.2833;N49.3500;13;
3;FRA;Basse-Normandie;Manche;Houtteville 50250;W1.3667;N49.3333;13;
3;FRA;Basse-Normandie;Manche;Huberville 50251;W1.4167;N49.5167;13;
3;FRA;Basse-Normandie;Manche;Hudimesnil 50252;W1.4833;N48.8667;13;
3;FRA;Basse-Normandie;Manche;Huisnes-sur-Mer 50253;W1.4500;N48.6000;13;
3;FRA;Basse-Normandie;Manche;Husson 50254;W0.8833;N48.5667;13;
3;FRA;Basse-Normandie;Manche;Hyenville 50255;W1.4667;N49.0000;13;
3;FRA;Basse-Normandie;Manche;Isigny-le-Buat 50256;W1.1667;N48.6167;13;
3;FRA;Basse-Normandie;Manche;Jobourg 50257;W1.9038;N49.6833;13;
3;FRA;Basse-Normandie;Manche;Joganville 50258;W1.3500;N49.4667;13;
3;FRA;Basse-Normandie;Manche;Juilley 50259;W1.3500;N48.6000;13;
3;FRA;Basse-Normandie;Manche;Jullouville 50066;W1.5500;N48.7667;13;
3;FRA;Basse-Normandie;Manche;Juvigny-le-Tertre 50260;W1.0167;N48.6833;13;
3;FRA;Basse-Normandie;Manche;L'Étang-Bertrand 50176;W1.5583;N49.4667;13;
3;FRA;Basse-Normandie;Manche;La Baleine 50028;W1.3167;N48.9167;13;
3;FRA;Basse-Normandie;Manche;La Barre-de-Semilly 50032;W1.0333;N49.1167;13;
3;FRA;Basse-Normandie;Manche;La Bazoge 50037;W1.0333;N48.6500;13;
3;FRA;Basse-Normandie;Manche;La Beslière 50047=50188;W1.4333;N48.8167;13;
3;FRA;Basse-Normandie;Manche;La Bloutière 50060;W1.2333;N48.8667;13;
3;FRA;Basse-Normandie;Manche;La Bonneville 50064;W1.4500;N49.4000;13;
3;FRA;Basse-Normandie;Manche;La Boulouze 50067=50531;W1.2167;N48.6833;13;
3;FRA;Basse-Normandie;Manche;La Chaise-Baudouin 50112;W1.2333;N48.7667;13;
3;FRA;Basse-Normandie;Manche;La Chapelle-Cécelin 50121;W1.1667;N48.8167;13;
3;FRA;Basse-Normandie;Manche;La Chapelle-du-Fest 50122=50444;W0.9667;N49.0667;13;
3;FRA;Basse-Normandie;Manche;La Chapelle-en-Juger 50123;W1.2167;N49.1333;13;
3;FRA;Basse-Normandie;Manche;La Chapelle-Urée 50124;W1.1500;N48.6667;13;
3;FRA;Basse-Normandie;Manche;La Colombe 50137;W1.1833;N48.8667;13;
3;FRA;Basse-Normandie;Manche;La Croix-Avranchin 50154;W1.3833;N48.5500;13;
3;FRA;Basse-Normandie;Manche;La Feuillie 50182;W1.4833;N49.1833;13;
3;FRA;Basse-Normandie;Manche;La Glacerie 50203;W1.5667;N49.6000;13;
3;FRA;Basse-Normandie;Manche;La Godefroy 50205;W1.3000;N48.6833;13;
3;FRA;Basse-Normandie;Manche;La Gohannière 50206;W1.2500;N48.7000;13;
3;FRA;Basse-Normandie;Manche;La Haye-Bellefond 50234;W1.1667;N48.9833;13;
3;FRA;Basse-Normandie;Manche;La Haye-d'Ectot 50235;W1.7333;N49.3833;13;
3;FRA;Basse-Normandie;Manche;La Haye-du-Puits 50236;W1.5500;N49.3000;13;
3;FRA;Basse-Normandie;Manche;La Haye-Pesnel 50237;W1.4000;N48.8000;13;
3;FRA;Basse-Normandie;Manche;La Lande-d'Airou 50262;W1.2833;N48.8167;13;
3;FRA;Basse-Normandie;Manche;La Lucerne-d'Outremer 50281;W1.4333;N48.7833;13;
3;FRA;Basse-Normandie;Manche;La Luzerne 50283;W1.0500;N49.1333;13;
3;FRA;Basse-Normandie;Manche;La Mancellière 50286=50256;W1.1667;N48.6500;13;
3;FRA;Basse-Normandie;Manche;La Mancellière-sur-Vire 50287;W1.0667;N49.0667;13;
3;FRA;Basse-Normandie;Manche;La Meauffe 50297;W1.1167;N49.1833;13;
3;FRA;Basse-Normandie;Manche;La Meurdraquière 50327;W1.4000;N48.8500;13;
3;FRA;Basse-Normandie;Manche;La Mouche 50361;W1.3500;N48.8000;13;
3;FRA;Basse-Normandie;Manche;La Pernelle 50395;W1.3000;N49.6167;13;
3;FRA;Basse-Normandie;Manche;La Rochelle-Normande 50434;W1.4333;N48.7667;13;
3;FRA;Basse-Normandie;Manche;La Ronde-Haye 50438;W1.4500;N49.1333;13;
3;FRA;Basse-Normandie;Manche;La Trinité 50607;W1.2333;N48.7833;13;
3;FRA;Basse-Normandie;Manche;La Vendelée 50624;W1.4667;N49.0833;13;
3;FRA;Basse-Normandie;Manche;Lamberville 50261;W0.9000;N49.0833;13;
3;FRA;Basse-Normandie;Manche;Lapenty 50263;W1.0000;N48.5833;13;
3;FRA;Basse-Normandie;Manche;Lastelle 50264=50405;W1.4563;N49.2729;13;
3;FRA;Basse-Normandie;Manche;Laulne 50265;W1.4667;N49.2500;13;
3;FRA;Basse-Normandie;Manche;Le Buat 50091=50256;W1.1766;N48.6352;13;
3;FRA;Basse-Normandie;Manche;Le Chefresne 50128;W1.1500;N48.9000;13;
3;FRA;Basse-Normandie;Manche;Le Dézert 50161;W1.1667;N49.2000;13;
3;FRA;Basse-Normandie;Manche;Le Fresne-Poret 50193;W0.8333;N48.7000;13;
3;FRA;Basse-Normandie;Manche;Le Grand-Celland 50217;W1.1833;N48.6833;13;
3;FRA;Basse-Normandie;Manche;Le Guislain 50225;W1.2333;N48.9667;13;
3;FRA;Basse-Normandie;Manche;Le Ham 50227;W1.4167;N49.4500;13;
3;FRA;Basse-Normandie;Manche;Le Hommet-d'Arthenay 50248;W1.1833;N49.1833;13;
3;FRA;Basse-Normandie;Manche;Le Loreur 50278;W1.4333;N48.8667;13;
3;FRA;Basse-Normandie;Manche;Le Lorey 50279;W1.3000;N49.1000;13;
3;FRA;Basse-Normandie;Manche;Le Luot 50282;W1.3167;N48.7500;13;
3;FRA;Basse-Normandie;Manche;Le Mesnil 50299;W1.6917;N49.3667;13;
3;FRA;Basse-Normandie;Manche;Le Mesnil-Adelée 50300;W1.0667;N48.7000;13;
3;FRA;Basse-Normandie;Manche;Le Mesnil-Amand 50301;W1.3667;N48.8833;13;
3;FRA;Basse-Normandie;Manche;Le Mesnil-Amey 50302;W1.2000;N49.1000;13;
3;FRA;Basse-Normandie;Manche;Le Mesnil-Angot 50303;W1.2000;N49.2167;13;
3;FRA;Basse-Normandie;Manche;Le Mesnil-au-Val 50305;W1.5333;N49.6000;13;
3;FRA;Basse-Normandie;Manche;Le Mesnil-Aubert 50304;W1.4167;N48.9500;13;
3;FRA;Basse-Normandie;Manche;Le Mesnil-Boeufs 50306=50256;W1.1667;N48.6333;13;
3;FRA;Basse-Normandie;Manche;Le Mesnil-Bonant 50307=50197;W1.3000;N48.9000;13;
3;FRA;Basse-Normandie;Manche;Le Mesnil-Drey 50309=50188;W1.4167;N48.8167;13;
3;FRA;Basse-Normandie;Manche;Le Mesnil-Eury 50310;W1.2333;N49.1500;13;
3;FRA;Basse-Normandie;Manche;Le Mesnil-Garnier 50311;W1.3000;N48.8667;13;
3;FRA;Basse-Normandie;Manche;Le Mesnil-Gilbert 50312;W1.0667;N48.7167;13;
3;FRA;Basse-Normandie;Manche;Le Mesnil-Herman 50313;W1.1500;N49.0333;13;
3;FRA;Basse-Normandie;Manche;Le Mesnil-Hue 50314=50197;W1.3000;N48.8833;13;
3;FRA;Basse-Normandie;Manche;Le Mesnil-Opac 50316;W1.1000;N49.0167;13;
3;FRA;Basse-Normandie;Manche;Le Mesnil-Ozenne 50317;W1.2333;N48.6667;13;
3;FRA;Basse-Normandie;Manche;Le Mesnil-Rainfray 50318;W1.0500;N48.6667;13;
3;FRA;Basse-Normandie;Manche;Le Mesnil-Raoult 50319;W1.0667;N49.0333;13;
3;FRA;Basse-Normandie;Manche;Le Mesnil-Rogues 50320;W1.3833;N48.8667;13;
3;FRA;Basse-Normandie;Manche;Le Mesnil-Rouxelin 50321;W1.0833;N49.1500;13;
3;FRA;Basse-Normandie;Manche;Le Mesnil-Thébault 50322=50256;W1.2000;N48.6167;13;
3;FRA;Basse-Normandie;Manche;Le Mesnil-Tôve 50323;W1.0167;N48.7000;13;
3;FRA;Basse-Normandie;Manche;Le Mesnil-Véneron 50324;W1.1667;N49.2333;13;
3;FRA;Basse-Normandie;Manche;Le Mesnil-Vigot 50325;W1.2833;N49.1500;13;
3;FRA;Basse-Normandie;Manche;Le Mesnil-Villeman 50326;W1.3333;N48.8667;13;
3;FRA;Basse-Normandie;Manche;Le Mesnilbus 50308;W1.3500;N49.1333;13;
3;FRA;Basse-Normandie;Manche;Le Mesnillard 50315;W1.0833;N48.6333;13;
3;FRA;Basse-Normandie;Manche;Le Mont-Saint-Michel 50353;W1.5000;N48.6333;13;
3;FRA;Basse-Normandie;Manche;Le Neufbourg 50371;W0.9500;N48.6500;13;
3;FRA;Basse-Normandie;Manche;Le Perron 50398;W0.9000;N49.0500;13;
3;FRA;Basse-Normandie;Manche;Le Petit-Celland 50399;W1.2167;N48.7000;13;
3;FRA;Basse-Normandie;Manche;Le Plessis-Lastelle 50405;W1.4167;N49.2267;13;
3;FRA;Basse-Normandie;Manche;Le Rozel 50442;W1.8333;N49.4833;13;
3;FRA;Basse-Normandie;Manche;Le Tanu 50590;W1.3500;N48.8167;13;
3;FRA;Basse-Normandie;Manche;Le Teilleul 50591;W0.8833;N48.5500;13;
3;FRA;Basse-Normandie;Manche;Le Theil 50595;W1.4667;N49.6000;13;
3;FRA;Basse-Normandie;Manche;Le Val-Saint-Père 50616;W1.3500;N48.6667;13;
3;FRA;Basse-Normandie;Manche;Le Valdécie 50614;W1.6500;N49.4167;13;
3;FRA;Basse-Normandie;Manche;Le Vast 50619;W1.3500;N49.6167;13;
3;FRA;Basse-Normandie;Manche;Le Vicel 50633;W1.3167;N49.6333;13;
3;FRA;Basse-Normandie;Manche;Le Vrétot 50646;W1.7167;N49.4500;13;
3;FRA;Basse-Normandie;Manche;Lengronne 50266;W1.3833;N48.9333;13;
3;FRA;Basse-Normandie;Manche;Les Biards 50053=50256;W1.1833;N48.5833;13;
3;FRA;Basse-Normandie;Manche;Les Chambres 50114;W1.3833;N48.7667;13;
3;FRA;Basse-Normandie;Manche;Les Champs-de-Losque 50119;W1.2333;N49.1833;13;
3;FRA;Basse-Normandie;Manche;Les Chéris 50132;W1.2500;N48.6333;13;
3;FRA;Basse-Normandie;Manche;Les Cresnays 50152;W1.1333;N48.7167;13;
3;FRA;Basse-Normandie;Manche;Les Loges-Marchis 50274;W1.1000;N48.5500;13;
3;FRA;Basse-Normandie;Manche;Les Loges-sur-Brécey 50275;W1.1667;N48.7667;13;
3;FRA;Basse-Normandie;Manche;Les Moitiers-d'Allonne 50332;W1.7833;N49.4000;13;
3;FRA;Basse-Normandie;Manche;Les Moitiers-en-Bauptois 50333;W1.4333;N49.3667;13;
3;FRA;Basse-Normandie;Manche;Les Pas 50392=50410;W1.4833;N48.5833;13;
3;FRA;Basse-Normandie;Manche;Les Perques 50396;W1.6667;N49.4500;13;
3;FRA;Basse-Normandie;Manche;Les Pieux 50402;W1.8000;N49.5167;13;
3;FRA;Basse-Normandie;Manche;Les Veys 50631;W1.1500;N49.3167;13;
3;FRA;Basse-Normandie;Manche;Lessay 50267;W1.5333;N49.2167;13;
3;FRA;Basse-Normandie;Manche;Lestre 50268;W1.3333;N49.5167;13;
3;FRA;Basse-Normandie;Manche;Liesville-sur-Douve 50269;W1.3333;N49.3500;13;
3;FRA;Basse-Normandie;Manche;Lieusaint 50270;W1.4667;N49.4667;13;
3;FRA;Basse-Normandie;Manche;Lingeard 50271;W1.0333;N48.7333;13;
3;FRA;Basse-Normandie;Manche;Lingreville 50272;W1.5333;N48.9500;13;
3;FRA;Basse-Normandie;Manche;Lithaire 50273;W1.4833;N49.3000;13;
3;FRA;Basse-Normandie;Manche;Lolif 50276;W1.3833;N48.7333;13;
3;FRA;Basse-Normandie;Manche;Longueville 50277;W1.5500;N48.8500;13;
3;FRA;Basse-Normandie;Manche;Lozon 50280;W1.2667;N49.1333;13;
3;FRA;Basse-Normandie;Manche;Macey 50284;W1.4333;N48.5667;13;
3;FRA;Basse-Normandie;Manche;Magneville 50285;W1.5500;N49.4500;13;
3;FRA;Basse-Normandie;Manche;Marcey-les-Grèves 50288;W1.3833;N48.7000;13;
3;FRA;Basse-Normandie;Manche;Marchésieux 50289;W1.2833;N49.1833;13;
3;FRA;Basse-Normandie;Manche;Marcilly 50290;W1.2500;N48.6333;13;
3;FRA;Basse-Normandie;Manche;Margueray 50291;W1.1333;N48.9000;13;
3;FRA;Basse-Normandie;Manche;Marigny 50292;W1.2500;N49.1000;13;
3;FRA;Basse-Normandie;Manche;Martigny 50293;W1.1167;N48.6167;13;
3;FRA;Basse-Normandie;Manche;Martinvast 50294;W1.6667;N49.6000;13;
3;FRA;Basse-Normandie;Manche;Maupertuis 50295;W1.2000;N48.9500;13;
3;FRA;Basse-Normandie;Manche;Maupertus-sur-Mer 50296;W1.4833;N49.6667;13;
3;FRA;Basse-Normandie;Manche;Méautis 50298;W1.3000;N49.2833;13;
3;FRA;Basse-Normandie;Manche;Millières 50328;W1.4667;N49.1833;13;
3;FRA;Basse-Normandie;Manche;Milly 50329;W1.0167;N48.6000;13;
3;FRA;Basse-Normandie;Manche;Mobecq 50330;W1.5167;N49.2667;13;
3;FRA;Basse-Normandie;Manche;Moidrey 50331=50410;W1.5000;N48.5667;13;
3;FRA;Basse-Normandie;Manche;Montabot 50334;W1.1167;N48.9333;13;
3;FRA;Basse-Normandie;Manche;Montaigu-la-Brisette 50335;W1.4167;N49.5500;13;
3;FRA;Basse-Normandie;Manche;Montaigu-les-Bois 50336;W1.2833;N48.9000;13;
3;FRA;Basse-Normandie;Manche;Montanel 50337;W1.4167;N48.5000;13;
3;FRA;Basse-Normandie;Manche;Montbray 50338;W1.1000;N48.8833;13;
3;FRA;Basse-Normandie;Manche;Montchaton 50339;W1.5000;N49.0167;13;
3;FRA;Basse-Normandie;Manche;Montcuit 50340;W1.3333;N49.1167;13;
3;FRA;Basse-Normandie;Manche;Montebourg 50341;W1.3833;N49.4833;13;
3;FRA;Basse-Normandie;Manche;Montfarville 50342;W1.2667;N49.6500;13;
3;FRA;Basse-Normandie;Manche;Montgardon 50343;W1.5667;N49.2833;13;
3;FRA;Basse-Normandie;Manche;Montgothier 50344=50256;W1.2000;N48.6500;13;
3;FRA;Basse-Normandie;Manche;Monthuchon 50345;W1.4167;N49.0833;13;
3;FRA;Basse-Normandie;Manche;Montigny 50346=50256;W1.1261;N48.6449;13;
3;FRA;Basse-Normandie;Manche;Montjoie-Saint-Martin 50347;W1.3000;N48.5333;13;
3;FRA;Basse-Normandie;Manche;Montmartin-en-Graignes 50348;W1.1500;N49.2833;13;
3;FRA;Basse-Normandie;Manche;Montmartin-sur-Mer 50349;W1.5167;N48.9833;13;
3;FRA;Basse-Normandie;Manche;Montpinchon 50350;W1.3167;N49.0167;13;
3;FRA;Basse-Normandie;Manche;Montrabot 50351;W0.8833;N49.1167;13;
3;FRA;Basse-Normandie;Manche;Montreuil-sur-Lozon 50352;W1.2333;N49.1333;13;
3;FRA;Basse-Normandie;Manche;Montsurvent 50354;W1.5000;N49.1167;13;
3;FRA;Basse-Normandie;Manche;Montviron 50355;W1.4167;N48.7333;13;
3;FRA;Basse-Normandie;Manche;Moon-sur-Elle 50356;W1.0500;N49.2000;13;
3;FRA;Basse-Normandie;Manche;Morigny 50357;W1.0667;N48.8833;13;
3;FRA;Basse-Normandie;Manche;Morsalines 50358;W1.3000;N49.5667;13;
3;FRA;Basse-Normandie;Manche;Mortain 50359;W0.9333;N48.6500;13;
3;FRA;Basse-Normandie;Manche;Morville 50360;W1.5000;N49.4833;13;
3;FRA;Basse-Normandie;Manche;Moulines 50362;W1.0333;N48.5417;13;
3;FRA;Basse-Normandie;Manche;Moyon 50363;W1.1167;N49.0000;13;
3;FRA;Basse-Normandie;Manche;Muneville-le-Bingard 50364;W1.4833;N49.1333;13;
3;FRA;Basse-Normandie;Manche;Muneville-sur-Mer 50365;W1.4833;N48.9333;13;
3;FRA;Basse-Normandie;Manche;Nacqueville 50366=50611;W1.7355;N49.6658;13;
3;FRA;Basse-Normandie;Manche;Naftel 50367=50256;W1.1333;N48.6167;13;
3;FRA;Basse-Normandie;Manche;Nay 50368;W1.3667;N49.2333;13;
3;FRA;Basse-Normandie;Manche;Négreville 50369;W1.5500;N49.4833;13;
3;FRA;Basse-Normandie;Manche;Néhou 50370;W1.5333;N49.4167;13;
3;FRA;Basse-Normandie;Manche;Neufmesnil 50372;W1.5333;N49.3167;13;
3;FRA;Basse-Normandie;Manche;Neuville-au-Plain 50373;W1.3333;N49.4333;13;
3;FRA;Basse-Normandie;Manche;Neuville-en-Beaumont 50374;W1.6000;N49.3500;13;
3;FRA;Basse-Normandie;Manche;Néville-sur-Mer 50375;W1.3333;N49.6833;13;
3;FRA;Basse-Normandie;Manche;Nicorps 50376;W1.4167;N49.0333;13;
3;FRA;Basse-Normandie;Manche;Noirpalu 50377=50590;W1.3333;N48.7833;13;
3;FRA;Basse-Normandie;Manche;Notre-Dame-d'Elle 50380;W0.9667;N49.1167;13;
3;FRA;Basse-Normandie;Manche;Notre-Dame-de-Cenilly 50378;W1.2500;N49.0000;13;
3;FRA;Basse-Normandie;Manche;Notre-Dame-de-Livoye 50379;W1.2000;N48.7500;13;
3;FRA;Basse-Normandie;Manche;Notre-Dame-du-Touchet 50381;W0.9500;N48.5833;13;
3;FRA;Basse-Normandie;Manche;Nouainville 50382;W1.6833;N49.6167;13;
3;FRA;Basse-Normandie;Manche;Octeville 50383=50129;W1.6500;N49.6167;13;
3;FRA;Basse-Normandie;Manche;Octeville-l'Avenel 50384;W1.3500;N49.5333;13;
3;FRA;Basse-Normandie;Manche;Omonville-la-Petite 50385;W1.8833;N49.7000;13;
3;FRA;Basse-Normandie;Manche;Omonville-la-Rogue 50386;W1.8500;N49.7000;13;
3;FRA;Basse-Normandie;Manche;Orglandes 50387;W1.4500;N49.4167;13;
3;FRA;Basse-Normandie;Manche;Orval 50388;W1.4667;N49.0167;13;
3;FRA;Basse-Normandie;Manche;Ouville 50389;W1.3667;N49.0167;13;
3;FRA;Basse-Normandie;Manche;Ozeville 50390;W1.3333;N49.5000;13;
3;FRA;Basse-Normandie;Manche;Parigny 50391;W1.0833;N48.6000;13;
3;FRA;Basse-Normandie;Manche;Percy 50393;W1.1833;N48.9167;13;
3;FRA;Basse-Normandie;Manche;Périers 50394;W1.4167;N49.1833;13;
3;FRA;Basse-Normandie;Manche;Perriers-en-Beauficel 50397;W1.0000;N48.7333;13;
3;FRA;Basse-Normandie;Manche;Picauville 50400;W1.4000;N49.3833;13;
3;FRA;Basse-Normandie;Manche;Pierreville 50401;W1.7833;N49.4833;13;
3;FRA;Basse-Normandie;Manche;Pirou 50403;W1.5833;N49.1833;13;
3;FRA;Basse-Normandie;Manche;Placy-Montaigu 50404;W0.9000;N49.0333;13;
3;FRA;Basse-Normandie;Manche;Plomb 50406;W1.3000;N48.7333;13;
3;FRA;Basse-Normandie;Manche;Poilley 50407;W1.3167;N48.6167;13;
3;FRA;Basse-Normandie;Manche;Pont-Hébert 50409;W1.1333;N49.1667;13;
3;FRA;Basse-Normandie;Manche;Pontaubault 50408;W1.3500;N48.6333;13;
3;FRA;Basse-Normandie;Manche;Pontorson 50410;W1.5167;N48.5500;13;
3;FRA;Basse-Normandie;Manche;Ponts 50411;W1.3500;N48.7000;13;
3;FRA;Basse-Normandie;Manche;Portbail 50412;W1.7000;N49.3333;13;
3;FRA;Basse-Normandie;Manche;Précey 50413;W1.3833;N48.6000;13;
3;FRA;Basse-Normandie;Manche;Précorbin 50414;W0.9500;N49.0833;13;
3;FRA;Basse-Normandie;Manche;Prétot-Sainte-Suzanne 50415;W1.4167;N49.3167;13;
3;FRA;Basse-Normandie;Manche;Querqueville 50416;W1.7000;N49.6667;13;
3;FRA;Basse-Normandie;Manche;Quettehou 50417;W1.3000;N49.6000;13;
3;FRA;Basse-Normandie;Manche;Quettetot 50418;W1.6667;N49.4833;13;
3;FRA;Basse-Normandie;Manche;Quettreville-sur-Sienne 50419;W1.4667;N48.9667;13;
3;FRA;Basse-Normandie;Manche;Quibou 50420;W1.2000;N49.0667;13;
3;FRA;Basse-Normandie;Manche;Quinéville 50421;W1.3000;N49.5167;13;
3;FRA;Basse-Normandie;Manche;Raids 50422;W1.3500;N49.2167;13;
3;FRA;Basse-Normandie;Manche;Rampan 50423;W1.1500;N49.1333;13;
3;FRA;Basse-Normandie;Manche;Rancoudray 50424=50456;W0.8667;N48.6500;13;
3;FRA;Basse-Normandie;Manche;Rauville-la-Bigot 50425;W1.6833;N49.5167;13;
3;FRA;Basse-Normandie;Manche;Rauville-la-Place 50426;W1.5000;N49.3833;13;
3;FRA;Basse-Normandie;Manche;Ravenoville 50427;W1.2667;N49.4667;13;
3;FRA;Basse-Normandie;Manche;Reffuveille 50428;W1.1167;N48.6667;13;
3;FRA;Basse-Normandie;Manche;Regnéville-sur-Mer 50429;W1.5500;N49.0167;13;
3;FRA;Basse-Normandie;Manche;Reigneville-Bocage 50430;W1.4667;N49.4000;13;
3;FRA;Basse-Normandie;Manche;Remilly-sur-Lozon 50431;W1.2500;N49.1833;13;
3;FRA;Basse-Normandie;Manche;Réthoville 50432;W1.3500;N49.7000;13;
3;FRA;Basse-Normandie;Manche;Réville 50433;W1.2500;N49.6167;13;
3;FRA;Basse-Normandie;Manche;Rocheville 50435;W1.6000;N49.5000;13;
3;FRA;Basse-Normandie;Manche;Romagny 50436;W0.9667;N48.6500;13;
3;FRA;Basse-Normandie;Manche;Roncey 50437;W1.3333;N48.9833;13;
3;FRA;Basse-Normandie;Manche;Ronthon 50439=50167;W1.4833;N48.7333;13;
3;FRA;Basse-Normandie;Manche;Rouffigny 50440;W1.2500;N48.8000;13;
3;FRA;Basse-Normandie;Manche;Rouxeville 50441;W0.9500;N49.1000;13;
3;FRA;Basse-Normandie;Manche;Sacey 50443;W1.4500;N48.5000;13;
3;FRA;Basse-Normandie;Manche;Saint-Amand 50444;W0.9667;N49.0500;13;
3;FRA;Basse-Normandie;Manche;Saint-André-de-Bohon 50445;W1.2500;N49.2333;13;
3;FRA;Basse-Normandie;Manche;Saint-André-de-l'Épine 50446;W1.0000;N49.1333;13;
3;FRA;Basse-Normandie;Manche;Saint-Aubin-de-Terregatte 50448;W1.3000;N48.5833;13;
3;FRA;Basse-Normandie;Manche;Saint-Aubin-des-Préaux 50447;W1.5000;N48.8000;13;
3;FRA;Basse-Normandie;Manche;Saint-Aubin-du-Perron 50449;W1.3667;N49.1500;13;
3;FRA;Basse-Normandie;Manche;Saint-Barthélemy 50450;W0.9500;N48.6833;13;
3;FRA;Basse-Normandie;Manche;Saint-Brice 50451;W1.3000;N48.6833;13;
3;FRA;Basse-Normandie;Manche;Saint-Brice-de-Landelles 50452;W1.1500;N48.5333;13;
3;FRA;Basse-Normandie;Manche;Saint-Christophe-du-Foc 50454;W1.7500;N49.5500;13;
3;FRA;Basse-Normandie;Manche;Saint-Clair-sur-l'Elle 50455;W1.0333;N49.2000;13;
3;FRA;Basse-Normandie;Manche;Saint-Clément-Rancoudray 50456;W0.8833;N48.6667;13;
3;FRA;Basse-Normandie;Manche;Saint-Côme-du-Mont 50458;W1.2667;N49.3333;13;
3;FRA;Basse-Normandie;Manche;Saint-Cyr 50461;W1.4167;N49.4833;13;
3;FRA;Basse-Normandie;Manche;Saint-Cyr-du-Bailleul 50462;W0.8000;N48.5667;13;
3;FRA;Basse-Normandie;Manche;Saint-Denis-le-Gast 50463;W1.3333;N48.9500;13;
3;FRA;Basse-Normandie;Manche;Saint-Denis-le-Vêtu 50464;W1.4000;N48.9833;13;
3;FRA;Basse-Normandie;Manche;Saint-Ébremond-de-Bonfossé 50465;W1.1500;N49.0667;13;
3;FRA;Basse-Normandie;Manche;Saint-Floxel 50467;W1.3500;N49.5000;13;
3;FRA;Basse-Normandie;Manche;Saint-Fromond 50468;W1.1000;N49.2167;13;
3;FRA;Basse-Normandie;Manche;Saint-Georges-d'Elle 50473;W0.9667;N49.1500;13;
3;FRA;Basse-Normandie;Manche;Saint-Georges-de-Bohon 50470;W1.2500;N49.2500;13;
3;FRA;Basse-Normandie;Manche;Saint-Georges-de-la-Rivière 50471;W1.7167;N49.3500;13;
3;FRA;Basse-Normandie;Manche;Saint-Georges-de-Livoye 50472;W1.2167;N48.7333;13;
3;FRA;Basse-Normandie;Manche;Saint-Georges-de-Rouelley 50474;W0.7702;N48.6029;13;
3;FRA;Basse-Normandie;Manche;Saint-Georges-Montcocq 50475;W1.0833;N49.1333;13;
3;FRA;Basse-Normandie;Manche;Saint-Germain-d'Elle 50476;W0.9167;N49.1167;13;
3;FRA;Basse-Normandie;Manche;Saint-Germain-de-Tournebut 50478;W1.3833;N49.5333;13;
3;FRA;Basse-Normandie;Manche;Saint-Germain-de-Varreville 50479;W1.2500;N49.4333;13;
3;FRA;Basse-Normandie;Manche;Saint-Germain-des-Vaux 50477;W1.9205;N49.7127;13;
3;FRA;Basse-Normandie;Manche;Saint-Germain-le-Gaillard 50480;W1.7833;N49.4833;13;
3;FRA;Basse-Normandie;Manche;Saint-Germain-sur-Ay 50481;W1.6000;N49.2333;13;
3;FRA;Basse-Normandie;Manche;Saint-Germain-sur-Sèves 50482;W1.3667;N49.2167;13;
3;FRA;Basse-Normandie;Manche;Saint-Gilles 50483;W1.1667;N49.1000;13;
3;FRA;Basse-Normandie;Manche;Saint-Hilaire-du-Harcouët 50484;W1.1000;N48.5833;13;
3;FRA;Basse-Normandie;Manche;Saint-Hilaire-Petitville 50485;W1.2333;N49.3000;13;
3;FRA;Basse-Normandie;Manche;Saint-Jacques-de-Néhou 50486;W1.6167;N49.4167;13;
3;FRA;Basse-Normandie;Manche;Saint-James 50487;W1.3167;N48.5333;13;
3;FRA;Basse-Normandie;Manche;Saint-Jean-de-Daye 50488;W1.1333;N49.2333;13;
3;FRA;Basse-Normandie;Manche;Saint-Jean-de-la-Haize 50489;W1.3667;N48.7000;13;
3;FRA;Basse-Normandie;Manche;Saint-Jean-de-la-Rivière 50490;W1.7000;N49.3667;13;
3;FRA;Basse-Normandie;Manche;Saint-Jean-de-Savigny 50491;W0.9833;N49.2000;13;
3;FRA;Basse-Normandie;Manche;Saint-Jean-des-Baisants 50492;W0.9667;N49.1000;13;
3;FRA;Basse-Normandie;Manche;Saint-Jean-des-Champs 50493;W1.4667;N48.8333;13;
3;FRA;Basse-Normandie;Manche;Saint-Jean-du-Corail 50494;W0.9083;N48.6083;13;
3;FRA;Basse-Normandie;Manche;Saint-Jean-du-Corail-des-Bois 50495;W1.2000;N48.7667;13;
3;FRA;Basse-Normandie;Manche;Saint-Jean-le-Thomas 50496;W1.5167;N48.7333;13;
3;FRA;Basse-Normandie;Manche;Saint-Jores 50497;W1.4167;N49.3000;13;
3;FRA;Basse-Normandie;Manche;Saint-Joseph 50498;W1.5333;N49.5333;13;
3;FRA;Basse-Normandie;Manche;Saint-Laurent-de-Cuves 50499;W1.1167;N48.7500;13;
3;FRA;Basse-Normandie;Manche;Saint-Laurent-de-Terregatte 50500;W1.2500;N48.5667;13;
3;FRA;Basse-Normandie;Manche;Saint-Léger 50501=50493;W1.4833;N48.8000;13;
3;FRA;Basse-Normandie;Manche;Saint-Lô 50502;W1.0833;N49.1167;13;
3;FRA;Basse-Normandie;Manche;Saint-Lô-d'Ourville 50503;W1.6667;N49.3333;13;
3;FRA;Basse-Normandie;Manche;Saint-Louet-sur-Vire 50504;W0.9833;N48.9833;13;
3;FRA;Basse-Normandie;Manche;Saint-Loup 50505;W1.3000;N48.6667;13;
3;FRA;Basse-Normandie;Manche;Saint-Malo-de-la-Lande 50506;W1.5333;N49.0667;13;
3;FRA;Basse-Normandie;Manche;Saint-Marcouf 50507;W1.2833;N49.4667;13;
3;FRA;Basse-Normandie;Manche;Saint-Martin-d'Aubigny 50510;W1.3500;N49.1667;13;
3;FRA;Basse-Normandie;Manche;Saint-Martin-d'Audouville 50511;W1.3333;N49.5333;13;
3;FRA;Basse-Normandie;Manche;Saint-Martin-de-Bonfossé 50512;W1.1667;N49.0500;13;
3;FRA;Basse-Normandie;Manche;Saint-Martin-de-Cenilly 50513;W1.2833;N48.9833;13;
3;FRA;Basse-Normandie;Manche;Saint-Martin-de-Landelles 50515;W1.1833;N48.5500;13;
3;FRA;Basse-Normandie;Manche;Saint-Martin-de-Varreville 50517;W1.2333;N49.4333;13;
3;FRA;Basse-Normandie;Manche;Saint-Martin-des-Champs 50516;W1.3333;N48.6667;13;
3;FRA;Basse-Normandie;Manche;Saint-Martin-le-Bouillant 50518;W1.1833;N48.7833;13;
3;FRA;Basse-Normandie;Manche;Saint-Martin-le-Gréard 50519;W1.6500;N49.5500;13;
3;FRA;Basse-Normandie;Manche;Saint-Martin-le-Hébert 50520;W1.6152;N49.5080;13;
3;FRA;Basse-Normandie;Manche;Saint-Maur-des-Bois 50521;W1.1500;N48.8167;13;
3;FRA;Basse-Normandie;Manche;Saint-Maurice-en-Cotentin 50522;W1.7000;N49.3833;13;
3;FRA;Basse-Normandie;Manche;Saint-Michel-de-la-Pierre 50524;W1.3833;N49.1333;13;
3;FRA;Basse-Normandie;Manche;Saint-Michel-de-Montjoie 50525;W1.0333;N48.7333;13;
3;FRA;Basse-Normandie;Manche;Saint-Michel-des-Loups 50526=50066;W1.5333;N48.7667;13;
3;FRA;Basse-Normandie;Manche;Saint-Nicolas-de-Coutances 50527=50147;W1.4473;N49.0443;13;
3;FRA;Basse-Normandie;Manche;Saint-Nicolas-de-Pierrepont 50528;W1.5833;N49.3167;13;
3;FRA;Basse-Normandie;Manche;Saint-Nicolas-des-Bois 50529;W1.1833;N48.7500;13;
3;FRA;Basse-Normandie;Manche;Saint-Nicolas-près-Granville 50530=50218;W1.5672;N488355;13;
3;FRA;Basse-Normandie;Manche;Saint-Ovin 50531;W1.2500;N48.6667;13;
3;FRA;Basse-Normandie;Manche;Saint-Pair-sur-Mer 50532;W1.5667;N48.8167;13;
3;FRA;Basse-Normandie;Manche;Saint-Patrice-de-Claids 50533;W1.4333;N49.2333;13;
3;FRA;Basse-Normandie;Manche;Saint-Pellerin 50534;W1.1833;N49.3000;13;
3;FRA;Basse-Normandie;Manche;Saint-Pierre-d'Arthéglise 50536;W1.6833;N49.4167;13;
3;FRA;Basse-Normandie;Manche;Saint-Pierre-de-Coutances 50537;W1.4333;N49.0333;13;
3;FRA;Basse-Normandie;Manche;Saint-Pierre-de-Semilly 50538;W1.0000;N49.1167;13;
3;FRA;Basse-Normandie;Manche;Saint-Pierre-Église 50539;W1.4000;N49.6667;13;
3;FRA;Basse-Normandie;Manche;Saint-Pierre-Langers 50540;W1.5000;N48.7833;13;
3;FRA;Basse-Normandie;Manche;Saint-Planchers 50541;W1.5167;N48.8167;13;
3;FRA;Basse-Normandie;Manche;Saint-Pois 50542;W1.0667;N48.7500;13;
3;FRA;Basse-Normandie;Manche;Saint-Quentin-sur-le-Homme 50543;W1.3167;N48.6500;13;
3;FRA;Basse-Normandie;Manche;Saint-Rémy-des-Landes 50544;W1.6333;N49.2833;13;
3;FRA;Basse-Normandie;Manche;Saint-Romphaire 50545;W1.1000;N49.0333;13;
3;FRA;Basse-Normandie;Manche;Saint-Samson-de-Bonfossé 50546;W1.1333;N49.0500;13;
3;FRA;Basse-Normandie;Manche;Saint-Sauveur-de-Chaulieu 50547=50514;W0.8500;N48.7500;13;
3;FRA;Basse-Normandie;Manche;Saint-Sauveur-de-Pierrepont 50548;W1.5833;N49.3333;13;
3;FRA;Basse-Normandie;Manche;Saint-Sauveur-la-Pommeraye 50549;W1.4500;N48.8500;13;
3;FRA;Basse-Normandie;Manche;Saint-Sauveur-le-Vicomte 50551;W1.5333;N49.3833;13;
3;FRA;Basse-Normandie;Manche;Saint-Sauveur-Lendelin 50550;W1.4167;N49.1333;13;
3;FRA;Basse-Normandie;Manche;Saint-Sébastien-de-Raids 50552;W1.3667;N49.1833;13;
3;FRA;Basse-Normandie;Manche;Saint-Senier-de-Beuvron 50553;W1.3167;N48.5833;13;
3;FRA;Basse-Normandie;Manche;Saint-Senier-sous-Avranches 50554;W1.3333;N48.6833;13;
3;FRA;Basse-Normandie;Manche;Saint-Symphorien-des-Monts 50557;W1.0000;N48.5500;13;
3;FRA;Basse-Normandie;Manche;Saint-Symphorien-le-Valois 50558;W1.5500;N49.3000;13;
3;FRA;Basse-Normandie;Manche;Saint-Symphorien-les-Buttes 50559=50444;W0.9167;N49.0167;13;
3;FRA;Basse-Normandie;Manche;Saint-Thomas-de-Saint-Lô 50560=50502;W1.0930;N49.0944;13;
3;FRA;Basse-Normandie;Manche;Saint-Ursin 50561=50493;W1.4333;N48.8000;13;
3;FRA;Basse-Normandie;Manche;Saint-Vaast-la-Hougue 50562;W1.2667;N49.6000;13;
3;FRA;Basse-Normandie;Manche;Saint-Vigor-des-Monts 50563;W1.0833;N48.9167;13;
3;FRA;Basse-Normandie;Manche;Sainte-Cécile 50453;W1.1833;N48.8333;13;
3;FRA;Basse-Normandie;Manche;Sainte-Colombe 50457;W1.5167;N49.4167;13;
3;FRA;Basse-Normandie;Manche;Sainte-Croix-de-Saint-Lô 50459=50502;W1.0285;N49.1202;13;
3;FRA;Basse-Normandie;Manche;Sainte-Croix-Hague 50460;W1.7667;N49.6333;13;
3;FRA;Basse-Normandie;Manche;Sainte-Eugienne 50466=50597;W1.2787;N48.7364;13;
3;FRA;Basse-Normandie;Manche;Sainte-Geneviève 50469;W1.3167;N49.6500;13;
3;FRA;Basse-Normandie;Manche;Sainte-Marie-du-Bois 50508;W0.9000;N48.5667;13;
3;FRA;Basse-Normandie;Manche;Sainte-Marie-du-Mont 50509;W1.2167;N49.3833;13;
3;FRA;Basse-Normandie;Manche;Sainte-Mère-Église 50523;W1.3167;N49.4167;13;
3;FRA;Basse-Normandie;Manche;Sainte-Pience 50535;W1.3000;N48.7500;13;
3;FRA;Basse-Normandie;Manche;Sainte-Suzanne-en-Bauptois 50555=50415;W1.4333;N49.3167;13;
3;FRA;Basse-Normandie;Manche;Sainte-Suzanne-sur-Vire 50556;W1.0667;N49.0667;13;
3;FRA;Basse-Normandie;Manche;Sainteny 50564;W1.3167;N49.2333;13;
3;FRA;Basse-Normandie;Manche;Sartilly 50565;W1.4500;N48.7500;13;
3;FRA;Basse-Normandie;Manche;Saultchevreuil-du-Tronchet 50566=50639;W1.2467;N48.8187;13;
3;FRA;Basse-Normandie;Manche;Saussemesnil 50567;W1.4667;N49.5667;13;
3;FRA;Basse-Normandie;Manche;Saussey 50568;W1.4333;N49.0167;13;
3;FRA;Basse-Normandie;Manche;Savigny 50569;W1.3333;N49.0500;13;
3;FRA;Basse-Normandie;Manche;Savigny-le-Vieux 50570;W1.0500;N48.5167;13;
3;FRA;Basse-Normandie;Manche;Sébeville 50571;W1.2833;N49.3833;13;
3;FRA;Basse-Normandie;Manche;Sénoville 50572;W1.7667;N49.4333;13;
3;FRA;Basse-Normandie;Manche;Servigny 50573;W1.4667;N49.1000;13;
3;FRA;Basse-Normandie;Manche;Servon 50574;W1.4167;N48.6000;13;
3;FRA;Basse-Normandie;Manche;Sideville 50575;W1.6833;N49.5833;13;
3;FRA;Basse-Normandie;Manche;Siouville-Hague 50576;W1.8333;N49.5500;13;
3;FRA;Basse-Normandie;Manche;Sortosville 50578;W1.4333;N49.4833;13;
3;FRA;Basse-Normandie;Manche;Sortosville-en-Beaumont 50577;W1.7167;N49.4333;13;
3;FRA;Basse-Normandie;Manche;Sottevast 50579;W1.6000;N49.5167;13;
3;FRA;Basse-Normandie;Manche;Sotteville 50580;W1.7500;N49.5333;13;
3;FRA;Basse-Normandie;Manche;Soulles 50581;W1.1833;N49.0167;13;
3;FRA;Basse-Normandie;Manche;Sourdeval 50582;W0.9333;N48.7333;13;
3;FRA;Basse-Normandie;Manche;Sourdeval-les-Bois 50583;W1.2667;N48.9167;13;
3;FRA;Basse-Normandie;Manche;Subligny 50584;W1.3667;N48.7500;13;
3;FRA;Basse-Normandie;Manche;Surtainville 50585;W1.8167;N49.4667;13;
3;FRA;Basse-Normandie;Manche;Surville 50586;W1.6500;N49.2833;13;
3;FRA;Basse-Normandie;Manche;Taillepied 50587;W1.5667;N49.3667;13;
3;FRA;Basse-Normandie;Manche;Tamerville 50588;W1.4500;N49.5333;13;
3;FRA;Basse-Normandie;Manche;Tanis 50589;W1.4500;N48.5833;13;
3;FRA;Basse-Normandie;Manche;Tessy-sur-Vire 50592;W1.0667;N48.9667;13;
3;FRA;Basse-Normandie;Manche;Teurthéville-Bocage 50593;W1.3833;N49.5833;13;
3;FRA;Basse-Normandie;Manche;Teurthéville-Hague 50594;W1.7333;N49.5833;13;
3;FRA;Basse-Normandie;Manche;Théville 50596;W1.4167;N49.6500;13;
3;FRA;Basse-Normandie;Manche;Tirepied 50597;W1.2667;N48.7167;13;
3;FRA;Basse-Normandie;Manche;Tocqueville 50598;W1.3333;N49.6667;13;
3;FRA;Basse-Normandie;Manche;Tollevast 50599;W1.6333;N49.5667;13;
3;FRA;Basse-Normandie;Manche;Tonneville 50600;W1.7167;N49.6333;13;
3;FRA;Basse-Normandie;Manche;Torigni-sur-Vire 50601;W0.9833;N49.0333;13;
3;FRA;Basse-Normandie;Manche;Tourlaville 50602;W1.5667;N49.6333;13;
3;FRA;Basse-Normandie;Manche;Tourville-sur-Sienne 50603;W1.5500;N49.0500;13;
3;FRA;Basse-Normandie;Manche;Tréauville 50604;W1.8167;N49.5167;13;
3;FRA;Basse-Normandie;Manche;Trelly 50605;W1.4333;N48.9667;13;
3;FRA;Basse-Normandie;Manche;Tribehou 50606;W1.2333;N49.2167;13;
3;FRA;Basse-Normandie;Manche;Troisgots 50608;W1.0667;N49.0167;13;
3;FRA;Basse-Normandie;Manche;Turqueville 50609;W1.2833;N49.4167;13;
3;FRA;Basse-Normandie;Manche;Urville 50610;W1.4333;N49.4500;13;
3;FRA;Basse-Normandie;Manche;Urville-Nacqueville 50611;W1.7333;N49.6833;13;
3;FRA;Basse-Normandie;Manche;Vains 50612;W1.4167;N48.6833;13;
3;FRA;Basse-Normandie;Manche;Valcanville 50613;W1.3167;N49.6333;13;
3;FRA;Basse-Normandie;Manche;Valognes 50615;W1.4667;N49.5167;13;
3;FRA;Basse-Normandie;Manche;Varenguebec 50617;W1.5000;N49.3333;13;
3;FRA;Basse-Normandie;Manche;Varouville 50618;W1.3667;N49.6667;13;
3;FRA;Basse-Normandie;Manche;Vasteville 50620;W1.7667;N49.6000;13;
3;FRA;Basse-Normandie;Manche;Vaudreville 50621;W1.3667;N49.5167;13;
3;FRA;Basse-Normandie;Manche;Vaudrimesnil 50622;W1.4167;N49.1500;13;
3;FRA;Basse-Normandie;Manche;Vauville 50623;W1.8333;N49.6333;13;
3;FRA;Basse-Normandie;Manche;Vengeons 50625;W0.9167;N48.7500;13;
3;FRA;Basse-Normandie;Manche;Ver 50626;W1.3833;N48.9000;13;
3;FRA;Basse-Normandie;Manche;Vergoncey 50627;W1.4000;N48.5667;13;
3;FRA;Basse-Normandie;Manche;Vernix 50628;W1.2333;N48.7167;13;
3;FRA;Basse-Normandie;Manche;Vesly 50629;W1.5000;N49.2500;13;
3;FRA;Basse-Normandie;Manche;Vessey 50630;W1.4333;N48.5167;13;
3;FRA;Basse-Normandie;Manche;Vezins 50632=50256;W1.2333;N48.6000;13;
3;FRA;Basse-Normandie;Manche;Videcosville 50634;W1.3667;N49.5667;13;
3;FRA;Basse-Normandie;Manche;Vidouville 50635;W0.9000;N49.1000;13;
3;FRA;Basse-Normandie;Manche;Vierville 50636;W1.2500;N49.3667;13;
3;FRA;Basse-Normandie;Manche;Villebaudon 50637;W1.1667;N48.9667;13;
3;FRA;Basse-Normandie;Manche;Villechien 50638;W0.9833;N48.5833;13;
3;FRA;Basse-Normandie;Manche;Villedieu-les-Poêles 50639;W1.2167;N48.8333;13;
3;FRA;Basse-Normandie;Manche;Villiers-Fossard 50641;W1.0667;N49.1667;13;
3;FRA;Basse-Normandie;Manche;Villiers-le-Pré 50640;W1.4000;N48.5500;13;
3;FRA;Basse-Normandie;Manche;Vindefontaine 50642;W1.4167;N49.3333;13;
3;FRA;Basse-Normandie;Manche;Virandeville 50643;W1.7500;N49.5667;13;
3;FRA;Basse-Normandie;Manche;Virey 50644;W1.1333;N48.5833;13;
3;FRA;Basse-Normandie;Manche;Vrasville 50645=50142;W1.3667;N49.7000;13;
3;FRA;Basse-Normandie;Manche;Yquelon 50647;W1.5500;N48.8500;13;
3;FRA;Basse-Normandie;Manche;Yvetot-Bocage 50648;W1.5000;N49.4833;13;
2;FRA;Basse-Normandie;Orne;;E0.1126;N48.6638;9;
3;FRA;Basse-Normandie;Orne;Alençon 61001;E0.0833;N48.4333;13;
3;FRA;Basse-Normandie;Orne;Almenêches 61002;E0.1167;N48.7000;13;
3;FRA;Basse-Normandie;Orne;Anceins 61003;E0.5000;N48.8667;13;
3;FRA;Basse-Normandie;Orne;Antoigny 61004;W0.3667;N48.5167;13;
3;FRA;Basse-Normandie;Orne;Appenai-sous-Bellême 61005;E0.5667;N48.3500;13;
3;FRA;Basse-Normandie;Orne;Argentan 61006;W0.0167;N48.7500;13;
3;FRA;Basse-Normandie;Orne;Athis-de-l'Orne 61007;W0.5000;N48.8000;13;
3;FRA;Basse-Normandie;Orne;Aube 61008;E0.5333;N48.7333;13;
3;FRA;Basse-Normandie;Orne;Aubry-en-Exmes 61009;E0.0833;N48.8000;13;
3;FRA;Basse-Normandie;Orne;Aubry-le-Panthou 61010;E0.2333;N48.8500;13;
3;FRA;Basse-Normandie;Orne;Aubusson 61011;W0.5500;N48.7833;13;
3;FRA;Basse-Normandie;Orne;Auguaise 61012;E0.5500;N48.7000;13;
3;FRA;Basse-Normandie;Orne;Aunay-les-Bois 61013;E0.3000;N48.5500;13;
3;FRA;Basse-Normandie;Orne;Aunou-le-Faucon 61014;E0.0333;N48.7333;13;
3;FRA;Basse-Normandie;Orne;Aunou-sur-Orne 61015;E0.2333;N48.6167;13;
3;FRA;Basse-Normandie;Orne;Autheuil 61016;E0.6667;N48.5667;13;
3;FRA;Basse-Normandie;Orne;Avernes-Saint-Gourgon 61018;E0.3333;N48.9333;13;
3;FRA;Basse-Normandie;Orne;Avernes-sous-Exmes 61019;E0.2167;N48.8000;13;
3;FRA;Basse-Normandie;Orne;Avoine 61020;W0.1000;N48.6667;13;
3;FRA;Basse-Normandie;Orne;Avrilly 61021;W0.6167;N48.5333;13;
3;FRA;Basse-Normandie;Orne;Bagnoles-de-l'Orne 61022=61483;W0.4167;N48.5667;13;
3;FRA;Basse-Normandie;Orne;Bagnoles-de-l'Orne 61483;W0.4167;N48.5667;13;
3;FRA;Basse-Normandie;Orne;Bailleul 61023;E0.0000;N48.8000;13;
3;FRA;Basse-Normandie;Orne;Banvou 61024;W0.5500;N48.6667;13;
3;FRA;Basse-Normandie;Orne;Barville 61026;E0.3333;N48.4833;13;
3;FRA;Basse-Normandie;Orne;Batilly 61027;W0.2000;N48.7167;13;
3;FRA;Basse-Normandie;Orne;Bazoches-au-Houlme 61028;W0.2333;N48.8167;13;
3;FRA;Basse-Normandie;Orne;Bazoches-sur-Hoëne 61029;E0.4667;N48.5500;13;
3;FRA;Basse-Normandie;Orne;Beauchêne 61031;W0.7167;N48.6833;13;
3;FRA;Basse-Normandie;Orne;Beaufai 61032;E0.5167;N48.7500;13;
3;FRA;Basse-Normandie;Orne;Beaulandais 61033;W0.5500;N48.5500;13;
3;FRA;Basse-Normandie;Orne;Beaulieu 61034;E0.7417;N48.6833;13;
3;FRA;Basse-Normandie;Orne;Beauvain 61035;W0.3167;N48.6167;13;
3;FRA;Basse-Normandie;Orne;Belfonds 61036;E0.1167;N48.6167;13;
3;FRA;Basse-Normandie;Orne;Bellavilliers 61037;E0.5000;N48.4167;13;
3;FRA;Basse-Normandie;Orne;Bellême 61038;E0.5667;N48.3667;13;
3;FRA;Basse-Normandie;Orne;Bellou-en-Houlme 61040;W0.4500;N48.7000;13;
3;FRA;Basse-Normandie;Orne;Bellou-le-Trichard 61041;E0.5500;N48.2833;13;
3;FRA;Basse-Normandie;Orne;Bellou-sur-Huisne 61042;E0.7667;N48.4167;13;
3;FRA;Basse-Normandie;Orne;Berd'huis 61043;E0.7500;N48.3500;13;
3;FRA;Basse-Normandie;Orne;Berjou 61044;W0.4833;N48.8500;13;
3;FRA;Basse-Normandie;Orne;Bivilliers 61045;E0.6167;N48.5833;13;
3;FRA;Basse-Normandie;Orne;Bizou 61046;E0.7500;N48.5000;13;
3;FRA;Basse-Normandie;Orne;Bocquencé 61047;E0.4667;N48.8333;13;
3;FRA;Basse-Normandie;Orne;Boëcé 61048;E0.4667;N48.5167;13;
3;FRA;Basse-Normandie;Orne;Boissei-la-Lande 61049;E0.0667;N48.6833;13;
3;FRA;Basse-Normandie;Orne;Boissy-Maugis 61050;E0.7167;N48.4333;13;
3;FRA;Basse-Normandie;Orne;Boitron 61051;E0.2667;N48.5667;13;
3;FRA;Basse-Normandie;Orne;Bonnefoi 61052;E0.5667;N48.6667;13;
3;FRA;Basse-Normandie;Orne;Bonsmoulins 61053;E0.5333;N48.6500;13;
3;FRA;Basse-Normandie;Orne;Boucé 61055;W0.1000;N48.6500;13;
3;FRA;Basse-Normandie;Orne;Bréel 61058;W0.3833;N48.8167;13;
3;FRA;Basse-Normandie;Orne;Bresolettes 61059;E0.6333;N48.6333;13;
3;FRA;Basse-Normandie;Orne;Brethel 61060;E0.5333;N48.7167;13;
3;FRA;Basse-Normandie;Orne;Bretoncelles 61061;E0.8833;N48.4333;13;
3;FRA;Basse-Normandie;Orne;Brieux 61062;W0.0833;N48.8333;13;
3;FRA;Basse-Normandie;Orne;Briouze 61063;W0.3667;N48.7000;13;
3;FRA;Basse-Normandie;Orne;Brullemail 61064;E0.3333;N48.6500;13;
3;FRA;Basse-Normandie;Orne;Bubertré 61065;E0.6000;N48.6000;13;
3;FRA;Basse-Normandie;Orne;Buré 61066;E0.4167;N48.5167;13;
3;FRA;Basse-Normandie;Orne;Bures 61067;E0.4000;N48.5667;13;
3;FRA;Basse-Normandie;Orne;Bursard 61068;E0.2167;N48.5500;13;
3;FRA;Basse-Normandie;Orne;Cahan 61069;W0.4500;N48.8667;13;
3;FRA;Basse-Normandie;Orne;Caligny 61070;W0.6000;N48.8167;13;
3;FRA;Basse-Normandie;Orne;Camembert 61071;E0.1667;N48.9000;13;
3;FRA;Basse-Normandie;Orne;Canapville 61072;E0.2667;N48.9500;13;
3;FRA;Basse-Normandie;Orne;Carrouges 61074;W0.1500;N48.5667;13;
3;FRA;Basse-Normandie;Orne;Ceaucé 61075;W0.6167;N48.5000;13;
3;FRA;Basse-Normandie;Orne;Cerisé 61077;E0.1333;N48.4500;13;
3;FRA;Basse-Normandie;Orne;Cerisy-Belle-Étoile 61078;W0.6167;N48.7833;13;
3;FRA;Basse-Normandie;Orne;Ceton 61079;E0.7500;N48.2250;13;
3;FRA;Basse-Normandie;Orne;Chahains 61080;W0.1167;N48.5667;13;
3;FRA;Basse-Normandie;Orne;Chailloué 61081;E0.2000;N48.6500;13;
3;FRA;Basse-Normandie;Orne;Chambois 61083;E0.1167;N48.8000;13;
3;FRA;Basse-Normandie;Orne;Champ-Haut 61088;E0.3167;N48.7167;13;
3;FRA;Basse-Normandie;Orne;Champcerie 61084;W0.2167;N48.8000;13;
3;FRA;Basse-Normandie;Orne;Champeaux-sur-Sarthe 61087;E0.4333;N48.5833;13;
3;FRA;Basse-Normandie;Orne;Champosoult 61089;E0.1667;N48.8667;13;
3;FRA;Basse-Normandie;Orne;Champs 61090;E0.5500;N48.5833;13;
3;FRA;Basse-Normandie;Orne;Champsecret 61091;W0.5500;N48.6167;13;
3;FRA;Basse-Normandie;Orne;Chandai 61092;E0.7500;N48.7500;13;
3;FRA;Basse-Normandie;Orne;Chanu 61093;W0.6833;N48.7333;13;
3;FRA;Basse-Normandie;Orne;Chaumont 61103;E0.3333;N48.8333;13;
3;FRA;Basse-Normandie;Orne;Chemilli 61105;E0.4500;N48.3667;13;
3;FRA;Basse-Normandie;Orne;Chênedouit 61106;W0.3333;N48.7667;13;
3;FRA;Basse-Normandie;Orne;Ciral 61107;W0.1500;N48.5000;13;
3;FRA;Basse-Normandie;Orne;Cisai-Saint-Aubin 61108;E0.3500;N48.7833;13;
3;FRA;Basse-Normandie;Orne;Clairefougère 61109;W0.7000;N48.8000;13;
3;FRA;Basse-Normandie;Orne;Colombiers 61111;E0.0500;N48.4667;13;
3;FRA;Basse-Normandie;Orne;Colonard-Corubert 61112;E0.6500;N48.4167;13;
3;FRA;Basse-Normandie;Orne;Comblot 61113;E0.6000;N48.4667;13;
3;FRA;Basse-Normandie;Orne;Commeaux 61114;W0.1167;N48.7833;13;
3;FRA;Basse-Normandie;Orne;Condé-sur-Huisne 61116;E0.8667;N48.3833;13;
3;FRA;Basse-Normandie;Orne;Condé-sur-Sarthe 61117;E0.0333;N48.4333;13;
3;FRA;Basse-Normandie;Orne;Condeau 61115;E0.8333;N48.3833;13;
3;FRA;Basse-Normandie;Orne;Corbon 61118;E0.6250;N48.4500;13;
3;FRA;Basse-Normandie;Orne;Corubert 61119=61112;E0.6538;N48.3968;13;
3;FRA;Basse-Normandie;Orne;Coudehard 61120;E0.1333;N48.8500;13;
3;FRA;Basse-Normandie;Orne;Coulimer 61121;E0.4667;N48.4833;13;
3;FRA;Basse-Normandie;Orne;Coulmer 61122;E0.3000;N48.7667;13;
3;FRA;Basse-Normandie;Orne;Coulonces 61123;E0.0167;N48.8333;13;
3;FRA;Basse-Normandie;Orne;Coulonges-les-Sablons 61125;E0.9000;N48.4000;13;
3;FRA;Basse-Normandie;Orne;Coulonges-sur-Sarthe 61126;E0.4000;N48.5333;13;
3;FRA;Basse-Normandie;Orne;Courcerault 61128;E0.6667;N48.4333;13;
3;FRA;Basse-Normandie;Orne;Courgeon 61129;E0.6167;N48.4833;13;
3;FRA;Basse-Normandie;Orne;Courgeoût 61130;E0.4833;N48.5000;13;
3;FRA;Basse-Normandie;Orne;Courménil 61131;E0.2333;N48.7833;13;
3;FRA;Basse-Normandie;Orne;Courteilles 61132=61189;W0.2001;N48.7738;13;
3;FRA;Basse-Normandie;Orne;Courtomer 61133;E0.3667;N48.6333;13;
3;FRA;Basse-Normandie;Orne;Courtoulin 61134=61029;E0.4764;N48.5300;13;
3;FRA;Basse-Normandie;Orne;Couterne 61135;W0.4167;N48.5167;13;
3;FRA;Basse-Normandie;Orne;Couvains 61136;E0.5583;N48.8583;13;
3;FRA;Basse-Normandie;Orne;Craménil 61137;W0.3833;N48.7500;13;
3;FRA;Basse-Normandie;Orne;Croisilles 61138;E0.2667;N48.7667;13;
3;FRA;Basse-Normandie;Orne;Crouttes 61139;E0.1333;N48.9167;13;
3;FRA;Basse-Normandie;Orne;Crulai 61140;E0.6667;N48.7000;13;
3;FRA;Basse-Normandie;Orne;Cuissai 61141;E0.0167;N48.4667;13;
3;FRA;Basse-Normandie;Orne;Dame-Marie 61142;E0.6167;N48.3500;13;
3;FRA;Basse-Normandie;Orne;Damigny 61143;E0.0667;N48.4333;13;
3;FRA;Basse-Normandie;Orne;Dancé 61144;E0.7667;N48.3667;13;
3;FRA;Basse-Normandie;Orne;Domfront 61145;W0.6500;N48.6000;13;
3;FRA;Basse-Normandie;Orne;Dompierre 61146;W0.5500;N48.6167;13;
3;FRA;Basse-Normandie;Orne;Dorceau 61147;E0.8000;N48.4167;13;
3;FRA;Basse-Normandie;Orne;Durcet 61148;W0.4333;N48.7500;13;
3;FRA;Basse-Normandie;Orne;Échalou 61149;W0.5000;N48.7333;13;
3;FRA;Basse-Normandie;Orne;Échauffour 61150;E0.3833;N48.7333;13;
3;FRA;Basse-Normandie;Orne;Écorcei 61151;E0.5833;N48.7167;13;
3;FRA;Basse-Normandie;Orne;Écorches 61152;E0.1000;N48.8667;13;
3;FRA;Basse-Normandie;Orne;Écouché 61153;W0.1333;N48.7167;13;
3;FRA;Basse-Normandie;Orne;Eperrais 61154;E0.5500;N48.4167;13;
3;FRA;Basse-Normandie;Orne;Essay 61156;E0.2500;N48.5500;13;
3;FRA;Basse-Normandie;Orne;Exmes 61157;E0.1833;N48.7667;13;
3;FRA;Basse-Normandie;Orne;Faverolles 61158;W0.3000;N48.6667;13;
3;FRA;Basse-Normandie;Orne;Fay 61159;E0.4167;N48.6667;13;
3;FRA;Basse-Normandie;Orne;Feings 61160;E0.6333;N48.5500;13;
3;FRA;Basse-Normandie;Orne;Fel 61161;E0.1167;N48.8000;13;
3;FRA;Basse-Normandie;Orne;Ferrières-la-Verrerie 61166;E0.3833;N48.6500;13;
3;FRA;Basse-Normandie;Orne;Flers 61169;W0.5667;N48.7500;13;
3;FRA;Basse-Normandie;Orne;Fleuré 61170;W0.0667;N48.6833;13;
3;FRA;Basse-Normandie;Orne;Fontaine-les-Bassets 61171;E0.0000;N48.8500;13;
3;FRA;Basse-Normandie;Orne;Fontenai-les-Louvets 61172;E0.0000;N48.5333;13;
3;FRA;Basse-Normandie;Orne;Fontenai-sur-Orne 61173;W0.0667;N48.7167;13;
3;FRA;Basse-Normandie;Orne;Forges 61175;E0.1167;N48.5000;13;
3;FRA;Basse-Normandie;Orne;Francheville 61176;W0.0500;N48.6333;13;
3;FRA;Basse-Normandie;Orne;Frênes 61177;W0.6833;N48.7833;13;
3;FRA;Basse-Normandie;Orne;Fresnay-le-Samson 61180;E0.2167;N48.8833;13;
3;FRA;Basse-Normandie;Orne;Gacé 61181;E0.3000;N48.8000;13;
3;FRA;Basse-Normandie;Orne;Gandelain 61182;W0.0833;N48.4833;13;
3;FRA;Basse-Normandie;Orne;Gâprée 61183;E0.3000;N48.6167;13;
3;FRA;Basse-Normandie;Orne;Gauville 61184;E0.5500;N48.8333;13;
3;FRA;Basse-Normandie;Orne;Gémages 61185;E0.6167;N48.3000;13;
3;FRA;Basse-Normandie;Orne;Geneslay 61186;W0.4833;N48.5167;13;
3;FRA;Basse-Normandie;Orne;Giel-Courteilles 61189;W0.1833;N48.7500;13;
3;FRA;Basse-Normandie;Orne;Ginai 61190;E0.2167;N48.7333;13;
3;FRA;Basse-Normandie;Orne;Glos-la-Ferrière 61191;E0.6000;N48.8500;13;
3;FRA;Basse-Normandie;Orne;Godisson 61192;E0.2500;N48.6833;13;
3;FRA;Basse-Normandie;Orne;Goulet 61194;W0.1000;N48.7333;13;
3;FRA;Basse-Normandie;Orne;Guêprei 61197;E0.0000;N48.8333;13;
3;FRA;Basse-Normandie;Orne;Guerquesalles 61198;E0.2167;N48.9000;13;
3;FRA;Basse-Normandie;Orne;Habloville 61199;W0.1667;N48.7833;13;
3;FRA;Basse-Normandie;Orne;Haleine 61200;W0.4333;N48.5167;13;
3;FRA;Basse-Normandie;Orne;Hauterive 61202;E0.2000;N48.4833;13;
3;FRA;Basse-Normandie;Orne;Héloup 61203;E0.0333;N48.4000;13;
3;FRA;Basse-Normandie;Orne;Heugon 61205;E0.4000;N48.8500;13;
3;FRA;Basse-Normandie;Orne;Igé 61207;E0.5167;N48.3167;13;
3;FRA;Basse-Normandie;Orne;Irai 61208;E0.7000;N48.6667;13;
3;FRA;Basse-Normandie;Orne;Joué-du-Bois 61209;W0.2333;N48.5833;13;
3;FRA;Basse-Normandie;Orne;Joué-du-Plain 61210;W0.1333;N48.6833;13;
3;FRA;Basse-Normandie;Orne;Juvigny-sous-Andaine 61211;W0.5167;N48.5500;13;
3;FRA;Basse-Normandie;Orne;Juvigny-sur-Orne 61212;E0.0167;N48.7333;13;
3;FRA;Basse-Normandie;Orne;L'Aigle 61214;E0.6333;N48.7500;13;
3;FRA;Basse-Normandie;Orne;L'Épinay-le-Comte 61155;W0.8167;N48.4667;13;
3;FRA;Basse-Normandie;Orne;L'Hermitière 61204;E0.6500;N48.2833;13;
3;FRA;Basse-Normandie;Orne;L'Hôme-Chamondot 61206;E0.7167;N48.5833;13;
3;FRA;Basse-Normandie;Orne;La Baroche-sous-Lucé 61025;W0.5833;N48.5333;13;
3;FRA;Basse-Normandie;Orne;La Bazoque 61030;W0.5833;N48.7833;13;
3;FRA;Basse-Normandie;Orne;La Bellière 61039;W0.0333;N48.6333;13;
3;FRA;Basse-Normandie;Orne;La Carneille 61073;W0.4500;N48.7833;13;
3;FRA;Basse-Normandie;Orne;La Chapelle-au-Moine 61094;W0.5833;N48.7000;13;
3;FRA;Basse-Normandie;Orne;La Chapelle-Biche 61095;W0.6333;N48.7167;13;
3;FRA;Basse-Normandie;Orne;La Chapelle-d'Andaine 61096;W0.4667;N48.5333;13;
3;FRA;Basse-Normandie;Orne;La Chapelle-Montligeon 61097;E0.6500;N48.4833;13;
3;FRA;Basse-Normandie;Orne;La Chapelle-près-Sées 61098;E0.1500;N48.5667;13;
3;FRA;Basse-Normandie;Orne;La Chapelle-Souëf 61099;E0.6000;N48.3167;13;
3;FRA;Basse-Normandie;Orne;La Chapelle-Viel 61100;E0.6167;N48.7000;13;
3;FRA;Basse-Normandie;Orne;La Chaux 61104;W0.2500;N48.6167;13;
3;FRA;Basse-Normandie;Orne;La Cochère 61110;E0.1500;N48.7167;13;
3;FRA;Basse-Normandie;Orne;La Coulonche 61124;W0.4500;N48.6500;13;
3;FRA;Basse-Normandie;Orne;La Courbe 61127;W0.1833;N48.7500;13;
3;FRA;Basse-Normandie;Orne;La Ferrière-au-Doyen 61162;E0.5000;N48.6667;13;
3;FRA;Basse-Normandie;Orne;La Ferrière-aux-Étangs 61163;W0.5333;N48.6667;13;
3;FRA;Basse-Normandie;Orne;La Ferrière-Béchet 61164;E0.0667;N48.5833;13;
3;FRA;Basse-Normandie;Orne;La Ferrière-Bochard 61165;W0.0333;N48.4167;13;
3;FRA;Basse-Normandie;Orne;La Ferté-Frênel 61167;E0.5000;N48.8333;13;
3;FRA;Basse-Normandie;Orne;La Ferté-Macé 61168;W0.3667;N48.6000;13;
3;FRA;Basse-Normandie;Orne;La Forêt-Auvray 61174;W0.3333;N48.8167;13;
3;FRA;Basse-Normandie;Orne;La Fresnaie-Fayel 61178;E0.2333;N48.8333;13;
3;FRA;Basse-Normandie;Orne;La Fresnaye-au-Sauvage 61179;W0.2500;N48.7333;13;
3;FRA;Basse-Normandie;Orne;La Genevraie 61188;E0.3167;N48.6833;13;
3;FRA;Basse-Normandie;Orne;La Gonfrière 61193;E0.4667;N48.8167;13;
3;FRA;Basse-Normandie;Orne;La Haute-Chapelle 61201;W0.6667;N48.6000;13;
3;FRA;Basse-Normandie;Orne;La Lande-de-Goult 61216;W0.0500;N48.5833;13;
3;FRA;Basse-Normandie;Orne;La Lande-de-Lougé 61217;W0.2500;N48.7000;13;
3;FRA;Basse-Normandie;Orne;La Lande-Patry 61218;W0.6000;N48.7667;13;
3;FRA;Basse-Normandie;Orne;La Lande-Saint-Siméon 61219;W0.4333;N48.8167;13;
3;FRA;Basse-Normandie;Orne;La Lande-sur-Eure 61220;E0.8667;N48.5500;13;
3;FRA;Basse-Normandie;Orne;La Madeleine-Bouvet 61241;E0.9000;N48.4667;13;
3;FRA;Basse-Normandie;Orne;La Mesnière 61277;E0.4333;N48.5167;13;
3;FRA;Basse-Normandie;Orne;La Motte-Fouquet 61295;W0.2833;N48.5667;13;
3;FRA;Basse-Normandie;Orne;La Perrière 61325;E0.4333;N48.3833;13;
3;FRA;Basse-Normandie;Orne;La Poterie-au-Perche 61335;E0.7167;N48.6333;13;
3;FRA;Basse-Normandie;Orne;La Roche-Mabile 61350;W0.0500;N48.4833;13;
3;FRA;Basse-Normandie;Orne;La Rouge 61356;E0.7167;N48.2833;13;
3;FRA;Basse-Normandie;Orne;La Sauvagère 61463;W0.4167;N48.6333;13;
3;FRA;Basse-Normandie;Orne;La Selle-la-Forge 61466;W0.5500;N48.7333;13;
3;FRA;Basse-Normandie;Orne;La Trinité-des-Laitiers 61493;E0.3833;N48.8000;13;
3;FRA;Basse-Normandie;Orne;La Ventrouze 61500;E0.7000;N48.6167;13;
3;FRA;Basse-Normandie;Orne;Lalacelle 61213;W0.1500;N48.4667;13;
3;FRA;Basse-Normandie;Orne;Laleu 61215;E0.3667;N48.5500;13;
3;FRA;Basse-Normandie;Orne;Landigou 61221;W0.4667;N48.7500;13;
3;FRA;Basse-Normandie;Orne;Landisacq 61222;W0.6500;N48.7500;13;
3;FRA;Basse-Normandie;Orne;Larchamp 61223;W0.6833;N48.7000;13;
3;FRA;Basse-Normandie;Orne;Larré 61224;E0.1667;N48.5000;13;
3;FRA;Basse-Normandie;Orne;Le Bosc-Renoult 61054;E0.3167;N48.9167;13;
3;FRA;Basse-Normandie;Orne;Le Bouillon 61056;E0.1000;N48.5667;13;
3;FRA;Basse-Normandie;Orne;Le Bourg-Saint-Léonard 61057;E0.1000;N48.7500;13;
3;FRA;Basse-Normandie;Orne;Le Cercueil 61076;E0.0167;N48.6000;13;
3;FRA;Basse-Normandie;Orne;Le Chalange 61082;E0.3167;N48.6000;13;
3;FRA;Basse-Normandie;Orne;Le Champ-de-la-Pierre 61085;W0.2167;N48.6000;13;
3;FRA;Basse-Normandie;Orne;Le Château-d'Almenêches 61101;E0.1167;N48.6833;13;
3;FRA;Basse-Normandie;Orne;Le Châtellier 61102;W0.5833;N48.6833;13;
3;FRA;Basse-Normandie;Orne;Le Grais 61195;W0.3333;N48.6333;13;
3;FRA;Basse-Normandie;Orne;Le Gué-de-la-Chaîne 61196;E0.5167;N48.3667;13;
3;FRA;Basse-Normandie;Orne;Le Mage 61242;E0.8000;N48.5000;13;
3;FRA;Basse-Normandie;Orne;Le Mêle-sur-Sarthe 61258;E0.3500;N48.5167;13;
3;FRA;Basse-Normandie;Orne;Le Ménil-Bérard 61259;E0.5167;N48.7000;13;
3;FRA;Basse-Normandie;Orne;Le Ménil-Broût 61261;E0.2333;N48.4833;13;
3;FRA;Basse-Normandie;Orne;Le Ménil-Ciboult 61262;W0.7833;N48.7667;13;
3;FRA;Basse-Normandie;Orne;Le Ménil-de-Briouze 61260;W0.4000;N48.6667;13;
3;FRA;Basse-Normandie;Orne;Le Ménil-Guyon 61266;E0.2833;N48.5833;13;
3;FRA;Basse-Normandie;Orne;Le Ménil-Scelleur 61271;W0.1167;N48.6167;13;
3;FRA;Basse-Normandie;Orne;Le Ménil-Vicomte 61272;E0.3000;N48.7500;13;
3;FRA;Basse-Normandie;Orne;Le Merlerault 61275;E0.3000;N48.7000;13;
3;FRA;Basse-Normandie;Orne;Le Pas-Saint-l'Homer 61323;E0.9333;N48.5000;13;
3;FRA;Basse-Normandie;Orne;Le Pin-au-Haras 61328;E0.1500;N48.7333;13;
3;FRA;Basse-Normandie;Orne;Le Pin-la-Garenne 61329;E0.5500;N48.4500;13;
3;FRA;Basse-Normandie;Orne;Le Plantis 61331;E0.3833;N48.6000;13;
3;FRA;Basse-Normandie;Orne;Le Renouard 61346;E0.1000;N48.9000;13;
3;FRA;Basse-Normandie;Orne;Le Sap 61460;E0.3333;N48.9000;13;
3;FRA;Basse-Normandie;Orne;Le Sap-André 61461;E0.3833;N48.8333;13;
3;FRA;Basse-Normandie;Orne;Le Theil 61484;E0.6833;N48.2500;13;
3;FRA;Basse-Normandie;Orne;Les Aspres 61422;E0.6010;N48.6900;13;
3;FRA;Basse-Normandie;Orne;Les Authieux-du-Puits 61017;E0.3333;N48.7167;13;
3;FRA;Basse-Normandie;Orne;Les Champeaux 61086;E0.1333;N48.9000;13;
3;FRA;Basse-Normandie;Orne;Les Genettes 61187;E0.5667;N48.6667;13;
3;FRA;Basse-Normandie;Orne;Les Menus 61274;E0.9333;N48.5167;13;
3;FRA;Basse-Normandie;Orne;Les Rotours 61354;W0.2500;N48.7833;13;
3;FRA;Basse-Normandie;Orne;Les Tourailles 61489;W0.4000;N48.7500;13;
3;FRA;Basse-Normandie;Orne;Les Ventes-de-Bourse 61499;E0.2833;N48.5167;13;
3;FRA;Basse-Normandie;Orne;Les Yveteaux 61512;W0.2833;N48.7000;13;
3;FRA;Basse-Normandie;Orne;Lignères 61225;E0.3167;N48.7333;13;
3;FRA;Basse-Normandie;Orne;Lignerolles 61226;E0.5833;N48.5833;13;
3;FRA;Basse-Normandie;Orne;Lignou 61227;W0.3500;N48.6667;13;
3;FRA;Basse-Normandie;Orne;Livaie 61228;W0.0333;N48.5167;13;
3;FRA;Basse-Normandie;Orne;Loisail 61229;E0.6000;N48.5000;13;
3;FRA;Basse-Normandie;Orne;Longny-au-Perche 61230;E0.7500;N48.5333;13;
3;FRA;Basse-Normandie;Orne;Longuenoë 61231;W0.0833;N48.5167;13;
3;FRA;Basse-Normandie;Orne;Lonlay-l'Abbaye 61232;W0.7167;N48.6500;13;
3;FRA;Basse-Normandie;Orne;Lonlay-le-Tesson 61233;W0.3500;N48.6333;13;
3;FRA;Basse-Normandie;Orne;Lonrai 61234;E0.0333;N48.4667;13;
3;FRA;Basse-Normandie;Orne;Loré 61235;W0.5833;N48.4833;13;
3;FRA;Basse-Normandie;Orne;Loucé 61236;W0.1000;N48.7000;13;
3;FRA;Basse-Normandie;Orne;Lougé-sur-Maire 61237;W0.2333;N48.7000;13;
3;FRA;Basse-Normandie;Orne;Louvières-en-Auge 61238;E0.0333;N48.8667;13;
3;FRA;Basse-Normandie;Orne;Lucé 61239;W0.6000;N48.5500;13;
3;FRA;Basse-Normandie;Orne;Macé 61240;E0.1500;N48.6333;13;
3;FRA;Basse-Normandie;Orne;Magny-le-Désert 61243;W0.3333;N48.5833;13;
3;FRA;Basse-Normandie;Orne;Mahéru 61244;E0.4333;N48.6500;13;
3;FRA;Basse-Normandie;Orne;Maison-Maugis 61245;E0.7000;N48.4500;13;
3;FRA;Basse-Normandie;Orne;Mâle 61246;E0.7333;N48.2667;13;
3;FRA;Basse-Normandie;Orne;Malétable 61247;E0.7000;N48.5667;13;
3;FRA;Basse-Normandie;Orne;Mantilly 61248;W0.8167;N48.5167;13;
3;FRA;Basse-Normandie;Orne;Marcei 61249;E0.0500;N48.6667;13;
3;FRA;Basse-Normandie;Orne;Marchainville 61250;E0.8167;N48.5833;13;
3;FRA;Basse-Normandie;Orne;Marchemaisons 61251;E0.3000;N48.5167;13;
3;FRA;Basse-Normandie;Orne;Mardilly 61252;E0.2833;N48.8333;13;
3;FRA;Basse-Normandie;Orne;Marmouillé 61253;E0.2000;N48.6667;13;
3;FRA;Basse-Normandie;Orne;Marnefer 61254=61136;E0.5833;N48.8833;13;
3;FRA;Basse-Normandie;Orne;Mauves-sur-Huisne 61255;E0.6167;N48.4500;13;
3;FRA;Basse-Normandie;Orne;Médavy 61256;E0.0833;N48.6833;13;
3;FRA;Basse-Normandie;Orne;Méhoudin 61257;W0.3833;N48.5000;13;
3;FRA;Basse-Normandie;Orne;Ménil-Erreux 61263;E0.1833;N48.5000;13;
3;FRA;Basse-Normandie;Orne;Ménil-Froger 61264;E0.2667;N48.7333;13;
3;FRA;Basse-Normandie;Orne;Ménil-Gondouin 61265;W0.2833;N48.7500;13;
3;FRA;Basse-Normandie;Orne;Ménil-Hermei 61267;W0.3167;N48.8333;13;
3;FRA;Basse-Normandie;Orne;Ménil-Hubert-en-Exmes 61268;E0.2333;N48.8167;13;
3;FRA;Basse-Normandie;Orne;Ménil-Hubert-sur-Orne 61269;W0.4167;N48.8500;13;
3;FRA;Basse-Normandie;Orne;Ménil-Jean 61270;W0.2333;N48.7333;13;
3;FRA;Basse-Normandie;Orne;Ménil-Vin 61273;W0.3167;N48.8500;13;
3;FRA;Basse-Normandie;Orne;Merri 61276;W0.0500;N48.8500;13;
3;FRA;Basse-Normandie;Orne;Messei 61278;W0.5333;N48.7000;13;
3;FRA;Basse-Normandie;Orne;Mieuxcé 61279;E0.0167;N48.4000;13;
3;FRA;Basse-Normandie;Orne;Monceaux-au-Perche 61280;E0.7000;N48.4833;13;
3;FRA;Basse-Normandie;Orne;Moncy 61281;W0.6833;N48.8167;13;
3;FRA;Basse-Normandie;Orne;Monnai 61282;E0.4000;N48.8833;13;
3;FRA;Basse-Normandie;Orne;Mont-Ormel 61289;E0.1500;N48.8333;13;
3;FRA;Basse-Normandie;Orne;Montabard 61283;W0.0833;N48.8167;13;
3;FRA;Basse-Normandie;Orne;Montchevrel 61284;E0.3500;N48.5667;13;
3;FRA;Basse-Normandie;Orne;Montgaroult 61285;W0.1333;N48.7500;13;
3;FRA;Basse-Normandie;Orne;Montgaudry 61286;E0.4000;N48.4000;13;
3;FRA;Basse-Normandie;Orne;Montilly-sur-Noireau 61287;W0.5667;N48.8167;13;
3;FRA;Basse-Normandie;Orne;Montmerrei 61288;E0.0500;N48.6333;13;
3;FRA;Basse-Normandie;Orne;Montreuil-au-Houlme 61290;W0.2667;N48.6833;13;
3;FRA;Basse-Normandie;Orne;Montreuil-la-Cambe 61291;E0.0333;N48.8833;13;
3;FRA;Basse-Normandie;Orne;Montsecret 61292;W0.6750;N48.8000;13;
3;FRA;Basse-Normandie;Orne;Mortagne-au-Perche 61293;E0.5500;N48.5167;13;
3;FRA;Basse-Normandie;Orne;Mortrée 61294;E0.0833;N48.6333;13;
3;FRA;Basse-Normandie;Orne;Moulicent 61296;E0.7667;N48.5667;13;
3;FRA;Basse-Normandie;Orne;Moulins-la-Marche 61297;E0.4833;N48.6500;13;
3;FRA;Basse-Normandie;Orne;Moulins-sur-Orne 61298;W0.0667;N48.7667;13;
3;FRA;Basse-Normandie;Orne;Moussonvilliers 61299;E0.8000;N48.6333;13;
3;FRA;Basse-Normandie;Orne;Moutiers-au-Perche 61300;E0.8500;N48.4833;13;
3;FRA;Basse-Normandie;Orne;Neauphe-sous-Essai 61301;E0.2000;N48.5667;13;
3;FRA;Basse-Normandie;Orne;Neauphe-sur-Dive 61302;E0.0833;N48.8333;13;
3;FRA;Basse-Normandie;Orne;Nécy 61303;W0.1167;N48.8333;13;
3;FRA;Basse-Normandie;Orne;Neuilly-le-Bisson 61304;E0.2333;N48.5000;13;
3;FRA;Basse-Normandie;Orne;Neuilly-sur-Eure 61305;E0.9167;N48.5333;13;
3;FRA;Basse-Normandie;Orne;Neuville-près-Sées 61306;E0.2333;N48.6500;13;
3;FRA;Basse-Normandie;Orne;Neuville-sur-Touques 61307;E0.2833;N48.8500;13;
3;FRA;Basse-Normandie;Orne;Neuvy-au-Houlme 61308;W0.2000;N48.8167;13;
3;FRA;Basse-Normandie;Orne;Nocé 61309;E0.7000;N48.3667;13;
3;FRA;Basse-Normandie;Orne;Nonant-le-Pin 61310;E0.2167;N48.7000;13;
3;FRA;Basse-Normandie;Orne;Normandel 61311;E0.7167;N48.6500;13;
3;FRA;Basse-Normandie;Orne;Notre-Dame-d'Aspres 61312=61422;E0.5918;N48.6912;13;
3;FRA;Basse-Normandie;Orne;Notre-Dame-du-Rocher 61313;W0.4000;N48.8000;13;
3;FRA;Basse-Normandie;Orne;Occagnes 61314;W0.0667;N48.7833;13;
3;FRA;Basse-Normandie;Orne;Omméel 61315;E0.1500;N48.8000;13;
3;FRA;Basse-Normandie;Orne;Ommoy 61316;W0.0167;N48.8500;13;
3;FRA;Basse-Normandie;Orne;Orgères 61317;E0.3500;N48.7667;13;
3;FRA;Basse-Normandie;Orne;Origny-le-Butin 61318;E0.4667;N48.3667;13;
3;FRA;Basse-Normandie;Orne;Origny-le-Roux 61319;E0.4167;N48.3500;13;
3;FRA;Basse-Normandie;Orne;Orville 61320;E0.2667;N48.8833;13;
3;FRA;Basse-Normandie;Orne;Pacé 61321;E0.0000;N48.4500;13;
3;FRA;Basse-Normandie;Orne;Parfondeval 61322;E0.5000;N48.4833;13;
3;FRA;Basse-Normandie;Orne;Passais 61324;W0.7500;N48.5167;13;
3;FRA;Basse-Normandie;Orne;Perrou 61326;W0.5500;N48.5833;13;
3;FRA;Basse-Normandie;Orne;Pervenchères 61327;E0.4333;N48.4333;13;
3;FRA;Basse-Normandie;Orne;Planches 61330;E0.3667;N48.7000;13;
3;FRA;Basse-Normandie;Orne;Pointel 61332;W0.3500;N48.7000;13;
3;FRA;Basse-Normandie;Orne;Pont-Écrepin 61334=61339;W0.2441;N48.7639;13;
3;FRA;Basse-Normandie;Orne;Pontchardon 61333;E0.2667;N48.9333;13;
3;FRA;Basse-Normandie;Orne;Pouvrai 61336;E0.5167;N48.2833;13;
3;FRA;Basse-Normandie;Orne;Préaux-du-Perche 61337;E0.7000;N48.3167;13;
3;FRA;Basse-Normandie;Orne;Prépotin 61338;E0.5833;N48.6167;13;
3;FRA;Basse-Normandie;Orne;Putanges-Pont-Écrepin 61339;W0.2500;N48.7667;13;
3;FRA;Basse-Normandie;Orne;Rabodanges 61340;W0.2833;N48.8000;13;
3;FRA;Basse-Normandie;Orne;Radon 61341;E0.1000;N48.5167;13;
3;FRA;Basse-Normandie;Orne;Rai 61342;E0.5667;N48.7500;13;
3;FRA;Basse-Normandie;Orne;Randonnai 61343;E0.6833;N48.6500;13;
3;FRA;Basse-Normandie;Orne;Rânes 61344;W0.2167;N48.6500;13;
3;FRA;Basse-Normandie;Orne;Rémalard 61345;E0.7833;N48.4333;13;
3;FRA;Basse-Normandie;Orne;Résenlieu 61347;E0.2833;N48.8000;13;
3;FRA;Basse-Normandie;Orne;Réveillon 61348;E0.5667;N48.4833;13;
3;FRA;Basse-Normandie;Orne;Ri 61349;W0.1333;N48.8000;13;
3;FRA;Basse-Normandie;Orne;Roiville 61351;E0.2333;N48.8833;13;
3;FRA;Basse-Normandie;Orne;Rônai 61352;W0.1333;N48.8167;13;
3;FRA;Basse-Normandie;Orne;Ronfeugerai 61353;W0.4667;N48.7833;13;
3;FRA;Basse-Normandie;Orne;Rouellé 61355;W0.7167;N48.6000;13;
3;FRA;Basse-Normandie;Orne;Rouperroux 61357;W0.0833;N48.5500;13;
3;FRA;Basse-Normandie;Orne;Sai 61358;E0.0167;N48.7333;13;
3;FRA;Basse-Normandie;Orne;Saint-Agnan-sur-Erre 61359;E0.7333;N48.3167;13;
3;FRA;Basse-Normandie;Orne;Saint-Agnan-sur-Sarthe 61360;E0.4333;N48.6167;13;
3;FRA;Basse-Normandie;Orne;Saint-André-de-Briouze 61361;W0.3000;N48.7333;13;
3;FRA;Basse-Normandie;Orne;Saint-André-de-Messei 61362;W0.5167;N48.7000;13;
3;FRA;Basse-Normandie;Orne;Saint-Aquilin-de-Corbion 61363;E0.5167;N48.6333;13;
3;FRA;Basse-Normandie;Orne;Saint-Aubert-sur-Orne 61364;W0.3333;N48.7833;13;
3;FRA;Basse-Normandie;Orne;Saint-Aubin-d'Appenai 61365;E0.3333;N48.5333;13;
3;FRA;Basse-Normandie;Orne;Saint-Aubin-de-Bonneval 61366;E0.3833;N48.9333;13;
3;FRA;Basse-Normandie;Orne;Saint-Aubin-de-Courteraie 61367;E0.4333;N48.6167;13;
3;FRA;Basse-Normandie;Orne;Saint-Aubin-des-Grois 61368;E0.6500;N48.3500;13;
3;FRA;Basse-Normandie;Orne;Saint-Bômer-les-Forges 61369;W0.6500;N48.6500;13;
3;FRA;Basse-Normandie;Orne;Saint-Brice 61370;W0.6417;N48.5583;13;
3;FRA;Basse-Normandie;Orne;Saint-Brice-sous-Rânes 61371;W0.2000;N48.6833;13;
3;FRA;Basse-Normandie;Orne;Saint-Céneri-le-Gérei 61372;W0.0500;N48.3833;13;
3;FRA;Basse-Normandie;Orne;Saint-Christophe-de-Chaulieu 61374;W0.8167;N48.7500;13;
3;FRA;Basse-Normandie;Orne;Saint-Christophe-le-Jajolet 61375;E0.0000;N48.6667;13;
3;FRA;Basse-Normandie;Orne;Saint-Clair-de-Halouze 61376;W0.6333;N48.6833;13;
3;FRA;Basse-Normandie;Orne;Saint-Cornier-des-Landes 61377;W0.7167;N48.7167;13;
3;FRA;Basse-Normandie;Orne;Saint-Cyr-la-Rosière 61379;E0.6333;N48.3333;13;
3;FRA;Basse-Normandie;Orne;Saint-Denis-de-Villenette 61380;W0.5333;N48.5167;13;
3;FRA;Basse-Normandie;Orne;Saint-Denis-sur-Huisne 61381;E0.5500;N48.4667;13;
3;FRA;Basse-Normandie;Orne;Saint-Denis-sur-Sarthon 61382;W0.0500;N48.4500;13;
3;FRA;Basse-Normandie;Orne;Saint-Didier-sous-Écouves 61383;W0.0333;N48.5500;13;
3;FRA;Basse-Normandie;Orne;Saint-Ellier-les-Bois 61384;W0.1000;N48.5167;13;
3;FRA;Basse-Normandie;Orne;Saint-Evroult-de-Montfort 61385;E0.3167;N48.8000;13;
3;FRA;Basse-Normandie;Orne;Saint-Evroult-Notre-Dame-du-Bois 61386;E0.4667;N48.8000;13;
3;FRA;Basse-Normandie;Orne;Saint-Fraimbault 61387;W0.6833;N48.4833;13;
3;FRA;Basse-Normandie;Orne;Saint-Fulgent-des-Ormes 61388;E0.4500;N48.3167;13;
3;FRA;Basse-Normandie;Orne;Saint-Georges-d'Annebecq 61390;W0.2667;N48.6333;13;
3;FRA;Basse-Normandie;Orne;Saint-Georges-des-Groseillers 61391;W0.5716;N48.7719;13;
3;FRA;Basse-Normandie;Orne;Saint-Germain-d'Aunay 61392;E0.3833;N48.9167;13;
3;FRA;Basse-Normandie;Orne;Saint-Germain-de-Clairefeuille 61393;E0.2333;N48.7167;13;
3;FRA;Basse-Normandie;Orne;Saint-Germain-de-la-Coudre 61394;E0.6167;N48.2833;13;
3;FRA;Basse-Normandie;Orne;Saint-Germain-de-Martigny 61396;E0.4667;N48.5833;13;
3;FRA;Basse-Normandie;Orne;Saint-Germain-des-Grois 61395;E0.8333;N48.4000;13;
3;FRA;Basse-Normandie;Orne;Saint-Germain-du-Corbéis 61397;E0.0667;N48.4167;13;
3;FRA;Basse-Normandie;Orne;Saint-Germain-le-Vieux 61398;E0.3167;N48.6167;13;
3;FRA;Basse-Normandie;Orne;Saint-Gervais-des-Sablons 61399;E0.0833;N48.9000;13;
3;FRA;Basse-Normandie;Orne;Saint-Gervais-du-Perron 61400;E0.1500;N48.5333;13;
3;FRA;Basse-Normandie;Orne;Saint-Gilles-des-Marais 61401;W0.6833;N48.5833;13;
3;FRA;Basse-Normandie;Orne;Saint-Hilaire-de-Briouze 61402;W0.3167;N48.7000;13;
3;FRA;Basse-Normandie;Orne;Saint-Hilaire-la-Gérard 61403;E0.0500;N48.6000;13;
3;FRA;Basse-Normandie;Orne;Saint-Hilaire-le-Châtel 61404;E0.5333;N48.5500;13;
3;FRA;Basse-Normandie;Orne;Saint-Hilaire-sur-Erre 61405;E0.7333;N48.3167;13;
3;FRA;Basse-Normandie;Orne;Saint-Hilaire-sur-Risle 61406;E0.5000;N48.7333;13;
3;FRA;Basse-Normandie;Orne;Saint-Jean-de-la-Forêt 61409;E0.6333;N48.3833;13;
3;FRA;Basse-Normandie;Orne;Saint-Jean-des-Bois 61410;W0.8000;N48.7167;13;
3;FRA;Basse-Normandie;Orne;Saint-Jouin-de-Blavou 61411;E0.4667;N48.4500;13;
3;FRA;Basse-Normandie;Orne;Saint-Julien-sur-Sarthe 61412;E0.3500;N48.4833;13;
3;FRA;Basse-Normandie;Orne;Saint-Lambert-sur-Dive 61413;E0.0667;N48.8167;13;
3;FRA;Basse-Normandie;Orne;Saint-Langis-lès-Mortagne 61414;E0.5333;N48.5167;13;
3;FRA;Basse-Normandie;Orne;Saint-Léger-sur-Sarthe 61415;E0.3333;N48.5000;13;
3;FRA;Basse-Normandie;Orne;Saint-Léonard-des-Parcs 61416;E0.2833;N48.6500;13;
3;FRA;Basse-Normandie;Orne;Saint-Loyer-des-Champs 61417;E0.0167;N48.7000;13;
3;FRA;Basse-Normandie;Orne;Saint-Mard-de-Réno 61418;E0.6333;N48.5167;13;
3;FRA;Basse-Normandie;Orne;Saint-Mars-d'Égrenne 61421;W0.7333;N48.5667;13;
3;FRA;Basse-Normandie;Orne;Saint-Martin-d'Écublei 61423;E0.6833;N48.7833;13;
3;FRA;Basse-Normandie;Orne;Saint-Martin-des-Landes 61424;W0.1333;N48.5500;13;
3;FRA;Basse-Normandie;Orne;Saint-Martin-des-Pézerits 61425;E0.4833;N48.6333;13;
3;FRA;Basse-Normandie;Orne;Saint-Martin-du-Vieux-Bellême 61426;E0.5333;N48.3667;13;
3;FRA;Basse-Normandie;Orne;Saint-Martin-l'Aiguillon 61427;W0.1833;N48.6167;13;
3;FRA;Basse-Normandie;Orne;Saint-Maurice-du-Désert 61428;W0.3833;N48.6167;13;
3;FRA;Basse-Normandie;Orne;Saint-Maurice-lès-Charencey 61429;E0.7667;N48.6500;13;
3;FRA;Basse-Normandie;Orne;Saint-Maurice-sur-Huisne 61430;E0.7000;N48.4500;13;
3;FRA;Basse-Normandie;Orne;Saint-Michel-des-Andaines 61431;W0.4167;N48.5833;13;
3;FRA;Basse-Normandie;Orne;Saint-Michel-Tuboeuf 61432;E0.6833;N48.7500;13;
3;FRA;Basse-Normandie;Orne;Saint-Nicolas-de-Sommaire 61435;E0.6000;N48.8167;13;
3;FRA;Basse-Normandie;Orne;Saint-Nicolas-des-Bois 61433;E0.0167;N48.5000;13;
3;FRA;Basse-Normandie;Orne;Saint-Nicolas-des-Laitiers 61434;E0.4167;N48.8333;13;
3;FRA;Basse-Normandie;Orne;Saint-Ouen-de-la-Cour 61437;E0.5833;N48.4167;13;
3;FRA;Basse-Normandie;Orne;Saint-Ouen-de-Sécherouvre 61438;E0.4833;N48.6000;13;
3;FRA;Basse-Normandie;Orne;Saint-Ouen-le-Brisoult 61439;W0.3333;N48.5167;13;
3;FRA;Basse-Normandie;Orne;Saint-Ouen-sur-Iton 61440;E0.7000;N48.7333;13;
3;FRA;Basse-Normandie;Orne;Saint-Ouen-sur-Maire 61441;W0.1833;N48.7000;13;
3;FRA;Basse-Normandie;Orne;Saint-Patrice-du-Désert 61442;W0.3000;N48.5333;13;
3;FRA;Basse-Normandie;Orne;Saint-Paul 61443;W0.6333;N48.7500;13;
3;FRA;Basse-Normandie;Orne;Saint-Philbert-sur-Orne 61444;W0.4000;N48.8333;13;
3;FRA;Basse-Normandie;Orne;Saint-Pierre-d'Entremont 61445;W0.6500;N48.8167;13;
3;FRA;Basse-Normandie;Orne;Saint-Pierre-des-Loges 61446;E0.4667;N48.7500;13;
3;FRA;Basse-Normandie;Orne;Saint-Pierre-du-Regard 61447;W0.5500;N48.8500;13;
3;FRA;Basse-Normandie;Orne;Saint-Pierre-la-Bruyère 61448;E0.8000;N48.3667;13;
3;FRA;Basse-Normandie;Orne;Saint-Pierre-la-Rivière 61449;E0.2000;N48.8167;13;
3;FRA;Basse-Normandie;Orne;Saint-Quentin-de-Blavou 61450;E0.4167;N48.4667;13;
3;FRA;Basse-Normandie;Orne;Saint-Quentin-les-Chardonnets 61451;W0.7500;N48.7833;13;
3;FRA;Basse-Normandie;Orne;Saint-Roch-sur-Égrenne 61452;W0.7500;N48.5833;13;
3;FRA;Basse-Normandie;Orne;Saint-Sauveur-de-Carrouges 61453;W0.1167;N48.5833;13;
3;FRA;Basse-Normandie;Orne;Saint-Siméon 61455;W0.7500;N48.4667;13;
3;FRA;Basse-Normandie;Orne;Saint-Sulpice-sur-Risle 61456;E0.6500;N48.7667;13;
3;FRA;Basse-Normandie;Orne;Saint-Symphorien-des-Bruyères 61457;E0.5833;N48.7833;13;
3;FRA;Basse-Normandie;Orne;Saint-Victor-de-Réno 61458;E0.7000;N48.5000;13;
3;FRA;Basse-Normandie;Orne;Sainte-Céronne-lès-Mortagne 61373;E0.5333;N48.5667;13;
3;FRA;Basse-Normandie;Orne;Sainte-Croix-sur-Orne 61378;W0.2833;N48.7833;13;
3;FRA;Basse-Normandie;Orne;Sainte-Gauburge-Sainte-Colombe 61389;E0.4167;N48.7000;13;
3;FRA;Basse-Normandie;Orne;Sainte-Honorine-la-Chardonne 61407;W0.4833;N48.8167;13;
3;FRA;Basse-Normandie;Orne;Sainte-Honorine-la-Guillaume 61408;W0.3833;N48.7833;13;
3;FRA;Basse-Normandie;Orne;Sainte-Marguerite-de-Carrouges 61419;W0.1500;N48.5833;13;
3;FRA;Basse-Normandie;Orne;Sainte-Marie-la-Robert 61420;W0.1667;N48.6167;13;
3;FRA;Basse-Normandie;Orne;Sainte-Opportune 61436;W0.4167;N48.7333;13;
3;FRA;Basse-Normandie;Orne;Sainte-Scolasse-sur-Sarthe 61454;E0.4000;N48.5833;13;
3;FRA;Basse-Normandie;Orne;Saires-la-Verrerie 61459;W0.5000;N48.6833;13;
3;FRA;Basse-Normandie;Orne;Sarceaux 61462;W0.0500;N48.7167;13;
3;FRA;Basse-Normandie;Orne;Sées 61464;E0.1667;N48.6000;13;
3;FRA;Basse-Normandie;Orne;Ségrie-Fontaine 61465;W0.4167;N48.8167;13;
3;FRA;Basse-Normandie;Orne;Semallé 61467;E0.1500;N48.4667;13;
3;FRA;Basse-Normandie;Orne;Sentilly 61468;W0.1167;N48.7667;13;
3;FRA;Basse-Normandie;Orne;Sept-Forges 61469;W0.5333;N48.4833;13;
3;FRA;Basse-Normandie;Orne;Serans 61470;W0.1500;N48.7167;13;
3;FRA;Basse-Normandie;Orne;Sérigny 61471;E0.5833;N48.3667;13;
3;FRA;Basse-Normandie;Orne;Sévigny 61472;W0.0167;N48.7833;13;
3;FRA;Basse-Normandie;Orne;Sevrai 61473;W0.1500;N48.7000;13;
3;FRA;Basse-Normandie;Orne;Silly-en-Gouffern 61474;E0.0667;N48.7500;13;
3;FRA;Basse-Normandie;Orne;Soligny-la-Trappe 61475;E0.5333;N48.6167;13;
3;FRA;Basse-Normandie;Orne;Suré 61476;E0.4000;N48.3667;13;
3;FRA;Basse-Normandie;Orne;Survie 61477;E0.2000;N48.8333;13;
3;FRA;Basse-Normandie;Orne;Taillebois 61478;W0.4333;N48.8000;13;
3;FRA;Basse-Normandie;Orne;Tanques 61479;W0.0833;N48.6833;13;
3;FRA;Basse-Normandie;Orne;Tanville 61480;E0.0000;N48.5667;13;
3;FRA;Basse-Normandie;Orne;Tellières-le-Plessis 61481;E0.4000;N48.6333;13;
3;FRA;Basse-Normandie;Orne;Tessé-Froulay 61482;W0.4333;N48.5333;13;
3;FRA;Basse-Normandie;Orne;Ticheville 61485;E0.2667;N48.9000;13;
3;FRA;Basse-Normandie;Orne;Tinchebray 61486;W0.7333;N48.7667;13;
3;FRA;Basse-Normandie;Orne;Torchamp 61487;W0.7000;N48.5500;13;
3;FRA;Basse-Normandie;Orne;Touquettes 61488;E0.4167;N48.8000;13;
3;FRA;Basse-Normandie;Orne;Tournai-sur-Dive 61490;E0.0333;N48.8000;13;
3;FRA;Basse-Normandie;Orne;Tourouvre 61491;E0.6667;N48.5833;13;
3;FRA;Basse-Normandie;Orne;Trémont 61492;E0.2667;N48.6000;13;
3;FRA;Basse-Normandie;Orne;Trun 61494;E0.0333;N48.8500;13;
3;FRA;Basse-Normandie;Orne;Tuboeuf 61495=61432;E0.7106;N48.7427;13;
3;FRA;Basse-Normandie;Orne;Urou-et-Crennes 61496;E0.0167;N48.7500;13;
3;FRA;Basse-Normandie;Orne;Valframbert 61497;E0.1167;N48.4667;13;
3;FRA;Basse-Normandie;Orne;Vaunoise 61498;E0.4833;N48.3500;13;
3;FRA;Basse-Normandie;Orne;Verrières 61501;E0.7667;N48.3833;13;
3;FRA;Basse-Normandie;Orne;Vidai 61502;E0.3833;N48.4500;13;
3;FRA;Basse-Normandie;Orne;Vieux-Pont 61503;W0.1333;N48.6500;13;
3;FRA;Basse-Normandie;Orne;Villebadin 61504;E0.1667;N48.7833;13;
3;FRA;Basse-Normandie;Orne;Villedieu-lès-Bailleul 61505;E0.0167;N48.8167;13;
3;FRA;Basse-Normandie;Orne;Villers-en-Ouche 61506;E0.4667;N48.8667;13;
3;FRA;Basse-Normandie;Orne;Villiers-sous-Mortagne 61507;E0.6000;N48.5333;13;
3;FRA;Basse-Normandie;Orne;Vimoutiers 61508;E0.2000;N48.9167;13;
3;FRA;Basse-Normandie;Orne;Vingt-Hanaps 61509;E0.1333;N48.5167;13;
3;FRA;Basse-Normandie;Orne;Vitrai-sous-Laigle 61510;E0.7000;N48.7167;13;
3;FRA;Basse-Normandie;Orne;Vrigny 61511;W0.0167;N48.6667;13;
3;FRA;Basse-Normandie;Orne;Yvrandes 61513;W0.7500;N48.7167;13;
