"Level";"Country";"State";"County";"Place";"Longitude";"Latitude";"ZoomLevel";"Icon"
2;France;Picardie;Aisne;;E3.64;N49.58;9;
3;France;Picardie;Aisne;Abbécourt 02001;E3.1833;N49.6000;13;
3;France;Picardie;Aisne;Achery 02002;E3.3833;N49.6833;13;
3;France;Picardie;Aisne;Acy 02003;E3.4130;N49.3465;13;
3;France;Picardie;Aisne;Agnicourt-et-Séchelles 02004;E3.9500;N49.7167;13;
3;France;Picardie;Aisne;Aguilcourt 02005;E3.9667;N49.4000;13;
3;France;Picardie;Aisne;Aisonville-et-Bernoville 02006;E3.5333;N49.9333;13;
3;France;Picardie;Aisne;Aizelles 02007;E3.8167;N49.4833;13;
3;France;Picardie;Aisne;Aizy-Jouy 02008;E3.5161;N49.4354;13;
3;France;Picardie;Aisne;Alaincourt 02009;E3.3667;N49.7500;13;
3;France;Picardie;Aisne;Allemant 02010;E3.4500;N49.4667;13;
3;France;Picardie;Aisne;Ambleny 02011;E3.1833;N49.3833;13;
3;France;Picardie;Aisne;Ambrief 02012;E3.4000;N49.3167;13;
3;France;Picardie;Aisne;Amifontaine 02013;E3.9167;N49.4833;13;
3;France;Picardie;Aisne;Amigny-Rouy 02014;E3.3000;N49.6000;13;
3;France;Picardie;Aisne;Ancienville 02015;E3.2167;N49.2167;13;
3;France;Picardie;Aisne;Andelain 02016;E3.3667;N49.6333;13;
3;France;Picardie;Aisne;Anguilcourt-le-Sart 02017;E3.4333;N49.6833;13;
3;France;Picardie;Aisne;Anizy-le-Château 02018;E3.4500;N49.5000;13;
3;France;Picardie;Aisne;Annois 02019;E3.1667;N49.7167;13;
3;France;Picardie;Aisne;Any-Martin-Rieux 02020;E4.2165;N49.8833;13;
3;France;Picardie;Aisne;Archon 02021;E4.1167;N49.7417;13;
3;France;Picardie;Aisne;Arcy-Sainte-Restitue 02022;E3.4667;N49.2500;13;
3;France;Picardie;Aisne;Armentières-sur-Ourcq 02023;E3.3833;N49.1833;13;
3;France;Picardie;Aisne;Arrancy 02024;E3.7500;N49.4833;13;
3;France;Picardie;Aisne;Artemps 02025;E3.1833;N49.7667;13;
3;France;Picardie;Aisne;Artonges 02026;E3.5500;N48.9333;13;
3;France;Picardie;Aisne;Assis-sur-Serre 02027;E3.5667;N49.6833;13;
3;France;Picardie;Aisne;Athies-sous-Laon 02028;E3.6833;N49.5667;13;
3;France;Picardie;Aisne;Attilly 02029;E3.1667;N49.8500;13;
3;France;Picardie;Aisne;Aubencheul-aux-Bois 02030;E3.2667;N50.0333;13;
3;France;Picardie;Aisne;Aubenton 02031;E4.2000;N49.8333;13;
3;France;Picardie;Aisne;Aubigny-aux-Kaisnes 02032;E3.1167;N49.7833;13;
3;France;Picardie;Aisne;Aubigny-en-Laonnois 02033;E3.8000;N49.5000;13;
3;France;Picardie;Aisne;Audignicourt 02034;E3.1333;N49.4833;13;
3;France;Picardie;Aisne;Audigny 02035;E3.6500;N49.8500;13;
3;France;Picardie;Aisne;Augy 02036;E3.5167;N49.3333;13;
3;France;Picardie;Aisne;Aulnois-sous-Laon 02037;E3.6000;N49.6167;13;
3;France;Picardie;Aisne;Autremencourt 02039;E3.8000;N49.7000;13;
3;France;Picardie;Aisne;Autreppes 02040;E3.8500;N49.9000;13;
3;France;Picardie;Aisne;Autreville 02041;E3.2333;N49.5833;13;
3;France;Picardie;Aisne;Azy-sur-Marne 02042;E3.3667;N49.0000;13;
3;France;Picardie;Aisne;Bagneux 02043;E3.2833;N49.4667;13;
3;France;Picardie;Aisne;Bancigny 02044;E4.0167;N49.8000;13;
3;France;Picardie;Aisne;Barbonval 02045=02439;E3.6667;N49.3500;13;
3;France;Picardie;Aisne;Barenton-Bugny 02046;E3.6500;N49.6333;13;
3;France;Picardie;Aisne;Barenton-Cel 02047;E3.6333;N49.6500;13;
3;France;Picardie;Aisne;Barenton-sur-Serre 02048;E3.6833;N49.6667;13;
3;France;Picardie;Aisne;Barisis 02049;E3.3274;N49.5777;13;
3;France;Picardie;Aisne;Barzy-en-Thiérache 02050;E3.7500;N50.0333;13;
3;France;Picardie;Aisne;Barzy-sur-Marne 02051;E3.5500;N49.0833;13;
3;France;Picardie;Aisne;Bassoles-Aulers 02052;E3.3833;N49.5333;13;
3;France;Picardie;Aisne;Baulne-en-Brie 02053;E3.6167;N48.9833;13;
3;France;Picardie;Aisne;Bazoches-sur-Vesles 02054;E3.6192;N49.3076;13;
3;France;Picardie;Aisne;Beaumé 02055;E4.1500;N49.8333;13;
3;France;Picardie;Aisne;Beaumont-en-Beine 02056;E3.1333;N49.7000;13;
3;France;Picardie;Aisne;Beaurevoir 02057;E3.3000;N50.0000;13;
3;France;Picardie;Aisne;Beaurieux 02058;E3.7333;N49.4000;13;
3;France;Picardie;Aisne;Beautor 02059;E3.3333;N49.6500;13;
3;France;Picardie;Aisne;Beauvois-en-Vermandois 02060;E3.1000;N49.8167;13;
3;France;Picardie;Aisne;Becquigny 02061;E3.4695;N50.0161;13;
3;France;Picardie;Aisne;Belleau 02062;E3.3000;N49.1000;13;
3;France;Picardie;Aisne;Bellenglise 02063;E3.2500;N49.9167;13;
3;France;Picardie;Aisne;Belleu 02064;E3.3333;N49.3667;13;
3;France;Picardie;Aisne;Bellicourt 02065;E3.2333;N49.9500;13;
3;France;Picardie;Aisne;Benay 02066;E3.3167;N49.7500;13;
3;France;Picardie;Aisne;Bergues-sur-Sambre 02067;E3.7167;N50.0333;13;
3;France;Picardie;Aisne;Berlancourt 02068;E3.7562;N49.7794;13;
3;France;Picardie;Aisne;Berlise 02069;E4.1167;N49.6667;13;
3;France;Picardie;Aisne;Bernot 02070;E3.5000;N49.8667;13;
3;France;Picardie;Aisne;Berny-Rivière 02071;E3.1500;N49.4167;13;
3;France;Picardie;Aisne;Berrieux 02072;E3.8500;N49.4833;13;
3;France;Picardie;Aisne;Berry-au-Bac 02073;E3.9000;N49.4000;13;
3;France;Picardie;Aisne;Bertaucourt-Epourdon 02074;E3.3833;N49.6167;13;
3;France;Picardie;Aisne;Berthenicourt 02075;E3.3833;N49.7667;13;
3;France;Picardie;Aisne;Bertricourt 02076;E4.0000;N49.3833;13;
3;France;Picardie;Aisne;Berzy-le-Sec 02077;E3.3167;N49.3333;13;
3;France;Picardie;Aisne;Besmé 02078;E3.1667;N49.5333;13;
3;France;Picardie;Aisne;Besmont 02079;E4.1167;N49.8333;13;
3;France;Picardie;Aisne;Besny-et-Loizy 02080;E3.5833;N49.6000;13;
3;France;Picardie;Aisne;Béthancourt-en-Vaux 02081;E3.1500;N49.6167;13;
3;France;Picardie;Aisne;Beugneux 02082;E3.4167;N49.2333;13;
3;France;Picardie;Aisne;Beuvardes 02083;E3.4833;N49.1500;13;
3;France;Picardie;Aisne;Bézu-le-Guéry 02084;E3.2333;N49.0167;13;
3;France;Picardie;Aisne;Bézu-Saint-Germain 02085;E3.4000;N49.1000;13;
3;France;Picardie;Aisne;Bichancourt 02086;E3.2167;N49.5833;13;
3;France;Picardie;Aisne;Bieuxy 02087;E3.2667;N49.4500;13;
3;France;Picardie;Aisne;Bièvres 02088;E3.7167;N49.5000;13;
3;France;Picardie;Aisne;Billy-sur-Aisne 02089;E3.3833;N49.3667;13;
3;France;Picardie;Aisne;Billy-sur-Ourcq 02090;E3.3000;N49.2167;13;
3;France;Picardie;Aisne;Blanzy-lès-Fismes 02091;E3.6667;N49.3333;13;
3;France;Picardie;Aisne;Blérancourdelle 02092=02093;E3.1341;N49.5018;13;
3;France;Picardie;Aisne;Blérancourt 02093;E3.1500;N49.5167;13;
3;France;Picardie;Aisne;Blesmes 02094;E3.4500;N49.0333;13;
3;France;Picardie;Aisne;Bohain-en-Vermandois 02095;E3.4500;N49.9833;13;
3;France;Picardie;Aisne;Bois-lès-Pargny 02096;E3.6500;N49.7167;13;
3;France;Picardie;Aisne;Boncourt 02097;E3.9500;N49.6167;13;
3;France;Picardie;Aisne;Bonneil 02098;E3.3500;N49.0000;13;
3;France;Picardie;Aisne;Bonnesvalyn 02099;E3.3167;N49.1167;13;
3;France;Picardie;Aisne;Bony 02100;E3.2167;N49.9833;13;
3;France;Picardie;Aisne;Bosmont-sur-Serre 02101;E3.8667;N49.7333;13;
3;France;Picardie;Aisne;Bouconville-Vauclair 02102;E3.7573;N49.4651;13;
3;France;Picardie;Aisne;Boué 02103;E3.7000;N50.0167;13;
3;France;Picardie;Aisne;Bouffignereux 02104;E3.8500;N49.3667;13;
3;France;Picardie;Aisne;Bouresches 02105;E3.3000;N49.0667;13;
3;France;Picardie;Aisne;Bourg-et-Comin 02106;E3.6500;N49.4000;13;
3;France;Picardie;Aisne;Bourguignon-sous-Coucy 02107;E3.1667;N49.5500;13;
3;France;Picardie;Aisne;Bourguignon-sous-Montbavin 02108;E3.5404;N49.5287;13;
3;France;Picardie;Aisne;Braine 02110;E3.5333;N49.3333;13;
3;France;Picardie;Aisne;Brancourt-en-Laonnois 02111;E3.4167;N49.5167;13;
3;France;Picardie;Aisne;Brancourt-le-Grand 02112;E3.3833;N49.9667;13;
3;France;Picardie;Aisne;Branges 02113=02022;E3.5000;N49.2667;13;
3;France;Picardie;Aisne;Brasles 02114;E3.4333;N49.0500;13;
3;France;Picardie;Aisne;Bray-Saint-Christophe 02117;E3.1500;N49.7667;13;
3;France;Picardie;Aisne;Braye 02118;E3.3667;N49.4333;13;
3;France;Picardie;Aisne;Braye-en-Laonnois 02115;E3.6167;N49.4333;13;
3;France;Picardie;Aisne;Braye-en-Thiérache 02116;E3.9667;N49.7833;13;
3;France;Picardie;Aisne;Brécy 02119;E3.4333;N49.1500;13;
3;France;Picardie;Aisne;Brenelle 02120;E3.5333;N49.3667;13;
3;France;Picardie;Aisne;Breny 02121;E3.3500;N49.1833;13;
3;France;Picardie;Aisne;Brie 02122;E3.4824;N49.6007;13;
3;France;Picardie;Aisne;Brissay-Choigny 02123;E3.3667;N49.7167;13;
3;France;Picardie;Aisne;Brissy-Hamégicourt 02124;E3.3798;N49.7430;13;
3;France;Picardie;Aisne;Brumetz 02125;E3.1500;N49.1000;13;
3;France;Picardie;Aisne;Brunehamel 02126;E4.1833;N49.7667;13;
3;France;Picardie;Aisne;Bruyères-et-Montbérault 02128;E3.6667;N49.5167;13;
3;France;Picardie;Aisne;Bruyères-sur-Fère 02127;E3.4333;N49.1833;13;
3;France;Picardie;Aisne;Bruys 02129;E3.5667;N49.2667;13;
3;France;Picardie;Aisne;Bucilly 02130;E4.0833;N49.8833;13;
3;France;Picardie;Aisne;Bucy-le-Long 02131;E3.3833;N49.4000;13;
3;France;Picardie;Aisne;Bucy-lès-Cerny 02132;E3.5167;N49.5833;13;
3;France;Picardie;Aisne;Bucy-lès-Pierrepont 02133;E3.9000;N49.6500;13;
3;France;Picardie;Aisne;Buire 02134;E4.0500;N49.9000;13;
3;France;Picardie;Aisne;Buironfosse 02135;E3.8333;N49.9667;13;
3;France;Picardie;Aisne;Burelles 02136;E3.9000;N49.7833;13;
3;France;Picardie;Aisne;Bussiares 02137;E3.2500;N49.0833;13;
3;France;Picardie;Aisne;Buzancy 02138;E3.3500;N49.3167;13;
3;France;Picardie;Aisne;Caillouël-Crépigny 02139;E3.1500;N49.6167;13;
3;France;Picardie;Aisne;Camelin 02140;E3.1342;N49.5251;13;
3;France;Picardie;Aisne;Castres 02142;E3.2333;N49.8000;13;
3;France;Picardie;Aisne;Caulaincourt 02144;E3.1000;N49.8667;13;
3;France;Picardie;Aisne;Caumont 02145;E3.1833;N49.6167;13;
3;France;Picardie;Aisne;Celles-lès-Condé 02146;E3.5667;N49.0167;13;
3;France;Picardie;Aisne;Celles-sur-Aisne 02148;E3.4833;N49.4167;13;
3;France;Picardie;Aisne;Cerizy 02149;E3.3333;N49.7500;13;
3;France;Picardie;Aisne;Cerny-en-Laonnois 02150;E3.6667;N49.4500;13;
3;France;Picardie;Aisne;Cerny-lès-Bucy 02151;E3.5333;N49.5833;13;
3;France;Picardie;Aisne;Cerseuil 02152;E3.5167;N49.3333;13;
3;France;Picardie;Aisne;Cessières 02153;E3.4833;N49.5667;13;
3;France;Picardie;Aisne;Chacrise 02154;E3.4000;N49.3000;13;
3;France;Picardie;Aisne;Chaillevois 02155;E3.5167;N49.5167;13;
3;France;Picardie;Aisne;Chalandry 02156;E3.6333;N49.6833;13;
3;France;Picardie;Aisne;Chambry 02157;E3.6500;N49.6000;13;
3;France;Picardie;Aisne;Chamouille 02158;E3.6667;N49.4667;13;
3;France;Picardie;Aisne;Champs 02159;E3.2500;N49.5333;13;
3;France;Picardie;Aisne;Chaourse 02160;E4.0000;N49.7000;13;
3;France;Picardie;Aisne;Charly 02163;E3.2865;N48.9770;13;
3;France;Picardie;Aisne;Charmes 02165;E3.3833;N49.6500;13;
3;France;Picardie;Aisne;Chartèves 02166;E3.5000;N49.0833;13;
3;France;Picardie;Aisne;Chassemy 02167;E3.5000;N49.3833;13;
3;France;Picardie;Aisne;Château-Thierry 02168;E3.4000;N49.0500;13;
3;France;Picardie;Aisne;Châtillon-lès-Sons 02169;E3.6900;N49.7586;13;
3;France;Picardie;Aisne;Châtillon-sur-Oise 02170;E3.4000;N49.7833;13;
3;France;Picardie;Aisne;Chaudardes 02171;E3.7833;N49.3833;13;
3;France;Picardie;Aisne;Chaudun 02172;E3.2667;N49.3167;13;
3;France;Picardie;Aisne;Chauny 02173;E3.2167;N49.6167;13;
3;France;Picardie;Aisne;Chavignon 02174;E3.5167;N49.4833;13;
3;France;Picardie;Aisne;Chavigny 02175;E3.3000;N49.4333;13;
3;France;Picardie;Aisne;Chavonne 02176;E3.5667;N49.4000;13;
3;France;Picardie;Aisne;Chérêt 02177;E3.6833;N49.5167;13;
3;France;Picardie;Aisne;Chermizy-Ailles 02178;E3.7333;N49.4667;13;
3;France;Picardie;Aisne;Chéry-Chartreuve 02179;E3.6167;N49.2667;13;
3;France;Picardie;Aisne;Chéry-lès-Pouilly 02180;E3.6000;N49.6500;13;
3;France;Picardie;Aisne;Chéry-lès-Rozoy 02181;E4.0833;N49.7167;13;
3;France;Picardie;Aisne;Chevennes 02182;E3.7333;N49.8167;13;
3;France;Picardie;Aisne;Chevregny 02183;E3.5833;N49.4667;13;
3;France;Picardie;Aisne;Chevresis-Monceau 02184;E3.5667;N49.7500;13;
3;France;Picardie;Aisne;Chézy-en-Orxois 02185;E3.1833;N49.1333;13;
3;France;Picardie;Aisne;Chézy-sur-Marne 02186;E3.3667;N48.9833;13;
3;France;Picardie;Aisne;Chierry 02187;E3.4333;N49.0333;13;
3;France;Picardie;Aisne;Chigny 02188;E3.7667;N49.9167;13;
3;France;Picardie;Aisne;Chivres-en-Laonnois 02189;E3.8500;N49.6333;13;
3;France;Picardie;Aisne;Chivres-Val 02190;E3.4333;N49.4000;13;
3;France;Picardie;Aisne;Chivy-lès-Étouvelles 02191;E3.5833;N49.5167;13;
3;France;Picardie;Aisne;Chouy 02192;E3.2500;N49.2000;13;
3;France;Picardie;Aisne;Cierges 02193;E3.6000;N49.1667;13;
3;France;Picardie;Aisne;Cilly 02194;E3.8333;N49.7333;13;
3;France;Picardie;Aisne;Ciry-Salsogne 02195;E3.4667;N49.3667;13;
3;France;Picardie;Aisne;Clacy-et-Thierret 02196;E3.5667;N49.5500;13;
3;France;Picardie;Aisne;Clairfontaine 02197;E3.9833;N49.9833;13;
3;France;Picardie;Aisne;Clamecy 02198;E3.3667;N49.4333;13;
3;France;Picardie;Aisne;Clastres 02199;E3.2333;N49.7333;13;
3;France;Picardie;Aisne;Clermont-les-Fermes 02200;E3.9500;N49.6667;13;
3;France;Picardie;Aisne;Coeuvres-et-Valsery 02201;E3.1500;N49.3333;13;
3;France;Picardie;Aisne;Cohan 02202=02220;E3.6500;N49.2167;13;
3;France;Picardie;Aisne;Coincy 02203;E3.4167;N49.1667;13;
3;France;Picardie;Aisne;Coingt 02204;E4.0833;N49.7833;13;
3;France;Picardie;Aisne;Colligis-Crandelain 02205;E3.6500;N49.4833;13;
3;France;Picardie;Aisne;Colonfay 02206;E3.7000;N49.8500;13;
3;France;Picardie;Aisne;Commenchon 02207;E3.1667;N49.6333;13;
3;France;Picardie;Aisne;Concevreux 02208;E3.7833;N49.3833;13;
3;France;Picardie;Aisne;Condé-en-Brie 02209;E3.5500;N49.0000;13;
3;France;Picardie;Aisne;Condé-sur-Aisne 02210;E3.4500;N49.4000;13;
3;France;Picardie;Aisne;Condé-sur-Suippe 02211;E3.9500;N49.4167;13;
3;France;Picardie;Aisne;Condren 02212;E3.2833;N49.6167;13;
3;France;Picardie;Aisne;Connigis 02213;E3.5333;N49.0333;13;
3;France;Picardie;Aisne;Contescourt 02214;E3.2333;N49.8000;13;
3;France;Picardie;Aisne;Corbeny 02215;E3.8167;N49.4667;13;
3;France;Picardie;Aisne;Corcy 02216;E3.2167;N49.2500;13;
3;France;Picardie;Aisne;Coucy-la-Ville 02219;E3.3333;N49.5333;13;
3;France;Picardie;Aisne;Coucy-le-Château-Auffrique 02217;E3.3245;N49.5193;13;
3;France;Picardie;Aisne;Coucy-lès-Eppes 02218;E3.7667;N49.5500;13;
3;France;Picardie;Aisne;Coulonges-Cohan 02220;E3.6433;N49.2156;13;
3;France;Picardie;Aisne;Coupru 02221;E3.2667;N49.0333;13;
3;France;Picardie;Aisne;Courbes 02222;E3.4500;N49.6833;13;
3;France;Picardie;Aisne;Courboin 02223;E3.5000;N49.0000;13;
3;France;Picardie;Aisne;Courcelles-sur-Vesles 02224;E3.5712;N49.3384;13;
3;France;Picardie;Aisne;Courchamps 02225;E3.2667;N49.1167;13;
3;France;Picardie;Aisne;Courmelles 02226;E3.3167;N49.3500;13;
3;France;Picardie;Aisne;Courmont 02227;E3.5667;N49.1500;13;
3;France;Picardie;Aisne;Courtemont-Varennes 02228;E3.5500;N49.0667;13;
3;France;Picardie;Aisne;Courtrizy-et-Fussigny 02229;E3.8000;N49.5167;13;
3;France;Picardie;Aisne;Couvrelles 02230;E3.4833;N49.3500;13;
3;France;Picardie;Aisne;Couvron-et-Aumencourt 02231;E3.5167;N49.6500;13;
3;France;Picardie;Aisne;Coyolles 02232;E3.0500;N49.2333;13;
3;France;Picardie;Aisne;Cramaille 02233;E3.4500;N49.2333;13;
3;France;Picardie;Aisne;Craonne 02234;E3.7833;N49.4333;13;
3;France;Picardie;Aisne;Craonnelle 02235;E3.7667;N49.4333;13;
3;France;Picardie;Aisne;Crécy-au-Mont 02236;E3.3167;N49.4833;13;
3;France;Picardie;Aisne;Crécy-sur-Serre 02237;E3.6167;N49.7000;13;
3;France;Picardie;Aisne;Crépy 02238;E3.5125;N49.6061;13;
3;France;Picardie;Aisne;Crézancy 02239;E3.5000;N49.0500;13;
3;France;Picardie;Aisne;Croix-Fonsommes 02240;E3.4000;N49.9167;13;
3;France;Picardie;Aisne;Crouttes-sur-Marne 02242;E3.2405;N48.9794;13;
3;France;Picardie;Aisne;Crouy 02243;E3.3667;N49.4000;13;
3;France;Picardie;Aisne;Crupilly 02244;E3.7500;N49.9167;13;
3;France;Picardie;Aisne;Cuffies 02245;E3.3167;N49.4167;13;
3;France;Picardie;Aisne;Cugny 02246;E3.1500;N49.7000;13;
3;France;Picardie;Aisne;Cugny-lès-Crouttes 02247=02580;E3.3833;N49.2000;13;
3;France;Picardie;Aisne;Cuirieux 02248;E3.8167;N49.6833;13;
3;France;Picardie;Aisne;Cuiry-Housse 02249;E3.4833;N49.3000;13;
3;France;Picardie;Aisne;Cuiry-lès-Chaudardes 02250;E3.7667;N49.3833;13;
3;France;Picardie;Aisne;Cuiry-lès-Iviers 02251;E4.1090;N49.7613;13;
3;France;Picardie;Aisne;Cuissy-et-Geny 02252;E3.7000;N49.4167;13;
3;France;Picardie;Aisne;Cuisy-en-Almont 02253;E3.2500;N49.4167;13;
3;France;Picardie;Aisne;Cutry 02254;E3.1833;N49.3500;13;
3;France;Picardie;Aisne;Cys-la-Commune 02255;E3.5667;N49.4000;13;
3;France;Picardie;Aisne;Dagny-Lambercy 02256;E4.0333;N49.7667;13;
3;France;Picardie;Aisne;Dallon 02257;E3.2333;N49.8167;13;
3;France;Picardie;Aisne;Dammard 02258;E3.2000;N49.1500;13;
3;France;Picardie;Aisne;Dampleux 02259;E3.1500;N49.2500;13;
3;France;Picardie;Aisne;Danizy 02260;E3.3833;N49.6500;13;
3;France;Picardie;Aisne;Dercy 02261;E3.6833;N49.7000;13;
3;France;Picardie;Aisne;Deuillet 02262;E3.3500;N49.6333;13;
3;France;Picardie;Aisne;Dhuizel 02263;E3.6167;N49.3667;13;
3;France;Picardie;Aisne;Dizy-le-Gros 02264;E4.0167;N49.6333;13;
3;France;Picardie;Aisne;Dohis 02265;E4.1333;N49.7500;13;
3;France;Picardie;Aisne;Dolignon 02266;E4.0833;N49.7167;13;
3;France;Picardie;Aisne;Dommiers 02267;E3.2167;N49.3333;13;
3;France;Picardie;Aisne;Domptin 02268;E3.2833;N49.0167;13;
3;France;Picardie;Aisne;Dorengt 02269;E3.6833;N49.9667;13;
3;France;Picardie;Aisne;Douchy 02270;E3.1167;N49.7667;13;
3;France;Picardie;Aisne;Dravegny 02271;E3.6333;N49.2333;13;
3;France;Picardie;Aisne;Droizy 02272;E3.3833;N49.2833;13;
3;France;Picardie;Aisne;Dury 02273;E3.1314;N49.7506;13;
3;France;Picardie;Aisne;Ébouleau 02274;E3.8667;N49.6667;13;
3;France;Picardie;Aisne;Effry 02275;E4.0000;N49.9333;13;
3;France;Picardie;Aisne;Englancourt 02276;E3.8000;N49.9167;13;
3;France;Picardie;Aisne;Épagny 02277;E3.2500;N49.4667;13;
3;France;Picardie;Aisne;Éparcy 02278;E4.0667;N49.8667;13;
3;France;Picardie;Aisne;Épaux-Bézu 02279;E3.3500;N49.1000;13;
3;France;Picardie;Aisne;Épieds 02280;E3.4500;N49.1000;13;
3;France;Picardie;Aisne;Eppes 02282;E3.7333;N49.5500;13;
3;France;Picardie;Aisne;Erlon 02283;E3.7167;N49.7167;13;
3;France;Picardie;Aisne;Erloy 02284;E3.8167;N49.9000;13;
3;France;Picardie;Aisne;Escaufourt 02285=59545;E3.4833;N50.0500;13;
3;France;Picardie;Aisne;Esquéhéries 02286;E3.7500;N49.9833;13;
3;France;Picardie;Aisne;Essigny-le-Grand 02287;E3.2833;N49.7667;13;
3;France;Picardie;Aisne;Essigny-le-Petit 02288;E3.3667;N49.9000;13;
3;France;Picardie;Aisne;Essises 02289;E3.4167;N48.9667;13;
3;France;Picardie;Aisne;Essômes-sur-Marne 02290;E3.3667;N49.0333;13;
3;France;Picardie;Aisne;Estrées 02291;E3.2833;N49.9667;13;
3;France;Picardie;Aisne;Étampes-sur-Marne 02292;E3.4167;N49.0333;13;
3;France;Picardie;Aisne;Étaves-et-Bocquiaux 02293;E3.4500;N49.9333;13;
3;France;Picardie;Aisne;Étouvelles 02294;E3.5833;N49.5333;13;
3;France;Picardie;Aisne;Étréaupont 02295;E3.9167;N49.9000;13;
3;France;Picardie;Aisne;Étreillers 02296;E3.1500;N49.8167;13;
3;France;Picardie;Aisne;Étrépilly 02297;E3.3333;N49.0833;13;
3;France;Picardie;Aisne;Étreux 02298;E3.6500;N49.9833;13;
3;France;Picardie;Aisne;Évergnicourt 02299;E4.0333;N49.4333;13;
3;France;Picardie;Aisne;Fargniers 02300=02738;E3.3167;N49.6500;13;
3;France;Picardie;Aisne;Faucoucourt 02301;E3.4667;N49.5333;13;
3;France;Picardie;Aisne;Faverolles 02302;E3.1773;N49.2239;13;
3;France;Picardie;Aisne;Fayet 02303;E3.2500;N49.8667;13;
3;France;Picardie;Aisne;Fère-en-Tardenois 02305;E3.5167;N49.2000;13;
3;France;Picardie;Aisne;Fesmy-le-Sart 02308;E3.6770;N50.0409;13;
3;France;Picardie;Aisne;Festieux 02309;E3.7500;N49.5167;13;
3;France;Picardie;Aisne;Fieulaine 02310;E3.4500;N49.8833;13;
3;France;Picardie;Aisne;Filain 02311;E3.5500;N49.4667;13;
3;France;Picardie;Aisne;Flavigny-le-Grand-et-Beaurain 02313;E3.6772;N49.8824;13;
3;France;Picardie;Aisne;Flavigny-le-Petit 02314=02361;E3.6516;N49.8897;13;
3;France;Picardie;Aisne;Flavy-le-Martel 02315;E3.2000;N49.7167;13;
3;France;Picardie;Aisne;Fleury 02316;E3.1575;N49.2581;13;
3;France;Picardie;Aisne;Fluquières 02317;E3.1500;N49.8000;13;
3;France;Picardie;Aisne;Folembray 02318;E3.2833;N49.5500;13;
3;France;Picardie;Aisne;Fonsommes 02319;E3.4000;N49.9000;13;
3;France;Picardie;Aisne;Fontaine-lès-Clercs 02320;E3.2167;N49.8000;13;
3;France;Picardie;Aisne;Fontaine-lès-Vervins 02321;E3.9000;N49.8500;13;
3;France;Picardie;Aisne;Fontaine-Notre-Dame 02322;E3.4333;N49.8833;13;
3;France;Picardie;Aisne;Fontaine-Uterte 02323;E3.3667;N49.9167;13;
3;France;Picardie;Aisne;Fontenelle 02324;E3.8667;N50.0333;13;
3;France;Picardie;Aisne;Fontenelle-en-Brie 02325;E3.4833;N48.9167;13;
3;France;Picardie;Aisne;Fontenoy 02326;E3.2000;N49.4167;13;
3;France;Picardie;Aisne;Foreste 02327;E3.1000;N49.8167;13;
3;France;Picardie;Aisne;Fossoy 02328;E3.4833;N49.0500;13;
3;France;Picardie;Aisne;Fourdrain 02329;E3.4667;N49.6000;13;
3;France;Picardie;Aisne;Francilly-Selency 02330;E3.2333;N49.8500;13;
3;France;Picardie;Aisne;Franqueville 02331;E3.8104;N49.8097;13;
3;France;Picardie;Aisne;Fresnes 02333;E3.3697;N49.5540;13;
3;France;Picardie;Aisne;Fresnes-en-Tardenois 02332;E3.5500;N49.1500;13;
3;France;Picardie;Aisne;Fresnoy-le-Grand 02334;E3.4167;N49.9500;13;
3;France;Picardie;Aisne;Fressancourt 02335;E3.4167;N49.6167;13;
3;France;Picardie;Aisne;Frières-Faillouël 02336;E3.2500;N49.6667;13;
3;France;Picardie;Aisne;Froidestrées 02337;E3.9000;N49.9333;13;
3;France;Picardie;Aisne;Froidmont-Cohartille 02338;E3.7000;N49.6833;13;
3;France;Picardie;Aisne;Gandelu 02339;E3.1833;N49.1000;13;
3;France;Picardie;Aisne;Gauchy 02340;E3.2667;N49.8167;13;
3;France;Picardie;Aisne;Gercy 02341;E3.8667;N49.8167;13;
3;France;Picardie;Aisne;Gergny 02342;E3.9167;N49.9167;13;
3;France;Picardie;Aisne;Germaine 02343;E3.1167;N49.7833;13;
3;France;Picardie;Aisne;Gernicourt 02344;E3.8667;N49.4000;13;
3;France;Picardie;Aisne;Gibercourt 02345;E3.2833;N49.7333;13;
3;France;Picardie;Aisne;Gizy 02346;E3.7667;N49.6000;13;
3;France;Picardie;Aisne;Gland 02347;E3.4667;N49.0500;13;
3;France;Picardie;Aisne;Glennes 02348;E3.7167;N49.3500;13;
3;France;Picardie;Aisne;Goudelancourt-lès-Berrieux 02349;E3.8475;N49.4965;13;
3;France;Picardie;Aisne;Goudelancourt-lès-Pierrepont 02350;E3.8534;N49.6667;13;
3;France;Picardie;Aisne;Goussancourt 02351;E3.6667;N49.1667;13;
3;France;Picardie;Aisne;Gouy 02352;E3.2546;N50.0021;13;
3;France;Picardie;Aisne;Grand-Rozoy 02665;E3.3833;N49.2333;13;
3;France;Picardie;Aisne;Grand-Verly 02783;E3.5833;N49.9333;13;
3;France;Picardie;Aisne;Grandlup-et-Fay 02353;E3.7367;N49.6605;13;
3;France;Picardie;Aisne;Grandrieux 02354;E4.1833;N49.7333;13;
3;France;Picardie;Aisne;Gricourt 02355;E3.2500;N49.8833;13;
3;France;Picardie;Aisne;Grisolles 02356;E3.3562;N49.1443;13;
3;France;Picardie;Aisne;Gronard 02357;E3.8833;N49.7833;13;
3;France;Picardie;Aisne;Grougis 02358;E3.5333;N49.9333;13;
3;France;Picardie;Aisne;Grugies 02359;E3.2667;N49.8000;13;
3;France;Picardie;Aisne;Guignicourt 02360;E3.9667;N49.4333;13;
3;France;Picardie;Aisne;Guise 02361;E3.6333;N49.9000;13;
3;France;Picardie;Aisne;Guivry 02362;E3.1167;N49.6500;13;
3;France;Picardie;Aisne;Guny 02363;E3.2667;N49.5167;13;
3;France;Picardie;Aisne;Guyencourt 02364;E3.8333;N49.3500;13;
3;France;Picardie;Aisne;Hamégicourt 02365=02124;E3.3802;N49.7429;13;
3;France;Picardie;Aisne;Hannapes 02366;E3.6167;N49.9667;13;
3;France;Picardie;Aisne;Happencourt 02367;E3.1833;N49.7833;13;
3;France;Picardie;Aisne;Haramont 02368;E3.0500;N49.2833;13;
3;France;Picardie;Aisne;Harcigny 02369;E3.9833;N49.8000;13;
3;France;Picardie;Aisne;Hargicourt 02370;E3.1775;N49.9639;13;
3;France;Picardie;Aisne;Harly 02371;E3.3167;N49.8333;13;
3;France;Picardie;Aisne;Hartennes-et-Taux 02372;E3.3500;N49.2667;13;
3;France;Picardie;Aisne;Hary 02373;E3.9333;N49.7833;13;
3;France;Picardie;Aisne;Hautevesnes 02375;E3.2333;N49.1167;13;
3;France;Picardie;Aisne;Hauteville 02376;E3.5167;N49.8667;13;
3;France;Picardie;Aisne;Haution 02377;E3.8333;N49.8500;13;
3;France;Picardie;Aisne;Hinacourt 02380;E3.2833;N49.7333;13;
3;France;Picardie;Aisne;Hirson 02381;E4.0833;N49.9167;13;
3;France;Picardie;Aisne;Holnon 02382;E3.2167;N49.8667;13;
3;France;Picardie;Aisne;Homblières 02383;E3.3667;N49.8500;13;
3;France;Picardie;Aisne;Houry 02384;E3.8500;N49.7833;13;
3;France;Picardie;Aisne;Housset 02385;E3.7000;N49.7833;13;
3;France;Picardie;Aisne;Iron 02386;E3.6667;N49.9500;13;
3;France;Picardie;Aisne;Itancourt 02387;E3.3500;N49.8000;13;
3;France;Picardie;Aisne;Iviers 02388;E4.1333;N49.7833;13;
3;France;Picardie;Aisne;Jaulgonne 02389;E3.5333;N49.0833;13;
3;France;Picardie;Aisne;Jeancourt 02390;E3.1500;N49.9333;13;
3;France;Picardie;Aisne;Jeantes 02391;E4.0500;N49.8000;13;
3;France;Picardie;Aisne;Joncourt 02392;E3.3000;N49.9500;13;
3;France;Picardie;Aisne;Jouaignes 02393;E3.5000;N49.3000;13;
3;France;Picardie;Aisne;Jouy 02394=02008;E3.5000;N49.4500;13;
3;France;Picardie;Aisne;Jumencourt 02395;E3.3500;N49.5167;13;
3;France;Picardie;Aisne;Jumigny 02396;E3.7167;N49.4167;13;
3;France;Picardie;Aisne;Jussy 02397;E3.2333;N49.7167;13;
3;France;Picardie;Aisne;Juvigny 02398;E3.3167;N49.4500;13;
3;France;Picardie;Aisne;Juvincourt-et-Damary 02399;E3.9000;N49.4500;13;
3;France;Picardie;Aisne;L'Épine-aux-Bois 02281;E3.4500;N48.8833;13;
3;France;Picardie;Aisne;La Bouteille 02109;E3.9667;N49.8667;13;
3;France;Picardie;Aisne;La Capelle 02141;E3.9164;N49.9748;13;
3;France;Picardie;Aisne;La Celle-sous-Montmirail 02147;E3.4658;N48.8657;13;
3;France;Picardie;Aisne;La Chapelle-Monthodon 02161;E3.6333;N49.0167;13;
3;France;Picardie;Aisne;La Chapelle-sur-Chézy 02162;E3.3833;N48.9500;13;
3;France;Picardie;Aisne;La Croix-sur-Ourcq 02241;E3.3500;N49.1667;13;
3;France;Picardie;Aisne;La Fère 02304;E3.3667;N49.6667;13;
3;France;Picardie;Aisne;La Ferté-Chevresis 02306;E3.5667;N49.7333;13;
3;France;Picardie;Aisne;La Ferté-Milon 02307;E3.1167;N49.1667;13;
3;France;Picardie;Aisne;La Flamengrie 02312;E3.9167;N50.0000;13;
3;France;Picardie;Aisne;La Hérie 02378;E4.0500;N49.8833;13;
3;France;Picardie;Aisne;La Malmaison 02454;E3.9833;N49.5167;13;
3;France;Picardie;Aisne;La Neuville-Bosmont 02545;E3.8500;N49.7167;13;
3;France;Picardie;Aisne;La Neuville-en-Beine 02546;E3.1500;N49.6833;13;
3;France;Picardie;Aisne;La Neuville-Housset 02547;E3.7167;N49.7833;13;
3;France;Picardie;Aisne;La Neuville-lès-Dorengt 02548;E3.6833;N49.9667;13;
3;France;Picardie;Aisne;La Selve 02705;E4.0000;N49.5667;13;
3;France;Picardie;Aisne;La Vallée-au-Blé 02759;E3.7833;N49.8667;13;
3;France;Picardie;Aisne;La Vallée-Mulâtre 02760;E3.5667;N50.0167;13;
3;France;Picardie;Aisne;La Ville-aux-Bois-lès-Dizy 02802;E3.9905;N49.6625;13;
3;France;Picardie;Aisne;La Ville-aux-Bois-lès-Pontavert 02803;E3.8497;N49.4275;13;
3;France;Picardie;Aisne;Laffaux 02400;E3.4167;N49.4500;13;
3;France;Picardie;Aisne;Laigny 02401;E3.8667;N49.8500;13;
3;France;Picardie;Aisne;Lanchy 02402;E3.0833;N49.8333;13;
3;France;Picardie;Aisne;Landifay-et-Bertaignemont 02403;E3.6000;N49.8167;13;
3;France;Picardie;Aisne;Landouzy-la-Cour 02404;E3.9833;N49.8500;13;
3;France;Picardie;Aisne;Landouzy-la-Ville 02405;E4.0500;N49.8667;13;
3;France;Picardie;Aisne;Landricourt 02406;E3.3667;N49.5000;13;
3;France;Picardie;Aisne;Laniscourt 02407;E3.5500;N49.5500;13;
3;France;Picardie;Aisne;Laon 02408;E3.6167;N49.5667;13;
3;France;Picardie;Aisne;Lappion 02409;E3.9667;N49.6167;13;
3;France;Picardie;Aisne;Largny-sur-Automne 02410;E3.0500;N49.2667;13;
3;France;Picardie;Aisne;Latilly 02411;E3.3167;N49.1500;13;
3;France;Picardie;Aisne;Launoy 02412;E3.4000;N49.2667;13;
3;France;Picardie;Aisne;Laval-en-Laonnois 02413;E3.6000;N49.5000;13;
3;France;Picardie;Aisne;Lavaqueresse 02414;E3.7083;N49.9500;13;
3;France;Picardie;Aisne;Laversine 02415;E3.1667;N49.3500;13;
3;France;Picardie;Aisne;Le Catelet 02143;E3.2500;N50.0000;13;
3;France;Picardie;Aisne;Le Charmel 02164;E3.5500;N49.1167;13;
3;France;Picardie;Aisne;Le Hérie-la-Viéville 02379;E3.6333;N49.8167;13;
3;France;Picardie;Aisne;Le Nouvion-en-Thiérache 02558;E3.7833;N50.0167;13;
3;France;Picardie;Aisne;Le Plessier-Huleu 02606;E3.3500;N49.2333;13;
3;France;Picardie;Aisne;Le Sart 02700=02308;E3.7333;N50.0500;13;
3;France;Picardie;Aisne;Le Sourd 02731;E3.7500;N49.8667;13;
3;France;Picardie;Aisne;Le Thuel 02743;E4.0760;N49.6483;13;
3;France;Picardie;Aisne;Le Verguier 02782;E3.1667;N49.9333;13;
3;France;Picardie;Aisne;Lehaucourt 02374;E3.2792;N49.9194;13;
3;France;Picardie;Aisne;Lemé 02416;E3.7667;N49.8333;13;
3;France;Picardie;Aisne;Lempire 02417;E3.1667;N49.9833;13;
3;France;Picardie;Aisne;Lerzy 02418;E3.8667;N49.9333;13;
3;France;Picardie;Aisne;Les Autels 02038;E4.2257;N49.7667;13;
3;France;Picardie;Aisne;Leschelles 02419;E3.7667;N49.9667;13;
3;France;Picardie;Aisne;Lesdins 02420;E3.3333;N49.9000;13;
3;France;Picardie;Aisne;Lesges 02421;E3.5000;N49.3000;13;
3;France;Picardie;Aisne;Lesquielles-Saint-Germain 02422;E3.6167;N49.9333;13;
3;France;Picardie;Aisne;Leuilly-sous-Coucy 02423;E3.3333;N49.4833;13;
3;France;Picardie;Aisne;Leury 02424;E3.3333;N49.4333;13;
3;France;Picardie;Aisne;Leuze 02425;E4.1500;N49.8500;13;
3;France;Picardie;Aisne;Levergies 02426;E3.3167;N49.9333;13;
3;France;Picardie;Aisne;Lhuys 02427;E3.5500;N49.2833;13;
3;France;Picardie;Aisne;Licy-Clignon 02428;E3.2667;N49.1000;13;
3;France;Picardie;Aisne;Lierval 02429;E3.6167;N49.4833;13;
3;France;Picardie;Aisne;Liesse-Notre-Dame 02430;E3.8035;N49.6096;13;
3;France;Picardie;Aisne;Liez 02431;E3.2833;N49.6833;13;
3;France;Picardie;Aisne;Limé 02432;E3.5500;N49.3167;13;
3;France;Picardie;Aisne;Lislet 02433;E4.0167;N49.6833;13;
3;France;Picardie;Aisne;Lizy 02434;E3.4667;N49.5167;13;
3;France;Picardie;Aisne;Logny-lès-Aubenton 02435;E4.2000;N49.8333;13;
3;France;Picardie;Aisne;Lombray 02436=02140;E3.1167;N49.5167;13;
3;France;Picardie;Aisne;Longchamps 02437=02757;E3.5667;N49.9167;13;
3;France;Picardie;Aisne;Longpont 02438;E3.2167;N49.2667;13;
3;France;Picardie;Aisne;Longueval-Barbonval 02439;E3.6534;N49.3588;13;
3;France;Picardie;Aisne;Lor 02440;E4.0500;N49.5333;13;
3;France;Picardie;Aisne;Louâtre 02441;E3.2500;N49.2500;13;
3;France;Picardie;Aisne;Loupeigne 02442;E3.5333;N49.2500;13;
3;France;Picardie;Aisne;Lucy-le-Bocage 02443;E3.2833;N49.0500;13;
3;France;Picardie;Aisne;Lugny 02444;E3.8167;N49.7833;13;
3;France;Picardie;Aisne;Luzoir 02445;E3.9667;N49.9333;13;
3;France;Picardie;Aisne;Ly-Fontaine 02446;E3.3000;N49.7167;13;
3;France;Picardie;Aisne;Maast-et-Violaine 02447;E3.4500;N49.2833;13;
3;France;Picardie;Aisne;Mâchecourt 02448;E3.8417;N49.6583;13;
3;France;Picardie;Aisne;Macogny 02449;E3.2333;N49.1667;13;
3;France;Picardie;Aisne;Macquigny 02450;E3.5500;N49.8833;13;
3;France;Picardie;Aisne;Magny-la-Fosse 02451;E3.2833;N49.9333;13;
3;France;Picardie;Aisne;Maissemy 02452;E3.2000;N49.8833;13;
3;France;Picardie;Aisne;Maizy 02453;E3.7333;N49.3833;13;
3;France;Picardie;Aisne;Malzy 02455;E3.7333;N49.9000;13;
3;France;Picardie;Aisne;Manicamp 02456;E3.1667;N49.5667;13;
3;France;Picardie;Aisne;Marchais 02457;E3.8167;N49.5833;13;
3;France;Picardie;Aisne;Marchais-en-Brie 02458;E3.4833;N48.8833;13;
3;France;Picardie;Aisne;Marcy 02459;E3.4000;N49.8333;13;
3;France;Picardie;Aisne;Marcy-sous-Marle 02460;E3.7333;N49.7333;13;
3;France;Picardie;Aisne;Marest-Dampcourt 02461;E3.1500;N49.6000;13;
3;France;Picardie;Aisne;Mareuil-en-Dôle 02462;E3.5500;N49.2500;13;
3;France;Picardie;Aisne;Marfontaine 02463;E3.7833;N49.8000;13;
3;France;Picardie;Aisne;Margival 02464;E3.4000;N49.4333;13;
3;France;Picardie;Aisne;Marigny-en-Orxois 02465;E3.2167;N49.0667;13;
3;France;Picardie;Aisne;Marizy-Saint-Mard 02467;E3.2167;N49.1833;13;
3;France;Picardie;Aisne;Marizy-Sainte-Geneviève 02466;E3.2000;N49.1833;13;
3;France;Picardie;Aisne;Marle 02468;E3.7667;N49.7333;13;
3;France;Picardie;Aisne;Marly-Gomont 02469;E3.8000;N49.9000;13;
3;France;Picardie;Aisne;Martigny 02470;E4.1333;N49.8667;13;
3;France;Picardie;Aisne;Martigny-Courpierre 02471;E3.6833;N49.4833;13;
3;France;Picardie;Aisne;Mauregny-en-Haye 02472;E3.8000;N49.5333;13;
3;France;Picardie;Aisne;Mayot 02473;E3.3833;N49.7000;13;
3;France;Picardie;Aisne;Mennessis 02474;E3.2667;N49.7000;13;
3;France;Picardie;Aisne;Menneville 02475;E4.0000;N49.4167;13;
3;France;Picardie;Aisne;Mennevret 02476;E3.5500;N49.9833;13;
3;France;Picardie;Aisne;Mercin-et-Vaux 02477;E3.2833;N49.3833;13;
3;France;Picardie;Aisne;Merlieux-et-Fouquerolles 02478;E3.5000;N49.5167;13;
3;France;Picardie;Aisne;Merval 02479;E3.7000;N49.3500;13;
3;France;Picardie;Aisne;Mesbrecourt-Richecourt 02480;E3.5500;N49.7000;13;
3;France;Picardie;Aisne;Mesnil-Saint-Laurent 02481;E3.3500;N49.8333;13;
3;France;Picardie;Aisne;Meurival 02482;E3.7667;N49.3500;13;
3;France;Picardie;Aisne;Mézières-sur-Oise 02483;E3.4000;N49.7667;13;
3;France;Picardie;Aisne;Mézy-Moulins 02484;E3.5000;N49.0667;13;
3;France;Picardie;Aisne;Missy-aux-Bois 02485;E3.2500;N49.3333;13;
3;France;Picardie;Aisne;Missy-lès-Pierrepont 02486;E3.8000;N49.6333;13;
3;France;Picardie;Aisne;Missy-sur-Aisne 02487;E3.4333;N49.3833;13;
3;France;Picardie;Aisne;Molain 02488;E3.5167;N50.0167;13;
3;France;Picardie;Aisne;Molinchart 02489;E3.5333;N49.5667;13;
3;France;Picardie;Aisne;Monampteuil 02490;E3.5667;N49.4833;13;
3;France;Picardie;Aisne;Monceau-le-Neuf-et-Faucouzy 02491;E3.6137;N49.7709;13;
3;France;Picardie;Aisne;Monceau-le-Waast 02493;E3.7000;N49.6167;13;
3;France;Picardie;Aisne;Monceau-lès-Leups 02492;E3.4833;N49.6667;13;
3;France;Picardie;Aisne;Monceau-sur-Oise 02494;E3.7000;N49.9000;13;
3;France;Picardie;Aisne;Mondrepuis 02495;E4.0667;N49.9667;13;
3;France;Picardie;Aisne;Monnes 02496;E3.2167;N49.1500;13;
3;France;Picardie;Aisne;Mons-en-Laonnois 02497;E3.5548;N49.5391;13;
3;France;Picardie;Aisne;Mont-d'Origny 02503;E3.4833;N49.8333;13;
3;France;Picardie;Aisne;Mont-Notre-Dame 02520;E3.5833;N49.3000;13;
3;France;Picardie;Aisne;Mont-Saint-Jean 02522;E4.2000;N49.7833;13;
3;France;Picardie;Aisne;Mont-Saint-Martin 02523;E3.6333;N49.2833;13;
3;France;Picardie;Aisne;Mont-Saint-Père 02524;E3.4833;N49.0667;13;
3;France;Picardie;Aisne;Montaigu 02498;E3.8333;N49.5333;13;
3;France;Picardie;Aisne;Montbavin 02499;E3.5167;N49.5333;13;
3;France;Picardie;Aisne;Montbrehain 02500;E3.3500;N49.9667;13;
3;France;Picardie;Aisne;Montchâlons 02501;E3.7333;N49.5167;13;
3;France;Picardie;Aisne;Montcornet 02502;E4.0175;N49.6944;13;
3;France;Picardie;Aisne;Montescourt-Lizerolles 02504;E3.2600;N49.7360;13;
3;France;Picardie;Aisne;Montfaucon 02505;E3.4500;N48.9500;13;
3;France;Picardie;Aisne;Montgobert 02506;E3.1500;N49.3000;13;
3;France;Picardie;Aisne;Montgru-Saint-Hilaire 02507;E3.3333;N49.1833;13;
3;France;Picardie;Aisne;Monthenault 02508;E3.6667;N49.4833;13;
3;France;Picardie;Aisne;Monthiers 02509;E3.3000;N49.1000;13;
3;France;Picardie;Aisne;Monthurel 02510;E3.5500;N49.0167;13;
3;France;Picardie;Aisne;Montigny-en-Arrouaise 02511;E3.4833;N49.9000;13;
3;France;Picardie;Aisne;Montigny-l'Allier 02512;E3.1000;N49.1167;13;
3;France;Picardie;Aisne;Montigny-le-Franc 02513;E3.9167;N49.6833;13;
3;France;Picardie;Aisne;Montigny-Lengrain 02514;E3.1000;N49.3667;13;
3;France;Picardie;Aisne;Montigny-lès-Condé 02515;E3.5667;N48.9833;13;
3;France;Picardie;Aisne;Montigny-sous-Marle 02516;E3.8000;N49.7500;13;
3;France;Picardie;Aisne;Montigny-sur-Crécy 02517;E3.5833;N49.7167;13;
3;France;Picardie;Aisne;Montlevon 02518;E3.5333;N48.9667;13;
3;France;Picardie;Aisne;Montloué 02519;E4.0667;N49.6667;13;
3;France;Picardie;Aisne;Montreuil-aux-Lions 02521;E3.2000;N49.0167;13;
3;France;Picardie;Aisne;Morcourt 02525;E3.3167;N49.8667;13;
3;France;Picardie;Aisne;Morgny-en-Thiérache 02526;E4.0667;N49.7667;13;
3;France;Picardie;Aisne;Morsain 02527;E3.1833;N49.4500;13;
3;France;Picardie;Aisne;Mortefontaine 02528;E3.0750;N49.3319;13;
3;France;Picardie;Aisne;Mortiers 02529;E3.6667;N49.6833;13;
3;France;Picardie;Aisne;Moulins 02530;E3.6833;N49.4167;13;
3;France;Picardie;Aisne;Moussy-Verneuil 02531;E3.6333;N49.4167;13;
3;France;Picardie;Aisne;Moÿ-de-l'Aisne 02532;E3.3667;N49.7500;13;
3;France;Picardie;Aisne;Muret-et-Crouttes 02533;E3.4167;N49.2833;13;
3;France;Picardie;Aisne;Muscourt 02534;E3.7500;N49.3667;13;
3;France;Picardie;Aisne;Nampcelles-la-Cour 02535;E4.0000;N49.7833;13;
3;France;Picardie;Aisne;Nampteuil-sous-Muret 02536;E3.4167;N49.3000;13;
3;France;Picardie;Aisne;Nanteuil-la-Fosse 02537;E3.4500;N49.4333;13;
3;France;Picardie;Aisne;Nanteuil-Notre-Dame 02538;E3.4000;N49.2000;13;
3;France;Picardie;Aisne;Nauroy 02539;E3.2500;N49.9500;13;
3;France;Picardie;Aisne;Nesles-la-Montagne 02540;E3.4167;N49.0167;13;
3;France;Picardie;Aisne;Neufchâtel-sur-Aisne 02541;E4.0333;N49.4333;13;
3;France;Picardie;Aisne;Neuflieux 02542;E3.1667;N49.6000;13;
3;France;Picardie;Aisne;Neuilly-Saint-Front 02543;E3.2667;N49.1667;13;
3;France;Picardie;Aisne;Neuve-Maison 02544;E4.0333;N49.9333;13;
3;France;Picardie;Aisne;Neuville-Saint-Amand 02549;E3.3333;N49.8167;13;
3;France;Picardie;Aisne;Neuville-sur-Ailette 02550;E3.7000;N49.4667;13;
3;France;Picardie;Aisne;Neuville-sur-Margival 02551;E3.4000;N49.4500;13;
3;France;Picardie;Aisne;Neuvillette 02552;E3.4667;N49.8500;13;
3;France;Picardie;Aisne;Nizy-le-Comte 02553;E4.0500;N49.5667;13;
3;France;Picardie;Aisne;Nogent-l'Artaud 02555;E3.3167;N48.9667;13;
3;France;Picardie;Aisne;Nogentel 02554;E3.4000;N49.0167;13;
3;France;Picardie;Aisne;Noircourt 02556;E4.1000;N49.6667;13;
3;France;Picardie;Aisne;Noroy-sur-Ourcq 02557;E3.2167;N49.2000;13;
3;France;Picardie;Aisne;Nouvion-et-Catillon 02559;E3.4833;N49.7000;13;
3;France;Picardie;Aisne;Nouvion-le-Comte 02560;E3.4667;N49.6833;13;
3;France;Picardie;Aisne;Nouvion-le-Vineux 02561;E3.6167;N49.5000;13;
3;France;Picardie;Aisne;Nouvron-Vingré 02562;E3.2000;N49.4333;13;
3;France;Picardie;Aisne;Noyales 02563;E3.5500;N49.9000;13;
3;France;Picardie;Aisne;Noyant-et-Aconin 02564;E3.3333;N49.3333;13;
3;France;Picardie;Aisne;Ognes 02566;E3.1937;N49.6127;13;
3;France;Picardie;Aisne;Ohis 02567;E4.0167;N49.9333;13;
3;France;Picardie;Aisne;Oigny-en-Valois 02568;E3.1333;N49.2167;13;
3;France;Picardie;Aisne;Oisy 02569;E3.6667;N50.0167;13;
3;France;Picardie;Aisne;Ollezy 02570;E3.1333;N49.7167;13;
3;France;Picardie;Aisne;Omissy 02571;E3.3167;N49.8833;13;
3;France;Picardie;Aisne;Orainville 02572;E4.0167;N49.3833;13;
3;France;Picardie;Aisne;Orgeval 02573;E3.7000;N49.5167;13;
3;France;Picardie;Aisne;Origny-en-Thiérache 02574;E4.0167;N49.9000;13;
3;France;Picardie;Aisne;Origny-Sainte-Benoite 02575;E3.5000;N49.8333;13;
3;France;Picardie;Aisne;Osly-Courtil 02576;E3.2167;N49.4000;13;
3;France;Picardie;Aisne;Ostel 02577;E3.5667;N49.4333;13;
3;France;Picardie;Aisne;Oeuilly 02565;E3.6833;N49.3833;13;
3;France;Picardie;Aisne;Oulches-la-Vallée-Foulon 02578;E3.7500;N49.4333;13;
3;France;Picardie;Aisne;Oulchy-la-Ville 02579;E3.3500;N49.2167;13;
3;France;Picardie;Aisne;Oulchy-le-Château 02580;E3.3500;N49.2000;13;
3;France;Picardie;Aisne;Paars 02581;E3.6000;N49.3333;13;
3;France;Picardie;Aisne;Paissy 02582;E3.7000;N49.4167;13;
3;France;Picardie;Aisne;Pancy-Courtecon 02583;E3.6500;N49.4667;13;
3;France;Picardie;Aisne;Papleux 02584;E3.8833;N50.0167;13;
3;France;Picardie;Aisne;Parcy-et-Tigny 02585;E3.3208;N49.2709;13;
3;France;Picardie;Aisne;Parfondeval 02586;E4.1667;N49.7333;13;
3;France;Picardie;Aisne;Parfondru 02587;E3.7167;N49.5333;13;
3;France;Picardie;Aisne;Pargnan 02588;E3.7000;N49.4000;13;
3;France;Picardie;Aisne;Pargny-Filain 02589;E3.5333;N49.4667;13;
3;France;Picardie;Aisne;Pargny-la-Dhuys 02590;E3.5500;N48.9500;13;
3;France;Picardie;Aisne;Pargny-les-Bois 02591;E3.6167;N49.7167;13;
3;France;Picardie;Aisne;Parpeville 02592;E3.5500;N49.7667;13;
3;France;Picardie;Aisne;Pasly 02593;E3.3000;N49.4000;13;
3;France;Picardie;Aisne;Passy-en-Valois 02594;E3.2000;N49.1667;13;
3;France;Picardie;Aisne;Passy-sur-Marne 02595;E3.5667;N49.0667;13;
3;France;Picardie;Aisne;Pavant 02596;E3.2833;N48.9500;13;
3;France;Picardie;Aisne;Perles 02597;E3.6500;N49.3167;13;
3;France;Picardie;Aisne;Pernant 02598;E3.2333;N49.3833;13;
3;France;Picardie;Aisne;Petit-Verly 02784;E3.5500;N49.9667;13;
3;France;Picardie;Aisne;Pierremande 02599;E3.2500;N49.5667;13;
3;France;Picardie;Aisne;Pierrepont 02600;E3.7833;N49.6500;13;
3;France;Picardie;Aisne;Pignicourt 02601;E4.0333;N49.4167;13;
3;France;Picardie;Aisne;Pinon 02602;E3.4500;N49.4833;13;
3;France;Picardie;Aisne;Pisseleux 02603=02810;E3.0833;N49.2333;13;
3;France;Picardie;Aisne;Pithon 02604;E3.1000;N49.7500;13;
3;France;Picardie;Aisne;Pleine-Selve 02605;E3.5167;N49.7833;13;
3;France;Picardie;Aisne;Ploisy 02607;E3.3000;N49.3333;13;
3;France;Picardie;Aisne;Plomion 02608;E4.0167;N49.8000;13;
3;France;Picardie;Aisne;Ployart-et-Vaurseine 02609;E3.7436;N49.4880;13;
3;France;Picardie;Aisne;Pommiers 02610;E3.2667;N49.4000;13;
3;France;Picardie;Aisne;Pont-à-Bucy 02611=02559;E3.4833;N49.6833;13;
3;France;Picardie;Aisne;Pont-Arcy 02612;E3.6167;N49.3833;13;
3;France;Picardie;Aisne;Pont-Saint-Mard 02616;E3.2833;N49.5000;13;
3;France;Picardie;Aisne;Pontavert 02613;E3.8167;N49.4167;13;
3;France;Picardie;Aisne;Pontru 02614;E3.2167;N49.9000;13;
3;France;Picardie;Aisne;Pontruet 02615;E3.2333;N49.9000;13;
3;France;Picardie;Aisne;Pouilly-sur-Serre 02617;E3.5833;N49.6833;13;
3;France;Picardie;Aisne;Prémont 02618;E3.3833;N50.0000;13;
3;France;Picardie;Aisne;Prémontré 02619;E3.4000;N49.5500;13;
3;France;Picardie;Aisne;Presles-et-Boves 02620;E3.5500;N49.4000;13;
3;France;Picardie;Aisne;Presles-et-Thierny 02621;E3.6167;N49.5167;13;
3;France;Picardie;Aisne;Priez 02622;E3.2667;N49.1333;13;
3;France;Picardie;Aisne;Prisces 02623;E3.8667;N49.7833;13;
3;France;Picardie;Aisne;Proisy 02624;E3.7333;N49.9000;13;
3;France;Picardie;Aisne;Proix 02625;E3.5667;N49.9000;13;
3;France;Picardie;Aisne;Prouvais 02626;E3.9833;N49.4667;13;
3;France;Picardie;Aisne;Proviseux-et-Plesnoy 02627;E4.0000;N49.4667;13;
3;France;Picardie;Aisne;Puiseux-en-Retz 02628;E3.1333;N49.3000;13;
3;France;Picardie;Aisne;Puisieux-et-Clanlieu 02629;E3.6667;N49.8500;13;
3;France;Picardie;Aisne;Quessy 02630=02738;E3.3000;N49.6667;13;
3;France;Picardie;Aisne;Quierzy 02631;E3.1333;N49.5667;13;
3;France;Picardie;Aisne;Quincy-Basse 02632;E3.3833;N49.5167;13;
3;France;Picardie;Aisne;Quincy-sous-le-Mont 02633;E3.5500;N49.3000;13;
3;France;Picardie;Aisne;Raillimont 02634;E4.1500;N49.7083;13;
3;France;Picardie;Aisne;Ramicourt 02635;E3.3333;N49.9500;13;
3;France;Picardie;Aisne;Regny 02636;E3.4167;N49.8167;13;
3;France;Picardie;Aisne;Remaucourt 02637;E3.3333;N49.9000;13;
3;France;Picardie;Aisne;Remies 02638;E3.5333;N49.6833;13;
3;France;Picardie;Aisne;Remigny 02639;E3.2833;N49.7167;13;
3;France;Picardie;Aisne;Renansart 02640;E3.4500;N49.7167;13;
3;France;Picardie;Aisne;Renneval 02641;E4.0500;N49.7333;13;
3;France;Picardie;Aisne;Résigny 02642;E4.2000;N49.7333;13;
3;France;Picardie;Aisne;Ressons-le-Long 02643;E3.1500;N49.3833;13;
3;France;Picardie;Aisne;Retheuil 02644;E3.0167;N49.3167;13;
3;France;Picardie;Aisne;Reuilly-Sauvigny 02645;E3.5500;N49.0667;13;
3;France;Picardie;Aisne;Révillon 02646;E3.7000;N49.3667;13;
3;France;Picardie;Aisne;Ribeauville 02647;E3.5833;N50.0500;13;
3;France;Picardie;Aisne;Ribemont 02648;E3.4667;N49.8000;13;
3;France;Picardie;Aisne;Rocourt-Saint-Martin 02649;E3.3833;N49.1500;13;
3;France;Picardie;Aisne;Rocquigny 02650;E3.9833;N50.0333;13;
3;France;Picardie;Aisne;Rogécourt 02651;E3.4167;N49.6333;13;
3;France;Picardie;Aisne;Rogny 02652;E3.8167;N49.7667;13;
3;France;Picardie;Aisne;Romeny-sur-Marne 02653;E3.3333;N48.9833;13;
3;France;Picardie;Aisne;Romery 02654;E3.7333;N49.9000;13;
3;France;Picardie;Aisne;Ronchères 02655;E3.6000;N49.1500;13;
3;France;Picardie;Aisne;Roucy 02656;E3.8167;N49.3667;13;
3;France;Picardie;Aisne;Rougeries 02657;E3.8000;N49.8000;13;
3;France;Picardie;Aisne;Roupy 02658;E3.1833;N49.8167;13;
3;France;Picardie;Aisne;Rouvroy 02659;E3.3167;N49.8500;13;
3;France;Picardie;Aisne;Rouvroy-sur-Serre 02660;E4.1667;N49.7167;13;
3;France;Picardie;Aisne;Royaucourt-et-Chailvet 02661;E3.5333;N49.5167;13;
3;France;Picardie;Aisne;Rozet-Saint-Albin 02662;E3.3000;N49.2000;13;
3;France;Picardie;Aisne;Rozières-sur-Crise 02663;E3.3500;N49.3333;13;
3;France;Picardie;Aisne;Rozoy-Bellevalle 02664;E3.4500;N48.9167;13;
3;France;Picardie;Aisne;Rozoy-sur-Serre 02666;E4.1333;N49.7167;13;
3;France;Picardie;Aisne;Saconin-et-Breuil 02667;E3.2500;N49.3667;13;
3;France;Picardie;Aisne;Sains-Richaumont 02668;E3.7000;N49.8167;13;
3;France;Picardie;Aisne;Saint-Agnan 02669;E3.6000;N49.0167;13;
3;France;Picardie;Aisne;Saint-Algis 02670;E3.8167;N49.8833;13;
3;France;Picardie;Aisne;Saint-Aubin 02671;E3.1833;N49.5167;13;
3;France;Picardie;Aisne;Saint-Bandry 02672;E3.1667;N49.3667;13;
3;France;Picardie;Aisne;Saint-Christophe-à-Berry 02673;E3.1333;N49.4167;13;
3;France;Picardie;Aisne;Saint-Clément 02674;E4.0667;N49.7667;13;
3;France;Picardie;Aisne;Saint-Erme-Outre-et-Ramecourt 02676;E3.8500;N49.5167;13;
3;France;Picardie;Aisne;Saint-Eugène 02677;E3.5333;N49.0167;13;
3;France;Picardie;Aisne;Saint-Gengoulph 02679;E3.2167;N49.1167;13;
3;France;Picardie;Aisne;Saint-Gobain 02680;E3.3833;N49.6000;13;
3;France;Picardie;Aisne;Saint-Gobert 02681;E3.8167;N49.8000;13;
3;France;Picardie;Aisne;Saint-Mard 02682;E3.5826;N49.3863;13;
3;France;Picardie;Aisne;Saint-Martin-Rivière 02683;E3.5333;N50.0500;13;
3;France;Picardie;Aisne;Saint-Michel 02684;E4.1333;N49.9167;13;
3;France;Picardie;Aisne;Saint-Nicolas-aux-Bois 02685;E3.4167;N49.6000;13;
3;France;Picardie;Aisne;Saint-Paul-aux-Bois 02686;E3.2000;N49.5333;13;
3;France;Picardie;Aisne;Saint-Pierre-Aigle 02687;E3.1833;N49.3167;13;
3;France;Picardie;Aisne;Saint-Pierre-lès-Franqueville 02688;E3.8138;N49.8198;13;
3;France;Picardie;Aisne;Saint-Pierremont 02689;E3.8833;N49.7167;13;
3;France;Picardie;Aisne;Saint-Quentin 02691;E3.2833;N49.8500;13;
3;France;Picardie;Aisne;Saint-Quentin-sur-Allan 02692=02307;E3.1403;N49.1450;13;
3;France;Picardie;Aisne;Saint-Rémy-Blanzy 02693;E3.3000;N49.2333;13;
3;France;Picardie;Aisne;Saint-Simon 02694;E3.1667;N49.7500;13;
3;France;Picardie;Aisne;Saint-Thibaut 02695;E3.6167;N49.3000;13;
3;France;Picardie;Aisne;Saint-Thomas 02696;E3.8167;N49.5000;13;
3;France;Picardie;Aisne;Sainte-Croix 02675;E3.7833;N49.4833;13;
3;France;Picardie;Aisne;Sainte-Geneviève 02678;E4.0731;N49.7196;13;
3;France;Picardie;Aisne;Sainte-Preuve 02690;E3.9167;N49.6167;13;
3;France;Picardie;Aisne;Samoussy 02697;E3.7333;N49.5833;13;
3;France;Picardie;Aisne;Sancy-les-Cheminots 02698;E3.4667;N49.4333;13;
3;France;Picardie;Aisne;Saponay 02699;E3.4833;N49.2167;13;
3;France;Picardie;Aisne;Saulchery 02701;E3.3000;N48.9833;13;
3;France;Picardie;Aisne;Savy 02702;E3.1833;N49.8000;13;
3;France;Picardie;Aisne;Seboncourt 02703;E3.4833;N49.9500;13;
3;France;Picardie;Aisne;Selens 02704;E3.2000;N49.5000;13;
3;France;Picardie;Aisne;Septmonts 02706;E3.3500;N49.3333;13;
3;France;Picardie;Aisne;Septvaux 02707;E3.3833;N49.5667;13;
3;France;Picardie;Aisne;Sequehart 02708;E3.3333;N49.9167;13;
3;France;Picardie;Aisne;Serain 02709;E3.3667;N50.0167;13;
3;France;Picardie;Aisne;Seraucourt-le-Grand 02710;E3.2167;N49.7833;13;
3;France;Picardie;Aisne;Serches 02711;E3.4500;N49.3500;13;
3;France;Picardie;Aisne;Sergy 02712;E3.5667;N49.1833;13;
3;France;Picardie;Aisne;Seringes-et-Nesles 02713;E3.5333;N49.2000;13;
3;France;Picardie;Aisne;Sermoise 02714;E3.4500;N49.3667;13;
3;France;Picardie;Aisne;Servais 02716;E3.3500;N49.6167;13;
3;France;Picardie;Aisne;Serval 02715;E3.6833;N49.3500;13;
3;France;Picardie;Aisne;Séry-lès-Mézières 02717;E3.4167;N49.7667;13;
3;France;Picardie;Aisne;Silly-la-Poterie 02718;E3.1500;N49.2000;13;
3;France;Picardie;Aisne;Sinceny 02719;E3.2500;N49.6000;13;
3;France;Picardie;Aisne;Sissonne 02720;E3.9000;N49.5667;13;
3;France;Picardie;Aisne;Sissy 02721;E3.4333;N49.8000;13;
3;France;Picardie;Aisne;Soissons 02722;E3.3333;N49.3667;13;
3;France;Picardie;Aisne;Soize 02723;E4.0833;N49.7000;13;
3;France;Picardie;Aisne;Sommelans 02724;E3.3000;N49.1333;13;
3;France;Picardie;Aisne;Sommeron 02725;E3.9500;N49.9500;13;
3;France;Picardie;Aisne;Sommette-Eaucourt 02726;E3.1167;N49.7333;13;
3;France;Picardie;Aisne;Sons-et-Ronchères 02727;E3.6667;N49.7500;13;
3;France;Picardie;Aisne;Sorbais 02728;E3.9000;N49.9167;13;
3;France;Picardie;Aisne;Soucy 02729;E3.1333;N49.3167;13;
3;France;Picardie;Aisne;Soupir 02730;E3.6000;N49.4167;13;
3;France;Picardie;Aisne;Surfontaine 02732;E3.4500;N49.7333;13;
3;France;Picardie;Aisne;Suzy 02733;E3.4667;N49.5500;13;
3;France;Picardie;Aisne;Taillefontaine 02734;E3.0333;N49.3167;13;
3;France;Picardie;Aisne;Tannières 02735;E3.5500;N49.2833;13;
3;France;Picardie;Aisne;Tartiers 02736;E3.2333;N49.4333;13;
3;France;Picardie;Aisne;Tavaux-et-Pontséricourt 02737;E3.9167;N49.7333;13;
3;France;Picardie;Aisne;Tergnier 02738;E3.3000;N49.6500;13;
3;France;Picardie;Aisne;Terny-Sorny 02739;E3.3667;N49.4500;13;
3;France;Picardie;Aisne;Thenailles 02740;E3.9500;N49.8167;13;
3;France;Picardie;Aisne;Thenelles 02741;E3.4667;N49.8167;13;
3;France;Picardie;Aisne;Thiernu 02742;E3.8000;N49.7500;13;
3;France;Picardie;Aisne;Torcy-en-Valois 02744;E3.2667;N49.0833;13;
3;France;Picardie;Aisne;Toulis-et-Attencourt 02745;E3.7333;N49.6833;13;
3;France;Picardie;Aisne;Travecy 02746;E3.3500;N49.6833;13;
3;France;Picardie;Aisne;Trefcon 02747;E3.1000;N49.8667;13;
3;France;Picardie;Aisne;Trélou-sur-Marne 02748;E3.6108;N49.0764;13;
3;France;Picardie;Aisne;Troësnes 02749;E3.1697;N49.1930;13;
3;France;Picardie;Aisne;Trosly-Loire 02750;E3.2333;N49.5167;13;
3;France;Picardie;Aisne;Trucy 02751;E3.6167;N49.4667;13;
3;France;Picardie;Aisne;Tugny-et-Pont 02752;E3.1500;N49.7500;13;
3;France;Picardie;Aisne;Tupigny 02753;E3.6000;N49.9500;13;
3;France;Picardie;Aisne;Ugny-le-Gay 02754;E3.1667;N49.6667;13;
3;France;Picardie;Aisne;Urcel 02755;E3.5500;N49.5000;13;
3;France;Picardie;Aisne;Urvillers 02756;E3.3167;N49.7833;13;
3;France;Picardie;Aisne;Vadencourt 02757;E3.5833;N49.9333;13;
3;France;Picardie;Aisne;Vailly-sur-Aisne 02758;E3.5167;N49.4167;13;
3;France;Picardie;Aisne;Variscourt 02761;E3.9833;N49.4167;13;
3;France;Picardie;Aisne;Vassens 02762;E3.1500;N49.4667;13;
3;France;Picardie;Aisne;Vasseny 02763;E3.4833;N49.3500;13;
3;France;Picardie;Aisne;Vassogne 02764;E3.7333;N49.4167;13;
3;France;Picardie;Aisne;Vaucelles-et-Beffecourt 02765;E3.5500;N49.5333;13;
3;France;Picardie;Aisne;Vaudesson 02766;E3.4833;N49.4667;13;
3;France;Picardie;Aisne;Vaux-Andigny 02769;E3.5167;N50.0167;13;
3;France;Picardie;Aisne;Vaux-en-Vermandois 02772;E3.1500;N49.8167;13;
3;France;Picardie;Aisne;Vauxaillon 02768;E3.4000;N49.4833;13;
3;France;Picardie;Aisne;Vauxbuin 02770;E3.3000;N49.3667;13;
3;France;Picardie;Aisne;Vauxcéré 02771;E3.6333;N49.3500;13;
3;France;Picardie;Aisne;Vauxrezis 02767;E3.2796;N49.4141;13;
3;France;Picardie;Aisne;Vauxtin 02773;E3.6000;N49.3500;13;
3;France;Picardie;Aisne;Vendelles 02774;E3.1333;N49.9167;13;
3;France;Picardie;Aisne;Vendeuil 02775;E3.3500;N49.7167;13;
3;France;Picardie;Aisne;Vendhuile 02776;E3.2167;N50.0167;13;
3;France;Picardie;Aisne;Vendières 02777;E3.4500;N48.8667;13;
3;France;Picardie;Aisne;Vendresse-Beaulne 02778;E3.6667;N49.4333;13;
3;France;Picardie;Aisne;Vénérolles 02779;E3.6333;N49.9667;13;
3;France;Picardie;Aisne;Venizel 02780;E3.3833;N49.3667;13;
3;France;Picardie;Aisne;Verdilly 02781;E3.4167;N49.0667;13;
3;France;Picardie;Aisne;Vermand 02785;E3.1500;N49.8667;13;
3;France;Picardie;Aisne;Verneuil-sous-Coucy 02786;E3.3167;N49.5333;13;
3;France;Picardie;Aisne;Verneuil-sur-Serre 02787;E3.6667;N49.6500;13;
3;France;Picardie;Aisne;Versigny 02788;E3.4333;N49.6500;13;
3;France;Picardie;Aisne;Vervins 02789;E3.9000;N49.8333;13;
3;France;Picardie;Aisne;Vesles-et-Caumont 02790;E3.7833;N49.6667;13;
3;France;Picardie;Aisne;Veslud 02791;E3.7333;N49.5333;13;
3;France;Picardie;Aisne;Veuilly-la-Poterie 02792;E3.2167;N49.0833;13;
3;France;Picardie;Aisne;Vézaponin 02793;E3.2333;N49.4667;13;
3;France;Picardie;Aisne;Vézilly 02794;E3.7000;N49.1833;13;
3;France;Picardie;Aisne;Vic-sur-Aisne 02795;E3.1167;N49.4000;13;
3;France;Picardie;Aisne;Vichel-Nanteuil 02796;E3.2833;N49.1833;13;
3;France;Picardie;Aisne;Viel-Arcy 02797;E3.6167;N49.3833;13;
3;France;Picardie;Aisne;Viels-Maisons 02798;E3.4000;N48.9000;13;
3;France;Picardie;Aisne;Vierzy 02799;E3.2833;N49.2833;13;
3;France;Picardie;Aisne;Viffort 02800;E3.4500;N48.9667;13;
3;France;Picardie;Aisne;Vigneux-Hocquet 02801;E3.9833;N49.7333;13;
3;France;Picardie;Aisne;Ville-Savoye 02817;E3.6333;N49.3000;13;
3;France;Picardie;Aisne;Villemontoire 02804;E3.3333;N49.3000;13;
3;France;Picardie;Aisne;Villeneuve-Saint-Germain 02805;E3.3500;N49.3833;13;
3;France;Picardie;Aisne;Villeneuve-sur-Fère 02806;E3.4667;N49.1833;13;
3;France;Picardie;Aisne;Villequier-Aumont 02807;E3.2000;N49.6500;13;
3;France;Picardie;Aisne;Villeret 02808;E3.1833;N49.9500;13;
3;France;Picardie;Aisne;Villers-Agron-Aiguizy 02809;E3.7000;N49.1500;13;
3;France;Picardie;Aisne;Villers-Cotterêts 02810;E3.0833;N49.2500;13;
3;France;Picardie;Aisne;Villers-en-Prayères 02811;E3.6667;N49.3833;13;
3;France;Picardie;Aisne;Villers-Hélon 02812;E3.2667;N49.2667;13;
3;France;Picardie;Aisne;Villers-le-Sec 02813;E3.5000;N49.7833;13;
3;France;Picardie;Aisne;Villers-lès-Guise 02814;E3.6833;N49.9000;13;
3;France;Picardie;Aisne;Villers-Saint-Christophe 02815;E3.1000;N49.7833;13;
3;France;Picardie;Aisne;Villers-sur-Fère 02816;E3.5333;N49.1833;13;
3;France;Picardie;Aisne;Villiers-Saint-Denis 02818;E3.2674;N48.9925;13;
3;France;Picardie;Aisne;Vincy-Reuil-et-Magny 02819;E4.0500;N49.7167;13;
3;France;Picardie;Aisne;Viry-Noureuil 02820;E3.2500;N49.6333;13;
3;France;Picardie;Aisne;Vivaise 02821;E3.5667;N49.6167;13;
3;France;Picardie;Aisne;Vivières 02822;E3.1000;N49.3000;13;
3;France;Picardie;Aisne;Voharies 02823;E3.8000;N49.7833;13;
3;France;Picardie;Aisne;Vorges 02824;E3.6500;N49.5167;13;
3;France;Picardie;Aisne;Vouël 02825=02738;E3.2833;N49.6500;13;
3;France;Picardie;Aisne;Voulpaix 02826;E3.8333;N49.8333;13;
3;France;Picardie;Aisne;Voyenne 02827;E3.7167;N49.7167;13;
3;France;Picardie;Aisne;Vregny 02828;E3.4167;N49.4167;13;
3;France;Picardie;Aisne;Vuillery 02829;E3.3833;N49.4333;13;
3;France;Picardie;Aisne;Wassigny 02830;E3.6000;N50.0167;13;
3;France;Picardie;Aisne;Watigny 02831;E4.2000;N49.9000;13;
3;France;Picardie;Aisne;Wiège-Faty 02832;E3.7333;N49.8833;13;
3;France;Picardie;Aisne;Wimy 02833;E4.0000;N49.9333;13;
3;France;Picardie;Aisne;Wissignicourt 02834;E3.4333;N49.5333;13;
2;France;Picardie;Oise;;E2.32;N49.41;9;
3;France;Picardie;Oise;Abancourt 60001;E1.7667;N49.7000;13;
3;France;Picardie;Oise;Abbecourt 60002;E2.1500;N49.3667;13;
3;France;Picardie;Oise;Abbeville-Saint-Lucien 60003;E2.1667;N49.5167;13;
3;France;Picardie;Oise;Achy 60004;E1.9500;N49.5667;13;
3;France;Picardie;Oise;Acy-en-Multien 60005;E2.9667;N49.1000;13;
3;France;Picardie;Oise;Agnetz 60007;E2.3833;N49.3833;13;
3;France;Picardie;Oise;Airion 60008;E2.4167;N49.4333;13;
3;France;Picardie;Oise;Allonne 60009;E2.1167;N49.4000;13;
3;France;Picardie;Oise;Amblainville 60010;E2.1167;N49.2000;13;
3;France;Picardie;Oise;Amy 60011;E2.8333;N49.6500;13;
3;France;Picardie;Oise;Andeville 60012;E2.1667;N49.2500;13;
3;France;Picardie;Oise;Angicourt 60013;E2.5000;N49.3167;13;
3;France;Picardie;Oise;Angivillers 60014;E2.5000;N49.5000;13;
3;France;Picardie;Oise;Angy 60015;E2.3333;N49.3500;13;
3;France;Picardie;Oise;Ansacq 60016;E2.3667;N49.3500;13;
3;France;Picardie;Oise;Ansauvillers 60017;E2.4000;N49.5667;13;
3;France;Picardie;Oise;Anserville 60018;E2.2167;N49.2333;13;
3;France;Picardie;Oise;Antheuil-Portes 60019;E2.7500;N49.5000;13;
3;France;Picardie;Oise;Antilly 60020;E2.9833;N49.1500;13;
3;France;Picardie;Oise;Appilly 60021;E3.1167;N49.5833;13;
3;France;Picardie;Oise;Apremont 60022;E2.5167;N49.2333;13;
3;France;Picardie;Oise;Armancourt 60023;E2.7667;N49.3833;13;
3;France;Picardie;Oise;Arsy 60024;E2.6833;N49.4000;13;
3;France;Picardie;Oise;Attichy 60025;E3.0500;N49.4167;13;
3;France;Picardie;Oise;Auchy-la-Montagne 60026;E2.1167;N49.5833;13;
3;France;Picardie;Oise;Auger-Saint-Vincent 60027;E2.8000;N49.2167;13;
3;France;Picardie;Oise;Aumont-en-Halatte 60028;E2.5540;N49.2314;13;
3;France;Picardie;Oise;Auneuil 60029;E2.0000;N49.3667;13;
3;France;Picardie;Oise;Auteuil 60030;E2.0833;N49.3500;13;
3;France;Picardie;Oise;Autheuil-en-Valois 60031;E3.0667;N49.1667;13;
3;France;Picardie;Oise;Autrêches 60032;E3.1167;N49.4500;13;
3;France;Picardie;Oise;Aux Marais 60703;E2.0500;N49.4333;13;
3;France;Picardie;Oise;Avilly-Saint-Léonard 60033;E2.5333;N49.2000;13;
3;France;Picardie;Oise;Avrechy 60034;E2.4333;N49.4500;13;
3;France;Picardie;Oise;Avricourt 60035;E2.8667;N49.6500;13;
3;France;Picardie;Oise;Avrigny 60036;E2.5833;N49.3833;13;
3;France;Picardie;Oise;Baboeuf 60037;E3.0833;N49.5833;13;
3;France;Picardie;Oise;Bachivillers 60038;E1.9667;N49.2833;13;
3;France;Picardie;Oise;Bacouël 60039;E2.3833;N49.6167;13;
3;France;Picardie;Oise;Bailleul-le-Soc 60040;E2.5833;N49.4167;13;
3;France;Picardie;Oise;Bailleul-sur-Thérain 60041;E2.2333;N49.4000;13;
3;France;Picardie;Oise;Bailleval 60042;E2.4500;N49.3500;13;
3;France;Picardie;Oise;Bailly 60043;E2.9667;N49.5000;13;
3;France;Picardie;Oise;Balagny-sur-Thérain 60044;E2.3333;N49.3000;13;
3;France;Picardie;Oise;Barbery 60045;E2.6667;N49.2167;13;
3;France;Picardie;Oise;Bargny 60046;E2.9667;N49.1833;13;
3;France;Picardie;Oise;Baron 60047;E2.7333;N49.1667;13;
3;France;Picardie;Oise;Baugy 60048;E2.7500;N49.4667;13;
3;France;Picardie;Oise;Bazancourt 60049;E1.7333;N49.5500;13;
3;France;Picardie;Oise;Bazicourt 60050;E2.6167;N49.3500;13;
3;France;Picardie;Oise;Beaudéduit 60051;E2.0667;N49.6833;13;
3;France;Picardie;Oise;Beaugies-sous-Bois 60052;E3.1000;N49.6333;13;
3;France;Picardie;Oise;Beaulieu-les-Fontaines 60053;E2.9167;N49.6500;13;
3;France;Picardie;Oise;Beaumont-les-Nonains 60054;E2.0000;N49.3333;13;
3;France;Picardie;Oise;Beaurains-lès-Noyon 60055;E2.9667;N49.6167;13;
3;France;Picardie;Oise;Beaurepaire 60056;E2.5833;N49.3000;13;
3;France;Picardie;Oise;Beauvais 60057;E2.0833;N49.4333;13;
3;France;Picardie;Oise;Beauvoir 60058;E2.3333;N49.6000;13;
3;France;Picardie;Oise;Béhéricourt 60059;E3.0667;N49.5917;13;
3;France;Picardie;Oise;Belle-Église 60060;E2.2167;N49.2000;13;
3;France;Picardie;Oise;Belloy 60061;E2.6500;N49.5333;13;
3;France;Picardie;Oise;Berlancourt 60062;E3.0667;N49.6667;13;
3;France;Picardie;Oise;Berneuil-en-Bray 60063;E2.0667;N49.3500;13;
3;France;Picardie;Oise;Berneuil-sur-Aisne 60064;E3.0167;N49.4167;13;
3;France;Picardie;Oise;Berthecourt 60065;E2.2333;N49.3667;13;
3;France;Picardie;Oise;Béthancourt-en-Valois 60066;E2.8833;N49.2833;13;
3;France;Picardie;Oise;Béthisy-Saint-Martin 60067;E2.8167;N49.3000;13;
3;France;Picardie;Oise;Béthisy-Saint-Pierre 60068;E2.8167;N49.3000;13;
3;France;Picardie;Oise;Betz 60069;E2.9500;N49.1500;13;
3;France;Picardie;Oise;Bienville 60070;E2.8333;N49.4500;13;
3;France;Picardie;Oise;Biermont 60071;E2.7333;N49.5833;13;
3;France;Picardie;Oise;Bitry 60072;E3.0833;N49.4167;13;
3;France;Picardie;Oise;Blacourt 60073;E1.8667;N49.4667;13;
3;France;Picardie;Oise;Blaincourt-lès-Précy 60074;E2.3552;N49.2225;13;
3;France;Picardie;Oise;Blancfossé 60075;E2.2000;N49.6500;13;
3;France;Picardie;Oise;Blargies 60076;E1.7667;N49.6667;13;
3;France;Picardie;Oise;Blicourt 60077;E2.0500;N49.5500;13;
3;France;Picardie;Oise;Blincourt 60078;E2.6167;N49.3833;13;
3;France;Picardie;Oise;Boissy-Fresnoy 60079;E2.8667;N49.1667;13;
3;France;Picardie;Oise;Boissy-le-Bois 60080;E1.9500;N49.2833;13;
3;France;Picardie;Oise;Bonlier 60081;E2.1500;N49.4833;13;
3;France;Picardie;Oise;Bonneuil-en-Valois 60083;E3.0000;N49.2833;13;
3;France;Picardie;Oise;Bonneuil-les-Eaux 60082;E2.2333;N49.6833;13;
3;France;Picardie;Oise;Bonnières 60084;E1.9667;N49.5167;13;
3;France;Picardie;Oise;Bonvillers 60085;E2.3500;N49.5833;13;
3;France;Picardie;Oise;Boran-sur-Oise 60086;E2.3500;N49.1667;13;
3;France;Picardie;Oise;Borest 60087;E2.6667;N49.1833;13;
3;France;Picardie;Oise;Bornel 60088;E2.2167;N49.2000;13;
3;France;Picardie;Oise;Boubiers 60089;E1.8667;N49.2167;13;
3;France;Picardie;Oise;Bouconvillers 60090;E1.9000;N49.1833;13;
3;France;Picardie;Oise;Bouillancy 60091;E2.9333;N49.1167;13;
3;France;Picardie;Oise;Boullarre 60092;E3.0167;N49.1333;13;
3;France;Picardie;Oise;Boulogne-la-Grasse 60093;E2.7167;N49.6000;13;
3;France;Picardie;Oise;Boursonne 60094;E3.0500;N49.2000;13;
3;France;Picardie;Oise;Boury-en-Vexin 60095;E1.7500;N49.2333;13;
3;France;Picardie;Oise;Boutavent 60096;E1.7569;N49.6419;13;
3;France;Picardie;Oise;Boutencourt 60097;E1.8500;N49.3333;13;
3;France;Picardie;Oise;Bouvresse 60098;E1.7500;N49.6500;13;
3;France;Picardie;Oise;Braisnes 60099;E2.7667;N49.4833;13;
3;France;Picardie;Oise;Brasseuse 60100;E2.6833;N49.2667;13;
3;France;Picardie;Oise;Brégy 60101;E2.8667;N49.0833;13;
3;France;Picardie;Oise;Brenouille 60102;E2.5500;N49.3000;13;
3;France;Picardie;Oise;Bresles 60103;E2.2500;N49.4167;13;
3;France;Picardie;Oise;Breteuil 60104;E2.3000;N49.6333;13;
3;France;Picardie;Oise;Brétigny 60105;E3.1000;N49.5667;13;
3;France;Picardie;Oise;Breuil-le-Sec 60106;E2.4500;N49.3833;13;
3;France;Picardie;Oise;Breuil-le-Vert 60107;E2.4333;N49.3667;13;
3;France;Picardie;Oise;Briot 60108;E1.9167;N49.6500;13;
3;France;Picardie;Oise;Brombos 60109;E1.8833;N49.6500;13;
3;France;Picardie;Oise;Broquiers 60110;E1.8333;N49.6667;13;
3;France;Picardie;Oise;Broyes 60111;E2.4500;N49.6333;13;
3;France;Picardie;Oise;Brunvillers-la-Motte 60112;E2.4500;N49.5500;13;
3;France;Picardie;Oise;Bucamps 60113;E2.3167;N49.5167;13;
3;France;Picardie;Oise;Buicourt 60114;E1.8167;N49.5333;13;
3;France;Picardie;Oise;Bulles 60115;E2.3333;N49.4667;13;
3;France;Picardie;Oise;Bury 60116;E2.3500;N49.3167;13;
3;France;Picardie;Oise;Bussy 60117;E2.9833;N49.6333;13;
3;France;Picardie;Oise;Caisnes 60118;E3.0667;N49.5167;13;
3;France;Picardie;Oise;Cambronne-lès-Clermont 60120;E2.4000;N49.3333;13;
3;France;Picardie;Oise;Cambronne-lès-Ribécourt 60119;E2.9000;N49.5000;13;
3;France;Picardie;Oise;Campagne 60121;E2.9597;N49.6458;13;
3;France;Picardie;Oise;Campeaux 60122;E1.7500;N49.6167;13;
3;France;Picardie;Oise;Campremy 60123;E2.3000;N49.5667;13;
3;France;Picardie;Oise;Candor 60124;E2.8833;N49.6167;13;
3;France;Picardie;Oise;Canly 60125;E2.7000;N49.3833;13;
3;France;Picardie;Oise;Cannectancourt 60126;E2.9000;N49.5500;13;
3;France;Picardie;Oise;Canny-sur-Matz 60127;E2.8000;N49.6000;13;
3;France;Picardie;Oise;Canny-sur-Thérain 60128;E1.7167;N49.6000;13;
3;France;Picardie;Oise;Carlepont 60129;E3.0167;N49.5167;13;
3;France;Picardie;Oise;Catenoy 60130;E2.5000;N49.3833;13;
3;France;Picardie;Oise;Catheux 60131;E2.1167;N49.6500;13;
3;France;Picardie;Oise;Catigny 60132;E2.9377;N49.6389;13;
3;France;Picardie;Oise;Catillon-Fumechon 60133;E2.3701;N49.5172;13;
3;France;Picardie;Oise;Cauffry 60134;E2.4500;N49.3167;13;
3;France;Picardie;Oise;Cauvigny 60135;E2.2500;N49.3000;13;
3;France;Picardie;Oise;Cempuis 60136;E1.9833;N49.6500;13;
3;France;Picardie;Oise;Cernoy 60137;E2.5500;N49.4333;13;
3;France;Picardie;Oise;Chamant 60138;E2.6167;N49.2167;13;
3;France;Picardie;Oise;Chambly 60139;E2.2500;N49.1667;13;
3;France;Picardie;Oise;Chambors 60140;E1.8167;N49.2667;13;
3;France;Picardie;Oise;Chantilly 60141;E2.4667;N49.2000;13;
3;France;Picardie;Oise;Chaumont-en-Vexin 60143;E1.8833;N49.2667;13;
3;France;Picardie;Oise;Chavençon 60144;E2.0000;N49.1833;13;
3;France;Picardie;Oise;Chelles 60145;E3.0333;N49.3500;13;
3;France;Picardie;Oise;Chepoix 60146;E2.3833;N49.6000;13;
3;France;Picardie;Oise;Chevincourt 60147;E2.8500;N49.5000;13;
3;France;Picardie;Oise;Chèvreville 60148;E2.8500;N49.1167;13;
3;France;Picardie;Oise;Chevrières 60149;E2.6833;N49.3500;13;
3;France;Picardie;Oise;Chiry-Ourscamp 60150;E2.9482;N49.5453;13;
3;France;Picardie;Oise;Choisy-au-Bac 60151;E2.8833;N49.4333;13;
3;France;Picardie;Oise;Choisy-la-Victoire 60152;E2.5833;N49.3833;13;
3;France;Picardie;Oise;Choqueuse-les-Bénards 60153;E2.0833;N49.6667;13;
3;France;Picardie;Oise;Cinqueux 60154;E2.5167;N49.3167;13;
3;France;Picardie;Oise;Cires-lès-Mello 60155;E2.3667;N49.2667;13;
3;France;Picardie;Oise;Clairoix 60156;E2.8333;N49.4500;13;
3;France;Picardie;Oise;Clermont 60157;E2.4000;N49.3833;13;
3;France;Picardie;Oise;Coivrel 60158;E2.5500;N49.5500;13;
3;France;Picardie;Oise;Compiègne 60159;E2.8333;N49.4167;13;
3;France;Picardie;Oise;Conchy-les-Pots 60160;E2.7333;N49.6000;13;
3;France;Picardie;Oise;Conteville 60161;E2.0474;N49.6505;13;
3;France;Picardie;Oise;Corbeil-Cerf 60162;E2.1000;N49.2833;13;
3;France;Picardie;Oise;Cormeilles 60163;E2.2000;N49.6500;13;
3;France;Picardie;Oise;Coudun 60166;E2.8167;N49.4667;13;
3;France;Picardie;Oise;Couloisy 60167;E3.0333;N49.4000;13;
3;France;Picardie;Oise;Courcelles-Epayelles 60168;E2.6167;N49.5667;13;
3;France;Picardie;Oise;Courcelles-lès-Gisors 60169;E1.7407;N49.2587;13;
3;France;Picardie;Oise;Courteuil 60170;E2.5333;N49.2000;13;
3;France;Picardie;Oise;Courtieux 60171;E3.0894;N49.3868;13;
3;France;Picardie;Oise;Coye-la-Forêt 60172;E2.4667;N49.1500;13;
3;France;Picardie;Oise;Cramoisy 60173;E2.4000;N49.2500;13;
3;France;Picardie;Oise;Crapeaumesnil 60174;E2.8000;N49.6333;13;
3;France;Picardie;Oise;Creil 60175;E2.4833;N49.2667;13;
3;France;Picardie;Oise;Crépy-en-Valois 60176;E2.9000;N49.2333;13;
3;France;Picardie;Oise;Cressonsacq 60177;E2.5667;N49.4500;13;
3;France;Picardie;Oise;Crèvecoeur-le-Grand 60178;E2.0833;N49.6000;13;
3;France;Picardie;Oise;Crèvecoeur-le-Petit 60179;E2.5000;N49.5833;13;
3;France;Picardie;Oise;Crillon 60180;E1.9333;N49.5167;13;
3;France;Picardie;Oise;Crisolles 60181;E3.0167;N49.6167;13;
3;France;Picardie;Oise;Croissy-sur-Celle 60183;E2.1833;N49.7000;13;
3;France;Picardie;Oise;Croutoy 60184;E3.0500;N49.3833;13;
3;France;Picardie;Oise;Crouy-en-Thelle 60185;E2.3167;N49.2167;13;
3;France;Picardie;Oise;Cuignières 60186;E2.4667;N49.4667;13;
3;France;Picardie;Oise;Cuigy-en-Bray 60187;E1.8333;N49.4333;13;
3;France;Picardie;Oise;Cuise-la-Motte 60188;E3.0167;N49.4000;13;
3;France;Picardie;Oise;Cuts 60189;E3.1000;N49.5333;13;
3;France;Picardie;Oise;Cuvergnon 60190;E2.9833;N49.1833;13;
3;France;Picardie;Oise;Cuvilly 60191;E2.7000;N49.5500;13;
3;France;Picardie;Oise;Cuy 60192;E2.9000;N49.5833;13;
3;France;Picardie;Oise;Daméraucourt 60193;E1.9167;N49.7000;13;
3;France;Picardie;Oise;Dargies 60194;E2.0000;N49.7000;13;
3;France;Picardie;Oise;Delincourt 60195;E1.8333;N49.2500;13;
3;France;Picardie;Oise;Dieudonné 60197;E2.2500;N49.2333;13;
3;France;Picardie;Oise;Dives 60198;E2.8833;N49.5833;13;
3;France;Picardie;Oise;Doméliers 60199;E2.1667;N49.6333;13;
3;France;Picardie;Oise;Domfront 60200;E2.5667;N49.6000;13;
3;France;Picardie;Oise;Dompierre 60201;E2.5333;N49.6000;13;
3;France;Picardie;Oise;Dreslincourt 60202=60537;E2.9269;N49.5250;13;
3;France;Picardie;Oise;Duvy 60203;E2.8667;N49.2333;13;
3;France;Picardie;Oise;Écuvilly 60204;E2.9167;N49.6333;13;
3;France;Picardie;Oise;Élencourt 60205;E1.9000;N49.6833;13;
3;France;Picardie;Oise;Élincourt-Sainte-Marguerite 60206;E2.8167;N49.5333;13;
3;France;Picardie;Oise;Éméville 60207;E3.0333;N49.2833;13;
3;France;Picardie;Oise;Énencourt-le-Sec 60209;E1.9333;N49.3000;13;
3;France;Picardie;Oise;Énencourt-Léage 60208;E1.8500;N49.3000;13;
3;France;Picardie;Oise;Épineuse 60210;E2.5500;N49.4000;13;
3;France;Picardie;Oise;Éragny-sur-Epte 60211;E1.7833;N49.3167;13;
3;France;Picardie;Oise;Ercuis 60212;E2.3000;N49.2333;13;
3;France;Picardie;Oise;Ermenonville 60213;E2.7000;N49.1333;13;
3;France;Picardie;Oise;Ernemont-Boutavent 60214;E1.8000;N49.5833;13;
3;France;Picardie;Oise;Erquery 60215;E2.4500;N49.4167;13;
3;France;Picardie;Oise;Erquinvillers 60216;E2.4667;N49.4667;13;
3;France;Picardie;Oise;Escames 60217;E1.8000;N49.5500;13;
3;France;Picardie;Oise;Esches 60218;E2.1667;N49.2167;13;
3;France;Picardie;Oise;Escles-Saint-Pierre 60219;E1.8000;N49.7500;13;
3;France;Picardie;Oise;Espaubourg 60220;E1.8667;N49.4333;13;
3;France;Picardie;Oise;Esquennoy 60221;E2.2667;N49.6500;13;
3;France;Picardie;Oise;Essuiles 60222;E2.2936;N49.4792;13;
3;France;Picardie;Oise;Estrées-Saint-Denis 60223;E2.6500;N49.4333;13;
3;France;Picardie;Oise;Étavigny 60224;E2.9833;N49.1167;13;
3;France;Picardie;Oise;Étouy 60225;E2.3667;N49.4333;13;
3;France;Picardie;Oise;Ève 60226;E2.7000;N49.0833;13;
3;France;Picardie;Oise;Évricourt 60227;E2.9000;N49.5667;13;
3;France;Picardie;Oise;Fay-les-Étangs 60228;E1.9500;N49.2500;13;
3;France;Picardie;Oise;Feigneux 60231;E2.9333;N49.2667;13;
3;France;Picardie;Oise;Ferrières 60232;E2.5167;N49.5833;13;
3;France;Picardie;Oise;Feuquières 60233;E1.8500;N49.6500;13;
3;France;Picardie;Oise;Fitz-James 60234;E2.4333;N49.4000;13;
3;France;Picardie;Oise;Flavacourt 60235;E1.8167;N49.3500;13;
3;France;Picardie;Oise;Flavy-le-Meldeux 60236;E3.0500;N49.6833;13;
3;France;Picardie;Oise;Fléchy 60237;E2.2333;N49.6500;13;
3;France;Picardie;Oise;Fleurines 60238;E2.5833;N49.2500;13;
3;France;Picardie;Oise;Fleury 60239;E1.9667;N49.2500;13;
3;France;Picardie;Oise;Fontaine-Bonneleau 60240;E2.1500;N49.6667;13;
3;France;Picardie;Oise;Fontaine-Chaalis 60241;E2.6833;N49.1667;13;
3;France;Picardie;Oise;Fontaine-Lavaganne 60242;E1.9333;N49.6000;13;
3;France;Picardie;Oise;Fontaine-Saint-Lucien 60243;E2.1333;N49.5000;13;
3;France;Picardie;Oise;Fontenay-Torcy 60244;E1.7667;N49.5667;13;
3;France;Picardie;Oise;Formerie 60245;E1.7333;N49.6500;13;
3;France;Picardie;Oise;Fosseuse 60246;E2.2000;N49.2167;13;
3;France;Picardie;Oise;Fouilleuse 60247;E2.5500;N49.4333;13;
3;France;Picardie;Oise;Fouilloy 60248;E1.8240;N49.7351;13;
3;France;Picardie;Oise;Foulangues 60249;E2.3167;N49.2833;13;
3;France;Picardie;Oise;Fouquenies 60250;E2.0500;N49.4667;13;
3;France;Picardie;Oise;Fouquerolles 60251;E2.2167;N49.4667;13;
3;France;Picardie;Oise;Fournival 60252;E2.3833;N49.4667;13;
3;France;Picardie;Oise;Francastel 60253;E2.1500;N49.5833;13;
3;France;Picardie;Oise;Francières 60254;E2.6833;N49.4500;13;
3;France;Picardie;Oise;Fréniches 60255;E3.0000;N49.6667;13;
3;France;Picardie;Oise;Fresne-Léguillon 60257;E1.9835;N49.2546;13;
3;France;Picardie;Oise;Fresneaux-Montchevreuil 60256;E2.0000;N49.2833;13;
3;France;Picardie;Oise;Fresnières 60258;E2.8167;N49.6167;13;
3;France;Picardie;Oise;Fresnoy-en-Thelle 60259;E2.2667;N49.2000;13;
3;France;Picardie;Oise;Fresnoy-la-Rivière 60260;E2.9167;N49.2833;13;
3;France;Picardie;Oise;Fresnoy-le-Luat 60261;E2.7667;N49.2167;13;
3;France;Picardie;Oise;Frétoy-le-Château 60263;E2.9833;N49.6667;13;
3;France;Picardie;Oise;Frocourt 60264;E2.0833;N49.3833;13;
3;France;Picardie;Oise;Froissy 60265;E2.2167;N49.5667;13;
3;France;Picardie;Oise;Fumechon 60266=60133;E2.3653;N49.5237;13;
3;France;Picardie;Oise;Gannes 60268;E2.4333;N49.5667;13;
3;France;Picardie;Oise;Gaudechart 60269;E1.9500;N49.6000;13;
3;France;Picardie;Oise;Genvry 60270;E2.9833;N49.6000;13;
3;France;Picardie;Oise;Gerberoy 60271;E1.8500;N49.5333;13;
3;France;Picardie;Oise;Gilocourt 60272;E2.8833;N49.3000;13;
3;France;Picardie;Oise;Giraumont 60273;E2.8167;N49.4667;13;
3;France;Picardie;Oise;Glaignes 60274;E2.8500;N49.2667;13;
3;France;Picardie;Oise;Glatigny 60275;E1.9000;N49.5000;13;
3;France;Picardie;Oise;Godenvillers 60276;E2.5500;N49.5833;13;
3;France;Picardie;Oise;Goincourt 60277;E2.0333;N49.4333;13;
3;France;Picardie;Oise;Golancourt 60278;E3.0667;N49.7000;13;
3;France;Picardie;Oise;Gondreville 60279;E2.9500;N49.2167;13;
3;France;Picardie;Oise;Gourchelles 60280;E1.7833;N49.7333;13;
3;France;Picardie;Oise;Gournay-sur-Aronde 60281;E2.6833;N49.4833;13;
3;France;Picardie;Oise;Gouvieux 60282;E2.4167;N49.1833;13;
3;France;Picardie;Oise;Gouy-les-Groseillers 60283;E2.2161;N49.6936;13;
3;France;Picardie;Oise;Grandfresnoy 60284;E2.6500;N49.3667;13;
3;France;Picardie;Oise;Grandrû 60287;E3.0833;N49.6000;13;
3;France;Picardie;Oise;Grandvillers-aux-Bois 60285;E2.6000;N49.4500;13;
3;France;Picardie;Oise;Grandvilliers 60286;E1.9333;N49.6667;13;
3;France;Picardie;Oise;Grémévillers 60288;E1.9000;N49.5667;13;
3;France;Picardie;Oise;Grez 60289;E1.9667;N49.6333;13;
3;France;Picardie;Oise;Guignecourt 60290;E2.1167;N49.4833;13;
3;France;Picardie;Oise;Guiscard 60291;E3.0500;N49.6500;13;
3;France;Picardie;Oise;Gury 60292;E2.8167;N49.5667;13;
3;France;Picardie;Oise;Hadancourt-le-Haut-Clocher 60293;E1.8569;N49.1841;13;
3;France;Picardie;Oise;Hainvillers 60294;E2.6833;N49.5917;13;
3;France;Picardie;Oise;Halloy 60295;E1.9333;N49.6500;13;
3;France;Picardie;Oise;Hannaches 60296;E1.8167;N49.5000;13;
3;France;Picardie;Oise;Hanvoile 60298;E1.8833;N49.5167;13;
3;France;Picardie;Oise;Hardivillers 60299;E2.2167;N49.6167;13;
3;France;Picardie;Oise;Hardivillers-en-Vexin 60300;E1.9333;N49.3000;13;
3;France;Picardie;Oise;Haucourt 60301;E1.9333;N49.5167;13;
3;France;Picardie;Oise;Haudivillers 60302;E2.2500;N49.4833;13;
3;France;Picardie;Oise;Hautbos 60303;E1.8667;N49.6333;13;
3;France;Picardie;Oise;Haute-Épine 60304;E2.0000;N49.5833;13;
3;France;Picardie;Oise;Hautefontaine 60305;E3.0667;N49.3667;13;
3;France;Picardie;Oise;Hécourt 60306;E1.7667;N49.5167;13;
3;France;Picardie;Oise;Heilles 60307;E2.2667;N49.3500;13;
3;France;Picardie;Oise;Hémévillers 60308;E2.6667;N49.4667;13;
3;France;Picardie;Oise;Hénonville 60309;E2.0500;N49.2000;13;
3;France;Picardie;Oise;Herchies 60310;E2.0167;N49.5000;13;
3;France;Picardie;Oise;Héricourt-sur-Thérain 60312;E1.7667;N49.5833;13;
3;France;Picardie;Oise;Hermes 60313;E2.2500;N49.3667;13;
3;France;Picardie;Oise;Hétomesnil 60314;E2.0333;N49.6333;13;
3;France;Picardie;Oise;Hodenc-en-Bray 60315;E1.9000;N49.4833;13;
3;France;Picardie;Oise;Hodenc-l'Évêque 60316;E2.1500;N49.3500;13;
3;France;Picardie;Oise;Hondainville 60317;E2.3000;N49.3500;13;
3;France;Picardie;Oise;Houdancourt 60318;E2.6500;N49.3500;13;
3;France;Picardie;Oise;Ivors 60320;E3.0167;N49.2000;13;
3;France;Picardie;Oise;Ivry-le-Temple 60321;E2.0333;N49.2333;13;
3;France;Picardie;Oise;Jaméricourt 60322;E1.8833;N49.3000;13;
3;France;Picardie;Oise;Janville 60323;E2.8667;N49.4500;13;
3;France;Picardie;Oise;Jaulzy 60324;E3.0500;N49.3833;13;
3;France;Picardie;Oise;Jaux 60325;E2.7667;N49.3833;13;
3;France;Picardie;Oise;Jonquières 60326;E2.7333;N49.4000;13;
3;France;Picardie;Oise;Jouy-sous-Thelle 60327;E1.9667;N49.3333;13;
3;France;Picardie;Oise;Juvignies 60328;E2.0833;N49.5167;13;
3;France;Picardie;Oise;La Chapelle-en-Serval 60142;E2.5333;N49.1333;13;
3;France;Picardie;Oise;La Hérelle 60311;E2.4167;N49.5833;13;
3;France;Picardie;Oise;La Houssoye 60319;E1.9333;N49.3667;13;
3;France;Picardie;Oise;La Neuville-d'Aumont 60453;E2.1000;N49.3167;13;
3;France;Picardie;Oise;La Neuville-en-Hez 60454;E2.3333;N49.4167;13;
3;France;Picardie;Oise;La Neuville-Garnier 60455;E2.0333;N49.3500;13;
3;France;Picardie;Oise;La Neuville-Saint-Pierre 60457;E2.2000;N49.5333;13;
3;France;Picardie;Oise;La Neuville-sur-Oudeuil 60458;E2.0000;N49.5833;13;
3;France;Picardie;Oise;La Neuville-sur-Ressons 60459;E2.7540;N49.5525;13;
3;France;Picardie;Oise;La Neuville-Vault 60460;E1.9500;N49.4833;13;
3;France;Picardie;Oise;La Rue-Saint-Pierre 60559;E2.3000;N49.4167;13;
3;France;Picardie;Oise;La Villeneuve-sous-Thury 60679;E3.0623;N49.1569;13;
3;France;Picardie;Oise;Laberlière 60329;E2.7667;N49.5833;13;
3;France;Picardie;Oise;Laboissière-en-Thelle 60330;E2.1500;N49.3000;13;
3;France;Picardie;Oise;Labosse 60331;E1.9000;N49.3500;13;
3;France;Picardie;Oise;Labruyère 60332;E2.5167;N49.3667;13;
3;France;Picardie;Oise;Lachapelle-aux-Pots 60333;E1.9000;N49.4667;13;
3;France;Picardie;Oise;Lachapelle-Saint-Pierre 60334;E2.2333;N49.2667;13;
3;France;Picardie;Oise;Lachapelle-sous-Gerberoy 60335;E1.8667;N49.5333;13;
3;France;Picardie;Oise;Lachaussée-du-Bois-d'Écu 60336;E2.1731;N49.5596;13;
3;France;Picardie;Oise;Lachelle 60337;E2.7333;N49.4500;13;
3;France;Picardie;Oise;Lacroix-Saint-Ouen 60338;E2.7833;N49.3500;13;
3;France;Picardie;Oise;Lafraye 60339;E2.2167;N49.5000;13;
3;France;Picardie;Oise;Lagny 60340;E2.9167;N49.6167;13;
3;France;Picardie;Oise;Lagny-le-Sec 60341;E2.7500;N49.0833;13;
3;France;Picardie;Oise;Laigneville 60342;E2.4500;N49.3000;13;
3;France;Picardie;Oise;Lalande-en-Son 60343;E1.7833;N49.3833;13;
3;France;Picardie;Oise;Lalandelle 60344;E1.8833;N49.4000;13;
3;France;Picardie;Oise;Lamécourt 60345;E2.4667;N49.4333;13;
3;France;Picardie;Oise;Lamorlaye 60346;E2.4333;N49.1500;13;
3;France;Picardie;Oise;Laneuvilleroy 60456;E2.5833;N49.4833;13;
3;France;Picardie;Oise;Lannoy-Cuillère 60347;E1.7500;N49.7000;13;
3;France;Picardie;Oise;Larbroye 60348;E2.9648;N49.5736;13;
3;France;Picardie;Oise;Lardières 60349=60395;E2.1349;N49.2560;13;
3;France;Picardie;Oise;Lassigny 60350;E2.8500;N49.5833;13;
3;France;Picardie;Oise;Lataule 60351;E2.6833;N49.5500;13;
3;France;Picardie;Oise;Lattainville 60352;E1.8167;N49.2500;13;
3;France;Picardie;Oise;Lavacquerie 60353;E2.1000;N49.6833;13;
3;France;Picardie;Oise;Laverrière 60354;E2.0167;N49.6833;13;
3;France;Picardie;Oise;Laversines 60355;E2.2000;N49.4333;13;
3;France;Picardie;Oise;Lavilletertre 60356;E1.9333;N49.2000;13;
3;France;Picardie;Oise;Le Coudray-Saint-Germer 60164;E1.8333;N49.4167;13;
3;France;Picardie;Oise;Le Coudray-sur-Thelle 60165;E2.1333;N49.3000;13;
3;France;Picardie;Oise;Le Crocq 60182;E2.1833;N49.6167;13;
3;France;Picardie;Oise;Le Déluge 60196;E2.1167;N49.3000;13;
3;France;Picardie;Oise;Le Fay-Saint-Quentin 60230;E2.2500;N49.4667;13;
3;France;Picardie;Oise;Le Fayel 60229;E2.7000;N49.3833;13;
3;France;Picardie;Oise;Le Frestoy-Vaux 60262;E2.6000;N49.6000;13;
3;France;Picardie;Oise;Le Gallet 60267;E2.1000;N49.6167;13;
3;France;Picardie;Oise;Le Hamel 60297;E1.9915;N49.6475;13;
3;France;Picardie;Oise;Le Mesnil-Conteville 60397;E2.0667;N49.6667;13;
3;France;Picardie;Oise;Le Mesnil-en-Thelle 60398;E2.2833;N49.1833;13;
3;France;Picardie;Oise;Le Mesnil-Saint-Firmin 60399;E2.4167;N49.6333;13;
3;France;Picardie;Oise;Le Mesnil-sur-Bulles 60400;E2.3500;N49.5000;13;
3;France;Picardie;Oise;Le Mesnil-Théribus 60401;E1.9833;N49.3000;13;
3;France;Picardie;Oise;Le Meux 60402;E2.7333;N49.3667;13;
3;France;Picardie;Oise;Le Mont-Saint-Adrien 60428;E2.0000;N49.4500;13;
3;France;Picardie;Oise;Le Plessier-sur-Bulles 60497;E2.3167;N49.5000;13;
3;France;Picardie;Oise;Le Plessier-sur-Saint-Just 60498;E2.4500;N49.5167;13;
3;France;Picardie;Oise;Le Plessis-Belleville 60500;E2.7667;N49.1000;13;
3;France;Picardie;Oise;Le Plessis-Brion 60501;E2.9000;N49.4667;13;
3;France;Picardie;Oise;Le Plessis-Patte-d'Oie 60502;E3.0648;N49.6825;13;
3;France;Picardie;Oise;Le Ployron 60503;E2.5833;N49.5833;13;
3;France;Picardie;Oise;Le Quesnel-Aubry 60520;E2.3000;N49.5167;13;
3;France;Picardie;Oise;Le Saulchoy 60608;E2.1410;N49.6343;13;
3;France;Picardie;Oise;Le Vaumain 60660;E1.8667;N49.3500;13;
3;France;Picardie;Oise;Le Vauroux 60662;E1.9167;N49.3833;13;
3;France;Picardie;Oise;Léglantiers 60357;E2.5333;N49.5000;13;
3;France;Picardie;Oise;Les Ageux 60006;E2.6000;N49.3167;13;
3;France;Picardie;Oise;Lévignen 60358;E2.9167;N49.2000;13;
3;France;Picardie;Oise;Lhéraule 60359;E1.9333;N49.4833;13;
3;France;Picardie;Oise;Liancourt 60360;E2.4667;N49.3333;13;
3;France;Picardie;Oise;Liancourt-Saint-Pierre 60361;E1.9167;N49.2333;13;
3;France;Picardie;Oise;Libermont 60362;E2.9667;N49.7000;13;
3;France;Picardie;Oise;Lierville 60363;E1.8833;N49.1833;13;
3;France;Picardie;Oise;Lieuvillers 60364;E2.5000;N49.4833;13;
3;France;Picardie;Oise;Lihus 60365;E2.0500;N49.6000;13;
3;France;Picardie;Oise;Litz 60366;E2.3333;N49.4333;13;
3;France;Picardie;Oise;Loconville 60367;E1.9167;N49.2667;13;
3;France;Picardie;Oise;Longueil-Annel 60368;E2.8667;N49.4667;13;
3;France;Picardie;Oise;Longueil-Sainte-Marie 60369;E2.7167;N49.3500;13;
3;France;Picardie;Oise;Lormaison 60370;E2.1000;N49.2500;13;
3;France;Picardie;Oise;Loueuse 60371;E1.8333;N49.6000;13;
3;France;Picardie;Oise;Luchy 60372;E2.1167;N49.5500;13;
3;France;Picardie;Oise;Machemont 60373;E2.8667;N49.5000;13;
3;France;Picardie;Oise;Maignelay-Montigny 60374;E2.5192;N49.5510;13;
3;France;Picardie;Oise;Maimbeville 60375;E2.5167;N49.4167;13;
3;France;Picardie;Oise;Maisoncelle-Saint-Pierre 60376;E2.1167;N49.5167;13;
3;France;Picardie;Oise;Maisoncelle-Tuilerie 60377;E2.2167;N49.5833;13;
3;France;Picardie;Oise;Marest-sur-Matz 60378;E2.8333;N49.5167;13;
3;France;Picardie;Oise;Mareuil-la-Motte 60379;E2.8000;N49.5500;13;
3;France;Picardie;Oise;Mareuil-sur-Ourcq 60380;E3.0667;N49.1333;13;
3;France;Picardie;Oise;Margny-aux-Cerises 60381;E2.8667;N49.6833;13;
3;France;Picardie;Oise;Margny-lès-Compiègne 60382;E2.8167;N49.4333;13;
3;France;Picardie;Oise;Margny-sur-Matz 60383;E2.7833;N49.5167;13;
3;France;Picardie;Oise;Marissel 60384=60057;E20976;N49.4315;13;
3;France;Picardie;Oise;Marolles 60385;E3.1000;N49.1667;13;
3;France;Picardie;Oise;Marquéglise 60386;E2.7667;N49.5167;13;
3;France;Picardie;Oise;Marseille-en-Beauvaisis 60387;E1.9500;N49.5833;13;
3;France;Picardie;Oise;Martincourt 60388;E1.9000;N49.5333;13;
3;France;Picardie;Oise;Maucourt 60389;E3.0736;N49.6361;13;
3;France;Picardie;Oise;Maulers 60390;E2.1667;N49.5500;13;
3;France;Picardie;Oise;Maysel 60391;E2.3833;N49.2667;13;
3;France;Picardie;Oise;Mélicocq 60392;E2.8500;N49.5000;13;
3;France;Picardie;Oise;Mello 60393;E2.3667;N49.2667;13;
3;France;Picardie;Oise;Ménévillers 60394;E2.6000;N49.5167;13;
3;France;Picardie;Oise;Méru 60395;E2.1333;N49.2333;13;
3;France;Picardie;Oise;Méry-la-Bataille 60396;E2.6333;N49.5500;13;
3;France;Picardie;Oise;Milly-sur-Thérain 60403;E2.0000;N49.5000;13;
3;France;Picardie;Oise;Mogneville 60404;E2.4667;N49.3167;13;
3;France;Picardie;Oise;Moliens 60405;E1.8167;N49.6667;13;
3;France;Picardie;Oise;Monceaux 60406;E2.5500;N49.3167;13;
3;France;Picardie;Oise;Monceaux-l'Abbaye 60407;E1.7833;N49.6500;13;
3;France;Picardie;Oise;Monchy-Humières 60408;E2.7500;N49.4667;13;
3;France;Picardie;Oise;Monchy-Saint-Éloi 60409;E2.4667;N49.3000;13;
3;France;Picardie;Oise;Mondescourt 60410;E3.1167;N49.5833;13;
3;France;Picardie;Oise;Monneville 60411;E1.9833;N49.2167;13;
3;France;Picardie;Oise;Mont-l'Évêque 60421;E2.6333;N49.2000;13;
3;France;Picardie;Oise;Montagny-en-Vexin 60412;E1.8000;N49.2000;13;
3;France;Picardie;Oise;Montagny-Sainte-Félicité 60413;E2.7383;N49.1292;13;
3;France;Picardie;Oise;Montataire 60414;E2.4333;N49.2667;13;
3;France;Picardie;Oise;Montépilloy 60415;E2.7000;N49.2167;13;
3;France;Picardie;Oise;Montgérain 60416;E2.5833;N49.5333;13;
3;France;Picardie;Oise;Montherlant 60417;E2.0500;N49.2833;13;
3;France;Picardie;Oise;Montiers 60418;E2.5833;N49.5000;13;
3;France;Picardie;Oise;Montigny 60419=60374;E2.8766;N49.5238;13;
3;France;Picardie;Oise;Montjavoult 60420;E1.7833;N49.2167;13;
3;France;Picardie;Oise;Montlognon 60422;E2.6833;N49.1667;13;
3;France;Picardie;Oise;Montmacq 60423;E2.9000;N49.4833;13;
3;France;Picardie;Oise;Montmartin 60424;E2.7000;N49.4667;13;
3;France;Picardie;Oise;Montreuil-sur-Brêche 60425;E2.2667;N49.5167;13;
3;France;Picardie;Oise;Montreuil-sur-Thérain 60426;E2.2000;N49.3833;13;
3;France;Picardie;Oise;Monts 60427;E2.0167;N49.2167;13;
3;France;Picardie;Oise;Morangles 60429;E2.3000;N49.2000;13;
3;France;Picardie;Oise;Morienval 60430;E2.9333;N49.3000;13;
3;France;Picardie;Oise;Morlincourt 60431;E3.0500;N49.5667;13;
3;France;Picardie;Oise;Mortefontaine 60432;E2.6000;N49.1167;13;
3;France;Picardie;Oise;Mortefontaine-en-Thelle 60433;E2.1833;N49.2667;13;
3;France;Picardie;Oise;Mortemer 60434;E2.6667;N49.5833;13;
3;France;Picardie;Oise;Morvillers 60435;E1.8667;N49.5833;13;
3;France;Picardie;Oise;Mory-Montcrux 60436;E2.4000;N49.5833;13;
3;France;Picardie;Oise;Mouchy-le-Châtel 60437;E2.2500;N49.3333;13;
3;France;Picardie;Oise;Moulin-sous-Touvent 60438;E3.0721;N49.4556;13;
3;France;Picardie;Oise;Mouy 60439;E2.3167;N49.3167;13;
3;France;Picardie;Oise;Moyenneville 60440;E2.6367;N49.4914;13;
3;France;Picardie;Oise;Moyvillers 60441;E2.6500;N49.4167;13;
3;France;Picardie;Oise;Muidorge 60442;E2.1333;N49.5333;13;
3;France;Picardie;Oise;Muirancourt 60443;E3.0000;N49.6500;13;
3;France;Picardie;Oise;Mureaumont 60444;E1.7833;N49.6333;13;
3;France;Picardie;Oise;Nampcel 60445;E3.1000;N49.4833;13;
3;France;Picardie;Oise;Nanteuil-le-Haudouin 60446;E2.8000;N49.1333;13;
3;France;Picardie;Oise;Néry 60447;E2.7833;N49.2833;13;
3;France;Picardie;Oise;Neufchelles 60448;E3.0667;N49.1167;13;
3;France;Picardie;Oise;Neufvy-sur-Aronde 60449;E2.6667;N49.5000;13;
3;France;Picardie;Oise;Neuilly-en-Thelle 60450;E2.2833;N49.2167;13;
3;France;Picardie;Oise;Neuilly-sous-Clermont 60451;E2.4000;N49.3500;13;
3;France;Picardie;Oise;Neuville-Bosc 60452;E2.0167;N49.2000;13;
3;France;Picardie;Oise;Nivillers 60461;E2.1667;N49.4667;13;
3;France;Picardie;Oise;Noailles 60462;E2.2000;N49.3333;13;
3;France;Picardie;Oise;Nogent-sur-Oise 60463;E2.4667;N49.2667;13;
3;France;Picardie;Oise;Nointel 60464;E2.4833;N49.3833;13;
3;France;Picardie;Oise;Noirémont 60465;E2.2167;N49.5500;13;
3;France;Picardie;Oise;Noroy 60466;E2.5000;N49.4500;13;
3;France;Picardie;Oise;Notre-Dame-du-Thil 60467=60057;E2.0773;N49.4494;13;
3;France;Picardie;Oise;Nourard-le-Franc 60468;E2.3667;N49.5000;13;
3;France;Picardie;Oise;Novillers 60469;E2.2140;N49.2708;13;
3;France;Picardie;Oise;Noyers-Saint-Martin 60470;E2.2667;N49.5500;13;
3;France;Picardie;Oise;Noyon 60471;E3.0000;N49.5833;13;
3;France;Picardie;Oise;Offoy 60472;E2.0385;N49.6967;13;
3;France;Picardie;Oise;Ognes 60473;E2.8250;N49.1000;13;
3;France;Picardie;Oise;Ognolles 60474;E2.9000;N49.6833;13;
3;France;Picardie;Oise;Ognon 60475;E2.6500;N49.2333;13;
3;France;Picardie;Oise;Omécourt 60476;E1.8500;N49.6167;13;
3;France;Picardie;Oise;Ons-en-Bray 60477;E1.9167;N49.4167;13;
3;France;Picardie;Oise;Ormoy-le-Davien 60478;E2.9667;N49.2000;13;
3;France;Picardie;Oise;Ormoy-Villers 60479;E2.8333;N49.2000;13;
3;France;Picardie;Oise;Oroër 60480;E2.1667;N49.5000;13;
3;France;Picardie;Oise;Orrouy 60481;E2.8667;N49.2833;13;
3;France;Picardie;Oise;Orry-la-Ville 60482;E2.5167;N49.1333;13;
3;France;Picardie;Oise;Orvillers-Sorel 60483;E2.7000;N49.5833;13;
3;France;Picardie;Oise;Oudeuil 60484;E2.0167;N49.5500;13;
3;France;Picardie;Oise;Ourcel-Maison 60485;E2.1813;N49.5959;13;
3;France;Picardie;Oise;Paillart 60486;E2.3167;N49.6667;13;
3;France;Picardie;Oise;Parnes 60487;E1.7333;N49.2000;13;
3;France;Picardie;Oise;Passel 60488;E2.9500;N49.5500;13;
3;France;Picardie;Oise;Péroy-les-Gombries 60489;E2.8500;N49.1667;13;
3;France;Picardie;Oise;Pierrefitte-en-Beauvaisis 60490;E1.9792;N49.4728;13;
3;France;Picardie;Oise;Pierrefonds 60491;E2.9833;N49.3500;13;
3;France;Picardie;Oise;Pimprez 60492;E2.9500;N49.5167;13;
3;France;Picardie;Oise;Pisseleu 60493;E2.0572;N49.5392;13;
3;France;Picardie;Oise;Plailly 60494;E2.5833;N49.1000;13;
3;France;Picardie;Oise;Plainval 60495;E2.4500;N49.5333;13;
3;France;Picardie;Oise;Plainville 60496;E2.4500;N49.6000;13;
3;France;Picardie;Oise;Plessis-de-Roye 60499;E2.8333;N49.5833;13;
3;France;Picardie;Oise;Ponchon 60504;E2.2000;N49.3500;13;
3;France;Picardie;Oise;Pont-l'Évêque 60506;E2.9833;N49.5667;13;
3;France;Picardie;Oise;Pont-Sainte-Maxence 60509;E2.6000;N49.3000;13;
3;France;Picardie;Oise;Pontarmé 60505;E2.5500;N49.1500;13;
3;France;Picardie;Oise;Pontoise-lès-Noyon 60507;E3.0500;N49.5500;13;
3;France;Picardie;Oise;Pontpoint 60508;E2.6500;N49.3000;13;
3;France;Picardie;Oise;Porcheux 60510;E1.9167;N49.3500;13;
3;France;Picardie;Oise;Porquéricourt 60511;E2.9667;N49.5833;13;
3;France;Picardie;Oise;Pouilly 60512;E2.0333;N49.2667;13;
3;France;Picardie;Oise;Précy-sur-Oise 60513;E2.3667;N49.2000;13;
3;France;Picardie;Oise;Prévillers 60514;E2.0000;N49.6000;13;
3;France;Picardie;Oise;Pronleroy 60515;E2.5500;N49.4667;13;
3;France;Picardie;Oise;Puiseux-en-Bray 60516;E1.7833;N49.4167;13;
3;France;Picardie;Oise;Puiseux-le-Hauberger 60517;E2.2333;N49.2167;13;
3;France;Picardie;Oise;Puits-la-Vallée 60518;E2.2000;N49.5833;13;
3;France;Picardie;Oise;Quesmy 60519;E3.0500;N49.6167;13;
3;France;Picardie;Oise;Quincampoix-Fleuzy 60521;E1.7667;N49.7500;13;
3;France;Picardie;Oise;Quinquempoix 60522;E2.4167;N49.5500;13;
3;France;Picardie;Oise;Rainvillers 60523;E2.0000;N49.4167;13;
3;France;Picardie;Oise;Rantigny 60524;E2.4333;N49.3333;13;
3;France;Picardie;Oise;Raray 60525;E2.7167;N49.2667;13;
3;France;Picardie;Oise;Ravenel 60526;E2.5000;N49.5167;13;
3;France;Picardie;Oise;Réez-Fosse-Martin 60527;E2.9500;N49.1000;13;
3;France;Picardie;Oise;Reilly 60528;E1.8500;N49.2500;13;
3;France;Picardie;Oise;Rémécourt 60529;E2.4833;N49.4333;13;
3;France;Picardie;Oise;Rémérangles 60530;E2.2833;N49.4500;13;
3;France;Picardie;Oise;Remy 60531;E2.7167;N49.4333;13;
3;France;Picardie;Oise;Ressons-l'Abbaye 60532;E2.0875;N49.3019;13;
3;France;Picardie;Oise;Ressons-sur-Matz 60533;E2.7500;N49.5500;13;
3;France;Picardie;Oise;Rethondes 60534;E2.9500;N49.4167;13;
3;France;Picardie;Oise;Reuil-sur-Brêche 60535;E2.2167;N49.5167;13;
3;France;Picardie;Oise;Rhuis 60536;E2.7000;N49.3000;13;
3;France;Picardie;Oise;Ribécourt-Dreslincourt 60537;E2.9224;N49.5096;13;
3;France;Picardie;Oise;Ricquebourg 60538;E2.7500;N49.5667;13;
3;France;Picardie;Oise;Rieux 60539;E2.5167;N49.3000;13;
3;France;Picardie;Oise;Rivecourt 60540;E2.7333;N49.3500;13;
3;France;Picardie;Oise;Roberval 60541;E2.6833;N49.3000;13;
3;France;Picardie;Oise;Rochy-Condé 60542;E2.1833;N49.4167;13;
3;France;Picardie;Oise;Rocquemont 60543;E2.8167;N49.2667;13;
3;France;Picardie;Oise;Rocquencourt 60544;E2.4167;N49.6500;13;
3;France;Picardie;Oise;Romescamps 60545;E1.8000;N49.7167;13;
3;France;Picardie;Oise;Rosières 60546;E2.7833;N49.1833;13;
3;France;Picardie;Oise;Rosoy 60547;E2.5000;N49.3500;13;
3;France;Picardie;Oise;Rosoy-en-Multien 60548;E3.0000;N49.0833;13;
3;France;Picardie;Oise;Rotangy 60549;E2.0833;N49.5833;13;
3;France;Picardie;Oise;Rothois 60550;E2.0000;N49.6000;13;
3;France;Picardie;Oise;Rousseloy 60551;E2.4000;N49.3000;13;
3;France;Picardie;Oise;Rouville 60552;E2.8667;N49.2167;13;
3;France;Picardie;Oise;Rouvillers 60553;E2.6000;N49.4500;13;
3;France;Picardie;Oise;Rouvres-en-Multien 60554;E3.0251;N49.1103;13;
3;France;Picardie;Oise;Rouvroy-les-Merles 60555;E2.3500;N49.6500;13;
3;France;Picardie;Oise;Roy-Boissy 60557;E1.9167;N49.5833;13;
3;France;Picardie;Oise;Royaucourt 60556;E2.5333;N49.6000;13;
3;France;Picardie;Oise;Roye-sur-Matz 60558;E2.7833;N49.5833;13;
3;France;Picardie;Oise;Rully 60560;E2.7333;N49.2333;13;
3;France;Picardie;Oise;Russy-Bémont 60561;E2.9667;N49.2500;13;
3;France;Picardie;Oise;Sacy-le-Grand 60562;E2.5500;N49.3500;13;
3;France;Picardie;Oise;Sacy-le-Petit 60563;E2.6333;N49.3667;13;
3;France;Picardie;Oise;Sains-Morainvillers 60564;E2.4833;N49.5667;13;
3;France;Picardie;Oise;Saint-André-Farivillers 60565;E2.3000;N49.5833;13;
3;France;Picardie;Oise;Saint-Arnoult 60566;E1.8167;N49.6333;13;
3;France;Picardie;Oise;Saint-Aubin-en-Bray 60567;E1.8833;N49.4333;13;
3;France;Picardie;Oise;Saint-Aubin-sous-Erquery 60568;E2.4833;N49.4167;13;
3;France;Picardie;Oise;Saint-Crépin-aux-Bois 60569;E2.9833;N49.4333;13;
3;France;Picardie;Oise;Saint-Crépin-Ibouvillers 60570;E2.0667;N49.2667;13;
3;France;Picardie;Oise;Saint-Deniscourt 60571;E1.8667;N49.6000;13;
3;France;Picardie;Oise;Saint-Étienne-Roilaye 60572;E3.0167;N49.3500;13;
3;France;Picardie;Oise;Saint-Félix 60574;E2.2833;N49.3667;13;
3;France;Picardie;Oise;Saint-Germain-la-Poterie 60576;E1.9833;N49.4500;13;
3;France;Picardie;Oise;Saint-Germer-de-Fly 60577;E1.7833;N49.4500;13;
3;France;Picardie;Oise;Saint-Jean-aux-Bois 60579;E2.9167;N49.3500;13;
3;France;Picardie;Oise;Saint-Just-des-Marais 60580=60057;E2.0584;N49.4389;13;
3;France;Picardie;Oise;Saint-Just-en-Chaussée 60581;E2.4333;N49.5000;13;
3;France;Picardie;Oise;Saint-Léger-aux-Bois 60582;E2.9500;N49.4833;13;
3;France;Picardie;Oise;Saint-Léger-en-Bray 60583;E2.0167;N49.4000;13;
3;France;Picardie;Oise;Saint-Leu-d'Esserent 60584;E2.4167;N49.2167;13;
3;France;Picardie;Oise;Saint-Martin-aux-Bois 60585;E2.5667;N49.5167;13;
3;France;Picardie;Oise;Saint-Martin-le-Noeud 60586;E2.0333;N49.4167;13;
3;France;Picardie;Oise;Saint-Martin-Longueau 60587;E2.6000;N49.3500;13;
3;France;Picardie;Oise;Saint-Maur 60588;E1.9167;N49.6000;13;
3;France;Picardie;Oise;Saint-Maximin 60589;E2.4500;N49.2167;13;
3;France;Picardie;Oise;Saint-Omer-en-Chaussée 60590;E2.0000;N49.5333;13;
3;France;Picardie;Oise;Saint-Paul 60591;E2.0000;N49.4333;13;
3;France;Picardie;Oise;Saint-Pierre-es-Champs 60592;E1.7271;N49.4314;13;
3;France;Picardie;Oise;Saint-Pierre-lès-Bitry 60593;E3.0833;N49.4333;13;
3;France;Picardie;Oise;Saint-Quentin-des-Prés 60594;E1.7500;N49.5167;13;
3;France;Picardie;Oise;Saint-Remy-en-l'Eau 60595;E2.4333;N49.4833;13;
3;France;Picardie;Oise;Saint-Samson-la-Poterie 60596;E1.7429;N49.5916;13;
3;France;Picardie;Oise;Saint-Sauveur 60597;E2.7833;N49.3167;13;
3;France;Picardie;Oise;Saint-Sulpice 60598;E2.1167;N49.3667;13;
3;France;Picardie;Oise;Saint-Thibault 60599;E1.8500;N49.7000;13;
3;France;Picardie;Oise;Saint-Vaast-de-Longmont 60600;E2.7333;N49.3000;13;
3;France;Picardie;Oise;Saint-Vaast-lès-Mello 60601;E2.3833;N49.2667;13;
3;France;Picardie;Oise;Saint-Valery 60602;E1.7346;N49.7264;13;
3;France;Picardie;Oise;Sainte-Eusoye 60573;E2.2333;N49.5833;13;
3;France;Picardie;Oise;Sainte-Geneviève 60575;E2.2000;N49.2833;13;
3;France;Picardie;Oise;Saintines 60578;E2.7667;N49.3000;13;
3;France;Picardie;Oise;Salency 60603;E3.0500;N49.5833;13;
3;France;Picardie;Oise;Sarcus 60604;E1.8667;N49.6833;13;
3;France;Picardie;Oise;Sarnois 60605;E1.9000;N49.6833;13;
3;France;Picardie;Oise;Sarron 60606=60509;E2.6213;N49.3157;13;
3;France;Picardie;Oise;Sauqueuse-Saint-Lucien 60607=60668;E2.0667;N49.5167;13;
3;France;Picardie;Oise;Savignies 60609;E1.9667;N49.4667;13;
3;France;Picardie;Oise;Sempigny 60610;E3.0000;N49.5500;13;
3;France;Picardie;Oise;Senantes 60611;E1.8333;N49.5000;13;
3;France;Picardie;Oise;Senlis 60612;E2.5833;N49.2000;13;
3;France;Picardie;Oise;Senots 60613;E2.0000;N49.2667;13;
3;France;Picardie;Oise;Serans 60614;E1.8333;N49.1833;13;
3;France;Picardie;Oise;Sérévillers 60615;E2.4333;N49.6333;13;
3;France;Picardie;Oise;Sérifontaine 60616;E1.7667;N49.3500;13;
3;France;Picardie;Oise;Sermaize 60617;E2.9500;N49.6167;13;
3;France;Picardie;Oise;Séry-Magneval 60618;E2.8500;N49.2667;13;
3;France;Picardie;Oise;Silly-le-Long 60619;E2.8000;N49.1000;13;
3;France;Picardie;Oise;Silly-Tillard 60620;E2.1500;N49.3333;13;
3;France;Picardie;Oise;Solente 60621;E2.8833;N49.7000;13;
3;France;Picardie;Oise;Sommereux 60622;E2.0000;N49.6833;13;
3;France;Picardie;Oise;Songeons 60623;E1.8667;N49.5500;13;
3;France;Picardie;Oise;Sully 60624;E1.7833;N49.5500;13;
3;France;Picardie;Oise;Suzoy 60625;E2.9333;N49.5833;13;
3;France;Picardie;Oise;Talmontiers 60626;E1.7333;N49.3833;13;
3;France;Picardie;Oise;Tartigny 60627;E2.3500;N49.6333;13;
3;France;Picardie;Oise;Therdonne 60628;E2.1500;N49.4167;13;
3;France;Picardie;Oise;Thérines 60629;E1.9000;N49.6000;13;
3;France;Picardie;Oise;Thibivillers 60630;E1.9000;N49.3000;13;
3;France;Picardie;Oise;Thiers-sur-Thève 60631;E2.5833;N49.1500;13;
3;France;Picardie;Oise;Thiescourt 60632;E2.8833;N49.5667;13;
3;France;Picardie;Oise;Thieuloy-Saint-Antoine 60633;E1.9500;N49.6333;13;
3;France;Picardie;Oise;Thieux 60634;E2.3167;N49.5333;13;
3;France;Picardie;Oise;Thiverny 60635;E2.4333;N49.2500;13;
3;France;Picardie;Oise;Thourotte 60636;E2.8833;N49.4833;13;
3;France;Picardie;Oise;Thury-en-Valois 60637;E3.0333;N49.1667;13;
3;France;Picardie;Oise;Thury-sous-Clermont 60638;E2.3333;N49.3667;13;
3;France;Picardie;Oise;Tillé 60639;E2.1167;N49.4667;13;
3;France;Picardie;Oise;Tourly 60640;E1.9333;N49.2167;13;
3;France;Picardie;Oise;Tracy-le-Mont 60641;E3.0000;N49.4667;13;
3;France;Picardie;Oise;Tracy-le-Val 60642;E3.0167;N49.4833;13;
3;France;Picardie;Oise;Tricot 60643;E2.5833;N49.5667;13;
3;France;Picardie;Oise;Trie-Château 60644;E1.8333;N49.2833;13;
3;France;Picardie;Oise;Trie-la-Ville 60645;E1.8333;N49.3000;13;
3;France;Picardie;Oise;Troissereux 60646;E2.0500;N49.4833;13;
3;France;Picardie;Oise;Trosly-Breuil 60647;E2.9667;N49.4000;13;
3;France;Picardie;Oise;Troussencourt 60648;E2.2500;N49.6000;13;
3;France;Picardie;Oise;Troussures 60649;E1.9667;N49.4000;13;
3;France;Picardie;Oise;Trumilly 60650;E2.8000;N49.2500;13;
3;France;Picardie;Oise;Ully-Saint-Georges 60651;E2.2833;N49.2833;13;
3;France;Picardie;Oise;Valdampierre 60652;E2.0500;N49.3000;13;
3;France;Picardie;Oise;Valescourt 60653;E2.4333;N49.4833;13;
3;France;Picardie;Oise;Vandélicourt 60654;E2.8000;N49.5000;13;
3;France;Picardie;Oise;Varesnes 60655;E3.0667;N49.5500;13;
3;France;Picardie;Oise;Varinfroy 60656;E3.0500;N49.1000;13;
3;France;Picardie;Oise;Vauchelles 60657;E2.9667;N49.5833;13;
3;France;Picardie;Oise;Vauciennes 60658;E3.0333;N49.2333;13;
3;France;Picardie;Oise;Vaudancourt 60659;E1.7667;N49.2333;13;
3;France;Picardie;Oise;Vaumoise 60661;E2.9833;N49.2333;13;
3;France;Picardie;Oise;Velennes 60663;E2.1833;N49.4833;13;
3;France;Picardie;Oise;Vendeuil-Caply 60664;E2.3000;N49.6167;13;
3;France;Picardie;Oise;Venette 60665;E2.8000;N49.4167;13;
3;France;Picardie;Oise;Ver-sur-Launette 60666;E2.6833;N49.1000;13;
3;France;Picardie;Oise;Verberie 60667;E2.7333;N49.3167;13;
3;France;Picardie;Oise;Verderel-lès-Sauqueuse 60668;E2.0962;N49.5042;13;
3;France;Picardie;Oise;Verderonne 60669;E2.5000;N49.3333;13;
3;France;Picardie;Oise;Verneuil-en-Halatte 60670;E2.5167;N49.2833;13;
3;France;Picardie;Oise;Versigny 60671;E2.7607;N49.1587;13;
3;France;Picardie;Oise;Vez 60672;E3.0000;N49.2667;13;
3;France;Picardie;Oise;Viefvillers 60673;E2.1167;N49.6000;13;
3;France;Picardie;Oise;Vieux-Moulin 60674;E2.9333;N49.3833;13;
3;France;Picardie;Oise;Vignemont 60675;E2.7833;N49.5000;13;
3;France;Picardie;Oise;Ville 60676;E2.9500;N49.5500;13;
3;France;Picardie;Oise;Villembray 60677;E1.8667;N49.4833;13;
3;France;Picardie;Oise;Villeneuve-les-Sablons 60678;E2.0833;N49.2333;13;
3;France;Picardie;Oise;Villeneuve-sur-Verberie 60680;E2.6833;N49.2833;13;
3;France;Picardie;Oise;Villers-Saint-Barthélemy 60681;E1.9500;N49.4000;13;
3;France;Picardie;Oise;Villers-Saint-Frambourg 60682;E2.6333;N49.2667;13;
3;France;Picardie;Oise;Villers-Saint-Genest 60683;E2.9167;N49.1500;13;
3;France;Picardie;Oise;Villers-Saint-Paul 60684;E2.4833;N49.2833;13;
3;France;Picardie;Oise;Villers-Saint-Sépulcre 60685;E2.2167;N49.3833;13;
3;France;Picardie;Oise;Villers-sous-Saint-Leu 60686;E2.4000;N49.2167;13;
3;France;Picardie;Oise;Villers-sur-Auchy 60687;E1.8000;N49.5000;13;
3;France;Picardie;Oise;Villers-sur-Bonnières 60688;E1.9667;N49.5333;13;
3;France;Picardie;Oise;Villers-sur-Coudun 60689;E2.8000;N49.4833;13;
3;France;Picardie;Oise;Villers-sur-Trie 60690;E1.8240;N49.3081;13;
3;France;Picardie;Oise;Villers-Vermont 60691;E1.7500;N49.5833;13;
3;France;Picardie;Oise;Villers-Vicomte 60692;E2.2333;N49.6333;13;
3;France;Picardie;Oise;Villeselve 60693;E3.1167;N49.6833;13;
3;France;Picardie;Oise;Villotran 60694;E2.0167;N49.3500;13;
3;France;Picardie;Oise;Vineuil-Saint-Firmin 60695;E2.4833;N49.2000;13;
3;France;Picardie;Oise;Voisinlieu 60696=60057;E2.0976;N49.4204;13;
3;France;Picardie;Oise;Vrocourt 60697;E1.8833;N49.5333;13;
3;France;Picardie;Oise;Wacquemoulin 60698;E2.6167;N49.5000;13;
3;France;Picardie;Oise;Wambez 60699;E1.8500;N49.5167;13;
3;France;Picardie;Oise;Warluis 60700;E2.1333;N49.4000;13;
3;France;Picardie;Oise;Wavignies 60701;E2.3667;N49.5500;13;
3;France;Picardie;Oise;Welles-Pérennes 60702;E2.4833;N49.6167;13;
2;France;Picardie;Somme;;E2.21;N49.99;9;
3;France;Picardie;Somme;Abbeville 80001;E1.8351;N50.1091;13;
3;France;Picardie;Somme;Ablaincourt-Pressoir 80002;E2.8207;N49.8382;13;
3;France;Picardie;Somme;Acheux-en-Amiénois 80003;E2.5334;N50.0739;13;
3;France;Picardie;Somme;Acheux-en-Vimeu 80004;E1.6747;N50.0646;13;
3;France;Picardie;Somme;Agenville 80005;E2.1000;N50.1667;13;
3;France;Picardie;Somme;Agenvillers 80006;E1.9167;N50.1667;13;
3;France;Picardie;Somme;Agnières 80007=80436;E1.9000;N49.7167;13;
3;France;Picardie;Somme;Aigneville 80008;E1.6167;N50.0333;13;
3;France;Picardie;Somme;Ailly-le-Haut-Clocher 80009;E2.0000;N50.0833;13;
3;France;Picardie;Somme;Ailly-sur-Noye 80010;E2.3641;N49.7572;13;
3;France;Picardie;Somme;Ailly-sur-Somme 80011;E2.2000;N49.9167;13;
3;France;Picardie;Somme;Ainval-Septoutre 80012=80390;E2.4344;N49.7008;13;
3;France;Picardie;Somme;Airaines 80013;E1.9500;N49.9667;13;
3;France;Picardie;Somme;Aizecourt-le-Bas 80014;E3.0500;N49.9667;13;
3;France;Picardie;Somme;Aizecourt-le-Haut 80015;E2.9833;N49.9500;13;
3;France;Picardie;Somme;Albert 80016;E2.6500;N50.0000;13;
3;France;Picardie;Somme;Allaines 80017;E2.9500;N49.9500;13;
3;France;Picardie;Somme;Allenay 80018;E1.5000;N50.0833;13;
3;France;Picardie;Somme;Allery 80019;E1.9000;N49.9667;13;
3;France;Picardie;Somme;Allonville 80020;E2.3500;N49.9333;13;
3;France;Picardie;Somme;Amiens 80021;E2.3000;N49.9000;13;
3;France;Picardie;Somme;Andainville 80022;E1.7833;N49.9000;13;
3;France;Picardie;Somme;Andechy 80023;E2.7167;N49.7167;13;
3;France;Picardie;Somme;Argoeuves 80024;E2.2333;N49.9167;13;
3;France;Picardie;Somme;Argoules 80025;E1.8333;N50.3500;13;
3;France;Picardie;Somme;Arguel 80026;E1.8000;N49.8667;13;
3;France;Picardie;Somme;Armancourt 80027;E2.7122;N49.6785;13;
3;France;Picardie;Somme;Arquèves 80028;E2.4833;N50.0667;13;
3;France;Picardie;Somme;Arrest 80029;E1.6167;N50.1333;13;
3;France;Picardie;Somme;Arry 80030;E1.7167;N50.2833;13;
3;France;Picardie;Somme;Arvillers 80031;E2.6500;N49.7333;13;
3;France;Picardie;Somme;Assainvillers 80032;E2.6000;N49.6167;13;
3;France;Picardie;Somme;Assevillers 80033;E2.8333;N49.9000;13;
3;France;Picardie;Somme;Athies 80034;E2.9833;N49.8500;13;
3;France;Picardie;Somme;Aubercourt 80035;E2.5500;N49.8333;13;
3;France;Picardie;Somme;Aubigny 80036;E2.4833;N49.9000;13;
3;France;Picardie;Somme;Aubvillers 80037;E2.4833;N49.7167;13;
3;France;Picardie;Somme;Auchonvillers 80038;E2.6167;N50.0833;13;
3;France;Picardie;Somme;Ault 80039;E1.4500;N50.1000;13;
3;France;Picardie;Somme;Aumâtre 80040;E1.7833;N49.9167;13;
3;France;Picardie;Somme;Aumont 80041;E1.9167;N49.8833;13;
3;France;Picardie;Somme;Autheux 80042;E2.2333;N50.1333;13;
3;France;Picardie;Somme;Authie 80043;E2.5000;N50.1167;13;
3;France;Picardie;Somme;Authieule 80044;E2.3667;N50.1333;13;
3;France;Picardie;Somme;Authuille 80045;E2.6667;N50.0333;13;
3;France;Picardie;Somme;Avelesges 80046;E1.9167;N49.9167;13;
3;France;Picardie;Somme;Aveluy 80047;E2.6667;N50.0167;13;
3;France;Picardie;Somme;Avesnes-Chaussoy 80048;E1.8667;N49.9000;13;
3;France;Picardie;Somme;Ayencourt 80049;E2.5667;N49.6167;13;
3;France;Picardie;Somme;Bacouel-sur-Selle 80050;E2.2333;N49.8333;13;
3;France;Picardie;Somme;Bailleul 80051;E1.8500;N50.0333;13;
3;France;Picardie;Somme;Baizieux 80052;E2.5167;N50.0000;13;
3;France;Picardie;Somme;Balâtre 80053;E2.8667;N49.7167;13;
3;France;Picardie;Somme;Barleux 80054;E2.8833;N49.8833;13;
3;France;Picardie;Somme;Barly 80055;E2.2667;N50.2000;13;
3;France;Picardie;Somme;Bavelincourt 80056;E2.4500;N49.9833;13;
3;France;Picardie;Somme;Bayencourt 80057;E2.5833;N50.1167;13;
3;France;Picardie;Somme;Bayonvillers 80058;E2.6333;N49.8667;13;
3;France;Picardie;Somme;Bazentin 80059;E2.7667;N50.0333;13;
3;France;Picardie;Somme;Béalcourt 80060;E2.1833;N50.2000;13;
3;France;Picardie;Somme;Beaucamps-le-Jeune 80061;E1.7667;N49.8167;13;
3;France;Picardie;Somme;Beaucamps-le-Vieux 80062;E1.7833;N49.8333;13;
3;France;Picardie;Somme;Beauchamps 80063;E1.5167;N50.0167;13;
3;France;Picardie;Somme;Beaucourt-en-Santerre 80064;E2.5833;N49.7833;13;
3;France;Picardie;Somme;Beaucourt-sur-l'Ancre 80065;E2.6667;N50.0833;13;
3;France;Picardie;Somme;Beaucourt-sur-l'Hallue 80066;E2.4500;N49.9833;13;
3;France;Picardie;Somme;Beaufort-en-Santerre 80067;E2.6667;N49.7667;13;
3;France;Picardie;Somme;Beaumetz 80068;E2.1167;N50.1333;13;
3;France;Picardie;Somme;Beaumont-Hamel 80069;E2.6500;N50.0833;13;
3;France;Picardie;Somme;Beauquesne 80070;E2.4000;N50.0833;13;
3;France;Picardie;Somme;Beauval 80071;E2.3333;N50.1000;13;
3;France;Picardie;Somme;Beauvoir-Rivière 80072=62881;E2.1767;N50.2149;13;
3;France;Picardie;Somme;Bécordel-Bécourt 80073;E2.6833;N49.9833;13;
3;France;Picardie;Somme;Becquigny 80074;E2.6167;N49.7000;13;
3;France;Picardie;Somme;Becquincourt 80075=80247;E2.8152;N49.9098;13;
3;France;Picardie;Somme;Béhen 80076;E1.7500;N50.0500;13;
3;France;Picardie;Somme;Béhencourt 80077;E2.4333;N49.9667;13;
3;France;Picardie;Somme;Bellancourt 80078;E1.9167;N50.0833;13;
3;France;Picardie;Somme;Belleuse 80079;E2.1167;N49.7000;13;
3;France;Picardie;Somme;Belloy-en-Santerre 80080;E2.8500;N49.8833;13;
3;France;Picardie;Somme;Belloy-Saint-Léonard 80081;E1.9000;N49.9083;13;
3;France;Picardie;Somme;Belloy-sur-Somme 80082;E2.1352;N49.9666;13;
3;France;Picardie;Somme;Bergicourt 80083;E2.0167;N49.7500;13;
3;France;Picardie;Somme;Bermesnil 80084;E1.7369;N49.8970;13;
3;France;Picardie;Somme;Bernâtre 80085;E2.0833;N50.1833;13;
3;France;Picardie;Somme;Bernaville 80086;E2.1667;N50.1333;13;
3;France;Picardie;Somme;Bernay-en-Ponthieu 80087;E1.7500;N50.2667;13;
3;France;Picardie;Somme;Bernes 80088;E3.0833;N49.9000;13;
3;France;Picardie;Somme;Berneuil 80089;E2.1667;N50.1000;13;
3;France;Picardie;Somme;Berny-en-Santerre 80090;E2.8500;N49.8667;13;
3;France;Picardie;Somme;Berny-sur-Noye 80091=80010;E2.3493;N49.7457;13;
3;France;Picardie;Somme;Bertangles 80092;E2.2833;N49.9667;13;
3;France;Picardie;Somme;Berteaucourt-les-Dames 80093;E2.1667;N50.0500;13;
3;France;Picardie;Somme;Berteaucourt-lès-Thennes 80094;E2.4667;N49.8167;13;
3;France;Picardie;Somme;Bertrancourt 80095;E2.5500;N50.0833;13;
3;France;Picardie;Somme;Béthencourt-sur-Mer 80096;E1.5000;N50.0833;13;
3;France;Picardie;Somme;Béthencourt-sur-Somme 80097;E2.9667;N49.8000;13;
3;France;Picardie;Somme;Bettembos 80098;E1.8833;N49.8000;13;
3;France;Picardie;Somme;Bettencourt-Rivière 80099;E1.9667;N49.9833;13;
3;France;Picardie;Somme;Bettencourt-Saint-Ouen 80100;E2.1167;N50.0167;13;
3;France;Picardie;Somme;Beuvraignes 80101;E2.7667;N49.6500;13;
3;France;Picardie;Somme;Biaches 80102;E2.9167;N49.9167;13;
3;France;Picardie;Somme;Biarre 80103;E2.8667;N49.7167;13;
3;France;Picardie;Somme;Biencourt 80104;E1.7000;N49.9667;13;
3;France;Picardie;Somme;Billancourt 80105;E2.8833;N49.7167;13;
3;France;Picardie;Somme;Blangy-sous-Poix 80106;E2.0000;N49.7667;13;
3;France;Picardie;Somme;Blangy-Tronville 80107;E2.4167;N49.8833;13;
3;France;Picardie;Somme;Boisbergues 80108;E2.2333;N50.1500;13;
3;France;Picardie;Somme;Boismont 80110;E1.6833;N50.1500;13;
3;France;Picardie;Somme;Boisrault 80111=80443;E1.8833;N49.8500;13;
3;France;Picardie;Somme;Bonnay 80112;E2.5167;N49.9333;13;
3;France;Picardie;Somme;Bonneville 80113;E2.2500;N50.0833;13;
3;France;Picardie;Somme;Bosquel 80114;E2.2185;N49.7396;13;
3;France;Picardie;Somme;Bouchavesnes-Bergen 80115;E2.9167;N49.9833;13;
3;France;Picardie;Somme;Bouchoir 80116;E2.6833;N49.7500;13;
3;France;Picardie;Somme;Bouchon 80117;E2.0283;N50.0353;13;
3;France;Picardie;Somme;Boufflers 80118;E2.0167;N50.2667;13;
3;France;Picardie;Somme;Bougainville 80119;E2.0333;N49.8667;13;
3;France;Picardie;Somme;Bouillancourt-en-Séry 80120;E1.6333;N49.9667;13;
3;France;Picardie;Somme;Bouillancourt-la-Bataille 80121;E2.5333;N49.7000;13;
3;France;Picardie;Somme;Bouquemaison 80122;E2.3333;N50.2167;13;
3;France;Picardie;Somme;Bourdon 80123;E2.0667;N49.9833;13;
3;France;Picardie;Somme;Bourseville 80124;E1.5333;N50.1000;13;
3;France;Picardie;Somme;Boussicourt 80125;E2.5833;N49.7000;13;
3;France;Picardie;Somme;Bouttencourt 80126;E1.6333;N49.9333;13;
3;France;Picardie;Somme;Bouvaincourt-sur-Bresle 80127;E1.5000;N50.0333;13;
3;France;Picardie;Somme;Bouvincourt-en-Vermandois 80128;E3.0500;N49.8833;13;
3;France;Picardie;Somme;Bouzincourt 80129;E2.6167;N50.0167;13;
3;France;Picardie;Somme;Bovelles 80130;E2.1333;N49.8833;13;
3;France;Picardie;Somme;Boves 80131;E2.3833;N49.8500;13;
3;France;Picardie;Somme;Braches 80132;E2.5167;N49.7333;13;
3;France;Picardie;Somme;Brailly-Cornehotte 80133;E1.9667;N50.2167;13;
3;France;Picardie;Somme;Brassy 80134;E2.0500;N49.7333;13;
3;France;Picardie;Somme;Bray-lès-Mareuil 80135;E1.8500;N50.0500;13;
3;France;Picardie;Somme;Bray-sur-Somme 80136;E2.7167;N49.9333;13;
3;France;Picardie;Somme;Breilly 80137;E2.1833;N49.9333;13;
3;France;Picardie;Somme;Bresle 80138;E2.5667;N49.9833;13;
3;France;Picardie;Somme;Breuil 80139;E2.9500;N49.7167;13;
3;France;Picardie;Somme;Brévillers 80140;E2.3833;N50.2167;13;
3;France;Picardie;Somme;Brie 80141;E2.9306;N49.8767;13;
3;France;Picardie;Somme;Briquemesnil-Floxicourt 80142;E2.0833;N49.8667;13;
3;France;Picardie;Somme;Brocourt 80143;E1.8333;N49.8500;13;
3;France;Picardie;Somme;Brouchy 80144;E3.1000;N49.7167;13;
3;France;Picardie;Somme;Brucamps 80145;E2.0500;N50.0667;13;
3;France;Picardie;Somme;Brutelles 80146;E1.5167;N50.1333;13;
3;France;Picardie;Somme;Buigny-l'Abbé 80147;E1.9333;N50.0833;13;
3;France;Picardie;Somme;Buigny-lès-Gamaches 80148;E1.5667;N50.0167;13;
3;France;Picardie;Somme;Buigny-Saint-Maclou 80149;E1.8167;N50.1500;13;
3;France;Picardie;Somme;Buire-Courcelles 80150;E3.0167;N49.9333;13;
3;France;Picardie;Somme;Buire-sur-l'Ancre 80151;E2.5833;N49.9667;13;
3;France;Picardie;Somme;Bus-la-Mésière 80152;E2.7167;N49.6333;13;
3;France;Picardie;Somme;Bus-lès-Artois 80153;E2.5425;N50.1037;13;
3;France;Picardie;Somme;Bussu 80154;E2.9667;N49.9333;13;
3;France;Picardie;Somme;Bussus-Bussuel 80155;E2.0000;N50.1000;13;
3;France;Picardie;Somme;Bussy-lès-Daours 80156;E2.4333;N49.9167;13;
3;France;Picardie;Somme;Bussy-lès-Poix 80157;E2.0167;N49.8167;13;
3;France;Picardie;Somme;Buverchy 80158;E2.9667;N49.7167;13;
3;France;Picardie;Somme;Cachy 80159;E2.4833;N49.8500;13;
3;France;Picardie;Somme;Cagny 80160;E2.3500;N49.8667;13;
3;France;Picardie;Somme;Cahon 80161;E1.7167;N50.1167;13;
3;France;Picardie;Somme;Caix 80162;E2.6500;N49.8167;13;
3;France;Picardie;Somme;Cambron 80163;E1.7667;N50.1167;13;
3;France;Picardie;Somme;Camon 80164;E2.3500;N49.8833;13;
3;France;Picardie;Somme;Camps-en-Amiénois 80165;E1.9667;N49.8667;13;
3;France;Picardie;Somme;Canaples 80166;E2.2167;N50.0500;13;
3;France;Picardie;Somme;Canchy 80167;E1.8833;N50.1833;13;
3;France;Picardie;Somme;Candas 80168;E2.2500;N50.1000;13;
3;France;Picardie;Somme;Cannessières 80169;E1.7667;N49.9333;13;
3;France;Picardie;Somme;Cantigny 80170;E2.5000;N49.6667;13;
3;France;Picardie;Somme;Caours 80171;E1.8833;N50.1333;13;
3;France;Picardie;Somme;Cappy 80172;E2.7500;N49.9167;13;
3;France;Picardie;Somme;Cardonnette 80173;E2.3500;N49.9500;13;
3;France;Picardie;Somme;Carnoy 80175;E2.7500;N49.9833;13;
3;France;Picardie;Somme;Carrépuis 80176;E2.8333;N49.7000;13;
3;France;Picardie;Somme;Cartigny 80177;E3.0167;N49.9167;13;
3;France;Picardie;Somme;Castel 80178=80570;E2.4529;N49.7912;13;
3;France;Picardie;Somme;Caulières 80179;E1.9000;N49.7833;13;
3;France;Picardie;Somme;Cavillon 80180;E2.0833;N49.9167;13;
3;France;Picardie;Somme;Cayeux-en-Santerre 80181;E2.6000;N49.8167;13;
3;France;Picardie;Somme;Cayeux-sur-Mer 80182;E1.4833;N50.1833;13;
3;France;Picardie;Somme;Cerisy 80184;E2.6389;N49.9057;13;
3;France;Picardie;Somme;Cerisy-Buleux 80183;E1.7333;N49.9833;13;
3;France;Picardie;Somme;Champien 80185;E2.8500;N49.6833;13;
3;France;Picardie;Somme;Chaulnes 80186;E2.8000;N49.8167;13;
3;France;Picardie;Somme;Chaussoy-Epagny 80188;E2.3333;N49.7333;13;
3;France;Picardie;Somme;Chépy 80190;E1.6500;N50.0667;13;
3;France;Picardie;Somme;Chilly 80191;E2.7667;N49.7833;13;
3;France;Picardie;Somme;Chipilly 80192;E2.6500;N49.9167;13;
3;France;Picardie;Somme;Chirmont 80193;E2.4000;N49.7000;13;
3;France;Picardie;Somme;Chuignes 80194;E2.7500;N49.9000;13;
3;France;Picardie;Somme;Chuignolles 80195;E2.7333;N49.9000;13;
3;France;Picardie;Somme;Citerne 80196;E1.8333;N49.9833;13;
3;France;Picardie;Somme;Cizancourt 80197;E2.9167;N49.8333;13;
3;France;Picardie;Somme;Clairy-Saulchoix 80198;E2.1667;N49.8500;13;
3;France;Picardie;Somme;Cléry-sur-Somme 80199;E2.8833;N49.9500;13;
3;France;Picardie;Somme;Cocquerel 80200;E1.9500;N50.0333;13;
3;France;Picardie;Somme;Coigneux 80201;E2.5500;N50.1167;13;
3;France;Picardie;Somme;Coisy 80202;E2.3333;N49.9500;13;
3;France;Picardie;Somme;Colincamps 80203;E2.6000;N50.1000;13;
3;France;Picardie;Somme;Combles 80204;E2.8667;N50.0167;13;
3;France;Picardie;Somme;Condé-Folie 80205;E2.0167;N50.0167;13;
3;France;Picardie;Somme;Contalmaison 80206;E2.7333;N50.0167;13;
3;France;Picardie;Somme;Contay 80207;E2.4833;N50.0000;13;
3;France;Picardie;Somme;Conteville 80208;E2.0750;N50.1750;13;
3;France;Picardie;Somme;Contoire 80209;E2.5500;N49.7167;13;
3;France;Picardie;Somme;Contre 80210;E2.1000;N49.7500;13;
3;France;Picardie;Somme;Conty 80211;E2.1500;N49.7333;13;
3;France;Picardie;Somme;Corbie 80212;E2.5000;N49.9167;13;
3;France;Picardie;Somme;Cottenchy 80213;E2.3833;N49.8000;13;
3;France;Picardie;Somme;Coullemelle 80214;E2.4333;N49.6667;13;
3;France;Picardie;Somme;Coulonvillers 80215;E2.0000;N50.1333;13;
3;France;Picardie;Somme;Courcelette 80216;E2.7500;N50.0667;13;
3;France;Picardie;Somme;Courcelles-au-Bois 80217;E2.5833;N50.1000;13;
3;France;Picardie;Somme;Courcelles-sous-Moyencourt 80218;E2.0447;N49.8128;13;
3;France;Picardie;Somme;Courcelles-sous-Thoix 80219;E2.0833;N49.7167;13;
3;France;Picardie;Somme;Courtemanche 80220;E2.5333;N49.6667;13;
3;France;Picardie;Somme;Cramont 80221;E2.0500;N50.1500;13;
3;France;Picardie;Somme;Crécy-en-Ponthieu 80222;E1.8833;N50.2500;13;
3;France;Picardie;Somme;Crémery 80223;E2.8333;N49.7500;13;
3;France;Picardie;Somme;Cressy-Omencourt 80224;E2.9167;N49.7167;13;
3;France;Picardie;Somme;Creuse 80225;E2.1667;N49.8333;13;
3;France;Picardie;Somme;Croix-Moligneaux 80226;E2.9833;N49.8000;13;
3;France;Picardie;Somme;Croixrault 80227;E1.9833;N49.7833;13;
3;France;Picardie;Somme;Crouy-Saint-Pierre 80229;E2.0875;N49.9697;13;
3;France;Picardie;Somme;Curchy 80230;E2.8667;N49.7667;13;
3;France;Picardie;Somme;Curlu 80231;E2.8167;N49.9667;13;
3;France;Picardie;Somme;Damery 80232;E2.7500;N49.7333;13;
3;France;Picardie;Somme;Dancourt-Popincourt 80233;E2.7296;N49.6676;13;
3;France;Picardie;Somme;Daours 80234;E2.4500;N49.9000;13;
3;France;Picardie;Somme;Dargnies 80235;E1.5333;N50.0500;13;
3;France;Picardie;Somme;Davenescourt 80236;E2.6000;N49.7000;13;
3;France;Picardie;Somme;Démuin 80237;E2.5500;N49.8167;13;
3;France;Picardie;Somme;Dernancourt 80238;E2.6333;N49.9667;13;
3;France;Picardie;Somme;Devise 80239;E3.0000;N49.8667;13;
3;France;Picardie;Somme;Doingt 80240;E2.9667;N49.9167;13;
3;France;Picardie;Somme;Domart-en-Ponthieu 80241;E2.1167;N50.0667;13;
3;France;Picardie;Somme;Domart-sur-la-Luce 80242;E2.4833;N49.8167;13;
3;France;Picardie;Somme;Domesmont 80243;E2.1333;N50.1167;13;
3;France;Picardie;Somme;Dominois 80244;E1.8500;N50.3333;13;
3;France;Picardie;Somme;Domléger-Longvillers 80245;E2.0833;N50.1667;13;
3;France;Picardie;Somme;Dommartin 80246;E2.4000;N49.7833;13;
3;France;Picardie;Somme;Dompierre-Becquincourt 80247;E2.8077;N49.9059;13;
3;France;Picardie;Somme;Dompierre-sur-Authie 80248;E1.9167;N50.3000;13;
3;France;Picardie;Somme;Domqueur 80249;E2.0500;N50.1167;13;
3;France;Picardie;Somme;Domvast 80250;E1.9167;N50.2000;13;
3;France;Picardie;Somme;Doudelainville 80251;E1.7667;N50.0000;13;
3;France;Picardie;Somme;Douilly 80252;E3.0500;N49.7667;13;
3;France;Picardie;Somme;Doullens 80253;E2.3500;N50.1500;13;
3;France;Picardie;Somme;Dreslincourt 80254=80230;E2.8786;N49.7895;13;
3;France;Picardie;Somme;Dreuil-Hamel 80255=80013;E1.9333;N49.9667;13;
3;France;Picardie;Somme;Dreuil-lès-Amiens 80256;E2.2333;N49.9167;13;
3;France;Picardie;Somme;Dreuil-lès-Molliens 80257=80554;E2.0333;N49.9000;13;
3;France;Picardie;Somme;Driencourt 80258;E3.0000;N49.9500;13;
3;France;Picardie;Somme;Dromesnil 80259;E1.8667;N49.8833;13;
3;France;Picardie;Somme;Drucat 80260;E1.8667;N50.1500;13;
3;France;Picardie;Somme;Dury 80261;E2.2667;N49.8500;13;
3;France;Picardie;Somme;Eaucourt-sur-Somme 80262;E1.8833;N50.0667;13;
3;France;Picardie;Somme;Éclusier-Vaux 80264;E2.7833;N49.9333;13;
3;France;Picardie;Somme;Embreville 80265;E1.5500;N50.0333;13;
3;France;Picardie;Somme;Englebelmer 80266;E2.6000;N50.0500;13;
3;France;Picardie;Somme;Ennemain 80267;E2.9500;N49.8333;13;
3;France;Picardie;Somme;Épagne-Épagnette 80268;E1.8667;N50.0667;13;
3;France;Picardie;Somme;Épaumesnil 80269;E1.8500;N49.9167;13;
3;France;Picardie;Somme;Épécamps 80270;E2.1500;N50.1167;13;
3;France;Picardie;Somme;Épehy 80271;E3.1333;N50.0000;13;
3;France;Picardie;Somme;Épénancourt 80272;E2.9167;N49.8000;13;
3;France;Picardie;Somme;Éplessier 80273;E1.9500;N49.7833;13;
3;France;Picardie;Somme;Eppeville 80274;E3.0500;N49.7333;13;
3;France;Picardie;Somme;Équancourt 80275;E3.0167;N50.0333;13;
3;France;Picardie;Somme;Équennes-Éramecourt 80276;E1.9602;N49.7332;13;
3;France;Picardie;Somme;Éramecourt 80277=80276;E1.9667;N49.7333;13;
3;France;Picardie;Somme;Erches 80278;E2.6703;N49.7230;13;
3;France;Picardie;Somme;Ercheu 80279;E2.9333;N49.7000;13;
3;France;Picardie;Somme;Ercourt 80280;E1.7167;N50.0500;13;
3;France;Picardie;Somme;Ergnies 80281;E2.0333;N50.0833;13;
3;France;Picardie;Somme;Érondelle 80282;E1.8833;N50.0500;13;
3;France;Picardie;Somme;Esclainvillers 80283;E2.4000;N49.6833;13;
3;France;Picardie;Somme;Esmery-Hallon 80284;E3.0167;N49.7167;13;
3;France;Picardie;Somme;Essertaux 80285;E2.2500;N49.7500;13;
3;France;Picardie;Somme;Estouilly 80286=80410;E3.0841;N49.7520;13;
3;France;Picardie;Somme;Estréboeuf 80287;E1.6167;N50.1500;13;
3;France;Picardie;Somme;Estrées-Deniécourt 80288;E2.8167;N49.8833;13;
3;France;Picardie;Somme;Estrées-en-Chaussée 80289=80557;E3.0333;N49.8833;13;
3;France;Picardie;Somme;Estrées-lès-Crécy 80290;E1.9167;N50.2500;13;
3;France;Picardie;Somme;Estrées-Mons 80557;E3.0376;N49.8781;13;
3;France;Picardie;Somme;Estrées-sur-Noye 80291;E2.3333;N49.7833;13;
3;France;Picardie;Somme;Étalon 80292;E2.8500;N49.7667;13;
3;France;Picardie;Somme;Ételfay 80293;E2.6167;N49.6667;13;
3;France;Picardie;Somme;Éterpigny 80294;E2.9167;N49.8833;13;
3;France;Picardie;Somme;Étinehem 80295;E2.6833;N49.9333;13;
3;France;Picardie;Somme;Étréjust 80297;E1.8833;N49.9167;13;
3;France;Picardie;Somme;Étricourt-Manancourt 80298;E2.9833;N50.0333;13;
3;France;Picardie;Somme;Falvy 80300;E2.9500;N49.8000;13;
3;France;Picardie;Somme;Famechon 80301;E2.0500;N49.7500;13;
3;France;Picardie;Somme;Faverolles 80302;E2.6198;N49.6475;13;
3;France;Picardie;Somme;Favières 80303;E1.6667;N50.2333;13;
3;France;Picardie;Somme;Fay 80304;E2.8000;N49.8833;13;
3;France;Picardie;Somme;Ferrières 80305;E2.1833;N49.9000;13;
3;France;Picardie;Somme;Fescamps 80306;E2.6833;N49.6333;13;
3;France;Picardie;Somme;Feuillères 80307;E2.8500;N49.9500;13;
3;France;Picardie;Somme;Feuquières-en-Vimeu 80308;E1.6000;N50.0667;13;
3;France;Picardie;Somme;Fieffes 80309=80566;E2.2333;N50.0833;13;
3;France;Picardie;Somme;Fieffes-Montrelet 80566;E2.2271;N50.0786;13;
3;France;Picardie;Somme;Fienvillers 80310;E2.2333;N50.1167;13;
3;France;Picardie;Somme;Fignières 80311;E2.5833;N49.6833;13;
3;France;Picardie;Somme;Fins 80312;E3.0500;N50.0333;13;
3;France;Picardie;Somme;Flaucourt 80313;E2.8667;N49.9167;13;
3;France;Picardie;Somme;Flers 80314;E2.8167;N50.0500;13;
3;France;Picardie;Somme;Flers-sur-Noye 80315;E2.2500;N49.7333;13;
3;France;Picardie;Somme;Flesselles 80316;E2.2500;N50.0000;13;
3;France;Picardie;Somme;Fleury 80317;E2.1167;N49.7500;13;
3;France;Picardie;Somme;Flixecourt 80318;E2.0833;N50.0167;13;
3;France;Picardie;Somme;Fluy 80319;E2.1000;N49.8500;13;
3;France;Picardie;Somme;Folies 80320;E2.6667;N49.7500;13;
3;France;Picardie;Somme;Folleville 80321;E2.3667;N49.6833;13;
3;France;Picardie;Somme;Fonches-Fonchette 80322;E2.8163;N49.7754;13;
3;France;Picardie;Somme;Fonchette 80323=80322;E2.8249;N49.7799;13;
3;France;Picardie;Somme;Fontaine-le-Sec 80324;E1.8000;N49.9500;13;
3;France;Picardie;Somme;Fontaine-lès-Cappy 80325;E2.7833;N49.9000;13;
3;France;Picardie;Somme;Fontaine-sous-Montdidier 80326;E2.5167;N49.6500;13;
3;France;Picardie;Somme;Fontaine-sur-Maye 80327;E1.9333;N50.2333;13;
3;France;Picardie;Somme;Fontaine-sur-Somme 80328;E1.9333;N50.0333;13;
3;France;Picardie;Somme;Forceville 80329;E2.5667;N50.0500;13;
3;France;Picardie;Somme;Forceville-en-Vimeu 80330;E1.8000;N49.9667;13;
3;France;Picardie;Somme;Forest-l'Abbaye 80331;E1.8167;N50.2000;13;
3;France;Picardie;Somme;Forest-Montiers 80332;E1.7500;N50.2500;13;
3;France;Picardie;Somme;Fort-Mahon-Plage 80333;E1.5697;N50.3419;13;
3;France;Picardie;Somme;Fossemanant 80334;E2.2000;N49.8000;13;
3;France;Picardie;Somme;Foucaucourt-en-Santerre 80335;E2.7755;N49.8744;13;
3;France;Picardie;Somme;Foucaucourt-Hors-Nesle 80336;E1.7333;N49.9167;13;
3;France;Picardie;Somme;Fouencamps 80337;E2.4167;N49.8333;13;
3;France;Picardie;Somme;Fouilloy 80338;E2.5000;N49.9000;13;
3;France;Picardie;Somme;Fouquescourt 80339;E2.7500;N49.7667;13;
3;France;Picardie;Somme;Fourcigny 80340;E1.8333;N49.7667;13;
3;France;Picardie;Somme;Fourdrinoy 80341;E2.1000;N49.9000;13;
3;France;Picardie;Somme;Framerville-Rainecourt 80342;E2.7138;N49.8602;13;
3;France;Picardie;Somme;Framicourt 80343;E1.6833;N49.9500;13;
3;France;Picardie;Somme;Francières 80344;E1.9333;N50.0667;13;
3;France;Picardie;Somme;Franleu 80345;E1.6500;N50.1000;13;
3;France;Picardie;Somme;Franqueville 80346;E2.0833;N50.0833;13;
3;France;Picardie;Somme;Fransart 80347;E2.7667;N49.7667;13;
3;France;Picardie;Somme;Fransu 80348;E2.0833;N50.1000;13;
3;France;Picardie;Somme;Fransures 80349;E2.2333;N49.7000;13;
3;France;Picardie;Somme;Franvillers 80350;E2.5000;N49.9667;13;
3;France;Picardie;Somme;Fréchencourt 80351;E2.4333;N49.9500;13;
3;France;Picardie;Somme;Frémontiers 80352;E2.0667;N49.7500;13;
3;France;Picardie;Somme;Fresnes-Mazancourt 80353;E2.8667;N49.8500;13;
3;France;Picardie;Somme;Fresnes-Tilloloy 80354;E1.7667;N49.9833;13;
3;France;Picardie;Somme;Fresneville 80355;E1.8333;N49.8833;13;
3;France;Picardie;Somme;Fresnoy-Andainville 80356;E1.8000;N49.9167;13;
3;France;Picardie;Somme;Fresnoy-au-Val 80357;E2.0500;N49.8333;13;
3;France;Picardie;Somme;Fresnoy-en-Chaussée 80358;E2.5833;N49.7667;13;
3;France;Picardie;Somme;Fresnoy-lès-Roye 80359;E2.7833;N49.7333;13;
3;France;Picardie;Somme;Fressenneville 80360;E1.5667;N50.0667;13;
3;France;Picardie;Somme;Frettecuisse 80361;E1.8167;N49.9167;13;
3;France;Picardie;Somme;Frettemeule 80362;E1.6419;N50.0117;13;
3;France;Picardie;Somme;Frettemolle 80363=80436;E1.8667;N49.7500;13;
3;France;Picardie;Somme;Friaucourt 80364;E1.4833;N50.0833;13;
3;France;Picardie;Somme;Fricamps 80365;E2.0000;N49.8167;13;
3;France;Picardie;Somme;Fricourt 80366;E2.7167;N50.0000;13;
3;France;Picardie;Somme;Frise 80367;E2.8167;N49.9333;13;
3;France;Picardie;Somme;Friville-Escarbotin 80368;E1.5500;N50.0833;13;
3;France;Picardie;Somme;Frohen-le-Grand 80369;E2.2000;N50.2000;13;
3;France;Picardie;Somme;Frohen-le-Petit 80370;E2.2000;N50.1833;13;
3;France;Picardie;Somme;Froyelles 80371;E1.9333;N50.2333;13;
3;France;Picardie;Somme;Frucourt 80372;E1.8167;N50.0000;13;
3;France;Picardie;Somme;Gamaches 80373;E1.5500;N49.9833;13;
3;France;Picardie;Somme;Gapennes 80374;E1.9500;N50.1833;13;
3;France;Picardie;Somme;Gauville 80375;E1.7833;N49.7833;13;
3;France;Picardie;Somme;Gentelles 80376;E2.4500;N49.8500;13;
3;France;Picardie;Somme;Gézaincourt 80377;E2.3167;N50.1500;13;
3;France;Picardie;Somme;Ginchy 80378;E2.8333;N50.0333;13;
3;France;Picardie;Somme;Glisy 80379;E2.4000;N49.8667;13;
3;France;Picardie;Somme;Gorenflos 80380;E2.0333;N50.0833;13;
3;France;Picardie;Somme;Gorges 80381;E2.1667;N50.1167;13;
3;France;Picardie;Somme;Gouy-l'Hôpital 80382=80443;E1.9500;N49.8333;13;
3;France;Picardie;Somme;Goyencourt 80383;E2.7667;N49.7167;13;
3;France;Picardie;Somme;Grand-Laviers 80385;E1.7833;N50.1333;13;
3;France;Picardie;Somme;Grandcourt 80384;E2.7167;N50.0833;13;
3;France;Picardie;Somme;Gratibus 80386;E2.5500;N49.6833;13;
3;France;Picardie;Somme;Grattepanche 80387;E2.2833;N49.7833;13;
3;France;Picardie;Somme;Grébault-Mesnil 80388;E1.7167;N50.0333;13;
3;France;Picardie;Somme;Grécourt 80389;E2.9833;N49.7167;13;
3;France;Picardie;Somme;Grivesnes 80390;E2.4833;N49.6833;13;
3;France;Picardie;Somme;Grivillers 80391;E2.7333;N49.6500;13;
3;France;Picardie;Somme;Grouches-Luchuel 80392;E2.3833;N50.1833;13;
3;France;Picardie;Somme;Gruny 80393;E2.8333;N49.7333;13;
3;France;Picardie;Somme;Guémicourt 80394=80703;E1.7500;N49.8167;13;
3;France;Picardie;Somme;Guerbigny 80395;E2.6667;N49.7000;13;
3;France;Picardie;Somme;Gueschart 80396;E2.0000;N50.2333;13;
3;France;Picardie;Somme;Gueudecourt 80397;E2.8333;N50.0500;13;
3;France;Picardie;Somme;Guibermesnil 80398=80456;E1.8500;N49.8500;13;
3;France;Picardie;Somme;Guignemicourt 80399;E2.1667;N49.8667;13;
3;France;Picardie;Somme;Guillaucourt 80400;E2.6333;N49.8500;13;
3;France;Picardie;Somme;Guillemont 80401;E2.8333;N50.0167;13;
3;France;Picardie;Somme;Guizancourt 80402;E2.0000;N49.7333;13;
3;France;Picardie;Somme;Guyencourt-Saulcourt 80404;E3.0833;N50.0000;13;
3;France;Picardie;Somme;Guyencourt-sur-Noye 80403;E2.3667;N49.7833;13;
3;France;Picardie;Somme;Hailles 80405;E2.4333;N49.8000;13;
3;France;Picardie;Somme;Hallencourt 80406;E1.8833;N49.9833;13;
3;France;Picardie;Somme;Hallivillers 80407;E2.2872;N49.7016;13;
3;France;Picardie;Somme;Halloy-lès-Pernois 80408;E2.2000;N50.0500;13;
3;France;Picardie;Somme;Hallu 80409;E2.8000;N49.7833;13;
3;France;Picardie;Somme;Ham 80410;E3.0667;N49.7500;13;
3;France;Picardie;Somme;Hamelet 80412;E2.5333;N49.9000;13;
3;France;Picardie;Somme;Hancourt 80413;E3.0667;N49.9000;13;
3;France;Picardie;Somme;Hangard 80414;E2.5167;N49.8167;13;
3;France;Picardie;Somme;Hangest-en-Santerre 80415;E2.6000;N49.7500;13;
3;France;Picardie;Somme;Hangest-sur-Somme 80416;E2.0667;N49.9833;13;
3;France;Picardie;Somme;Harbonnières 80417;E2.6667;N49.8500;13;
3;France;Picardie;Somme;Hardecourt-aux-Bois 80418;E2.8167;N49.9833;13;
3;France;Picardie;Somme;Hargicourt 80419;E2.5333;N49.7167;13;
3;France;Picardie;Somme;Harponville 80420;E2.5167;N50.0333;13;
3;France;Picardie;Somme;Hattencourt 80421;E2.7833;N49.7667;13;
3;France;Picardie;Somme;Hautvillers-Ouville 80422;E1.8167;N50.1667;13;
3;France;Picardie;Somme;Havernas 80423;E2.2333;N50.0333;13;
3;France;Picardie;Somme;Hébécourt 80424;E2.2500;N49.8000;13;
3;France;Picardie;Somme;Hédauville 80425;E2.5667;N50.0500;13;
3;France;Picardie;Somme;Heilly 80426;E2.5333;N49.9500;13;
3;France;Picardie;Somme;Hem-Hardinval 80427;E2.3000;N50.1667;13;
3;France;Picardie;Somme;Hem-Monacu 80428;E2.8333;N49.9667;13;
3;France;Picardie;Somme;Hénencourt 80429;E2.5667;N50.0000;13;
3;France;Picardie;Somme;Herbécourt 80430;E2.8500;N49.9167;13;
3;France;Picardie;Somme;Hérissart 80431;E2.4167;N50.0167;13;
3;France;Picardie;Somme;Herleville 80432;E2.7500;N49.8500;13;
3;France;Picardie;Somme;Herly 80433;E2.8833;N49.7500;13;
3;France;Picardie;Somme;Hervilly 80434;E3.1167;N49.9333;13;
3;France;Picardie;Somme;Hesbécourt 80435;E3.1333;N49.9333;13;
3;France;Picardie;Somme;Hescamps 80436;E1.8702;N49.7285;13;
3;France;Picardie;Somme;Heucourt-Croquoison 80437;E1.8500;N49.9333;13;
3;France;Picardie;Somme;Heudicourt 80438;E3.0833;N50.0167;13;
3;France;Picardie;Somme;Heuzecourt 80439;E2.1667;N50.1667;13;
3;France;Picardie;Somme;Hiermont 80440;E2.0833;N50.2000;13;
3;France;Picardie;Somme;Hocquincourt 80441=80406;E1.8500;N50.0000;13;
3;France;Picardie;Somme;Hombleux 80442;E2.9833;N49.7333;13;
3;France;Picardie;Somme;Hornoy-le-Bourg 80443;E1.9023;N49.8466;13;
3;France;Picardie;Somme;Huchenneville 80444;E1.8000;N50.0500;13;
3;France;Picardie;Somme;Humbercourt 80445;E2.4667;N50.2000;13;
3;France;Picardie;Somme;Huppy 80446;E1.7667;N50.0167;13;
3;France;Picardie;Somme;Hyencourt-le-Grand 80447;E2.8333;N49.8167;13;
3;France;Picardie;Somme;Hyencourt-le-Petit 80448=80608;E2.8481;N49.7946;13;
3;France;Picardie;Somme;Ignaucourt 80449;E2.5667;N49.8333;13;
3;France;Picardie;Somme;Inval-Boiron 80450;E1.7500;N49.8833;13;
3;France;Picardie;Somme;Irles 80451;E2.7500;N50.1000;13;
3;France;Picardie;Somme;Jumel 80452;E2.3500;N49.7500;13;
3;France;Picardie;Somme;L'Échelle-Saint-Aurin 80263;E2.7167;N49.7000;13;
3;France;Picardie;Somme;L'Étoile 80296;E2.0333;N50.0333;13;
3;France;Picardie;Somme;La Chaussée-Tirancourt 80187;E2.1500;N49.9500;13;
3;France;Picardie;Somme;La Chavatte 80189;E2.7667;N49.7500;13;
3;France;Picardie;Somme;La Faloise 80299;E2.3500;N49.7000;13;
3;France;Picardie;Somme;La Neuville-lès-Bray 80593;E2.7167;N49.9333;13;
3;France;Picardie;Somme;La Neuville-Sire-Bernard 80595;E2.5152;N49.7422;13;
3;France;Picardie;Somme;La Vicogne 80792;E2.3167;N50.0500;13;
3;France;Picardie;Somme;Laboissière-en-Santerre 80453;E2.6833;N49.6667;13;
3;France;Picardie;Somme;Laboissière-Saint-Martin 80454=80456;E1.8167;N49.8333;13;
3;France;Picardie;Somme;Lachapelle 80455;E1.9562;N49.7660;13;
3;France;Picardie;Somme;Lafresguimont-Saint-Martin 80456;E1.8026;N49.8180;13;
3;France;Picardie;Somme;Lahaye-Saint-Romain 80457=80630;E1.9833;N49.7167;13;
3;France;Picardie;Somme;Lahoussoye 80458;E2.4833;N49.9500;13;
3;France;Picardie;Somme;Laleu 80459;E1.9333;N49.9333;13;
3;France;Picardie;Somme;Lamaronde 80460;E1.9000;N49.8000;13;
3;France;Picardie;Somme;Lamotte-Brebière 80461;E2.3878;N49.8860;13;
3;France;Picardie;Somme;Lamotte-Buleux 80462;E1.8318;N50.1891;13;
3;France;Picardie;Somme;Lamotte-Warfusée 80463;E2.5896;N49.8715;13;
3;France;Picardie;Somme;Lanchères 80464;E1.5500;N50.1667;13;
3;France;Picardie;Somme;Lanches-Saint-Hilaire 80466;E2.1333;N50.1000;13;
3;France;Picardie;Somme;Languevoisin-Quiquery 80465;E2.9296;N49.7483;13;
3;France;Picardie;Somme;Laucourt 80467;E2.7667;N49.6667;13;
3;France;Picardie;Somme;Laviéville 80468;E2.5833;N49.9833;13;
3;France;Picardie;Somme;Lawarde-Mauger-l'Hortoy 80469;E2.2541;N49.7019;13;
3;France;Picardie;Somme;Le Boisle 80109;E1.9833;N50.2667;13;
3;France;Picardie;Somme;Le Cardonnois 80174;E2.4833;N49.6333;13;
3;France;Picardie;Somme;Le Crotoy 80228;E1.6167;N50.2167;13;
3;France;Picardie;Somme;Le Hamel 80411;E2.5667;N49.8833;13;
3;France;Picardie;Somme;Le Mazis 80522;E1.7667;N49.8833;13;
3;France;Picardie;Somme;Le Meillard 80526;E2.2000;N50.1667;13;
3;France;Picardie;Somme;Le Mesge 80535;E2.0500;N49.9333;13;
3;France;Picardie;Somme;Le Plessier-Rozainvillers 80628;E2.5527;N49.7509;13;
3;France;Picardie;Somme;Le Quesne 80651;E1.8000;N49.8667;13;
3;France;Picardie;Somme;Le Quesnel 80652;E2.6167;N49.7667;13;
3;France;Picardie;Somme;Le Quesnoy 80653=80617;E2.7041;N49.7435;13;
3;France;Picardie;Somme;Le Titre 80763;E1.8000;N50.1833;13;
3;France;Picardie;Somme;Le Translay 80767;E1.6833;N49.9667;13;
3;France;Picardie;Somme;Léalvillers 80470;E2.5167;N50.0667;13;
3;France;Picardie;Somme;Leforest 80471=80521;E2.8685;N49.9900;13;
3;France;Picardie;Somme;Lesboeufs 80472;E2.8667;N50.0333;13;
3;France;Picardie;Somme;Liancourt-Fosse 80473;E2.8167;N49.7500;13;
3;France;Picardie;Somme;Licourt 80474;E2.8833;N49.8000;13;
3;France;Picardie;Somme;Liéramont 80475;E3.0500;N50.0000;13;
3;France;Picardie;Somme;Liercourt 80476;E1.9000;N50.0333;13;
3;France;Picardie;Somme;Ligescourt 80477;E1.8833;N50.2833;13;
3;France;Picardie;Somme;Lignières 80478;E2.6507;N49.6784;13;
3;France;Picardie;Somme;Lignières-Châtelain 80479;E1.8667;N49.7667;13;
3;France;Picardie;Somme;Lignières-en-Vimeu 80480;E1.7333;N49.9167;13;
3;France;Picardie;Somme;Lihons 80481;E2.7667;N49.8167;13;
3;France;Picardie;Somme;Limeux 80482;E1.8167;N50.0167;13;
3;France;Picardie;Somme;Lincheux-Hallivillers 80483=80443;E1.9551;N49.8592;13;
3;France;Picardie;Somme;Liomer 80484;E1.8167;N49.8500;13;
3;France;Picardie;Somme;Loeuilly 80485;E2.1667;N49.7833;13;
3;France;Picardie;Somme;Long 80486;E1.9833;N50.0333;13;
3;France;Picardie;Somme;Longavesnes 80487;E3.0500;N49.9667;13;
3;France;Picardie;Somme;Longpré-les-Corps-Saints 80488;E1.9833;N50.0167;13;
3;France;Picardie;Somme;Longueau 80489;E2.3500;N49.8667;13;
3;France;Picardie;Somme;Longueval 80490;E2.8040;N50.0260;13;
3;France;Picardie;Somme;Longuevillette 80491;E2.2667;N50.1333;13;
3;France;Picardie;Somme;Longvillers 80492=80245;E2.0833;N50.1333;13;
3;France;Picardie;Somme;Louvencourt 80493;E2.5000;N50.1000;13;
3;France;Picardie;Somme;Louvrechy 80494;E2.4000;N49.7333;13;
3;France;Picardie;Somme;Lucheux 80495;E2.4167;N50.2000;13;
3;France;Picardie;Somme;Machiel 80496;E1.8333;N50.2667;13;
3;France;Picardie;Somme;Machy 80497;E1.8000;N50.2667;13;
3;France;Picardie;Somme;Mailly-Maillet 80498;E2.6000;N50.0667;13;
3;France;Picardie;Somme;Mailly-Raineval 80499;E2.4500;N49.7500;13;
3;France;Picardie;Somme;Maisnières 80500;E1.6167;N50.0167;13;
3;France;Picardie;Somme;Maison-Ponthieu 80501;E2.0500;N50.2000;13;
3;France;Picardie;Somme;Maison-Roland 80502;E2.0167;N50.1167;13;
3;France;Picardie;Somme;Maizicourt 80503;E2.1167;N50.2000;13;
3;France;Picardie;Somme;Malpart 80504;E2.5000;N49.6833;13;
3;France;Picardie;Somme;Mametz 80505;E2.7500;N50.0000;13;
3;France;Picardie;Somme;Manicourt 80506=80230;E2.8833;N49.7667;13;
3;France;Picardie;Somme;Marcelcave 80507;E2.5667;N49.8500;13;
3;France;Picardie;Somme;Marché-Allouarde 80508;E2.8667;N49.7333;13;
3;France;Picardie;Somme;Marchélepot 80509;E2.8667;N49.8333;13;
3;France;Picardie;Somme;Marcheville 80510=80222;E1.9000;N50.2167;13;
3;France;Picardie;Somme;Marestmontiers 80511;E2.5311;N49.6876;13;
3;France;Picardie;Somme;Mareuil-Caubert 80512;E1.8333;N50.0667;13;
3;France;Picardie;Somme;Maricourt 80513;E2.7833;N49.9667;13;
3;France;Picardie;Somme;Marieux 80514;E2.4333;N50.1000;13;
3;France;Picardie;Somme;Marlers 80515;E1.8500;N49.7667;13;
3;France;Picardie;Somme;Marquaix 80516;E3.0667;N49.9333;13;
3;France;Picardie;Somme;Marquivillers 80517;E2.7000;N49.6667;13;
3;France;Picardie;Somme;Martainneville 80518;E1.7000;N50.0000;13;
3;France;Picardie;Somme;Matigny 80519;E3.0000;N49.8000;13;
3;France;Picardie;Somme;Maucourt 80520;E2.7534;N49.7950;13;
3;France;Picardie;Somme;Maurepas 80521;E2.8333;N49.9833;13;
3;France;Picardie;Somme;Méaulte 80523;E2.6667;N49.9833;13;
3;France;Picardie;Somme;Méharicourt 80524;E2.7333;N49.8000;13;
3;France;Picardie;Somme;Meigneux 80525;E1.8833;N49.7667;13;
3;France;Picardie;Somme;Méneslies 80527;E1.5000;N50.0500;13;
3;France;Picardie;Somme;Méréaucourt 80528;E1.9350;N49.7291;13;
3;France;Picardie;Somme;Mérélessart 80529;E1.8500;N49.9667;13;
3;France;Picardie;Somme;Méricourt-en-Vimeu 80531;E1.9500;N49.9000;13;
3;France;Picardie;Somme;Méricourt-l'Abbé 80530;E2.5667;N49.9500;13;
3;France;Picardie;Somme;Méricourt-sur-Somme 80532;E2.6667;N49.9000;13;
3;France;Picardie;Somme;Mers-les-Bains 80533;E1.3833;N50.0667;13;
3;France;Picardie;Somme;Merville-au-Bois 80534=80010;E2.4044;N49.7481;13;
3;France;Picardie;Somme;Mesnil-Bruntel 80536;E2.9667;N49.8833;13;
3;France;Picardie;Somme;Mesnil-Domqueur 80537;E2.0833;N50.1333;13;
3;France;Picardie;Somme;Mesnil-en-Arrouaise 80538;E2.9500;N50.0333;13;
3;France;Picardie;Somme;Mesnil-Eudin 80539=80084;E1.7500;N49.9000;13;
3;France;Picardie;Somme;Mesnil-Martinsart 80540;E2.6500;N50.0500;13;
3;France;Picardie;Somme;Mesnil-Saint-Georges 80541;E2.5167;N49.6333;13;
3;France;Picardie;Somme;Mesnil-Saint-Nicaise 80542;E2.9167;N49.7667;13;
3;France;Picardie;Somme;Métigny 80543;E1.9167;N49.9333;13;
3;France;Picardie;Somme;Mézerolles 80544;E2.2333;N50.1833;13;
3;France;Picardie;Somme;Mézières-en-Santerre 80545;E2.5500;N49.7833;13;
3;France;Picardie;Somme;Miannay 80546;E1.7167;N50.1000;13;
3;France;Picardie;Somme;Millencourt 80547;E2.5833;N50.0000;13;
3;France;Picardie;Somme;Millencourt-en-Ponthieu 80548;E1.9000;N50.1500;13;
3;France;Picardie;Somme;Miraumont 80549;E2.7333;N50.1000;13;
3;France;Picardie;Somme;Mirvaux 80550;E2.4000;N50.0000;13;
3;France;Picardie;Somme;Misery 80551;E2.8833;N49.8333;13;
3;France;Picardie;Somme;Moislains 80552;E2.9667;N49.9833;13;
3;France;Picardie;Somme;Molliens-au-Bois 80553;E2.3833;N49.9833;13;
3;France;Picardie;Somme;Molliens-Dreuil 80554;E2.0191;N49.8838;13;
3;France;Picardie;Somme;Monchy-Lagache 80555;E3.0500;N49.8500;13;
3;France;Picardie;Somme;Mons-Boubert 80556;E1.6667;N50.1333;13;
3;France;Picardie;Somme;Monsures 80558;E2.1667;N49.7000;13;
3;France;Picardie;Somme;Mont-Saint-Quentin 80567=80620;E2.9363;N49.9462;13;
3;France;Picardie;Somme;Montagne-Fayel 80559;E1.9833;N49.9000;13;
3;France;Picardie;Somme;Montauban-de-Picardie 80560;E2.7833;N50.0000;13;
3;France;Picardie;Somme;Montdidier 80561;E2.5667;N49.6500;13;
3;France;Picardie;Somme;Montigny-les-Jongleurs 80563;E2.1333;N50.1833;13;
3;France;Picardie;Somme;Montigny-sur-l'Hallue 80562;E2.4500;N49.9667;13;
3;France;Picardie;Somme;Montmarquet 80564=80456;E1.8000;N49.8000;13;
3;France;Picardie;Somme;Montonvillers 80565;E2.2961;N49.9938;13;
3;France;Picardie;Somme;Morchain 80568;E2.9000;N49.7833;13;
3;France;Picardie;Somme;Morcourt 80569;E2.6500;N49.8833;13;
3;France;Picardie;Somme;Moreuil 80570;E2.4833;N49.7667;13;
3;France;Picardie;Somme;Morisel 80571;E2.4833;N49.7667;13;
3;France;Picardie;Somme;Morlancourt 80572;E2.6333;N49.9500;13;
3;France;Picardie;Somme;Morvillers-Saint-Saturnin 80573;E1.8333;N49.7833;13;
3;France;Picardie;Somme;Mouflers 80574;E2.0500;N50.0333;13;
3;France;Picardie;Somme;Mouflières 80575;E1.7500;N49.9167;13;
3;France;Picardie;Somme;Moyencourt 80576;E2.9333;N49.7167;13;
3;France;Picardie;Somme;Moyencourt-lès-Poix 80577;E2.0333;N49.7833;13;
3;France;Picardie;Somme;Moyenneville 80578;E1.7500;N50.0750;13;
3;France;Picardie;Somme;Muille-Villette 80579;E3.0667;N49.7333;13;
3;France;Picardie;Somme;Nampont 80580;E1.7453;N50.3488;13;
3;France;Picardie;Somme;Namps-au-Mont 80581=80582;E2.1000;N49.8167;13;
3;France;Picardie;Somme;Namps-Maisnil 80582;E2.1331;N49.8083;13;
3;France;Picardie;Somme;Nampty 80583;E2.2000;N49.8000;13;
3;France;Picardie;Somme;Naours 80584;E2.2833;N50.0333;13;
3;France;Picardie;Somme;Nesle 80585;E2.9167;N49.7667;13;
3;France;Picardie;Somme;Nesle-l'Hôpital 80586;E1.7000;N49.9000;13;
3;France;Picardie;Somme;Neslette 80587;E1.6667;N49.9167;13;
3;France;Picardie;Somme;Neufmoulin 80588;E1.9000;N50.1333;13;
3;France;Picardie;Somme;Neuilly-l'Hôpital 80590;E1.8833;N50.1667;13;
3;France;Picardie;Somme;Neuilly-le-Dien 80589;E2.0500;N50.2167;13;
3;France;Picardie;Somme;Neuville-au-Bois 80591;E1.7890;N49.9720;13;
3;France;Picardie;Somme;Neuville-Coppegueule 80592;E1.7500;N49.8500;13;
3;France;Picardie;Somme;Neuville-lès-Loeuilly 80594;E2.1863;N49.7905;13;
3;France;Picardie;Somme;Neuvillette 80596;E2.3167;N50.2000;13;
3;France;Picardie;Somme;Nibas 80597;E1.5833;N50.1000;13;
3;France;Picardie;Somme;Nouvion 80598;E1.7754;N50.2110;13;
3;France;Picardie;Somme;Noyelles-en-Chaussée 80599;E1.9833;N50.2000;13;
3;France;Picardie;Somme;Noyelles-sur-Mer 80600;E1.7167;N50.1833;13;
3;France;Picardie;Somme;Nurlu 80601;E3.0167;N50.0000;13;
3;France;Picardie;Somme;Occoches 80602;E2.2667;N50.1667;13;
3;France;Picardie;Somme;Ochancourt 80603;E1.6167;N50.1000;13;
3;France;Picardie;Somme;Offignies 80604;E1.8500;N49.8000;13;
3;France;Picardie;Somme;Offoy 80605;E3.0083;N49.7583;13;
3;France;Picardie;Somme;Oisemont 80606;E1.7667;N49.9500;13;
3;France;Picardie;Somme;Oissy 80607;E2.0500;N49.9000;13;
3;France;Picardie;Somme;Omiécourt 80608;E2.8333;N49.8000;13;
3;France;Picardie;Somme;Oneux 80609;E1.9667;N50.1500;13;
3;France;Picardie;Somme;Onvillers 80610=80623;E2.6667;N49.6000;13;
3;France;Picardie;Somme;Oresmaux 80611;E2.2667;N49.7667;13;
3;France;Picardie;Somme;Orival 80612=80443;E1.8500;N49.8000;13;
3;France;Picardie;Somme;Oust-Marest 80613;E1.4583;N50.0435;13;
3;France;Picardie;Somme;Outrebois 80614;E2.2500;N50.1667;13;
3;France;Picardie;Somme;Ovillers-la-Boisselle 80615;E2.6974;N50.0309;13;
3;France;Picardie;Somme;Pargny 80616;E2.9500;N49.7833;13;
3;France;Picardie;Somme;Parvillers-le-Quesnoy 80617;E2.7372;N49.7468;13;
3;France;Picardie;Somme;Pendé 80618;E1.5833;N50.1667;13;
3;France;Picardie;Somme;Pernois 80619;E2.1833;N50.0500;13;
3;France;Picardie;Somme;Péronne 80620;E2.9333;N49.9333;13;
3;France;Picardie;Somme;Pertain 80621;E2.8667;N49.8167;13;
3;France;Picardie;Somme;Picquigny 80622;E2.1500;N49.9500;13;
3;France;Picardie;Somme;Piennes-Onvillers 80623;E2.6735;N49.6120;13;
3;France;Picardie;Somme;Pierregot 80624;E2.3833;N50.0000;13;
3;France;Picardie;Somme;Pierrepont-sur-Avre 80625;E2.5500;N49.7167;13;
3;France;Picardie;Somme;Pissy 80626;E2.1333;N49.8667;13;
3;France;Picardie;Somme;Plachy-Buyon 80627;E2.2167;N49.8167;13;
3;France;Picardie;Somme;Poeuilly 80629;E3.1000;N49.8833;13;
3;France;Picardie;Somme;Poix-de-Picardie 80630;E1.9853;N49.7747;13;
3;France;Picardie;Somme;Ponches-Estruval 80631;E1.9000;N50.3167;13;
3;France;Picardie;Somme;Pont-de-Metz 80632;E2.2500;N49.8833;13;
3;France;Picardie;Somme;Pont-Noyelles 80634;E2.4500;N49.9333;13;
3;France;Picardie;Somme;Pont-Remy 80635;E1.9167;N50.0500;13;
3;France;Picardie;Somme;Ponthoile 80633;E1.7167;N50.2167;13;
3;France;Picardie;Somme;Popincourt 80636=80233;E2.7348;N49.6618;13;
3;France;Picardie;Somme;Port-le-Grand 80637;E1.7500;N50.1500;13;
3;France;Picardie;Somme;Potte 80638;E2.9000;N49.7667;13;
3;France;Picardie;Somme;Poulainville 80639;E2.3167;N49.9333;13;
3;France;Picardie;Somme;Pozières 80640;E2.7167;N50.0333;13;
3;France;Picardie;Somme;Pressoir 80641=80002;E2.8172;N49.8354;13;
3;France;Picardie;Somme;Prouville 80642;E2.1167;N50.1333;13;
3;France;Picardie;Somme;Prouzel 80643;E2.2000;N49.8000;13;
3;France;Picardie;Somme;Proyart 80644;E2.7000;N49.8833;13;
3;France;Picardie;Somme;Puchevillers 80645;E2.4167;N50.0500;13;
3;France;Picardie;Somme;Punchy 80646;E2.8167;N49.7833;13;
3;France;Picardie;Somme;Puzeaux 80647;E2.8333;N49.8000;13;
3;France;Picardie;Somme;Pys 80648;E2.7567;N50.0869;13;
3;France;Picardie;Somme;Quend 80649;E1.6333;N50.3167;13;
3;France;Picardie;Somme;Querrieu 80650;E2.4167;N49.9333;13;
3;France;Picardie;Somme;Quesnoy-le-Montant 80654;E1.6833;N50.1167;13;
3;France;Picardie;Somme;Quesnoy-sur-Airaines 80655;E1.9833;N49.9500;13;
3;France;Picardie;Somme;Quevauvillers 80656;E2.0833;N49.8167;13;
3;France;Picardie;Somme;Quiry-le-Sec 80657;E2.3833;N49.6667;13;
3;France;Picardie;Somme;Quivières 80658;E3.0333;N49.8000;13;
3;France;Picardie;Somme;Raincheval 80659;E2.4333;N50.0667;13;
3;France;Picardie;Somme;Rainecourt 80660=80342;E2.7243;N49.8656;13;
3;France;Picardie;Somme;Rainneville 80661;E2.3500;N49.9667;13;
3;France;Picardie;Somme;Ramburelles 80662;E1.7000;N49.9667;13;
3;France;Picardie;Somme;Rambures 80663;E1.7000;N49.9500;13;
3;France;Picardie;Somme;Rancourt 80664;E2.9167;N50.0000;13;
3;France;Picardie;Somme;Regnière-Écluse 80665;E1.7667;N50.2833;13;
3;France;Picardie;Somme;Remaisnil 80666;E2.2500;N50.2000;13;
3;France;Picardie;Somme;Remaugies 80667;E2.6667;N49.6167;13;
3;France;Picardie;Somme;Remiencourt 80668;E2.3833;N49.7833;13;
3;France;Picardie;Somme;Rethonvillers 80669;E2.8667;N49.7333;13;
3;France;Picardie;Somme;Revelles 80670;E2.1167;N49.8500;13;
3;France;Picardie;Somme;Ribeaucourt 80671;E2.1000;N50.1167;13;
3;France;Picardie;Somme;Ribemont-sur-Ancre 80672;E2.5664;N49.9599;13;
3;France;Picardie;Somme;Riencourt 80673;E2.0500;N49.9167;13;
3;France;Picardie;Somme;Rivery 80674;E2.3167;N49.9167;13;
3;France;Picardie;Somme;Rogy 80675;E2.2167;N49.7000;13;
3;France;Picardie;Somme;Roiglise 80676;E2.8333;N49.6833;13;
3;France;Picardie;Somme;Roisel 80677;E3.1000;N49.9500;13;
3;France;Picardie;Somme;Rollot 80678;E2.6500;N49.5833;13;
3;France;Picardie;Somme;Ronssoy 80679;E3.1667;N49.9833;13;
3;France;Picardie;Somme;Rosières-en-Santerre 80680;E2.7167;N49.8167;13;
3;France;Picardie;Somme;Rouvrel 80681;E2.4167;N49.7667;13;
3;France;Picardie;Somme;Rouvroy-en-Santerre 80682;E2.7167;N49.7667;13;
3;France;Picardie;Somme;Rouy-le-Grand 80683;E2.9500;N49.7833;13;
3;France;Picardie;Somme;Rouy-le-Petit 80684;E2.9500;N49.7667;13;
3;France;Picardie;Somme;Roye 80685;E2.8000;N49.7000;13;
3;France;Picardie;Somme;Rubempré 80686;E2.3833;N50.0167;13;
3;France;Picardie;Somme;Rubescourt 80687;E2.5667;N49.6000;13;
3;France;Picardie;Somme;Rue 80688;E1.6667;N50.2667;13;
3;France;Picardie;Somme;Rumaisnil 80689=80582;E2.1333;N49.8167;13;
3;France;Picardie;Somme;Rumigny 80690;E2.2833;N49.8000;13;
3;France;Picardie;Somme;Saigneville 80691;E1.7167;N50.1333;13;
3;France;Picardie;Somme;Sailly-Flibeaucourt 80692;E1.7667;N50.1833;13;
3;France;Picardie;Somme;Sailly-Laurette 80693;E2.6000;N49.9167;13;
3;France;Picardie;Somme;Sailly-le-Sec 80694;E2.5833;N49.9167;13;
3;France;Picardie;Somme;Sailly-Saillisel 80695;E2.9167;N50.0333;13;
3;France;Picardie;Somme;Sains-en-Amiénois 80696;E2.3167;N49.8167;13;
3;France;Picardie;Somme;Saint-Acheul 80697;E2.1667;N50.1833;13;
3;France;Picardie;Somme;Saint-Aubin-Montenoy 80698;E1.9833;N49.8500;13;
3;France;Picardie;Somme;Saint-Aubin-Rivière 80699;E1.7833;N49.8667;13;
3;France;Picardie;Somme;Saint-Blimont 80700;E1.5667;N50.1167;13;
3;France;Picardie;Somme;Saint-Christ-Briost 80701;E2.9167;N49.8333;13;
3;France;Picardie;Somme;Saint-Fuscien 80702;E2.3167;N49.8333;13;
3;France;Picardie;Somme;Saint-Germain-sur-Bresle 80703;E1.7333;N49.8333;13;
3;France;Picardie;Somme;Saint-Gratien 80704;E2.4167;N49.9500;13;
3;France;Picardie;Somme;Saint-Léger-lès-Authie 80705;E2.5167;N50.1167;13;
3;France;Picardie;Somme;Saint-Léger-lès-Domart 80706;E2.1333;N50.0500;13;
3;France;Picardie;Somme;Saint-Léger-sur-Bresle 80707;E1.7167;N49.8667;13;
3;France;Picardie;Somme;Saint-Mard 80708;E2.7583;N49.6917;13;
3;France;Picardie;Somme;Saint-Maulvis 80709;E1.8333;N49.9000;13;
3;France;Picardie;Somme;Saint-Maxent 80710;E1.7333;N50.0000;13;
3;France;Picardie;Somme;Saint-Ouen 80711;E2.1167;N50.0333;13;
3;France;Picardie;Somme;Saint-Pierre-à-Gouy 80712=80229;E2.1234;N49.9521;13;
3;France;Picardie;Somme;Saint-Quentin-en-Tourmont 80713;E1.5833;N50.2833;13;
3;France;Picardie;Somme;Saint-Riquier 80716;E1.9500;N50.1333;13;
3;France;Picardie;Somme;Saint-Sauflieu 80717;E2.2500;N49.7833;13;
3;France;Picardie;Somme;Saint-Sauveur 80718;E2.2167;N49.9333;13;
3;France;Picardie;Somme;Saint-Sulpice 80720=80410;E3.0663;N49.7534;13;
3;France;Picardie;Somme;Saint-Vaast-en-Chaussée 80722;E2.2047;N49.9695;13;
3;France;Picardie;Somme;Saint-Valery-sur-Somme 80721;E1.6333;N50.1833;13;
3;France;Picardie;Somme;Sainte-Radegonde 80715=80620;E2.9140;N49.9315;13;
3;France;Picardie;Somme;Sainte-Segrée 80719;E1.9167;N49.7500;13;
3;France;Picardie;Somme;Saisseval 80723;E2.1000;N49.8833;13;
3;France;Picardie;Somme;Saleux 80724;E2.2500;N49.8667;13;
3;France;Picardie;Somme;Salouël 80725;E2.2500;N49.8667;13;
3;France;Picardie;Somme;Sancourt 80726;E3.0333;N49.7667;13;
3;France;Picardie;Somme;Saulchoy-sous-Poix 80728;E1.9333;N49.7500;13;
3;France;Picardie;Somme;Saulchoy-sur-Davenescourt 80727=80031;E2.6275;N49.7146;13;
3;France;Picardie;Somme;Sauvillers-Mongival 80729;E2.4667;N49.7333;13;
3;France;Picardie;Somme;Saveuse 80730;E2.2167;N49.8833;13;
3;France;Picardie;Somme;Selincourt 80731=80443;E1.9000;N49.8667;13;
3;France;Picardie;Somme;Senarpont 80732;E1.7167;N49.8833;13;
3;France;Picardie;Somme;Senlis-le-Sec 80733;E2.5667;N50.0333;13;
3;France;Picardie;Somme;Sentelie 80734;E2.0333;N49.7167;13;
3;France;Picardie;Somme;Seux 80735;E2.1000;N49.8667;13;
3;France;Picardie;Somme;Sorel 80737;E1.9167;N50.0167;13;
3;France;Picardie;Somme;Sorel-en-Vimeu 80736;E3.0500;N50.0167;13;
3;France;Picardie;Somme;Soues 80738;E2.0500;N49.9500;13;
3;France;Picardie;Somme;Souplicourt 80739=80436;E1.9000;N49.7500;13;
3;France;Picardie;Somme;Sourdon 80740;E2.4000;N49.7000;13;
3;France;Picardie;Somme;Soyécourt 80741;E2.7833;N49.8667;13;
3;France;Picardie;Somme;Surcamps 80742;E2.0667;N50.0667;13;
3;France;Picardie;Somme;Suzanne 80743;E2.7667;N49.9500;13;
3;France;Picardie;Somme;Tailly 80744;E1.9421;N49.9327;13;
3;France;Picardie;Somme;Taisnil 80745=80582;E2.1500;N49.8000;13;
3;France;Picardie;Somme;Talmas 80746;E2.3333;N50.0333;13;
3;France;Picardie;Somme;Templeux-la-Fosse 80747;E3.0167;N49.9667;13;
3;France;Picardie;Somme;Templeux-le-Guérard 80748;E3.1500;N49.9667;13;
3;France;Picardie;Somme;Terramesnil 80749;E2.3667;N50.1167;13;
3;France;Picardie;Somme;Tertry 80750;E3.0667;N49.8667;13;
3;France;Picardie;Somme;Thennes 80751;E2.4667;N49.8000;13;
3;France;Picardie;Somme;Thézy-Glimont 80752;E2.4333;N49.8167;13;
3;France;Picardie;Somme;Thiepval 80753;E2.7000;N50.0500;13;
3;France;Picardie;Somme;Thieulloy-l'Abbaye 80754;E1.9333;N49.8167;13;
3;France;Picardie;Somme;Thieulloy-la-Ville 80755;E1.9333;N49.7500;13;
3;France;Picardie;Somme;Thièvres 80756;E2.4577;N50.1283;13;
3;France;Picardie;Somme;Thoix 80757;E2.0667;N49.7000;13;
3;France;Picardie;Somme;Thory 80758;E2.4333;N49.7167;13;
3;France;Picardie;Somme;Tilloloy 80759;E2.7500;N49.6333;13;
3;France;Picardie;Somme;Tilloy-Floriville 80760;E1.6167;N49.9833;13;
3;France;Picardie;Somme;Tilloy-lès-Conty 80761;E2.1833;N49.7500;13;
3;France;Picardie;Somme;Tincourt-Boucly 80762;E3.0500;N49.9333;13;
3;France;Picardie;Somme;Toeufles 80764;E1.7167;N50.0667;13;
3;France;Picardie;Somme;Tours-en-Vimeu 80765;E1.6833;N50.0333;13;
3;France;Picardie;Somme;Toutencourt 80766;E2.4500;N50.0333;13;
3;France;Picardie;Somme;Treux 80769;E2.5833;N49.9500;13;
3;France;Picardie;Somme;Tronchoy 80768=80443;E1.8667;N49.8333;13;
3;France;Picardie;Somme;Tully 80770;E1.5167;N50.0833;13;
3;France;Picardie;Somme;Ugny-l'Équipée 80771;E3.0667;N49.8167;13;
3;France;Picardie;Somme;Vacquerie 80772=80086;E2.1667;N50.1167;13;
3;France;Picardie;Somme;Vadencourt 80773;E2.4833;N50.0000;13;
3;France;Picardie;Somme;Vaire-sous-Corbie 80774;E2.5500;N49.9167;13;
3;France;Picardie;Somme;Valines 80775;E1.6167;N50.0833;13;
3;France;Picardie;Somme;Varennes 80776;E2.5333;N50.0500;13;
3;France;Picardie;Somme;Vauchelles-lès-Authie 80777;E2.4744;N50.0970;13;
3;France;Picardie;Somme;Vauchelles-lès-Domart 80778;E2.0500;N50.0500;13;
3;France;Picardie;Somme;Vauchelles-les-Quesnoy 80779;E1.8833;N50.1000;13;
3;France;Picardie;Somme;Vaudricourt 80780;E1.5500;N50.1167;13;
3;France;Picardie;Somme;Vauvillers 80781;E2.7000;N49.8500;13;
3;France;Picardie;Somme;Vaux-en-Amiénois 80782;E2.2500;N49.9667;13;
3;France;Picardie;Somme;Vaux-Marquenneville 80783;E1.7833;N49.9833;13;
3;France;Picardie;Somme;Vaux-sur-Somme 80784;E2.5500;N49.9167;13;
3;France;Picardie;Somme;Vecquemont 80785;E2.4500;N49.8833;13;
3;France;Picardie;Somme;Velennes 80786;E2.1000;N49.7500;13;
3;France;Picardie;Somme;Vercourt 80787;E1.7000;N50.3000;13;
3;France;Picardie;Somme;Vergies 80788;E1.8500;N49.9333;13;
3;France;Picardie;Somme;Vermandovillers 80789;E2.7833;N49.8500;13;
3;France;Picardie;Somme;Verpillières 80790;E2.8167;N49.6667;13;
3;France;Picardie;Somme;Vers-sur-Selles 80791;E2.2306;N49.2428;13;
3;France;Picardie;Somme;Vignacourt 80793;E2.2000;N50.0167;13;
3;France;Picardie;Somme;Ville-le-Marclet 80795;E2.0833;N50.0167;13;
3;France;Picardie;Somme;Ville-sur-Ancre 80807;E2.6167;N49.9500;13;
3;France;Picardie;Somme;Villecourt 80794;E2.9667;N49.7667;13;
3;France;Picardie;Somme;Villeroy 80796;E1.7333;N49.9333;13;
3;France;Picardie;Somme;Villers-aux-Érables 80797;E2.5333;N49.7833;13;
3;France;Picardie;Somme;Villers-Bocage 80798;E2.3333;N49.9833;13;
3;France;Picardie;Somme;Villers-Bretonneux 80799;E2.5167;N49.8667;13;
3;France;Picardie;Somme;Villers-Campsart 80800;E1.8333;N49.8667;13;
3;France;Picardie;Somme;Villers-Carbonnel 80801;E2.9000;N49.8667;13;
3;France;Picardie;Somme;Villers-Faucon 80802;E3.1000;N49.9833;13;
3;France;Picardie;Somme;Villers-lès-Roye 80803;E2.7333;N49.7000;13;
3;France;Picardie;Somme;Villers-sous-Ailly 80804;E2.0167;N50.0667;13;
3;France;Picardie;Somme;Villers-sur-Authie 80806;E1.7000;N50.3167;13;
3;France;Picardie;Somme;Villers-Tournelle 80805;E2.4667;N49.6500;13;
3;France;Picardie;Somme;Vironchaux 80808;E1.8167;N50.2833;13;
3;France;Picardie;Somme;Vismes 80809;E1.6667;N50.0167;13;
3;France;Picardie;Somme;Vitz-sur-Authie 80810;E2.0667;N50.2500;13;
3;France;Picardie;Somme;Voyennes 80811;E2.9833;N49.7667;13;
3;France;Picardie;Somme;Vraignes-en-Vermandois 80812;E3.0648;N49.8877;13;
3;France;Picardie;Somme;Vraignes-lès-Hornoy 80813;E1.9167;N49.8333;13;
3;France;Picardie;Somme;Vrély 80814;E2.6833;N49.7833;13;
3;France;Picardie;Somme;Vron 80815;E1.7500;N50.3167;13;
3;France;Picardie;Somme;Wailly 80816=80211;E2.1500;N49.7667;13;
3;France;Picardie;Somme;Wanel 80817=80406;E1.9167;N50.0000;13;
3;France;Picardie;Somme;Warfusée-Abancourt 80818=80463;E2.5833;N49.8667;13;
3;France;Picardie;Somme;Wargnies 80819;E2.2560;N50.0356;13;
3;France;Picardie;Somme;Warloy-Baillon 80820;E2.5196;N50.0133;13;
3;France;Picardie;Somme;Warlus 80821;E1.9444;N49.9239;13;
3;France;Picardie;Somme;Warsy 80822;E2.6500;N49.7000;13;
3;France;Picardie;Somme;Warvillers 80823;E2.6870;N49.7808;13;
3;France;Picardie;Somme;Wiencourt-l'Équipée 80824;E2.6122;N49.8474;13;
3;France;Picardie;Somme;Wiry-au-Mont 80825;E1.8375;N49.9638;13;
3;France;Picardie;Somme;Woignarue 80826;E1.4957;N50.1114;13;
3;France;Picardie;Somme;Woincourt 80827;E1.5377;N50.0677;13;
3;France;Picardie;Somme;Woirel 80828;E1.8239;N49.9606;13;
3;France;Picardie;Somme;Y 80829;E2.9897;N49.8036;13;
3;France;Picardie;Somme;Yaucourt-Bussus 80830;E1.9767;N50.1055;13;
3;France;Picardie;Somme;Yonval 80836;E1.7911;N50.0918;13;
3;France;Picardie;Somme;Ytres 80831=62909;E2.9936;N50.0639;13;
3;France;Picardie;Somme;Yvrench 80832;E2.0036;N50.1802;13;
3;France;Picardie;Somme;Yvrencheux 80833;E1.9944;N50.1832;13;
3;France;Picardie;Somme;Yzengremer 80834;E1.5211;N50.0632;13;
3;France;Picardie;Somme;Yzeux 80835;E2.1097;N49.9755;13;