"Level";"Country";"State";"County";"Place";"Longitude";"Latitude";"ZoomLevel";"Icon"
2;FRA;Île-de-FRA;Essonne;;E2.3016;N48.6075;9;
3;FRA;Île-de-FRA;Essonne;Abbéville-la-Rivière 91001;E2.1667;N48.3500;13;
3;FRA;Île-de-FRA;Essonne;Angerville 91016;E2.0000;N48.3167;13;
3;FRA;Île-de-FRA;Essonne;Angervilliers 91017;E2.0667;N48.5833;13;
3;FRA;Île-de-FRA;Essonne;Arpajon 91021;E2.2500;N48.5833;13;
3;FRA;Île-de-FRA;Essonne;Arrancourt 91022;E2.1667;N48.3333;13;
3;FRA;Île-de-FRA;Essonne;Athis-Mons 91027;E2.4000;N48.7167;13;
3;FRA;Île-de-FRA;Essonne;Authon-la-Plaine 91035;E1.9500;N48.4500;13;
3;FRA;Île-de-FRA;Essonne;Auvernaux 91037;E2.4833;N48.5333;13;
3;FRA;Île-de-FRA;Essonne;Auvers-Saint-Georges 91038;E2.2333;N48.4833;13;
3;FRA;Île-de-FRA;Essonne;Avrainville 91041;E2.2500;N48.5667;13;
3;FRA;Île-de-FRA;Essonne;Ballainvilliers 91044;E2.2833;N48.6667;13;
3;FRA;Île-de-FRA;Essonne;Ballancourt-sur-Essonne 91045;E2.3855;N48.5250;13;
3;FRA;Île-de-FRA;Essonne;Baulne 91047;E2.3500;N48.5000;13;
3;FRA;Île-de-FRA;Essonne;Bièvres 91064;E2.2167;N48.7500;13;
3;FRA;Île-de-FRA;Essonne;Blandy 91067;E2.2583;N48.3167;13;
3;FRA;Île-de-FRA;Essonne;Boigneville 91069;E2.3667;N48.3333;13;
3;FRA;Île-de-FRA;Essonne;Bois-Herpin 91075;E2.2333;N48.3667;13;
3;FRA;Île-de-FRA;Essonne;Boissy-la-Rivière 91079;E2.1500;N48.3667;13;
3;FRA;Île-de-FRA;Essonne;Boissy-le-Cutté 91080;E2.2833;N48.4667;13;
3;FRA;Île-de-FRA;Essonne;Boissy-le-Sec 91081;E2.0833;N48.4667;13;
3;FRA;Île-de-FRA;Essonne;Boissy-sous-Saint-Yon 91085;E2.2167;N48.5500;13;
3;FRA;Île-de-FRA;Essonne;Bondoufle 91086;E2.3833;N48.6167;13;
3;FRA;Île-de-FRA;Essonne;Boullay-les-Troux 91093;E2.0500;N48.6833;13;
3;FRA;Île-de-FRA;Essonne;Bouray-sur-Juine 91095;E2.3000;N48.5167;13;
3;FRA;Île-de-FRA;Essonne;Boussy-Saint-Antoine 91097;E2.5333;N48.6833;13;
3;FRA;Île-de-FRA;Essonne;Boutervilliers 91098;E2.0500;N48.4500;13;
3;FRA;Île-de-FRA;Essonne;Boutigny-sur-Essonne 91099;E2.3769;N48.4360;13;
3;FRA;Île-de-FRA;Essonne;Bouville 91100;E2.3000;N48.4333;13;
3;FRA;Île-de-FRA;Essonne;Brétigny-sur-Orge 91103;E2.3167;N48.6167;13;
3;FRA;Île-de-FRA;Essonne;Breuillet 91105;E2.1667;N48.5667;13;
3;FRA;Île-de-FRA;Essonne;Breux-Jouy 91106;E2.1774;N48.5616;13;
3;FRA;Île-de-FRA;Essonne;Brières-les-Scellés 91109;E2.1333;N48.4500;13;
3;FRA;Île-de-FRA;Essonne;Briis-sous-Forges 91111;E2.1167;N48.6167;13;
3;FRA;Île-de-FRA;Essonne;Brouy 91112;E2.2667;N48.3167;13;
3;FRA;Île-de-FRA;Essonne;Brunoy 91114;E2.5000;N48.7000;13;
3;FRA;Île-de-FRA;Essonne;Bruyères-le-Châtel 91115;E2.2000;N48.6000;13;
3;FRA;Île-de-FRA;Essonne;Buno-Bonnevaux 91121;E2.3833;N48.3500;13;
3;FRA;Île-de-FRA;Essonne;Bures-sur-Yvette 91122;E2.1667;N48.7000;13;
3;FRA;Île-de-FRA;Essonne;Cerny 91129;E2.3167;N48.4667;13;
3;FRA;Île-de-FRA;Essonne;Chalo-Saint-Mars 91130;E2.0667;N48.4333;13;
3;FRA;Île-de-FRA;Essonne;Chalou-Moulineux 91131;E2.0167;N48.3833;13;
3;FRA;Île-de-FRA;Essonne;Chamarande 91132;E2.2167;N48.5167;13;
3;FRA;Île-de-FRA;Essonne;Champcueil 91135;E2.4500;N48.5167;13;
3;FRA;Île-de-FRA;Essonne;Champlan 91136;E2.2667;N48.7000;13;
3;FRA;Île-de-FRA;Essonne;Champmotteux 91137;E2.3167;N48.3500;13;
3;FRA;Île-de-FRA;Essonne;Châteaufort 91143=78143;E2.0911;N48.7364;13;
3;FRA;Île-de-FRA;Essonne;Chatignonville 91145;E1.9333;N48.4667;13;
3;FRA;Île-de-FRA;Essonne;Chauffour-lès-Étréchy 91148;E2.1667;N48.5000;13;
3;FRA;Île-de-FRA;Essonne;Cheptainville 91156;E2.2667;N48.5500;13;
3;FRA;Île-de-FRA;Essonne;Chevannes 91159;E2.4333;N48.5333;13;
3;FRA;Île-de-FRA;Essonne;Chilly-Mazarin 91161;E2.3000;N48.7000;13;
3;FRA;Île-de-FRA;Essonne;Congerville 91173=91613;E1.9833;N48.3833;13;
3;FRA;Île-de-FRA;Essonne;Congerville-Thionville 91613;E1.9884;N48.3869;13;
3;FRA;Île-de-FRA;Essonne;Corbeil-Essonnes 91174;E2.4833;N48.6000;13;
3;FRA;Île-de-FRA;Essonne;Corbreuse 91175;E1.9500;N48.5000;13;
3;FRA;Île-de-FRA;Essonne;Courances 91180;E2.4667;N48.4333;13;
3;FRA;Île-de-FRA;Essonne;Courcouronnes 91182;E2.4000;N48.6167;13;
3;FRA;Île-de-FRA;Essonne;Courdimanche-sur-Essonne 91184;E2.3782;N48.4169;13;
3;FRA;Île-de-FRA;Essonne;Courson-Monteloup 91186;E2.1500;N48.6000;13;
3;FRA;Île-de-FRA;Essonne;Crosne 91191;E2.4500;N48.7167;13;
3;FRA;Île-de-FRA;Essonne;D'Huison-Longueville 91198;E2.3333;N48.4500;13;
3;FRA;Île-de-FRA;Essonne;Dannemois 91195;E2.4667;N48.4500;13;
3;FRA;Île-de-FRA;Essonne;Dourdan 91200;E2.0167;N48.5333;13;
3;FRA;Île-de-FRA;Essonne;Draveil 91201;E2.4167;N48.6833;13;
3;FRA;Île-de-FRA;Essonne;Écharcon 91204;E2.4000;N48.5667;13;
3;FRA;Île-de-FRA;Essonne;Égly 91207;E2.2167;N48.5833;13;
3;FRA;Île-de-FRA;Essonne;Épinay-sous-Sénart 91215;E2.5167;N48.6833;13;
3;FRA;Île-de-FRA;Essonne;Épinay-sur-Orge 91216;E2.3333;N48.6667;13;
3;FRA;Île-de-FRA;Essonne;Essonnes 91221=91174;E2.4633;N48.6157;13;
3;FRA;Île-de-FRA;Essonne;Estouches 91222;E2.1333;N48.3000;13;
3;FRA;Île-de-FRA;Essonne;Étampes 91223;E2.1500;N48.4333;13;
3;FRA;Île-de-FRA;Essonne;Étiolles 91225;E2.4667;N48.6333;13;
3;FRA;Île-de-FRA;Essonne;Étréchy 91226;E2.2000;N48.5000;13;
3;FRA;Île-de-FRA;Essonne;Évry 91228;E2.4500;N48.6333;13;
3;FRA;Île-de-FRA;Essonne;Fleury-Mérogis 91235;E2.3667;N48.6333;13;
3;FRA;Île-de-FRA;Essonne;Fontaine-la-Rivière 91240;E2.1500;N48.3500;13;
3;FRA;Île-de-FRA;Essonne;Fontenay-le-Vicomte 91244;E2.4000;N48.5500;13;
3;FRA;Île-de-FRA;Essonne;Fontenay-lès-Briis 91243;E2.1500;N48.6167;13;
3;FRA;Île-de-FRA;Essonne;Forges-les-Bains 91249;E2.1000;N48.6167;13;
3;FRA;Île-de-FRA;Essonne;Gif-sur-Yvette 91272;E2.1333;N48.6833;13;
3;FRA;Île-de-FRA;Essonne;Gironville-sur-Essonne 91273;E2.3779;N48.3736;13;
3;FRA;Île-de-FRA;Essonne;Gometz-la-Ville 91274;E2.1167;N48.6667;13;
3;FRA;Île-de-FRA;Essonne;Gometz-le-Châtel 91275;E2.1333;N48.6833;13;
3;FRA;Île-de-FRA;Essonne;Grigny 91286;E2.3833;N48.6500;13;
3;FRA;Île-de-FRA;Essonne;Guibeville 91292;E2.2667;N48.5667;13;
3;FRA;Île-de-FRA;Essonne;Guigneville-sur-Essonne 91293;E2.3549;N48.4730;13;
3;FRA;Île-de-FRA;Essonne;Guillerval 91294;E2.1000;N48.3667;13;
3;FRA;Île-de-FRA;Essonne;Igny 91312;E2.2167;N48.7333;13;
3;FRA;Île-de-FRA;Essonne;Itteville 91315;E2.3333;N48.5167;13;
3;FRA;Île-de-FRA;Essonne;Janville-sur-Juine 91318;E2.2667;N48.5167;13;
3;FRA;Île-de-FRA;Essonne;Janvry 91319;E2.1500;N48.6500;13;
3;FRA;Île-de-FRA;Essonne;Juvisy-sur-Orge 91326;E2.3833;N48.6833;13;
3;FRA;Île-de-FRA;Essonne;La Ferté-Alais 91232;E2.3500;N48.4833;13;
3;FRA;Île-de-FRA;Essonne;La Forêt-le-Roi 91247;E2.0333;N48.4833;13;
3;FRA;Île-de-FRA;Essonne;La Forêt-Sainte-Croix 91248;E2.2333;N48.3833;13;
3;FRA;Île-de-FRA;Essonne;La Norville 91457;E2.2667;N48.5833;13;
3;FRA;Île-de-FRA;Essonne;La Ville-du-Bois 91665;E2.2667;N48.6500;13;
3;FRA;Île-de-FRA;Essonne;Lardy 91330;E2.2667;N48.5167;13;
3;FRA;Île-de-FRA;Essonne;Le Coudray-Montceaux 91179;E2.5000;N48.5667;13;
3;FRA;Île-de-FRA;Essonne;Le Plessis-Pâté 91494;E2.3167;N48.6167;13;
3;FRA;Île-de-FRA;Essonne;Le Val-Saint-Germain 91630;E2.0667;N48.5667;13;
3;FRA;Île-de-FRA;Essonne;Les Granges-le-Roi 91284;E2.0167;N48.5000;13;
3;FRA;Île-de-FRA;Essonne;Les Molières 91411;E2.0667;N48.6667;13;
3;FRA;Île-de-FRA;Essonne;Les Ulis 91692;E2.1697;N48.6827;13;
3;FRA;Île-de-FRA;Essonne;Leudeville 91332;E2.3167;N48.5667;13;
3;FRA;Île-de-FRA;Essonne;Leuville-sur-Orge 91333;E2.2500;N48.6167;13;
3;FRA;Île-de-FRA;Essonne;Limours 91338;E2.0833;N48.6500;13;
3;FRA;Île-de-FRA;Essonne;Linas 91339;E2.2667;N48.6333;13;
3;FRA;Île-de-FRA;Essonne;Lisses 91340;E2.4167;N48.6000;13;
3;FRA;Île-de-FRA;Essonne;Longjumeau 91345;E2.3000;N48.7000;13;
3;FRA;Île-de-FRA;Essonne;Longpont-sur-Orge 91347;E2.2833;N48.6333;13;
3;FRA;Île-de-FRA;Essonne;Maisse 91359;E2.3833;N48.4000;13;
3;FRA;Île-de-FRA;Essonne;Marcoussis 91363;E2.2333;N48.6333;13;
3;FRA;Île-de-FRA;Essonne;Marolles-en-Beauce 91374;E2.2000;N48.3667;13;
3;FRA;Île-de-FRA;Essonne;Marolles-en-Hurepoix 91376;E2.3000;N48.5667;13;
3;FRA;Île-de-FRA;Essonne;Massy 91377;E2.2833;N48.7333;13;
3;FRA;Île-de-FRA;Essonne;Mauchamps 91378;E2.1833;N48.5333;13;
3;FRA;Île-de-FRA;Essonne;Mennecy 91386;E2.4333;N48.5667;13;
3;FRA;Île-de-FRA;Essonne;Méréville 91390;E2.0833;N48.3167;13;
3;FRA;Île-de-FRA;Essonne;Mérobert 91393;E2.0000;N48.4167;13;
3;FRA;Île-de-FRA;Essonne;Mespuits 91399;E2.2667;N48.3500;13;
3;FRA;Île-de-FRA;Essonne;Milly-la-Forêt 91405;E2.4667;N48.4000;13;
3;FRA;Île-de-FRA;Essonne;Moigny-sur-École 91408;E2.4574;N48.4335;13;
3;FRA;Île-de-FRA;Essonne;Mondeville 91412;E2.4167;N48.4833;13;
3;FRA;Île-de-FRA;Essonne;Monnerville 91414;E2.0500;N48.3500;13;
3;FRA;Île-de-FRA;Essonne;Montgeron 91421;E2.4500;N48.7000;13;
3;FRA;Île-de-FRA;Essonne;Montlhéry 91425;E2.2667;N48.6333;13;
3;FRA;Île-de-FRA;Essonne;Morangis 91432;E2.3333;N48.7000;13;
3;FRA;Île-de-FRA;Essonne;Morigny-Champigny 91433;E2.2000;N48.4500;13;
3;FRA;Île-de-FRA;Essonne;Morsang-sur-Orge 91434;E2.3500;N48.6667;13;
3;FRA;Île-de-FRA;Essonne;Morsang-sur-Seine 91435;E2.5000;N48.5667;13;
3;FRA;Île-de-FRA;Essonne;Nainville-les-Roches 91441;E2.5000;N48.5000;13;
3;FRA;Île-de-FRA;Essonne;Nozay 91458;E2.2333;N48.6500;13;
3;FRA;Île-de-FRA;Essonne;Ollainville 91461;E2.2167;N48.5833;13;
3;FRA;Île-de-FRA;Essonne;Oncy-sur-École 91463;E2.4747;N48.3816;13;
3;FRA;Île-de-FRA;Essonne;Ormoy 91468;E2.4333;N48.5667;13;
3;FRA;Île-de-FRA;Essonne;Ormoy-la-Rivière 91469;E2.1500;N48.4000;13;
3;FRA;Île-de-FRA;Essonne;Orsay 91471;E2.1833;N48.7000;13;
3;FRA;Île-de-FRA;Essonne;Orveau 91473;E2.2833;N48.4500;13;
3;FRA;Île-de-FRA;Essonne;Palaiseau 91477;E2.2500;N48.7167;13;
3;FRA;Île-de-FRA;Essonne;Paray-Vieille-Poste 91479;E2.3667;N48.7167;13;
3;FRA;Île-de-FRA;Essonne;Pecqueuse 91482;E2.0500;N48.6500;13;
3;FRA;Île-de-FRA;Essonne;Plessis-Saint-Benoist 91495;E2.0000;N48.4333;13;
3;FRA;Île-de-FRA;Essonne;Prunay-sur-Essonne 91507;E2.3733;N48.3570;13;
3;FRA;Île-de-FRA;Essonne;Puiselet-le-Marais 91508;E2.2667;N48.4000;13;
3;FRA;Île-de-FRA;Essonne;Pussay 91511;E2.0000;N48.3500;13;
3;FRA;Île-de-FRA;Essonne;Quincy-sous-Sénart 91514;E2.5333;N48.6667;13;
3;FRA;Île-de-FRA;Essonne;Richarville 91519;E2.0000;N48.4667;13;
3;FRA;Île-de-FRA;Essonne;Ris-Orangis 91521;E2.4167;N48.6500;13;
3;FRA;Île-de-FRA;Essonne;Roinville 91525;E2.0333;N48.5333;13;
3;FRA;Île-de-FRA;Essonne;Roinvilliers 91526;E2.2333;N48.3500;13;
3;FRA;Île-de-FRA;Essonne;Saclas 91533;E2.1167;N48.3667;13;
3;FRA;Île-de-FRA;Essonne;Saclay 91534;E2.1667;N48.7333;13;
3;FRA;Île-de-FRA;Essonne;Saint-Aubin 91538;E2.1333;N48.7167;13;
3;FRA;Île-de-FRA;Essonne;Saint-Chéron 91540;E2.1167;N48.5500;13;
3;FRA;Île-de-FRA;Essonne;Saint-Cyr-la-Rivière 91544;E2.1333;N48.3500;13;
3;FRA;Île-de-FRA;Essonne;Saint-Cyr-sous-Dourdan 91546;E2.0333;N48.5667;13;
3;FRA;Île-de-FRA;Essonne;Saint-Escobille 91547;E1.9667;N48.4333;13;
3;FRA;Île-de-FRA;Essonne;Saint-Germain-lès-Arpajon 91552;E2.2500;N48.6000;13;
3;FRA;Île-de-FRA;Essonne;Saint-Germain-lès-Corbeil 91553;E2.4833;N48.6167;13;
3;FRA;Île-de-FRA;Essonne;Saint-Hilaire 91556;E2.0667;N48.4333;13;
3;FRA;Île-de-FRA;Essonne;Saint-Jean-de-Beauregard 91560;E2.1667;N48.6667;13;
3;FRA;Île-de-FRA;Essonne;Saint-Maurice-Montcouronne 91568;E2.1167;N48.5833;13;
3;FRA;Île-de-FRA;Essonne;Saint-Michel-sur-Orge 91570;E2.3000;N48.6333;13;
3;FRA;Île-de-FRA;Essonne;Saint-Pierre-du-Perray 91573;E2.5000;N48.6167;13;
3;FRA;Île-de-FRA;Essonne;Saint-Sulpice-de-Favières 91578;E2.1833;N48.5333;13;
3;FRA;Île-de-FRA;Essonne;Saint-Vrain 91579;E2.3333;N48.5333;13;
3;FRA;Île-de-FRA;Essonne;Saint-Yon 91581;E2.1833;N48.5667;13;
3;FRA;Île-de-FRA;Essonne;Sainte-Geneviève-des-Bois 91549;E2.3333;N48.6333;13;
3;FRA;Île-de-FRA;Essonne;Saintry-sur-Seine 91577;E2.5000;N48.6000;13;
3;FRA;Île-de-FRA;Essonne;Saulx-les-Chartreux 91587;E2.2667;N48.6833;13;
3;FRA;Île-de-FRA;Essonne;Savigny-sur-Orge 91589;E2.3500;N48.6667;13;
3;FRA;Île-de-FRA;Essonne;Sermaise 91593;E2.0833;N48.5333;13;
3;FRA;Île-de-FRA;Essonne;Soisy-sur-École 91599;E2.4833;N48.4667;13;
3;FRA;Île-de-FRA;Essonne;Soisy-sur-Seine 91600;E2.4500;N48.6500;13;
3;FRA;Île-de-FRA;Essonne;Souzy-la-Briche 91602;E2.1500;N48.5333;13;
3;FRA;Île-de-FRA;Essonne;Tigery 91617;E2.5000;N48.6333;13;
3;FRA;Île-de-FRA;Essonne;Torfou 91619;E2.2333;N48.5333;13;
3;FRA;Île-de-FRA;Essonne;Toussus-le-Noble 91620=78620;E2.1137;N48.7459;13;
3;FRA;Île-de-FRA;Essonne;Valpuiseaux 91629;E2.3167;N48.3833;13;
3;FRA;Île-de-FRA;Essonne;Varennes-Jarcy 91631;E2.5596;N48.6785;13;
3;FRA;Île-de-FRA;Essonne;Vaugrigneuse 91634;E2.1167;N48.6000;13;
3;FRA;Île-de-FRA;Essonne;Vauhallan 91635;E2.2000;N48.7333;13;
3;FRA;Île-de-FRA;Essonne;Vayres-sur-Essonne 91639;E2.3534;N48.4379;13;
3;FRA;Île-de-FRA;Essonne;Verrières-le-Buisson 91645;E2.2667;N48.7500;13;
3;FRA;Île-de-FRA;Essonne;Vert-le-Grand 91648;E2.3667;N48.5667;13;
3;FRA;Île-de-FRA;Essonne;Vert-le-Petit 91649;E2.3667;N48.5500;13;
3;FRA;Île-de-FRA;Essonne;Videlles 91654;E2.4333;N48.4667;13;
3;FRA;Île-de-FRA;Essonne;Vigneux-sur-Seine 91657;E2.4167;N48.7000;13;
3;FRA;Île-de-FRA;Essonne;Villabé 91659;E2.4500;N48.5833;13;
3;FRA;Île-de-FRA;Essonne;Villebon-sur-Yvette 91661;E2.2500;N48.7000;13;
3;FRA;Île-de-FRA;Essonne;Villeconin 91662;E2.1167;N48.5167;13;
3;FRA;Île-de-FRA;Essonne;Villejust 91666;E2.2333;N48.6833;13;
3;FRA;Île-de-FRA;Essonne;Villemoisson-sur-Orge 91667;E2.3167;N48.6667;13;
3;FRA;Île-de-FRA;Essonne;Villeneuve-sur-Auvers 91671;E2.2500;N48.4667;13;
3;FRA;Île-de-FRA;Essonne;Villiers-le-Bâcle 91679;E2.1167;N48.7167;13;
3;FRA;Île-de-FRA;Essonne;Villiers-sur-Orge 91685;E2.3000;N48.6500;13;
3;FRA;Île-de-FRA;Essonne;Viry-Châtillon 91687;E2.3833;N48.6667;13;
3;FRA;Île-de-FRA;Essonne;Wissous 91689;E2.3333;N48.7333;13;
3;FRA;Île-de-FRA;Essonne;Yerres 91691;E2.5000;N48.7167;13;
2;FRA;Île-de-FRA;Hauts-de-Seine;;E2.2549;N48.8737;9;
3;FRA;Île-de-FRA;Hauts-de-Seine;Antony 92002;E2.3000;N48.7500;13;
3;FRA;Île-de-FRA;Hauts-de-Seine;Asnières-sur-Seine 92004;E2.2833;N48.9182;13;
3;FRA;Île-de-FRA;Hauts-de-Seine;Bagneux 92007;E2.3000;N48.8000;13;
3;FRA;Île-de-FRA;Hauts-de-Seine;Bois-Colombes 92009;E2.2667;N48.9167;13;
3;FRA;Île-de-FRA;Hauts-de-Seine;Boulogne-Billancourt 92012;E2.2500;N48.8333;13;
3;FRA;Île-de-FRA;Hauts-de-Seine;Bourg-la-Reine 92014;E2.3167;N48.7750;13;
3;FRA;Île-de-FRA;Hauts-de-Seine;Châtenay-Malabry 92019;E2.2000;N48.8000;13;
3;FRA;Île-de-FRA;Hauts-de-Seine;Châtillon 92020;E2.2667;N48.7667;13;
3;FRA;Île-de-FRA;Hauts-de-Seine;Chaville 92022;E2.2833;N48.8000;13;
3;FRA;Île-de-FRA;Hauts-de-Seine;Clamart 92023;E2.2667;N48.8000;13;
3;FRA;Île-de-FRA;Hauts-de-Seine;Clichy 92024;E2.3000;N48.9000;13;
3;FRA;Île-de-FRA;Hauts-de-Seine;Colombes 92025;E2.2500;N48.9167;13;
3;FRA;Île-de-FRA;Hauts-de-Seine;Courbevoie 92026;E2.2561;N48.8967;13;
3;FRA;Île-de-FRA;Hauts-de-Seine;Fontenay-aux-Roses 92032;E2.2833;N48.7833;13;
3;FRA;Île-de-FRA;Hauts-de-Seine;Garches 92033;E2.1833;N48.8417;13;
3;FRA;Île-de-FRA;Hauts-de-Seine;Gennevilliers 92036;E2.3000;N48.9333;13;
3;FRA;Île-de-FRA;Hauts-de-Seine;Issy-les-Moulineaux 92040;E2.2667;N48.8167;13;
3;FRA;Île-de-FRA;Hauts-de-Seine;La Garenne-Colombes 92035;E2.2500;N48.9000;13;
3;FRA;Île-de-FRA;Hauts-de-Seine;Le Plessis-Robinson 92060;E2.2667;N48.7833;13;
3;FRA;Île-de-FRA;Hauts-de-Seine;Levallois-Perret 92044;E2.2833;N48.9000;13;
3;FRA;Île-de-FRA;Hauts-de-Seine;Malakoff 92046;E2.3000;N48.8167;13;
3;FRA;Île-de-FRA;Hauts-de-Seine;Marnes-la-Coquette 92047;E2.1750;N48.8333;13;
3;FRA;Île-de-FRA;Hauts-de-Seine;Meudon 92048;E2.2417;N48.8083;13;
3;FRA;Île-de-FRA;Hauts-de-Seine;Montrouge 92049;E2.3167;N48.8167;13;
3;FRA;Île-de-FRA;Hauts-de-Seine;Nanterre 92050;E2.2000;N48.9000;13;
3;FRA;Île-de-FRA;Hauts-de-Seine;Neuilly-sur-Seine 92051;E2.2667;N48.8833;13;
3;FRA;Île-de-FRA;Hauts-de-Seine;Puteaux 92062;E2.2333;N48.8667;13;
3;FRA;Île-de-FRA;Hauts-de-Seine;Rueil-Malmaison 92063;E2.2000;N48.8833;13;
3;FRA;Île-de-FRA;Hauts-de-Seine;Saint-Cloud 92064;E2.2167;N48.8417;13;
3;FRA;Île-de-FRA;Hauts-de-Seine;Sceaux 92071;E2.2000;N48.8167;13;
3;FRA;Île-de-FRA;Hauts-de-Seine;Sèvres 92072;E2.2833;N48.7833;13;
3;FRA;Île-de-FRA;Hauts-de-Seine;Suresnes 92073;E2.2333;N48.8667;13;
3;FRA;Île-de-FRA;Hauts-de-Seine;Vanves 92075;E2.3000;N48.8333;13;
3;FRA;Île-de-FRA;Hauts-de-Seine;Vaucresson 92076;E2.1750;N48.8333;13;
3;FRA;Île-de-FRA;Hauts-de-Seine;Ville-d'Avray 92077;E2.1917;N48.8250;13;
3;FRA;Île-de-FRA;Hauts-de-Seine;Villeneuve-la-Garenne 92078;E2.3333;N48.9333;13;
2;FRA;Île-de-FRA;Paris;;E2.3538;N48.8448;9;
3;FRA;Île-de-FRA;Paris;Alfortville 75001=94002;E2.4167;N48.8000;13;
3;FRA;Île-de-FRA;Paris;Antony 75002=92002;E2.3000;N48.7500;13;
3;FRA;Île-de-FRA;Paris;Arcueil 75003=94003;E2.3333;N48.8000;13;
3;FRA;Île-de-FRA;Paris;Asnières 75004=92004;E2.2833;N48.9182;13;
3;FRA;Île-de-FRA;Paris;Aubervilliers 75005=93001;E2.3833;N48.9167;13;
3;FRA;Île-de-FRA;Paris;Bagneux 75007=92007;E2.3000;N48.8000;13;
3;FRA;Île-de-FRA;Paris;Bagnolet 75006=93006;E2.4167;N48.8667;13;
3;FRA;Île-de-FRA;Paris;Bobigny 75008=93008;E2.4500;N48.9000;13;
3;FRA;Île-de-FRA;Paris;Bois-Colombes 75009=92009;E2.2667;N48.9167;13;
3;FRA;Île-de-FRA;Paris;Bondy 75010=93010;E2.4667;N48.9000;13;
3;FRA;Île-de-FRA;Paris;Bonneuil-sur-Marne 75011=94011;E2.4833;N48.7667;13;
3;FRA;Île-de-FRA;Paris;Boulogne-Billancourt 75012=92012;E2.2500;N48.8333;13;
3;FRA;Île-de-FRA;Paris;Bourg-la-Reine 75014=92014;E2.3167;N48.7750;13;
3;FRA;Île-de-FRA;Paris;Bry-sur-Marne 75015=94015;E2.5167;N48.8333;13;
3;FRA;Île-de-FRA;Paris;Cachan 75016=94016;E2.3333;N48.7833;13;
3;FRA;Île-de-FRA;Paris;Champigny-sur-Marne 75017=94017;E2.5167;N48.8167;13;
3;FRA;Île-de-FRA;Paris;Charenton-le-Pont 75018=94018;E2.4167;N48.8167;13;
3;FRA;Île-de-FRA;Paris;Châtenay-Malabry 75019=92019;E2.2000;N48.8000;13;
3;FRA;Île-de-FRA;Paris;Châtillon 75020=92020;E2.2667;N48.7667;13;
3;FRA;Île-de-FRA;Paris;Chevilly-Larue 75021=94021;E2.3500;N48.7667;13;
3;FRA;Île-de-FRA;Paris;Choisy-le-Roi 75022=94022;E2.4167;N48.7667;13;
3;FRA;Île-de-FRA;Paris;Clamart 75023=92023;E2.2667;N48.8000;13;
3;FRA;Île-de-FRA;Paris;Clichy 75024=92024;E2.3000;N48.9000;13;
3;FRA;Île-de-FRA;Paris;Colombes 75025=92025;E2.2500;N48.9167;13;
3;FRA;Île-de-FRA;Paris;Courbevoie 75026=92026;E2.2561;N48.8967;13;
3;FRA;Île-de-FRA;Paris;Créteil 75028=94028;E2.4667;N48.7833;13;
3;FRA;Île-de-FRA;Paris;Drancy 75029=93029;E2.4500;N48.9333;13;
3;FRA;Île-de-FRA;Paris;Dugny 75030=93030;E2.4167;N48.9500;13;
3;FRA;Île-de-FRA;Paris;Épinay-sur-Seine 75031=93031;E2.3083;N48.9500;13;
3;FRA;Île-de-FRA;Paris;Fontenay-aux-Roses 75032=92032;E2.2833;N48.7833;13;
3;FRA;Île-de-FRA;Paris;Fontenay-sous-Bois 75033=94033;E2.4833;N48.8500;13;
3;FRA;Île-de-FRA;Paris;Fresnes 75034=94034;E2.3167;N48.7500;13;
3;FRA;Île-de-FRA;Paris;Gennevilliers 75036=92036;E2.3000;N48.9333;13;
3;FRA;Île-de-FRA;Paris;Gentilly 75037=94037;E2.3333;N48.8167;13;
3;FRA;Île-de-FRA;Paris;Issy-les-Moulineaux 75040=92040;E2.2667;N48.8167;13;
3;FRA;Île-de-FRA;Paris;Ivry-sur-Seine 75041=94041;E2.3833;N48.8167;13;
3;FRA;Île-de-FRA;Paris;Joinville-le-Pont 75042=94042;E2.4667;N48.8167;13;
3;FRA;Île-de-FRA;Paris;L'Haÿ-les-Roses 75038=94038;E2.3333;N48.7833;13;
3;FRA;Île-de-FRA;Paris;L'Île-Saint-Denis 75039=93039;E2.3333;N48.9333;13;
3;FRA;Île-de-FRA;Paris;La Courneuve 75027=93027;E2.3833;N48.9167;13;
3;FRA;Île-de-FRA;Paris;La Garenne-Colombes 75035=92035;E2.2500;N48.9000;13;
3;FRA;Île-de-FRA;Paris;Le Bourget 75013=93013;E2.4167;N48.9333;13;
3;FRA;Île-de-FRA;Paris;Le Kremlin-Bicêtre 75043=94043;E2.3667;N48.8167;13;
3;FRA;Île-de-FRA;Paris;Le Perreux-sur-Marne 75058=94058;E2.5000;N48.8500;13;
3;FRA;Île-de-FRA;Paris;Le Plessis-Robinson 75060=92060;E2.2667;N48.7833;13;
3;FRA;Île-de-FRA;Paris;Le Pré-Saint-Gervais 75061=93061;E2.4000;N48.8833;13;
3;FRA;Île-de-FRA;Paris;Les Lilas 75045=93045;E2.4333;N48.8833;13;
3;FRA;Île-de-FRA;Paris;Les Pavillons-sous-Bois 75057=93057;E2.5167;N48.9000;13;
3;FRA;Île-de-FRA;Paris;Levallois-Perret 75044=92044;E2.2833;N48.9000;13;
3;FRA;Île-de-FRA;Paris;Maisons-Alfort 75046=94046;E2.4333;N48.8000;13;
3;FRA;Île-de-FRA;Paris;Malakoff 75047=92046;E2.3000;N48.8167;13;
3;FRA;Île-de-FRA;Paris;Montreuil 75048=93048;E2.4333;N48.8667;13;
3;FRA;Île-de-FRA;Paris;Montrouge 75049=92049;E2.3167;N48.8167;13;
3;FRA;Île-de-FRA;Paris;Nanterre 75050=92050;E2.2000;N48.9000;13;
3;FRA;Île-de-FRA;Paris;Neuilly-sur-Seine 75051=92051;E2.2667;N48.8833;13;
3;FRA;Île-de-FRA;Paris;Nogent-sur-Marne 75052=94052;E2.4833;N48.8333;13;
3;FRA;Île-de-FRA;Paris;Noisy-le-Sec 75053=93053;E2.4667;N48.8833;13;
3;FRA;Île-de-FRA;Paris;Orly 75054=94054;E2.4000;N48.7500;13;
3;FRA;Île-de-FRA;Paris;Pantin 75055=93055;E2.4000;N48.9000;13;
3;FRA;Île-de-FRA;Paris;Paris 75056;E2.3333;N48.8667;13;
3;FRA;Île-de-FRA;Paris;Paris--1er 75101;E2.3397;N48.8609;13;
3;FRA;Île-de-FRA;Paris;Paris--2e 75102;E2.3411;N48.8673;13;
3;FRA;Île-de-FRA;Paris;Paris--3e 75103;E2.3601;N48.8634;13;
3;FRA;Île-de-FRA;Paris;Paris--4e 75104;E2.3581;N48.8550;13;
3;FRA;Île-de-FRA;Paris;Paris--5e 75105;E2.3499;N48.8465;13;
3;FRA;Île-de-FRA;Paris;Paris--6e 75106;E2.3313;N48.8502;13;
3;FRA;Île-de-FRA;Paris;Paris--7e 75107;E2.3119;N48.8559;13;
3;FRA;Île-de-FRA;Paris;Paris--8e 75108;E2.3136;N48.8747;13;
3;FRA;Île-de-FRA;Paris;Paris--9e 75109;E2.3382;N48.8738;13;
3;FRA;Île-de-FRA;Paris;Paris-10e 75110;E2.3582;N48.8733;13;
3;FRA;Île-de-FRA;Paris;Paris-11e 75111;E2.3805;N48.8590;13;
3;FRA;Île-de-FRA;Paris;Paris-12e 75112;E2.3932;N48.8405;13;
3;FRA;Île-de-FRA;Paris;Paris-13e 75113;E2.3656;N48.8305;13;
3;FRA;Île-de-FRA;Paris;Paris-14e 75114;E2.3228;N48.8296;13;
3;FRA;Île-de-FRA;Paris;Paris-15e 75115;E2.2979;N48.8420;13;
3;FRA;Île-de-FRA;Paris;Paris-16e 75116;E2.2769;N48.8627;13;
3;FRA;Île-de-FRA;Paris;Paris-17e 75117;E2.3175;N48.8842;13;
3;FRA;Île-de-FRA;Paris;Paris-18e 75118;E2.3460;N48.8923;13;
3;FRA;Île-de-FRA;Paris;Paris-19e 75119;E2.3844;N48.8836;13;
3;FRA;Île-de-FRA;Paris;Paris-20e 75120;E2.4001;N48.8646;13;
3;FRA;Île-de-FRA;Paris;Pierrefitte-sur-Seine 75059=93059;E2.3667;N48.9667;13;
3;FRA;Île-de-FRA;Paris;Puteaux 75062=92062;E2.2333;N48.8667;13;
3;FRA;Île-de-FRA;Paris;Romainville 75063=93063;E2.4333;N48.8833;13;
3;FRA;Île-de-FRA;Paris;Rosny-sous-Bois 75064=93064;E2.4833;N48.8667;13;
3;FRA;Île-de-FRA;Paris;Rungis 75065=94065;E2.3500;N48.7500;13;
3;FRA;Île-de-FRA;Paris;Saint-Denis 75066=93066;E2.3583;N48.9333;13;
3;FRA;Île-de-FRA;Paris;Saint-Mandé 75067=94067;E2.4167;N48.8333;13;
3;FRA;Île-de-FRA;Paris;Saint-Maur-des-Fossés 75068=94068;E2.5000;N48.8000;13;
3;FRA;Île-de-FRA;Paris;Saint-Maurice 75069=94069;E2.4583;N48.8167;13;
3;FRA;Île-de-FRA;Paris;Saint-Ouen 75070=93070;E2.3333;N48.9000;13;
3;FRA;Île-de-FRA;Paris;Sceaux 75071=92071;E2.2000;N48.8167;13;
3;FRA;Île-de-FRA;Paris;Stains 75072=93072;E2.3833;N48.9500;13;
3;FRA;Île-de-FRA;Paris;Suresnes 75073=92073;E2.2333;N48.8667;13;
3;FRA;Île-de-FRA;Paris;Thiais 75074=94073;E2.3833;N48.7667;13;
3;FRA;Île-de-FRA;Paris;Vanves 75075=92075;E2.3000;N48.8333;13;
3;FRA;Île-de-FRA;Paris;Villejuif 75076=94076;E2.3667;N48.8000;13;
3;FRA;Île-de-FRA;Paris;Villemomble 75077=93077;E2.5000;N48.8833;13;
3;FRA;Île-de-FRA;Paris;Villeneuve-la-Garenne 75078=92078;E2.3000;N48.8333;13;
3;FRA;Île-de-FRA;Paris;Villetaneuse 75079=93079;E2.3417;N48.9583;13;
3;FRA;Île-de-FRA;Paris;Vincennes 75080=94080;E2.4333;N48.8500;13;
3;FRA;Île-de-FRA;Paris;Vitry-sur-Seine 75081=94081;E2.4000;N48.7833;13;
2;FRA;Île-de-FRA;Seine-et-Marne;;E2.9361;N48.7381;9;
3;FRA;Île-de-FRA;Seine-et-Marne;Achères-la-Forêt 77001;E2.5667;N48.3500;13;
3;FRA;Île-de-FRA;Seine-et-Marne;Amillis 77002;E3.1333;N48.7333;13;
3;FRA;Île-de-FRA;Seine-et-Marne;Amponville 77003;E2.5333;N48.2833;13;
3;FRA;Île-de-FRA;Seine-et-Marne;Andrezel 77004;E2.8167;N48.6000;13;
3;FRA;Île-de-FRA;Seine-et-Marne;Annet-sur-Marne 77005;E2.7167;N48.9167;13;
3;FRA;Île-de-FRA;Seine-et-Marne;Arbonne-la-Forêt 77006;E2.5641;N48.4141;13;
3;FRA;Île-de-FRA;Seine-et-Marne;Argentières 77007;E2.8667;N48.6500;13;
3;FRA;Île-de-FRA;Seine-et-Marne;Armentières-en-Brie 77008;E3.0167;N48.9833;13;
3;FRA;Île-de-FRA;Seine-et-Marne;Arville 77009;E2.5500;N48.1833;13;
3;FRA;Île-de-FRA;Seine-et-Marne;Aubepierre-Ozouer-le-Repos 77010;E2.8867;N48.6310;13;
3;FRA;Île-de-FRA;Seine-et-Marne;Aufferville 77011;E2.6167;N48.2167;13;
3;FRA;Île-de-FRA;Seine-et-Marne;Augers-en-Brie 77012;E3.3500;N48.6833;13;
3;FRA;Île-de-FRA;Seine-et-Marne;Aulnoy 77013;E3.1000;N48.8500;13;
3;FRA;Île-de-FRA;Seine-et-Marne;Avon 77014;E2.7167;N48.4000;13;
3;FRA;Île-de-FRA;Seine-et-Marne;Baby 77015;E3.3333;N48.4000;13;
3;FRA;Île-de-FRA;Seine-et-Marne;Bagneaux-sur-Loing 77016;E2.7000;N48.2333;13;
3;FRA;Île-de-FRA;Seine-et-Marne;Bailly-Carrois 77017=77211;E2.9833;N48.5833;13;
3;FRA;Île-de-FRA;Seine-et-Marne;Bailly-Romainvilliers 77018;E2.8167;N48.8333;13;
3;FRA;Île-de-FRA;Seine-et-Marne;Balloy 77019;E3.1333;N48.4000;13;
3;FRA;Île-de-FRA;Seine-et-Marne;Bannost-Villegagnon 77020;E3.1923;N48.6778;13;
3;FRA;Île-de-FRA;Seine-et-Marne;Barbey 77021;E3.0500;N48.3667;13;
3;FRA;Île-de-FRA;Seine-et-Marne;Barbizon 77022;E2.6000;N48.4500;13;
3;FRA;Île-de-FRA;Seine-et-Marne;Barcy 77023;E2.8833;N49.0167;13;
3;FRA;Île-de-FRA;Seine-et-Marne;Bassevelle 77024;E3.2833;N48.9333;13;
3;FRA;Île-de-FRA;Seine-et-Marne;Bazoches-lès-Bray 77025;E3.1833;N48.4000;13;
3;FRA;Île-de-FRA;Seine-et-Marne;Beauchery-Saint-Martin 77026;E3.4030;N48.5168;13;
3;FRA;Île-de-FRA;Seine-et-Marne;Beaumont-du-Gâtinais 77027;E2.4748;N48.1359;13;
3;FRA;Île-de-FRA;Seine-et-Marne;Beautheil 77028;E3.0833;N48.7500;13;
3;FRA;Île-de-FRA;Seine-et-Marne;Beauvoir 77029;E2.8667;N48.6333;13;
3;FRA;Île-de-FRA;Seine-et-Marne;Bellot 77030;E3.3167;N48.8500;13;
3;FRA;Île-de-FRA;Seine-et-Marne;Bernay-Vilbert 77031;E2.9375;N48.6762;13;
3;FRA;Île-de-FRA;Seine-et-Marne;Beton-Bazoches 77032;E3.2500;N48.7000;13;
3;FRA;Île-de-FRA;Seine-et-Marne;Bezalles 77033;E3.2333;N48.6833;13;
3;FRA;Île-de-FRA;Seine-et-Marne;Blandy 77034;E2.7833;N48.5667;13;
3;FRA;Île-de-FRA;Seine-et-Marne;Blennes 77035;E3.0167;N48.2500;13;
3;FRA;Île-de-FRA;Seine-et-Marne;Bois-le-Roi 77037;E2.7000;N48.4667;13;
3;FRA;Île-de-FRA;Seine-et-Marne;Boisdon 77036;E3.2167;N48.6833;13;
3;FRA;Île-de-FRA;Seine-et-Marne;Boissettes 77038;E2.6167;N48.5167;13;
3;FRA;Île-de-FRA;Seine-et-Marne;Boissise-la-Bertrand 77039;E2.5833;N48.5167;13;
3;FRA;Île-de-FRA;Seine-et-Marne;Boissise-le-Roi 77040;E2.5667;N48.5333;13;
3;FRA;Île-de-FRA;Seine-et-Marne;Boissy-aux-Cailles 77041;E2.5000;N48.3167;13;
3;FRA;Île-de-FRA;Seine-et-Marne;Boissy-le-Châtel 77042;E3.1333;N48.8167;13;
3;FRA;Île-de-FRA;Seine-et-Marne;Boitron 77043;E3.2667;N48.9000;13;
3;FRA;Île-de-FRA;Seine-et-Marne;Bombon 77044;E2.8500;N48.5667;13;
3;FRA;Île-de-FRA;Seine-et-Marne;Bougligny 77045;E2.6500;N48.2000;13;
3;FRA;Île-de-FRA;Seine-et-Marne;Boulancourt 77046;E2.4333;N48.2500;13;
3;FRA;Île-de-FRA;Seine-et-Marne;Bouleurs 77047;E2.9167;N48.8833;13;
3;FRA;Île-de-FRA;Seine-et-Marne;Bourron-Marlotte 77048;E2.7000;N48.3333;13;
3;FRA;Île-de-FRA;Seine-et-Marne;Boutigny 77049;E2.9333;N48.9167;13;
3;FRA;Île-de-FRA;Seine-et-Marne;Bransles 77050;E2.8333;N48.1500;13;
3;FRA;Île-de-FRA;Seine-et-Marne;Bray-sur-Seine 77051;E3.2333;N48.4167;13;
3;FRA;Île-de-FRA;Seine-et-Marne;Bréau 77052;E2.8777;N48.5602;13;
3;FRA;Île-de-FRA;Seine-et-Marne;Brie-Comte-Robert 77053;E2.6167;N48.6833;13;
3;FRA;Île-de-FRA;Seine-et-Marne;Brou-sur-Chantereine 77055;E2.6333;N48.8833;13;
3;FRA;Île-de-FRA;Seine-et-Marne;Burcy 77056;E2.5167;N48.2333;13;
3;FRA;Île-de-FRA;Seine-et-Marne;Bussières 77057;E3.2333;N48.9333;13;
3;FRA;Île-de-FRA;Seine-et-Marne;Bussy-Saint-Georges 77058;E2.7000;N48.8500;13;
3;FRA;Île-de-FRA;Seine-et-Marne;Bussy-Saint-Martin 77059;E2.6833;N48.8500;13;
3;FRA;Île-de-FRA;Seine-et-Marne;Buthiers 77060;E2.4333;N48.2833;13;
3;FRA;Île-de-FRA;Seine-et-Marne;Cannes-Écluse 77061;E2.9847;N48.3647;13;
3;FRA;Île-de-FRA;Seine-et-Marne;Carnetin 77062;E2.7167;N48.9000;13;
3;FRA;Île-de-FRA;Seine-et-Marne;Cély 77065;E2.5374;N48.4590;13;
3;FRA;Île-de-FRA;Seine-et-Marne;Cerneux 77066;E3.3500;N48.6833;13;
3;FRA;Île-de-FRA;Seine-et-Marne;Cesson 77067;E2.6000;N48.5667;13;
3;FRA;Île-de-FRA;Seine-et-Marne;Cessoy-en-Montois 77068;E3.1500;N48.5000;13;
3;FRA;Île-de-FRA;Seine-et-Marne;Chailly-en-Bière 77069;E2.5833;N48.4667;13;
3;FRA;Île-de-FRA;Seine-et-Marne;Chailly-en-Brie 77070;E3.1167;N48.7833;13;
3;FRA;Île-de-FRA;Seine-et-Marne;Chaintreaux 77071;E2.8167;N48.2000;13;
3;FRA;Île-de-FRA;Seine-et-Marne;Chalautre-la-Grande 77072;E3.4500;N48.5333;13;
3;FRA;Île-de-FRA;Seine-et-Marne;Chalautre-la-Petite 77073;E3.3167;N48.5333;13;
3;FRA;Île-de-FRA;Seine-et-Marne;Chalautre-la-Reposte 77074=77223;E3.1000;N48.4833;13;
3;FRA;Île-de-FRA;Seine-et-Marne;Chalifert 77075;E2.7667;N48.8833;13;
3;FRA;Île-de-FRA;Seine-et-Marne;Chalmaison 77076;E3.2500;N48.4833;13;
3;FRA;Île-de-FRA;Seine-et-Marne;Chambry 77077;E2.9000;N49.0000;13;
3;FRA;Île-de-FRA;Seine-et-Marne;Chamigny 77078;E3.1500;N48.9833;13;
3;FRA;Île-de-FRA;Seine-et-Marne;Champagne-sur-Seine 77079;E2.8000;N48.4000;13;
3;FRA;Île-de-FRA;Seine-et-Marne;Champcenest 77080;E3.2833;N48.6667;13;
3;FRA;Île-de-FRA;Seine-et-Marne;Champdeuil 77081;E2.7333;N48.6167;13;
3;FRA;Île-de-FRA;Seine-et-Marne;Champeaux 77082;E2.8000;N48.5833;13;
3;FRA;Île-de-FRA;Seine-et-Marne;Champs-sur-Marne 77083;E2.6000;N48.8500;13;
3;FRA;Île-de-FRA;Seine-et-Marne;Changis-sur-Marne 77084;E3.0333;N48.9667;13;
3;FRA;Île-de-FRA;Seine-et-Marne;Chanteloup-en-Brie 77085;E2.5917;N48.8833;13;
3;FRA;Île-de-FRA;Seine-et-Marne;Charmentray 77094;E2.7833;N48.9500;13;
3;FRA;Île-de-FRA;Seine-et-Marne;Charny 77095;E2.7667;N48.9667;13;
3;FRA;Île-de-FRA;Seine-et-Marne;Chartrettes 77096;E2.7000;N48.4833;13;
3;FRA;Île-de-FRA;Seine-et-Marne;Chartronges 77097;E3.2667;N48.7333;13;
3;FRA;Île-de-FRA;Seine-et-Marne;Château-Landon 77099;E2.7000;N48.1500;13;
3;FRA;Île-de-FRA;Seine-et-Marne;Châteaubleau 77098;E3.1000;N48.5833;13;
3;FRA;Île-de-FRA;Seine-et-Marne;Châtenay-sur-Seine 77101;E3.1000;N48.4167;13;
3;FRA;Île-de-FRA;Seine-et-Marne;Châtenoy 77102;E2.6333;N48.2333;13;
3;FRA;Île-de-FRA;Seine-et-Marne;Châtillon-la-Borde 77103;E2.8000;N48.5333;13;
3;FRA;Île-de-FRA;Seine-et-Marne;Châtres 77104;E2.8167;N48.7000;13;
3;FRA;Île-de-FRA;Seine-et-Marne;Chauconin 77105=77335;E2.8500;N48.9667;13;
3;FRA;Île-de-FRA;Seine-et-Marne;Chauconin-Neufmontiers 77335;E2.8385;N48.9742;13;
3;FRA;Île-de-FRA;Seine-et-Marne;Chauffry 77106;E3.1833;N48.8167;13;
3;FRA;Île-de-FRA;Seine-et-Marne;Chaumes-en-Brie 77107;E2.8500;N48.6667;13;
3;FRA;Île-de-FRA;Seine-et-Marne;Chelles 77108;E2.6000;N48.8833;13;
3;FRA;Île-de-FRA;Seine-et-Marne;Chenoise 77109;E3.2000;N48.6167;13;
3;FRA;Île-de-FRA;Seine-et-Marne;Chenou 77110;E2.6500;N48.1667;13;
3;FRA;Île-de-FRA;Seine-et-Marne;Chessy 77111;E2.7667;N48.8833;13;
3;FRA;Île-de-FRA;Seine-et-Marne;Chevrainvilliers 77112;E2.6167;N48.2500;13;
3;FRA;Île-de-FRA;Seine-et-Marne;Chevru 77113;E3.2000;N48.7333;13;
3;FRA;Île-de-FRA;Seine-et-Marne;Chevry-Cossigny 77114;E2.6667;N48.7167;13;
3;FRA;Île-de-FRA;Seine-et-Marne;Chevry-en-Sereine 77115;E2.9500;N48.2500;13;
3;FRA;Île-de-FRA;Seine-et-Marne;Choisy-en-Brie 77116;E3.2167;N48.7667;13;
3;FRA;Île-de-FRA;Seine-et-Marne;Citry 77117;E3.2500;N48.9667;13;
3;FRA;Île-de-FRA;Seine-et-Marne;Claye-Souilly 77118;E2.7000;N48.9500;13;
3;FRA;Île-de-FRA;Seine-et-Marne;Clos-Fontaine 77119;E3.0167;N48.6067;13;
3;FRA;Île-de-FRA;Seine-et-Marne;Cocherel 77120;E3.1000;N49.0167;13;
3;FRA;Île-de-FRA;Seine-et-Marne;Collégien 77121;E2.6667;N48.8333;13;
3;FRA;Île-de-FRA;Seine-et-Marne;Combs-la-Ville 77122;E2.5667;N48.6667;13;
3;FRA;Île-de-FRA;Seine-et-Marne;Compans 77123;E2.6667;N49.0000;13;
3;FRA;Île-de-FRA;Seine-et-Marne;Conches-sur-Gondoire 77124;E2.7183;N48.8556;13;
3;FRA;Île-de-FRA;Seine-et-Marne;Condé-Sainte-Libiaire 77125;E2.8333;N48.9000;13;
3;FRA;Île-de-FRA;Seine-et-Marne;Congis-sur-Thérouanne 77126;E2.9757;N49.0083;13;
3;FRA;Île-de-FRA;Seine-et-Marne;Coubert 77127;E2.7000;N48.6667;13;
3;FRA;Île-de-FRA;Seine-et-Marne;Couilly-Pont-aux-Dames 77128;E2.8667;N48.8833;13;
3;FRA;Île-de-FRA;Seine-et-Marne;Coulombs-en-Valois 77129;E3.1257;N49.0696;13;
3;FRA;Île-de-FRA;Seine-et-Marne;Coulommes 77130;E2.9333;N48.9000;13;
3;FRA;Île-de-FRA;Seine-et-Marne;Coulommiers 77131;E3.0833;N48.8167;13;
3;FRA;Île-de-FRA;Seine-et-Marne;Coupvray 77132;E2.8000;N48.9000;13;
3;FRA;Île-de-FRA;Seine-et-Marne;Courcelles-en-Bassée 77133;E3.0542;N48.4094;13;
3;FRA;Île-de-FRA;Seine-et-Marne;Courchamp 77134;E3.2833;N48.6333;13;
3;FRA;Île-de-FRA;Seine-et-Marne;Courpalay 77135;E2.9500;N48.6500;13;
3;FRA;Île-de-FRA;Seine-et-Marne;Courquetaine 77136;E2.7500;N48.6833;13;
3;FRA;Île-de-FRA;Seine-et-Marne;Courtacon 77137;E3.2833;N48.7000;13;
3;FRA;Île-de-FRA;Seine-et-Marne;Courtomer 77138;E2.9000;N48.6500;13;
3;FRA;Île-de-FRA;Seine-et-Marne;Courtry 77139;E2.7667;N48.5333;13;
3;FRA;Île-de-FRA;Seine-et-Marne;Coutençon 77140;E3.0000;N48.4667;13;
3;FRA;Île-de-FRA;Seine-et-Marne;Coutevroult 77141;E2.8500;N48.8667;13;
3;FRA;Île-de-FRA;Seine-et-Marne;Crécy-la-Chapelle 77142;E2.9107;N48.8563;13;
3;FRA;Île-de-FRA;Seine-et-Marne;Crégy-lès-Meaux 77143;E2.8833;N48.9833;13;
3;FRA;Île-de-FRA;Seine-et-Marne;Crèvecoeur-en-Brie 77144;E2.9000;N48.7500;13;
3;FRA;Île-de-FRA;Seine-et-Marne;Crisenoy 77145;E2.7500;N48.6000;13;
3;FRA;Île-de-FRA;Seine-et-Marne;Croissy-Beaubourg 77146;E2.6667;N48.8333;13;
3;FRA;Île-de-FRA;Seine-et-Marne;Crouy-sur-Ourcq 77148;E3.0667;N49.0833;13;
3;FRA;Île-de-FRA;Seine-et-Marne;Cucharmoy 77149;E3.1833;N48.5833;13;
3;FRA;Île-de-FRA;Seine-et-Marne;Cuisy 77150;E2.7667;N49.0167;13;
3;FRA;Île-de-FRA;Seine-et-Marne;Dagny 77151;E3.1667;N48.7167;13;
3;FRA;Île-de-FRA;Seine-et-Marne;Dammarie-les-Lys 77152;E2.6372;N48.5154;13;
3;FRA;Île-de-FRA;Seine-et-Marne;Dammartin-en-Goële 77153;E2.6833;N49.0500;13;
3;FRA;Île-de-FRA;Seine-et-Marne;Dammartin-sur-Tigeaux 77154;E2.9333;N48.8167;13;
3;FRA;Île-de-FRA;Seine-et-Marne;Dampmart 77155;E2.7333;N48.8833;13;
3;FRA;Île-de-FRA;Seine-et-Marne;Darvault 77156;E2.7333;N48.2667;13;
3;FRA;Île-de-FRA;Seine-et-Marne;Dhuisy 77157;E3.1667;N49.0333;13;
3;FRA;Île-de-FRA;Seine-et-Marne;Diant 77158;E2.9833;N48.2833;13;
3;FRA;Île-de-FRA;Seine-et-Marne;Donnemarie-Dontilly 77159;E3.1329;N48.4767;13;
3;FRA;Île-de-FRA;Seine-et-Marne;Dontilly 77160=77159;E3.1295;N48.4775;13;
3;FRA;Île-de-FRA;Seine-et-Marne;Dormelles 77161;E2.9000;N48.3167;13;
3;FRA;Île-de-FRA;Seine-et-Marne;Doue 77162;E3.1500;N48.8667;13;
3;FRA;Île-de-FRA;Seine-et-Marne;Douy-la-Ramée 77163;E2.8833;N49.0667;13;
3;FRA;Île-de-FRA;Seine-et-Marne;Échouboulains 77164;E2.9500;N48.4667;13;
3;FRA;Île-de-FRA;Seine-et-Marne;Écuelles 77166;E2.8167;N48.3500;13;
3;FRA;Île-de-FRA;Seine-et-Marne;Égligny 77167;E3.1167;N48.4333;13;
3;FRA;Île-de-FRA;Seine-et-Marne;Égreville 77168;E2.8667;N48.1667;13;
3;FRA;Île-de-FRA;Seine-et-Marne;Émerainville 77169;E2.6167;N48.8167;13;
3;FRA;Île-de-FRA;Seine-et-Marne;Épisy 77170;E2.7833;N48.3333;13;
3;FRA;Île-de-FRA;Seine-et-Marne;Esbly 77171;E2.8167;N48.9000;13;
3;FRA;Île-de-FRA;Seine-et-Marne;Esmans 77172;E2.9667;N48.3500;13;
3;FRA;Île-de-FRA;Seine-et-Marne;Étrépilly 77173;E2.9333;N49.0333;13;
3;FRA;Île-de-FRA;Seine-et-Marne;Everly 77174;E3.2500;N48.4667;13;
3;FRA;Île-de-FRA;Seine-et-Marne;Évry-Grégy-sur-Yerre 77175;E2.6332;N48.6525;13;
3;FRA;Île-de-FRA;Seine-et-Marne;Faremoutiers 77176;E3.0000;N48.8000;13;
3;FRA;Île-de-FRA;Seine-et-Marne;Favières 77177;E2.7833;N48.7667;13;
3;FRA;Île-de-FRA;Seine-et-Marne;Faÿ-lès-Nemours 77178;E2.6667;N48.2333;13;
3;FRA;Île-de-FRA;Seine-et-Marne;Féricy 77179;E2.8000;N48.4500;13;
3;FRA;Île-de-FRA;Seine-et-Marne;Férolles-Attilly 77180;E2.6333;N48.7333;13;
3;FRA;Île-de-FRA;Seine-et-Marne;Ferrières-en-Brie 77181;E2.7048;N48.8216;13;
3;FRA;Île-de-FRA;Seine-et-Marne;Flagy 77184;E2.9167;N48.3167;13;
3;FRA;Île-de-FRA;Seine-et-Marne;Fleury-en-Bière 77185;E2.5500;N48.4500;13;
3;FRA;Île-de-FRA;Seine-et-Marne;Fontaine-Fourches 77187;E3.3833;N48.4167;13;
3;FRA;Île-de-FRA;Seine-et-Marne;Fontaine-le-Port 77188;E2.7667;N48.4833;13;
3;FRA;Île-de-FRA;Seine-et-Marne;Fontaine-sous-Montaiguillon 77189=77262;E3.5153;N48.6165;13;
3;FRA;Île-de-FRA;Seine-et-Marne;Fontainebleau 77186;E2.7000;N48.4000;13;
3;FRA;Île-de-FRA;Seine-et-Marne;Fontains 77190;E3.0000;N48.5333;13;
3;FRA;Île-de-FRA;Seine-et-Marne;Fontenailles 77191;E2.9500;N48.5500;13;
3;FRA;Île-de-FRA;Seine-et-Marne;Fontenay-Trésigny 77192;E2.8667;N48.7000;13;
3;FRA;Île-de-FRA;Seine-et-Marne;Forfry 77193;E2.8500;N49.0500;13;
3;FRA;Île-de-FRA;Seine-et-Marne;Forges 77194;E2.9500;N48.4167;13;
3;FRA;Île-de-FRA;Seine-et-Marne;Fouju 77195;E2.7833;N48.5833;13;
3;FRA;Île-de-FRA;Seine-et-Marne;Fresnes-sur-Marne 77196;E2.7333;N48.9333;13;
3;FRA;Île-de-FRA;Seine-et-Marne;Frétoy 77197;E3.2000;N48.7000;13;
3;FRA;Île-de-FRA;Seine-et-Marne;Fromont 77198;E2.5000;N48.2500;13;
3;FRA;Île-de-FRA;Seine-et-Marne;Fublaines 77199;E2.9500;N48.9333;13;
3;FRA;Île-de-FRA;Seine-et-Marne;Garentreville 77200;E2.5500;N48.2333;13;
3;FRA;Île-de-FRA;Seine-et-Marne;Gastins 77201;E3.0167;N48.6333;13;
3;FRA;Île-de-FRA;Seine-et-Marne;Germigny-l'Évêque 77203;E2.9500;N49.0000;13;
3;FRA;Île-de-FRA;Seine-et-Marne;Germigny-sous-Coulombs 77204;E3.1667;N49.0667;13;
3;FRA;Île-de-FRA;Seine-et-Marne;Gesvres-le-Chapitre 77205;E2.8500;N49.0500;13;
3;FRA;Île-de-FRA;Seine-et-Marne;Giremoutiers 77206;E3.0333;N48.8500;13;
3;FRA;Île-de-FRA;Seine-et-Marne;Gironville 77207;E2.5333;N48.1833;13;
3;FRA;Île-de-FRA;Seine-et-Marne;Gouaix 77208;E3.2833;N48.4833;13;
3;FRA;Île-de-FRA;Seine-et-Marne;Gouvernes 77209;E2.7000;N48.8667;13;
3;FRA;Île-de-FRA;Seine-et-Marne;Grandpuits-Bailly-Carrois 77211;E2.9672;N48.5849;13;
3;FRA;Île-de-FRA;Seine-et-Marne;Gravon 77212;E3.1167;N48.4000;13;
3;FRA;Île-de-FRA;Seine-et-Marne;Grégy-sur-Yerre 77213=77175;E2.6215;N48.6665;13;
3;FRA;Île-de-FRA;Seine-et-Marne;Gressy 77214;E2.6667;N48.9667;13;
3;FRA;Île-de-FRA;Seine-et-Marne;Gretz-Armainvilliers 77215;E2.7333;N48.7333;13;
3;FRA;Île-de-FRA;Seine-et-Marne;Grez-sur-Loing 77216;E2.7000;N48.3167;13;
3;FRA;Île-de-FRA;Seine-et-Marne;Grisy-Suisnes 77217;E2.6667;N48.6833;13;
3;FRA;Île-de-FRA;Seine-et-Marne;Grisy-sur-Seine 77218;E3.3167;N48.4333;13;
3;FRA;Île-de-FRA;Seine-et-Marne;Guérard 77219;E2.9667;N48.8167;13;
3;FRA;Île-de-FRA;Seine-et-Marne;Guercheville 77220;E2.5500;N48.2500;13;
3;FRA;Île-de-FRA;Seine-et-Marne;Guermantes 77221;E2.7000;N48.8500;13;
3;FRA;Île-de-FRA;Seine-et-Marne;Guignes 77222;E2.7972;N48.6367;13;
3;FRA;Île-de-FRA;Seine-et-Marne;Gurcy-le-Châtel 77223;E3.1000;N48.4667;13;
3;FRA;Île-de-FRA;Seine-et-Marne;Hautefeuille 77224;E2.9667;N48.7667;13;
3;FRA;Île-de-FRA;Seine-et-Marne;Héricy 77226;E2.7667;N48.4500;13;
3;FRA;Île-de-FRA;Seine-et-Marne;Hermé 77227;E3.3333;N48.4833;13;
3;FRA;Île-de-FRA;Seine-et-Marne;Hondevilliers 77228;E3.3167;N48.9000;13;
3;FRA;Île-de-FRA;Seine-et-Marne;Ichy 77230;E2.5500;N48.2000;13;
3;FRA;Île-de-FRA;Seine-et-Marne;Isles-les-Meldeuses 77231;E3.0167;N49.0000;13;
3;FRA;Île-de-FRA;Seine-et-Marne;Isles-lès-Villenoy 77232;E2.8333;N48.9167;13;
3;FRA;Île-de-FRA;Seine-et-Marne;Iverny 77233;E2.7833;N49.0000;13;
3;FRA;Île-de-FRA;Seine-et-Marne;Jablines 77234;E2.7667;N48.9167;13;
3;FRA;Île-de-FRA;Seine-et-Marne;Jaignes 77235;E3.0500;N49.0000;13;
3;FRA;Île-de-FRA;Seine-et-Marne;Jaulnes 77236;E3.2667;N48.4167;13;
3;FRA;Île-de-FRA;Seine-et-Marne;Jossigny 77237;E2.7500;N48.8333;13;
3;FRA;Île-de-FRA;Seine-et-Marne;Jouarre 77238;E3.1333;N48.9333;13;
3;FRA;Île-de-FRA;Seine-et-Marne;Jouy-le-Châtel 77239;E3.1333;N48.6667;13;
3;FRA;Île-de-FRA;Seine-et-Marne;Jouy-sur-Morin 77240;E3.2667;N48.8000;13;
3;FRA;Île-de-FRA;Seine-et-Marne;Juilly 77241;E2.7167;N49.0167;13;
3;FRA;Île-de-FRA;Seine-et-Marne;Jutigny 77242;E3.2333;N48.5000;13;
3;FRA;Île-de-FRA;Seine-et-Marne;La Brosse-Montceaux 77054;E3.0167;N48.3333;13;
3;FRA;Île-de-FRA;Seine-et-Marne;La Celle-sur-Morin 77063;E2.9667;N48.8167;13;
3;FRA;Île-de-FRA;Seine-et-Marne;La Celle-sur-Seine 77064=77494;E2.8167;N48.4000;13;
3;FRA;Île-de-FRA;Seine-et-Marne;La Chapelle-Gauthier 77086;E2.9000;N48.5500;13;
3;FRA;Île-de-FRA;Seine-et-Marne;La Chapelle-Iger 77087;E2.9833;N48.6500;13;
3;FRA;Île-de-FRA;Seine-et-Marne;La Chapelle-la-Reine 77088;E2.5833;N48.3167;13;
3;FRA;Île-de-FRA;Seine-et-Marne;La Chapelle-Moutils 77093;E3.3902;N48.7751;13;
3;FRA;Île-de-FRA;Seine-et-Marne;La Chapelle-Rablais 77089;E2.9667;N48.5167;13;
3;FRA;Île-de-FRA;Seine-et-Marne;La Chapelle-Saint-Sulpice 77090;E3.1833;N48.5500;13;
3;FRA;Île-de-FRA;Seine-et-Marne;La Chapelle-sur-Crécy 77092=77142;E2.9333;N48.8667;13;
3;FRA;Île-de-FRA;Seine-et-Marne;La Croix-en-Brie 77147;E3.0667;N48.5833;13;
3;FRA;Île-de-FRA;Seine-et-Marne;La Ferté-Gaucher 77182;E3.3000;N48.7833;13;
3;FRA;Île-de-FRA;Seine-et-Marne;La Ferté-sous-Jouarre 77183;E3.1333;N48.9500;13;
3;FRA;Île-de-FRA;Seine-et-Marne;La Genevraye 77202;E2.7500;N48.3167;13;
3;FRA;Île-de-FRA;Seine-et-Marne;La Grande-Paroisse 77210;E2.9000;N48.3833;13;
3;FRA;Île-de-FRA;Seine-et-Marne;La Haute-Maison 77225;E3.0000;N48.8833;13;
3;FRA;Île-de-FRA;Seine-et-Marne;La Houssaye-en-Brie 77229;E2.8667;N48.7500;13;
3;FRA;Île-de-FRA;Seine-et-Marne;La Madeleine-sur-Loing 77267;E2.7031;N48.2000;13;
3;FRA;Île-de-FRA;Seine-et-Marne;La Rochette 77389;E2.6667;N48.5000;13;
3;FRA;Île-de-FRA;Seine-et-Marne;La Tombe 77467;E3.0833;N48.3833;13;
3;FRA;Île-de-FRA;Seine-et-Marne;La Trétoire 77472;E3.2500;N48.8833;13;
3;FRA;Île-de-FRA;Seine-et-Marne;Lagny-sur-Marne 77243;E2.7167;N48.8667;13;
3;FRA;Île-de-FRA;Seine-et-Marne;Larchant 77244;E2.6000;N48.2833;13;
3;FRA;Île-de-FRA;Seine-et-Marne;Laval-en-Brie 77245;E2.9833;N48.4167;13;
3;FRA;Île-de-FRA;Seine-et-Marne;Le Châtelet-en-Brie 77100;E2.8000;N48.5000;13;
3;FRA;Île-de-FRA;Seine-et-Marne;Le Mée-sur-Seine 77285;E2.6333;N48.5333;13;
3;FRA;Île-de-FRA;Seine-et-Marne;Le Mesnil-Amelot 77291;E2.6000;N49.0167;13;
3;FRA;Île-de-FRA;Seine-et-Marne;Le Pin 77363;E2.6167;N48.9167;13;
3;FRA;Île-de-FRA;Seine-et-Marne;Le Plessis-aux-Bois 77364;E2.7667;N49.0000;13;
3;FRA;Île-de-FRA;Seine-et-Marne;Le Plessis-Feu-Aussoux 77365;E3.0333;N48.7167;13;
3;FRA;Île-de-FRA;Seine-et-Marne;Le Plessis-l'Évêque 77366;E2.7833;N49.0000;13;
3;FRA;Île-de-FRA;Seine-et-Marne;Le Plessis-Placy 77367;E3.0000;N49.0667;13;
3;FRA;Île-de-FRA;Seine-et-Marne;Le Vaudoué 77485;E2.5167;N48.3500;13;
3;FRA;Île-de-FRA;Seine-et-Marne;Léchelle 77246;E3.3833;N48.5833;13;
3;FRA;Île-de-FRA;Seine-et-Marne;Les Chapelles-Bourbon 77091;E2.8333;N48.7333;13;
3;FRA;Île-de-FRA;Seine-et-Marne;Les Écrennes 77165;E2.8500;N48.5000;13;
3;FRA;Île-de-FRA;Seine-et-Marne;Les Marêts 77275;E3.3167;N48.6667;13;
3;FRA;Île-de-FRA;Seine-et-Marne;Les Ormes-sur-Voulzie 77347;E3.2333;N48.4667;13;
3;FRA;Île-de-FRA;Seine-et-Marne;Lescherolles 77247;E3.3333;N48.7500;13;
3;FRA;Île-de-FRA;Seine-et-Marne;Lesches 77248;E2.7833;N48.9000;13;
3;FRA;Île-de-FRA;Seine-et-Marne;Lésigny 77249;E2.6167;N48.7333;13;
3;FRA;Île-de-FRA;Seine-et-Marne;Leudon-en-Brie 77250;E3.2667;N48.7333;13;
3;FRA;Île-de-FRA;Seine-et-Marne;Lieusaint 77251;E2.5500;N48.6333;13;
3;FRA;Île-de-FRA;Seine-et-Marne;Limoges-Fourches 77252;E2.6667;N48.6167;13;
3;FRA;Île-de-FRA;Seine-et-Marne;Lissy 77253;E2.6833;N48.6167;13;
3;FRA;Île-de-FRA;Seine-et-Marne;Liverdy-en-Brie 77254;E2.7667;N48.7000;13;
3;FRA;Île-de-FRA;Seine-et-Marne;Livry-sur-Seine 77255;E2.6833;N48.5167;13;
3;FRA;Île-de-FRA;Seine-et-Marne;Lizines 77256;E3.1833;N48.5333;13;
3;FRA;Île-de-FRA;Seine-et-Marne;Lizy-sur-Ourcq 77257;E3.0333;N49.0167;13;
3;FRA;Île-de-FRA;Seine-et-Marne;Lognes 77258;E2.6167;N48.8333;13;
3;FRA;Île-de-FRA;Seine-et-Marne;Longperrier 77259;E2.6667;N49.0500;13;
3;FRA;Île-de-FRA;Seine-et-Marne;Longueville 77260;E3.2500;N48.5167;13;
3;FRA;Île-de-FRA;Seine-et-Marne;Lorrez-le-Bocage-Préaux 77261;E2.9006;N48.2374;13;
3;FRA;Île-de-FRA;Seine-et-Marne;Louan-Villegruis-Fontaine 77262;E3.4791;N48.6251;13;
3;FRA;Île-de-FRA;Seine-et-Marne;Luisetaines 77263;E3.1833;N48.4667;13;
3;FRA;Île-de-FRA;Seine-et-Marne;Lumigny-Nesles-Ormeaux 77264;E2.9516;N48.7369;13;
3;FRA;Île-de-FRA;Seine-et-Marne;Luzancy 77265;E3.1833;N48.9667;13;
3;FRA;Île-de-FRA;Seine-et-Marne;Machault 77266;E2.8333;N48.4500;13;
3;FRA;Île-de-FRA;Seine-et-Marne;Magny-le-Hongre 77268;E2.8167;N48.8667;13;
3;FRA;Île-de-FRA;Seine-et-Marne;Maincy 77269;E2.7000;N48.5500;13;
3;FRA;Île-de-FRA;Seine-et-Marne;Maison-Rouge 77272;E3.1500;N48.5583;13;
3;FRA;Île-de-FRA;Seine-et-Marne;Maisoncelles-en-Brie 77270;E3.0000;N48.8667;13;
3;FRA;Île-de-FRA;Seine-et-Marne;Maisoncelles-en-Gâtinais 77271;E2.6333;N48.1833;13;
3;FRA;Île-de-FRA;Seine-et-Marne;Marchémoret 77273;E2.7667;N49.0500;13;
3;FRA;Île-de-FRA;Seine-et-Marne;Marcilly 77274;E2.8833;N49.0333;13;
3;FRA;Île-de-FRA;Seine-et-Marne;Mareuil-lès-Meaux 77276;E2.8667;N48.9333;13;
3;FRA;Île-de-FRA;Seine-et-Marne;Marles-en-Brie 77277;E2.8833;N48.7167;13;
3;FRA;Île-de-FRA;Seine-et-Marne;Marolles-en-Brie 77278;E3.1667;N48.7833;13;
3;FRA;Île-de-FRA;Seine-et-Marne;Marolles-sur-Seine 77279;E3.0333;N48.3833;13;
3;FRA;Île-de-FRA;Seine-et-Marne;Mary-sur-Marne 77280;E3.0333;N49.0167;13;
3;FRA;Île-de-FRA;Seine-et-Marne;Mauperthuis 77281;E3.0333;N48.7667;13;
3;FRA;Île-de-FRA;Seine-et-Marne;Mauregard 77282;E2.5833;N49.0333;13;
3;FRA;Île-de-FRA;Seine-et-Marne;May-en-Multien 77283;E3.0333;N49.0667;13;
3;FRA;Île-de-FRA;Seine-et-Marne;Meaux 77284;E2.8667;N48.9500;13;
3;FRA;Île-de-FRA;Seine-et-Marne;Meigneux 77286;E3.1000;N48.5167;13;
3;FRA;Île-de-FRA;Seine-et-Marne;Meilleray 77287;E3.4167;N48.7833;13;
3;FRA;Île-de-FRA;Seine-et-Marne;Melun 77288;E2.6667;N48.5333;13;
3;FRA;Île-de-FRA;Seine-et-Marne;Melz-sur-Seine 77289;E3.4167;N48.5000;13;
3;FRA;Île-de-FRA;Seine-et-Marne;Méry-sur-Marne 77290;E3.2000;N48.9667;13;
3;FRA;Île-de-FRA;Seine-et-Marne;Messy 77292;E2.7000;N48.9667;13;
3;FRA;Île-de-FRA;Seine-et-Marne;Misy-sur-Yonne 77293;E3.0833;N48.3667;13;
3;FRA;Île-de-FRA;Seine-et-Marne;Mitry-Mory 77294;E2.6167;N48.9833;13;
3;FRA;Île-de-FRA;Seine-et-Marne;Moisenay 77295;E2.7333;N48.5500;13;
3;FRA;Île-de-FRA;Seine-et-Marne;Moissy-Cramayel 77296;E2.6000;N48.6167;13;
3;FRA;Île-de-FRA;Seine-et-Marne;Mondreville 77297;E2.6092;N48.1429;13;
3;FRA;Île-de-FRA;Seine-et-Marne;Mons-en-Montois 77298;E3.1500;N48.4833;13;
3;FRA;Île-de-FRA;Seine-et-Marne;Montarlot 77299;E2.8500;N48.3500;13;
3;FRA;Île-de-FRA;Seine-et-Marne;Montceaux-lès-Meaux 77300;E2.9833;N48.9500;13;
3;FRA;Île-de-FRA;Seine-et-Marne;Montceaux-lès-Provins 77301;E3.4333;N48.6833;13;
3;FRA;Île-de-FRA;Seine-et-Marne;Montcourt-Fromonville 77302;E2.7000;N48.3000;13;
3;FRA;Île-de-FRA;Seine-et-Marne;Montdauphin 77303;E3.4333;N48.8500;13;
3;FRA;Île-de-FRA;Seine-et-Marne;Montenils 77304;E3.4833;N48.8500;13;
3;FRA;Île-de-FRA;Seine-et-Marne;Montereau-Fault-Yonne 77305;E2.9500;N48.3833;13;
3;FRA;Île-de-FRA;Seine-et-Marne;Montereau-sur-le-Jard 77306;E2.6667;N48.5833;13;
3;FRA;Île-de-FRA;Seine-et-Marne;Montévrain 77307;E2.7500;N48.8667;13;
3;FRA;Île-de-FRA;Seine-et-Marne;Montgé-en-Goële 77308;E2.7478;N49.0287;13;
3;FRA;Île-de-FRA;Seine-et-Marne;Monthyon 77309;E2.8333;N49.0167;13;
3;FRA;Île-de-FRA;Seine-et-Marne;Montigny-le-Guesdier 77310;E3.2500;N48.3833;13;
3;FRA;Île-de-FRA;Seine-et-Marne;Montigny-Lencoup 77311;E3.0500;N48.4500;13;
3;FRA;Île-de-FRA;Seine-et-Marne;Montigny-sur-Loing 77312;E2.7333;N48.3333;13;
3;FRA;Île-de-FRA;Seine-et-Marne;Montmachoux 77313;E2.9833;N48.3167;13;
3;FRA;Île-de-FRA;Seine-et-Marne;Montolivet 77314;E3.4333;N48.8333;13;
3;FRA;Île-de-FRA;Seine-et-Marne;Montry 77315;E2.8333;N48.8833;13;
3;FRA;Île-de-FRA;Seine-et-Marne;Moret-sur-Loing 77316;E2.8167;N48.3667;13;
3;FRA;Île-de-FRA;Seine-et-Marne;Mormant 77317;E2.8833;N48.6000;13;
3;FRA;Île-de-FRA;Seine-et-Marne;Mortcerf 77318;E2.9167;N48.7833;13;
3;FRA;Île-de-FRA;Seine-et-Marne;Mortery 77319;E3.2500;N48.6000;13;
3;FRA;Île-de-FRA;Seine-et-Marne;Mouroux 77320;E3.0333;N48.8167;13;
3;FRA;Île-de-FRA;Seine-et-Marne;Mousseaux-lès-Bray 77321;E3.2333;N48.4167;13;
3;FRA;Île-de-FRA;Seine-et-Marne;Moussy-le-Neuf 77322;E2.6000;N49.0667;13;
3;FRA;Île-de-FRA;Seine-et-Marne;Moussy-le-Vieux 77323;E2.6167;N49.0500;13;
3;FRA;Île-de-FRA;Seine-et-Marne;Moutils 77324=77093;E3.3667;N48.7667;13;
3;FRA;Île-de-FRA;Seine-et-Marne;Mouy-sur-Seine 77325;E3.2333;N48.4167;13;
3;FRA;Île-de-FRA;Seine-et-Marne;Nandy 77326;E2.5667;N48.5833;13;
3;FRA;Île-de-FRA;Seine-et-Marne;Nangis 77327;E3.0000;N48.5500;13;
3;FRA;Île-de-FRA;Seine-et-Marne;Nanteau-sur-Essonne 77328;E2.4167;N48.3167;13;
3;FRA;Île-de-FRA;Seine-et-Marne;Nanteau-sur-Lunain 77329;E2.8167;N48.2500;13;
3;FRA;Île-de-FRA;Seine-et-Marne;Nanteuil-lès-Meaux 77330;E2.9000;N48.9333;13;
3;FRA;Île-de-FRA;Seine-et-Marne;Nanteuil-sur-Marne 77331;E3.2167;N48.9833;13;
3;FRA;Île-de-FRA;Seine-et-Marne;Nantouillet 77332;E2.7000;N49.0000;13;
3;FRA;Île-de-FRA;Seine-et-Marne;Nemours 77333;E2.7000;N48.2667;13;
3;FRA;Île-de-FRA;Seine-et-Marne;Nesles 77334=77264;E2.9667;N48.7000;13;
3;FRA;Île-de-FRA;Seine-et-Marne;Neufmoutiers-en-Brie 77336;E2.8333;N48.7667;13;
3;FRA;Île-de-FRA;Seine-et-Marne;Noisiel 77337;E2.6333;N48.8500;13;
3;FRA;Île-de-FRA;Seine-et-Marne;Noisy-Rudignon 77338;E2.9333;N48.3333;13;
3;FRA;Île-de-FRA;Seine-et-Marne;Noisy-sur-École 77339;E2.5000;N48.3667;13;
3;FRA;Île-de-FRA;Seine-et-Marne;Nonville 77340;E2.7833;N48.2833;13;
3;FRA;Île-de-FRA;Seine-et-Marne;Noyen-sur-Seine 77341;E3.3500;N48.4500;13;
3;FRA;Île-de-FRA;Seine-et-Marne;Obsonville 77342;E2.5667;N48.2167;13;
3;FRA;Île-de-FRA;Seine-et-Marne;Ocquerre 77343;E3.0667;N49.0333;13;
3;FRA;Île-de-FRA;Seine-et-Marne;Oissery 77344;E2.8167;N49.0667;13;
3;FRA;Île-de-FRA;Seine-et-Marne;Orly-sur-Morin 77345;E3.2333;N48.9000;13;
3;FRA;Île-de-FRA;Seine-et-Marne;Ormeaux 77346=77264;E2.9833;N48.7167;13;
3;FRA;Île-de-FRA;Seine-et-Marne;Ormesson 77348;E2.6500;N48.2333;13;
3;FRA;Île-de-FRA;Seine-et-Marne;Othis 77349;E2.6833;N49.0833;13;
3;FRA;Île-de-FRA;Seine-et-Marne;Ozoir-la-Ferrière 77350;E2.6667;N48.7667;13;
3;FRA;Île-de-FRA;Seine-et-Marne;Ozouer-le-Repos 77351=77010;E2.9167;N48.6000;13;
3;FRA;Île-de-FRA;Seine-et-Marne;Ozouer-le-Voulgis 77352;E2.7667;N48.6500;13;
3;FRA;Île-de-FRA;Seine-et-Marne;Paley 77353;E2.8500;N48.2333;13;
3;FRA;Île-de-FRA;Seine-et-Marne;Pamfou 77354;E2.8667;N48.4500;13;
3;FRA;Île-de-FRA;Seine-et-Marne;Paroy 77355;E3.2000;N48.4833;13;
3;FRA;Île-de-FRA;Seine-et-Marne;Passy-sur-Seine 77356;E3.3500;N48.4167;13;
3;FRA;Île-de-FRA;Seine-et-Marne;Pécy 77357;E3.0833;N48.6500;13;
3;FRA;Île-de-FRA;Seine-et-Marne;Penchard 77358;E2.8667;N48.9833;13;
3;FRA;Île-de-FRA;Seine-et-Marne;Perthes 77359;E2.5537;N48.4760;13;
3;FRA;Île-de-FRA;Seine-et-Marne;Pézarches 77360;E2.9833;N48.7333;13;
3;FRA;Île-de-FRA;Seine-et-Marne;Pierre-Levée 77361;E3.0333;N48.9000;13;
3;FRA;Île-de-FRA;Seine-et-Marne;Pierrelez 77362=77444;E3.3788;N48.7351;13;
3;FRA;Île-de-FRA;Seine-et-Marne;Poigny 77368;E3.2833;N48.5333;13;
3;FRA;Île-de-FRA;Seine-et-Marne;Poincy 77369;E2.9333;N48.9667;13;
3;FRA;Île-de-FRA;Seine-et-Marne;Poligny 77370;E2.7500;N48.2167;13;
3;FRA;Île-de-FRA;Seine-et-Marne;Pommeuse 77371;E3.0167;N48.8167;13;
3;FRA;Île-de-FRA;Seine-et-Marne;Pomponne 77372;E2.6833;N48.8833;13;
3;FRA;Île-de-FRA;Seine-et-Marne;Pontault-Combault 77373;E2.7000;N48.8000;13;
3;FRA;Île-de-FRA;Seine-et-Marne;Pontcarré 77374;E2.5500;N48.5333;13;
3;FRA;Île-de-FRA;Seine-et-Marne;Préaux 77375=77261;E2.8667;N48.2167;13;
3;FRA;Île-de-FRA;Seine-et-Marne;Précy-sur-Marne 77376;E2.7833;N48.9333;13;
3;FRA;Île-de-FRA;Seine-et-Marne;Presles-en-Brie 77377;E2.7500;N48.7167;13;
3;FRA;Île-de-FRA;Seine-et-Marne;Pringy 77378;E2.5667;N48.5167;13;
3;FRA;Île-de-FRA;Seine-et-Marne;Provins 77379;E3.3000;N48.5500;13;
3;FRA;Île-de-FRA;Seine-et-Marne;Puisieux 77380;E2.9167;N49.0667;13;
3;FRA;Île-de-FRA;Seine-et-Marne;Quiers 77381;E2.9667;N48.6000;13;
3;FRA;Île-de-FRA;Seine-et-Marne;Quincy-Voisins 77382;E2.8833;N48.9000;13;
3;FRA;Île-de-FRA;Seine-et-Marne;Rampillon 77383;E3.0667;N48.5500;13;
3;FRA;Île-de-FRA;Seine-et-Marne;Réau 77384;E2.6167;N48.6000;13;
3;FRA;Île-de-FRA;Seine-et-Marne;Rebais 77385;E3.2333;N48.8500;13;
3;FRA;Île-de-FRA;Seine-et-Marne;Recloses 77386;E2.6333;N48.3500;13;
3;FRA;Île-de-FRA;Seine-et-Marne;Remauville 77387;E2.8167;N48.2167;13;
3;FRA;Île-de-FRA;Seine-et-Marne;Reuil-en-Brie 77388;E3.1500;N48.9667;13;
3;FRA;Île-de-FRA;Seine-et-Marne;Roissy-en-Brie 77390;E2.6500;N48.8000;13;
3;FRA;Île-de-FRA;Seine-et-Marne;Rouilly 77391;E3.2667;N48.5833;13;
3;FRA;Île-de-FRA;Seine-et-Marne;Rouvres 77392;E2.7167;N49.0667;13;
3;FRA;Île-de-FRA;Seine-et-Marne;Rozay-en-Brie 77393;E2.9667;N48.6833;13;
3;FRA;Île-de-FRA;Seine-et-Marne;Rubelles 77394;E2.6833;N48.5667;13;
3;FRA;Île-de-FRA;Seine-et-Marne;Rumont 77395;E2.5000;N48.2667;13;
3;FRA;Île-de-FRA;Seine-et-Marne;Rupéreux 77396;E3.3333;N48.6333;13;
3;FRA;Île-de-FRA;Seine-et-Marne;Saâcy-sur-Marne 77397;E3.2167;N48.9667;13;
3;FRA;Île-de-FRA;Seine-et-Marne;Sablonnières 77398;E3.2833;N48.8667;13;
3;FRA;Île-de-FRA;Seine-et-Marne;Saint-Ange-le-Viel 77399;E3.4333;N48.5833;13;
3;FRA;Île-de-FRA;Seine-et-Marne;Saint-Augustin 77400;E3.0333;N48.7833;13;
3;FRA;Île-de-FRA;Seine-et-Marne;Saint-Barthélemy 77402;E3.3667;N48.8167;13;
3;FRA;Île-de-FRA;Seine-et-Marne;Saint-Brice 77403;E3.3167;N48.5667;13;
3;FRA;Île-de-FRA;Seine-et-Marne;Saint-Cyr-sur-Morin 77405;E3.1833;N48.9167;13;
3;FRA;Île-de-FRA;Seine-et-Marne;Saint-Denis-lès-Rebais 77406;E3.2167;N48.8333;13;
3;FRA;Île-de-FRA;Seine-et-Marne;Saint-Fargeau-Ponthierry 77407;E2.5453;N48.5333;13;
3;FRA;Île-de-FRA;Seine-et-Marne;Saint-Fiacre 77408;E2.9667;N48.9167;13;
3;FRA;Île-de-FRA;Seine-et-Marne;Saint-Germain-Laval 77409;E3.0000;N48.4000;13;
3;FRA;Île-de-FRA;Seine-et-Marne;Saint-Germain-Laxis 77410;E2.7000;N48.5833;13;
3;FRA;Île-de-FRA;Seine-et-Marne;Saint-Germain-sous-Doue 77411;E3.1500;N48.8500;13;
3;FRA;Île-de-FRA;Seine-et-Marne;Saint-Germain-sur-École 77412;E2.5167;N48.4667;13;
3;FRA;Île-de-FRA;Seine-et-Marne;Saint-Germain-sur-Morin 77413;E2.8500;N48.8833;13;
3;FRA;Île-de-FRA;Seine-et-Marne;Saint-Hilliers 77414;E3.2667;N48.6167;13;
3;FRA;Île-de-FRA;Seine-et-Marne;Saint-Jean-les-Deux-Jumeaux 77415;E3.0167;N48.9500;13;
3;FRA;Île-de-FRA;Seine-et-Marne;Saint-Just-en-Brie 77416;E3.1000;N48.6000;13;
3;FRA;Île-de-FRA;Seine-et-Marne;Saint-Léger 77417;E3.2500;N48.8333;13;
3;FRA;Île-de-FRA;Seine-et-Marne;Saint-Loup-de-Naud 77418;E3.2000;N48.5333;13;
3;FRA;Île-de-FRA;Seine-et-Marne;Saint-Mammès 77419;E2.8167;N48.3833;13;
3;FRA;Île-de-FRA;Seine-et-Marne;Saint-Mard 77420;E2.7000;N49.0333;13;
3;FRA;Île-de-FRA;Seine-et-Marne;Saint-Mars-Vieux-Maisons 77421;E3.3500;N48.7333;13;
3;FRA;Île-de-FRA;Seine-et-Marne;Saint-Martin-Chennetron 77422=77026;E3.4252;N48.5874;13;
3;FRA;Île-de-FRA;Seine-et-Marne;Saint-Martin-des-Champs 77423;E3.3360;N48.7783;13;
3;FRA;Île-de-FRA;Seine-et-Marne;Saint-Martin-du-Boschet 77424;E3.4167;N48.7333;13;
3;FRA;Île-de-FRA;Seine-et-Marne;Saint-Martin-en-Bière 77425;E2.5667;N48.4333;13;
3;FRA;Île-de-FRA;Seine-et-Marne;Saint-Méry 77426;E2.8167;N48.5667;13;
3;FRA;Île-de-FRA;Seine-et-Marne;Saint-Mesmes 77427;E2.7000;N48.9833;13;
3;FRA;Île-de-FRA;Seine-et-Marne;Saint-Ouen-en-Brie 77428;E2.9167;N48.5500;13;
3;FRA;Île-de-FRA;Seine-et-Marne;Saint-Ouen-sur-Morin 77429;E3.2000;N48.9000;13;
3;FRA;Île-de-FRA;Seine-et-Marne;Saint-Pathus 77430;E2.8000;N49.0667;13;
3;FRA;Île-de-FRA;Seine-et-Marne;Saint-Pierre-lès-Nemours 77431;E2.6833;N48.2667;13;
3;FRA;Île-de-FRA;Seine-et-Marne;Saint-Rémy-la-Vanne 77432;E3.2322;N48.7924;13;
3;FRA;Île-de-FRA;Seine-et-Marne;Saint-Sauveur-lès-Bray 77434;E3.2000;N48.4333;13;
3;FRA;Île-de-FRA;Seine-et-Marne;Saint-Sauveur-sur-École 77435;E2.5500;N48.4833;13;
3;FRA;Île-de-FRA;Seine-et-Marne;Saint-Siméon 77436;E3.2000;N48.8000;13;
3;FRA;Île-de-FRA;Seine-et-Marne;Saint-Soupplets 77437;E2.8000;N49.0333;13;
3;FRA;Île-de-FRA;Seine-et-Marne;Saint-Thibault-des-Vignes 77438;E2.6833;N48.8667;13;
3;FRA;Île-de-FRA;Seine-et-Marne;Sainte-Aulde 77401;E3.1759;N48.9945;13;
3;FRA;Île-de-FRA;Seine-et-Marne;Sainte-Colombe 77404;E3.2500;N48.5333;13;
3;FRA;Île-de-FRA;Seine-et-Marne;Saints 77433;E3.0500;N48.7500;13;
3;FRA;Île-de-FRA;Seine-et-Marne;Salins 77439;E3.0167;N48.4167;13;
3;FRA;Île-de-FRA;Seine-et-Marne;Sammeron 77440;E3.0833;N48.9500;13;
3;FRA;Île-de-FRA;Seine-et-Marne;Samois-sur-Seine 77441;E2.7500;N48.4500;13;
3;FRA;Île-de-FRA;Seine-et-Marne;Samoreau 77442;E2.7500;N48.4167;13;
3;FRA;Île-de-FRA;Seine-et-Marne;Sancy 77443;E2.9615;N48.8858;13;
3;FRA;Île-de-FRA;Seine-et-Marne;Sancy-lès-Provins 77444;E3.3833;N48.7000;13;
3;FRA;Île-de-FRA;Seine-et-Marne;Savigny-le-Temple 77445;E2.5833;N48.5667;13;
3;FRA;Île-de-FRA;Seine-et-Marne;Savins 77446;E3.2000;N48.5167;13;
3;FRA;Île-de-FRA;Seine-et-Marne;Seine-Port 77447;E2.5500;N48.5500;13;
3;FRA;Île-de-FRA;Seine-et-Marne;Sept-Sorts 77448;E3.1000;N48.9333;13;
3;FRA;Île-de-FRA;Seine-et-Marne;Serris 77449;E2.7833;N48.8500;13;
3;FRA;Île-de-FRA;Seine-et-Marne;Servon 77450;E2.5833;N48.7167;13;
3;FRA;Île-de-FRA;Seine-et-Marne;Signy-Signets 77451;E3.0667;N48.9333;13;
3;FRA;Île-de-FRA;Seine-et-Marne;Sigy 77452;E3.1833;N48.4667;13;
3;FRA;Île-de-FRA;Seine-et-Marne;Sivry-Courtry 77453;E2.7500;N48.5333;13;
3;FRA;Île-de-FRA;Seine-et-Marne;Sognolles-en-Montois 77454;E3.1667;N48.5167;13;
3;FRA;Île-de-FRA;Seine-et-Marne;Soignolles-en-Brie 77455;E2.6833;N48.6500;13;
3;FRA;Île-de-FRA;Seine-et-Marne;Soisy-Bouy 77456;E3.3000;N48.5167;13;
3;FRA;Île-de-FRA;Seine-et-Marne;Solers 77457;E2.7167;N48.6500;13;
3;FRA;Île-de-FRA;Seine-et-Marne;Souppes-sur-Loing 77458;E2.7333;N48.1833;13;
3;FRA;Île-de-FRA;Seine-et-Marne;Sourdun 77459;E3.3500;N48.5333;13;
3;FRA;Île-de-FRA;Seine-et-Marne;Tancrou 77460;E3.0500;N49.0000;13;
3;FRA;Île-de-FRA;Seine-et-Marne;Thénisy 77461;E3.1833;N48.4833;13;
3;FRA;Île-de-FRA;Seine-et-Marne;Thieux 77462;E2.6667;N49.0167;13;
3;FRA;Île-de-FRA;Seine-et-Marne;Thomery 77463;E2.7833;N48.4000;13;
3;FRA;Île-de-FRA;Seine-et-Marne;Thorigny-sur-Marne 77464;E2.7167;N48.8833;13;
3;FRA;Île-de-FRA;Seine-et-Marne;Thoury-Férottes 77465;E2.9500;N48.2833;13;
3;FRA;Île-de-FRA;Seine-et-Marne;Tigeaux 77466;E2.9167;N48.8333;13;
3;FRA;Île-de-FRA;Seine-et-Marne;Torcy 77468;E2.6500;N48.8500;13;
3;FRA;Île-de-FRA;Seine-et-Marne;Touquin 77469;E3.0167;N48.7333;13;
3;FRA;Île-de-FRA;Seine-et-Marne;Tournan-en-Brie 77470;E2.7667;N48.7333;13;
3;FRA;Île-de-FRA;Seine-et-Marne;Tousson 77471;E2.4667;N48.3500;13;
3;FRA;Île-de-FRA;Seine-et-Marne;Treuzy-Levelay 77473;E2.8000;N48.2833;13;
3;FRA;Île-de-FRA;Seine-et-Marne;Trilbardou 77474;E2.8000;N48.9500;13;
3;FRA;Île-de-FRA;Seine-et-Marne;Trilport 77475;E2.9500;N48.9500;13;
3;FRA;Île-de-FRA;Seine-et-Marne;Trocy-en-Multien 77476;E2.9667;N49.0500;13;
3;FRA;Île-de-FRA;Seine-et-Marne;Ury 77477;E2.6000;N48.3333;13;
3;FRA;Île-de-FRA;Seine-et-Marne;Ussy-sur-Marne 77478;E3.0833;N48.9500;13;
3;FRA;Île-de-FRA;Seine-et-Marne;Vaires-sur-Marne 77479;E2.6500;N48.8667;13;
3;FRA;Île-de-FRA;Seine-et-Marne;Valence-en-Brie 77480;E2.8833;N48.4333;13;
3;FRA;Île-de-FRA;Seine-et-Marne;Vanvillé 77481;E3.1000;N48.5500;13;
3;FRA;Île-de-FRA;Seine-et-Marne;Varennes-sur-Seine 77482;E2.9167;N48.3667;13;
3;FRA;Île-de-FRA;Seine-et-Marne;Varreddes 77483;E2.9333;N49.0000;13;
3;FRA;Île-de-FRA;Seine-et-Marne;Vaucourtois 77484;E2.9500;N48.9000;13;
3;FRA;Île-de-FRA;Seine-et-Marne;Vaudoy-en-Brie 77486;E3.0833;N48.6833;13;
3;FRA;Île-de-FRA;Seine-et-Marne;Vaux-le-Pénil 77487;E2.6667;N48.5333;13;
3;FRA;Île-de-FRA;Seine-et-Marne;Vaux-sous-Coulombs 77488=77129;E3.1338;N49.1022;13;
3;FRA;Île-de-FRA;Seine-et-Marne;Vaux-sur-Lunain 77489;E2.9333;N48.2167;13;
3;FRA;Île-de-FRA;Seine-et-Marne;Vendrest 77490;E3.1000;N49.0500;13;
3;FRA;Île-de-FRA;Seine-et-Marne;Veneux-les-Sablons 77491;E2.8000;N48.3667;13;
3;FRA;Île-de-FRA;Seine-et-Marne;Verdelot 77492;E3.3667;N48.8667;13;
3;FRA;Île-de-FRA;Seine-et-Marne;Verneuil-l'Étang 77493;E2.8333;N48.6333;13;
3;FRA;Île-de-FRA;Seine-et-Marne;Vernou-la-Celle-sur-Seine 77494;E2.8480;N48.3893;13;
3;FRA;Île-de-FRA;Seine-et-Marne;Vert-Saint-Denis 77495;E2.6167;N48.5667;13;
3;FRA;Île-de-FRA;Seine-et-Marne;Vieux-Champagne 77496;E3.1333;N48.5833;13;
3;FRA;Île-de-FRA;Seine-et-Marne;Vieux-Maisons 77497=77421;E3.3398;N48.7307;13;
3;FRA;Île-de-FRA;Seine-et-Marne;Vignely 77498;E2.8167;N48.9333;13;
3;FRA;Île-de-FRA;Seine-et-Marne;Vilbert 77499=77031;E2.9167;N48.6833;13;
3;FRA;Île-de-FRA;Seine-et-Marne;Ville-Saint-Jacques 77516;E2.9000;N48.3333;13;
3;FRA;Île-de-FRA;Seine-et-Marne;Villebéon 77500;E2.9333;N48.2000;13;
3;FRA;Île-de-FRA;Seine-et-Marne;Villecerf 77501;E2.8500;N48.3333;13;
3;FRA;Île-de-FRA;Seine-et-Marne;Villegagnon 77502=77020;E3.1833;N48.6667;13;
3;FRA;Île-de-FRA;Seine-et-Marne;Villegruis 77503=77262;E3.4667;N48.6000;13;
3;FRA;Île-de-FRA;Seine-et-Marne;Villemaréchal 77504;E2.8667;N48.2667;13;
3;FRA;Île-de-FRA;Seine-et-Marne;Villemareuil 77505;E2.9833;N48.9167;13;
3;FRA;Île-de-FRA;Seine-et-Marne;Villemer 77506;E2.8333;N48.3000;13;
3;FRA;Île-de-FRA;Seine-et-Marne;Villenauxe-la-Petite 77507;E3.3000;N48.4000;13;
3;FRA;Île-de-FRA;Seine-et-Marne;Villeneuve-le-Comte 77508;E2.8333;N48.8167;13;
3;FRA;Île-de-FRA;Seine-et-Marne;Villeneuve-les-Bordes 77509;E3.0500;N48.4833;13;
3;FRA;Île-de-FRA;Seine-et-Marne;Villeneuve-Saint-Denis 77510;E2.8000;N48.8167;13;
3;FRA;Île-de-FRA;Seine-et-Marne;Villeneuve-sous-Dammartin 77511;E2.6333;N49.0333;13;
3;FRA;Île-de-FRA;Seine-et-Marne;Villeneuve-sur-Bellot 77512;E3.3500;N48.8667;13;
3;FRA;Île-de-FRA;Seine-et-Marne;Villenoy 77513;E2.8667;N48.9500;13;
3;FRA;Île-de-FRA;Seine-et-Marne;Villeparisis 77514;E2.6167;N48.9333;13;
3;FRA;Île-de-FRA;Seine-et-Marne;Villeroy 77515;E2.7833;N48.9833;13;
3;FRA;Île-de-FRA;Seine-et-Marne;Villevaudé 77517;E2.6500;N48.9167;13;
3;FRA;Île-de-FRA;Seine-et-Marne;Villiers-en-Bière 77518;E2.6000;N48.4833;13;
3;FRA;Île-de-FRA;Seine-et-Marne;Villiers-Saint-Georges 77519;E3.4167;N48.6500;13;
3;FRA;Île-de-FRA;Seine-et-Marne;Villiers-sous-Grez 77520;E2.6500;N48.3167;13;
3;FRA;Île-de-FRA;Seine-et-Marne;Villiers-sur-Morin 77521;E2.9000;N48.8667;13;
3;FRA;Île-de-FRA;Seine-et-Marne;Villiers-sur-Seine 77522;E3.3667;N48.4500;13;
3;FRA;Île-de-FRA;Seine-et-Marne;Villuis 77523;E3.3500;N48.4167;13;
3;FRA;Île-de-FRA;Seine-et-Marne;Vimpelles 77524;E3.1667;N48.4333;13;
3;FRA;Île-de-FRA;Seine-et-Marne;Vinantes 77525;E2.7333;N49.0167;13;
3;FRA;Île-de-FRA;Seine-et-Marne;Vincy-Manoeuvre 77526;E2.9667;N49.0833;13;
3;FRA;Île-de-FRA;Seine-et-Marne;Voinsles 77527;E3.0000;N48.6833;13;
3;FRA;Île-de-FRA;Seine-et-Marne;Voisenon 77528;E2.6667;N48.5667;13;
3;FRA;Île-de-FRA;Seine-et-Marne;Voulangis 77529;E2.9000;N48.8667;13;
3;FRA;Île-de-FRA;Seine-et-Marne;Voulton 77530;E3.3333;N48.6167;13;
3;FRA;Île-de-FRA;Seine-et-Marne;Voulx 77531;E2.9667;N48.2833;13;
3;FRA;Île-de-FRA;Seine-et-Marne;Vulaines-lès-Provins 77532;E3.2167;N48.5500;13;
3;FRA;Île-de-FRA;Seine-et-Marne;Vulaines-sur-Seine 77533;E2.7667;N48.4333;13;
3;FRA;Île-de-FRA;Seine-et-Marne;Yèbles 77534;E2.7667;N48.6333;13;
2;FRA;Île-de-FRA;Seine-Saint-Denis;;E2.4225;N48.9243;9;
3;FRA;Île-de-FRA;Seine-Saint-Denis;Aubervilliers 93001;E2.3833;N48.9167;13;
3;FRA;Île-de-FRA;Seine-Saint-Denis;Aulnay-sous-Bois 93005;E2.5167;N48.9500;13;
3;FRA;Île-de-FRA;Seine-Saint-Denis;Bagnolet 93006;E2.4167;N48.8667;13;
3;FRA;Île-de-FRA;Seine-Saint-Denis;Bobigny 93008;E2.4500;N48.9000;13;
3;FRA;Île-de-FRA;Seine-Saint-Denis;Bondy 93010;E2.4667;N48.9000;13;
3;FRA;Île-de-FRA;Seine-Saint-Denis;Clichy-sous-Bois 93014;E2.5500;N48.9167;13;
3;FRA;Île-de-FRA;Seine-Saint-Denis;Coubron 93015;E2.5833;N48.9167;13;
3;FRA;Île-de-FRA;Seine-Saint-Denis;Drancy 93029;E2.4500;N48.9333;13;
3;FRA;Île-de-FRA;Seine-Saint-Denis;Dugny 93030;E2.4167;N48.9500;13;
3;FRA;Île-de-FRA;Seine-Saint-Denis;Épinay-sur-Seine 93031;E2.3083;N48.9500;13;
3;FRA;Île-de-FRA;Seine-Saint-Denis;Gagny 93032;E2.5333;N48.8833;13;
3;FRA;Île-de-FRA;Seine-Saint-Denis;Gournay-sur-Marne 93033;E2.5667;N48.8667;13;
3;FRA;Île-de-FRA;Seine-Saint-Denis;L'Île-Saint-Denis 93039;E2.3333;N48.9333;13;
3;FRA;Île-de-FRA;Seine-Saint-Denis;La Courneuve 93027;E2.3833;N48.9167;13;
3;FRA;Île-de-FRA;Seine-Saint-Denis;Le Blanc-Mesnil 93007;E2.4500;N48.9333;13;
3;FRA;Île-de-FRA;Seine-Saint-Denis;Le Bourget 93013;E2.4167;N48.9333;13;
3;FRA;Île-de-FRA;Seine-Saint-Denis;Le Pré-Saint-Gervais 93061;E2.4000;N48.8833;13;
3;FRA;Île-de-FRA;Seine-Saint-Denis;Le Raincy 93062;E2.5167;N48.9000;13;
3;FRA;Île-de-FRA;Seine-Saint-Denis;Les Lilas 93045;E2.4333;N48.8833;13;
3;FRA;Île-de-FRA;Seine-Saint-Denis;Les Pavillons-sous-Bois 93057;E2.5167;N48.9000;13;
3;FRA;Île-de-FRA;Seine-Saint-Denis;Livry-Gargan 93046;E2.5500;N48.9167;13;
3;FRA;Île-de-FRA;Seine-Saint-Denis;Montfermeil 93047;E2.5667;N48.9000;13;
3;FRA;Île-de-FRA;Seine-Saint-Denis;Montreuil 93048;E2.4333;N48.8667;13;
3;FRA;Île-de-FRA;Seine-Saint-Denis;Neuilly-Plaisance 93049;E2.5167;N48.8667;13;
3;FRA;Île-de-FRA;Seine-Saint-Denis;Neuilly-sur-Marne 93050;E2.5333;N48.8500;13;
3;FRA;Île-de-FRA;Seine-Saint-Denis;Noisy-le-Grand 93051;E2.5667;N48.8500;13;
3;FRA;Île-de-FRA;Seine-Saint-Denis;Noisy-le-Sec 93053;E2.4667;N48.8833;13;
3;FRA;Île-de-FRA;Seine-Saint-Denis;Pantin 93055;E2.4000;N48.9000;13;
3;FRA;Île-de-FRA;Seine-Saint-Denis;Pierrefitte-sur-Seine 93059;E2.3667;N48.9667;13;
3;FRA;Île-de-FRA;Seine-Saint-Denis;Romainville 93063;E2.4333;N48.8833;13;
3;FRA;Île-de-FRA;Seine-Saint-Denis;Rosny-sous-Bois 93064;E2.4833;N48.8667;13;
3;FRA;Île-de-FRA;Seine-Saint-Denis;Saint-Denis 93066;E2.3583;N48.9333;13;
3;FRA;Île-de-FRA;Seine-Saint-Denis;Saint-Ouen 93070;E2.3333;N48.9000;13;
3;FRA;Île-de-FRA;Seine-Saint-Denis;Sevran 93071;E2.5333;N48.9333;13;
3;FRA;Île-de-FRA;Seine-Saint-Denis;Stains 93072;E2.3833;N48.9500;13;
3;FRA;Île-de-FRA;Seine-Saint-Denis;Tremblay-en-France 93073;E2.5500;N48.9833;13;
3;FRA;Île-de-FRA;Seine-Saint-Denis;Vaujours 93074;E2.5667;N48.9333;13;
3;FRA;Île-de-FRA;Seine-Saint-Denis;Villemomble 93077;E2.5000;N48.8833;13;
3;FRA;Île-de-FRA;Seine-Saint-Denis;Villepinte 93078;E2.5333;N48.9667;13;
3;FRA;Île-de-FRA;Seine-Saint-Denis;Villetaneuse 93079;E2.3417;N48.9583;13;
2;FRA;Île-de-FRA;Val-d'Oise;;E2.1368;N49.0793;9;
3;FRA;Île-de-FRA;Val-d'Oise;Ableiges 95002;E1.9833;N49.0833;13;
3;FRA;Île-de-FRA;Val-d'Oise;Aincourt 95008;E1.7833;N49.0667;13;
3;FRA;Île-de-FRA;Val-d'Oise;Ambleville 95011;E1.7000;N49.1500;13;
3;FRA;Île-de-FRA;Val-d'Oise;Amenucourt 95012;E1.6500;N49.1000;13;
3;FRA;Île-de-FRA;Val-d'Oise;Andilly 95014;E2.3000;N49.0000;13;
3;FRA;Île-de-FRA;Val-d'Oise;Argenteuil 95018;E2.2500;N48.9500;13;
3;FRA;Île-de-FRA;Val-d'Oise;Arnouville-lès-Gonesse 95019;E2.4167;N48.9833;13;
3;FRA;Île-de-FRA;Val-d'Oise;Arronville 95023;E2.1000;N49.1833;13;
3;FRA;Île-de-FRA;Val-d'Oise;Arthies 95024;E1.7833;N49.1000;13;
3;FRA;Île-de-FRA;Val-d'Oise;Arthieul 95025=95355;E1.8052;N49.1539;13;
3;FRA;Île-de-FRA;Val-d'Oise;Asnières-sur-Oise 95026;E2.3500;N49.1333;13;
3;FRA;Île-de-FRA;Val-d'Oise;Attainville 95028;E2.3500;N49.0500;13;
3;FRA;Île-de-FRA;Val-d'Oise;Auvers-sur-Oise 95039;E2.1667;N49.0667;13;
3;FRA;Île-de-FRA;Val-d'Oise;Avernes 95040;E1.8667;N49.0833;13;
3;FRA;Île-de-FRA;Val-d'Oise;Baillet-en-France 95042;E2.3000;N49.0667;13;
3;FRA;Île-de-FRA;Val-d'Oise;Banthelu 95046;E1.8167;N49.1333;13;
3;FRA;Île-de-FRA;Val-d'Oise;Beauchamp 95051;E2.2000;N49.0167;13;
3;FRA;Île-de-FRA;Val-d'Oise;Beaumont-sur-Oise 95052;E2.2833;N49.1333;13;
3;FRA;Île-de-FRA;Val-d'Oise;Bellefontaine 95055;E2.4667;N49.1000;13;
3;FRA;Île-de-FRA;Val-d'Oise;Belloy-en-France 95056;E2.3833;N49.0833;13;
3;FRA;Île-de-FRA;Val-d'Oise;Bernes-sur-Oise 95058;E2.3000;N49.1667;13;
3;FRA;Île-de-FRA;Val-d'Oise;Berville 95059;E2.0667;N49.1833;13;
3;FRA;Île-de-FRA;Val-d'Oise;Bessancourt 95060;E2.2167;N49.0333;13;
3;FRA;Île-de-FRA;Val-d'Oise;Béthemont-la-Forêt 95061;E2.2500;N49.0500;13;
3;FRA;Île-de-FRA;Val-d'Oise;Bezons 95063;E2.2167;N48.9333;13;
3;FRA;Île-de-FRA;Val-d'Oise;Blamécourt 95065=95355;E1.8033;N49.1608;13;
3;FRA;Île-de-FRA;Val-d'Oise;Boisemont 95074;E2.0000;N49.0167;13;
3;FRA;Île-de-FRA;Val-d'Oise;Boissy-l'Aillerie 95078;E2.0333;N49.0667;13;
3;FRA;Île-de-FRA;Val-d'Oise;Bonneuil-en-France 95088;E2.4333;N48.9667;13;
3;FRA;Île-de-FRA;Val-d'Oise;Bouffémont 95091;E2.3000;N49.0500;13;
3;FRA;Île-de-FRA;Val-d'Oise;Bouqueval 95094;E2.4333;N49.0167;13;
3;FRA;Île-de-FRA;Val-d'Oise;Bray-et-Lû 95101;E1.6500;N49.1333;13;
3;FRA;Île-de-FRA;Val-d'Oise;Bréançon 95102;E2.0167;N49.1500;13;
3;FRA;Île-de-FRA;Val-d'Oise;Brignancourt 95110;E1.9500;N49.1333;13;
3;FRA;Île-de-FRA;Val-d'Oise;Bruyères-sur-Oise 95116;E2.3167;N49.1667;13;
3;FRA;Île-de-FRA;Val-d'Oise;Buhy 95119;E1.6833;N49.2000;13;
3;FRA;Île-de-FRA;Val-d'Oise;Butry-sur-Oise 95120;E2.2000;N49.0833;13;
3;FRA;Île-de-FRA;Val-d'Oise;Cergy 95127;E2.0667;N49.0333;13;
3;FRA;Île-de-FRA;Val-d'Oise;Champagne-sur-Oise 95134;E2.2500;N49.1333;13;
3;FRA;Île-de-FRA;Val-d'Oise;Charmont 95141;E1.7833;N49.1333;13;
3;FRA;Île-de-FRA;Val-d'Oise;Chars 95142;E1.9333;N49.1667;13;
3;FRA;Île-de-FRA;Val-d'Oise;Châtenay-en-France 95144;E2.4500;N49.0667;13;
3;FRA;Île-de-FRA;Val-d'Oise;Chaumontel 95149;E2.4333;N49.1167;13;
3;FRA;Île-de-FRA;Val-d'Oise;Chaussy 95150;E1.6833;N49.1167;13;
3;FRA;Île-de-FRA;Val-d'Oise;Chauvry 95151;E2.2667;N49.0500;13;
3;FRA;Île-de-FRA;Val-d'Oise;Chennevières-lès-Louvres 95154;E2.5500;N49.0500;13;
3;FRA;Île-de-FRA;Val-d'Oise;Chérence 95157;E1.6833;N49.0833;13;
3;FRA;Île-de-FRA;Val-d'Oise;Cléry-en-Vexin 95166;E1.8500;N49.1333;13;
3;FRA;Île-de-FRA;Val-d'Oise;Commeny 95169;E1.9000;N49.1167;13;
3;FRA;Île-de-FRA;Val-d'Oise;Condécourt 95170;E1.9500;N49.0333;13;
3;FRA;Île-de-FRA;Val-d'Oise;Cormeilles-en-Parisis 95176;E2.2000;N48.9833;13;
3;FRA;Île-de-FRA;Val-d'Oise;Cormeilles-en-Vexin 95177;E2.0167;N49.1167;13;
3;FRA;Île-de-FRA;Val-d'Oise;Courcelles-sur-Viosne 95181;E2.0000;N49.0833;13;
3;FRA;Île-de-FRA;Val-d'Oise;Courdimanche 95183;E2.0000;N49.0333;13;
3;FRA;Île-de-FRA;Val-d'Oise;Deuil-la-Barre 95197;E2.3333;N48.9833;13;
3;FRA;Île-de-FRA;Val-d'Oise;Domont 95199;E2.3333;N49.0333;13;
3;FRA;Île-de-FRA;Val-d'Oise;Eaubonne 95203;E2.2833;N49.0000;13;
3;FRA;Île-de-FRA;Val-d'Oise;Écouen 95205;E2.3833;N49.0167;13;
3;FRA;Île-de-FRA;Val-d'Oise;Enghien-les-Bains 95210;E2.3167;N48.9667;13;
3;FRA;Île-de-FRA;Val-d'Oise;Ennery 95211;E2.1000;N49.0667;13;
3;FRA;Île-de-FRA;Val-d'Oise;Épiais-lès-Louvres 95212;E2.5500;N49.0333;13;
3;FRA;Île-de-FRA;Val-d'Oise;Épiais-Rhus 95213;E2.0667;N49.1167;13;
3;FRA;Île-de-FRA;Val-d'Oise;Épinay-Champlâtreux 95214;E2.4167;N49.0833;13;
3;FRA;Île-de-FRA;Val-d'Oise;Éragny 95218;E2.1000;N49.0167;13;
3;FRA;Île-de-FRA;Val-d'Oise;Ermont 95219;E2.2667;N48.9833;13;
3;FRA;Île-de-FRA;Val-d'Oise;Ézanville 95229;E2.3667;N49.0333;13;
3;FRA;Île-de-FRA;Val-d'Oise;Fontenay-en-Parisis 95241;E2.4500;N49.0500;13;
3;FRA;Île-de-FRA;Val-d'Oise;Fosses 95250;E2.4833;N49.1000;13;
3;FRA;Île-de-FRA;Val-d'Oise;Franconville 95252;E2.2333;N48.9833;13;
3;FRA;Île-de-FRA;Val-d'Oise;Frémainville 95253;E1.8667;N49.0667;13;
3;FRA;Île-de-FRA;Val-d'Oise;Frémécourt 95254;E2.0000;N49.1167;13;
3;FRA;Île-de-FRA;Val-d'Oise;Frépillon 95256;E2.2167;N49.0500;13;
3;FRA;Île-de-FRA;Val-d'Oise;Frouville 95258;E2.1500;N49.1500;13;
3;FRA;Île-de-FRA;Val-d'Oise;Gadancourt 95259;E1.8667;N49.1000;13;
3;FRA;Île-de-FRA;Val-d'Oise;Garges-lès-Gonesse 95268;E2.4167;N48.9667;13;
3;FRA;Île-de-FRA;Val-d'Oise;Genainville 95270;E1.7500;N49.1333;13;
3;FRA;Île-de-FRA;Val-d'Oise;Génicourt 95271;E2.0667;N49.0833;13;
3;FRA;Île-de-FRA;Val-d'Oise;Gonesse 95277;E2.4500;N48.9833;13;
3;FRA;Île-de-FRA;Val-d'Oise;Goussainville 95280;E2.4667;N49.0167;13;
3;FRA;Île-de-FRA;Val-d'Oise;Gouzangrez 95282;E1.9167;N49.1167;13;
3;FRA;Île-de-FRA;Val-d'Oise;Grisy-les-Plâtres 95287;E2.0500;N49.1333;13;
3;FRA;Île-de-FRA;Val-d'Oise;Groslay 95288;E2.3500;N48.9833;13;
3;FRA;Île-de-FRA;Val-d'Oise;Guiry-en-Vexin 95295;E1.8500;N49.1333;13;
3;FRA;Île-de-FRA;Val-d'Oise;Haravilliers 95298;E2.0500;N49.1833;13;
3;FRA;Île-de-FRA;Val-d'Oise;Haute-Isle 95301;E1.6667;N49.0833;13;
3;FRA;Île-de-FRA;Val-d'Oise;Hédouville 95304;E2.1667;N49.1500;13;
3;FRA;Île-de-FRA;Val-d'Oise;Herblay 95306;E2.1667;N49.0000;13;
3;FRA;Île-de-FRA;Val-d'Oise;Hérouville 95308;E2.1333;N49.1000;13;
3;FRA;Île-de-FRA;Val-d'Oise;Hodent 95309;E1.7667;N49.1500;13;
3;FRA;Île-de-FRA;Val-d'Oise;Jagny-sous-Bois 95316;E2.4500;N49.0833;13;
3;FRA;Île-de-FRA;Val-d'Oise;Jouy-le-Moutier 95323;E2.0333;N49.0167;13;
3;FRA;Île-de-FRA;Val-d'Oise;L'Isle-Adam 95313;E2.2333;N49.1167;13;
3;FRA;Île-de-FRA;Val-d'Oise;La Chapelle-en-Vexin 95139;E1.7333;N49.1833;13;
3;FRA;Île-de-FRA;Val-d'Oise;La Frette-sur-Seine 95257;E2.1833;N48.9667;13;
3;FRA;Île-de-FRA;Val-d'Oise;La Roche-Guyon 95523;E1.6333;N49.0833;13;
3;FRA;Île-de-FRA;Val-d'Oise;Labbeville 95328;E2.1500;N49.1333;13;
3;FRA;Île-de-FRA;Val-d'Oise;Lassy 95331;E2.4500;N49.1000;13;
3;FRA;Île-de-FRA;Val-d'Oise;Le Bellay-en-Vexin 95054;E1.8833;N49.1500;13;
3;FRA;Île-de-FRA;Val-d'Oise;Le Heaulme 95303;E2.0000;N49.1667;13;
3;FRA;Île-de-FRA;Val-d'Oise;Le Mesnil-Aubry 95395;E2.4000;N49.0500;13;
3;FRA;Île-de-FRA;Val-d'Oise;Le Perchay 95483;E1.9333;N49.1167;13;
3;FRA;Île-de-FRA;Val-d'Oise;Le Plessis-Bouchard 95491;E2.2333;N49.0000;13;
3;FRA;Île-de-FRA;Val-d'Oise;Le Plessis-Gassot 95492;E2.4167;N49.0333;13;
3;FRA;Île-de-FRA;Val-d'Oise;Le Plessis-Luzarches 95493;E2.4500;N49.1000;13;
3;FRA;Île-de-FRA;Val-d'Oise;Le Thillay 95612;E2.4667;N49.0000;13;
3;FRA;Île-de-FRA;Val-d'Oise;Livilliers 95341;E2.1000;N49.1000;13;
3;FRA;Île-de-FRA;Val-d'Oise;Longuesse 95348;E1.9333;N49.0667;13;
3;FRA;Île-de-FRA;Val-d'Oise;Louvres 95351;E2.5000;N49.0333;13;
3;FRA;Île-de-FRA;Val-d'Oise;Luzarches 95352;E2.4167;N49.1167;13;
3;FRA;Île-de-FRA;Val-d'Oise;Maffliers 95353;E2.3167;N49.0833;13;
3;FRA;Île-de-FRA;Val-d'Oise;Magny-en-Vexin 95355;E1.7833;N49.1500;13;
3;FRA;Île-de-FRA;Val-d'Oise;Mareil-en-France 95365;E2.4333;N49.0667;13;
3;FRA;Île-de-FRA;Val-d'Oise;Margency 95369;E2.3000;N49.0000;13;
3;FRA;Île-de-FRA;Val-d'Oise;Marines 95370;E1.9833;N49.1500;13;
3;FRA;Île-de-FRA;Val-d'Oise;Marly-la-Ville 95371;E2.5000;N49.0833;13;
3;FRA;Île-de-FRA;Val-d'Oise;Maudétour-en-Vexin 95379;E1.7833;N49.1000;13;
3;FRA;Île-de-FRA;Val-d'Oise;Menouville 95387;E2.1000;N49.1500;13;
3;FRA;Île-de-FRA;Val-d'Oise;Menucourt 95388;E1.9833;N49.0167;13;
3;FRA;Île-de-FRA;Val-d'Oise;Mériel 95392;E2.2000;N49.0833;13;
3;FRA;Île-de-FRA;Val-d'Oise;Méry-sur-Oise 95394;E2.2000;N49.0667;13;
3;FRA;Île-de-FRA;Val-d'Oise;Moisselles 95409;E2.3333;N49.0500;13;
3;FRA;Île-de-FRA;Val-d'Oise;Montgeroult 95422;E2.0000;N49.0833;13;
3;FRA;Île-de-FRA;Val-d'Oise;Montigny-lès-Cormeilles 95424;E2.1833;N48.9833;13;
3;FRA;Île-de-FRA;Val-d'Oise;Montlignon 95426;E2.2833;N49.0167;13;
3;FRA;Île-de-FRA;Val-d'Oise;Montmagny 95427;E2.3500;N48.9667;13;
3;FRA;Île-de-FRA;Val-d'Oise;Montmorency 95428;E2.3333;N49.0000;13;
3;FRA;Île-de-FRA;Val-d'Oise;Montreuil-sur-Epte 95429;E1.6833;N49.1833;13;
3;FRA;Île-de-FRA;Val-d'Oise;Montsoult 95430;E2.3167;N49.0667;13;
3;FRA;Île-de-FRA;Val-d'Oise;Mours 95436;E2.2667;N49.1333;13;
3;FRA;Île-de-FRA;Val-d'Oise;Moussy 95438;E1.9167;N49.1333;13;
3;FRA;Île-de-FRA;Val-d'Oise;Nerville-la-Forêt 95445;E2.2833;N49.0833;13;
3;FRA;Île-de-FRA;Val-d'Oise;Nesles-la-Vallée 95446;E2.1833;N49.1333;13;
3;FRA;Île-de-FRA;Val-d'Oise;Neuilly-en-Vexin 95447;E1.9833;N49.1667;13;
3;FRA;Île-de-FRA;Val-d'Oise;Neuville-sur-Oise 95450;E2.0667;N49.0167;13;
3;FRA;Île-de-FRA;Val-d'Oise;Nointel 95452;E2.3000;N49.1333;13;
3;FRA;Île-de-FRA;Val-d'Oise;Noisy-sur-Oise 95456;E2.3333;N49.1333;13;
3;FRA;Île-de-FRA;Val-d'Oise;Nucourt 95459;E1.8500;N49.1667;13;
3;FRA;Île-de-FRA;Val-d'Oise;Omerville 95462;E1.7167;N49.1333;13;
3;FRA;Île-de-FRA;Val-d'Oise;Osny 95476;E2.0667;N49.0667;13;
3;FRA;Île-de-FRA;Val-d'Oise;Parmain 95480;E2.2167;N49.1167;13;
3;FRA;Île-de-FRA;Val-d'Oise;Persan 95487;E2.2667;N49.1500;13;
3;FRA;Île-de-FRA;Val-d'Oise;Pierrelaye 95488;E2.1667;N49.0167;13;
3;FRA;Île-de-FRA;Val-d'Oise;Piscop 95489;E2.3500;N49.0167;13;
3;FRA;Île-de-FRA;Val-d'Oise;Pontoise 95500;E2.1000;N49.0500;13;
3;FRA;Île-de-FRA;Val-d'Oise;Presles 95504;E2.3000;N49.1167;13;
3;FRA;Île-de-FRA;Val-d'Oise;Puiseux-en-France 95509;E2.4833;N49.0667;13;
3;FRA;Île-de-FRA;Val-d'Oise;Puiseux-Pontoise 95510;E2.0167;N49.0500;13;
3;FRA;Île-de-FRA;Val-d'Oise;Roissy-en-France 95527;E2.5167;N49.0000;13;
3;FRA;Île-de-FRA;Val-d'Oise;Ronquerolles 95529;E2.2167;N49.1667;13;
3;FRA;Île-de-FRA;Val-d'Oise;Sagy 95535;E1.9500;N49.0500;13;
3;FRA;Île-de-FRA;Val-d'Oise;Saint-Brice-sous-Forêt 95539;E2.3667;N49.0000;13;
3;FRA;Île-de-FRA;Val-d'Oise;Saint-Clair-sur-Epte 95541;E1.6833;N49.2000;13;
3;FRA;Île-de-FRA;Val-d'Oise;Saint-Cyr-en-Arthies 95543;E1.7500;N49.0667;13;
3;FRA;Île-de-FRA;Val-d'Oise;Saint-Gervais 95554;E1.7667;N49.1667;13;
3;FRA;Île-de-FRA;Val-d'Oise;Saint-Gratien 95555;E2.2833;N48.9667;13;
3;FRA;Île-de-FRA;Val-d'Oise;Saint-Leu-la-Forêt 95563;E2.2500;N49.0167;13;
3;FRA;Île-de-FRA;Val-d'Oise;Saint-Martin-du-Tertre 95566;E2.3500;N49.1000;13;
3;FRA;Île-de-FRA;Val-d'Oise;Saint-Ouen-l'Aumône 95572;E2.1167;N49.0500;13;
3;FRA;Île-de-FRA;Val-d'Oise;Saint-Prix 95574;E2.2667;N49.0167;13;
3;FRA;Île-de-FRA;Val-d'Oise;Saint-Witz 95580;E2.5667;N49.0833;13;
3;FRA;Île-de-FRA;Val-d'Oise;Sannois 95582;E2.2500;N48.9667;13;
3;FRA;Île-de-FRA;Val-d'Oise;Santeuil 95584;E1.9500;N49.1333;13;
3;FRA;Île-de-FRA;Val-d'Oise;Sarcelles 95585;E2.3833;N49.0000;13;
3;FRA;Île-de-FRA;Val-d'Oise;Seraincourt 95592;E1.8667;N49.0333;13;
3;FRA;Île-de-FRA;Val-d'Oise;Seugy 95594;E2.4000;N49.1167;13;
3;FRA;Île-de-FRA;Val-d'Oise;Soisy-sous-Montmorency 95598;E2.3000;N48.9833;13;
3;FRA;Île-de-FRA;Val-d'Oise;Survilliers 95604;E2.5500;N49.1000;13;
3;FRA;Île-de-FRA;Val-d'Oise;Taverny 95607;E2.2167;N49.0333;13;
3;FRA;Île-de-FRA;Val-d'Oise;Théméricourt 95610;E1.9000;N49.0833;13;
3;FRA;Île-de-FRA;Val-d'Oise;Theuville 95611;E2.0667;N49.1500;13;
3;FRA;Île-de-FRA;Val-d'Oise;Us 95625;E1.9667;N49.1000;13;
3;FRA;Île-de-FRA;Val-d'Oise;Vallangoujard 95627;E2.1167;N49.1333;13;
3;FRA;Île-de-FRA;Val-d'Oise;Valmondois 95628;E2.2000;N49.1000;13;
3;FRA;Île-de-FRA;Val-d'Oise;Vaudherland 95633;E2.4833;N49.0000;13;
3;FRA;Île-de-FRA;Val-d'Oise;Vauréal 95637;E2.0333;N49.0333;13;
3;FRA;Île-de-FRA;Val-d'Oise;Vémars 95641;E2.5667;N49.0667;13;
3;FRA;Île-de-FRA;Val-d'Oise;Vétheuil 95651;E1.7000;N49.0667;13;
3;FRA;Île-de-FRA;Val-d'Oise;Viarmes 95652;E2.3667;N49.1333;13;
3;FRA;Île-de-FRA;Val-d'Oise;Vienne-en-Arthies 95656;E1.7333;N49.0667;13;
3;FRA;Île-de-FRA;Val-d'Oise;Vigny 95658;E1.9333;N49.0833;13;
3;FRA;Île-de-FRA;Val-d'Oise;Villaines-sous-Bois 95660;E2.3667;N49.0833;13;
3;FRA;Île-de-FRA;Val-d'Oise;Villeron 95675;E2.5333;N49.0500;13;
3;FRA;Île-de-FRA;Val-d'Oise;Villers-en-Arthies 95676;E1.7333;N49.1000;13;
3;FRA;Île-de-FRA;Val-d'Oise;Villiers-Adam 95678;E2.2333;N49.0667;13;
3;FRA;Île-de-FRA;Val-d'Oise;Villiers-le-Bel 95680;E2.3833;N49.0000;13;
3;FRA;Île-de-FRA;Val-d'Oise;Villiers-le-Sec 95682;E2.4000;N49.0667;13;
3;FRA;Île-de-FRA;Val-d'Oise;Wy-dit-Joli-Village 95690;E1.8333;N49.1000;13;
2;FRA;Île-de-FRA;Val-de-Marne;;E2.4431;N48.7888;9;
3;FRA;Île-de-FRA;Val-de-Marne;Ablon-sur-Seine 94001;E2.4167;N48.7167;13;
3;FRA;Île-de-FRA;Val-de-Marne;Alfortville 94002;E2.4167;N48.8000;13;
3;FRA;Île-de-FRA;Val-de-Marne;Arcueil 94003;E2.3333;N48.8000;13;
3;FRA;Île-de-FRA;Val-de-Marne;Boissy-Saint-Léger 94004;E2.5167;N48.7500;13;
3;FRA;Île-de-FRA;Val-de-Marne;Bonneuil-sur-Marne 94011;E2.4833;N48.7667;13;
3;FRA;Île-de-FRA;Val-de-Marne;Bry-sur-Marne 94015;E2.5167;N48.8333;13;
3;FRA;Île-de-FRA;Val-de-Marne;Cachan 94016;E2.3333;N48.7833;13;
3;FRA;Île-de-FRA;Val-de-Marne;Champigny-sur-Marne 94017;E2.5167;N48.8167;13;
3;FRA;Île-de-FRA;Val-de-Marne;Charenton-le-Pont 94018;E2.4167;N48.8167;13;
3;FRA;Île-de-FRA;Val-de-Marne;Chennevières-sur-Marne 94019;E2.5167;N48.8000;13;
3;FRA;Île-de-FRA;Val-de-Marne;Chevilly-Larue 94021;E2.3500;N48.7667;13;
3;FRA;Île-de-FRA;Val-de-Marne;Choisy-le-Roi 94022;E2.4167;N48.7667;13;
3;FRA;Île-de-FRA;Val-de-Marne;Créteil 94028;E2.4667;N48.7833;13;
3;FRA;Île-de-FRA;Val-de-Marne;Fontenay-sous-Bois 94033;E2.4833;N48.8500;13;
3;FRA;Île-de-FRA;Val-de-Marne;Fresnes 94034;E2.3167;N48.7500;13;
3;FRA;Île-de-FRA;Val-de-Marne;Gentilly 94037;E2.3333;N48.8167;13;
3;FRA;Île-de-FRA;Val-de-Marne;Ivry-sur-Seine 94041;E2.3833;N48.8167;13;
3;FRA;Île-de-FRA;Val-de-Marne;Joinville-le-Pont 94042;E2.4667;N48.8167;13;
3;FRA;Île-de-FRA;Val-de-Marne;L'Haÿ-les-Roses 94038;E2.3333;N48.7833;13;
3;FRA;Île-de-FRA;Val-de-Marne;La Queue-en-Brie 94060;E2.5833;N48.7833;13;
3;FRA;Île-de-FRA;Val-de-Marne;Le Kremlin-Bicêtre 94043;E2.3667;N48.8167;13;
3;FRA;Île-de-FRA;Val-de-Marne;Le Perreux-sur-Marne 94058;E2.5000;N48.8500;13;
3;FRA;Île-de-FRA;Val-de-Marne;Le Plessis-Trévise 94059;E2.5667;N48.8167;13;
3;FRA;Île-de-FRA;Val-de-Marne;Limeil-Brévannes 94044;E2.4833;N48.7333;13;
3;FRA;Île-de-FRA;Val-de-Marne;Maisons-Alfort 94046;E2.4333;N48.8000;13;
3;FRA;Île-de-FRA;Val-de-Marne;Mandres-les-Roses 94047;E2.5500;N48.7000;13;
3;FRA;Île-de-FRA;Val-de-Marne;Marolles-en-Brie 94048;E2.5500;N48.7333;13;
3;FRA;Île-de-FRA;Val-de-Marne;Nogent-sur-Marne 94052;E2.4833;N48.8333;13;
3;FRA;Île-de-FRA;Val-de-Marne;Noiseau 94053;E2.5500;N48.7833;13;
3;FRA;Île-de-FRA;Val-de-Marne;Orly 94054;E2.4000;N48.7500;13;
3;FRA;Île-de-FRA;Val-de-Marne;Ormesson-sur-Marne 94055;E2.5500;N48.7833;13;
3;FRA;Île-de-FRA;Val-de-Marne;Périgny 94056;E2.5500;N48.7000;13;
3;FRA;Île-de-FRA;Val-de-Marne;Rungis 94065;E2.3500;N48.7500;13;
3;FRA;Île-de-FRA;Val-de-Marne;Saint-Mandé 94067;E2.4167;N48.8333;13;
3;FRA;Île-de-FRA;Val-de-Marne;Saint-Maur-des-Fossés 94068;E2.5000;N48.8000;13;
3;FRA;Île-de-FRA;Val-de-Marne;Saint-Maurice 94069;E2.4583;N48.8167;13;
3;FRA;Île-de-FRA;Val-de-Marne;Santeny 94070;E2.5667;N48.7167;13;
3;FRA;Île-de-FRA;Val-de-Marne;Sucy-en-Brie 94071;E2.5333;N48.7667;13;
3;FRA;Île-de-FRA;Val-de-Marne;Thiais 94073;E2.3833;N48.7667;13;
3;FRA;Île-de-FRA;Val-de-Marne;Valenton 94074;E2.4667;N48.7500;13;
3;FRA;Île-de-FRA;Val-de-Marne;Villecresnes 94075;E2.5333;N48.7167;13;
3;FRA;Île-de-FRA;Val-de-Marne;Villejuif 94076;E2.3667;N48.8000;13;
3;FRA;Île-de-FRA;Val-de-Marne;Villeneuve-le-Roi 94077;E2.4167;N48.7333;13;
3;FRA;Île-de-FRA;Val-de-Marne;Villeneuve-Saint-Georges 94078;E2.4500;N48.7333;13;
3;FRA;Île-de-FRA;Val-de-Marne;Villiers-sur-Marne 94079;E2.5500;N48.8333;13;
3;FRA;Île-de-FRA;Val-de-Marne;Vincennes 94080;E2.4333;N48.8500;13;
3;FRA;Île-de-FRA;Val-de-Marne;Vitry-sur-Seine 94081;E2.4000;N48.7833;13;
2;FRA;Île-de-FRA;Yvelines;;E1.8457;N48.8810;9;
3;FRA;Île-de-FRA;Yvelines;Abbéville-la-Rivière 78001=91001;E2.1667;N48.3500;13;
3;FRA;Île-de-FRA;Yvelines;Ableiges 78002=95002;E1.9833;N49.0833;13;
3;FRA;Île-de-FRA;Yvelines;Ablis 78003;E1.8417;N48.5167;13;
3;FRA;Île-de-FRA;Yvelines;Ablon-sur-Seine 78004=94001;E2.4167;N48.7167;13;
3;FRA;Île-de-FRA;Yvelines;Achères 78005;E2.0667;N48.9667;13;
3;FRA;Île-de-FRA;Yvelines;Adainville 78006;E1.6500;N48.7167;13;
3;FRA;Île-de-FRA;Yvelines;Aigremont 78007;E2.0193;N48.9041;13;
3;FRA;Île-de-FRA;Yvelines;Aincourt 78008=95008;E1.7833;N49.0667;13;
3;FRA;Île-de-FRA;Yvelines;Allainville 78009;E1.9000;N48.4583;13;
3;FRA;Île-de-FRA;Yvelines;Ambleville 78011=95011;E1.7000;N49.1500;13;
3;FRA;Île-de-FRA;Yvelines;Amenucourt 78012=95012;E1.6500;N49.1000;13;
3;FRA;Île-de-FRA;Yvelines;Andelu 78013;E1.8167;N48.8833;13;
3;FRA;Île-de-FRA;Yvelines;Andilly 78014=95014;E2.3000;N49.0000;13;
3;FRA;Île-de-FRA;Yvelines;Andrésy 78015;E2.0667;N48.9833;13;
3;FRA;Île-de-FRA;Yvelines;Angerville 78016=91016;E2.0000;N48.3167;13;
3;FRA;Île-de-FRA;Yvelines;Angervilliers 78017=91017;E2.0667;N48.5833;13;
3;FRA;Île-de-FRA;Yvelines;Argenteuil 78018=95018;E2.2500;N48.9500;13;
3;FRA;Île-de-FRA;Yvelines;Arnouville-lès-Gonesse 78019=95019;E2.4167;N48.9833;13;
3;FRA;Île-de-FRA;Yvelines;Arnouville-lès-Mantes 78020;E1.7333;N48.9000;13;
3;FRA;Île-de-FRA;Yvelines;Arpajon 78021=91021;E2.2500;N48.5833;13;
3;FRA;Île-de-FRA;Yvelines;Arrancourt 78022=91022;E2.1667;N48.3333;13;
3;FRA;Île-de-FRA;Yvelines;Arronville 78023=95023;E2.1000;N49.1833;13;
3;FRA;Île-de-FRA;Yvelines;Arthies 78024=95024;E1.7833;N49.1000;13;
3;FRA;Île-de-FRA;Yvelines;Arthieul 78025=95025;E1.8052;N49.1539;13;
3;FRA;Île-de-FRA;Yvelines;Asnières-sur-Oise 78026=95026;E2.3500;N49.1333;13;
3;FRA;Île-de-FRA;Yvelines;Athis-Mons 78027=91027;E2.4000;N48.7167;13;
3;FRA;Île-de-FRA;Yvelines;Attainville 78028=95028;E2.3500;N49.0500;13;
3;FRA;Île-de-FRA;Yvelines;Aubergenville 78029;E1.8545;N48.9597;13;
3;FRA;Île-de-FRA;Yvelines;Auffargis 78030;E1.8833;N48.7000;13;
3;FRA;Île-de-FRA;Yvelines;Auffreville-Brasseuil 78031;E1.7096;N48.9543;13;
3;FRA;Île-de-FRA;Yvelines;Aulnay-sous-Bois 78032=93005;E2.5167;N48.9500;13;
3;FRA;Île-de-FRA;Yvelines;Aulnay-sur-Mauldre 78033;E1.8500;N48.9333;13;
3;FRA;Île-de-FRA;Yvelines;Auteuil 78034;E1.8167;N48.8333;13;
3;FRA;Île-de-FRA;Yvelines;Authon-la-Plaine 78035=91035;E1.9500;N48.4500;13;
3;FRA;Île-de-FRA;Yvelines;Autouillet 78036;E1.8000;N48.8500;13;
3;FRA;Île-de-FRA;Yvelines;Auvernaux 78037=91037;E2.4833;N48.5333;13;
3;FRA;Île-de-FRA;Yvelines;Auvers-Saint-Georges 78038=91038;E2.2333;N48.4833;13;
3;FRA;Île-de-FRA;Yvelines;Auvers-sur-Oise 78039=95039;E2.1667;N49.0667;13;
3;FRA;Île-de-FRA;Yvelines;Avernes 78040=95040;E1.8667;N49.0833;13;
3;FRA;Île-de-FRA;Yvelines;Avrainville 78041=91041;E2.2500;N48.5667;13;
3;FRA;Île-de-FRA;Yvelines;Baillet-en-France 78042=95042;E2.3000;N49.0667;13;
3;FRA;Île-de-FRA;Yvelines;Bailly 78043;E2.0833;N48.8500;13;
3;FRA;Île-de-FRA;Yvelines;Ballainvilliers 78044=91044;E2.2833;N48.6667;13;
3;FRA;Île-de-FRA;Yvelines;Ballancourt-sur-Essonne 78045=91045;E2.3855;N48.5250;13;
3;FRA;Île-de-FRA;Yvelines;Banthelu 78046=95046;E1.8167;N49.1333;13;
3;FRA;Île-de-FRA;Yvelines;Baulne 78047=91047;E2.3500;N48.5000;13;
3;FRA;Île-de-FRA;Yvelines;Bazainville 78048;E1.6667;N48.8000;13;
3;FRA;Île-de-FRA;Yvelines;Bazemont 78049;E1.8667;N48.9333;13;
3;FRA;Île-de-FRA;Yvelines;Bazoches-sur-Guyonne 78050;E1.8500;N48.7833;13;
3;FRA;Île-de-FRA;Yvelines;Beauchamp 78051=95051;E2.2000;N49.0167;13;
3;FRA;Île-de-FRA;Yvelines;Beaumont-sur-Oise 78052=95052;E2.2833;N49.1333;13;
3;FRA;Île-de-FRA;Yvelines;Béhoust 78053;E1.7333;N48.8333;13;
3;FRA;Île-de-FRA;Yvelines;Bellefontaine 78055=95055;E2.4667;N49.1000;13;
3;FRA;Île-de-FRA;Yvelines;Belloy-en-France 78056=95056;E2.3833;N49.0833;13;
3;FRA;Île-de-FRA;Yvelines;Bennecourt 78057;E1.5667;N49.0333;13;
3;FRA;Île-de-FRA;Yvelines;Bernes-sur-Oise 78058=95058;E2.3000;N49.1667;13;
3;FRA;Île-de-FRA;Yvelines;Berville 78059=95059;E2.0667;N49.1833;13;
3;FRA;Île-de-FRA;Yvelines;Bessancourt 78060=95060;E2.2167;N49.0333;13;
3;FRA;Île-de-FRA;Yvelines;Béthemont-la-Forêt 78061=95061;E2.2500;N49.0500;13;
3;FRA;Île-de-FRA;Yvelines;Beynes 78062;E1.8667;N48.8500;13;
3;FRA;Île-de-FRA;Yvelines;Bezons 78063=95063;E2.2167;N48.9333;13;
3;FRA;Île-de-FRA;Yvelines;Bièvres 78064=91064;E2.2167;N48.7500;13;
3;FRA;Île-de-FRA;Yvelines;Blamécourt 78065=95065;E1.8033;N49.1608;13;
3;FRA;Île-de-FRA;Yvelines;Blandy 78067=91067;E2.2583;N48.3167;13;
3;FRA;Île-de-FRA;Yvelines;Blaru 78068;E1.4833;N49.0500;13;
3;FRA;Île-de-FRA;Yvelines;Boigneville 78069=91069;E2.3667;N48.3333;13;
3;FRA;Île-de-FRA;Yvelines;Boinville-en-Mantois 78070;E1.7667;N48.9333;13;
3;FRA;Île-de-FRA;Yvelines;Boinville-le-Gaillard 78071;E1.8667;N48.4917;13;
3;FRA;Île-de-FRA;Yvelines;Boinvilliers 78072;E1.6667;N48.9167;13;
3;FRA;Île-de-FRA;Yvelines;Bois-d'Arcy 78073;E2.0167;N48.8000;13;
3;FRA;Île-de-FRA;Yvelines;Bois-Herpin 78075=91075;E2.2333;N48.3667;13;
3;FRA;Île-de-FRA;Yvelines;Boisemont 78074=95074;E2.0000;N49.0167;13;
3;FRA;Île-de-FRA;Yvelines;Boissets 78076;E1.5833;N48.8500;13;
3;FRA;Île-de-FRA;Yvelines;Boissy-l'Aillerie 78078=95078;E2.0333;N49.0667;13;
3;FRA;Île-de-FRA;Yvelines;Boissy-la-Rivière 78079=91079;E2.1500;N48.3667;13;
3;FRA;Île-de-FRA;Yvelines;Boissy-le-Cutté 78080=91080;E2.2833;N48.4667;13;
3;FRA;Île-de-FRA;Yvelines;Boissy-le-Sec 78081=91081;E2.0833;N48.4667;13;
3;FRA;Île-de-FRA;Yvelines;Boissy-Mauvoisin 78082;E1.5833;N48.9667;13;
3;FRA;Île-de-FRA;Yvelines;Boissy-Saint-Léger 78083=94004;E2.5167;N48.7500;13;
3;FRA;Île-de-FRA;Yvelines;Boissy-sans-Avoir 78084;E1.8000;N48.8167;13;
3;FRA;Île-de-FRA;Yvelines;Boissy-sous-Saint-Yon 78085=91085;E2.2167;N48.5500;13;
3;FRA;Île-de-FRA;Yvelines;Bondoufle 78086=91086;E2.3833;N48.6167;13;
3;FRA;Île-de-FRA;Yvelines;Bonnelles 78087;E2.0333;N48.6167;13;
3;FRA;Île-de-FRA;Yvelines;Bonneuil-en-France 78088=95088;E2.4333;N48.9667;13;
3;FRA;Île-de-FRA;Yvelines;Bonnières-sur-Seine 78089;E1.5833;N49.0333;13;
3;FRA;Île-de-FRA;Yvelines;Bouafle 78090;E1.9000;N48.9667;13;
3;FRA;Île-de-FRA;Yvelines;Bouffémont 78091=95091;E2.3000;N49.0500;13;
3;FRA;Île-de-FRA;Yvelines;Bougival 78092;E2.1333;N48.8667;13;
3;FRA;Île-de-FRA;Yvelines;Boullay-les-Troux 78093=91093;E2.0500;N48.6833;13;
3;FRA;Île-de-FRA;Yvelines;Bouqueval 78094=95094;E2.4333;N49.0167;13;
3;FRA;Île-de-FRA;Yvelines;Bouray-sur-Juine 78095=91095;E2.3000;N48.5167;13;
3;FRA;Île-de-FRA;Yvelines;Bourdonné 78096;E1.6667;N48.7500;13;
3;FRA;Île-de-FRA;Yvelines;Boussy-Saint-Antoine 78097=91097;E2.5333;N48.6833;13;
3;FRA;Île-de-FRA;Yvelines;Boutervilliers 78098=91098;E2.0500;N48.4500;13;
3;FRA;Île-de-FRA;Yvelines;Boutigny-sur-Essonne 78099=91099;E2.3769;N48.4360;13;
3;FRA;Île-de-FRA;Yvelines;Bouville 78100=91100;E2.3000;N48.4333;13;
3;FRA;Île-de-FRA;Yvelines;Bray-et-Lû 78101=95101;E1.6500;N49.1333;13;
3;FRA;Île-de-FRA;Yvelines;Bréançon 78102=95102;E2.0167;N49.1500;13;
3;FRA;Île-de-FRA;Yvelines;Brétigny-sur-Orge 78103=91103;E2.3167;N48.6167;13;
3;FRA;Île-de-FRA;Yvelines;Breuil-Bois-Robert 78104;E1.7167;N48.9500;13;
3;FRA;Île-de-FRA;Yvelines;Breuillet 78105=91105;E2.1667;N48.5667;13;
3;FRA;Île-de-FRA;Yvelines;Breux-Jouy 78106=91106;E2.1774;N48.5616;13;
3;FRA;Île-de-FRA;Yvelines;Bréval 78107;E1.5333;N48.9500;13;
3;FRA;Île-de-FRA;Yvelines;Brières-les-Scellés 78109=91109;E2.1333;N48.4500;13;
3;FRA;Île-de-FRA;Yvelines;Brignancourt 78110=95110;E1.9500;N49.1333;13;
3;FRA;Île-de-FRA;Yvelines;Briis-sous-Forges 78111=91111;E2.1167;N48.6167;13;
3;FRA;Île-de-FRA;Yvelines;Brouy 78112=91112;E2.2667;N48.3167;13;
3;FRA;Île-de-FRA;Yvelines;Brueil-en-Vexin 78113;E1.8193;N49.0310;13;
3;FRA;Île-de-FRA;Yvelines;Brunoy 78114=91114;E2.5000;N48.7000;13;
3;FRA;Île-de-FRA;Yvelines;Bruyères-le-Châtel 78115=91115;E2.2000;N48.6000;13;
3;FRA;Île-de-FRA;Yvelines;Bruyères-sur-Oise 78116=95116;E2.3167;N49.1667;13;
3;FRA;Île-de-FRA;Yvelines;Buc 78117;E2.1333;N48.7667;13;
3;FRA;Île-de-FRA;Yvelines;Buchelay 78118;E1.6667;N48.9833;13;
3;FRA;Île-de-FRA;Yvelines;Buhy 78119=95119;E1.6833;N49.2000;13;
3;FRA;Île-de-FRA;Yvelines;Bullion 78120;E2.0000;N48.6167;13;
3;FRA;Île-de-FRA;Yvelines;Buno-Bonnevaux 78121=91121;E2.3833;N48.3500;13;
3;FRA;Île-de-FRA;Yvelines;Bures-sur-Yvette 78122=91122;E2.1667;N48.7000;13;
3;FRA;Île-de-FRA;Yvelines;Butry-sur-Oise 78692=91692;E2.2000;N49.0833;13;
3;FRA;Île-de-FRA;Yvelines;Carrières-sous-Poissy 78123;E2.0333;N48.9500;13;
3;FRA;Île-de-FRA;Yvelines;Carrières-sur-Seine 78124;E2.1833;N48.9167;13;
3;FRA;Île-de-FRA;Yvelines;Cergy 78127=95127;E2.0667;N49.0333;13;
3;FRA;Île-de-FRA;Yvelines;Cernay-la-Ville 78128;E1.9667;N48.6667;13;
3;FRA;Île-de-FRA;Yvelines;Cerny 78129=91129;E2.3167;N48.4667;13;
3;FRA;Île-de-FRA;Yvelines;Chalo-Saint-Mars 78130=91130;E2.0667;N48.4333;13;
3;FRA;Île-de-FRA;Yvelines;Chalou-Moulineux 78131=91131;E2.0167;N48.3833;13;
3;FRA;Île-de-FRA;Yvelines;Chamarande 78132=91132;E2.2167;N48.5167;13;
3;FRA;Île-de-FRA;Yvelines;Chambourcy 78133;E2.0333;N48.9000;13;
3;FRA;Île-de-FRA;Yvelines;Champagne-sur-Oise 78134=95134;E2.2500;N49.1333;13;
3;FRA;Île-de-FRA;Yvelines;Champcueil 78135=91135;E2.4500;N48.5167;13;
3;FRA;Île-de-FRA;Yvelines;Champlan 78136=91136;E2.2667;N48.7000;13;
3;FRA;Île-de-FRA;Yvelines;Champmotteux 78137=91137;E2.3167;N48.3500;13;
3;FRA;Île-de-FRA;Yvelines;Chanteloup-les-Vignes 78138;E2.0333;N48.9833;13;
3;FRA;Île-de-FRA;Yvelines;Chapet 78140;E1.9333;N48.9667;13;
3;FRA;Île-de-FRA;Yvelines;Charmont 78141=95141;E1.7833;N49.1333;13;
3;FRA;Île-de-FRA;Yvelines;Chars 78142=95142;E1.9333;N49.1667;13;
3;FRA;Île-de-FRA;Yvelines;Châteaufort 78143;E2.1000;N48.7333;13;
3;FRA;Île-de-FRA;Yvelines;Châtenay-en-France 78144=95144;E2.4500;N49.0667;13;
3;FRA;Île-de-FRA;Yvelines;Chatignonville 78145=91145;E1.9333;N48.4667;13;
3;FRA;Île-de-FRA;Yvelines;Chatou 78146;E2.1500;N48.8833;13;
3;FRA;Île-de-FRA;Yvelines;Chauffour-lès-Étréchy 78148=91148;E2.1667;N48.5000;13;
3;FRA;Île-de-FRA;Yvelines;Chaufour-lès-Bonnières 78147;E1.4833;N49.0167;13;
3;FRA;Île-de-FRA;Yvelines;Chaumontel 78149=95149;E2.4333;N49.1167;13;
3;FRA;Île-de-FRA;Yvelines;Chaussy 78150=95150;E1.6833;N49.1167;13;
3;FRA;Île-de-FRA;Yvelines;Chauvry 78151=95151;E2.2667;N49.0500;13;
3;FRA;Île-de-FRA;Yvelines;Chavenay 78152;E1.9833;N48.8500;13;
3;FRA;Île-de-FRA;Yvelines;Chaville 78153=92022;E2.2833;N48.8000;13;
3;FRA;Île-de-FRA;Yvelines;Chennevières-lès-Louvres 78154=95154;E2.5500;N49.0500;13;
3;FRA;Île-de-FRA;Yvelines;Chennevières-sur-Marne 78155=94019;E2.5167;N48.8000;13;
3;FRA;Île-de-FRA;Yvelines;Cheptainville 78156=91156;E2.2667;N48.5500;13;
3;FRA;Île-de-FRA;Yvelines;Chérence 78157=95157;E1.6833;N49.0833;13;
3;FRA;Île-de-FRA;Yvelines;Chevannes 78159=91159;E2.4333;N48.5333;13;
3;FRA;Île-de-FRA;Yvelines;Chevreuse 78160;E2.0500;N48.7000;13;
3;FRA;Île-de-FRA;Yvelines;Chilly-Mazarin 78161=91161;E2.3000;N48.7000;13;
3;FRA;Île-de-FRA;Yvelines;Choisel 78162;E2.0167;N48.6833;13;
3;FRA;Île-de-FRA;Yvelines;Civry-la-Forêt 78163;E1.6167;N48.8667;13;
3;FRA;Île-de-FRA;Yvelines;Clairefontaine-en-Yvelines 78164;E1.9090;N48.6126;13;
3;FRA;Île-de-FRA;Yvelines;Cléry-en-Vexin 78166=95166;E1.8500;N49.1333;13;
3;FRA;Île-de-FRA;Yvelines;Clichy-sous-Bois 78167=93014;E2.5500;N48.9167;13;
3;FRA;Île-de-FRA;Yvelines;Coignières 78168;E1.9167;N48.7500;13;
3;FRA;Île-de-FRA;Yvelines;Commeny 78169=95169;E1.9000;N49.1167;13;
3;FRA;Île-de-FRA;Yvelines;Condé-sur-Vesgre 78171;E1.6667;N48.7333;13;
3;FRA;Île-de-FRA;Yvelines;Condécourt 78170=95170;E1.9500;N49.0333;13;
3;FRA;Île-de-FRA;Yvelines;Conflans-Sainte-Honorine 78172;E2.1000;N48.9833;13;
3;FRA;Île-de-FRA;Yvelines;Congerville 78173=91173;E1.9833;N48.3833;13;
3;FRA;Île-de-FRA;Yvelines;Congerville-Thionville 78613=91613;E1.9884;N48.3869;13;
3;FRA;Île-de-FRA;Yvelines;Corbeil-Essonnes 78174=91174;E2.4833;N48.6000;13;
3;FRA;Île-de-FRA;Yvelines;Corbreuse 78175=91175;E1.9500;N48.5000;13;
3;FRA;Île-de-FRA;Yvelines;Cormeilles-en-Parisis 78176=95176;E2.2000;N48.9833;13;
3;FRA;Île-de-FRA;Yvelines;Cormeilles-en-Vexin 78177=95177;E2.0167;N49.1167;13;
3;FRA;Île-de-FRA;Yvelines;Coubron 78178=93015;E2.5833;N48.9167;13;
3;FRA;Île-de-FRA;Yvelines;Courances 78180=91180;E2.4667;N48.4333;13;
3;FRA;Île-de-FRA;Yvelines;Courcelles-sur-Viosne 78181=95181;E2.0000;N49.0833;13;
3;FRA;Île-de-FRA;Yvelines;Courcouronnes 78182=91182;E2.4000;N48.6167;13;
3;FRA;Île-de-FRA;Yvelines;Courdimanche 78183=95183;E2.0000;N49.0333;13;
3;FRA;Île-de-FRA;Yvelines;Courdimanche-sur-Essonne 78184=91184;E2.3782;N48.4169;13;
3;FRA;Île-de-FRA;Yvelines;Courgent 78185;E1.6667;N48.9000;13;
3;FRA;Île-de-FRA;Yvelines;Courson-Monteloup 78186=91186;E2.1500;N48.6000;13;
3;FRA;Île-de-FRA;Yvelines;Craches 78187=78506;E1.8167;N48.5500;13;
3;FRA;Île-de-FRA;Yvelines;Cravent 78188;E1.4833;N49.0000;13;
3;FRA;Île-de-FRA;Yvelines;Crespières 78189;E1.9333;N48.8833;13;
3;FRA;Île-de-FRA;Yvelines;Croissy-sur-Seine 78190;E2.1333;N48.8667;13;
3;FRA;Île-de-FRA;Yvelines;Crosne 78191=91191;E2.4500;N48.7167;13;
3;FRA;Île-de-FRA;Yvelines;D'Huison-Longueville 78198=91198;E2.3333;N48.4500;13;
3;FRA;Île-de-FRA;Yvelines;Dammartin-en-Serve 78192;E1.6167;N48.9000;13;
3;FRA;Île-de-FRA;Yvelines;Dampierre-en-Yvelines 78193;E1.9861;N48.7053;13;
3;FRA;Île-de-FRA;Yvelines;Dannemarie 78194;E1.6167;N48.7667;13;
3;FRA;Île-de-FRA;Yvelines;Dannemois 78195=91195;E2.4667;N48.4500;13;
3;FRA;Île-de-FRA;Yvelines;Davron 78196;E1.9333;N48.8667;13;
3;FRA;Île-de-FRA;Yvelines;Deuil-la-Barre 78197=95197;E2.3333;N48.9833;13;
3;FRA;Île-de-FRA;Yvelines;Domont 78199=95199;E2.3333;N49.0333;13;
3;FRA;Île-de-FRA;Yvelines;Dourdan 78200=91200;E2.0167;N48.5333;13;
3;FRA;Île-de-FRA;Yvelines;Draveil 78201=91201;E2.4167;N48.6833;13;
3;FRA;Île-de-FRA;Yvelines;Drocourt 78202;E1.7667;N49.0500;13;
3;FRA;Île-de-FRA;Yvelines;Eaubonne 78203=95203;E2.2833;N49.0000;13;
3;FRA;Île-de-FRA;Yvelines;Écharcon 78204=91204;E2.4000;N48.5667;13;
3;FRA;Île-de-FRA;Yvelines;Écouen 78205=95205;E2.3833;N49.0167;13;
3;FRA;Île-de-FRA;Yvelines;Ecquevilly 78206;E1.9167;N48.9500;13;
3;FRA;Île-de-FRA;Yvelines;Égly 78207=91207;E2.2167;N48.5833;13;
3;FRA;Île-de-FRA;Yvelines;Élancourt 78208;E1.9500;N48.7833;13;
3;FRA;Île-de-FRA;Yvelines;Émancé 78209;E1.7333;N48.5833;13;
3;FRA;Île-de-FRA;Yvelines;Enghien-les-Bains 78210=95210;E2.3167;N48.9667;13;
3;FRA;Île-de-FRA;Yvelines;Ennery 78211=95211;E2.1000;N49.0667;13;
3;FRA;Île-de-FRA;Yvelines;Épiais-lès-Louvres 78212=95212;E2.5500;N49.0333;13;
3;FRA;Île-de-FRA;Yvelines;Épiais-Rhus 78213=95213;E2.0667;N49.1167;13;
3;FRA;Île-de-FRA;Yvelines;Épinay-Champlâtreux 78214=95214;E2.4167;N49.0833;13;
3;FRA;Île-de-FRA;Yvelines;Épinay-sous-Sénart 78215=91215;E2.5167;N48.6833;13;
3;FRA;Île-de-FRA;Yvelines;Épinay-sur-Orge 78216=91216;E2.3333;N48.6667;13;
3;FRA;Île-de-FRA;Yvelines;Épône 78217;E1.8167;N48.9500;13;
3;FRA;Île-de-FRA;Yvelines;Éragny 78218=95218;E2.1000;N49.0167;13;
3;FRA;Île-de-FRA;Yvelines;Ermont 78219=95219;E2.2667;N48.9833;13;
3;FRA;Île-de-FRA;Yvelines;Essonnes 78221=91221;E2.4633;N48.6157;13;
3;FRA;Île-de-FRA;Yvelines;Estouches 78222=91222;E2.1333;N48.3000;13;
3;FRA;Île-de-FRA;Yvelines;Étampes 78223=91223;E2.1500;N48.4333;13;
3;FRA;Île-de-FRA;Yvelines;Étiolles 78225=91225;E2.4667;N48.6333;13;
3;FRA;Île-de-FRA;Yvelines;Étréchy 78226=91226;E2.2000;N48.5000;13;
3;FRA;Île-de-FRA;Yvelines;Évecquemont 78227;E1.9500;N49.0167;13;
3;FRA;Île-de-FRA;Yvelines;Évry 78228=91228;E2.4500;N48.6333;13;
3;FRA;Île-de-FRA;Yvelines;Ézanville 78229=95229;E2.3667;N49.0333;13;
3;FRA;Île-de-FRA;Yvelines;Favrieux 78231;E1.6500;N48.9500;13;
3;FRA;Île-de-FRA;Yvelines;Feucherolles 78233;E1.9667;N48.8667;13;
3;FRA;Île-de-FRA;Yvelines;Flacourt 78234;E1.6500;N48.9333;13;
3;FRA;Île-de-FRA;Yvelines;Fleury-Mérogis 78235=91235;E2.3667;N48.6333;13;
3;FRA;Île-de-FRA;Yvelines;Flexanville 78236;E1.7333;N48.8500;13;
3;FRA;Île-de-FRA;Yvelines;Flins-Neuve-Église 78237;E1.5833;N48.8833;13;
3;FRA;Île-de-FRA;Yvelines;Flins-sur-Seine 78238;E1.8667;N48.9667;13;
3;FRA;Île-de-FRA;Yvelines;Follainville-Dennemont 78239;E1.7167;N49.0167;13;
3;FRA;Île-de-FRA;Yvelines;Fontaine-la-Rivière 78240=91240;E2.1500;N48.3500;13;
3;FRA;Île-de-FRA;Yvelines;Fontenay-en-Parisis 78241=95241;E2.4500;N49.0500;13;
3;FRA;Île-de-FRA;Yvelines;Fontenay-le-Fleury 78242;E2.0500;N48.8167;13;
3;FRA;Île-de-FRA;Yvelines;Fontenay-le-Vicomte 78244=91244;E2.4000;N48.5500;13;
3;FRA;Île-de-FRA;Yvelines;Fontenay-lès-Briis 78243=91243;E2.1500;N48.6167;13;
3;FRA;Île-de-FRA;Yvelines;Fontenay-Mauvoisin 78245;E1.6500;N48.9667;13;
3;FRA;Île-de-FRA;Yvelines;Fontenay-Saint-Père 78246;E1.7500;N49.0333;13;
3;FRA;Île-de-FRA;Yvelines;Forges-les-Bains 78249=91249;E2.1000;N48.6167;13;
3;FRA;Île-de-FRA;Yvelines;Fosses 78250=95250;E2.4833;N49.1000;13;
3;FRA;Île-de-FRA;Yvelines;Fourqueux 78251;E2.0667;N48.8833;13;
3;FRA;Île-de-FRA;Yvelines;Franconville 78252=95252;E2.2333;N48.9833;13;
3;FRA;Île-de-FRA;Yvelines;Frémainville 78253=95253;E1.8667;N49.0667;13;
3;FRA;Île-de-FRA;Yvelines;Frémécourt 78254=95254;E2.0000;N49.1167;13;
3;FRA;Île-de-FRA;Yvelines;Freneuse 78255;E1.6000;N49.0500;13;
3;FRA;Île-de-FRA;Yvelines;Frépillon 78256=95256;E2.2167;N49.0500;13;
3;FRA;Île-de-FRA;Yvelines;Frouville 78258=95258;E2.1500;N49.1500;13;
3;FRA;Île-de-FRA;Yvelines;Gadancourt 78259=95259;E1.8667;N49.1000;13;
3;FRA;Île-de-FRA;Yvelines;Gagny 78260=93032;E2.5333;N48.8833;13;
3;FRA;Île-de-FRA;Yvelines;Gaillon-sur-Montcient 78261;E1.8921;N49.0244;13;
3;FRA;Île-de-FRA;Yvelines;Galluis 78262;E1.8000;N48.8000;13;
3;FRA;Île-de-FRA;Yvelines;Gambais 78263;E1.6667;N48.7667;13;
3;FRA;Île-de-FRA;Yvelines;Gambaiseuil 78264;E1.7333;N48.7500;13;
3;FRA;Île-de-FRA;Yvelines;Garancières 78265;E1.7500;N48.8167;13;
3;FRA;Île-de-FRA;Yvelines;Garches 78266=92033;E2.1833;N48.8417;13;
3;FRA;Île-de-FRA;Yvelines;Gargenville 78267;E1.8167;N49.0000;13;
3;FRA;Île-de-FRA;Yvelines;Garges-lès-Gonesse 78268=95268;E2.4167;N48.9667;13;
3;FRA;Île-de-FRA;Yvelines;Gazeran 78269;E1.7667;N48.6333;13;
3;FRA;Île-de-FRA;Yvelines;Genainville 78270=95270;E1.7500;N49.1333;13;
3;FRA;Île-de-FRA;Yvelines;Génicourt 78271=95271;E2.0667;N49.0833;13;
3;FRA;Île-de-FRA;Yvelines;Gif-sur-Yvette 78272=91272;E2.1333;N48.6833;13;
3;FRA;Île-de-FRA;Yvelines;Gironville-sur-Essonne 78273=91273;E2.3779;N48.3736;13;
3;FRA;Île-de-FRA;Yvelines;Gometz-la-Ville 78274=91274;E2.1167;N48.6667;13;
3;FRA;Île-de-FRA;Yvelines;Gometz-le-Châtel 78275=91275;E2.1333;N48.6833;13;
3;FRA;Île-de-FRA;Yvelines;Gommecourt 78276;E1.6000;N49.0833;13;
3;FRA;Île-de-FRA;Yvelines;Gonesse 78277=95277;E2.4500;N48.9833;13;
3;FRA;Île-de-FRA;Yvelines;Goupillières 78278;E1.7667;N48.8833;13;
3;FRA;Île-de-FRA;Yvelines;Gournay-sur-Marne 78279=93033;E2.5667;N48.8667;13;
3;FRA;Île-de-FRA;Yvelines;Goussainville 78280=95280;E2.4667;N49.0167;13;
3;FRA;Île-de-FRA;Yvelines;Goussonville 78281;E1.7667;N48.9167;13;
3;FRA;Île-de-FRA;Yvelines;Gouzangrez 78282=95282;E1.9167;N49.1167;13;
3;FRA;Île-de-FRA;Yvelines;Grandchamp 78283;E1.6167;N48.7167;13;
3;FRA;Île-de-FRA;Yvelines;Gressey 78285;E1.6000;N48.8333;13;
3;FRA;Île-de-FRA;Yvelines;Grigny 78286=91286;E2.3833;N48.6500;13;
3;FRA;Île-de-FRA;Yvelines;Grisy-les-Plâtres 78287=95287;E2.0500;N49.1333;13;
3;FRA;Île-de-FRA;Yvelines;Groslay 78288=95288;E2.3500;N48.9833;13;
3;FRA;Île-de-FRA;Yvelines;Grosrouvre 78289;E1.7667;N48.7833;13;
3;FRA;Île-de-FRA;Yvelines;Guernes 78290;E1.6333;N49.0167;13;
3;FRA;Île-de-FRA;Yvelines;Guerville 78291;E1.7333;N48.9333;13;
3;FRA;Île-de-FRA;Yvelines;Guibeville 78292=91292;E2.2667;N48.5667;13;
3;FRA;Île-de-FRA;Yvelines;Guigneville-sur-Essonne 78293=91293;E2.3549;N48.4730;13;
3;FRA;Île-de-FRA;Yvelines;Guillerval 78294=91294;E2.1000;N48.3667;13;
3;FRA;Île-de-FRA;Yvelines;Guiry-en-Vexin 78295=95295;E1.8500;N49.1333;13;
3;FRA;Île-de-FRA;Yvelines;Guitrancourt 78296;E1.7833;N49.0167;13;
3;FRA;Île-de-FRA;Yvelines;Guyancourt 78297;E2.0667;N48.7667;13;
3;FRA;Île-de-FRA;Yvelines;Haravilliers 78298=95298;E2.0500;N49.1833;13;
3;FRA;Île-de-FRA;Yvelines;Hardricourt 78299;E1.9000;N49.0000;13;
3;FRA;Île-de-FRA;Yvelines;Hargeville 78300;E1.7333;N48.9000;13;
3;FRA;Île-de-FRA;Yvelines;Haute-Isle 78301=95301;E1.6667;N49.0833;13;
3;FRA;Île-de-FRA;Yvelines;Hédouville 78304=95304;E2.1667;N49.1500;13;
3;FRA;Île-de-FRA;Yvelines;Herbeville 78305;E1.8833;N48.9000;13;
3;FRA;Île-de-FRA;Yvelines;Herblay 78306=95306;E2.1667;N49.0000;13;
3;FRA;Île-de-FRA;Yvelines;Hermeray 78307;E1.6751;N48.6374;13;
3;FRA;Île-de-FRA;Yvelines;Hérouville 78308=95308;E2.1333;N49.1000;13;
3;FRA;Île-de-FRA;Yvelines;Hodent 78309=95309;E1.7667;N49.1500;13;
3;FRA;Île-de-FRA;Yvelines;Houdan 78310;E1.6000;N48.7833;13;
3;FRA;Île-de-FRA;Yvelines;Houilles 78311;E2.2000;N48.9167;13;
3;FRA;Île-de-FRA;Yvelines;Igny 78312=91312;E2.2167;N48.7333;13;
3;FRA;Île-de-FRA;Yvelines;Issou 78314;E1.7833;N49.0000;13;
3;FRA;Île-de-FRA;Yvelines;Itteville 78315=91315;E2.3333;N48.5167;13;
3;FRA;Île-de-FRA;Yvelines;Jagny-sous-Bois 78316=95316;E2.4500;N49.0833;13;
3;FRA;Île-de-FRA;Yvelines;Jambville 78317;E1.8500;N49.0500;13;
3;FRA;Île-de-FRA;Yvelines;Janville-sur-Juine 78318=91318;E2.2667;N48.5167;13;
3;FRA;Île-de-FRA;Yvelines;Janvry 78319=91319;E2.1500;N48.6500;13;
3;FRA;Île-de-FRA;Yvelines;Jeufosse 78320;E1.5500;N49.0333;13;
3;FRA;Île-de-FRA;Yvelines;Jouars-Pontchartrain 78321;E1.9000;N48.7833;13;
3;FRA;Île-de-FRA;Yvelines;Jouy-en-Josas 78322;E2.1667;N48.7667;13;
3;FRA;Île-de-FRA;Yvelines;Jouy-le-Moutier 78323=95323;E2.0333;N49.0167;13;
3;FRA;Île-de-FRA;Yvelines;Jouy-Mauvoisin 78324;E1.6500;N48.9833;13;
3;FRA;Île-de-FRA;Yvelines;Jumeauville 78325;E1.7833;N48.9167;13;
3;FRA;Île-de-FRA;Yvelines;Juvisy-sur-Orge 78326=91326;E2.3833;N48.6833;13;
3;FRA;Île-de-FRA;Yvelines;Juziers 78327;E1.8500;N49.0000;13;
3;FRA;Île-de-FRA;Yvelines;L'Étang-la-Ville 78224;E2.0667;N48.8667;13;
3;FRA;Île-de-FRA;Yvelines;L'Isle-Adam 78313=95313;E2.2333;N49.1167;13;
3;FRA;Île-de-FRA;Yvelines;La Boissière-École 78077;E1.6500;N48.6833;13;
3;FRA;Île-de-FRA;Yvelines;La Celle-les-Bordes 78125;E1.9500;N48.6333;13;
3;FRA;Île-de-FRA;Yvelines;La Celle-Saint-Cloud 78126;E2.1500;N48.8500;13;
3;FRA;Île-de-FRA;Yvelines;La Chapelle-en-Vexin 78139=95139;E1.7333;N49.1833;13;
3;FRA;Île-de-FRA;Yvelines;La Falaise 78230;E1.8333;N48.9500;13;
3;FRA;Île-de-FRA;Yvelines;La Ferté-Alais 78232=91232;E2.3500;N48.4833;13;
3;FRA;Île-de-FRA;Yvelines;La Forêt-le-Roi 78247=91247;E2.0333;N48.4833;13;
3;FRA;Île-de-FRA;Yvelines;La Forêt-Sainte-Croix 78248=91248;E2.2333;N48.3833;13;
3;FRA;Île-de-FRA;Yvelines;La Frette-sur-Seine 78257=95257;E2.1833;N48.9667;13;
3;FRA;Île-de-FRA;Yvelines;La Hauteville 78302;E1.6167;N48.7000;13;
3;FRA;Île-de-FRA;Yvelines;La Norville 78457=91457;E2.2667;N48.5833;13;
3;FRA;Île-de-FRA;Yvelines;La Queue-en-Brie 78512=94060;E2.5833;N48.7833;13;
3;FRA;Île-de-FRA;Yvelines;La Queue-les-Yvelines 78513;E1.7667;N48.8000;13;
3;FRA;Île-de-FRA;Yvelines;La Roche-Guyon 78523=95523;E1.6333;N49.0833;13;
3;FRA;Île-de-FRA;Yvelines;La Verrière 78644;E1.9500;N48.7500;13;
3;FRA;Île-de-FRA;Yvelines;La Ville-du-Bois 78665=91665;E2.2667;N48.6500;13;
3;FRA;Île-de-FRA;Yvelines;La Villeneuve-en-Chevrie 78668;E1.5333;N49.0167;13;
3;FRA;Île-de-FRA;Yvelines;Labbeville 78328=95328;E2.1500;N49.1333;13;
3;FRA;Île-de-FRA;Yvelines;Lainville-en-Vexin 78329;E1.8167;N49.0667;13;
3;FRA;Île-de-FRA;Yvelines;Lardy 78330=91330;E2.2667;N48.5167;13;
3;FRA;Île-de-FRA;Yvelines;Lassy 78331=95331;E2.4500;N49.1000;13;
3;FRA;Île-de-FRA;Yvelines;Le Bellay-en-Vexin 78054=95054;E1.8833;N49.1500;13;
3;FRA;Île-de-FRA;Yvelines;Le Blanc-Mesnil 78066=93007;E2.4500;N48.9333;13;
3;FRA;Île-de-FRA;Yvelines;Le Chesnay 78158;E2.1250;N48.8250;13;
3;FRA;Île-de-FRA;Yvelines;Le Coudray-Montceaux 78179=91179;E2.5000;N48.5667;13;
3;FRA;Île-de-FRA;Yvelines;Le Heaulme 78303=95303;E2.0000;N49.1667;13;
3;FRA;Île-de-FRA;Yvelines;Le Mesnil-Aubry 78395=95395;E2.4000;N49.0500;13;
3;FRA;Île-de-FRA;Yvelines;Le Mesnil-le-Roi 78396;E2.1255;N48.9359;13;
3;FRA;Île-de-FRA;Yvelines;Le Mesnil-Saint-Denis 78397;E1.9667;N48.7333;13;
3;FRA;Île-de-FRA;Yvelines;Le Pecq 78481;E2.1000;N48.9000;13;
3;FRA;Île-de-FRA;Yvelines;Le Perchay 78483=95483;E1.9333;N49.1167;13;
3;FRA;Île-de-FRA;Yvelines;Le Perray-en-Yvelines 78486;E1.8500;N48.7000;13;
3;FRA;Île-de-FRA;Yvelines;Le Plessis-Bouchard 78491=95491;E2.2333;N49.0000;13;
3;FRA;Île-de-FRA;Yvelines;Le Plessis-Gassot 78492=95492;E2.4167;N49.0333;13;
3;FRA;Île-de-FRA;Yvelines;Le Plessis-Luzarches 78493=95493;E2.4500;N49.1000;13;
3;FRA;Île-de-FRA;Yvelines;Le Plessis-Pâté 78494=91494;E2.3167;N48.6167;13;
3;FRA;Île-de-FRA;Yvelines;Le Plessis-Trévise 78496=94059;E2.5667;N48.8167;13;
3;FRA;Île-de-FRA;Yvelines;Le Port-Marly 78502;E2.1167;N48.8833;13;
3;FRA;Île-de-FRA;Yvelines;Le Raincy 78515=93062;E2.5167;N48.9000;13;
3;FRA;Île-de-FRA;Yvelines;Le Tartre-Gaudran 78606;E1.6000;N48.7000;13;
3;FRA;Île-de-FRA;Yvelines;Le Tertre-Saint-Denis 78608;E1.6167;N48.9333;13;
3;FRA;Île-de-FRA;Yvelines;Le Thillay 78612=95612;E2.4667;N49.0000;13;
3;FRA;Île-de-FRA;Yvelines;Le Tremblay-sur-Mauldre 78623;E1.8667;N48.7833;13;
3;FRA;Île-de-FRA;Yvelines;Le Val-Saint-Germain 78630=91630;E2.0667;N48.5667;13;
3;FRA;Île-de-FRA;Yvelines;Le Vésinet 78650;E2.1167;N48.9000;13;
3;FRA;Île-de-FRA;Yvelines;Les Alluets-le-Roi 78010;E1.9167;N48.9167;13;
3;FRA;Île-de-FRA;Yvelines;Les Bréviaires 78108;E1.8167;N48.7000;13;
3;FRA;Île-de-FRA;Yvelines;Les Clayes-sous-Bois 78165;E1.9833;N48.8167;13;
3;FRA;Île-de-FRA;Yvelines;Les Essarts-le-Roi 78220;E1.9000;N48.7167;13;
3;FRA;Île-de-FRA;Yvelines;Les Granges-le-Roi 78284=91284;E2.0167;N48.5000;13;
3;FRA;Île-de-FRA;Yvelines;Les Loges-en-Josas 78343;E2.1333;N48.7667;13;
3;FRA;Île-de-FRA;Yvelines;Les Mesnuls 78398;E1.8333;N48.7500;13;
3;FRA;Île-de-FRA;Yvelines;Les Molières 78411=91411;E2.0667;N48.6667;13;
3;FRA;Île-de-FRA;Yvelines;Les Mureaux 78440;E1.9102;N48.9942;13;
3;FRA;Île-de-FRA;Yvelines;Leudeville 78332=91332;E2.3167;N48.5667;13;
3;FRA;Île-de-FRA;Yvelines;Leuville-sur-Orge 78333=91333;E2.2500;N48.6167;13;
3;FRA;Île-de-FRA;Yvelines;Lévis-Saint-Nom 78334;E1.9500;N48.7167;13;
3;FRA;Île-de-FRA;Yvelines;Limay 78335;E1.7333;N48.9833;13;
3;FRA;Île-de-FRA;Yvelines;Limeil-Brévannes 78336=94044;E2.4833;N48.7333;13;
3;FRA;Île-de-FRA;Yvelines;Limetz-Villez 78337;E1.5493;N49.0613;13;
3;FRA;Île-de-FRA;Yvelines;Limours 78338=91338;E2.0833;N48.6500;13;
3;FRA;Île-de-FRA;Yvelines;Linas 78339=91339;E2.2667;N48.6333;13;
3;FRA;Île-de-FRA;Yvelines;Lisses 78340=91340;E2.4167;N48.6000;13;
3;FRA;Île-de-FRA;Yvelines;Livilliers 78341=95341;E2.1000;N49.1000;13;
3;FRA;Île-de-FRA;Yvelines;Livry-Gargan 78342=93046;E2.5500;N48.9167;13;
3;FRA;Île-de-FRA;Yvelines;Lommoye 78344;E1.5167;N49.0000;13;
3;FRA;Île-de-FRA;Yvelines;Longjumeau 78345=91345;E2.3000;N48.7000;13;
3;FRA;Île-de-FRA;Yvelines;Longnes 78346;E1.5833;N48.9167;13;
3;FRA;Île-de-FRA;Yvelines;Longpont-sur-Orge 78347=91347;E2.2833;N48.6333;13;
3;FRA;Île-de-FRA;Yvelines;Longuesse 78348=95348;E1.9333;N49.0667;13;
3;FRA;Île-de-FRA;Yvelines;Longvilliers 78349;E1.9833;N48.5833;13;
3;FRA;Île-de-FRA;Yvelines;Louveciennes 78350;E2.1167;N48.8667;13;
3;FRA;Île-de-FRA;Yvelines;Louvres 78351=95351;E2.5000;N49.0333;13;
3;FRA;Île-de-FRA;Yvelines;Luzarches 78352=95352;E2.4167;N49.1167;13;
3;FRA;Île-de-FRA;Yvelines;Maffliers 78353=95353;E2.3167;N49.0833;13;
3;FRA;Île-de-FRA;Yvelines;Magnanville 78354;E1.6833;N48.9667;13;
3;FRA;Île-de-FRA;Yvelines;Magny-en-Vexin 78355=95355;E1.7833;N49.1500;13;
3;FRA;Île-de-FRA;Yvelines;Magny-les-Hameaux 78356;E2.0667;N48.7333;13;
3;FRA;Île-de-FRA;Yvelines;Maincourt-sur-Yvette 78357=78193;E1.9667;N48.7167;13;
3;FRA;Île-de-FRA;Yvelines;Maisons-Laffitte 78358;E2.1500;N48.9500;13;
3;FRA;Île-de-FRA;Yvelines;Maisse 78359=91359;E2.3833;N48.4000;13;
3;FRA;Île-de-FRA;Yvelines;Mandres-les-Roses 78360=94047;E2.5500;N48.7000;13;
3;FRA;Île-de-FRA;Yvelines;Mantes-la-Jolie 78361;E1.7167;N48.9833;13;
3;FRA;Île-de-FRA;Yvelines;Mantes-la-Ville 78362;E1.7167;N48.9667;13;
3;FRA;Île-de-FRA;Yvelines;Marcoussis 78363=91363;E2.2333;N48.6333;13;
3;FRA;Île-de-FRA;Yvelines;Marcq 78364;E1.8167;N48.8667;13;
3;FRA;Île-de-FRA;Yvelines;Mareil-en-France 78365=95365;E2.4333;N49.0667;13;
3;FRA;Île-de-FRA;Yvelines;Mareil-le-Guyon 78366;E1.8500;N48.7833;13;
3;FRA;Île-de-FRA;Yvelines;Mareil-Marly 78367;E2.0833;N48.8833;13;
3;FRA;Île-de-FRA;Yvelines;Mareil-sur-Mauldre 78368;E1.8667;N48.9000;13;
3;FRA;Île-de-FRA;Yvelines;Margency 78369=95369;E2.3000;N49.0000;13;
3;FRA;Île-de-FRA;Yvelines;Marines 78370=95370;E1.9833;N49.1500;13;
3;FRA;Île-de-FRA;Yvelines;Marly-la-Ville 78371=95371;E2.5000;N49.0833;13;
3;FRA;Île-de-FRA;Yvelines;Marly-le-Roi 78372;E2.0833;N48.8667;13;
3;FRA;Île-de-FRA;Yvelines;Marnes-la-Coquette 78373=92047;E2.1750;N48.8333;13;
3;FRA;Île-de-FRA;Yvelines;Marolles-en-Beauce 78374=91374;E2.2000;N48.3667;13;
3;FRA;Île-de-FRA;Yvelines;Marolles-en-Brie 78375=94048;E2.5500;N48.7333;13;
3;FRA;Île-de-FRA;Yvelines;Marolles-en-Hurepoix 78376=91376;E2.3000;N48.5667;13;
3;FRA;Île-de-FRA;Yvelines;Massy 78377=91377;E2.2833;N48.7333;13;
3;FRA;Île-de-FRA;Yvelines;Mauchamps 78378=91378;E2.1833;N48.5333;13;
3;FRA;Île-de-FRA;Yvelines;Maudétour-en-Vexin 78379=95379;E1.7833;N49.1000;13;
3;FRA;Île-de-FRA;Yvelines;Maule 78380;E1.8500;N48.9167;13;
3;FRA;Île-de-FRA;Yvelines;Maulette 78381;E1.6167;N48.8000;13;
3;FRA;Île-de-FRA;Yvelines;Maurecourt 78382;E2.0667;N49.0000;13;
3;FRA;Île-de-FRA;Yvelines;Maurepas 78383;E1.9167;N48.7667;13;
3;FRA;Île-de-FRA;Yvelines;Médan 78384;E2.0000;N48.9500;13;
3;FRA;Île-de-FRA;Yvelines;Ménerville 78385;E1.6000;N48.9500;13;
3;FRA;Île-de-FRA;Yvelines;Mennecy 78386=91386;E2.4333;N48.5667;13;
3;FRA;Île-de-FRA;Yvelines;Menouville 78387=95387;E2.1000;N49.1500;13;
3;FRA;Île-de-FRA;Yvelines;Menucourt 78388=95388;E1.9833;N49.0167;13;
3;FRA;Île-de-FRA;Yvelines;Méré 78389;E1.8167;N48.7833;13;
3;FRA;Île-de-FRA;Yvelines;Méréville 78390=91390;E2.0833;N48.3167;13;
3;FRA;Île-de-FRA;Yvelines;Méricourt 78391;E1.6333;N49.0333;13;
3;FRA;Île-de-FRA;Yvelines;Mériel 78392=95392;E2.2000;N49.0833;13;
3;FRA;Île-de-FRA;Yvelines;Mérobert 78393=91393;E2.0000;N48.4167;13;
3;FRA;Île-de-FRA;Yvelines;Méry-sur-Oise 78394=95394;E2.2000;N49.0667;13;
3;FRA;Île-de-FRA;Yvelines;Mespuits 78399=91399;E2.2667;N48.3500;13;
3;FRA;Île-de-FRA;Yvelines;Meudon 78400=92048;E2.2417;N48.8083;13;
3;FRA;Île-de-FRA;Yvelines;Meulan 78401;E1.9000;N49.0167;13;
3;FRA;Île-de-FRA;Yvelines;Mézières-sur-Seine 78402;E1.8000;N48.9667;13;
3;FRA;Île-de-FRA;Yvelines;Mézy-sur-Seine 78403;E1.8830;N49.0007;13;
3;FRA;Île-de-FRA;Yvelines;Millemont 78404;E1.7333;N48.8000;13;
3;FRA;Île-de-FRA;Yvelines;Milly-la-Forêt 78405=91405;E2.4667;N48.4000;13;
3;FRA;Île-de-FRA;Yvelines;Milon-la-Chapelle 78406;E2.0500;N48.7333;13;
3;FRA;Île-de-FRA;Yvelines;Mittainville 78407;E1.6500;N48.6667;13;
3;FRA;Île-de-FRA;Yvelines;Moigny-sur-École 78408=91408;E2.4574;N48.4335;13;
3;FRA;Île-de-FRA;Yvelines;Moisselles 78409=95409;E2.3333;N49.0500;13;
3;FRA;Île-de-FRA;Yvelines;Moisson 78410;E1.6667;N49.0667;13;
3;FRA;Île-de-FRA;Yvelines;Mondeville 78412=91412;E2.4167;N48.4833;13;
3;FRA;Île-de-FRA;Yvelines;Mondreville 78413;E1.5500;N48.9000;13;
3;FRA;Île-de-FRA;Yvelines;Monnerville 78414=91414;E2.0500;N48.3500;13;
3;FRA;Île-de-FRA;Yvelines;Montainville 78415;E1.8667;N48.8833;13;
3;FRA;Île-de-FRA;Yvelines;Montalet-le-Bois 78416;E1.8333;N49.0500;13;
3;FRA;Île-de-FRA;Yvelines;Montchauvet 78417;E1.6333;N48.9000;13;
3;FRA;Île-de-FRA;Yvelines;Montesson 78418;E2.1500;N48.9167;13;
3;FRA;Île-de-FRA;Yvelines;Montfermeil 78419=93047;E2.5667;N48.9000;13;
3;FRA;Île-de-FRA;Yvelines;Montfort-l'Amaury 78420;E1.8167;N48.7833;13;
3;FRA;Île-de-FRA;Yvelines;Montgeron 78421=91421;E2.4500;N48.7000;13;
3;FRA;Île-de-FRA;Yvelines;Montgeroult 78422=95422;E2.0000;N49.0833;13;
3;FRA;Île-de-FRA;Yvelines;Montigny-le-Bretonneux 78423;E2.0333;N48.7667;13;
3;FRA;Île-de-FRA;Yvelines;Montigny-lès-Cormeilles 78424=95424;E2.1833;N48.9833;13;
3;FRA;Île-de-FRA;Yvelines;Montlhéry 78425=91425;E2.2667;N48.6333;13;
3;FRA;Île-de-FRA;Yvelines;Montlignon 78426=95426;E2.2833;N49.0167;13;
3;FRA;Île-de-FRA;Yvelines;Montmagny 78427=95427;E2.3500;N48.9667;13;
3;FRA;Île-de-FRA;Yvelines;Montmorency 78428=95428;E2.3333;N49.0000;13;
3;FRA;Île-de-FRA;Yvelines;Montreuil-sur-Epte 78429=95429;E1.6833;N49.1833;13;
3;FRA;Île-de-FRA;Yvelines;Montsoult 78430=95430;E2.3167;N49.0667;13;
3;FRA;Île-de-FRA;Yvelines;Morainvilliers 78431;E1.9333;N48.9333;13;
3;FRA;Île-de-FRA;Yvelines;Morangis 78432=91432;E2.3333;N48.7000;13;
3;FRA;Île-de-FRA;Yvelines;Morigny-Champigny 78433=91433;E2.2000;N48.4500;13;
3;FRA;Île-de-FRA;Yvelines;Morsang-sur-Orge 78434=91434;E2.3500;N48.6667;13;
3;FRA;Île-de-FRA;Yvelines;Morsang-sur-Seine 78435=91435;E2.5000;N48.5667;13;
3;FRA;Île-de-FRA;Yvelines;Mours 78436=95436;E2.2667;N49.1333;13;
3;FRA;Île-de-FRA;Yvelines;Mousseaux-sur-Seine 78437;E1.6500;N49.0500;13;
3;FRA;Île-de-FRA;Yvelines;Moussy 78438=95438;E1.9167;N49.1333;13;
3;FRA;Île-de-FRA;Yvelines;Mulcent 78439;E1.6500;N48.8833;13;
3;FRA;Île-de-FRA;Yvelines;Nainville-les-Roches 78441=91441;E2.5000;N48.5000;13;
3;FRA;Île-de-FRA;Yvelines;Neauphle-le-Château 78442;E1.9000;N48.8167;13;
3;FRA;Île-de-FRA;Yvelines;Neauphle-le-Vieux 78443;E1.8667;N48.8167;13;
3;FRA;Île-de-FRA;Yvelines;Neauphlette 78444;E1.5333;N48.9333;13;
3;FRA;Île-de-FRA;Yvelines;Nerville-la-Forêt 78445=95445;E2.2833;N49.0833;13;
3;FRA;Île-de-FRA;Yvelines;Nesles-la-Vallée 78446=95446;E2.1833;N49.1333;13;
3;FRA;Île-de-FRA;Yvelines;Neuilly-en-Vexin 78447=95447;E1.9833;N49.1667;13;
3;FRA;Île-de-FRA;Yvelines;Neuilly-Plaisance 78448=93049;E2.5167;N48.8667;13;
3;FRA;Île-de-FRA;Yvelines;Neuilly-sur-Marne 78449=93050;E2.5333;N48.8500;13;
3;FRA;Île-de-FRA;Yvelines;Neuville-sur-Oise 78450=95450;E2.0667;N49.0167;13;
3;FRA;Île-de-FRA;Yvelines;Nézel 78451;E1.8333;N48.9500;13;
3;FRA;Île-de-FRA;Yvelines;Nointel 78452=95452;E2.3000;N49.1333;13;
3;FRA;Île-de-FRA;Yvelines;Noiseau 78453=94053;E2.5500;N48.7833;13;
3;FRA;Île-de-FRA;Yvelines;Noisy-le-Grand 78454=93051;E2.5667;N48.8500;13;
3;FRA;Île-de-FRA;Yvelines;Noisy-le-Roi 78455;E2.0667;N48.8500;13;
3;FRA;Île-de-FRA;Yvelines;Noisy-sur-Oise 78456=95456;E2.3333;N49.1333;13;
3;FRA;Île-de-FRA;Yvelines;Nozay 78458=91458;E2.2333;N48.6500;13;
3;FRA;Île-de-FRA;Yvelines;Nucourt 78459=95459;E1.8500;N49.1667;13;
3;FRA;Île-de-FRA;Yvelines;Oinville-sur-Montcient 78460;E1.8500;N49.0333;13;
3;FRA;Île-de-FRA;Yvelines;Ollainville 78461=91461;E2.2167;N48.5833;13;
3;FRA;Île-de-FRA;Yvelines;Omerville 78462=95462;E1.7167;N49.1333;13;
3;FRA;Île-de-FRA;Yvelines;Oncy-sur-École 78463=91463;E2.4747;N48.3816;13;
3;FRA;Île-de-FRA;Yvelines;Orcemont 78464;E1.8167;N48.5833;13;
3;FRA;Île-de-FRA;Yvelines;Orgerus 78465;E1.7000;N48.8333;13;
3;FRA;Île-de-FRA;Yvelines;Orgeval 78466;E1.9833;N48.9167;13;
3;FRA;Île-de-FRA;Yvelines;Ormesson-sur-Marne 78467=94055;E2.5500;N48.7833;13;
3;FRA;Île-de-FRA;Yvelines;Ormoy 78468=91468;E2.4333;N48.5667;13;
3;FRA;Île-de-FRA;Yvelines;Ormoy-la-Rivière 78469=91469;E2.1500;N48.4000;13;
3;FRA;Île-de-FRA;Yvelines;Orphin 78470;E1.7833;N48.5833;13;
3;FRA;Île-de-FRA;Yvelines;Orsay 78471=91471;E2.1833;N48.7000;13;
3;FRA;Île-de-FRA;Yvelines;Orsonville 78472;E1.8340;N48.4780;13;
3;FRA;Île-de-FRA;Yvelines;Orveau 78473=91473;E2.2833;N48.4500;13;
3;FRA;Île-de-FRA;Yvelines;Orvilliers 78474;E1.6333;N48.8667;13;
3;FRA;Île-de-FRA;Yvelines;Osmoy 78475;E1.7167;N48.8667;13;
3;FRA;Île-de-FRA;Yvelines;Osny 78476=95476;E2.0667;N49.0667;13;
3;FRA;Île-de-FRA;Yvelines;Palaiseau 78477=91477;E2.2500;N48.7167;13;
3;FRA;Île-de-FRA;Yvelines;Paray-Douaville 78478;E1.8750;N48.4667;13;
3;FRA;Île-de-FRA;Yvelines;Paray-Vieille-Poste 78479=91479;E2.3667;N48.7167;13;
3;FRA;Île-de-FRA;Yvelines;Parmain 78480=95480;E2.2167;N49.1167;13;
3;FRA;Île-de-FRA;Yvelines;Pecqueuse 78482=91482;E2.0500;N48.6500;13;
3;FRA;Île-de-FRA;Yvelines;Perdreauville 78484;E1.6250;N48.9583;13;
3;FRA;Île-de-FRA;Yvelines;Périgny 78485=94056;E2.5500;N48.7000;13;
3;FRA;Île-de-FRA;Yvelines;Persan 78487=95487;E2.2667;N49.1500;13;
3;FRA;Île-de-FRA;Yvelines;Pierrelaye 78488=95488;E2.1667;N49.0167;13;
3;FRA;Île-de-FRA;Yvelines;Piscop 78489=95489;E2.3500;N49.0167;13;
3;FRA;Île-de-FRA;Yvelines;Plaisir 78490;E1.9500;N48.8167;13;
3;FRA;Île-de-FRA;Yvelines;Plessis-Saint-Benoist 78495=91495;E2.0000;N48.4333;13;
3;FRA;Île-de-FRA;Yvelines;Poigny-la-Forêt 78497;E1.7500;N48.6833;13;
3;FRA;Île-de-FRA;Yvelines;Poissy 78498;E2.0500;N48.9333;13;
3;FRA;Île-de-FRA;Yvelines;Ponthévrard 78499;E1.9000;N48.5500;13;
3;FRA;Île-de-FRA;Yvelines;Pontoise 78500=95500;E2.1000;N49.0500;13;
3;FRA;Île-de-FRA;Yvelines;Porcheville 78501;E1.7667;N48.9667;13;
3;FRA;Île-de-FRA;Yvelines;Port-Villez 78503;E1.5333;N49.0500;13;
3;FRA;Île-de-FRA;Yvelines;Presles 78504=95504;E2.3000;N49.1167;13;
3;FRA;Île-de-FRA;Yvelines;Prunay-en-Yvelines 78506;E1.7958;N48.5269;13;
3;FRA;Île-de-FRA;Yvelines;Prunay-le-Temple 78505;E1.6833;N48.8667;13;
3;FRA;Île-de-FRA;Yvelines;Prunay-sur-Essonne 78507=91507;E2.3733;N48.3570;13;
3;FRA;Île-de-FRA;Yvelines;Puiselet-le-Marais 78508=91508;E2.2667;N48.4000;13;
3;FRA;Île-de-FRA;Yvelines;Puiseux-en-France 78509=95509;E2.4833;N49.0667;13;
3;FRA;Île-de-FRA;Yvelines;Puiseux-Pontoise 78510=95510;E2.0167;N49.0500;13;
3;FRA;Île-de-FRA;Yvelines;Pussay 78511=91511;E2.0000;N48.3500;13;
3;FRA;Île-de-FRA;Yvelines;Quincy-sous-Sénart 78514=91514;E2.5333;N48.6667;13;
3;FRA;Île-de-FRA;Yvelines;Raizeux 78516;E1.6833;N48.6167;13;
3;FRA;Île-de-FRA;Yvelines;Rambouillet 78517;E1.8333;N48.6500;13;
3;FRA;Île-de-FRA;Yvelines;Rennemoulin 78518;E2.0500;N48.8333;13;
3;FRA;Île-de-FRA;Yvelines;Richarville 78519=91519;E2.0000;N48.4667;13;
3;FRA;Île-de-FRA;Yvelines;Richebourg 78520;E1.6417;N48.8250;13;
3;FRA;Île-de-FRA;Yvelines;Ris-Orangis 78521=91521;E2.4167;N48.6500;13;
3;FRA;Île-de-FRA;Yvelines;Rochefort-en-Yvelines 78522;E1.9833;N48.5833;13;
3;FRA;Île-de-FRA;Yvelines;Rocquencourt 78524;E2.1167;N48.8333;13;
3;FRA;Île-de-FRA;Yvelines;Roinville 78525=91525;E2.0333;N48.5333;13;
3;FRA;Île-de-FRA;Yvelines;Roinvilliers 78526=91526;E2.2333;N48.3500;13;
3;FRA;Île-de-FRA;Yvelines;Roissy-en-France 78527=95527;E2.5167;N49.0000;13;
3;FRA;Île-de-FRA;Yvelines;Rolleboise 78528;E1.6167;N49.0167;13;
3;FRA;Île-de-FRA;Yvelines;Ronquerolles 78529=95529;E2.2167;N49.1667;13;
3;FRA;Île-de-FRA;Yvelines;Rosay 78530;E1.6833;N48.9167;13;
3;FRA;Île-de-FRA;Yvelines;Rosny-sur-Seine 78531;E1.6333;N49.0000;13;
3;FRA;Île-de-FRA;Yvelines;Rueil-Malmaison 78532=92063;E2.2000;N48.8833;13;
3;FRA;Île-de-FRA;Yvelines;Saclas 78533=91533;E2.1167;N48.3667;13;
3;FRA;Île-de-FRA;Yvelines;Saclay 78534=91534;E2.1667;N48.7333;13;
3;FRA;Île-de-FRA;Yvelines;Sagy 78535=95535;E1.9500;N49.0500;13;
3;FRA;Île-de-FRA;Yvelines;Sailly 78536;E1.8000;N49.0333;13;
3;FRA;Île-de-FRA;Yvelines;Saint-Arnoult-en-Yvelines 78537;E1.9333;N48.5667;13;
3;FRA;Île-de-FRA;Yvelines;Saint-Aubin 78538=91538;E2.1333;N48.7167;13;
3;FRA;Île-de-FRA;Yvelines;Saint-Brice-sous-Forêt 78539=95539;E2.3667;N49.0000;13;
3;FRA;Île-de-FRA;Yvelines;Saint-Chéron 78540=91540;E2.1167;N48.5500;13;
3;FRA;Île-de-FRA;Yvelines;Saint-Clair-sur-Epte 78541=95541;E1.6833;N49.2000;13;
3;FRA;Île-de-FRA;Yvelines;Saint-Cloud 78542=92064;E2.2167;N48.8417;13;
3;FRA;Île-de-FRA;Yvelines;Saint-Cyr-en-Arthies 78543=95543;E1.7500;N49.0667;13;
3;FRA;Île-de-FRA;Yvelines;Saint-Cyr-l'École 78545;E2.0667;N48.8000;13;
3;FRA;Île-de-FRA;Yvelines;Saint-Cyr-la-Rivière 78544=91544;E2.1333;N48.3500;13;
3;FRA;Île-de-FRA;Yvelines;Saint-Cyr-sous-Dourdan 78546=91546;E2.0333;N48.5667;13;
3;FRA;Île-de-FRA;Yvelines;Saint-Escobille 78547=91547;E1.9667;N48.4333;13;
3;FRA;Île-de-FRA;Yvelines;Saint-Forget 78548;E2.0000;N48.7000;13;
3;FRA;Île-de-FRA;Yvelines;Saint-Germain-de-la-Grange 78550;E1.9000;N48.8333;13;
3;FRA;Île-de-FRA;Yvelines;Saint-Germain-en-Laye 78551;E2.0833;N48.9000;13;
3;FRA;Île-de-FRA;Yvelines;Saint-Germain-lès-Arpajon 78552=91552;E2.2500;N48.6000;13;
3;FRA;Île-de-FRA;Yvelines;Saint-Germain-lès-Corbeil 78553=91553;E2.4833;N48.6167;13;
3;FRA;Île-de-FRA;Yvelines;Saint-Gervais 78554=95554;E1.7667;N49.1667;13;
3;FRA;Île-de-FRA;Yvelines;Saint-Gratien 78555=95555;E2.2833;N48.9667;13;
3;FRA;Île-de-FRA;Yvelines;Saint-Hilaire 78556=91556;E2.0667;N48.4333;13;
3;FRA;Île-de-FRA;Yvelines;Saint-Hilarion 78557;E1.7333;N48.6167;13;
3;FRA;Île-de-FRA;Yvelines;Saint-Illiers-la-Ville 78558;E1.5500;N48.9833;13;
3;FRA;Île-de-FRA;Yvelines;Saint-Illiers-le-Bois 78559;E1.5000;N48.9667;13;
3;FRA;Île-de-FRA;Yvelines;Saint-Jean-de-Beauregard 78560=91560;E2.1667;N48.6667;13;
3;FRA;Île-de-FRA;Yvelines;Saint-Lambert 78561;E2.0167;N48.7333;13;
3;FRA;Île-de-FRA;Yvelines;Saint-Léger-en-Yvelines 78562;E1.7667;N48.7167;13;
3;FRA;Île-de-FRA;Yvelines;Saint-Leu-la-Forêt 78563=95563;E2.2500;N49.0167;13;
3;FRA;Île-de-FRA;Yvelines;Saint-Martin-de-Bréthencourt 78564;E2.3500;N49.1000;13;
3;FRA;Île-de-FRA;Yvelines;Saint-Martin-des-Champs 78565;E1.7167;N48.8833;13;
3;FRA;Île-de-FRA;Yvelines;Saint-Martin-du-Tertre 78566=95566;E2.3500;N49.1000;13;
3;FRA;Île-de-FRA;Yvelines;Saint-Martin-la-Garenne 78567;E1.7000;N49.0333;13;
3;FRA;Île-de-FRA;Yvelines;Saint-Maurice-Montcouronne 78568=91568;E2.1167;N48.5833;13;
3;FRA;Île-de-FRA;Yvelines;Saint-Michel-sur-Orge 78570=91570;E2.3000;N48.6333;13;
3;FRA;Île-de-FRA;Yvelines;Saint-Nom-la-Bretèche 78571;E2.0167;N48.8500;13;
3;FRA;Île-de-FRA;Yvelines;Saint-Ouen-l'Aumône 78572=95572;E2.1167;N49.0500;13;
3;FRA;Île-de-FRA;Yvelines;Saint-Pierre-du-Perray 78573=91573;E2.5000;N48.6167;13;
3;FRA;Île-de-FRA;Yvelines;Saint-Prix 78574=95574;E2.2667;N49.0167;13;
3;FRA;Île-de-FRA;Yvelines;Saint-Rémy-l'Honoré 78576;E1.8833;N48.7500;13;
3;FRA;Île-de-FRA;Yvelines;Saint-Rémy-lès-Chevreuse 78575;E2.0833;N48.7000;13;
3;FRA;Île-de-FRA;Yvelines;Saint-Sulpice-de-Favières 78578=91578;E2.1833;N48.5333;13;
3;FRA;Île-de-FRA;Yvelines;Saint-Vrain 78579=91579;E2.3333;N48.5333;13;
3;FRA;Île-de-FRA;Yvelines;Saint-Witz 78580=95580;E2.5667;N49.0833;13;
3;FRA;Île-de-FRA;Yvelines;Saint-Yon 78581=91581;E2.1833;N48.5667;13;
3;FRA;Île-de-FRA;Yvelines;Sainte-Geneviève-des-Bois 78549=91549;E2.3333;N48.6333;13;
3;FRA;Île-de-FRA;Yvelines;Sainte-Mesme 78569;E1.9560;N48.5299;13;
3;FRA;Île-de-FRA;Yvelines;Saintry-sur-Seine 78577=91577;E2.5000;N48.6000;13;
3;FRA;Île-de-FRA;Yvelines;Sannois 78582=95582;E2.2500;N48.9667;13;
3;FRA;Île-de-FRA;Yvelines;Santeny 78583=94070;E2.5667;N48.7167;13;
3;FRA;Île-de-FRA;Yvelines;Santeuil 78584=95584;E1.9500;N49.1333;13;
3;FRA;Île-de-FRA;Yvelines;Sarcelles 78585=95585;E2.3833;N49.0000;13;
3;FRA;Île-de-FRA;Yvelines;Sartrouville 78586;E2.1833;N48.9500;13;
3;FRA;Île-de-FRA;Yvelines;Saulx-les-Chartreux 78587=91587;E2.2667;N48.6833;13;
3;FRA;Île-de-FRA;Yvelines;Saulx-Marchais 78588;E1.8333;N48.8333;13;
3;FRA;Île-de-FRA;Yvelines;Savigny-sur-Orge 78589=91589;E2.3500;N48.6667;13;
3;FRA;Île-de-FRA;Yvelines;Senlisse 78590;E1.9833;N48.6833;13;
3;FRA;Île-de-FRA;Yvelines;Septeuil 78591;E1.6833;N48.9000;13;
3;FRA;Île-de-FRA;Yvelines;Seraincourt 78592=95592;E1.8667;N49.0333;13;
3;FRA;Île-de-FRA;Yvelines;Sermaise 78593=91593;E2.0833;N48.5333;13;
3;FRA;Île-de-FRA;Yvelines;Seugy 78594=95594;E2.4000;N49.1167;13;
3;FRA;Île-de-FRA;Yvelines;Sevran 78595=93071;E2.5333;N48.9333;13;
3;FRA;Île-de-FRA;Yvelines;Sèvres 78596=92072;E2.2833;N48.7833;13;
3;FRA;Île-de-FRA;Yvelines;Soindres 78597;E1.6667;N48.9500;13;
3;FRA;Île-de-FRA;Yvelines;Soisy-sous-Montmorency 78598=95598;E2.3000;N48.9833;13;
3;FRA;Île-de-FRA;Yvelines;Soisy-sur-École 78599=91599;E2.4833;N48.4667;13;
3;FRA;Île-de-FRA;Yvelines;Soisy-sur-Seine 78600=91600;E2.4500;N48.6500;13;
3;FRA;Île-de-FRA;Yvelines;Sonchamp 78601;E1.8833;N48.5833;13;
3;FRA;Île-de-FRA;Yvelines;Souzy-la-Briche 78602=91602;E2.1500;N48.5333;13;
3;FRA;Île-de-FRA;Yvelines;Sucy-en-Brie 78603=94071;E2.5333;N48.7667;13;
3;FRA;Île-de-FRA;Yvelines;Survilliers 78604=95604;E2.5500;N49.1000;13;
3;FRA;Île-de-FRA;Yvelines;Tacoignières 78605;E1.6833;N48.8333;13;
3;FRA;Île-de-FRA;Yvelines;Taverny 78607=95607;E2.2167;N49.0333;13;
3;FRA;Île-de-FRA;Yvelines;Tessancourt-sur-Aubette 78609;E1.9167;N49.0167;13;
3;FRA;Île-de-FRA;Yvelines;Théméricourt 78610=95610;E1.9000;N49.0833;13;
3;FRA;Île-de-FRA;Yvelines;Theuville 78611=95611;E2.0667;N49.1500;13;
3;FRA;Île-de-FRA;Yvelines;Thionville-sur-Opton 78614=78381;E1.6000;N48.7667;13;
3;FRA;Île-de-FRA;Yvelines;Thiverval-Grignon 78615;E1.9167;N48.8500;13;
3;FRA;Île-de-FRA;Yvelines;Thoiry 78616;E1.8000;N48.8667;13;
3;FRA;Île-de-FRA;Yvelines;Tigery 78617=91617;E2.5000;N48.6333;13;
3;FRA;Île-de-FRA;Yvelines;Tilly 78618;E1.5750;N48.8833;13;
3;FRA;Île-de-FRA;Yvelines;Torfou 78619=91619;E2.2333;N48.5333;13;
3;FRA;Île-de-FRA;Yvelines;Toussus-le-Noble 78620;E2.1167;N48.7500;13;
3;FRA;Île-de-FRA;Yvelines;Trappes 78621;E2.0000;N48.7833;13;
3;FRA;Île-de-FRA;Yvelines;Tremblay-lès-Gonesse 78622=93073;E2.5500;N48.9833;13;
3;FRA;Île-de-FRA;Yvelines;Triel-sur-Seine 78624;E2.0000;N48.9833;13;
3;FRA;Île-de-FRA;Yvelines;Us 78625=95625;E1.9667;N49.1000;13;
3;FRA;Île-de-FRA;Yvelines;Valenton 78626=94074;E2.4667;N48.7500;13;
3;FRA;Île-de-FRA;Yvelines;Vallangoujard 78627=95627;E2.1167;N49.1333;13;
3;FRA;Île-de-FRA;Yvelines;Valmondois 78628=95628;E2.2000;N49.1000;13;
3;FRA;Île-de-FRA;Yvelines;Valpuiseaux 78629=91629;E2.3167;N48.3833;13;
3;FRA;Île-de-FRA;Yvelines;Varennes-Jarcy 78631=91631;E2.5596;N48.6785;13;
3;FRA;Île-de-FRA;Yvelines;Vaucresson 78632=92076;E2.1750;N48.8333;13;
3;FRA;Île-de-FRA;Yvelines;Vaudherland 78633=95633;E2.4833;N49.0000;13;
3;FRA;Île-de-FRA;Yvelines;Vaugrigneuse 78634=91634;E2.1167;N48.6000;13;
3;FRA;Île-de-FRA;Yvelines;Vauhallan 78635=91635;E2.2000;N48.7333;13;
3;FRA;Île-de-FRA;Yvelines;Vaujours 78636=93074;E2.5667;N48.9333;13;
3;FRA;Île-de-FRA;Yvelines;Vauréal 78637=95637;E2.0333;N49.0333;13;
3;FRA;Île-de-FRA;Yvelines;Vaux-sur-Seine 78638;E1.9667;N49.0167;13;
3;FRA;Île-de-FRA;Yvelines;Vayres-sur-Essonne 78639=91639;E2.3534;N48.4379;13;
3;FRA;Île-de-FRA;Yvelines;Vélizy-Villacoublay 78640;E2.1833;N48.8000;13;
3;FRA;Île-de-FRA;Yvelines;Vémars 78641=95641;E2.5667;N49.0667;13;
3;FRA;Île-de-FRA;Yvelines;Verneuil-sur-Seine 78642;E1.9833;N48.9833;13;
3;FRA;Île-de-FRA;Yvelines;Vernouillet 78643;E1.9833;N48.9667;13;
3;FRA;Île-de-FRA;Yvelines;Verrières-le-Buisson 78645=91645;E2.2667;N48.7500;13;
3;FRA;Île-de-FRA;Yvelines;Versailles 78646;E2.1333;N48.8000;13;
3;FRA;Île-de-FRA;Yvelines;Vert 78647;E1.7000;N48.9333;13;
3;FRA;Île-de-FRA;Yvelines;Vert-le-Grand 78648=91648;E2.3667;N48.5667;13;
3;FRA;Île-de-FRA;Yvelines;Vert-le-Petit 78649=91649;E2.3667;N48.5500;13;
3;FRA;Île-de-FRA;Yvelines;Vétheuil 78651=95651;E1.7000;N49.0667;13;
3;FRA;Île-de-FRA;Yvelines;Viarmes 78652=95652;E2.3667;N49.1333;13;
3;FRA;Île-de-FRA;Yvelines;Vicq 78653;E1.8333;N48.8167;13;
3;FRA;Île-de-FRA;Yvelines;Videlles 78654=91654;E2.4333;N48.4667;13;
3;FRA;Île-de-FRA;Yvelines;Vieille-Église-en-Yvelines 78655;E1.8747;N48.6704;13;
3;FRA;Île-de-FRA;Yvelines;Vienne-en-Arthies 78656=95656;E1.7333;N49.0667;13;
3;FRA;Île-de-FRA;Yvelines;Vigneux-sur-Seine 78657=91657;E2.4167;N48.7000;13;
3;FRA;Île-de-FRA;Yvelines;Vigny 78658=95658;E1.9333;N49.0833;13;
3;FRA;Île-de-FRA;Yvelines;Villabé 78659=91659;E2.4500;N48.5833;13;
3;FRA;Île-de-FRA;Yvelines;Villaines-sous-Bois 78660=95660;E2.3667;N49.0833;13;
3;FRA;Île-de-FRA;Yvelines;Ville-d'Avray 78664=92077;E2.1917;N48.8250;13;
3;FRA;Île-de-FRA;Yvelines;Villebon-sur-Yvette 78661=91661;E2.2500;N48.7000;13;
3;FRA;Île-de-FRA;Yvelines;Villeconin 78662=91662;E2.1167;N48.5167;13;
3;FRA;Île-de-FRA;Yvelines;Villecresnes 78663=94075;E2.5333;N48.7167;13;
3;FRA;Île-de-FRA;Yvelines;Villejust 78666=91666;E2.2333;N48.6833;13;
3;FRA;Île-de-FRA;Yvelines;Villemoisson-sur-Orge 78667=91667;E2.3167;N48.6667;13;
3;FRA;Île-de-FRA;Yvelines;Villeneuve-le-Roi 78669=94077;E2.4167;N48.7333;13;
3;FRA;Île-de-FRA;Yvelines;Villeneuve-Saint-Georges 78670=94078;E2.4500;N48.7333;13;
3;FRA;Île-de-FRA;Yvelines;Villeneuve-sur-Auvers 78671=91671;E2.2500;N48.4667;13;
3;FRA;Île-de-FRA;Yvelines;Villennes-sur-Seine 78672;E2.0000;N48.9500;13;
3;FRA;Île-de-FRA;Yvelines;Villepinte 78673=93078;E2.5333;N48.9667;13;
3;FRA;Île-de-FRA;Yvelines;Villepreux 78674;E2.0167;N48.8333;13;
3;FRA;Île-de-FRA;Yvelines;Villeron 78675=95675;E2.5333;N49.0500;13;
3;FRA;Île-de-FRA;Yvelines;Villers-en-Arthies 78676=95676;E1.7333;N49.1000;13;
3;FRA;Île-de-FRA;Yvelines;Villette 78677;E1.7000;N48.9333;13;
3;FRA;Île-de-FRA;Yvelines;Villiers-Adam 78678=95678;E2.2333;N49.0667;13;
3;FRA;Île-de-FRA;Yvelines;Villiers-le-Bâcle 78679=91679;E2.1167;N48.7167;13;
3;FRA;Île-de-FRA;Yvelines;Villiers-le-Bel 78680=95680;E2.3833;N49.0000;13;
3;FRA;Île-de-FRA;Yvelines;Villiers-le-Mahieu 78681;E1.7833;N48.8667;13;
3;FRA;Île-de-FRA;Yvelines;Villiers-le-Sec 78682=95682;E2.4000;N49.0667;13;
3;FRA;Île-de-FRA;Yvelines;Villiers-Saint-Fréderic 78683;E1.8833;N48.8167;13;
3;FRA;Île-de-FRA;Yvelines;Villiers-sur-Marne 78684=94079;E2.5500;N48.8333;13;
3;FRA;Île-de-FRA;Yvelines;Villiers-sur-Orge 78685=91685;E2.3000;N48.6500;13;
3;FRA;Île-de-FRA;Yvelines;Viroflay 78686;E2.1667;N48.8000;13;
3;FRA;Île-de-FRA;Yvelines;Viry-Châtillon 78687=91687;E2.3833;N48.6667;13;
3;FRA;Île-de-FRA;Yvelines;Voisins-le-Bretonneux 78688;E2.0373;N48.7588;13;
3;FRA;Île-de-FRA;Yvelines;Wissous 78689=91689;E2.3333;N48.7333;13;
3;FRA;Île-de-FRA;Yvelines;Wy-dit-Joli-Village 78690=95690;E1.8333;N49.1000;13;
3;FRA;Île-de-FRA;Yvelines;Yerres 78691=91691;E2.5000;N48.7167;13;