"Level";"Country";"County";"Place";"void";"Longitude";"Latitude";"ZoomLevel";"Icon"
2;ENG;Cumberland;Abbeytown;;W3.29;N54.83;10;
2;ENG;Cumberland;Ackenthwaite;;W2.76;N54.22;10;
2;ENG;Cumberland;Aglionby;;W2.87;N54.89;10;
2;ENG;Cumberland;Aiketgate;;W2.81;N54.80;10;
2;ENG;Cumberland;Aikton;;W3.13;N54.86;10;
2;ENG;Cumberland;Ainstable;;W2.73;N54.80;10;
2;ENG;Cumberland;Albyfield;;W2.71;N54.86;10;
2;ENG;Cumberland;Aldingham;;W3.10;N54.13;10;
2;ENG;Cumberland;Aldoth;;W3.34;N54.81;10;
2;ENG;Cumberland;Allenwood;;W2.79;N54.88;10;
2;ENG;Cumberland;Allerby;;W3.43;N54.73;10;
2;ENG;Cumberland;Allithwaite;;W2.95;N54.17;10;
2;ENG;Cumberland;Allonby;;W3.43;N54.77;10;
2;ENG;Cumberland;Alston;;W2.45;N54.80;10;
2;ENG;Cumberland;Angerton;;W3.21;N54.90;10;
2;ENG;Cumberland;Annas;;W3.39;N54.27;10;
2;ENG;Cumberland;Annaside;;W3.39;N54.26;10;
2;ENG;Cumberland;Anthorn;;W3.26;N54.91;10;
2;ENG;Cumberland;Appleby-in-Westmorland;;W2.49;N54.57;10;
2;ENG;Cumberland;Arkleby;;W3.33;N54.73;10;
2;ENG;Cumberland;Arlecdon;;W3.48;N54.55;10;
2;ENG;Cumberland;Armathwaite;;W2.77;N54.80;10;
2;ENG;Cumberland;Arnaby;;W3.26;N54.24;10;
2;ENG;Cumberland;Arrad Foot;;W3.07;N54.21;10;
2;ENG;Cumberland;Askam in Furness;;W3.21;N54.18;10;
2;ENG;Cumberland;Aspatria;;W3.33;N54.75;10;
2;ENG;Cumberland;Aughertree;;W3.16;N54.73;10;
2;ENG;Cumberland;Ayside;;W2.93;N54.23;10;
2;ENG;Cumberland;Backbarrow;;W2.99;N54.24;10;
2;ENG;Cumberland;Baggrow;;W3.29;N54.75;10;
2;ENG;Cumberland;Baldwinholme;;W3.04;N54.84;10;
2;ENG;Cumberland;Bampton;;W2.75;N54.55;10;
2;ENG;Cumberland;Bampton Grange;;W2.74;N54.55;10;
2;ENG;Cumberland;Bandrake Head;;W3.06;N54.27;10;
2;ENG;Cumberland;Bank End;;W3.24;N54.28;10;
2;ENG;Cumberland;Bank End;;W3.49;N54.72;10;
2;ENG;Cumberland;Banks;;W2.68;N54.96;10;
2;ENG;Cumberland;Barber Green;;W2.93;N54.23;10;
2;ENG;Cumberland;Barbon;;W2.58;N54.23;10;
2;ENG;Cumberland;Barclose;;W2.87;N54.95;10;
2;ENG;Cumberland;Bardsea;;W3.07;N54.15;10;
2;ENG;Cumberland;Barepot;;W3.53;N54.64;10;
2;ENG;Cumberland;Barras;;W2.24;N54.50;10;
2;ENG;Cumberland;Barrow in Furness;;W3.24;N54.11;10;
2;ENG;Cumberland;Barrows Green;;W2.73;N54.28;10;
2;ENG;Cumberland;Bassenthwaite;;W3.19;N54.67;10;
2;ENG;Cumberland;Bassenthwaite Lake;;W3.21;N54.65;10;
2;ENG;Cumberland;Baycliff;;W3.10;N54.13;10;
2;ENG;Cumberland;Bayles;;W2.46;N54.79;10;
2;ENG;Cumberland;Beacon Hill;;W3.21;N54.12;10;
2;ENG;Cumberland;Beanthwaite;;W3.16;N54.24;10;
2;ENG;Cumberland;Beaumont;;W3.03;N54.92;10;
2;ENG;Cumberland;Beck Bottom;;W3.09;N54.24;10;
2;ENG;Cumberland;Beck Foot;;W2.60;N54.35;10;
2;ENG;Cumberland;Beck Head;;W2.86;N54.24;10;
2;ENG;Cumberland;Beck Houses;;W2.64;N54.35;10;
2;ENG;Cumberland;Beck Side;;W2.96;N54.21;10;
2;ENG;Cumberland;Beck Side;;W3.18;N54.22;10;
2;ENG;Cumberland;Beckces;;W2.91;N54.63;10;
2;ENG;Cumberland;Beckermet;;W3.52;N54.44;10;
2;ENG;Cumberland;Beckfoot;;W3.41;N54.82;10;
2;ENG;Cumberland;Beckside;;W2.60;N54.28;10;
2;ENG;Cumberland;Beetham;;W2.78;N54.20;10;
2;ENG;Cumberland;Belah;;W2.95;N54.90;10;
2;ENG;Cumberland;Belle Isle;;W2.93;N54.36;10;
2;ENG;Cumberland;Belle Vue;;W3.38;N54.66;10;
2;ENG;Cumberland;Belle Vue;;W2.98;N54.88;10;
2;ENG;Cumberland;Berrier;;W2.93;N54.65;10;
2;ENG;Cumberland;Beta;;W2.63;N54.23;10;
2;ENG;Cumberland;Bewaldeth;;W3.22;N54.69;10;
2;ENG;Cumberland;Bewcastle;;W2.69;N55.05;10;
2;ENG;Cumberland;Biggar;;W3.23;N54.08;10;
2;ENG;Cumberland;Biglands;;W3.17;N54.86;10;
2;ENG;Cumberland;Bigrigg;;W3.54;N54.50;10;
2;ENG;Cumberland;Birk Beck;;W2.62;N54.44;10;
2;ENG;Cumberland;Birkby;;W3.47;N54.71;10;
2;ENG;Cumberland;Birkett Mire;;W3.06;N54.60;10;
2;ENG;Cumberland;Birks;;W2.53;N54.31;10;
2;ENG;Cumberland;Black Burn;;W2.45;N54.71;10;
2;ENG;Cumberland;Black Lyne;;W2.76;N55.13;10;
2;ENG;Cumberland;Blackbeck;;W3.51;N54.44;10;
2;ENG;Cumberland;Blackdyke;;W3.34;N54.85;10;
2;ENG;Cumberland;Blackford;;W2.95;N54.94;10;
2;ENG;Cumberland;Blackwell;;W2.93;N54.86;10;
2;ENG;Cumberland;Blagill;;W2.42;N54.81;10;
2;ENG;Cumberland;Blawith;;W3.10;N54.28;10;
2;ENG;Cumberland;Bleach Green;;W3.57;N54.55;10;
2;ENG;Cumberland;Bleatarn;;W2.41;N54.51;10;
2;ENG;Cumberland;Blencarn;;W2.57;N54.67;10;
2;ENG;Cumberland;Blencogo;;W3.26;N54.81;10;
2;ENG;Cumberland;Blennerhasset;;W3.29;N54.75;10;
2;ENG;Cumberland;Blindcrake;;W3.33;N54.69;10;
2;ENG;Cumberland;Blitterlees;;W3.40;N54.85;10;
2;ENG;Cumberland;Bolton;;W2.57;N54.60;10;
2;ENG;Cumberland;Bolton Low Houses;;W3.19;N54.78;10;
2;ENG;Cumberland;Bolton New Houses;;W3.18;N54.78;10;
2;ENG;Cumberland;Bolton Wood Lane;;W3.16;N54.78;10;
2;ENG;Cumberland;Boltonfellend;;W2.83;N55.00;10;
2;ENG;Cumberland;Boltongate;;W3.21;N54.74;10;
2;ENG;Cumberland;Bomby;;W2.74;N54.54;10;
2;ENG;Cumberland;Bonning Gate;;W2.80;N54.34;10;
2;ENG;Cumberland;Boot;;W3.28;N54.39;10;
2;ENG;Cumberland;Bootle;;W3.38;N54.28;10;
2;ENG;Cumberland;Border;;W3.31;N54.87;10;
2;ENG;Cumberland;Borrow Beck;;W2.66;N54.43;10;
2;ENG;Cumberland;Borwick Rails;;W3.25;N54.20;10;
2;ENG;Cumberland;Botcherby;;W2.92;N54.88;10;
2;ENG;Cumberland;Bothel;;W3.27;N54.73;10;
2;ENG;Cumberland;Boustead Hill;;W3.10;N54.92;10;
2;ENG;Cumberland;Bouth;;W3.04;N54.25;10;
2;ENG;Cumberland;Bowderdale;;W2.51;N54.43;10;
2;ENG;Cumberland;Bowland Bridge;;W2.90;N54.29;10;
2;ENG;Cumberland;Bowmanstead;;W3.09;N54.35;10;
2;ENG;Cumberland;Bowness on Solway;;W3.21;N54.94;10;
2;ENG;Cumberland;Bowness On Windermere;;W2.92;N54.35;10;
2;ENG;Cumberland;Bowston;;W2.78;N54.35;10;
2;ENG;Cumberland;Brackenber;;W2.43;N54.56;10;
2;ENG;Cumberland;Brackenlands;;W3.16;N54.81;10;
2;ENG;Cumberland;Brackenthwaite;;W3.31;N54.58;10;
2;ENG;Cumberland;Brackenthwaite;;W3.10;N54.80;10;
2;ENG;Cumberland;Braithwaite;;W3.19;N54.59;10;
2;ENG;Cumberland;Brampton;;W2.51;N54.60;10;
2;ENG;Cumberland;Brampton;;W2.75;N54.94;10;
2;ENG;Cumberland;Brandlingill;;W3.36;N54.62;10;
2;ENG;Cumberland;Bransty;;W3.59;N54.55;10;
2;ENG;Cumberland;Branthwaite;;W3.47;N54.60;10;
2;ENG;Cumberland;Branthwaite;;W3.10;N54.72;10;
2;ENG;Cumberland;Branthwaite Edge;;W3.47;N54.60;10;
2;ENG;Cumberland;Brathay;;W3.00;N54.41;10;
2;ENG;Cumberland;Braystones;;W3.54;N54.43;10;
2;ENG;Cumberland;Bridekirk;;W3.38;N54.68;10;
2;ENG;Cumberland;Bridge End;;W2.98;N54.82;10;
2;ENG;Cumberland;Bridgefoot;;W3.47;N54.64;10;
2;ENG;Cumberland;Bridgend;;W2.94;N54.51;10;
2;ENG;Cumberland;Briery;;W3.11;N54.60;10;
2;ENG;Cumberland;Brigflatts;;W2.55;N54.31;10;
2;ENG;Cumberland;Briggle Beck;;W2.69;N54.71;10;
2;ENG;Cumberland;Brigham;;W3.13;N54.59;10;
2;ENG;Cumberland;Brigham;;W3.42;N54.65;10;
2;ENG;Cumberland;Brigsteer;;W2.80;N54.29;10;
2;ENG;Cumberland;Brisco;;W2.90;N54.85;10;
2;ENG;Cumberland;Briscoe;;W3.51;N54.48;10;
2;ENG;Cumberland;Broad Oak;;W3.37;N54.33;10;
2;ENG;Cumberland;Broadwath;;W2.81;N54.88;10;
2;ENG;Cumberland;Brockleymoor;;W2.79;N54.71;10;
2;ENG;Cumberland;Bromfield;;W3.29;N54.80;10;
2;ENG;Cumberland;Broom;;W2.52;N54.60;10;
2;ENG;Cumberland;Broomfield;;W3.02;N54.82;10;
2;ENG;Cumberland;Brothybeck;;W3.02;N54.77;10;
2;ENG;Cumberland;Brough;;W2.32;N54.52;10;
2;ENG;Cumberland;Brough Sowerby;;W2.32;N54.50;10;
2;ENG;Cumberland;Broughton Beck;;W3.10;N54.22;10;
2;ENG;Cumberland;Broughton Cross;;W3.44;N54.65;10;
2;ENG;Cumberland;Broughton in Furness;;W3.21;N54.27;10;
2;ENG;Cumberland;Broughton Mills;;W3.20;N54.30;10;
2;ENG;Cumberland;Broughton Moor;;W3.47;N54.68;10;
2;ENG;Cumberland;Brow Edge;;W2.99;N54.24;10;
2;ENG;Cumberland;Brownber;;W2.46;N54.44;10;
2;ENG;Cumberland;Browtop;;W3.45;N54.60;10;
2;ENG;Cumberland;Brunstock;;W2.92;N54.92;10;
2;ENG;Cumberland;Buckabank;;W2.98;N54.83;10;
2;ENG;Cumberland;Bullgill;;W3.41;N54.72;10;
2;ENG;Cumberland;Burgh by Sands;;W3.06;N54.92;10;
2;ENG;Cumberland;Burneside;;W2.77;N54.34;10;
2;ENG;Cumberland;Burnrigg;;W2.82;N54.88;10;
2;ENG;Cumberland;Burrells;;W2.49;N54.55;10;
2;ENG;Cumberland;Burtholme;;W2.71;N54.96;10;
2;ENG;Cumberland;Burthwaite;;W2.92;N54.83;10;
2;ENG;Cumberland;Burton in Kendal;;W2.72;N54.17;10;
2;ENG;Cumberland;Bushfield;;W2.83;N55.11;10;
2;ENG;Cumberland;Busk;;W2.62;N54.77;10;
2;ENG;Cumberland;Buttermere;;W3.26;N54.53;10;
2;ENG;Cumberland;Buttermere;;W3.28;N54.54;10;
2;ENG;Cumberland;Butterwick;;W2.75;N54.56;10;
2;ENG;Cumberland;Caldbeck;;W3.05;N54.74;10;
2;ENG;Cumberland;Calder;;W3.49;N54.41;10;
2;ENG;Cumberland;Calder Bridge;;W3.48;N54.43;10;
2;ENG;Cumberland;Caldew;;W3.02;N54.74;10;
2;ENG;Cumberland;Calthwaite;;W2.84;N54.75;10;
2;ENG;Cumberland;Calvo;;W3.34;N54.86;10;
2;ENG;Cumberland;Camerton;;W3.50;N54.65;10;
2;ENG;Cumberland;Canal Foot;;W3.05;N54.18;10;
2;ENG;Cumberland;Cardew;;W3.02;N54.83;10;
2;ENG;Cumberland;Cardewlees;;W3.02;N54.84;10;
2;ENG;Cumberland;Cardurnock;;W3.29;N54.91;10;
2;ENG;Cumberland;Cargo;;W3.00;N54.92;10;
2;ENG;Cumberland;Cark;;W2.98;N54.17;10;
2;ENG;Cumberland;Carleton;;W3.52;N54.46;10;
2;ENG;Cumberland;Carleton;;W2.73;N54.65;10;
2;ENG;Cumberland;Carleton;;W2.90;N54.85;10;
2;ENG;Cumberland;Carleton Hall;;W3.41;N54.36;10;
2;ENG;Cumberland;Carlisle;;W2.95;N54.88;10;
2;ENG;Cumberland;Carr Bank;;W2.81;N54.19;10;
2;ENG;Cumberland;Cartmel;;W2.95;N54.19;10;
2;ENG;Cumberland;Cartmel Fell;;W2.90;N54.28;10;
2;ENG;Cumberland;Carwinley;;W2.94;N55.03;10;
2;ENG;Cumberland;Castle Carrock;;W2.71;N54.88;10;
2;ENG;Cumberland;Castlerigg;;W3.11;N54.58;10;
2;ENG;Cumberland;Castletown;;W2.77;N54.66;10;
2;ENG;Cumberland;Cat Bank;;W3.07;N54.36;10;
2;ENG;Cumberland;Catholes;;W2.53;N54.30;10;
2;ENG;Cumberland;Catlowdy;;W2.86;N55.07;10;
2;ENG;Cumberland;Catterlen;;W2.80;N54.68;10;
2;ENG;Cumberland;Causeway End;;W3.01;N54.24;10;
2;ENG;Cumberland;Causeway End;;W2.79;N54.25;10;
2;ENG;Cumberland;Cautley;;W2.47;N54.35;10;
2;ENG;Cumberland;Chalkfoot;;W3.04;N54.82;10;
2;ENG;Cumberland;Chapel;;W3.21;N54.66;10;
2;ENG;Cumberland;Chapel Stile;;W3.04;N54.43;10;
2;ENG;Cumberland;Chapels;;W3.18;N54.23;10;
2;ENG;Cumberland;Chestnut Hill;;W3.13;N54.59;10;
2;ENG;Cumberland;Church Brough;;W2.32;N54.51;10;
2;ENG;Cumberland;Churchtown;;W2.99;N54.76;10;
2;ENG;Cumberland;Clappersgate;;W2.98;N54.41;10;
2;ENG;Cumberland;Clawthorpe;;W2.72;N54.18;10;
2;ENG;Cumberland;Cleator;;W3.53;N54.50;10;
2;ENG;Cumberland;Cleator Moor;;W3.51;N54.51;10;
2;ENG;Cumberland;Cocker;;W3.35;N54.64;10;
2;ENG;Cumberland;Cockermouth;;W3.36;N54.65;10;
2;ENG;Cumberland;Cockley Beck;;W3.17;N54.39;10;
2;ENG;Cumberland;Colt Park;;W3.11;N54.12;10;
2;ENG;Cumberland;Colthouse;;W3.00;N54.37;10;
2;ENG;Cumberland;Colton;;W3.06;N54.26;10;
2;ENG;Cumberland;Common End;;W3.54;N54.58;10;
2;ENG;Cumberland;Coniston;;W3.07;N54.36;10;
2;ENG;Cumberland;Coniston Water;;W3.07;N54.34;10;
2;ENG;Cumberland;Corby Hill;;W2.81;N54.90;10;
2;ENG;Cumberland;Corney;;W3.36;N54.30;10;
2;ENG;Cumberland;Cotehill;;W2.84;N54.84;10;
2;ENG;Cumberland;Cotes;;W2.79;N54.26;10;
2;ENG;Cumberland;Coulderton;;W3.57;N54.46;10;
2;ENG;Cumberland;Coupland;;W2.44;N54.55;10;
2;ENG;Cumberland;Cow Green Reservoir;;W2.30;N54.66;10;
2;ENG;Cumberland;Cowen Head;;W2.78;N54.36;10;
2;ENG;Cumberland;Cowgill;;W2.38;N54.27;10;
2;ENG;Cumberland;Crake;;W3.08;N54.27;10;
2;ENG;Cumberland;Crewgarth;;W2.62;N54.69;10;
2;ENG;Cumberland;Croasdale;;W3.40;N54.54;10;
2;ENG;Cumberland;Croftlands;;W3.10;N54.17;10;
2;ENG;Cumberland;Crofton;;W3.09;N54.84;10;
2;ENG;Cumberland;Croglin;;W2.67;N54.81;10;
2;ENG;Cumberland;Crookdake;;W3.26;N54.77;10;
2;ENG;Cumberland;Crooklands;;W2.72;N54.24;10;
2;ENG;Cumberland;Crosby;;W3.44;N54.72;10;
2;ENG;Cumberland;Crosby Villa;;W3.41;N54.72;10;
2;ENG;Cumberland;Crosby-on-Eden;;W2.84;N54.92;10;
2;ENG;Cumberland;Croslands Park;;W3.21;N54.12;10;
2;ENG;Cumberland;Crosscanonby;;W3.44;N54.73;10;
2;ENG;Cumberland;Crosscrake;;W2.73;N54.26;10;
2;ENG;Cumberland;Crossgates;;W3.44;N54.57;10;
2;ENG;Cumberland;Crossgill;;W2.40;N54.75;10;
2;ENG;Cumberland;Crosslands;;W3.01;N54.29;10;
2;ENG;Cumberland;Crosthwaite;;W2.86;N54.31;10;
2;ENG;Cumberland;Crummock Water;;W3.30;N54.55;10;
2;ENG;Cumberland;Culgaith;;W2.62;N54.65;10;
2;ENG;Cumberland;Cumbrian Mountains;;W3.13;N54.52;10;
2;ENG;Cumberland;Cumdivock;;W3.02;N54.82;10;
2;ENG;Cumberland;Cummersdale;;W2.96;N54.86;10;
2;ENG;Cumberland;Cumrew;;W2.71;N54.84;10;
2;ENG;Cumberland;Cumwhinton;;W2.85;N54.86;10;
2;ENG;Cumberland;Cumwhitton;;W2.78;N54.86;10;
2;ENG;Cumberland;Currock;;W2.93;N54.87;10;
2;ENG;Cumberland;Dacre;;W2.85;N54.62;10;
2;ENG;Cumberland;Dacre Beck;;W2.83;N54.62;10;
2;ENG;Cumberland;Dale;;W2.71;N54.78;10;
2;ENG;Cumberland;Dale Bottom;;W3.10;N54.57;10;
2;ENG;Cumberland;Dalston;;W2.99;N54.84;10;
2;ENG;Cumberland;Dalton-In-Furness;;W3.18;N54.15;10;
2;ENG;Cumberland;Dean;;W3.44;N54.61;10;
2;ENG;Cumberland;Deanscales;;W3.41;N54.62;10;
2;ENG;Cumberland;Dearham;;W3.44;N54.71;10;
2;ENG;Cumberland;Dee;;W2.33;N54.24;10;
2;ENG;Cumberland;Deepthwaite;;W2.75;N54.24;10;
2;ENG;Cumberland;Dendron;;W3.16;N54.12;10;
2;ENG;Cumberland;Dent;;W2.46;N54.26;10;
2;ENG;Cumberland;Denton Holme;;W2.93;N54.87;10;
2;ENG;Cumberland;Derwent;;W3.19;N54.63;10;
2;ENG;Cumberland;Derwent Water;;W3.14;N54.57;10;
2;ENG;Cumberland;Distington;;W3.54;N54.59;10;
2;ENG;Cumberland;Dockray;;W2.94;N54.58;10;
2;ENG;Cumberland;Dovenby;;W3.41;N54.68;10;
2;ENG;Cumberland;Down Hall;;W3.12;N54.85;10;
2;ENG;Cumberland;Dragley Beck;;W3.08;N54.18;10;
2;ENG;Cumberland;Drigg;;W3.44;N54.36;10;
2;ENG;Cumberland;Drumburgh;;W3.15;N54.92;10;
2;ENG;Cumberland;Drybeck;;W2.52;N54.52;10;
2;ENG;Cumberland;Dubwath;;W3.25;N54.66;10;
2;ENG;Cumberland;Duddon;;W3.22;N54.33;10;
2;ENG;Cumberland;Duddon Bridge;;W3.24;N54.28;10;
2;ENG;Cumberland;Dundraw;;W3.23;N54.83;10;
2;ENG;Cumberland;Dunnerholme;;W3.21;N54.20;10;
2;ENG;Cumberland;Dunningwell;;W3.27;N54.24;10;
2;ENG;Cumberland;Durdar;;W2.93;N54.84;10;
2;ENG;Cumberland;Eaglesfield;;W3.41;N54.63;10;
2;ENG;Cumberland;Eamont;;W2.77;N54.64;10;
2;ENG;Cumberland;Eamont Bridge;;W2.74;N54.64;10;
2;ENG;Cumberland;East Curthwaite;;W3.04;N54.82;10;
2;ENG;Cumberland;Easton;;W3.14;N54.92;10;
2;ENG;Cumberland;Easton;;W2.89;N55.03;10;
2;ENG;Cumberland;Eccle Riggs;;W3.21;N54.26;10;
2;ENG;Cumberland;Edderside;;W3.40;N54.79;10;
2;ENG;Cumberland;Eden;;W2.77;N54.81;10;
2;ENG;Cumberland;Eden Mount;;W2.92;N54.19;10;
2;ENG;Cumberland;Edenhall;;W2.68;N54.68;10;
2;ENG;Cumberland;Edentown;;W2.95;N54.90;10;
2;ENG;Cumberland;Egremont;;W3.52;N54.47;10;
2;ENG;Cumberland;Ehen;;W3.51;N54.50;10;
2;ENG;Cumberland;Ellen;;W3.15;N54.70;10;
2;ENG;Cumberland;Ellenborough;;W3.49;N54.70;10;
2;ENG;Cumberland;Ellonby;;W2.90;N54.70;10;
2;ENG;Cumberland;Elterwater;;W3.04;N54.42;10;
2;ENG;Cumberland;Embleton;;W3.28;N54.65;10;
2;ENG;Cumberland;Endmoor;;W2.70;N54.25;10;
2;ENG;Cumberland;Ennerdale Bridge;;W3.43;N54.52;10;
2;ENG;Cumberland;Ennerdale Water;;W3.37;N54.52;10;
2;ENG;Cumberland;Esk;;W3.02;N54.97;10;
2;ENG;Cumberland;Eskdale Green;;W3.32;N54.38;10;
2;ENG;Cumberland;Etterby;;W2.96;N54.90;10;
2;ENG;Cumberland;Ewanrigg;;W3.50;N54.70;10;
2;ENG;Cumberland;Fair Hill;;W2.77;N54.67;10;
2;ENG;Cumberland;Far Arnside;;W2.85;N54.17;10;
2;ENG;Cumberland;Far End;;W3.07;N54.37;10;
2;ENG;Cumberland;Far Sawrey;;W2.97;N54.34;10;
2;ENG;Cumberland;Farlam;;W2.70;N54.91;10;
2;ENG;Cumberland;Faugh;;W2.78;N54.88;10;
2;ENG;Cumberland;Fell End;;W2.43;N54.37;10;
2;ENG;Cumberland;Fell Side;;W3.08;N54.72;10;
2;ENG;Cumberland;Felldyke;;W3.42;N54.55;10;
2;ENG;Cumberland;Fenton;;W2.78;N54.89;10;
2;ENG;Cumberland;Ferney Green;;W2.92;N54.35;10;
2;ENG;Cumberland;Field Broughton;;W2.95;N54.22;10;
2;ENG;Cumberland;Fingland;;W3.17;N54.90;10;
2;ENG;Cumberland;Finsthwaite;;W2.98;N54.27;10;
2;ENG;Cumberland;Fletchertown;;W3.24;N54.76;10;
2;ENG;Cumberland;Flimby;;W3.52;N54.68;10;
2;ENG;Cumberland;Flitholme;;W2.37;N54.53;10;
2;ENG;Cumberland;Flookburgh;;W2.98;N54.16;10;
2;ENG;Cumberland;Force Forge;;W3.03;N54.30;10;
2;ENG;Cumberland;Force Mills;;W3.01;N54.31;10;
2;ENG;Cumberland;Forest Head;;W2.65;N54.90;10;
2;ENG;Cumberland;Fothergill;;W3.52;N54.69;10;
2;ENG;Cumberland;Foulbog Sike;;W2.63;N55.08;10;
2;ENG;Cumberland;Foulbridge;;W2.91;N54.82;10;
2;ENG;Cumberland;Foxfield;;W3.22;N54.25;10;
2;ENG;Cumberland;Frizington;;W3.50;N54.53;10;
2;ENG;Cumberland;Gairn Burn;;W2.61;N55.12;10;
2;ENG;Cumberland;Gaisgill;;W2.55;N54.43;10;
2;ENG;Cumberland;Gaitsgill;;W2.96;N54.80;10;
2;ENG;Cumberland;Galligill;;W2.39;N54.79;10;
2;ENG;Cumberland;Gamblesby;;W2.62;N54.74;10;
2;ENG;Cumberland;Gamelsby;;W3.16;N54.85;10;
2;ENG;Cumberland;Garlands;;W2.88;N54.87;10;
2;ENG;Cumberland;Garnett Bridge;;W2.74;N54.38;10;
2;ENG;Cumberland;Garrigill;;W2.40;N54.76;10;
2;ENG;Cumberland;Garsdale;;W2.40;N54.29;10;
2;ENG;Cumberland;Garsdale Head;;W2.33;N54.32;10;
2;ENG;Cumberland;Garth Row;;W2.74;N54.36;10;
2;ENG;Cumberland;Gatebeck;;W2.70;N54.25;10;
2;ENG;Cumberland;Gatesgarth;;W3.25;N54.52;10;
2;ENG;Cumberland;Gawthrop;;W2.47;N54.27;10;
2;ENG;Cumberland;Gawthwaite;;W3.12;N54.24;10;
2;ENG;Cumberland;Gelt;;W2.66;N54.86;10;
2;ENG;Cumberland;Gilcrux;;W3.38;N54.72;10;
2;ENG;Cumberland;Gilgarran;;W3.50;N54.59;10;
2;ENG;Cumberland;Gillbank;;W2.98;N54.37;10;
2;ENG;Cumberland;Gilpin;;W2.84;N54.30;10;
2;ENG;Cumberland;Gilsland;;W2.57;N54.98;10;
2;ENG;Cumberland;Glasson;;W3.50;N54.71;10;
2;ENG;Cumberland;Glasson;;W3.17;N54.92;10;
2;ENG;Cumberland;Glassonby;;W2.66;N54.73;10;
2;ENG;Cumberland;Gleaston;;W3.14;N54.12;10;
2;ENG;Cumberland;Glendermackin;;W3.01;N54.66;10;
2;ENG;Cumberland;Glenridding;;W2.96;N54.54;10;
2;ENG;Cumberland;Godrill Beck;;W2.93;N54.48;10;
2;ENG;Cumberland;Goodyhills;;W3.40;N54.80;10;
2;ENG;Cumberland;Goose Green;;W2.70;N54.25;10;
2;ENG;Cumberland;Gosforth;;W3.45;N54.41;10;
2;ENG;Cumberland;Grains Gill;;W3.19;N54.46;10;
2;ENG;Cumberland;Grange;;W3.16;N54.54;10;
2;ENG;Cumberland;Grange-Over-Sands;;W2.92;N54.18;10;
2;ENG;Cumberland;Grassgarth;;W2.86;N54.38;10;
2;ENG;Cumberland;Grassgarth;;W3.02;N54.78;10;
2;ENG;Cumberland;Grayson Green;;W3.56;N54.61;10;
2;ENG;Cumberland;Great Asby;;W2.49;N54.51;10;
2;ENG;Cumberland;Great Blencow;;W2.85;N54.68;10;
2;ENG;Cumberland;Great Broughton;;W3.44;N54.66;10;
2;ENG;Cumberland;Great Clifton;;W3.48;N54.64;10;
2;ENG;Cumberland;Great Corby;;W2.82;N54.87;10;
2;ENG;Cumberland;Great Crosthwaite;;W3.14;N54.60;10;
2;ENG;Cumberland;Great Langdale Beck;;W3.11;N54.44;10;
2;ENG;Cumberland;Great Ormside;;W2.46;N54.54;10;
2;ENG;Cumberland;Great Orton;;W3.06;N54.87;10;
2;ENG;Cumberland;Great Salkeld;;W2.70;N54.71;10;
2;ENG;Cumberland;Great Urswick;;W3.11;N54.15;10;
2;ENG;Cumberland;Green Bank;;W2.95;N54.21;10;
2;ENG;Cumberland;Green Head;;W2.99;N54.83;10;
2;ENG;Cumberland;Green Quarter;;W2.83;N54.42;10;
2;ENG;Cumberland;Greengarth Hall;;W3.43;N54.38;10;
2;ENG;Cumberland;Greengill;;W3.39;N54.72;10;
2;ENG;Cumberland;Greenholme;;W2.63;N54.43;10;
2;ENG;Cumberland;Greenodd;;W3.06;N54.22;10;
2;ENG;Cumberland;Greenrow;;W3.40;N54.85;10;
2;ENG;Cumberland;Greenside;;W2.44;N54.43;10;
2;ENG;Cumberland;Greenwell;;W2.73;N54.89;10;
2;ENG;Cumberland;Greta;;W3.06;N54.61;10;
2;ENG;Cumberland;Greysouthen;;W3.44;N54.64;10;
2;ENG;Cumberland;Greystoke;;W2.86;N54.66;10;
2;ENG;Cumberland;Greystoke Gill;;W2.86;N54.65;10;
2;ENG;Cumberland;Greystone;;W2.75;N54.20;10;
2;ENG;Cumberland;Grinsdale;;W2.99;N54.91;10;
2;ENG;Cumberland;Grisdale;;W2.35;N54.33;10;
2;ENG;Cumberland;Grizdale Beck;;W3.02;N54.33;10;
2;ENG;Cumberland;Grizebeck;;W3.18;N54.25;10;
2;ENG;Cumberland;Grizedale;;W3.03;N54.33;10;
2;ENG;Cumberland;Grizedale Forest;;W3.03;N54.33;10;
2;ENG;Cumberland;Gullom Holme;;W2.54;N54.64;10;
2;ENG;Cumberland;Hackthorpe;;W2.71;N54.60;10;
2;ENG;Cumberland;Haile;;W3.49;N54.45;10;
2;ENG;Cumberland;Hale;;W2.76;N54.19;10;
2;ENG;Cumberland;Halfpenny;;W2.72;N54.27;10;
2;ENG;Cumberland;Hall Dunnerdale;;W3.21;N54.34;10;
2;ENG;Cumberland;Hall Santon;;W3.38;N54.39;10;
2;ENG;Cumberland;Hall Waberthwaite;;W3.38;N54.34;10;
2;ENG;Cumberland;Hallbankgate;;W2.65;N54.92;10;
2;ENG;Cumberland;Hallthwaites;;W3.26;N54.25;10;
2;ENG;Cumberland;Haltcliff Bridge;;W2.99;N54.71;10;
2;ENG;Cumberland;Hampsfield;;W2.92;N54.21;10;
2;ENG;Cumberland;Hardendale;;W2.65;N54.52;10;
2;ENG;Cumberland;Haresceugh;;W2.62;N54.77;10;
2;ENG;Cumberland;Harker;;W2.95;N54.93;10;
2;ENG;Cumberland;Harker Marsh;;W3.46;N54.69;10;
2;ENG;Cumberland;Harraby;;W2.90;N54.87;10;
2;ENG;Cumberland;Harras;;W3.57;N54.54;10;
2;ENG;Cumberland;Harrington;;W3.58;N54.61;10;
2;ENG;Cumberland;Harriston;;W3.30;N54.75;10;
2;ENG;Cumberland;Hartbarrow;;W2.92;N54.30;10;
2;ENG;Cumberland;Hartsop;;W2.92;N54.50;10;
2;ENG;Cumberland;Haverigg;;W3.30;N54.19;10;
2;ENG;Cumberland;Haverthwaite;;W3.01;N54.23;10;
2;ENG;Cumberland;Hawcoat;;W3.22;N54.12;10;
2;ENG;Cumberland;Hawes Water Beck;;W2.77;N54.53;10;
2;ENG;Cumberland;Haweswater Reservoir;;W2.79;N54.53;10;
2;ENG;Cumberland;Hawk Hill;;W3.55;N54.64;10;
2;ENG;Cumberland;Hawksdale;;W2.99;N54.82;10;
2;ENG;Cumberland;Hawkshead;;W3.00;N54.37;10;
2;ENG;Cumberland;Hawkshead Hill;;W3.03;N54.37;10;
2;ENG;Cumberland;Haws Bank;;W3.07;N54.35;10;
2;ENG;Cumberland;Hayton;;W3.40;N54.75;10;
2;ENG;Cumberland;Hayton;;W2.78;N54.90;10;
2;ENG;Cumberland;Hazelslack;;W2.81;N54.19;10;
2;ENG;Cumberland;Headless Cross;;W2.95;N54.19;10;
2;ENG;Cumberland;Heads Nook;;W2.79;N54.88;10;
2;ENG;Cumberland;Heaning;;W2.87;N54.38;10;
2;ENG;Cumberland;Heathwaite;;W2.90;N54.36;10;
2;ENG;Cumberland;Heggle Lane;;W2.99;N54.70;10;
2;ENG;Cumberland;Helbeck;;W2.32;N54.53;10;
2;ENG;Cumberland;Helmside;;W2.49;N54.28;10;
2;ENG;Cumberland;Helton;;W2.75;N54.59;10;
2;ENG;Cumberland;Hensingham;;W3.57;N54.52;10;
2;ENG;Cumberland;Hesket Newmarket;;W3.04;N54.73;10;
2;ENG;Cumberland;Hethersgill;;W2.83;N54.99;10;
2;ENG;Cumberland;Hetherside;;W2.89;N54.98;10;
2;ENG;Cumberland;Hewer Hill;;W2.97;N54.73;10;
2;ENG;Cumberland;High Bankhill;;W2.68;N54.77;10;
2;ENG;Cumberland;High Biggins;;W2.61;N54.19;10;
2;ENG;Cumberland;High Cark;;W2.95;N54.23;10;
2;ENG;Cumberland;High Casterton;;W2.58;N54.19;10;
2;ENG;Cumberland;High Cunsey;;W2.95;N54.33;10;
2;ENG;Cumberland;High Green;;W2.91;N54.41;10;
2;ENG;Cumberland;High Harrington;;W3.55;N54.61;10;
2;ENG;Cumberland;High Hesket;;W2.82;N54.78;10;
2;ENG;Cumberland;High Hill;;W3.16;N54.59;10;
2;ENG;Cumberland;High Ireby;;W3.21;N54.72;10;
2;ENG;Cumberland;High Longthwaite;;W3.16;N54.80;10;
2;ENG;Cumberland;High Lorton;;W3.30;N54.61;10;
2;ENG;Cumberland;High Newton;;W2.92;N54.23;10;
2;ENG;Cumberland;High Nibthwaite;;W3.09;N54.29;10;
2;ENG;Cumberland;High Oaks;;W2.58;N54.31;10;
2;ENG;Cumberland;High Park;;W2.72;N54.30;10;
2;ENG;Cumberland;High Row;;W2.97;N54.58;10;
2;ENG;Cumberland;High Row;;W3.01;N54.70;10;
2;ENG;Cumberland;High Scales;;W3.27;N54.79;10;
2;ENG;Cumberland;High Sellafield;;W3.51;N54.42;10;
2;ENG;Cumberland;High Side;;W3.19;N54.65;10;
2;ENG;Cumberland;High Walton;;W3.57;N54.49;10;
2;ENG;Cumberland;High Water Head;;W3.06;N54.37;10;
2;ENG;Cumberland;High Whinnow;;W3.09;N54.84;10;
2;ENG;Cumberland;High Wray;;W2.97;N54.38;10;
2;ENG;Cumberland;Highbridge;;W2.94;N54.77;10;
2;ENG;Cumberland;Highlaws;;W3.34;N54.82;10;
2;ENG;Cumberland;Highmoor;;W3.16;N54.81;10;
2;ENG;Cumberland;Hilton;;W2.41;N54.57;10;
2;ENG;Cumberland;Hindpool;;W3.24;N54.11;10;
2;ENG;Cumberland;Holker;;W2.98;N54.18;10;
2;ENG;Cumberland;Hollins;;W2.50;N54.31;10;
2;ENG;Cumberland;Holme Mills;;W2.73;N54.19;10;
2;ENG;Cumberland;Holme St Cuthbert;;W3.40;N54.81;10;
2;ENG;Cumberland;Holmrook;;W3.43;N54.37;10;
2;ENG;Cumberland;Holmwrangle;;W2.76;N54.82;10;
2;ENG;Cumberland;Hopebeck;;W3.30;N54.60;10;
2;ENG;Cumberland;Hornsby;;W2.76;N54.84;10;
2;ENG;Cumberland;Houghton;;W2.93;N54.92;10;
2;ENG;Cumberland;How;;W2.78;N54.89;10;
2;ENG;Cumberland;Howgate;;W3.56;N54.57;10;
2;ENG;Cumberland;Howgill;;W2.57;N54.35;10;
2;ENG;Cumberland;Howtown;;W2.86;N54.56;10;
2;ENG;Cumberland;Hubbersty Head;;W2.89;N54.31;10;
2;ENG;Cumberland;Hunsonby;;W2.65;N54.70;10;
2;ENG;Cumberland;Hurst;;W2.91;N54.75;10;
2;ENG;Cumberland;Hutton;;W2.88;N54.62;10;
2;ENG;Cumberland;Hutton End;;W2.87;N54.73;10;
2;ENG;Cumberland;Hycemoor;;W3.39;N54.28;10;
2;ENG;Cumberland;Hyton;;W3.39;N54.27;10;
2;ENG;Cumberland;Ickenthwaite;;W3.04;N54.29;10;
2;ENG;Cumberland;Ings;;W2.86;N54.37;10;
2;ENG;Cumberland;Ireby;;W3.19;N54.73;10;
2;ENG;Cumberland;Ireleth;;W3.19;N54.18;10;
2;ENG;Cumberland;Irt;;W3.36;N54.42;10;
2;ENG;Cumberland;Irthing;;W2.58;N55.00;10;
2;ENG;Cumberland;Irthington;;W2.79;N54.94;10;
2;ENG;Cumberland;Isel;;W3.32;N54.68;10;
2;ENG;Cumberland;Ivegill;;W2.91;N54.77;10;
2;ENG;Cumberland;Johnby;;W2.88;N54.68;10;
2;ENG;Cumberland;Kearstwick;;W2.61;N54.20;10;
2;ENG;Cumberland;Keekle;;W3.54;N54.52;10;
2;ENG;Cumberland;Keld;;W2.69;N54.51;10;
2;ENG;Cumberland;Kelleth;;W2.52;N54.43;10;
2;ENG;Cumberland;Kells;;W3.60;N54.52;10;
2;ENG;Cumberland;Kelsick;;W3.26;N54.83;10;
2;ENG;Cumberland;Kent;;W2.77;N54.26;10;
2;ENG;Cumberland;Kentrigg;;W2.75;N54.33;10;
2;ENG;Cumberland;Kents Bank;;W2.93;N54.17;10;
2;ENG;Cumberland;Keswick;;W3.14;N54.59;10;
2;ENG;Cumberland;Kidburngill;;W3.45;N54.57;10;
2;ENG;Cumberland;Kilnhill;;W3.22;N54.67;10;
2;ENG;Cumberland;King Water;;W2.61;N55.04;10;
2;ENG;Cumberland;King's Meaburn;;W2.58;N54.58;10;
2;ENG;Cumberland;Kingside Hill;;W3.32;N54.84;10;
2;ENG;Cumberland;Kingstown;;W2.95;N54.92;10;
2;ENG;Cumberland;Kinkry Hill;;W2.76;N55.06;10;
2;ENG;Cumberland;Kirkandrews-on-Eden;;W3.01;N54.91;10;
2;ENG;Cumberland;Kirkbampton;;W3.09;N54.89;10;
2;ENG;Cumberland;Kirkborough;;W3.47;N54.71;10;
2;ENG;Cumberland;Kirkbride;;W3.21;N54.89;10;
2;ENG;Cumberland;Kirkby-in-Furness;;W3.19;N54.22;10;
2;ENG;Cumberland;Kirkcambeck;;W2.73;N55.00;10;
2;ENG;Cumberland;Kirkhouse;;W2.68;N54.92;10;
2;ENG;Cumberland;Kirkland Guards;;W3.27;N54.74;10;
2;ENG;Cumberland;Kirklinton;;W2.89;N54.99;10;
2;ENG;Cumberland;Kirkoswald;;W2.70;N54.76;10;
2;ENG;Cumberland;Kirksanton;;W3.33;N54.20;10;
2;ENG;Cumberland;Kiskin;;W3.39;N54.26;10;
2;ENG;Cumberland;Knipe Fold;;W3.01;N54.38;10;
2;ENG;Cumberland;Knock;;W2.51;N54.63;10;
2;ENG;Cumberland;Knowefield;;W2.93;N54.90;10;
2;ENG;Cumberland;Lady Hall;;W3.24;N54.25;10;
2;ENG;Cumberland;Laithes;;W2.83;N54.68;10;
2;ENG;Cumberland;Lakeside;;W2.96;N54.27;10;
2;ENG;Cumberland;Lambfoot;;W3.30;N54.65;10;
2;ENG;Cumberland;Lamonby;;W2.93;N54.70;10;
2;ENG;Cumberland;Lamplugh;;W3.42;N54.56;10;
2;ENG;Cumberland;Lancaster Canal;;W2.74;N54.33;10;
2;ENG;Cumberland;Lane End;;W3.38;N54.32;10;
2;ENG;Cumberland;Lane Ends;;W3.01;N54.24;10;
2;ENG;Cumberland;Lanercost;;W2.70;N54.96;10;
2;ENG;Cumberland;Langrigg;;W2.37;N54.52;10;
2;ENG;Cumberland;Langrigg;;W3.30;N54.79;10;
2;ENG;Cumberland;Langstrath Beck;;W3.14;N54.47;10;
2;ENG;Cumberland;Langstrath Gill;;W3.17;N54.45;10;
2;ENG;Cumberland;Langwathby;;W2.68;N54.69;10;
2;ENG;Cumberland;Laversdale;;W2.82;N54.95;10;
2;ENG;Cumberland;Lazonby;;W2.71;N54.74;10;
2;ENG;Cumberland;Lea Yeat;;W2.37;N54.26;10;
2;ENG;Cumberland;Leadgate;;W2.46;N54.78;10;
2;ENG;Cumberland;Leasgill;;W2.78;N54.24;10;
2;ENG;Cumberland;Leece;;W3.16;N54.11;10;
2;ENG;Cumberland;Legburthwaite;;W3.06;N54.56;10;
2;ENG;Cumberland;Lenacre;;W2.52;N54.29;10;
2;ENG;Cumberland;Lessonhall;;W3.21;N54.83;10;
2;ENG;Cumberland;Leys;;W3.45;N54.54;10;
2;ENG;Cumberland;Lickle;;W3.16;N54.29;10;
2;ENG;Cumberland;Liddle Water;;W2.86;N55.10;10;
2;ENG;Cumberland;Lindal in Furness;;W3.15;N54.16;10;
2;ENG;Cumberland;Lindale;;W2.90;N54.21;10;
2;ENG;Cumberland;Ling Cove Beck;;W3.20;N54.42;10;
2;ENG;Cumberland;Lingmell Beck;;W3.26;N54.45;10;
2;ENG;Cumberland;Linstock;;W2.90;N54.91;10;
2;ENG;Cumberland;Little Asby;;W2.47;N54.47;10;
2;ENG;Cumberland;Little Bampton;;W3.15;N54.88;10;
2;ENG;Cumberland;Little Blencow;;W2.85;N54.68;10;
2;ENG;Cumberland;Little Braithwaite;;W3.19;N54.59;10;
2;ENG;Cumberland;Little Broughton;;W3.44;N54.66;10;
2;ENG;Cumberland;Little Clifton;;W3.47;N54.63;10;
2;ENG;Cumberland;Little Corby;;W2.82;N54.90;10;
2;ENG;Cumberland;Little Langdale;;W3.06;N54.41;10;
2;ENG;Cumberland;Little Ormside;;W2.46;N54.53;10;
2;ENG;Cumberland;Little Orton;;W3.01;N54.88;10;
2;ENG;Cumberland;Little Salkeld;;W2.68;N54.71;10;
2;ENG;Cumberland;Little Town;;W3.19;N54.56;10;
2;ENG;Cumberland;Little Urswick;;W3.13;N54.14;10;
2;ENG;Cumberland;Liza;;W3.28;N54.50;10;
2;ENG;Cumberland;Lockhills;;W2.77;N54.81;10;
2;ENG;Cumberland;Logan Beck;;W3.29;N54.29;10;
2;ENG;Cumberland;Longburgh;;W3.07;N54.91;10;
2;ENG;Cumberland;Longcroft;;W3.23;N54.91;10;
2;ENG;Cumberland;Longdale;;W2.55;N54.43;10;
2;ENG;Cumberland;Longdales;;W2.76;N54.78;10;
2;ENG;Cumberland;Longlands;;W3.15;N54.70;10;
2;ENG;Cumberland;Longpark;;W2.89;N54.94;10;
2;ENG;Cumberland;Longsowerby;;W2.95;N54.87;10;
2;ENG;Cumberland;Longthwaite;;W2.88;N54.59;10;
2;ENG;Cumberland;Longtown;;W2.97;N55.00;10;
2;ENG;Cumberland;Loppergarth;;W3.15;N54.18;10;
2;ENG;Cumberland;Low Biggins;;W2.61;N54.19;10;
2;ENG;Cumberland;Low Borrowbridge;;W2.60;N54.40;10;
2;ENG;Cumberland;Low Braithwaite;;W2.90;N54.77;10;
2;ENG;Cumberland;Low Cotehill;;W2.82;N54.84;10;
2;ENG;Cumberland;Low Hesket;;W2.84;N54.80;10;
2;ENG;Cumberland;Low Knipe;;W2.75;N54.57;10;
2;ENG;Cumberland;Low Lorton;;W3.31;N54.61;10;
2;ENG;Cumberland;Low Moresby;;W3.56;N54.56;10;
2;ENG;Cumberland;Low Newton;;W2.92;N54.23;10;
2;ENG;Cumberland;Low Row;;W3.27;N54.78;10;
2;ENG;Cumberland;Low Row;;W2.65;N54.96;10;
2;ENG;Cumberland;Low Walton;;W3.57;N54.50;10;
2;ENG;Cumberland;Low Whinnow;;W3.09;N54.84;10;
2;ENG;Cumberland;Low Wood;;W3.01;N54.23;10;
2;ENG;Cumberland;Lowca;;W3.57;N54.57;10;
2;ENG;Cumberland;Lower Hawthwaite;;W3.21;N54.29;10;
2;ENG;Cumberland;Loweswater;;W3.33;N54.56;10;
2;ENG;Cumberland;Lowgill;;W2.58;N54.36;10;
2;ENG;Cumberland;Lowick;;W3.09;N54.26;10;
2;ENG;Cumberland;Lowick Bridge;;W3.09;N54.26;10;
2;ENG;Cumberland;Lowick Green;;W3.09;N54.25;10;
2;ENG;Cumberland;Ludderburn;;W2.92;N54.31;10;
2;ENG;Cumberland;Lune;;W2.60;N54.16;10;
2;ENG;Cumberland;Lyne;;W2.90;N54.99;10;
2;ENG;Cumberland;Mains;;W3.44;N54.60;10;
2;ENG;Cumberland;Mansriggs;;W3.09;N54.21;10;
2;ENG;Cumberland;Marthwaite;;W2.55;N54.31;10;
2;ENG;Cumberland;Marton;;W3.16;N54.18;10;
2;ENG;Cumberland;Maryport;;W3.50;N54.71;10;
2;ENG;Cumberland;Matterdale End;;W2.94;N54.59;10;
2;ENG;Cumberland;Maulds Meaburn;;W2.58;N54.53;10;
2;ENG;Cumberland;Mawbray;;W3.43;N54.80;10;
2;ENG;Cumberland;Meal Bank;;W2.70;N54.34;10;
2;ENG;Cumberland;Mealrigg;;W3.37;N54.79;10;
2;ENG;Cumberland;Mealsgate;;W3.24;N54.76;10;
2;ENG;Cumberland;Meathop;;W2.87;N54.21;10;
2;ENG;Cumberland;Melkinthorpe;;W2.69;N54.61;10;
2;ENG;Cumberland;Mellguards;;W2.87;N54.79;10;
2;ENG;Cumberland;Melmerby;;W2.60;N54.72;10;
2;ENG;Cumberland;Micklethwaite;;W3.12;N54.84;10;
2;ENG;Cumberland;Middlesceugh;;W2.93;N54.76;10;
2;ENG;Cumberland;Middleshaw;;W2.69;N54.29;10;
2;ENG;Cumberland;Middleton Place;;W3.40;N54.31;10;
2;ENG;Cumberland;Middletown;;W3.55;N54.45;10;
2;ENG;Cumberland;Midgeholme;;W2.57;N54.91;10;
2;ENG;Cumberland;Mill Side;;W2.86;N54.24;10;
2;ENG;Cumberland;Millbeck;;W3.16;N54.62;10;
2;ENG;Cumberland;Millgillhead;;W3.44;N54.56;10;
2;ENG;Cumberland;Millholme;;W2.67;N54.30;10;
2;ENG;Cumberland;Millhouse;;W2.99;N54.72;10;
2;ENG;Cumberland;Millness;;W2.72;N54.23;10;
2;ENG;Cumberland;Millom;;W3.27;N54.20;10;
2;ENG;Cumberland;Millthrop;;W2.52;N54.31;10;
2;ENG;Cumberland;Milton;;W2.72;N54.24;10;
2;ENG;Cumberland;Milton;;W2.70;N54.93;10;
2;ENG;Cumberland;Mintsfeet;;W2.75;N54.33;10;
2;ENG;Cumberland;Mirehouse;;W3.57;N54.52;10;
2;ENG;Cumberland;Mite Houses;;W3.41;N54.36;10;
2;ENG;Cumberland;Moat;;W2.92;N55.04;10;
2;ENG;Cumberland;Mockerkin;;W3.41;N54.59;10;
2;ENG;Cumberland;Monkhill;;W3.03;N54.91;10;
2;ENG;Cumberland;Moor Park;;W3.46;N54.72;10;
2;ENG;Cumberland;Moor Row;;W3.54;N54.51;10;
2;ENG;Cumberland;Moor Row;;W3.23;N54.83;10;
2;ENG;Cumberland;Moorclose;;W3.56;N54.62;10;
2;ENG;Cumberland;Moorend;;W3.06;N54.84;10;
2;ENG;Cumberland;Moorhouse;;W3.16;N54.84;10;
2;ENG;Cumberland;Moorhouse;;W3.04;N54.89;10;
2;ENG;Cumberland;Moresby Parks;;W3.56;N54.55;10;
2;ENG;Cumberland;Morton;;W2.87;N54.74;10;
2;ENG;Cumberland;Morton;;W2.96;N54.87;10;
2;ENG;Cumberland;Mosedale;;W3.00;N54.67;10;
2;ENG;Cumberland;Mosedale Beck;;W3.27;N54.45;10;
2;ENG;Cumberland;Moss Side;;W3.26;N54.85;10;
2;ENG;Cumberland;Mossbay;;W3.58;N54.62;10;
2;ENG;Cumberland;Mossedge;;W2.83;N55.00;10;
2;ENG;Cumberland;Mosser;;W3.37;N54.60;10;
2;ENG;Cumberland;Mosser Mains;;W3.37;N54.61;10;
2;ENG;Cumberland;Motherby;;W2.90;N54.64;10;
2;ENG;Cumberland;Mungrisdale;;W2.99;N54.66;10;
2;ENG;Cumberland;Nealhouse;;W3.04;N54.84;10;
2;ENG;Cumberland;Near Sawrey;;W2.97;N54.34;10;
2;ENG;Cumberland;Nenthall;;W2.39;N54.79;10;
2;ENG;Cumberland;Nenthead;;W2.34;N54.78;10;
2;ENG;Cumberland;Nepgill;;W3.45;N54.64;10;
2;ENG;Cumberland;Nether Row;;W3.05;N54.72;10;
2;ENG;Cumberland;Nether Wasdale;;W3.35;N54.42;10;
2;ENG;Cumberland;Nether Welton;;W3.01;N54.79;10;
2;ENG;Cumberland;Netherby;;W2.95;N55.03;10;
2;ENG;Cumberland;Netherton;;W3.50;N54.70;10;
2;ENG;Cumberland;Nethertown;;W3.57;N54.44;10;
2;ENG;Cumberland;New Cowper;;W3.37;N54.79;10;
2;ENG;Cumberland;New Mill;;W3.46;N54.42;10;
2;ENG;Cumberland;Newbarns;;W3.21;N54.12;10;
2;ENG;Cumberland;Newbiggin-on-Lune;;W2.46;N54.44;10;
2;ENG;Cumberland;Newby Bridge;;W2.96;N54.26;10;
2;ENG;Cumberland;Newby East;;W2.82;N54.91;10;
2;ENG;Cumberland;Newby Head;;W2.65;N54.58;10;
2;ENG;Cumberland;Newby West;;W2.99;N54.86;10;
2;ENG;Cumberland;Newland;;W3.07;N54.20;10;
2;ENG;Cumberland;Newland Beck;;W3.20;N54.54;10;
2;ENG;Cumberland;Newland Bottom;;W3.09;N54.21;10;
2;ENG;Cumberland;Newlands;;W3.19;N54.56;10;
2;ENG;Cumberland;Newlands;;W3.02;N54.74;10;
2;ENG;Cumberland;Newton;;W3.19;N54.12;10;
2;ENG;Cumberland;Newton Arlosh;;W3.24;N54.88;10;
2;ENG;Cumberland;Newton Reigny;;W2.82;N54.67;10;
2;ENG;Cumberland;Newton Rigg;;W2.79;N54.67;10;
2;ENG;Cumberland;Newtown;;W3.41;N54.81;10;
2;ENG;Cumberland;Newtown;;W2.96;N54.88;10;
2;ENG;Cumberland;Newtown;;W2.79;N54.95;10;
2;ENG;Cumberland;Nook;;W2.70;N54.22;10;
2;ENG;Cumberland;North Dykes;;W2.71;N54.72;10;
2;ENG;Cumberland;North End;;W3.06;N54.92;10;
2;ENG;Cumberland;North Row;;W3.21;N54.67;10;
2;ENG;Cumberland;North Scale;;W3.25;N54.11;10;
2;ENG;Cumberland;North Side;;W3.55;N54.64;10;
2;ENG;Cumberland;North Stainmore;;W2.26;N54.53;10;
2;ENG;Cumberland;North Walney;;W3.27;N54.11;10;
2;ENG;Cumberland;Nunclose;;W2.79;N54.79;10;
2;ENG;Cumberland;Oakshaw Ford;;W2.76;N55.07;10;
2;ENG;Cumberland;Old Carlisle;;W3.15;N54.80;10;
2;ENG;Cumberland;Old Hutton;;W2.67;N54.28;10;
2;ENG;Cumberland;Old Tebay;;W2.60;N54.43;10;
2;ENG;Cumberland;Old Town;;W2.63;N54.24;10;
2;ENG;Cumberland;Old Town;;W2.82;N54.77;10;
2;ENG;Cumberland;Oldfield;;W3.47;N54.62;10;
2;ENG;Cumberland;Ormathwaite;;W3.14;N54.61;10;
2;ENG;Cumberland;Ormsgill;;W3.24;N54.12;10;
2;ENG;Cumberland;Orthwaite;;W3.16;N54.69;10;
2;ENG;Cumberland;Orton Rigg;;W3.04;N54.85;10;
2;ENG;Cumberland;Oughterby;;W3.10;N54.88;10;
2;ENG;Cumberland;Oughterside;;W3.38;N54.74;10;
2;ENG;Cumberland;Oulton;;W3.18;N54.83;10;
2;ENG;Cumberland;Ousby;;W2.59;N54.70;10;
2;ENG;Cumberland;Outcast;;W3.07;N54.18;10;
2;ENG;Cumberland;Outgate;;W3.00;N54.38;10;
2;ENG;Cumberland;Outhgill;;W2.34;N54.40;10;
2;ENG;Cumberland;Oxen Park;;W3.06;N54.27;10;
2;ENG;Cumberland;Oxenholme;;W2.72;N54.29;10;
2;ENG;Cumberland;Pallaflat;;W3.56;N54.49;10;
2;ENG;Cumberland;Papcastle;;W3.39;N54.66;10;
2;ENG;Cumberland;Pardshaw;;W3.41;N54.60;10;
2;ENG;Cumberland;Pardshaw Hall;;W3.39;N54.61;10;
2;ENG;Cumberland;Park Broom;;W2.89;N54.91;10;
2;ENG;Cumberland;Park Head;;W2.65;N54.76;10;
2;ENG;Cumberland;Parkgate;;W3.23;N54.80;10;
2;ENG;Cumberland;Parkhead;;W3.04;N54.75;10;
2;ENG;Cumberland;Parkside;;W3.50;N54.52;10;
2;ENG;Cumberland;Parsonby;;W3.33;N54.73;10;
2;ENG;Cumberland;Parton;;W3.59;N54.56;10;
2;ENG;Cumberland;Parton;;W3.13;N54.83;10;
2;ENG;Cumberland;Pategill;;W2.74;N54.65;10;
2;ENG;Cumberland;Patton Bridge;;W2.69;N54.36;10;
2;ENG;Cumberland;Pelutho;;W3.37;N54.82;10;
2;ENG;Cumberland;Pennington;;W3.13;N54.18;10;
2;ENG;Cumberland;Penny Bridge;;W3.06;N54.23;10;
2;ENG;Cumberland;Penrith;;W2.76;N54.66;10;
2;ENG;Cumberland;Penruddock;;W2.90;N54.63;10;
2;ENG;Cumberland;Petteril;;W2.87;N54.84;10;
2;ENG;Cumberland;Pica;;W3.51;N54.58;10;
2;ENG;Cumberland;Plantation Bridge;;W2.80;N54.35;10;
2;ENG;Cumberland;Plumbland;;W3.32;N54.73;10;
2;ENG;Cumberland;Plumpton;;W2.79;N54.72;10;
2;ENG;Cumberland;Plumpton Foot;;W2.80;N54.74;10;
2;ENG;Cumberland;Poaka Beck;;W3.16;N54.18;10;
2;ENG;Cumberland;Ponsonby;;W3.46;N54.43;10;
2;ENG;Cumberland;Pooley Bridge;;W2.82;N54.60;10;
2;ENG;Cumberland;Port Carlisle;;W3.18;N54.94;10;
2;ENG;Cumberland;Portinscale;;W3.16;N54.59;10;
2;ENG;Cumberland;Powhill;;W3.20;N54.88;10;
2;ENG;Cumberland;Prior Rigg;;W2.84;N55.00;10;
2;ENG;Cumberland;Prospect;;W3.38;N54.74;10;
2;ENG;Cumberland;Quality Corner;;W3.57;N54.55;10;
2;ENG;Cumberland;Raby;;W3.27;N54.84;10;
2;ENG;Cumberland;Raisbeck;;W2.55;N54.45;10;
2;ENG;Cumberland;Raise;;W2.45;N54.80;10;
2;ENG;Cumberland;Rampside;;W3.16;N54.08;10;
2;ENG;Cumberland;Ratten Row;;W3.05;N54.75;10;
2;ENG;Cumberland;Ratten Row;;W2.95;N54.83;10;
2;ENG;Cumberland;Raughton;;W2.95;N54.81;10;
2;ENG;Cumberland;Rauhgton Head;;W2.98;N54.79;10;
2;ENG;Cumberland;Ravenglass;;W3.41;N54.35;10;
2;ENG;Cumberland;Ravenstown;;W2.98;N54.16;10;
2;ENG;Cumberland;Reagill;;W2.61;N54.54;10;
2;ENG;Cumberland;Red Dial;;W3.16;N54.79;10;
2;ENG;Cumberland;Redhills;;W2.77;N54.64;10;
2;ENG;Cumberland;Redmain;;W3.35;N54.68;10;
2;ENG;Cumberland;Renwick;;W2.63;N54.78;10;
2;ENG;Cumberland;Reston;;W2.84;N54.37;10;
2;ENG;Cumberland;Rickerby;;W2.92;N54.89;10;
2;ENG;Cumberland;Rigg Beck;;W2.37;N54.49;10;
2;ENG;Cumberland;Risehow;;W3.52;N54.69;10;
2;ENG;Cumberland;Roa Island;;W3.17;N54.06;10;
2;ENG;Cumberland;Roadhead;;W2.76;N55.05;10;
2;ENG;Cumberland;Robbery Water;;W2.53;N54.70;10;
2;ENG;Cumberland;Rockcliffe;;W3.01;N54.93;10;
2;ENG;Cumberland;Rockcliffe Cross;;W3.03;N54.94;10;
2;ENG;Cumberland;Roger Ground;;W3.00;N54.36;10;
2;ENG;Cumberland;Rookby;;W2.31;N54.48;10;
2;ENG;Cumberland;Rooking;;W2.92;N54.52;10;
2;ENG;Cumberland;Roose;;W3.19;N54.11;10;
2;ENG;Cumberland;Roosebeck;;W3.14;N54.09;10;
2;ENG;Cumberland;Roosecote;;W3.19;N54.10;10;
2;ENG;Cumberland;Rosgill;;W2.72;N54.53;10;
2;ENG;Cumberland;Rosley;;W3.05;N54.79;10;
2;ENG;Cumberland;Rosthwaite;;W3.16;N54.30;10;
2;ENG;Cumberland;Rosthwaite;;W3.16;N54.51;10;
2;ENG;Cumberland;Rottington;;W3.60;N54.50;10;
2;ENG;Cumberland;Roughsike;;W2.75;N55.06;10;
2;ENG;Cumberland;Roundthwaite;;W2.61;N54.42;10;
2;ENG;Cumberland;Row;;W2.84;N54.29;10;
2;ENG;Cumberland;Row;;W2.59;N54.70;10;
2;ENG;Cumberland;Row Brow;;W3.42;N54.71;10;
2;ENG;Cumberland;Rowe Head;;W3.13;N54.18;10;
2;ENG;Cumberland;Rowrah;;W3.47;N54.54;10;
2;ENG;Cumberland;Ruckcroft;;W2.73;N54.78;10;
2;ENG;Cumberland;Rushland Cross;;W3.01;N54.28;10;
2;ENG;Cumberland;Rusland;;W3.03;N54.29;10;
2;ENG;Cumberland;Ruthwaite;;W3.19;N54.71;10;
2;ENG;Cumberland;Rydal;;W2.98;N54.44;10;
2;ENG;Cumberland;Sadgill;;W2.80;N54.43;10;
2;ENG;Cumberland;Salkeld Dykes;;W2.71;N54.71;10;
2;ENG;Cumberland;Salt Cotes;;W3.27;N54.86;10;
2;ENG;Cumberland;Salta;;W3.43;N54.79;10;
2;ENG;Cumberland;Saltcoats;;W3.43;N54.35;10;
2;ENG;Cumberland;Salterbeck;;W3.56;N54.61;10;
2;ENG;Cumberland;Salthouse;;W3.22;N54.11;10;
2;ENG;Cumberland;Sand Gate;;W2.99;N54.16;10;
2;ENG;Cumberland;Sand Side;;W3.19;N54.22;10;
2;ENG;Cumberland;Sandale;;W3.18;N54.74;10;
2;ENG;Cumberland;Sandford;;W2.43;N54.53;10;
2;ENG;Cumberland;Sandside;;W3.07;N54.18;10;
2;ENG;Cumberland;Sandside;;W2.79;N54.21;10;
2;ENG;Cumberland;Sandwith;;W3.60;N54.51;10;
2;ENG;Cumberland;Sandwith Newtown;;W3.60;N54.51;10;
2;ENG;Cumberland;Santon;;W3.38;N54.39;10;
2;ENG;Cumberland;Santon Bridge;;W3.37;N54.39;10;
2;ENG;Cumberland;Satterthwaite;;W3.03;N54.31;10;
2;ENG;Cumberland;Scafell Pike;;W3.21;N54.45;10;
2;ENG;Cumberland;Scaleby;;W2.87;N54.95;10;
2;ENG;Cumberland;Scalebyhill;;W2.87;N54.95;10;
2;ENG;Cumberland;Scales;;W3.11;N54.13;10;
2;ENG;Cumberland;Scales;;W3.02;N54.62;10;
2;ENG;Cumberland;Scales;;W2.66;N54.77;10;
2;ENG;Cumberland;Scanda;;W2.37;N54.39;10;
2;ENG;Cumberland;Scar Head;;W3.10;N54.33;10;
2;ENG;Cumberland;Scarness;;W3.21;N54.65;10;
2;ENG;Cumberland;Scilly Bank;;W3.56;N54.55;10;
2;ENG;Cumberland;Scotby;;W2.87;N54.87;10;
2;ENG;Cumberland;Scout Green;;W2.63;N54.45;10;
2;ENG;Cumberland;Scuggate;;W2.87;N55.05;10;
2;ENG;Cumberland;Sea Mill;;W3.11;N54.11;10;
2;ENG;Cumberland;Seascale;;W3.49;N54.39;10;
2;ENG;Cumberland;Seathwaite;;W3.20;N54.35;10;
2;ENG;Cumberland;Seathwaite;;W3.19;N54.49;10;
2;ENG;Cumberland;Seatle;;W2.96;N54.23;10;
2;ENG;Cumberland;Seatoller;;W3.17;N54.50;10;
2;ENG;Cumberland;Seaton;;W3.53;N54.65;10;
2;ENG;Cumberland;Seaville;;W3.31;N54.86;10;
2;ENG;Cumberland;Sebergham;;W3.01;N54.76;10;
2;ENG;Cumberland;Sedbergh;;W2.53;N54.32;10;
2;ENG;Cumberland;Selside;;W2.72;N54.38;10;
2;ENG;Cumberland;Shopford;;W2.69;N55.05;10;
2;ENG;Cumberland;Shoregill;;W2.35;N54.40;10;
2;ENG;Cumberland;Siddick;;W3.55;N54.66;10;
2;ENG;Cumberland;Silecroft;;W3.33;N54.21;10;
2;ENG;Cumberland;Silloth;;W3.38;N54.86;10;
2;ENG;Cumberland;Skelton;;W2.88;N54.70;10;
2;ENG;Cumberland;Skelwith Bridge;;W3.01;N54.41;10;
2;ENG;Cumberland;Skiddaw;;W3.14;N54.65;10;
2;ENG;Cumberland;Skinburness;;W3.37;N54.88;10;
2;ENG;Cumberland;Skiprigg;;W2.96;N54.79;10;
2;ENG;Cumberland;Skirwith;;W2.60;N54.68;10;
2;ENG;Cumberland;Skitby;;W2.87;N54.97;10;
2;ENG;Cumberland;Slack Head;;W2.78;N54.19;10;
2;ENG;Cumberland;Sleetbeck;;W2.78;N55.07;10;
2;ENG;Cumberland;Smithfield;;W2.87;N54.97;10;
2;ENG;Cumberland;Sour Nook;;W2.98;N54.75;10;
2;ENG;Cumberland;Soutergate;;W3.19;N54.21;10;
2;ENG;Cumberland;South End;;W3.22;N54.05;10;
2;ENG;Cumberland;South Newbarns;;W3.21;N54.11;10;
2;ENG;Cumberland;South Stainmore;;W2.24;N54.51;10;
2;ENG;Cumberland;South Tyne;;W2.38;N54.73;10;
2;ENG;Cumberland;South Ulverston;;W3.07;N54.19;10;
2;ENG;Cumberland;Southam;;W3.56;N54.49;10;
2;ENG;Cumberland;Southernby;;W2.99;N54.74;10;
2;ENG;Cumberland;Southwaite;;W2.85;N54.78;10;
2;ENG;Cumberland;Sowerby Row;;W2.94;N54.75;10;
2;ENG;Cumberland;Spark Bridge;;W3.07;N54.24;10;
2;ENG;Cumberland;Spring Bank;;W3.20;N54.60;10;
2;ENG;Cumberland;Sprint;;W2.72;N54.40;10;
2;ENG;Cumberland;Sprunston;;W2.95;N54.82;10;
2;ENG;Cumberland;St Bees;;W3.59;N54.48;10;
2;ENG;Cumberland;St Bees Head;;W3.63;N54.51;10;
2;ENG;Cumberland;St Helens;;W3.53;N54.67;10;
2;ENG;Cumberland;St John's Beck;;W3.06;N54.57;10;
2;ENG;Cumberland;Staffield;;W2.71;N54.77;10;
2;ENG;Cumberland;Stainburn;;W3.52;N54.64;10;
2;ENG;Cumberland;Stainton with Adgarley;;W3.16;N54.13;10;
2;ENG;Cumberland;Stair;;W3.19;N54.57;10;
2;ENG;Cumberland;Standingstone;;W3.16;N54.83;10;
2;ENG;Cumberland;Stank;;W3.17;N54.12;10;
2;ENG;Cumberland;Stanwix;;W2.95;N54.90;10;
2;ENG;Cumberland;Stapleton;;W2.78;N55.03;10;
2;ENG;Cumberland;Station Hill;;W3.16;N54.83;10;
2;ENG;Cumberland;Staveley;;W2.83;N54.37;10;
2;ENG;Cumberland;Staveley-in-Cartmel;;W2.96;N54.26;10;
2;ENG;Cumberland;Steel Green;;W3.28;N54.19;10;
2;ENG;Cumberland;Stockdalewath;;W2.96;N54.78;10;
2;ENG;Cumberland;Stone House;;W2.35;N54.26;10;
2;ENG;Cumberland;Stone Raise;;W2.93;N54.83;10;
2;ENG;Cumberland;Stonethwaite;;W3.14;N54.50;10;
2;ENG;Cumberland;Storrs;;W2.93;N54.33;10;
2;ENG;Cumberland;Storth;;W2.81;N54.20;10;
2;ENG;Cumberland;Strands;;W3.26;N54.24;10;
2;ENG;Cumberland;Strawberry Bank;;W2.90;N54.29;10;
2;ENG;Cumberland;Street;;W2.58;N54.46;10;
2;ENG;Cumberland;Stubble Green;;W3.46;N54.37;10;
2;ENG;Cumberland;Styhead Gill;;W3.20;N54.47;10;
2;ENG;Cumberland;Summerlands;;W2.72;N54.26;10;
2;ENG;Cumberland;Sunbrick;;W3.10;N54.14;10;
2;ENG;Cumberland;Sunderland;;W3.28;N54.70;10;
2;ENG;Cumberland;Swallohurst;;W3.38;N54.30;10;
2;ENG;Cumberland;Swarthmoor;;W3.12;N54.18;10;
2;ENG;Cumberland;Sweetholme;;W2.69;N54.55;10;
2;ENG;Cumberland;Swindale Beck;;W2.77;N54.50;10;
2;ENG;Cumberland;Swinside;;W3.17;N54.57;10;
2;ENG;Cumberland;Talkin;;W2.71;N54.90;10;
2;ENG;Cumberland;Tallentire;;W3.39;N54.70;10;
2;ENG;Cumberland;Tarns;;W3.38;N54.81;10;
2;ENG;Cumberland;Tarnside;;W2.87;N54.30;10;
2;ENG;Cumberland;Tarraby;;W2.93;N54.91;10;
2;ENG;Cumberland;Tees;;W2.36;N54.69;10;
2;ENG;Cumberland;Thackthwaite;;W3.33;N54.59;10;
2;ENG;Cumberland;The Green;;W2.98;N54.17;10;
2;ENG;Cumberland;The Green;;W3.27;N54.24;10;
2;ENG;Cumberland;The Hill;;W3.27;N54.23;10;
2;ENG;Cumberland;The Howe;;W2.84;N54.28;10;
2;ENG;Cumberland;Thethwaite;;W2.98;N54.78;10;
2;ENG;Cumberland;Thomas Close;;W2.88;N54.75;10;
2;ENG;Cumberland;Thornby;;W3.10;N54.85;10;
2;ENG;Cumberland;Thornhill;;W3.52;N54.45;10;
2;ENG;Cumberland;Thornthwaite;;W3.20;N54.61;10;
2;ENG;Cumberland;Thorpe;;W2.79;N54.62;10;
2;ENG;Cumberland;Threapland;;W3.32;N54.73;10;
2;ENG;Cumberland;Threlkeld;;W3.07;N54.61;10;
2;ENG;Cumberland;Thursby;;W3.06;N54.84;10;
2;ENG;Cumberland;Thurstonfield;;W3.07;N54.89;10;
2;ENG;Cumberland;Thwaite Flat;;W3.21;N54.15;10;
2;ENG;Cumberland;Thwaite Head;;W3.01;N54.30;10;
2;ENG;Cumberland;Tindale;;W2.61;N54.92;10;
2;ENG;Cumberland;Tirril;;W2.77;N54.62;10;
2;ENG;Cumberland;Tivoli;;W3.56;N54.56;10;
2;ENG;Cumberland;Todhills;;W3.00;N54.95;10;
2;ENG;Cumberland;Torpenhow;;W3.24;N54.74;10;
2;ENG;Cumberland;Torver;;W3.10;N54.33;10;
2;ENG;Cumberland;Tottlebank;;W3.06;N54.24;10;
2;ENG;Cumberland;Town End;;W2.58;N54.23;10;
2;ENG;Cumberland;Town End;;W2.86;N54.24;10;
2;ENG;Cumberland;Town End;;W2.98;N54.27;10;
2;ENG;Cumberland;Town End;;W3.00;N54.37;10;
2;ENG;Cumberland;Town End;;W2.92;N54.41;10;
2;ENG;Cumberland;Town End;;W3.01;N54.44;10;
2;ENG;Cumberland;Town End;;W2.57;N54.61;10;
2;ENG;Cumberland;Town Head;;W2.91;N54.41;10;
2;ENG;Cumberland;Town Head;;W3.03;N54.47;10;
2;ENG;Cumberland;Town Head;;W2.51;N54.50;10;
2;ENG;Cumberland;Town Head;;W2.58;N54.52;10;
2;ENG;Cumberland;Town Head;;W2.62;N54.59;10;
2;ENG;Cumberland;Town Head;;W2.48;N54.61;10;
2;ENG;Cumberland;Town Head;;W2.55;N54.61;10;
2;ENG;Cumberland;Town Head;;W2.65;N54.61;10;
2;ENG;Cumberland;Towngate;;W2.74;N54.80;10;
2;ENG;Cumberland;Townhead;;W2.57;N54.70;10;
2;ENG;Cumberland;Townhead;;W3.44;N54.70;10;
2;ENG;Cumberland;Townhead;;W2.71;N54.74;10;
2;ENG;Cumberland;Trout Beck;;W2.93;N54.38;10;
2;ENG;Cumberland;Troutbeck Bridge;;W2.92;N54.39;10;
2;ENG;Cumberland;Ulcat Row;;W2.93;N54.59;10;
2;ENG;Cumberland;Uldale;;W3.18;N54.71;10;
2;ENG;Cumberland;Ullock;;W3.17;N54.59;10;
2;ENG;Cumberland;Ullock;;W3.44;N54.59;10;
2;ENG;Cumberland;Ulpha;;W3.24;N54.32;10;
2;ENG;Cumberland;Ulverston;;W3.10;N54.19;10;
2;ENG;Cumberland;Underbarrow;;W2.83;N54.32;10;
2;ENG;Cumberland;Unthank;;W2.85;N54.71;10;
2;ENG;Cumberland;Unthank;;W2.62;N54.75;10;
2;ENG;Cumberland;Unthank;;W2.95;N54.82;10;
2;ENG;Cumberland;Upper Denton;;W2.61;N54.97;10;
2;ENG;Cumberland;Upperby;;W2.93;N54.86;10;
2;ENG;Cumberland;Upton;;W3.05;N54.74;10;
2;ENG;Cumberland;Vickerstown;;W3.25;N54.10;10;
2;ENG;Cumberland;Walby;;W2.89;N54.93;10;
2;ENG;Cumberland;Wall End;;W3.18;N54.23;10;
2;ENG;Cumberland;Walney Island;;W3.24;N54.08;10;
2;ENG;Cumberland;Walton;;W2.75;N54.96;10;
2;ENG;Cumberland;Wampoo;;W3.11;N54.84;10;
2;ENG;Cumberland;Wampool;;W3.18;N54.87;10;
2;ENG;Cumberland;Warwick Bridge;;W2.82;N54.89;10;
2;ENG;Cumberland;Warwick-on-Eden;;W2.84;N54.89;10;
2;ENG;Cumberland;Warwicksland;;W2.87;N55.08;10;
2;ENG;Cumberland;Wasdale;;W2.72;N54.45;10;
2;ENG;Cumberland;Wasdale Beck;;W2.73;N54.54;10;
2;ENG;Cumberland;Wasdale Head;;W3.26;N54.46;10;
2;ENG;Cumberland;Wast Water;;W3.29;N54.44;10;
2;ENG;Cumberland;Watchgate;;W2.74;N54.38;10;
2;ENG;Cumberland;Watchhill;;W3.27;N54.76;10;
2;ENG;Cumberland;Watendlath;;W3.12;N54.53;10;
2;ENG;Cumberland;Water Garth Nook;;W3.25;N54.09;10;
2;ENG;Cumberland;Water Yeat;;W3.10;N54.29;10;
2;ENG;Cumberland;Waterend;;W3.37;N54.58;10;
2;ENG;Cumberland;Waterfoot;;W2.85;N54.60;10;
2;ENG;Cumberland;Waterhead;;W2.97;N54.41;10;
2;ENG;Cumberland;Watermillock;;W2.86;N54.59;10;
2;ENG;Cumberland;Waterside;;W3.21;N54.79;10;
2;ENG;Cumberland;Wath;;W2.49;N54.43;10;
2;ENG;Cumberland;Wath Brow;;W3.51;N54.51;10;
2;ENG;Cumberland;Waver;;W3.29;N54.86;10;
2;ENG;Cumberland;Waverbridge;;W3.21;N54.83;10;
2;ENG;Cumberland;Waverton;;W3.21;N54.81;10;
2;ENG;Cumberland;Weasdale;;W2.47;N54.42;10;
2;ENG;Cumberland;Wellington;;W3.43;N54.42;10;
2;ENG;Cumberland;Welton;;W3.01;N54.78;10;
2;ENG;Cumberland;West Curthwaite;;W3.05;N54.82;10;
2;ENG;Cumberland;West End;;W3.06;N54.91;10;
2;ENG;Cumberland;Western Bank;;W3.18;N54.82;10;
2;ENG;Cumberland;Westfield;;W3.56;N54.62;10;
2;ENG;Cumberland;Westlinton;;W2.95;N54.96;10;
2;ENG;Cumberland;Westmoor End;;W3.39;N54.73;10;
2;ENG;Cumberland;Westnewton;;W3.35;N54.78;10;
2;ENG;Cumberland;Westward;;W3.13;N54.78;10;
2;ENG;Cumberland;Wetheral;;W2.84;N54.87;10;
2;ENG;Cumberland;Wetheral Plain;;W2.84;N54.88;10;
2;ENG;Cumberland;Whale;;W2.74;N54.58;10;
2;ENG;Cumberland;Whasset;;W2.76;N54.22;10;
2;ENG;Cumberland;Whelpo;;W3.08;N54.74;10;
2;ENG;Cumberland;Whicham;;W3.33;N54.22;10;
2;ENG;Cumberland;Whitbeck;;W3.36;N54.24;10;
2;ENG;Cumberland;White Lyne;;W2.67;N55.11;10;
2;ENG;Cumberland;Whiteclosegate;;W2.92;N54.90;10;
2;ENG;Cumberland;Whitehaven;;W3.59;N54.54;10;
2;ENG;Cumberland;Whitrigg;;W3.24;N54.73;10;
2;ENG;Cumberland;Whitrigg;;W3.21;N54.90;10;
2;ENG;Cumberland;Whitsundale Beck;;W2.24;N54.44;10;
2;ENG;Cumberland;Wiggonby;;W3.10;N54.86;10;
2;ENG;Cumberland;Wigton;;W3.16;N54.82;10;
2;ENG;Cumberland;Willow Holme;;W2.95;N54.89;10;
2;ENG;Cumberland;Wilton;;W3.49;N54.48;10;
2;ENG;Cumberland;Wind Hill;;W3.11;N54.13;10;
2;ENG;Cumberland;Winder;;W3.48;N54.53;10;
2;ENG;Cumberland;Winscales;;W3.51;N54.62;10;
2;ENG;Cumberland;Winskill;;W2.65;N54.69;10;
2;ENG;Cumberland;Winster;;W2.90;N54.32;10;
2;ENG;Cumberland;Wolsty;;W3.40;N54.83;10;
2;ENG;Cumberland;Woodend;;W3.29;N54.35;10;
2;ENG;Cumberland;Woodhouse;;W2.75;N54.24;10;
2;ENG;Cumberland;Woodhouse;;W3.59;N54.52;10;
2;ENG;Cumberland;Woodhouses;;W3.06;N54.85;10;
2;ENG;Cumberland;Woodland;;W3.16;N54.29;10;
2;ENG;Cumberland;Woodrow;;W3.21;N54.79;10;
2;ENG;Cumberland;Workington;;W3.56;N54.62;10;
2;ENG;Cumberland;Wreaks End;;W3.19;N54.26;10;
2;ENG;Cumberland;Wreay;;W2.86;N54.59;10;
2;ENG;Cumberland;Wreay;;W2.88;N54.82;10;
2;ENG;Cumberland;Wyth Burn;;W3.10;N54.46;10;
2;ENG;Cumberland;Wythop Mill;;W3.28;N54.64;10;
2;ENG;Cumberland;Yarlside;;W3.19;N54.11;10;
2;ENG;Cumberland;Yearngill;;W3.33;N54.78;10;
2;ENG;Cumberland;Yottenfews;;W3.49;N54.43;10;