"Level";"Country";"County";"Place";"void";"Longitude";"Latitude";"ZoomLevel";"Icon"
2;ENG;Hampshire;Abbots Worthy;;W1.30;N51.08;10;
2;ENG;Hampshire;Abbotstone;;W1.20;N51.10;10;
2;ENG;Hampshire;Abbotswood;;W1.48;N51.00;10;
2;ENG;Hampshire;Abbotts Ann;;W1.54;N51.18;10;
2;ENG;Hampshire;Abshot;;W1.27;N50.84;10;
2;ENG;Hampshire;Aldermoor;;W1.44;N50.93;10;
2;ENG;Hampshire;Aldershot;;W0.76;N51.24;10;
2;ENG;Hampshire;Allbrook;;W1.36;N50.98;10;
2;ENG;Hampshire;Alton;;W0.98;N51.14;10;
2;ENG;Hampshire;Alverstoke;;W1.16;N50.77;10;
2;ENG;Hampshire;Ampfield;;W1.43;N51.00;10;
2;ENG;Hampshire;Amport;;W1.58;N51.19;10;
2;ENG;Hampshire;Anchorage Park;;W1.05;N50.82;10;
2;ENG;Hampshire;Andover;;W1.48;N51.20;10;
2;ENG;Hampshire;Andover Down;;W1.44;N51.20;10;
2;ENG;Hampshire;Andwell;;W1.01;N51.26;10;
2;ENG;Hampshire;Anmore;;W1.04;N50.89;10;
2;ENG;Hampshire;Anna Valley;;W1.51;N51.18;10;
2;ENG;Hampshire;Ann's Hill;;W1.16;N50.79;10;
2;ENG;Hampshire;Anthill Common;;W1.09;N50.90;10;
2;ENG;Hampshire;Anton;;W1.37;N51.21;10;
2;ENG;Hampshire;Applemore;;W1.44;N50.86;10;
2;ENG;Hampshire;Appleshaw;;W1.57;N51.23;10;
2;ENG;Hampshire;Arford;;W0.82;N51.11;10;
2;ENG;Hampshire;Ashansworth;;W1.41;N51.31;10;
2;ENG;Hampshire;Ashe;;W1.24;N51.24;10;
2;ENG;Hampshire;Ashfield;;W1.48;N50.96;10;
2;ENG;Hampshire;Ashford Hill;;W1.21;N51.35;10;
2;ENG;Hampshire;Ashlett;;W1.34;N50.82;10;
2;ENG;Hampshire;Ashley;;W1.64;N50.75;10;
2;ENG;Hampshire;Ashley;;W1.45;N51.06;10;
2;ENG;Hampshire;Ashley Clinton;;W1.63;N50.73;10;
2;ENG;Hampshire;Ashton;;W1.23;N50.96;10;
2;ENG;Hampshire;Ashurst;;W1.53;N50.88;10;
2;ENG;Hampshire;Ashurst Bridge;;W1.51;N50.90;10;
2;ENG;Hampshire;Avington;;W1.24;N51.08;10;
2;ENG;Hampshire;Avon;;W1.77;N50.94;10;
2;ENG;Hampshire;Avon Water;;W1.61;N50.78;10;
2;ENG;Hampshire;Awbridge;;W1.53;N51.00;10;
2;ENG;Hampshire;Axford;;W1.12;N51.18;10;
2;ENG;Hampshire;Axmansford;;W1.19;N51.34;10;
2;ENG;Hampshire;Baffins;;W1.06;N50.80;10;
2;ENG;Hampshire;Bagmore;;W1.05;N51.19;10;
2;ENG;Hampshire;Bailey Green;;W1.05;N51.03;10;
2;ENG;Hampshire;Ball Hill;;W1.39;N51.36;10;
2;ENG;Hampshire;Balmerlawn;;W1.57;N50.82;10;
2;ENG;Hampshire;Bank;;W1.60;N50.86;10;
2;ENG;Hampshire;Bar End;;W1.31;N51.04;10;
2;ENG;Hampshire;Barford;;W0.78;N51.12;10;
2;ENG;Hampshire;Bartley;;W1.57;N50.91;10;
2;ENG;Hampshire;Barton on Sea;;W1.67;N50.73;10;
2;ENG;Hampshire;Barton Stacey;;W1.38;N51.16;10;
2;ENG;Hampshire;Bashley;;W1.66;N50.77;10;
2;ENG;Hampshire;Bashley Park;;W1.66;N50.77;10;
2;ENG;Hampshire;Basingstoke;;W1.09;N51.26;10;
2;ENG;Hampshire;Basingstoke Canal;;W1.00;N51.26;10;
2;ENG;Hampshire;Bassett;;W1.41;N50.94;10;
2;ENG;Hampshire;Bassett Green;;W1.40;N50.94;10;
2;ENG;Hampshire;Battramsley;;W1.57;N50.78;10;
2;ENG;Hampshire;Battramsley Cross;;W1.56;N50.78;10;
2;ENG;Hampshire;Batt's Corner;;W0.84;N51.16;10;
2;ENG;Hampshire;Baughurst;;W1.16;N51.33;10;
2;ENG;Hampshire;Baybridge;;W1.26;N51.00;10;
2;ENG;Hampshire;Beaulieu;;W1.46;N50.81;10;
2;ENG;Hampshire;Beauworth;;W1.18;N51.02;10;
2;ENG;Hampshire;Beckley;;W1.68;N50.76;10;
2;ENG;Hampshire;Bedhampton;;W1.00;N50.84;10;
2;ENG;Hampshire;Beech;;W1.01;N51.13;10;
2;ENG;Hampshire;Bell Hill;;W0.94;N51.01;10;
2;ENG;Hampshire;Bentley;;W0.88;N51.19;10;
2;ENG;Hampshire;Bentworth;;W1.05;N51.15;10;
2;ENG;Hampshire;Bickton;;W1.80;N50.90;10;
2;ENG;Hampshire;Bidden;;W0.99;N51.23;10;
2;ENG;Hampshire;Bighton;;W1.13;N51.10;10;
2;ENG;Hampshire;Binley;;W1.39;N51.27;10;
2;ENG;Hampshire;Binstead;;W0.90;N51.16;10;
2;ENG;Hampshire;Birchy Hill;;W1.60;N50.78;10;
2;ENG;Hampshire;Bishop's Green;;W1.28;N51.36;10;
2;ENG;Hampshire;Bishop's Sutton;;W1.14;N51.07;10;
2;ENG;Hampshire;Bishop's Waltham;;W1.21;N50.94;10;
2;ENG;Hampshire;Bishopstoke;;W1.34;N50.96;10;
2;ENG;Hampshire;Bisterne;;W1.80;N50.80;10;
2;ENG;Hampshire;Bisterne Close;;W1.68;N50.81;10;
2;ENG;Hampshire;Bitterne;;W1.36;N50.91;10;
2;ENG;Hampshire;Bitterne Park;;W1.37;N50.92;10;
2;ENG;Hampshire;Black Dam;;W1.08;N51.25;10;
2;ENG;Hampshire;Blackdown;;W1.24;N50.99;10;
2;ENG;Hampshire;Blackfield;;W1.37;N50.80;10;
2;ENG;Hampshire;Blackhill;;W1.57;N50.96;10;
2;ENG;Hampshire;Blackmoor;;W0.90;N51.09;10;
2;ENG;Hampshire;Blacknest;;W0.87;N51.16;10;
2;ENG;Hampshire;Blackwater;;W1.81;N50.75;10;
2;ENG;Hampshire;Blackwater;;W0.75;N51.23;10;
2;ENG;Hampshire;Blackwater;;W0.78;N51.32;10;
2;ENG;Hampshire;Blashford;;W1.78;N50.85;10;
2;ENG;Hampshire;Bleak Hill;;W1.81;N50.89;10;
2;ENG;Hampshire;Blendworth;;W0.99;N50.91;10;
2;ENG;Hampshire;Blissford;;W1.75;N50.91;10;
2;ENG;Hampshire;Boarhunt;;W1.14;N50.86;10;
2;ENG;Hampshire;Bohemia;;W1.71;N50.97;10;
2;ENG;Hampshire;Boldre;;W1.54;N50.78;10;
2;ENG;Hampshire;Boorley Green;;W1.28;N50.92;10;
2;ENG;Hampshire;Bordon;;W0.87;N51.10;10;
2;ENG;Hampshire;Boscombe;;W1.84;N50.71;10;
2;ENG;Hampshire;Bossington;;W1.53;N51.07;10;
2;ENG;Hampshire;Botley;;W1.27;N50.91;10;
2;ENG;Hampshire;Bournemouth;;W1.88;N50.71;10;
2;ENG;Hampshire;Bowling Alley;;W0.86;N51.23;10;
2;ENG;Hampshire;Bowling Green;;W1.59;N50.76;10;
2;ENG;Hampshire;Bowyer's Common;;W0.91;N51.02;10;
2;ENG;Hampshire;Boyatt Wood;;W1.37;N50.97;10;
2;ENG;Hampshire;Bradley;;W1.10;N51.16;10;
2;ENG;Hampshire;Braishfield;;W1.47;N51.02;10;
2;ENG;Hampshire;Brambridge;;W1.33;N50.98;10;
2;ENG;Hampshire;Bramdean;;W1.13;N51.04;10;
2;ENG;Hampshire;Bramley;;W1.06;N51.32;10;
2;ENG;Hampshire;Bramley Corner;;W1.09;N51.32;10;
2;ENG;Hampshire;Bramley Green;;W1.05;N51.31;10;
2;ENG;Hampshire;Bramshaw;;W1.61;N50.93;10;
2;ENG;Hampshire;Bramshill;;W0.93;N51.34;10;
2;ENG;Hampshire;Bramshott;;W0.80;N51.08;10;
2;ENG;Hampshire;Bransbury;;W1.40;N51.17;10;
2;ENG;Hampshire;Breamore;;W1.78;N50.96;10;
2;ENG;Hampshire;Bridgemary;;W1.17;N50.82;10;
2;ENG;Hampshire;Brighton Hill;;W1.11;N51.23;10;
2;ENG;Hampshire;Brimpton Common;;W1.19;N51.36;10;
2;ENG;Hampshire;Broad Laying;;W1.38;N51.35;10;
2;ENG;Hampshire;Broad Oak;;W0.92;N51.25;10;
2;ENG;Hampshire;Broadgate;;W1.41;N50.99;10;
2;ENG;Hampshire;Broadmere;;W1.12;N51.21;10;
2;ENG;Hampshire;Broadoak;;W1.29;N50.91;10;
2;ENG;Hampshire;Brockbridge;;W1.13;N50.95;10;
2;ENG;Hampshire;Brockenhurst;;W1.58;N50.81;10;
2;ENG;Hampshire;Brockhampton;;W0.99;N50.84;10;
2;ENG;Hampshire;Brockhurst;;W1.16;N50.80;10;
2;ENG;Hampshire;Brock's Green;;W1.28;N51.34;10;
2;ENG;Hampshire;Brook;;W1.61;N50.92;10;
2;ENG;Hampshire;Brook;;W1.51;N51.05;10;
2;ENG;Hampshire;Brook Hill;;W1.61;N50.92;10;
2;ENG;Hampshire;Broughton;;W1.57;N51.08;10;
2;ENG;Hampshire;Brown Candover;;W1.18;N51.14;10;
2;ENG;Hampshire;Brown Heath;;W1.26;N50.94;10;
2;ENG;Hampshire;Browninghill Green;;W1.16;N51.32;10;
2;ENG;Hampshire;Bucket Corner;;W1.43;N50.98;10;
2;ENG;Hampshire;Buckland;;W1.56;N50.76;10;
2;ENG;Hampshire;Bucklers Hard;;W1.43;N50.79;10;
2;ENG;Hampshire;Bucks Horn Oak;;W0.85;N51.16;10;
2;ENG;Hampshire;Buckskin;;W1.14;N51.25;10;
2;ENG;Hampshire;Bull Hill;;W1.53;N50.78;10;
2;ENG;Hampshire;Bunstead;;W1.38;N51.01;10;
2;ENG;Hampshire;Burgates;;W0.90;N51.04;10;
2;ENG;Hampshire;Burghclere;;W1.32;N51.34;10;
2;ENG;Hampshire;Burghclere Common;;W1.32;N51.35;10;
2;ENG;Hampshire;Buriton;;W0.96;N50.97;10;
2;ENG;Hampshire;Burley;;W1.70;N50.82;10;
2;ENG;Hampshire;Burley Beacon;;W1.71;N50.81;10;
2;ENG;Hampshire;Burley Lawn;;W1.68;N50.82;10;
2;ENG;Hampshire;Burley Street;;W1.71;N50.83;10;
2;ENG;Hampshire;Burridge;;W1.27;N50.88;10;
2;ENG;Hampshire;Bursledon;;W1.31;N50.87;10;
2;ENG;Hampshire;Butlocks Heath;;W1.34;N50.86;10;
2;ENG;Hampshire;Butt's Green;;W1.57;N51.03;10;
2;ENG;Hampshire;Buttsash;;W1.40;N50.84;10;
2;ENG;Hampshire;Cadnam;;W1.58;N50.91;10;
2;ENG;Hampshire;Calmore;;W1.51;N50.92;10;
2;ENG;Hampshire;Calshot;;W1.33;N50.80;10;
2;ENG;Hampshire;Canada;;W1.60;N50.95;10;
2;ENG;Hampshire;Carter's Clay;;W1.57;N51.01;10;
2;ENG;Hampshire;Catherington;;W1.01;N50.92;10;
2;ENG;Hampshire;Catisfield;;W1.23;N50.85;10;
2;ENG;Hampshire;Causeway;;W1.01;N50.90;10;
2;ENG;Hampshire;Causeway;;W0.94;N50.99;10;
2;ENG;Hampshire;Chalton;;W0.96;N50.93;10;
2;ENG;Hampshire;Chandler's Ford;;W1.38;N50.97;10;
2;ENG;Hampshire;Chandlers Green;;W0.99;N51.31;10;
2;ENG;Hampshire;Charlton;;W1.50;N51.22;10;
2;ENG;Hampshire;Charlwood;;W1.04;N51.07;10;
2;ENG;Hampshire;Charminster;;W1.85;N50.74;10;
2;ENG;Hampshire;Charter Alley;;W1.15;N51.30;10;
2;ENG;Hampshire;Chawton;;W1.00;N51.12;10;
2;ENG;Hampshire;Cheriton;;W1.17;N51.04;10;
2;ENG;Hampshire;Chidden;;W1.07;N50.94;10;
2;ENG;Hampshire;Chilbolton;;W1.44;N51.14;10;
2;ENG;Hampshire;Chilbolton Down;;W1.41;N51.12;10;
2;ENG;Hampshire;Chilcomb;;W1.28;N51.04;10;
2;ENG;Hampshire;Chilton Candover;;W1.15;N51.15;10;
2;ENG;Hampshire;Chilworth;;W1.41;N50.96;10;
2;ENG;Hampshire;Chilworth Old Village;;W1.43;N50.96;10;
2;ENG;Hampshire;Chineham;;W1.06;N51.29;10;
2;ENG;Hampshire;Christchurch;;W1.78;N50.72;10;
2;ENG;Hampshire;Church Common;;W0.96;N51.01;10;
2;ENG;Hampshire;Church Crookham;;W0.84;N51.26;10;
2;ENG;Hampshire;Church End;;W1.04;N51.29;10;
2;ENG;Hampshire;Church Oakley;;W1.19;N51.24;10;
2;ENG;Hampshire;Churt;;W0.78;N51.13;10;
2;ENG;Hampshire;Clanfield;;W1.00;N50.93;10;
2;ENG;Hampshire;Clanville;;W1.55;N51.23;10;
2;ENG;Hampshire;Clarken Green;;W1.19;N51.24;10;
2;ENG;Hampshire;Clatford Oakcuts;;W1.52;N51.14;10;
2;ENG;Hampshire;Clayhall;;W1.13;N50.77;10;
2;ENG;Hampshire;Clayhill;;W1.57;N50.86;10;
2;ENG;Hampshire;Cliddesden;;W1.09;N51.23;10;
2;ENG;Hampshire;Cold Ash Hill;;W0.80;N51.08;10;
2;ENG;Hampshire;Colden Common;;W1.33;N50.99;10;
2;ENG;Hampshire;Cole Henley;;W1.34;N51.24;10;
2;ENG;Hampshire;Colemore;;W1.00;N51.06;10;
2;ENG;Hampshire;Colt Hill;;W0.94;N51.25;10;
2;ENG;Hampshire;Compton;;W1.34;N51.02;10;
2;ENG;Hampshire;Compton;;W1.51;N51.05;10;
2;ENG;Hampshire;Compton End;;W1.34;N51.02;10;
2;ENG;Hampshire;Conford;;W0.83;N51.08;10;
2;ENG;Hampshire;Coombe;;W1.06;N50.97;10;
2;ENG;Hampshire;Copnor;;W1.06;N50.81;10;
2;ENG;Hampshire;Copythorne;;W1.57;N50.92;10;
2;ENG;Hampshire;Corhampton;;W1.13;N50.97;10;
2;ENG;Hampshire;Cosham;;W1.06;N50.84;10;
2;ENG;Hampshire;Cottonworth;;W1.47;N51.14;10;
2;ENG;Hampshire;Couch Green;;W1.25;N51.08;10;
2;ENG;Hampshire;Court Corner;;W1.14;N51.32;10;
2;ENG;Hampshire;Cove;;W0.78;N51.28;10;
2;ENG;Hampshire;Cowplain;;W1.02;N50.89;10;
2;ENG;Hampshire;Coxford;;W1.44;N50.92;10;
2;ENG;Hampshire;Crampmoor;;W1.45;N50.99;10;
2;ENG;Hampshire;Cranbourne;;W1.09;N51.24;10;
2;ENG;Hampshire;Crawley;;W1.40;N51.10;10;
2;ENG;Hampshire;Cricket Hill;;W0.82;N51.33;10;
2;ENG;Hampshire;Criddlestyle;;W1.78;N50.92;10;
2;ENG;Hampshire;Critchell's Green;;W1.58;N51.03;10;
2;ENG;Hampshire;Crockerhill;;W1.19;N50.87;10;
2;ENG;Hampshire;Crondall;;W0.86;N51.22;10;
2;ENG;Hampshire;Crookham Village;;W0.86;N51.26;10;
2;ENG;Hampshire;Crossways;;W0.78;N51.13;10;
2;ENG;Hampshire;Crow;;W1.77;N50.82;10;
2;ENG;Hampshire;Crowdhill;;W1.30;N50.97;10;
2;ENG;Hampshire;Crux Easton;;W1.39;N51.30;10;
2;ENG;Hampshire;Cuckoo's Corner;;W0.94;N51.16;10;
2;ENG;Hampshire;Cufaude;;W1.08;N51.30;10;
2;ENG;Hampshire;Cupernham;;W1.48;N50.99;10;
2;ENG;Hampshire;Curbridge;;W1.26;N50.89;10;
2;ENG;Hampshire;Curdridge;;W1.24;N50.91;10;
2;ENG;Hampshire;Custards;;W1.58;N50.87;10;
2;ENG;Hampshire;Damerham;;W1.85;N50.93;10;
2;ENG;Hampshire;Daneshill;;W1.06;N51.27;10;
2;ENG;Hampshire;Darby Green;;W0.80;N51.33;10;
2;ENG;Hampshire;Deadwater;;W0.85;N51.10;10;
2;ENG;Hampshire;Dean;;W1.20;N50.96;10;
2;ENG;Hampshire;Dean;;W1.37;N51.07;10;
2;ENG;Hampshire;Deane;;W1.22;N51.24;10;
2;ENG;Hampshire;Denmead;;W1.07;N50.89;10;
2;ENG;Hampshire;Denvilles;;W0.97;N50.84;10;
2;ENG;Hampshire;Dibden;;W1.43;N50.87;10;
2;ENG;Hampshire;Dibden Purlieu;;W1.41;N50.85;10;
2;ENG;Hampshire;Dipley;;W0.93;N51.30;10;
2;ENG;Hampshire;Dogmersfield;;W0.88;N51.26;10;
2;ENG;Hampshire;Dora's Green;;W0.84;N51.22;10;
2;ENG;Hampshire;Downton;;W1.63;N50.73;10;
2;ENG;Hampshire;Drayton;;W1.04;N50.84;10;
2;ENG;Hampshire;Droxford;;W1.14;N50.95;10;
2;ENG;Hampshire;Dry Hill;;W1.07;N51.11;10;
2;ENG;Hampshire;Dummer;;W1.17;N51.20;10;
2;ENG;Hampshire;Dunbridge;;W1.55;N51.03;10;
2;ENG;Hampshire;Dundridge;;W1.18;N50.95;10;
2;ENG;Hampshire;Dunley;;W1.35;N51.27;10;
2;ENG;Hampshire;Durley;;W1.27;N50.94;10;
2;ENG;Hampshire;Durley Street;;W1.26;N50.95;10;
2;ENG;Hampshire;Durns Town;;W1.60;N50.78;10;
2;ENG;Hampshire;Durrants;;W0.97;N50.87;10;
2;ENG;Hampshire;Earlstone Common;;W1.32;N51.34;10;
2;ENG;Hampshire;East Anton;;W1.47;N51.22;10;
2;ENG;Hampshire;East Aston;;W1.38;N51.20;10;
2;ENG;Hampshire;East Boldre;;W1.47;N50.79;10;
2;ENG;Hampshire;East Cholderton;;W1.58;N51.20;10;
2;ENG;Hampshire;East Dean;;W1.61;N51.03;10;
2;ENG;Hampshire;East End;;W1.49;N50.77;10;
2;ENG;Hampshire;East End;;W1.08;N51.01;10;
2;ENG;Hampshire;East End;;W1.41;N51.34;10;
2;ENG;Hampshire;East Green;;W0.87;N51.18;10;
2;ENG;Hampshire;East Howe;;W1.90;N50.75;10;
2;ENG;Hampshire;East Liss;;W0.88;N51.03;10;
2;ENG;Hampshire;East Martin;;W1.90;N50.97;10;
2;ENG;Hampshire;East Meon;;W1.03;N50.99;10;
2;ENG;Hampshire;East Oakley;;W1.18;N51.24;10;
2;ENG;Hampshire;East Stratton;;W1.22;N51.14;10;
2;ENG;Hampshire;East Tisted;;W1.00;N51.08;10;
2;ENG;Hampshire;East Tytherley;;W1.58;N51.05;10;
2;ENG;Hampshire;East Wellow;;W1.57;N50.97;10;
2;ENG;Hampshire;East Woodhay;;W1.42;N51.34;10;
2;ENG;Hampshire;East Worldham;;W0.94;N51.13;10;
2;ENG;Hampshire;Eastland Gate;;W1.04;N50.90;10;
2;ENG;Hampshire;Eastleigh;;W1.36;N50.96;10;
2;ENG;Hampshire;Eastney;;W1.06;N50.78;10;
2;ENG;Hampshire;Eastoke;;W0.96;N50.77;10;
2;ENG;Hampshire;Easton;;W1.27;N51.08;10;
2;ENG;Hampshire;Eastrop;;W1.08;N51.25;10;
2;ENG;Hampshire;Ecchinswell;;W1.28;N51.32;10;
2;ENG;Hampshire;Egbury;;W1.38;N51.26;10;
2;ENG;Hampshire;Egypt;;W1.34;N51.15;10;
2;ENG;Hampshire;Eling;;W1.48;N50.90;10;
2;ENG;Hampshire;Ellingham;;W1.80;N50.87;10;
2;ENG;Hampshire;Ellisfield;;W1.09;N51.20;10;
2;ENG;Hampshire;Elson;;W1.14;N50.80;10;
2;ENG;Hampshire;Emery Down;;W1.60;N50.87;10;
2;ENG;Hampshire;Empshott;;W0.93;N51.07;10;
2;ENG;Hampshire;Empshott Green;;W0.94;N51.06;10;
2;ENG;Hampshire;Emsworth;;W0.95;N50.84;10;
2;ENG;Hampshire;Enborne Row;;W1.36;N51.36;10;
2;ENG;Hampshire;Enham Alamein;;W1.48;N51.23;10;
2;ENG;Hampshire;Ensbury;;W1.88;N50.76;10;
2;ENG;Hampshire;Ensbury Park;;W1.90;N50.74;10;
2;ENG;Hampshire;Eversley;;W0.89;N51.35;10;
2;ENG;Hampshire;Eversley Centre;;W0.88;N51.34;10;
2;ENG;Hampshire;Eversley Cross;;W0.86;N51.34;10;
2;ENG;Hampshire;Everton;;W1.59;N50.74;10;
2;ENG;Hampshire;Ewshot;;W0.84;N51.23;10;
2;ENG;Hampshire;Exbury;;W1.40;N50.79;10;
2;ENG;Hampshire;Exton;;W1.13;N50.98;10;
2;ENG;Hampshire;Faccombe;;W1.45;N51.32;10;
2;ENG;Hampshire;Fair Oak;;W1.30;N50.95;10;
2;ENG;Hampshire;Fair Oak;;W1.21;N51.34;10;
2;ENG;Hampshire;Fair Oak Green;;W1.03;N51.33;10;
2;ENG;Hampshire;Fareham;;W1.20;N50.85;10;
2;ENG;Hampshire;Farleigh Wallop;;W1.11;N51.21;10;
2;ENG;Hampshire;Farlington;;W1.03;N50.84;10;
2;ENG;Hampshire;Farnborough;;W0.75;N51.27;10;
2;ENG;Hampshire;Farnborough Green;;W0.75;N51.30;10;
2;ENG;Hampshire;Farnborough Park;;W0.75;N51.28;10;
2;ENG;Hampshire;Farnborough Street;;W0.75;N51.29;10;
2;ENG;Hampshire;Fawley;;W1.36;N50.82;10;
2;ENG;Hampshire;Filmore Hill;;W1.05;N51.03;10;
2;ENG;Hampshire;Finchdean;;W0.96;N50.90;10;
2;ENG;Hampshire;Fisher's Pond;;W1.31;N50.97;10;
2;ENG;Hampshire;Fleet;;W0.97;N50.80;10;
2;ENG;Hampshire;Fleet;;W0.85;N51.27;10;
2;ENG;Hampshire;Fleetend;;W1.29;N50.85;10;
2;ENG;Hampshire;Fleetlands;;W1.17;N50.83;10;
2;ENG;Hampshire;Flexford;;W1.40;N50.98;10;
2;ENG;Hampshire;Flood Street;;W1.80;N50.95;10;
2;ENG;Hampshire;Fordingbridge;;W1.80;N50.92;10;
2;ENG;Hampshire;Forest Gate;;W1.09;N50.90;10;
2;ENG;Hampshire;Forest of Bere;;W1.01;N50.89;10;
2;ENG;Hampshire;Forton;;W1.14;N50.79;10;
2;ENG;Hampshire;Forton;;W1.41;N51.18;10;
2;ENG;Hampshire;Foulford;;W1.74;N50.84;10;
2;ENG;Hampshire;Four Houses Corner;;W1.08;N51.38;10;
2;ENG;Hampshire;Four Marks;;W1.04;N51.11;10;
2;ENG;Hampshire;Fox Lane;;W0.78;N51.30;10;
2;ENG;Hampshire;Foxdown;;W1.27;N51.24;10;
2;ENG;Hampshire;Foxhills;;W1.51;N50.89;10;
2;ENG;Hampshire;Fratton;;W1.07;N50.79;10;
2;ENG;Hampshire;Freefolk;;W1.31;N51.22;10;
2;ENG;Hampshire;Freemantle;;W1.43;N50.90;10;
2;ENG;Hampshire;Frenchmoor;;W1.63;N51.05;10;
2;ENG;Hampshire;Fritham;;W1.67;N50.92;10;
2;ENG;Hampshire;Frithend;;W0.85;N51.14;10;
2;ENG;Hampshire;Frogham;;W1.77;N50.91;10;
2;ENG;Hampshire;Frogmore;;W1.03;N50.99;10;
2;ENG;Hampshire;Frogmore;;W0.79;N51.33;10;
2;ENG;Hampshire;Frostlane;;W1.39;N50.85;10;
2;ENG;Hampshire;Froxfield Green;;W1.00;N51.02;10;
2;ENG;Hampshire;Fryern Hill;;W1.37;N50.97;10;
2;ENG;Hampshire;Fulflood;;W1.33;N51.05;10;
2;ENG;Hampshire;Fullerton;;W1.47;N51.14;10;
2;ENG;Hampshire;Funtley;;W1.20;N50.86;10;
2;ENG;Hampshire;Furze Hill;;W1.75;N50.89;10;
2;ENG;Hampshire;Furzedown;;W1.48;N51.05;10;
2;ENG;Hampshire;Furzeley Corner;;W1.07;N50.88;10;
2;ENG;Hampshire;Furzey Lodge;;W1.49;N50.81;10;
2;ENG;Hampshire;Furzley;;W1.60;N50.94;10;
2;ENG;Hampshire;Fyfield;;W1.58;N51.21;10;
2;ENG;Hampshire;Gable Head;;W0.97;N50.78;10;
2;ENG;Hampshire;Gilbert Street;;W1.07;N51.08;10;
2;ENG;Hampshire;Glebe;;W1.21;N50.93;10;
2;ENG;Hampshire;Gobley Hole;;W1.12;N51.20;10;
2;ENG;Hampshire;Godshill;;W1.75;N50.92;10;
2;ENG;Hampshire;Godswinscroft;;W1.73;N50.76;10;
2;ENG;Hampshire;Golden Hill;;W1.63;N50.75;10;
2;ENG;Hampshire;Golden Pot;;W0.99;N51.18;10;
2;ENG;Hampshire;Goodworth Clatford;;W1.48;N51.17;10;
2;ENG;Hampshire;Goose Green;;W1.57;N50.86;10;
2;ENG;Hampshire;Goose Hill;;W1.24;N51.35;10;
2;ENG;Hampshire;Gore End;;W1.41;N51.36;10;
2;ENG;Hampshire;Gosport;;W1.16;N50.79;10;
2;ENG;Hampshire;Gosport;;W1.44;N50.99;10;
2;ENG;Hampshire;Grateley;;W1.61;N51.16;10;
2;ENG;Hampshire;Grayshott;;W0.75;N51.10;10;
2;ENG;Hampshire;Great Shoddesden;;W1.61;N51.23;10;
2;ENG;Hampshire;Greatham;;W0.90;N51.06;10;
2;ENG;Hampshire;Green;;W1.61;N51.05;10;
2;ENG;Hampshire;Greywell;;W0.98;N51.25;10;
2;ENG;Hampshire;Griggs Green;;W0.83;N51.07;10;
2;ENG;Hampshire;Gundleton;;W1.13;N51.09;10;
2;ENG;Hampshire;Hale;;W1.73;N50.97;10;
2;ENG;Hampshire;Halterworth;;W1.47;N50.98;10;
2;ENG;Hampshire;Ham Green;;W1.38;N51.06;10;
2;ENG;Hampshire;Hamble;;W1.23;N50.93;10;
2;ENG;Hampshire;Hambledon;;W1.09;N50.92;10;
2;ENG;Hampshire;Hamble-le-Rice;;W1.33;N50.85;10;
2;ENG;Hampshire;Hammond's Green;;W1.51;N50.91;10;
2;ENG;Hampshire;Hampton Park;;W1.38;N50.93;10;
2;ENG;Hampshire;Hangersley;;W1.75;N50.85;10;
2;ENG;Hampshire;Hannington;;W1.22;N51.29;10;
2;ENG;Hampshire;Harbridge;;W1.80;N50.88;10;
2;ENG;Hampshire;Harbridge Green;;W1.80;N50.88;10;
2;ENG;Hampshire;Hardley;;W1.39;N50.83;10;
2;ENG;Hampshire;Hardway;;W1.14;N50.80;10;
2;ENG;Hampshire;Harefield;;W1.34;N50.91;10;
2;ENG;Hampshire;Harestock;;W1.34;N51.07;10;
2;ENG;Hampshire;Hartfordbridge;;W0.89;N51.30;10;
2;ENG;Hampshire;Hartley Mauditt;;W0.94;N51.11;10;
2;ENG;Hampshire;Hartley Wespall;;W1.01;N51.31;10;
2;ENG;Hampshire;Hartley Wintney;;W0.91;N51.29;10;
2;ENG;Hampshire;Hatch;;W1.04;N51.26;10;
2;ENG;Hampshire;Hatch Bottom;;W1.33;N50.92;10;
2;ENG;Hampshire;Hatch Warren;;W1.14;N51.22;10;
2;ENG;Hampshire;Hatchet Gate;;W1.47;N50.80;10;
2;ENG;Hampshire;Hatchet Green;;W1.73;N50.97;10;
2;ENG;Hampshire;Hatherden;;W1.51;N51.24;10;
2;ENG;Hampshire;Hatt Hill;;W1.55;N51.03;10;
2;ENG;Hampshire;Hattingley;;W1.08;N51.12;10;
2;ENG;Hampshire;Haughurst Hill;;W1.18;N51.35;10;
2;ENG;Hampshire;Havant;;W0.99;N50.84;10;
2;ENG;Hampshire;Hawkley;;W0.94;N51.05;10;
2;ENG;Hampshire;Hawley;;W0.78;N51.31;10;
2;ENG;Hampshire;Hawley Lane;;W0.76;N51.30;10;
2;ENG;Hampshire;Hawthorn;;W1.04;N51.09;10;
2;ENG;Hampshire;Hayling Island;;W0.97;N50.81;10;
2;ENG;Hampshire;Hazeley;;W0.93;N51.32;10;
2;ENG;Hampshire;Hazeley Bottom;;W0.92;N51.30;10;
2;ENG;Hampshire;Hazeley Heath;;W0.92;N51.31;10;
2;ENG;Hampshire;Hazeley Lea;;W0.93;N51.32;10;
2;ENG;Hampshire;Headbourne Worthy;;W1.31;N51.08;10;
2;ENG;Hampshire;Headley;;W0.82;N51.11;10;
2;ENG;Hampshire;Headley;;W1.26;N51.35;10;
2;ENG;Hampshire;Headley Down;;W0.81;N51.11;10;
2;ENG;Hampshire;Hearn;;W0.81;N51.12;10;
2;ENG;Hampshire;Heath End;;W1.16;N51.35;10;
2;ENG;Hampshire;Heath End;;W1.41;N51.35;10;
2;ENG;Hampshire;Heath Green;;W1.10;N51.12;10;
2;ENG;Hampshire;Heather Row;;W0.98;N51.26;10;
2;ENG;Hampshire;Heathfield;;W1.21;N50.85;10;
2;ENG;Hampshire;Heckfield;;W0.96;N51.33;10;
2;ENG;Hampshire;Hedge End;;W1.30;N50.90;10;
2;ENG;Hampshire;Hensting;;W1.30;N50.98;10;
2;ENG;Hampshire;Herriard;;W1.05;N51.20;10;
2;ENG;Hampshire;High Cross;;W0.98;N51.02;10;
2;ENG;Hampshire;Highbridge;;W1.33;N50.98;10;
2;ENG;Hampshire;Highbury;;W1.06;N50.83;10;
2;ENG;Hampshire;Highclere;;W1.38;N51.33;10;
2;ENG;Hampshire;Highfield;;W1.40;N50.92;10;
2;ENG;Hampshire;Hightown;;W1.77;N50.83;10;
2;ENG;Hampshire;Hightown;;W1.33;N50.89;10;
2;ENG;Hampshire;Highwood;;W1.75;N50.86;10;
2;ENG;Hampshire;Hill Head;;W1.23;N50.81;10;
2;ENG;Hampshire;Hill Park;;W1.21;N50.86;10;
2;ENG;Hampshire;Hill Side;;W0.88;N51.03;10;
2;ENG;Hampshire;Hill Top;;W1.43;N50.82;10;
2;ENG;Hampshire;Hillpound;;W1.17;N50.93;10;
2;ENG;Hampshire;Hillside;;W0.92;N51.24;10;
2;ENG;Hampshire;Hillstreet;;W1.51;N50.94;10;
2;ENG;Hampshire;Hillyfields;;W1.47;N50.93;10;
2;ENG;Hampshire;Hilsea;;W1.07;N50.82;10;
2;ENG;Hampshire;Hiltingbury;;W1.38;N50.99;10;
2;ENG;Hampshire;Hinton;;W1.71;N50.75;10;
2;ENG;Hampshire;Hinton Ampner;;W1.15;N51.03;10;
2;ENG;Hampshire;Hocombe;;W1.38;N50.99;10;
2;ENG;Hampshire;Hoe;;W1.20;N50.94;10;
2;ENG;Hampshire;Hoe Gate;;W1.11;N50.91;10;
2;ENG;Hampshire;Holbury;;W1.39;N50.82;10;
2;ENG;Hampshire;Holdenhurst;;W1.83;N50.75;10;
2;ENG;Hampshire;Hollington;;W1.39;N51.32;10;
2;ENG;Hampshire;Hollington Cross;;W1.38;N51.31;10;
2;ENG;Hampshire;Hollywater;;W0.85;N51.09;10;
2;ENG;Hampshire;Holt;;W0.95;N51.28;10;
2;ENG;Hampshire;Holt End;;W1.05;N51.14;10;
2;ENG;Hampshire;Holt Pound;;W0.84;N51.18;10;
2;ENG;Hampshire;Holybourne;;W0.95;N51.15;10;
2;ENG;Hampshire;Hook;;W0.96;N51.28;10;
2;ENG;Hampshire;Hook Park;;W1.30;N50.83;10;
2;ENG;Hampshire;Hordle;;W1.61;N50.75;10;
2;ENG;Hampshire;Horndean;;W1.00;N50.91;10;
2;ENG;Hampshire;Horsebridge;;W1.51;N51.06;10;
2;ENG;Hampshire;Horton Heath;;W1.30;N50.94;10;
2;ENG;Hampshire;Houghton;;W1.51;N51.08;10;
2;ENG;Hampshire;Hound;;W1.33;N50.86;10;
2;ENG;Hampshire;Hound Green;;W0.96;N51.32;10;
2;ENG;Hampshire;Houndmills;;W1.11;N51.26;10;
2;ENG;Hampshire;Hounsdown;;W1.50;N50.90;10;
2;ENG;Hampshire;Hunton;;W1.31;N51.14;10;
2;ENG;Hampshire;Hursley;;W1.40;N51.02;10;
2;ENG;Hampshire;Hurstbourne Priors;;W1.38;N51.21;10;
2;ENG;Hampshire;Hurstbourne Tarrant;;W1.45;N51.27;10;
2;ENG;Hampshire;Hyde;;W1.77;N50.90;10;
2;ENG;Hampshire;Hyde;;W1.31;N51.06;10;
2;ENG;Hampshire;Hyde End;;W1.21;N51.36;10;
2;ENG;Hampshire;Hythe;;W1.40;N50.86;10;
2;ENG;Hampshire;Ibsley;;W1.78;N50.88;10;
2;ENG;Hampshire;Ibthorpe;;W1.47;N51.27;10;
2;ENG;Hampshire;Ibworth;;W1.19;N51.28;10;
2;ENG;Hampshire;Iford;;W1.81;N50.73;10;
2;ENG;Hampshire;Inhurst;;W1.18;N51.34;10;
2;ENG;Hampshire;Isington;;W0.89;N51.17;10;
2;ENG;Hampshire;Itchen;;W1.37;N50.89;10;
2;ENG;Hampshire;Itchen;;W1.34;N50.97;10;
2;ENG;Hampshire;Itchen Abbas;;W1.24;N51.08;10;
2;ENG;Hampshire;Itchen Stoke;;W1.21;N51.08;10;
2;ENG;Hampshire;Kempshott;;W1.14;N51.24;10;
2;ENG;Hampshire;Kents Oak;;W1.54;N51.01;10;
2;ENG;Hampshire;Keyhaven;;W1.57;N50.71;10;
2;ENG;Hampshire;Kilmeston;;W1.15;N51.03;10;
2;ENG;Hampshire;Kimbridge;;W1.53;N51.02;10;
2;ENG;Hampshire;Kimpton;;W1.60;N51.21;10;
2;ENG;Hampshire;King's Furlong;;W1.11;N51.25;10;
2;ENG;Hampshire;King's Somborne;;W1.48;N51.07;10;
2;ENG;Hampshire;Kings Worthy;;W1.30;N51.09;10;
2;ENG;Hampshire;Kingsclere;;W1.25;N51.31;10;
2;ENG;Hampshire;Kingsclere Woodlands;;W1.24;N51.34;10;
2;ENG;Hampshire;Kingsley;;W0.88;N51.13;10;
2;ENG;Hampshire;Kingsmead;;W1.17;N50.91;10;
2;ENG;Hampshire;Kingston;;W1.07;N50.80;10;
2;ENG;Hampshire;Kingston;;W1.80;N50.81;10;
2;ENG;Hampshire;Kinson;;W1.91;N50.76;10;
2;ENG;Hampshire;Kitwood;;W1.05;N51.09;10;
2;ENG;Hampshire;Knapp;;W1.43;N51.00;10;
2;ENG;Hampshire;Knights Enham;;W1.48;N51.23;10;
2;ENG;Hampshire;Ladwell;;W1.40;N51.00;10;
2;ENG;Hampshire;Landport;;W1.09;N50.80;10;
2;ENG;Hampshire;Lane End;;W1.21;N51.02;10;
2;ENG;Hampshire;Lane End;;W1.04;N51.05;10;
2;ENG;Hampshire;Langdown;;W1.40;N50.85;10;
2;ENG;Hampshire;Langley;;W1.37;N50.79;10;
2;ENG;Hampshire;Langley;;W0.85;N51.05;10;
2;ENG;Hampshire;Langrish;;W1.00;N51.00;10;
2;ENG;Hampshire;Langstone;;W0.99;N50.84;10;
2;ENG;Hampshire;Lasham;;W1.04;N51.17;10;
2;ENG;Hampshire;Latchmere Green;;W1.09;N51.33;10;
2;ENG;Hampshire;Laverstoke;;W1.29;N51.22;10;
2;ENG;Hampshire;Leagreen;;W1.61;N50.73;10;
2;ENG;Hampshire;Leckford;;W1.47;N51.13;10;
2;ENG;Hampshire;Lee;;W1.48;N50.95;10;
2;ENG;Hampshire;Lee Ground;;W1.23;N50.86;10;
2;ENG;Hampshire;Lee-on-the-Solent;;W1.20;N50.79;10;
2;ENG;Hampshire;Leigh Park;;W0.99;N50.86;10;
2;ENG;Hampshire;Lepe;;W1.36;N50.77;10;
2;ENG;Hampshire;Lindford;;W0.85;N51.11;10;
2;ENG;Hampshire;Linford;;W1.74;N50.85;10;
2;ENG;Hampshire;Linkenholt;;W1.48;N51.32;10;
2;ENG;Hampshire;Linwood;;W1.74;N50.88;10;
2;ENG;Hampshire;Liphook;;W0.80;N51.07;10;
2;ENG;Hampshire;Liss;;W0.88;N51.03;10;
2;ENG;Hampshire;Liss Forest;;W0.88;N51.04;10;
2;ENG;Hampshire;Litchfield;;W1.34;N51.27;10;
2;ENG;Hampshire;Little Ann;;W1.52;N51.18;10;
2;ENG;Hampshire;Little Holbury;;W1.40;N50.83;10;
2;ENG;Hampshire;Little London;;W1.47;N51.23;10;
2;ENG;Hampshire;Little London;;W1.11;N51.32;10;
2;ENG;Hampshire;Little Posbrook;;W1.24;N50.83;10;
2;ENG;Hampshire;Little Shoddesden;;W1.60;N51.23;10;
2;ENG;Hampshire;Little Somborne;;W1.45;N51.08;10;
2;ENG;Hampshire;Littledown;;W1.83;N50.73;10;
2;ENG;Hampshire;Littledown;;W1.51;N51.31;10;
2;ENG;Hampshire;Littleton;;W1.35;N51.08;10;
2;ENG;Hampshire;Lockerley;;W1.58;N51.03;10;
2;ENG;Hampshire;Locks Heath;;W1.27;N50.86;10;
2;ENG;Hampshire;Loddon;;W1.00;N51.34;10;
2;ENG;Hampshire;London Minstead;;W1.60;N50.89;10;
2;ENG;Hampshire;Long Common;;W1.28;N50.92;10;
2;ENG;Hampshire;Long Park;;W1.37;N51.09;10;
2;ENG;Hampshire;Long Sutton;;W0.95;N51.21;10;
2;ENG;Hampshire;Longparish;;W1.38;N51.19;10;
2;ENG;Hampshire;Longstock;;W1.50;N51.13;10;
2;ENG;Hampshire;Lord's Hill;;W1.46;N50.93;10;
2;ENG;Hampshire;Lordswood;;W1.43;N50.93;10;
2;ENG;Hampshire;Lovedean;;W1.03;N50.90;10;
2;ENG;Hampshire;Lower Bordean;;W1.01;N51.01;10;
2;ENG;Hampshire;Lower Brook;;W1.53;N51.04;10;
2;ENG;Hampshire;Lower Buckland;;W1.54;N50.76;10;
2;ENG;Hampshire;Lower Bullington;;W1.35;N51.16;10;
2;ENG;Hampshire;Lower Burgate;;W1.78;N50.93;10;
2;ENG;Hampshire;Lower Common;;W1.09;N51.19;10;
2;ENG;Hampshire;Lower Common;;W0.90;N51.35;10;
2;ENG;Hampshire;Lower Farringdon;;W1.00;N51.11;10;
2;ENG;Hampshire;Lower Froyle;;W0.91;N51.19;10;
2;ENG;Hampshire;Lower Pennington;;W1.56;N50.73;10;
2;ENG;Hampshire;Lower Ratley;;W1.54;N51.00;10;
2;ENG;Hampshire;Lower Slackstead;;W1.44;N51.02;10;
2;ENG;Hampshire;Lower Swanwick;;W1.30;N50.87;10;
2;ENG;Hampshire;Lower Turmer;;W1.81;N50.88;10;
2;ENG;Hampshire;Lower Upham;;W1.26;N50.96;10;
2;ENG;Hampshire;Lower Wield;;W1.10;N51.15;10;
2;ENG;Hampshire;Lowford;;W1.31;N50.88;10;
2;ENG;Hampshire;Lumley;;W0.93;N50.84;10;
2;ENG;Hampshire;Lyde Green;;W0.99;N51.30;10;
2;ENG;Hampshire;Lymington;;W1.54;N50.75;10;
2;ENG;Hampshire;Lymington;;W1.60;N50.85;10;
2;ENG;Hampshire;Lymington River;;W1.54;N50.79;10;
2;ENG;Hampshire;Lymore;;W1.59;N50.72;10;
2;ENG;Hampshire;Lynch;;W1.28;N51.23;10;
2;ENG;Hampshire;Lynch Hill;;W1.34;N51.22;10;
2;ENG;Hampshire;Lyndhurst;;W1.58;N50.87;10;
2;ENG;Hampshire;Mapledurwell;;W1.02;N51.25;10;
2;ENG;Hampshire;Marchwood;;W1.46;N50.88;10;
2;ENG;Hampshire;Martin;;W1.91;N50.97;10;
2;ENG;Hampshire;Martin Drove End;;W1.93;N50.98;10;
2;ENG;Hampshire;Martyr Worthy;;W1.27;N51.08;10;
2;ENG;Hampshire;Mattingley;;W0.95;N51.30;10;
2;ENG;Hampshire;Maybush;;W1.46;N50.92;10;
2;ENG;Hampshire;Mead End;;W1.63;N50.78;10;
2;ENG;Hampshire;Mead End;;W1.06;N50.89;10;
2;ENG;Hampshire;Medstead;;W1.07;N51.12;10;
2;ENG;Hampshire;Mengham;;W0.97;N50.78;10;
2;ENG;Hampshire;Meon;;W1.24;N50.82;10;
2;ENG;Hampshire;Meon;;W1.02;N50.98;10;
2;ENG;Hampshire;Meon Park;;W1.19;N50.89;10;
2;ENG;Hampshire;Meonstoke;;W1.13;N50.96;10;
2;ENG;Hampshire;Merry Oak;;W1.37;N50.90;10;
2;ENG;Hampshire;Meyrick Park;;W1.88;N50.72;10;
2;ENG;Hampshire;Micheldever;;W1.27;N51.14;10;
2;ENG;Hampshire;Michelmersh;;W1.51;N51.03;10;
2;ENG;Hampshire;Midanbury;;W1.36;N50.92;10;
2;ENG;Hampshire;Middle Wallop;;W1.58;N51.13;10;
2;ENG;Hampshire;Middleton;;W1.40;N51.19;10;
2;ENG;Hampshire;Milford on Sea;;W1.60;N50.71;10;
2;ENG;Hampshire;Mill Green;;W1.25;N51.36;10;
2;ENG;Hampshire;Mill Lane;;W0.88;N51.24;10;
2;ENG;Hampshire;Mill Throop;;W1.85;N50.75;10;
2;ENG;Hampshire;Millbrook;;W1.46;N50.91;10;
2;ENG;Hampshire;Milton;;W1.06;N50.78;10;
2;ENG;Hampshire;Minstead;;W1.60;N50.89;10;
2;ENG;Hampshire;Mockbeggar;;W1.77;N50.88;10;
2;ENG;Hampshire;Monk Sherborne;;W1.14;N51.30;10;
2;ENG;Hampshire;Monkwood;;W1.05;N51.06;10;
2;ENG;Hampshire;Montgomery Lines;;W0.76;N51.25;10;
2;ENG;Hampshire;Monxton;;W1.55;N51.19;10;
2;ENG;Hampshire;Moordown;;W1.87;N50.74;10;
2;ENG;Hampshire;Moorgreen;;W1.33;N50.93;10;
2;ENG;Hampshire;Moortown;;W1.78;N50.83;10;
2;ENG;Hampshire;Morestead;;W1.28;N51.02;10;
2;ENG;Hampshire;Mortimer;;W1.06;N51.37;10;
2;ENG;Hampshire;Mortimer West End;;W1.09;N51.36;10;
2;ENG;Hampshire;Mottisfont;;W1.54;N51.03;10;
2;ENG;Hampshire;Mullenspond;;W1.58;N51.20;10;
2;ENG;Hampshire;Murrell Green;;W0.94;N51.28;10;
2;ENG;Hampshire;Muscliff;;W1.87;N50.75;10;
2;ENG;Hampshire;Mytchett;;W0.73;N51.28;10;
2;ENG;Hampshire;Nashes Green;;W1.04;N51.20;10;
2;ENG;Hampshire;Nately Scures;;W0.99;N51.27;10;
2;ENG;Hampshire;Neatham;;W0.94;N51.15;10;
2;ENG;Hampshire;Needs Ore Point;;W1.37;N50.77;10;
2;ENG;Hampshire;Nether Wallop;;W1.57;N51.12;10;
2;ENG;Hampshire;Netherton;;W1.47;N51.31;10;
2;ENG;Hampshire;Netley;;W1.36;N50.86;10;
2;ENG;Hampshire;Netley Hill;;W1.33;N50.89;10;
2;ENG;Hampshire;Netley Marsh;;W1.53;N50.90;10;
2;ENG;Hampshire;New Alresford;;W1.17;N51.08;10;
2;ENG;Hampshire;New Brighton;;W0.93;N50.84;10;
2;ENG;Hampshire;New Cheriton;;W1.17;N51.04;10;
2;ENG;Hampshire;New Forest;;W1.55;N50.83;10;
2;ENG;Hampshire;New Milton;;W1.67;N50.75;10;
2;ENG;Hampshire;New Town;;W1.36;N50.88;10;
2;ENG;Hampshire;Newbridge;;W1.58;N50.93;10;
2;ENG;Hampshire;Newfound;;W1.17;N51.25;10;
2;ENG;Hampshire;Newgrounds;;W1.75;N50.92;10;
2;ENG;Hampshire;Newnham;;W0.99;N51.27;10;
2;ENG;Hampshire;Newton Stacey;;W1.41;N51.15;10;
2;ENG;Hampshire;Newton Valence;;W0.97;N51.08;10;
2;ENG;Hampshire;Newtown;;W1.13;N50.78;10;
2;ENG;Hampshire;Newtown;;W1.30;N50.84;10;
2;ENG;Hampshire;Newtown;;W1.61;N50.88;10;
2;ENG;Hampshire;Newtown;;W1.13;N50.90;10;
2;ENG;Hampshire;Newtown;;W1.23;N50.95;10;
2;ENG;Hampshire;Newtown;;W1.57;N51.00;10;
2;ENG;Hampshire;Newtown;;W0.98;N51.13;10;
2;ENG;Hampshire;Newtown;;W1.32;N51.36;10;
2;ENG;Hampshire;No Man's Land;;W1.28;N51.05;10;
2;ENG;Hampshire;Nob's Crook;;W1.31;N50.98;10;
2;ENG;Hampshire;Norleywood;;W1.50;N50.77;10;
2;ENG;Hampshire;North Baddesley;;W1.44;N50.96;10;
2;ENG;Hampshire;North Binnes Island;;W1.00;N50.83;10;
2;ENG;Hampshire;North Boarhunt;;W1.14;N50.88;10;
2;ENG;Hampshire;North Camp;;W0.75;N51.26;10;
2;ENG;Hampshire;North Charford;;W1.73;N50.97;10;
2;ENG;Hampshire;North Downs;;W0.91;N51.20;10;
2;ENG;Hampshire;North End;;W1.07;N50.81;10;
2;ENG;Hampshire;North End;;W1.85;N50.94;10;
2;ENG;Hampshire;North End;;W1.17;N51.05;10;
2;ENG;Hampshire;North Gorley;;W1.77;N50.89;10;
2;ENG;Hampshire;North Hayling;;W0.96;N50.82;10;
2;ENG;Hampshire;North Houghton;;W1.51;N51.09;10;
2;ENG;Hampshire;North Kingston;;W1.77;N50.81;10;
2;ENG;Hampshire;North Oakley;;W1.24;N51.28;10;
2;ENG;Hampshire;North Poulner;;W1.77;N50.85;10;
2;ENG;Hampshire;North Ripley;;W1.77;N50.79;10;
2;ENG;Hampshire;North Stoneham;;W1.38;N50.95;10;
2;ENG;Hampshire;North Street;;W1.78;N50.96;10;
2;ENG;Hampshire;North Street;;W1.08;N51.09;10;
2;ENG;Hampshire;North Town;;W0.75;N51.24;10;
2;ENG;Hampshire;North Waltham;;W1.19;N51.21;10;
2;ENG;Hampshire;North Warnborough;;W0.95;N51.25;10;
2;ENG;Hampshire;North Weirs;;W1.60;N50.81;10;
2;ENG;Hampshire;Northam;;W1.38;N50.90;10;
2;ENG;Hampshire;Northbourne;;W1.88;N50.75;10;
2;ENG;Hampshire;Northbrook;;W1.21;N50.95;10;
2;ENG;Hampshire;Northbrook;;W1.27;N51.14;10;
2;ENG;Hampshire;Northfields;;W1.31;N51.02;10;
2;ENG;Hampshire;Northington;;W1.20;N51.12;10;
2;ENG;Hampshire;Northney;;W0.96;N50.82;10;
2;ENG;Hampshire;Nursling;;W1.47;N50.94;10;
2;ENG;Hampshire;Nursted;;W0.91;N50.98;10;
2;ENG;Hampshire;Nutburn;;W1.44;N50.97;10;
2;ENG;Hampshire;Nutley;;W1.14;N51.19;10;
2;ENG;Hampshire;Oakhanger;;W0.91;N51.10;10;
2;ENG;Hampshire;Oakley;;W1.19;N51.24;10;
2;ENG;Hampshire;Oakridge;;W1.09;N51.27;10;
2;ENG;Hampshire;Oakshott;;W0.96;N51.03;10;
2;ENG;Hampshire;Odiham;;W0.94;N51.25;10;
2;ENG;Hampshire;Ogdens;;W1.74;N50.90;10;
2;ENG;Hampshire;Old Alresford;;W1.17;N51.10;10;
2;ENG;Hampshire;Old Basing;;W1.05;N51.26;10;
2;ENG;Hampshire;Old Burghclere;;W1.34;N51.31;10;
2;ENG;Hampshire;Old Milton;;W1.67;N50.74;10;
2;ENG;Hampshire;Old Netley;;W1.33;N50.88;10;
2;ENG;Hampshire;Old Portsmouth;;W1.10;N50.78;10;
2;ENG;Hampshire;Old Shirley;;W1.44;N50.92;10;
2;ENG;Hampshire;Oliver's Battery;;W1.35;N51.04;10;
2;ENG;Hampshire;Ossemsley;;W1.67;N50.78;10;
2;ENG;Hampshire;Otterbourne;;W1.34;N51.00;10;
2;ENG;Hampshire;Otterwood;;W1.41;N50.81;10;
2;ENG;Hampshire;Outwick;;W1.80;N50.95;10;
2;ENG;Hampshire;Over Wallop;;W1.60;N51.14;10;
2;ENG;Hampshire;Overton;;W1.27;N51.23;10;
2;ENG;Hampshire;Ovington;;W1.20;N51.07;10;
2;ENG;Hampshire;Ower;;W1.54;N50.94;10;
2;ENG;Hampshire;Owslebury;;W1.27;N51.00;10;
2;ENG;Hampshire;Padworth Common;;W1.11;N51.37;10;
2;ENG;Hampshire;Palestine;;W1.62;N51.15;10;
2;ENG;Hampshire;Pamber End;;W1.12;N51.31;10;
2;ENG;Hampshire;Pamber Green;;W1.14;N51.32;10;
2;ENG;Hampshire;Pamber Heath;;W1.12;N51.35;10;
2;ENG;Hampshire;Pardown;;W1.18;N51.23;10;
2;ENG;Hampshire;Park Gate;;W1.27;N50.86;10;
2;ENG;Hampshire;Passfield;;W0.83;N51.09;10;
2;ENG;Hampshire;Paulsgrove;;W1.10;N50.85;10;
2;ENG;Hampshire;Peartree Green;;W1.38;N50.89;10;
2;ENG;Hampshire;Peel Common;;W1.19;N50.81;10;
2;ENG;Hampshire;Pennington;;W1.56;N50.74;10;
2;ENG;Hampshire;Penton Corner;;W1.52;N51.21;10;
2;ENG;Hampshire;Penton Grafton;;W1.54;N51.22;10;
2;ENG;Hampshire;Penton Mewsey;;W1.52;N51.22;10;
2;ENG;Hampshire;Penwood;;W1.36;N51.34;10;
2;ENG;Hampshire;Petersfield;;W0.94;N51.00;10;
2;ENG;Hampshire;Pheonix Green;;W0.92;N51.28;10;
2;ENG;Hampshire;Picket Hill;;W1.74;N50.84;10;
2;ENG;Hampshire;Picket Piece;;W1.44;N51.21;10;
2;ENG;Hampshire;Pikeshill;;W1.58;N50.87;10;
2;ENG;Hampshire;Pilley;;W1.53;N50.78;10;
2;ENG;Hampshire;Pilley Bailey;;W1.53;N50.78;10;
2;ENG;Hampshire;Pitt;;W1.35;N51.04;10;
2;ENG;Hampshire;Plaitford Green;;W1.60;N50.98;10;
2;ENG;Hampshire;Plastow Green;;W1.24;N51.34;10;
2;ENG;Hampshire;Pokesdown;;W1.83;N50.72;10;
2;ENG;Hampshire;Pondtail;;W0.82;N51.27;10;
2;ENG;Hampshire;Pooksgreen;;W1.47;N50.88;10;
2;ENG;Hampshire;Popham;;W1.21;N51.18;10;
2;ENG;Hampshire;Popley;;W1.08;N51.28;10;
2;ENG;Hampshire;Portchester;;W1.13;N50.84;10;
2;ENG;Hampshire;Portmore;;W1.53;N50.77;10;
2;ENG;Hampshire;Portsea;;W1.10;N50.79;10;
2;ENG;Hampshire;Portsea Island;;W1.07;N50.80;10;
2;ENG;Hampshire;Portsmouth;;W1.07;N50.80;10;
2;ENG;Hampshire;Portswood;;W1.38;N50.92;10;
2;ENG;Hampshire;Potbridge;;W0.94;N51.27;10;
2;ENG;Hampshire;Poulner;;W1.77;N50.84;10;
2;ENG;Hampshire;Pound Green;;W1.18;N51.32;10;
2;ENG;Hampshire;Pound Street;;W1.35;N51.34;10;
2;ENG;Hampshire;Powntley Copse;;W0.99;N51.19;10;
2;ENG;Hampshire;Preston Candover;;W1.14;N51.16;10;
2;ENG;Hampshire;Prince's Marsh;;W0.90;N51.02;10;
2;ENG;Hampshire;Privett;;W1.16;N50.78;10;
2;ENG;Hampshire;Privett;;W1.04;N51.02;10;
2;ENG;Hampshire;Pucknall;;W1.45;N51.01;10;
2;ENG;Hampshire;Purbrook;;W1.04;N50.85;10;
2;ENG;Hampshire;Purewell;;W1.77;N50.72;10;
2;ENG;Hampshire;Pylehill;;W1.30;N50.96;10;
2;ENG;Hampshire;Quarley;;W1.61;N51.18;10;
2;ENG;Hampshire;Quidhampton;;W1.27;N51.24;10;
2;ENG;Hampshire;Racedown;;W1.62;N51.19;10;
2;ENG;Hampshire;Rafborough;;W0.78;N51.28;10;
2;ENG;Hampshire;Ragged Appleshaw;;W1.55;N51.23;10;
2;ENG;Hampshire;Rake Common;;W0.88;N51.02;10;
2;ENG;Hampshire;Ramsdean;;W1.00;N50.99;10;
2;ENG;Hampshire;Ramsdell;;W1.16;N51.30;10;
2;ENG;Hampshire;Ratlake;;W1.41;N51.00;10;
2;ENG;Hampshire;Red Hill;;W1.88;N50.75;10;
2;ENG;Hampshire;Red Hill;;W0.97;N50.88;10;
2;ENG;Hampshire;Red Rice;;W1.52;N51.16;10;
2;ENG;Hampshire;Redbridge;;W1.47;N50.91;10;
2;ENG;Hampshire;Redenham;;W1.57;N51.23;10;
2;ENG;Hampshire;Ridge;;W1.51;N50.96;10;
2;ENG;Hampshire;Ridge Common;;W0.96;N51.01;10;
2;ENG;Hampshire;Ringwood;;W1.78;N50.84;10;
2;ENG;Hampshire;Ringwood Forest;;W1.83;N50.87;10;
2;ENG;Hampshire;Ripley;;W1.77;N50.78;10;
2;ENG;Hampshire;Rockbourne;;W1.84;N50.96;10;
2;ENG;Hampshire;Rockford;;W1.78;N50.87;10;
2;ENG;Hampshire;Romsey;;W1.50;N50.98;10;
2;ENG;Hampshire;Ropley;;W1.08;N51.07;10;
2;ENG;Hampshire;Ropley Dean;;W1.11;N51.07;10;
2;ENG;Hampshire;Ropley Soke;;W1.07;N51.09;10;
2;ENG;Hampshire;Rother;;W0.82;N50.99;10;
2;ENG;Hampshire;Rotherwick;;W0.98;N51.29;10;
2;ENG;Hampshire;Rotten Green;;W0.86;N51.28;10;
2;ENG;Hampshire;Row Ash;;W1.23;N50.91;10;
2;ENG;Hampshire;Rowland's Castle;;W0.96;N50.88;10;
2;ENG;Hampshire;Rowledge;;W0.82;N51.18;10;
2;ENG;Hampshire;Rowner;;W1.17;N50.80;10;
2;ENG;Hampshire;Rownhams;;W1.46;N50.95;10;
2;ENG;Hampshire;Rushington;;W1.50;N50.90;10;
2;ENG;Hampshire;Rushmore;;W1.07;N50.92;10;
2;ENG;Hampshire;Rye Common;;W0.89;N51.24;10;
2;ENG;Hampshire;Salters Heath;;W1.12;N51.30;10;
2;ENG;Hampshire;Sandford;;W1.77;N50.80;10;
2;ENG;Hampshire;Sandleheath;;W1.83;N50.93;10;
2;ENG;Hampshire;Sandy Down;;W1.56;N50.78;10;
2;ENG;Hampshire;Sarisbury;;W1.29;N50.86;10;
2;ENG;Hampshire;Selborne;;W0.94;N51.09;10;
2;ENG;Hampshire;Selsmore;;W0.96;N50.78;10;
2;ENG;Hampshire;Setley;;W1.57;N50.79;10;
2;ENG;Hampshire;Shalden;;W1.01;N51.16;10;
2;ENG;Hampshire;Shalden Green;;W1.01;N51.18;10;
2;ENG;Hampshire;Shawford;;W1.34;N51.01;10;
2;ENG;Hampshire;Shedfield;;W1.20;N50.91;10;
2;ENG;Hampshire;Sheet;;W0.93;N51.01;10;
2;ENG;Hampshire;Sherborne St John;;W1.11;N51.29;10;
2;ENG;Hampshire;Sherfield English;;W1.58;N50.99;10;
2;ENG;Hampshire;Sherfield on Loddon;;W1.04;N51.30;10;
2;ENG;Hampshire;Shipton Bellinger;;W1.67;N51.20;10;
2;ENG;Hampshire;Shirley;;W1.43;N50.91;10;
2;ENG;Hampshire;Shirley;;W1.76;N50.78;10;
2;ENG;Hampshire;Shirley holms;;W1.57;N50.78;10;
2;ENG;Hampshire;Shirley Warren;;W1.44;N50.92;10;
2;ENG;Hampshire;Shirrell Heath;;W1.19;N50.92;10;
2;ENG;Hampshire;Shobley;;W1.74;N50.85;10;
2;ENG;Hampshire;Sholing;;W1.36;N50.89;10;
2;ENG;Hampshire;Sholing Common;;W1.36;N50.90;10;
2;ENG;Hampshire;Shootash;;W1.54;N50.99;10;
2;ENG;Hampshire;Shorley;;W1.18;N51.03;10;
2;ENG;Hampshire;Shortheath;;W0.90;N51.11;10;
2;ENG;Hampshire;Silchester;;W1.11;N51.35;10;
2;ENG;Hampshire;Silkstead;;W1.37;N51.01;10;
2;ENG;Hampshire;Sladen Green;;W1.41;N51.28;10;
2;ENG;Hampshire;Sleaford;;W0.85;N51.13;10;
2;ENG;Hampshire;Sleepers Hill;;W1.34;N51.05;10;
2;ENG;Hampshire;Smannell;;W1.45;N51.23;10;
2;ENG;Hampshire;Soake;;W1.06;N50.89;10;
2;ENG;Hampshire;Soberton;;W1.13;N50.94;10;
2;ENG;Hampshire;Soberton Heath;;W1.14;N50.92;10;
2;ENG;Hampshire;Soldridge;;W1.07;N51.10;10;
2;ENG;Hampshire;Solent Breezes;;W1.29;N50.83;10;
2;ENG;Hampshire;Somers Town;;W1.09;N50.78;10;
2;ENG;Hampshire;Sopley;;W1.78;N50.77;10;
2;ENG;Hampshire;South Baddesley;;W1.50;N50.76;10;
2;ENG;Hampshire;South Binnes Island;;W1.00;N50.82;10;
2;ENG;Hampshire;South Down;;W1.34;N51.01;10;
2;ENG;Hampshire;South End;;W1.85;N50.93;10;
2;ENG;Hampshire;South Farnborough;;W0.75;N51.27;10;
2;ENG;Hampshire;South Gorley;;W1.77;N50.88;10;
2;ENG;Hampshire;South Ham;;W1.12;N51.25;10;
2;ENG;Hampshire;South Hayling;;W0.97;N50.78;10;
2;ENG;Hampshire;South Town;;W1.07;N51.11;10;
2;ENG;Hampshire;South View;;W1.09;N51.26;10;
2;ENG;Hampshire;South Warnborough;;W0.97;N51.21;10;
2;ENG;Hampshire;South Weirs;;W1.60;N50.80;10;
2;ENG;Hampshire;South Wonston;;W1.34;N51.11;10;
2;ENG;Hampshire;Southampton;;W1.40;N50.91;10;
2;ENG;Hampshire;Southbourne;;W1.80;N50.71;10;
2;ENG;Hampshire;Southington;;W1.28;N51.23;10;
2;ENG;Hampshire;Southrope;;W1.04;N51.19;10;
2;ENG;Hampshire;Southsea;;W1.09;N50.78;10;
2;ENG;Hampshire;Southwick;;W1.12;N50.86;10;
2;ENG;Hampshire;Southwood;;W0.79;N51.28;10;
2;ENG;Hampshire;Spanish Green;;W1.01;N51.31;10;
2;ENG;Hampshire;Sparsholt;;W1.38;N51.07;10;
2;ENG;Hampshire;Spearywell;;W1.55;N51.04;10;
2;ENG;Hampshire;Springbourne;;W1.85;N50.72;10;
2;ENG;Hampshire;St Austins;;W1.56;N50.77;10;
2;ENG;Hampshire;St Cross;;W1.33;N51.04;10;
2;ENG;Hampshire;St Denys;;W1.38;N50.91;10;
2;ENG;Hampshire;St Giles's Hill;;W1.30;N51.05;10;
2;ENG;Hampshire;St Mary Bourne;;W1.39;N51.24;10;
2;ENG;Hampshire;Stamshaw;;W1.09;N50.81;10;
2;ENG;Hampshire;Standford;;W0.84;N51.09;10;
2;ENG;Hampshire;Standon;;W1.40;N51.03;10;
2;ENG;Hampshire;Stanford End;;W0.99;N51.36;10;
2;ENG;Hampshire;Stanmore;;W1.34;N51.04;10;
2;ENG;Hampshire;Steep;;W0.94;N51.01;10;
2;ENG;Hampshire;Steep Marsh;;W0.93;N51.02;10;
2;ENG;Hampshire;Steventon;;W1.22;N51.21;10;
2;ENG;Hampshire;Stockbridge;;W1.50;N51.11;10;
2;ENG;Hampshire;Stockheath;;W0.99;N50.85;10;
2;ENG;Hampshire;Stoke;;W0.97;N50.81;10;
2;ENG;Hampshire;Stoke;;W1.42;N51.25;10;
2;ENG;Hampshire;Stoke Charity;;W1.31;N51.14;10;
2;ENG;Hampshire;Stoke Common;;W1.33;N50.97;10;
2;ENG;Hampshire;Stonehills;;W1.34;N50.81;10;
2;ENG;Hampshire;Stoner Hill;;W0.97;N51.02;10;
2;ENG;Hampshire;Stoney Cross;;W1.64;N50.89;10;
2;ENG;Hampshire;Stony Batter;;W1.60;N51.05;10;
2;ENG;Hampshire;Stony Heath;;W1.18;N51.31;10;
2;ENG;Hampshire;Stonyford;;W1.54;N50.93;10;
2;ENG;Hampshire;Stonymarsh;;W1.53;N51.03;10;
2;ENG;Hampshire;Stratfield Saye;;W1.02;N51.34;10;
2;ENG;Hampshire;Stratfield Turgis;;W1.01;N51.32;10;
2;ENG;Hampshire;Street End;;W1.21;N50.96;10;
2;ENG;Hampshire;Stroud;;W0.97;N51.00;10;
2;ENG;Hampshire;Strouden;;W1.84;N50.74;10;
2;ENG;Hampshire;Stubbington;;W1.22;N50.82;10;
2;ENG;Hampshire;Stuckton;;W1.77;N50.91;10;
2;ENG;Hampshire;Sutton Scotney;;W1.34;N51.14;10;
2;ENG;Hampshire;Swampton;;W1.41;N51.24;10;
2;ENG;Hampshire;Swanmore;;W1.19;N50.94;10;
2;ENG;Hampshire;Swanwick;;W1.27;N50.87;10;
2;ENG;Hampshire;Swarraton;;W1.20;N51.12;10;
2;ENG;Hampshire;Sway;;W1.61;N50.78;10;
2;ENG;Hampshire;Swaythling;;W1.38;N50.93;10;
2;ENG;Hampshire;Swelling Hill;;W1.07;N51.08;10;
2;ENG;Hampshire;Sydmonton;;W1.31;N51.31;10;
2;ENG;Hampshire;Tadley;;W1.13;N51.34;10;
2;ENG;Hampshire;Talbot Village;;W1.90;N50.74;10;
2;ENG;Hampshire;Talbot Woods;;W1.90;N50.72;10;
2;ENG;Hampshire;Tangley;;W1.52;N51.26;10;
2;ENG;Hampshire;Tapnage;;W1.21;N50.88;10;
2;ENG;Hampshire;Test;;W1.45;N51.14;10;
2;ENG;Hampshire;Testwood;;W1.50;N50.92;10;
2;ENG;Hampshire;The Butts;;W0.98;N51.13;10;
2;ENG;Hampshire;The Dene;;W1.45;N51.27;10;
2;ENG;Hampshire;The Frenches;;W1.57;N50.99;10;
2;ENG;Hampshire;The Mint;;W0.88;N51.04;10;
2;ENG;Hampshire;The Mount;;W1.38;N51.34;10;
2;ENG;Hampshire;The Straits;;W0.88;N51.13;10;
2;ENG;Hampshire;Thorney Hill;;W1.71;N50.79;10;
2;ENG;Hampshire;Thornhill;;W1.34;N50.90;10;
2;ENG;Hampshire;Thornhill Park;;W1.33;N50.91;10;
2;ENG;Hampshire;Three Ashes;;W1.09;N51.34;10;
2;ENG;Hampshire;Thruxton;;W1.58;N51.20;10;
2;ENG;Hampshire;Tichborne;;W1.18;N51.06;10;
2;ENG;Hampshire;Tidpit;;W1.90;N50.97;10;
2;ENG;Hampshire;Tilly Down;;W1.57;N51.23;10;
2;ENG;Hampshire;Timsbury;;W1.51;N51.01;10;
2;ENG;Hampshire;Tipner;;W1.10;N50.82;10;
2;ENG;Hampshire;Tiptoe;;W1.64;N50.77;10;
2;ENG;Hampshire;Titchfield;;W1.24;N50.84;10;
2;ENG;Hampshire;Titchfield Common;;W1.26;N50.85;10;
2;ENG;Hampshire;Titchfield Park;;W1.24;N50.86;10;
2;ENG;Hampshire;Tongham;;W0.74;N51.23;10;
2;ENG;Hampshire;Toothill;;W1.47;N50.96;10;
2;ENG;Hampshire;Tot Hill;;W1.34;N51.35;10;
2;ENG;Hampshire;Tote Hill;;W1.57;N51.01;10;
2;ENG;Hampshire;Totford;;W1.18;N51.12;10;
2;ENG;Hampshire;Totton;;W1.50;N50.91;10;
2;ENG;Hampshire;Townhill Park;;W1.36;N50.92;10;
2;ENG;Hampshire;Towns End;;W1.19;N51.31;10;
2;ENG;Hampshire;Tuckton;;W1.80;N50.72;10;
2;ENG;Hampshire;Tufton;;W1.35;N51.21;10;
2;ENG;Hampshire;Tunworth;;W1.04;N51.22;10;
2;ENG;Hampshire;Turgis Green;;W1.01;N51.32;10;
2;ENG;Hampshire;Turkey Island;;W1.20;N50.91;10;
2;ENG;Hampshire;Turmer;;W1.81;N50.88;10;
2;ENG;Hampshire;Twyford;;W1.31;N51.01;10;
2;ENG;Hampshire;Tye;;W0.96;N50.81;10;
2;ENG;Hampshire;Up Green;;W0.86;N51.33;10;
2;ENG;Hampshire;Up Nately;;W1.01;N51.25;10;
2;ENG;Hampshire;Up Somborne;;W1.44;N51.08;10;
2;ENG;Hampshire;Upham;;W1.24;N50.97;10;
2;ENG;Hampshire;Upper Bullington;;W1.34;N51.16;10;
2;ENG;Hampshire;Upper Burgate;;W1.78;N50.94;10;
2;ENG;Hampshire;Upper Canterton;;W1.63;N50.90;10;
2;ENG;Hampshire;Upper Clatford;;W1.50;N51.18;10;
2;ENG;Hampshire;Upper Common;;W1.09;N51.20;10;
2;ENG;Hampshire;Upper Enham;;W1.48;N51.23;10;
2;ENG;Hampshire;Upper Farringdon;;W0.98;N51.11;10;
2;ENG;Hampshire;Upper Froyle;;W0.92;N51.17;10;
2;ENG;Hampshire;Upper Ratley;;W1.54;N51.00;10;
2;ENG;Hampshire;Upper Shirley;;W1.43;N50.92;10;
2;ENG;Hampshire;Upper Slackstead;;W1.44;N51.03;10;
2;ENG;Hampshire;Upper Street;;W1.78;N50.96;10;
2;ENG;Hampshire;Upper Swanmore;;W1.17;N50.94;10;
2;ENG;Hampshire;Upper Wield;;W1.11;N51.13;10;
2;ENG;Hampshire;Upper Wootton;;W1.18;N51.28;10;
2;ENG;Hampshire;Upton;;W1.47;N50.95;10;
2;ENG;Hampshire;Upton;;W1.48;N51.29;10;
2;ENG;Hampshire;Upton Grey;;W1.01;N51.22;10;
2;ENG;Hampshire;Vernham Dean;;W1.51;N51.30;10;
2;ENG;Hampshire;Vernham Street;;W1.51;N51.31;10;
2;ENG;Hampshire;Wadwick;;W1.38;N51.27;10;
2;ENG;Hampshire;Walhampton;;W1.53;N50.75;10;
2;ENG;Hampshire;Wallington;;W1.17;N50.85;10;
2;ENG;Hampshire;Waltham Chase;;W1.20;N50.93;10;
2;ENG;Hampshire;Walton Heath;;W1.13;N50.87;10;
2;ENG;Hampshire;Warblington;;W0.97;N50.84;10;
2;ENG;Hampshire;Warnborough Green;;W0.96;N51.26;10;
2;ENG;Hampshire;Warnford;;W1.11;N51.00;10;
2;ENG;Hampshire;Warren Corner;;W0.97;N51.03;10;
2;ENG;Hampshire;Warren Corner;;W0.84;N51.23;10;
2;ENG;Hampshire;Warsash;;W1.30;N50.85;10;
2;ENG;Hampshire;Wash Water;;W1.35;N51.36;10;
2;ENG;Hampshire;Water End;;W1.01;N51.27;10;
2;ENG;Hampshire;Waterford;;W1.53;N50.74;10;
2;ENG;Hampshire;Waterlooville;;W1.03;N50.87;10;
2;ENG;Hampshire;Wecock;;W1.03;N50.89;10;
2;ENG;Hampshire;Weeke;;W1.34;N51.06;10;
2;ENG;Hampshire;Well;;W0.91;N51.20;10;
2;ENG;Hampshire;Wellow Wood;;W1.58;N50.98;10;
2;ENG;Hampshire;West Common;;W1.37;N50.79;10;
2;ENG;Hampshire;West Down;;W1.45;N51.14;10;
2;ENG;Hampshire;West End;;W1.34;N50.92;10;
2;ENG;Hampshire;West End;;W1.20;N50.84;10;
2;ENG;Hampshire;West End;;W1.10;N51.11;10;
2;ENG;Hampshire;West End;;W0.82;N51.17;10;
2;ENG;Hampshire;West End Green;;W1.05;N51.34;10;
2;ENG;Hampshire;West Green;;W0.93;N51.29;10;
2;ENG;Hampshire;West Ham;;W1.12;N51.26;10;
2;ENG;Hampshire;West Heath;;W0.78;N51.29;10;
2;ENG;Hampshire;West Heath;;W1.15;N51.31;10;
2;ENG;Hampshire;West Howe;;W1.93;N50.75;10;
2;ENG;Hampshire;West Hurn;;W1.84;N50.76;10;
2;ENG;Hampshire;West Leigh;;W0.97;N50.86;10;
2;ENG;Hampshire;West Liss;;W0.90;N51.04;10;
2;ENG;Hampshire;West Meon;;W1.08;N51.01;10;
2;ENG;Hampshire;West Meon Woodlands;;W1.08;N51.02;10;
2;ENG;Hampshire;West Parley;;W1.88;N50.77;10;
2;ENG;Hampshire;West Southbourne;;W1.81;N50.72;10;
2;ENG;Hampshire;West Stratton;;W1.25;N51.15;10;
2;ENG;Hampshire;West Tisted;;W1.07;N51.05;10;
2;ENG;Hampshire;West Town;;W0.99;N50.78;10;
2;ENG;Hampshire;West Tytherley;;W1.61;N51.05;10;
2;ENG;Hampshire;West Wellow;;W1.58;N50.96;10;
2;ENG;Hampshire;West Worldham;;W0.94;N51.11;10;
2;ENG;Hampshire;Westbourne;;W1.90;N50.71;10;
2;ENG;Hampshire;Westbourne;;W0.93;N50.85;10;
2;ENG;Hampshire;Westfield;;W0.99;N50.78;10;
2;ENG;Hampshire;Weston;;W1.37;N50.88;10;
2;ENG;Hampshire;Weston;;W0.97;N50.98;10;
2;ENG;Hampshire;Weston Colley;;W1.28;N51.14;10;
2;ENG;Hampshire;Weston Common;;W1.34;N50.89;10;
2;ENG;Hampshire;Weston Corbett;;W1.02;N51.21;10;
2;ENG;Hampshire;Weston Patrick;;W1.01;N51.20;10;
2;ENG;Hampshire;Wey;;W0.76;N51.20;10;
2;ENG;Hampshire;Weyhill;;W1.55;N51.21;10;
2;ENG;Hampshire;Wheat Hold;;W1.21;N51.33;10;
2;ENG;Hampshire;Wheatley;;W0.88;N51.15;10;
2;ENG;Hampshire;Wherwell;;W1.45;N51.15;10;
2;ENG;Hampshire;Whitchurch;;W1.34;N51.22;10;
2;ENG;Hampshire;Whitehall;;W0.94;N51.26;10;
2;ENG;Hampshire;Whitehill;;W0.87;N51.10;10;
2;ENG;Hampshire;Whitenap;;W1.47;N50.97;10;
2;ENG;Hampshire;Whitewater;;W0.95;N51.33;10;
2;ENG;Hampshire;Whitsbury;;W1.83;N50.97;10;
2;ENG;Hampshire;Whitway;;W1.35;N51.32;10;
2;ENG;Hampshire;Wick;;W1.78;N50.71;10;
2;ENG;Hampshire;Wickham;;W1.19;N50.89;10;
2;ENG;Hampshire;Widley;;W1.04;N50.84;10;
2;ENG;Hampshire;Wigley;;W1.54;N50.94;10;
2;ENG;Hampshire;Wildern;;W1.31;N50.91;10;
2;ENG;Hampshire;Wildhern;;W1.49;N51.24;10;
2;ENG;Hampshire;Wildmoor;;W1.02;N51.29;10;
2;ENG;Hampshire;Wilsom;;W0.97;N51.14;10;
2;ENG;Hampshire;Wimble Hill;;W0.85;N51.20;10;
2;ENG;Hampshire;Wimpson;;W1.46;N50.92;10;
2;ENG;Hampshire;Winchester;;W1.31;N51.05;10;
2;ENG;Hampshire;Winchfield;;W0.91;N51.28;10;
2;ENG;Hampshire;Winchfield Hurst;;W0.89;N51.27;10;
2;ENG;Hampshire;Winklebury;;W1.12;N51.26;10;
2;ENG;Hampshire;Winnall;;W1.30;N51.06;10;
2;ENG;Hampshire;Winslade;;W1.07;N51.22;10;
2;ENG;Hampshire;Winsor;;W1.56;N50.92;10;
2;ENG;Hampshire;Wintershill;;W1.26;N50.95;10;
2;ENG;Hampshire;Winton;;W1.88;N50.73;10;
2;ENG;Hampshire;Wittensford;;W1.60;N50.91;10;
2;ENG;Hampshire;Wivelrod;;W1.04;N51.13;10;
2;ENG;Hampshire;Wolverton Common;;W1.19;N51.32;10;
2;ENG;Hampshire;Wonston;;W1.32;N51.14;10;
2;ENG;Hampshire;Woodcot;;W1.19;N50.82;10;
2;ENG;Hampshire;Woodcott;;W1.38;N51.28;10;
2;ENG;Hampshire;Woodgreen;;W1.75;N50.95;10;
2;ENG;Hampshire;Woodhouse;;W1.47;N51.23;10;
2;ENG;Hampshire;Woodington;;W1.55;N50.97;10;
2;ENG;Hampshire;Woodlands;;W1.54;N50.89;10;
2;ENG;Hampshire;Woodley;;W1.47;N50.99;10;
2;ENG;Hampshire;Woodmancott;;W1.20;N51.17;10;
2;ENG;Hampshire;Woodside;;W1.54;N50.74;10;
2;ENG;Hampshire;Woolmer Hill;;W0.75;N51.08;10;
2;ENG;Hampshire;Woolston;;W1.38;N50.88;10;
2;ENG;Hampshire;Woolton Hill;;W1.39;N51.34;10;
2;ENG;Hampshire;Wootton;;W1.66;N50.78;10;
2;ENG;Hampshire;Wootton St Lawrence;;W1.15;N51.27;10;
2;ENG;Hampshire;Worlds End;;W1.10;N50.90;10;
2;ENG;Hampshire;Worting;;W1.14;N51.26;10;
2;ENG;Hampshire;Wyck;;W0.92;N51.14;10;
2;ENG;Hampshire;Wymering;;W1.07;N50.85;10;
2;ENG;Hampshire;Yateley;;W0.83;N51.33;10;
2;ENG;Hampshire;York Town;;W0.76;N51.32;10;