"Level";"Country";"County";"Place";"void";"Longitude";"Latitude";"ZoomLevel";"Icon"
2;England;Cambridgeshire;Abington Pigotts;;W0.10;N52.07;10;
2;England;Cambridgeshire;Ailsworth;;W0.36;N52.56;10;
2;England;Cambridgeshire;Aldreth;;E0.11;N52.33;10;
2;England;Cambridgeshire;Arbury;;E0.10;N52.21;10;
2;England;Cambridgeshire;Arrington;;W0.07;N52.13;10;
2;England;Cambridgeshire;Ashley;;E0.47;N52.22;10;
2;England;Cambridgeshire;Ashton;;W0.37;N52.63;10;
2;England;Cambridgeshire;Babraham;;E0.20;N52.12;10;
2;England;Cambridgeshire;Badgeney;;E0.09;N52.54;10;
2;England;Cambridgeshire;Bainton;;W0.39;N52.64;10;
2;England;Cambridgeshire;Balsam;;E0.30;N52.12;10;
2;England;Cambridgeshire;Bar Hill;;E0.02;N52.24;10;
2;England;Cambridgeshire;Barnack;;W0.42;N52.62;10;
2;England;Cambridgeshire;Barrington;;E0.02;N52.12;10;
2;England;Cambridgeshire;Barton;;E0.04;N52.17;10;
2;England;Cambridgeshire;Barway;;E0.25;N52.35;10;
2;England;Cambridgeshire;Bassingbourn;;W0.06;N52.06;10;
2;England;Cambridgeshire;Begdale;;E0.14;N52.63;10;
2;England;Cambridgeshire;Benwick;;W0.02;N52.49;10;
2;England;Cambridgeshire;Bevill's Leam;;W0.17;N52.50;10;
2;England;Cambridgeshire;Black Bank;;E0.24;N52.44;10;
2;England;Cambridgeshire;Black Horse Drove;;E0.34;N52.49;10;
2;England;Cambridgeshire;Bottisham;;E0.25;N52.21;10;
2;England;Cambridgeshire;Bourn;;W0.07;N52.18;10;
2;England;Cambridgeshire;Bourn Brook;;E0.07;N52.17;10;
2;England;Cambridgeshire;Boxworth;;W0.03;N52.25;10;
2;England;Cambridgeshire;Boxworth End;;W0.01;N52.28;10;
2;England;Cambridgeshire;Brampton Park;;W0.24;N52.31;10;
2;England;Cambridgeshire;Brandon Bank;;E0.38;N52.46;10;
2;England;Cambridgeshire;Brandon Creek;;E0.35;N52.49;10;
2;England;Cambridgeshire;Bretton;;W0.28;N52.58;10;
2;England;Cambridgeshire;Brinkley;;E0.36;N52.16;10;
2;England;Cambridgeshire;Broad Green;;E0.45;N52.20;10;
2;England;Cambridgeshire;Broad Hill;;E0.33;N52.35;10;
2;England;Cambridgeshire;Brook End;;W0.41;N52.34;10;
2;England;Cambridgeshire;Building End;;E0.08;N52.01;10;
2;England;Cambridgeshire;Bunker's Hill;;E0.06;N52.64;10;
2;England;Cambridgeshire;Burrough End;;E0.36;N52.16;10;
2;England;Cambridgeshire;Burrough Green;;E0.38;N52.16;10;
2;England;Cambridgeshire;Burton End;;E0.36;N52.11;10;
2;England;Cambridgeshire;Burwell;;E0.31;N52.26;10;
2;England;Cambridgeshire;California;;E0.24;N52.43;10;
2;England;Cambridgeshire;Cam;;E0.17;N52.23;10;
2;England;Cambridgeshire;Cam (Rhee);;E0.08;N52.15;10;
2;England;Cambridgeshire;Cambridge;;E0.13;N52.20;10;
2;England;Cambridgeshire;Camps End;;E0.34;N52.05;10;
2;England;Cambridgeshire;Cardinal's Green;;E0.34;N52.08;10;
2;England;Cambridgeshire;Carlton;;E0.39;N52.15;10;
2;England;Cambridgeshire;Carlton Green;;E0.39;N52.13;10;
2;England;Cambridgeshire;Castle Camps;;E0.37;N52.06;10;
2;England;Cambridgeshire;Castle End;;W0.34;N52.65;10;
2;England;Cambridgeshire;Castor;;W0.34;N52.56;10;
2;England;Cambridgeshire;Caxton;;W0.09;N52.20;10;
2;England;Cambridgeshire;Chainbridge;;E0.09;N52.57;10;
2;England;Cambridgeshire;Chapel End;;W0.35;N52.42;10;
2;England;Cambridgeshire;Chapel Head;;W0.03;N52.41;10;
2;England;Cambridgeshire;Chatteris;;E0.04;N52.44;10;
2;England;Cambridgeshire;Cherry Hinton;;E0.16;N52.18;10;
2;England;Cambridgeshire;Chettisham;;E0.26;N52.42;10;
2;England;Cambridgeshire;Cheveley;;E0.45;N52.21;10;
2;England;Cambridgeshire;Childerley Gate;;W0.02;N52.21;10;
2;England;Cambridgeshire;Chippenham;;E0.43;N52.29;10;
2;England;Cambridgeshire;Chiswick End;;E0.00;N52.08;10;
2;England;Cambridgeshire;Chittering;;E0.18;N52.30;10;
2;England;Cambridgeshire;Christchurch;;E0.19;N52.54;10;
2;England;Cambridgeshire;Church End;;W0.01;N52.30;10;
2;England;Cambridgeshire;Church End;;E0.01;N52.31;10;
2;England;Cambridgeshire;Church End;;W0.40;N52.34;10;
2;England;Cambridgeshire;Church End;;W0.23;N52.42;10;
2;England;Cambridgeshire;Church End;;E0.03;N52.65;10;
2;England;Cambridgeshire;Clayhithe;;E0.19;N52.25;10;
2;England;Cambridgeshire;Claypit Hill;;W0.02;N52.16;10;
2;England;Cambridgeshire;Coates;;W0.08;N52.55;10;
2;England;Cambridgeshire;Coldham;;E0.11;N52.59;10;
2;England;Cambridgeshire;Coldham's Common;;E0.14;N52.20;10;
2;England;Cambridgeshire;Collett's Br;;E0.18;N52.63;10;
2;England;Cambridgeshire;Colnefields;;E0.01;N52.37;10;
2;England;Cambridgeshire;Comberton;;E0.01;N52.18;10;
2;England;Cambridgeshire;Commercial End;;E0.26;N52.24;10;
2;England;Cambridgeshire;Coton;;E0.04;N52.20;10;
2;England;Cambridgeshire;Cottenham;;E0.12;N52.28;10;
2;England;Cambridgeshire;Coveney;;E0.17;N52.41;10;
2;England;Cambridgeshire;Crawley End;;E0.09;N52.03;10;
2;England;Cambridgeshire;Croxton;;W0.18;N52.21;10;
2;England;Cambridgeshire;Croydon;;W0.08;N52.12;10;
2;England;Cambridgeshire;Deeping Gate;;W0.31;N52.66;10;
2;England;Cambridgeshire;Deeping St James;;W0.30;N52.66;10;
2;England;Cambridgeshire;Denny End;;E0.18;N52.26;10;
2;England;Cambridgeshire;Dillington;;W0.34;N52.27;10;
2;England;Cambridgeshire;Ditton Green;;E0.42;N52.19;10;
2;England;Cambridgeshire;Doddington;;E0.04;N52.49;10;
2;England;Cambridgeshire;Dogsthorpe;;W0.22;N52.59;10;
2;England;Cambridgeshire;Down Field;;E0.34;N52.31;10;
2;England;Cambridgeshire;Dry Drayton;;E0.01;N52.23;10;
2;England;Cambridgeshire;Duck End;;W0.18;N52.26;10;
2;England;Cambridgeshire;Dullingham;;E0.36;N52.18;10;
2;England;Cambridgeshire;Dullingham Ley;;E0.39;N52.17;10;
2;England;Cambridgeshire;Dunkirk;;E0.22;N52.45;10;
2;England;Cambridgeshire;Duxford;;E0.14;N52.08;10;
2;England;Cambridgeshire;Dyer's Green;;W0.03;N52.08;10;
2;England;Cambridgeshire;East Fen Common;;E0.34;N52.33;10;
2;England;Cambridgeshire;East Hatley;;W0.13;N52.13;10;
2;England;Cambridgeshire;East Perry;;W0.31;N52.28;10;
2;England;Cambridgeshire;Eastfield;;W0.23;N52.57;10;
2;England;Cambridgeshire;Eastgate;;W0.23;N52.56;10;
2;England;Cambridgeshire;Eastrea;;W0.09;N52.55;10;
2;England;Cambridgeshire;Eastwood End;;E0.09;N52.51;10;
2;England;Cambridgeshire;Eaton Ford;;W0.28;N52.22;10;
2;England;Cambridgeshire;Eldernell;;W0.06;N52.56;10;
2;England;Cambridgeshire;Elford Closes;;E0.19;N52.32;10;
2;England;Cambridgeshire;Ellington Thorpe;;W0.31;N52.31;10;
2;England;Cambridgeshire;Elm;;E0.17;N52.63;10;
2;England;Cambridgeshire;Elsworth;;W0.08;N52.24;10;
2;England;Cambridgeshire;Eltisley;;W0.14;N52.21;10;
2;England;Cambridgeshire;Ely;;E0.26;N52.39;10;
2;England;Cambridgeshire;Etton;;W0.31;N52.64;10;
2;England;Cambridgeshire;Eye;;W0.19;N52.60;10;
2;England;Cambridgeshire;Eye Green;;W0.19;N52.61;10;
2;England;Cambridgeshire;Fen Ditton;;E0.16;N52.21;10;
2;England;Cambridgeshire;Fen Drayton;;W0.05;N52.29;10;
2;England;Cambridgeshire;Fengate;;W0.23;N52.56;10;
2;England;Cambridgeshire;Fenton;;W0.07;N52.39;10;
2;England;Cambridgeshire;Ferry Hill;;E0.02;N52.42;10;
2;England;Cambridgeshire;Fitton End;;E0.09;N52.68;10;
2;England;Cambridgeshire;Flint Cross;;E0.04;N52.05;10;
2;England;Cambridgeshire;Flood's Ferry;;W0.01;N52.51;10;
2;England;Cambridgeshire;Fordham;;E0.37;N52.30;10;
2;England;Cambridgeshire;Forty Foot (Vermuden's Drain);;E0.11;N52.46;10;
2;England;Cambridgeshire;Foul Anchor;;E0.16;N52.73;10;
2;England;Cambridgeshire;Four Gotes;;E0.13;N52.72;10;
2;England;Cambridgeshire;Fowlmere;;E0.07;N52.08;10;
2;England;Cambridgeshire;Foxton;;E0.05;N52.11;10;
2;England;Cambridgeshire;Friday Bridge;;E0.15;N52.61;10;
2;England;Cambridgeshire;Frog End;;E0.04;N52.14;10;
2;England;Cambridgeshire;Frog End;;E0.23;N52.19;10;
2;England;Cambridgeshire;Fulbourn;;E0.20;N52.18;10;
2;England;Cambridgeshire;Gamlingay;;W0.20;N52.15;10;
2;England;Cambridgeshire;Gamlingay Cinques;;W0.21;N52.15;10;
2;England;Cambridgeshire;Gatley End;;W0.11;N52.05;10;
2;England;Cambridgeshire;Girton;;E0.07;N52.23;10;
2;England;Cambridgeshire;Glinton;;W0.30;N52.63;10;
2;England;Cambridgeshire;Gorefield;;E0.08;N52.67;10;
2;England;Cambridgeshire;Grafham;;W0.29;N52.30;10;
2;England;Cambridgeshire;Grafham Water;;W0.32;N52.29;10;
2;England;Cambridgeshire;Granta;;E0.28;N52.09;10;
2;England;Cambridgeshire;Grantchester;;E0.09;N52.17;10;
2;England;Cambridgeshire;Graveley;;W0.18;N52.26;10;
2;England;Cambridgeshire;Great Abington;;E0.23;N52.10;10;
2;England;Cambridgeshire;Great Chishill;;E0.06;N52.02;10;
2;England;Cambridgeshire;Great Eversden;;W0.01;N52.15;10;
2;England;Cambridgeshire;Great Green;;W0.13;N52.07;10;
2;England;Cambridgeshire;Great Ouse;;W0.10;N52.32;10;
2;England;Cambridgeshire;Great Shelford;;E0.13;N52.14;10;
2;England;Cambridgeshire;Great Wilbraham;;E0.25;N52.19;10;
2;England;Cambridgeshire;Green End;;E0.01;N52.18;10;
2;England;Cambridgeshire;Green End;;W0.21;N52.35;10;
2;England;Cambridgeshire;Gunthorpe;;W0.25;N52.60;10;
2;England;Cambridgeshire;Guyhirn;;E0.06;N52.60;10;
2;England;Cambridgeshire;Guyhirn Gull;;E0.05;N52.61;10;
2;England;Cambridgeshire;Haddenham;;E0.14;N52.35;10;
2;England;Cambridgeshire;Haddenham End Field;;E0.14;N52.36;10;
2;England;Cambridgeshire;Hardwick;;E0.00;N52.21;10;
2;England;Cambridgeshire;Hardwick;;W0.27;N52.29;10;
2;England;Cambridgeshire;Harlton;;E0.01;N52.14;10;
2;England;Cambridgeshire;Harston;;E0.07;N52.13;10;
2;England;Cambridgeshire;Haslingfield;;E0.04;N52.14;10;
2;England;Cambridgeshire;Hatley St George;;W0.13;N52.14;10;
2;England;Cambridgeshire;Hauxton;;E0.08;N52.14;10;
2;England;Cambridgeshire;Hazel Stub;;E0.40;N52.07;10;
2;England;Cambridgeshire;Heathfield;;E0.11;N52.09;10;
2;England;Cambridgeshire;Helpston;;W0.34;N52.63;10;
2;England;Cambridgeshire;Heydon;;E0.08;N52.04;10;
2;England;Cambridgeshire;High Cross;;E0.07;N52.21;10;
2;England;Cambridgeshire;Highfields;;W0.02;N52.20;10;
2;England;Cambridgeshire;Hildersham;;E0.24;N52.10;10;
2;England;Cambridgeshire;Hinxton;;E0.17;N52.08;10;
2;England;Cambridgeshire;Histon;;E0.09;N52.24;10;
2;England;Cambridgeshire;Holywell;;W0.05;N52.31;10;
2;England;Cambridgeshire;Hook;;E0.09;N52.51;10;
2;England;Cambridgeshire;Horningsea;;E0.18;N52.23;10;
2;England;Cambridgeshire;Horseheath;;E0.34;N52.09;10;
2;England;Cambridgeshire;Horseway;;E0.08;N52.45;10;
2;England;Cambridgeshire;Ickleton;;E0.17;N52.06;10;
2;England;Cambridgeshire;Impington;;E0.10;N52.24;10;
2;England;Cambridgeshire;Iron Bridge;;E0.18;N52.56;10;
2;England;Cambridgeshire;Islands Common;;W0.27;N52.23;10;
2;England;Cambridgeshire;Isleham;;E0.40;N52.33;10;
2;England;Cambridgeshire;Kennett;;E0.47;N52.28;10;
2;England;Cambridgeshire;Kennett;;E0.43;N52.33;10;
2;England;Cambridgeshire;King's Dyke;;W0.17;N52.54;10;
2;England;Cambridgeshire;Kings Hedges;;E0.12;N52.22;10;
2;England;Cambridgeshire;Kingston;;W0.04;N52.17;10;
2;England;Cambridgeshire;Kirtling;;E0.45;N52.17;10;
2;England;Cambridgeshire;Knapwell;;W0.05;N52.24;10;
2;England;Cambridgeshire;Kneesworth;;W0.04;N52.07;10;
2;England;Cambridgeshire;Knight's End;;E0.06;N52.52;10;
2;England;Cambridgeshire;Kym;;W0.32;N52.26;10;
2;England;Cambridgeshire;Landbeach;;E0.15;N52.26;10;
2;England;Cambridgeshire;Lark;;E0.36;N52.41;10;
2;England;Cambridgeshire;Leighton Bromswold;;W0.37;N52.36;10;
2;England;Cambridgeshire;Leverington;;E0.12;N52.67;10;
2;England;Cambridgeshire;Leverington Common;;E0.09;N52.66;10;
2;England;Cambridgeshire;Litlington;;W0.09;N52.06;10;
2;England;Cambridgeshire;Little Abington;;E0.23;N52.11;10;
2;England;Cambridgeshire;Little Ditton;;E0.42;N52.19;10;
2;England;Cambridgeshire;Little Downham;;E0.23;N52.42;10;
2;England;Cambridgeshire;Little End;;W0.28;N52.20;10;
2;England;Cambridgeshire;Little Eversden;;W0.00;N52.15;10;
2;England;Cambridgeshire;Little Gransden;;W0.14;N52.17;10;
2;England;Cambridgeshire;Little Green;;W0.13;N52.08;10;
2;England;Cambridgeshire;Little London;;E0.07;N52.54;10;
2;England;Cambridgeshire;Little Ouse;;E0.38;N52.47;10;
2;England;Cambridgeshire;Little Shelford;;E0.11;N52.13;10;
2;England;Cambridgeshire;Little Thetford;;E0.24;N52.36;10;
2;England;Cambridgeshire;Little Wilbraham;;E0.25;N52.19;10;
2;England;Cambridgeshire;Littleport;;E0.29;N52.45;10;
2;England;Cambridgeshire;Lode;;E0.23;N52.23;10;
2;England;Cambridgeshire;Lolworth;;W0.01;N52.25;10;
2;England;Cambridgeshire;London End;;W0.40;N52.29;10;
2;England;Cambridgeshire;Long Meadow;;E0.25;N52.23;10;
2;England;Cambridgeshire;Longstanton;;E0.03;N52.27;10;
2;England;Cambridgeshire;Longstowe;;W0.09;N52.17;10;
2;England;Cambridgeshire;Longthorpe;;W0.28;N52.56;10;
2;England;Cambridgeshire;Madingley;;E0.03;N52.22;10;
2;England;Cambridgeshire;Manea;;E0.17;N52.47;10;
2;England;Cambridgeshire;March;;E0.07;N52.54;10;
2;England;Cambridgeshire;Marholm;;W0.31;N52.60;10;
2;England;Cambridgeshire;Maxey;;W0.34;N52.65;10;
2;England;Cambridgeshire;Melbourn;;E0.01;N52.07;10;
2;England;Cambridgeshire;Meldreth;;W0.00;N52.09;10;
2;England;Cambridgeshire;Mepal;;E0.11;N52.39;10;
2;England;Cambridgeshire;Middle Level Main Drain;;E0.08;N52.46;10;
2;England;Cambridgeshire;Mile End;;E0.35;N52.42;10;
2;England;Cambridgeshire;Mill End;;E0.47;N52.17;10;
2;England;Cambridgeshire;Mill Green;;E0.36;N52.07;10;
2;England;Cambridgeshire;Millfield;;W0.25;N52.58;10;
2;England;Cambridgeshire;Milton;;E0.15;N52.23;10;
2;England;Cambridgeshire;Moor End;;E0.01;N52.10;10;
2;England;Cambridgeshire;Morden Green;;W0.11;N52.06;10;
2;England;Cambridgeshire;Murrow;;E0.02;N52.64;10;
2;England;Cambridgeshire;Needingworth;;W0.03;N52.33;10;
2;England;Cambridgeshire;Nene;;W0.41;N52.56;10;
2;England;Cambridgeshire;Nene Terrace;;W0.15;N52.64;10;
2;England;Cambridgeshire;New Bedford River;;E0.30;N52.55;10;
2;England;Cambridgeshire;New England;;W0.25;N52.59;10;
2;England;Cambridgeshire;New Fletton;;W0.24;N52.55;10;
2;England;Cambridgeshire;New Wimpole;;W0.04;N52.12;10;
2;England;Cambridgeshire;New Wryde Drain;;W0.02;N52.63;10;
2;England;Cambridgeshire;Newark;;W0.21;N52.58;10;
2;England;Cambridgeshire;Newborough;;W0.22;N52.62;10;
2;England;Cambridgeshire;Newnham;;E0.10;N52.19;10;
2;England;Cambridgeshire;Newton;;E0.08;N52.12;10;
2;England;Cambridgeshire;Newton;;E0.11;N52.70;10;
2;England;Cambridgeshire;Newtown;;W0.40;N52.29;10;
2;England;Cambridgeshire;Norman Cross;;W0.30;N52.49;10;
2;England;Cambridgeshire;North Brook End;;W0.11;N52.07;10;
2;England;Cambridgeshire;North Level Main Drain;;E0.13;N52.73;10;
2;England;Cambridgeshire;North Side;;W0.12;N52.57;10;
2;England;Cambridgeshire;Northborough;;W0.30;N52.64;10;
2;England;Cambridgeshire;Norwoodside;;E0.07;N52.56;10;
2;England;Cambridgeshire;Nosterfield End;;E0.37;N52.07;10;
2;England;Cambridgeshire;Oakington;;E0.06;N52.25;10;
2;England;Cambridgeshire;Odsey;;W0.12;N52.02;10;
2;England;Cambridgeshire;Offord D'Arcy;;W0.22;N52.27;10;
2;England;Cambridgeshire;Old Bedford River;;E0.14;N52.44;10;
2;England;Cambridgeshire;Old Fletton;;W0.24;N52.54;10;
2;England;Cambridgeshire;Old Nene;;W0.17;N52.50;10;
2;England;Cambridgeshire;Old Wimpole;;W0.04;N52.14;10;
2;England;Cambridgeshire;Olmstead Green;;E0.37;N52.04;10;
2;England;Cambridgeshire;Orton Brimbles;;W0.30;N52.55;10;
2;England;Cambridgeshire;Orton Goldhay;;W0.30;N52.54;10;
2;England;Cambridgeshire;Orton Malbourne;;W0.27;N52.54;10;
2;England;Cambridgeshire;Orton Southgate;;W0.32;N52.53;10;
2;England;Cambridgeshire;Orton Wistow;;W0.31;N52.55;10;
2;England;Cambridgeshire;Orwell;;W0.01;N52.13;10;
2;England;Cambridgeshire;Over;;E0.01;N52.31;10;
2;England;Cambridgeshire;Over End;;W0.39;N52.52;10;
2;England;Cambridgeshire;Owl End;;W0.20;N52.35;10;
2;England;Cambridgeshire;Oxlode;;E0.17;N52.45;10;
2;England;Cambridgeshire;Pampisford;;E0.17;N52.11;10;
2;England;Cambridgeshire;Papworth Everard;;W0.12;N52.25;10;
2;England;Cambridgeshire;Papworth St Agnes;;W0.15;N52.26;10;
2;England;Cambridgeshire;Park End;;E0.26;N52.22;10;
2;England;Cambridgeshire;Parson Drove;;E0.02;N52.65;10;
2;England;Cambridgeshire;Paston;;W0.24;N52.60;10;
2;England;Cambridgeshire;Peakirk;;W0.28;N52.63;10;
2;England;Cambridgeshire;Peas Hill;;E0.06;N52.55;10;
2;England;Cambridgeshire;Peterborough;;W0.24;N52.57;10;
2;England;Cambridgeshire;Pidley;;W0.04;N52.37;10;
2;England;Cambridgeshire;Pilsgate;;W0.43;N52.63;10;
2;England;Cambridgeshire;Pondersbridge;;W0.14;N52.51;10;
2;England;Cambridgeshire;Prickwillow;;E0.33;N52.41;10;
2;England;Cambridgeshire;Purls Bridge;;E0.16;N52.46;10;
2;England;Cambridgeshire;Pymoor (Pymore);;E0.19;N52.45;10;
2;England;Cambridgeshire;Pymore (Pymoor);;E0.19;N52.45;10;
2;England;Cambridgeshire;Queen Adelaide;;E0.29;N52.40;10;
2;England;Cambridgeshire;Rampton;;E0.08;N52.28;10;
2;England;Cambridgeshire;Ramsey Forty Foot;;W0.08;N52.46;10;
2;England;Cambridgeshire;Ramsey Mereside;;W0.11;N52.48;10;
2;England;Cambridgeshire;Ramsey St Mary's;;W0.16;N52.47;10;
2;England;Cambridgeshire;Ravensthorpe;;W0.28;N52.58;10;
2;England;Cambridgeshire;Reach;;E0.28;N52.27;10;
2;England;Cambridgeshire;Red Lodge;;E0.47;N52.30;10;
2;England;Cambridgeshire;Rhee (Cam);;E0.08;N52.15;10;
2;England;Cambridgeshire;Ring's End;;E0.05;N52.59;10;
2;England;Cambridgeshire;River Bank;;E0.24;N52.28;10;
2;England;Cambridgeshire;Romsey Town;;E0.14;N52.20;10;
2;England;Cambridgeshire;Sandhill;;E0.30;N52.44;10;
2;England;Cambridgeshire;Sapley;;W0.18;N52.34;10;
2;England;Cambridgeshire;Sawston;;E0.16;N52.11;10;
2;England;Cambridgeshire;Saxon Street;;E0.44;N52.20;10;
2;England;Cambridgeshire;Second Drove;;E0.25;N52.45;10;
2;England;Cambridgeshire;Shepreth;;E0.02;N52.10;10;
2;England;Cambridgeshire;Shingay;;W0.10;N52.09;10;
2;England;Cambridgeshire;Shudy Camps;;E0.34;N52.07;10;
2;England;Cambridgeshire;Sibson;;W0.39;N52.56;10;
2;England;Cambridgeshire;Snailwell;;E0.40;N52.27;10;
2;England;Cambridgeshire;Soham;;E0.33;N52.33;10;
2;England;Cambridgeshire;Soham Cotes;;E0.30;N52.35;10;
2;England;Cambridgeshire;Southorpe;;W0.40;N52.61;10;
2;England;Cambridgeshire;St Ives;;W0.09;N52.33;10;
2;England;Cambridgeshire;St Neots;;W0.27;N52.22;10;
2;England;Cambridgeshire;Stanground;;W0.23;N52.54;10;
2;England;Cambridgeshire;Stapleford;;E0.14;N52.13;10;
2;England;Cambridgeshire;Staughton Green;;W0.34;N52.27;10;
2;England;Cambridgeshire;Staughton Highway;;W0.34;N52.26;10;
2;England;Cambridgeshire;Staughton Moor;;W0.34;N52.23;10;
2;England;Cambridgeshire;Steeple Morden;;W0.13;N52.06;10;
2;England;Cambridgeshire;Stetchworth;;E0.39;N52.19;10;
2;England;Cambridgeshire;Stibbington;;W0.40;N52.56;10;
2;England;Cambridgeshire;Stirtloe;;W0.25;N52.27;10;
2;England;Cambridgeshire;Stonea;;E0.13;N52.51;10;
2;England;Cambridgeshire;Stonely;;W0.38;N52.29;10;
2;England;Cambridgeshire;Stour;;E0.39;N52.16;10;
2;England;Cambridgeshire;Stow cum Quy;;E0.22;N52.21;10;
2;England;Cambridgeshire;Streetly End;;E0.34;N52.10;10;
2;England;Cambridgeshire;Stretham;;E0.21;N52.34;10;
2;England;Cambridgeshire;Stuntney;;E0.27;N52.37;10;
2;England;Cambridgeshire;Suspension Bridge;;E0.25;N52.50;10;
2;England;Cambridgeshire;Sutton;;E0.11;N52.39;10;
2;England;Cambridgeshire;Sutton;;W0.39;N52.56;10;
2;England;Cambridgeshire;Sutton Gault;;E0.08;N52.39;10;
2;England;Cambridgeshire;Swaffham Bulbeck;;E0.26;N52.23;10;
2;England;Cambridgeshire;Swaffham Prior;;E0.29;N52.25;10;
2;England;Cambridgeshire;Swavesey;;W0.01;N52.29;10;
2;England;Cambridgeshire;Swingbrow;;E0.01;N52.47;10;
2;England;Cambridgeshire;Tadlow;;W0.13;N52.10;10;
2;England;Cambridgeshire;Teversham;;E0.17;N52.20;10;
2;England;Cambridgeshire;The Green;;W0.11;N52.27;10;
2;England;Cambridgeshire;The Hermitage;;E0.03;N52.34;10;
2;England;Cambridgeshire;The Thrift;;W0.09;N52.03;10;
2;England;Cambridgeshire;Tholomas Drove;;E0.06;N52.63;10;
2;England;Cambridgeshire;Thorney Toll;;W0.02;N52.60;10;
2;England;Cambridgeshire;Thornhaugh;;W0.43;N52.58;10;
2;England;Cambridgeshire;Three Holes;;E0.21;N52.57;10;
2;England;Cambridgeshire;Thriplow;;E0.08;N52.09;10;
2;England;Cambridgeshire;Throckenholt;;W0.01;N52.66;10;
2;England;Cambridgeshire;Toft;;W0.01;N52.18;10;
2;England;Cambridgeshire;Town End;;E0.07;N52.53;10;
2;England;Cambridgeshire;Trumpington;;E0.10;N52.16;10;
2;England;Cambridgeshire;Turves;;W0.03;N52.54;10;
2;England;Cambridgeshire;Twenty Foot River;;W0.01;N52.58;10;
2;England;Cambridgeshire;Tydd Gote;;E0.14;N52.73;10;
2;England;Cambridgeshire;Tydd St Giles;;E0.10;N52.72;10;
2;England;Cambridgeshire;Ufford;;W0.39;N52.62;10;
2;England;Cambridgeshire;Upend;;E0.47;N52.19;10;
2;England;Cambridgeshire;Upware;;E0.24;N52.30;10;
2;England;Cambridgeshire;Vermuden's Drain (Forty Foot);;E0.11;N52.46;10;
2;England;Cambridgeshire;Walsoken;;E0.17;N52.66;10;
2;England;Cambridgeshire;Walton;;W0.27;N52.60;10;
2;England;Cambridgeshire;Wardy Hill;;E0.16;N52.41;10;
2;England;Cambridgeshire;Waterbeach;;E0.18;N52.26;10;
2;England;Cambridgeshire;Wendy;;W0.07;N52.10;10;
2;England;Cambridgeshire;Wennington;;W0.19;N52.39;10;
2;England;Cambridgeshire;Wentworth;;E0.15;N52.38;10;
2;England;Cambridgeshire;Werrington;;W0.28;N52.61;10;
2;England;Cambridgeshire;West Deeping;;W0.36;N52.65;10;
2;England;Cambridgeshire;West Perry;;W0.33;N52.28;10;
2;England;Cambridgeshire;West Wickham;;E0.35;N52.11;10;
2;England;Cambridgeshire;West Wratting;;E0.33;N52.13;10;
2;England;Cambridgeshire;Westley Waterless;;E0.36;N52.17;10;
2;England;Cambridgeshire;Weston Colville;;E0.35;N52.15;10;
2;England;Cambridgeshire;Weston Green;;E0.36;N52.14;10;
2;England;Cambridgeshire;Westry;;E0.04;N52.56;10;
2;England;Cambridgeshire;Westwick;;E0.07;N52.26;10;
2;England;Cambridgeshire;Westwood;;W0.28;N52.57;10;
2;England;Cambridgeshire;Whaddon;;W0.03;N52.09;10;
2;England;Cambridgeshire;Whaddon Gap;;W0.04;N52.09;10;
2;England;Cambridgeshire;White Cross Hill;;E0.18;N52.35;10;
2;England;Cambridgeshire;Whittlesey;;W0.12;N52.55;10;
2;England;Cambridgeshire;Whittlesford;;E0.14;N52.11;10;
2;England;Cambridgeshire;Wicken;;E0.28;N52.30;10;
2;England;Cambridgeshire;Widgham Green;;E0.42;N52.16;10;
2;England;Cambridgeshire;Wilburton;;E0.17;N52.34;10;
2;England;Cambridgeshire;Willingham;;E0.05;N52.31;10;
2;England;Cambridgeshire;Willingham Green;;E0.36;N52.16;10;
2;England;Cambridgeshire;Wimblington;;E0.07;N52.50;10;
2;England;Cambridgeshire;Wisbech;;E0.15;N52.65;10;
2;England;Cambridgeshire;Wisbech St Mary;;E0.09;N52.65;10;
2;England;Cambridgeshire;Witcham;;E0.14;N52.38;10;
2;England;Cambridgeshire;Witchford;;E0.20;N52.37;10;
2;England;Cambridgeshire;Wittering;;W0.45;N52.60;10;
2;England;Cambridgeshire;Woodditton;;E0.42;N52.19;10;
2;England;Cambridgeshire;Woodwalton;;W0.22;N52.40;10;