"Level";"Country";"County";"Place";"void";"Longitude";"Latitude";"ZoomLevel";"Icon"
2;ENG;London;Balham;;W0.15;N51.44;10;
2;ENG;London;Barnet;;W0.20;N51.64;10;
2;ENG;London;Barnsbury;;W0.12;N51.54;10;
2;ENG;London;Battersea;;W0.15;N51.46;10;
2;ENG;London;Bayswater;;W0.20;N51.50;10;
2;ENG;London;Belgravia;;W0.15;N51.49;10;
2;ENG;London;Bermondsey;;W0.08;N51.49;10;
2;ENG;London;Bethnal Green;;W0.06;N51.52;10;
2;ENG;London;Blackwall;;W0.01;N51.50;10;
2;ENG;London;Bloomsbury;;W0.12;N51.52;10;
2;ENG;London;Bow;;W0.04;N51.52;10;
2;ENG;London;Bow Common;;W0.02;N51.51;10;
2;ENG;London;Bowes Park;;W0.12;N51.60;10;
2;ENG;London;Brixton;;W0.11;N51.45;10;
2;ENG;London;Bromley;;W0.02;N51.52;10;
2;ENG;London;Brompton;;W0.17;N51.49;10;
2;ENG;London;Camberwell;;W0.08;N51.47;10;
2;ENG;London;Camden Town;;W0.14;N51.54;10;
2;ENG;London;Chelsea;;W0.17;N51.47;10;
2;ENG;London;Clapham;;W0.14;N51.45;10;
2;ENG;London;Clapham Park;;W0.14;N51.45;10;
2;ENG;London;Clerkenwell;;W0.11;N51.52;10;
2;ENG;London;Cranley Gardens;;W0.15;N51.58;10;
2;ENG;London;Crouch End;;W0.13;N51.57;10;
2;ENG;London;Cubitt Town;;W0.01;N51.49;10;
2;ENG;London;Dartmouth Park;;W0.15;N51.55;10;
2;ENG;London;Dulwich;;W0.07;N51.43;10;
2;ENG;London;Dulwich Village;;W0.08;N51.44;10;
2;ENG;London;Earlsfield;;W0.18;N51.44;10;
2;ENG;London;East Dulwich;;W0.07;N51.44;10;
2;ENG;London;Finsbury;;W0.11;N51.52;10;
2;ENG;London;Globe Town;;W0.05;N51.52;10;
2;ENG;London;Gospel Oak;;W0.15;N51.54;10;
2;ENG;London;Hackney Wick;;W0.02;N51.53;10;
2;ENG;London;Hampstead;;W0.18;N51.55;10;
2;ENG;London;Harringay;;W0.11;N51.57;10;
2;ENG;London;Herne Hill;;W0.10;N51.44;10;
2;ENG;London;Highgate;;W0.15;N51.56;10;
2;ENG;London;Holborn;;W0.12;N51.51;10;
2;ENG;London;Hornsey;;W0.12;N51.58;10;
2;ENG;London;Hornsey Vale;;W0.12;N51.57;10;
2;ENG;London;Kennington;;W0.12;N51.47;10;
2;ENG;London;Kensal Town;;W0.21;N51.52;10;
2;ENG;London;Kensington;;W0.20;N51.49;10;
2;ENG;London;Kentish Town;;W0.15;N51.54;10;
2;ENG;London;Knight's Hill;;W0.10;N51.44;10;
2;ENG;London;Knightsbridge;;W0.17;N51.49;10;
2;ENG;London;Lambeth;;W0.12;N51.48;10;
2;ENG;London;Limehouse;;W0.04;N51.51;10;
2;ENG;London;Lisson Grove;;W0.17;N51.52;10;
2;ENG;London;London;;W0.11;N51.51;10;
2;ENG;London;Maida Vale;;W0.19;N51.52;10;
2;ENG;London;Maitland Park;;W0.15;N51.54;10;
2;ENG;London;Marylebone;;W0.15;N51.51;10;
2;ENG;London;Mayfair;;W0.15;N51.50;10;
2;ENG;London;Mile End;;W0.04;N51.52;10;
2;ENG;London;Mill Meads;;W0.01;N51.52;10;
2;ENG;London;Millwall;;W0.02;N51.49;10;
2;ENG;London;Muswell Hill;;W0.15;N51.59;10;
2;ENG;London;New Cross Gate;;W0.05;N51.46;10;
2;ENG;London;New River;;W0.10;N51.57;10;
2;ENG;London;Newington;;W0.09;N51.49;10;
2;ENG;London;Nine Elms;;W0.14;N51.47;10;
2;ENG;London;Noel Park;;W0.11;N51.59;10;
2;ENG;London;North End;;W0.18;N51.56;10;
2;ENG;London;Notting Hill;;W0.21;N51.50;10;
2;ENG;London;Nunhead;;W0.05;N51.45;10;
2;ENG;London;Old Ford;;W0.04;N51.52;10;
2;ENG;London;Paddington;;W0.18;N51.51;10;
2;ENG;London;Peckham;;W0.07;N51.46;10;
2;ENG;London;Pimlico;;W0.14;N51.48;10;
2;ENG;London;Poplar;;W0.02;N51.50;10;
2;ENG;London;Primrose Hill;;W0.15;N51.54;10;
2;ENG;London;Putney;;W0.23;N51.46;10;
2;ENG;London;Putney Heath;;W0.23;N51.44;10;
2;ENG;London;Putney Vale;;W0.24;N51.43;10;
2;ENG;London;Queen's Park;;W0.20;N51.53;10;
2;ENG;London;Ratcliff;;W0.05;N51.50;10;
2;ENG;London;Regent's Park;;W0.15;N51.52;10;
2;ENG;London;Roehampton;;W0.24;N51.45;10;
2;ENG;London;Rotherhithe;;W0.05;N51.49;10;
2;ENG;London;Shadwell;;W0.05;N51.50;10;
2;ENG;London;Soho;;W0.14;N51.51;10;
2;ENG;London;Somers Town;;W0.14;N51.52;10;
2;ENG;London;South Bromley;;W0.01;N51.51;10;
2;ENG;London;South Hampstead;;W0.18;N51.54;10;
2;ENG;London;South Kensington;;W0.18;N51.48;10;
2;ENG;London;South Lambeth;;W0.12;N51.46;10;
2;ENG;London;Southfields;;W0.20;N51.44;10;
2;ENG;London;Spitalfields;;W0.08;N51.51;10;
2;ENG;London;St George in the East;;W0.07;N51.50;10;
2;ENG;London;St Giles;;W0.12;N51.51;10;
2;ENG;London;St James;;W0.14;N51.50;10;
2;ENG;London;St John's Wood;;W0.18;N51.53;10;
2;ENG;London;St Pancras;;W0.12;N51.52;10;
2;ENG;London;Stepney;;W0.07;N51.51;10;
2;ENG;London;Stockwell;;W0.12;N51.45;10;
2;ENG;London;Strand;;W0.12;N51.50;10;
2;ENG;London;Stratford Marsh;;W0.02;N51.52;10;
2;ENG;London;Streatham;;W0.13;N51.42;10;
2;ENG;London;Streatham Hill;;W0.13;N51.44;10;
2;ENG;London;Streatham Park;;W0.14;N51.42;10;
2;ENG;London;Stroud Green;;W0.11;N51.57;10;
2;ENG;London;Summerstown;;W0.18;N51.43;10;
2;ENG;London;The Borough;;W0.09;N51.49;10;
2;ENG;London;Tooting Graveney;;W0.17;N51.42;10;
2;ENG;London;Tottenham;;W0.08;N51.59;10;
2;ENG;London;Tottenham Hale;;W0.06;N51.58;10;
2;ENG;London;Tufnell Park;;W0.14;N51.54;10;
2;ENG;London;Tulse Hill;;W0.11;N51.44;10;
2;ENG;London;Upper Holloway;;W0.14;N51.55;10;
2;ENG;London;Upper Tooting;;W0.17;N51.43;10;
2;ENG;London;Vale of Health;;W0.18;N51.55;10;
2;ENG;London;Vauxhall;;W0.12;N51.48;10;
2;ENG;London;Walworth;;W0.10;N51.48;10;
2;ENG;London;Wandsworth;;W0.20;N51.46;10;
2;ENG;London;Wapping;;W0.07;N51.50;10;
2;ENG;London;West Dulwich;;W0.10;N51.43;10;
2;ENG;London;West Green;;W0.09;N51.58;10;
2;ENG;London;West Hampstead;;W0.19;N51.55;10;
2;ENG;London;West Hill;;W0.21;N51.45;10;
2;ENG;London;West Kilburn;;W0.21;N51.52;10;
2;ENG;London;West Norwood;;W0.10;N51.42;10;
2;ENG;London;Westbourne Green;;W0.19;N51.52;10;
2;ENG;London;Westminster;;W0.14;N51.49;10;
2;ENG;London;Whitechapel;;W0.08;N51.51;10;
2;ENG;London;Wood Green;;W0.12;N51.59;10;