"Level";"Country";"County";"Place";"void";"Longitude";"Latitude";"ZoomLevel";"Icon"
2;ENG;Durham;Annfield Plain;;W1.73;N54.85;10;
2;ENG;Durham;Archdeacon Newton;;W1.61;N54.54;10;
2;ENG;Durham;Arn Gill;;W1.91;N54.61;10;
2;ENG;Durham;Aukside;;W2.09;N54.62;10;
2;ENG;Durham;Aycliffe Village;;W1.56;N54.59;10;
2;ENG;Durham;Aykley Heads;;W1.59;N54.78;10;
2;ENG;Durham;Balder;;W2.04;N54.57;10;
2;ENG;Durham;Balderhead Reservoir;;W2.14;N54.55;10;
2;ENG;Durham;Barley Mow;;W1.58;N54.88;10;
2;ENG;Durham;Barmpton;;W1.52;N54.55;10;
2;ENG;Durham;Barnard Castle;;W1.92;N54.53;10;
2;ENG;Durham;Barningham;;W1.87;N54.48;10;
2;ENG;Durham;Beamish;;W1.65;N54.87;10;
2;ENG;Durham;Bearpark;;W1.64;N54.78;10;
2;ENG;Durham;Beaumont Hill;;W1.55;N54.55;10;
2;ENG;Durham;Bedburn;;W1.84;N54.67;10;
2;ENG;Durham;Belmont;;W1.53;N54.78;10;
2;ENG;Durham;Benfieldside;;W1.86;N54.86;10;
2;ENG;Durham;Bildershaw;;W1.69;N54.61;10;
2;ENG;Durham;Billy Row;;W1.75;N54.72;10;
2;ENG;Durham;Binchester Blocks;;W1.66;N54.68;10;
2;ENG;Durham;Bishop Auckland;;W1.69;N54.64;10;
2;ENG;Durham;Bishop Auckland;;W1.70;N54.64;10;
2;ENG;Durham;Bishop Middleham;;W1.48;N54.67;10;
2;ENG;Durham;Bishopton;;W1.44;N54.58;10;
2;ENG;Durham;Black Banks;;W1.55;N54.50;10;
2;ENG;Durham;Blackgill Burn;;W1.74;N54.81;10;
2;ENG;Durham;Blackhall Colliery;;W1.30;N54.74;10;
2;ENG;Durham;Blackhall Mill;;W1.82;N54.89;10;
2;ENG;Durham;Blackhall Rocks;;W1.28;N54.73;10;
2;ENG;Durham;Blackhill;;W1.86;N54.85;10;
2;ENG;Durham;Bolam;;W1.70;N54.59;10;
2;ENG;Durham;Boldron;;W1.95;N54.52;10;
2;ENG;Durham;Bollihope;;W2.00;N54.70;10;
2;ENG;Durham;Boltshope Park;;W2.09;N54.81;10;
2;ENG;Durham;Bournmoor;;W1.51;N54.85;10;
2;ENG;Durham;Bowbank;;W2.09;N54.60;10;
2;ENG;Durham;Bowburn;;W1.53;N54.73;10;
2;ENG;Durham;Bowes;;W2.01;N54.51;10;
2;ENG;Durham;Bowlees;;W2.15;N54.64;10;
2;ENG;Durham;Bradbury;;W1.52;N54.64;10;
2;ENG;Durham;Brafferton;;W1.55;N54.58;10;
2;ENG;Durham;Brancepeth;;W1.65;N54.72;10;
2;ENG;Durham;Brandon;;W1.64;N54.74;10;
2;ENG;Durham;Branksome;;W1.59;N54.53;10;
2;ENG;Durham;Bridge End;;W1.98;N54.71;10;
2;ENG;Durham;Bridgehill;;W1.86;N54.85;10;
2;ENG;Durham;Brignall;;W1.89;N54.50;10;
2;ENG;Durham;Broom Hill;;W1.84;N54.88;10;
2;ENG;Durham;Broompark;;W1.62;N54.76;10;
2;ENG;Durham;Brotherlee;;W2.12;N54.72;10;
2;ENG;Durham;Browney;;W1.62;N54.78;10;
2;ENG;Durham;Burnhope;;W1.72;N54.82;10;
2;ENG;Durham;Burnhope Burn;;W2.24;N54.74;10;
2;ENG;Durham;Burnopfield;;W1.75;N54.89;10;
2;ENG;Durham;Butterknowle;;W1.84;N54.62;10;
2;ENG;Durham;Butterwick;;W1.41;N54.65;10;
2;ENG;Durham;Byermoor;;W1.72;N54.90;10;
2;ENG;Durham;Byers Green;;W1.66;N54.70;10;
2;ENG;Durham;Carrville;;W1.53;N54.78;10;
2;ENG;Durham;Cassop;;W1.47;N54.73;10;
2;ENG;Durham;Castle Eden;;W1.34;N54.72;10;
2;ENG;Durham;Castleside;;W1.87;N54.82;10;
2;ENG;Durham;Catchgate;;W1.75;N54.86;10;
2;ENG;Durham;Causey;;W1.68;N54.89;10;
2;ENG;Durham;Chester Moor;;W1.59;N54.83;10;
2;ENG;Durham;Chester-Le-Street;;W1.58;N54.85;10;
2;ENG;Durham;Chilton;;W1.56;N54.65;10;
2;ENG;Durham;Chilton Lane;;W1.53;N54.66;10;
2;ENG;Durham;Chilton Moor;;W1.50;N54.83;10;
2;ENG;Durham;Cleatlam;;W1.83;N54.55;10;
2;ENG;Durham;Close House;;W1.64;N54.63;10;
2;ENG;Durham;Clough Dene;;W1.73;N54.88;10;
2;ENG;Durham;Coal Bank;;W1.45;N54.58;10;
2;ENG;Durham;Coatham Mundeville;;W1.56;N54.57;10;
2;ENG;Durham;Cockerton;;W1.58;N54.53;10;
2;ENG;Durham;Cockfield;;W1.81;N54.61;10;
2;ENG;Durham;Cold Hesledon;;W1.37;N54.81;10;
2;ENG;Durham;Colliery Row;;W1.50;N54.83;10;
2;ENG;Durham;Consett;;W1.86;N54.85;10;
2;ENG;Durham;Copley;;W1.87;N54.62;10;
2;ENG;Durham;Copthill;;W2.23;N54.75;10;
2;ENG;Durham;Cornforth;;W1.52;N54.70;10;
2;ENG;Durham;Cornriggs;;W2.25;N54.76;10;
2;ENG;Durham;Cornsay;;W1.78;N54.78;10;
2;ENG;Durham;Cornsay Colliery;;W1.75;N54.78;10;
2;ENG;Durham;Cotherstone;;W1.98;N54.56;10;
2;ENG;Durham;Coundon;;W1.62;N54.65;10;
2;ENG;Durham;Coundon Grange;;W1.66;N54.64;10;
2;ENG;Durham;Coundongate;;W1.66;N54.65;10;
2;ENG;Durham;Cowshill;;W2.23;N54.75;10;
2;ENG;Durham;Coxhoe;;W1.50;N54.70;10;
2;ENG;Durham;Coxhoe;;W1.52;N54.71;10;
2;ENG;Durham;Craghead;;W1.67;N54.84;10;
2;ENG;Durham;Craigside;;W1.81;N54.71;10;
2;ENG;Durham;Crawleyside;;W2.01;N54.75;10;
2;ENG;Durham;Crimdon Park;;W1.25;N54.72;10;
2;ENG;Durham;Crook;;W1.75;N54.71;10;
2;ENG;Durham;Crookgate Bank;;W1.72;N54.89;10;
2;ENG;Durham;Crookhall;;W1.83;N54.84;10;
2;ENG;Durham;Croxdale;;W1.59;N54.71;10;
2;ENG;Durham;Daddry Shield;;W2.17;N54.72;10;
2;ENG;Durham;Dalton-le-Dale;;W1.37;N54.81;10;
2;ENG;Durham;Dawdon;;W1.34;N54.82;10;
2;ENG;Durham;Deaf Hill;;W1.41;N54.71;10;
2;ENG;Durham;Dean Bank;;W1.56;N54.68;10;
2;ENG;Durham;Delves;;W1.81;N54.83;10;
2;ENG;Durham;Dene;;W1.83;N54.88;10;
2;ENG;Durham;Deneside;;W1.36;N54.82;10;
2;ENG;Durham;Dent Bank;;W2.10;N54.62;10;
2;ENG;Durham;Denton;;W1.67;N54.55;10;
2;ENG;Durham;Derwent;;W1.85;N54.89;10;
2;ENG;Durham;Dipton;;W1.76;N54.87;10;
2;ENG;Durham;Durham;;W1.58;N54.77;10;
2;ENG;Durham;Easington;;W1.36;N54.78;10;
2;ENG;Durham;Easington Colliery;;W1.33;N54.78;10;
2;ENG;Durham;East Blackdene;;W2.18;N54.73;10;
2;ENG;Durham;East Briscoe;;W2.04;N54.56;10;
2;ENG;Durham;East Hedleyhope;;W1.76;N54.75;10;
2;ENG;Durham;East Kyo;;W1.73;N54.86;10;
2;ENG;Durham;East Stanley;;W1.68;N54.87;10;
2;ENG;Durham;Eastbourne;;W1.53;N54.52;10;
2;ENG;Durham;Eastgate;;W2.07;N54.73;10;
2;ENG;Durham;Ebchester;;W1.84;N54.89;10;
2;ENG;Durham;Eden Vale;;W1.34;N54.72;10;
2;ENG;Durham;Edmondsley;;W1.64;N54.83;10;
2;ENG;Durham;Edmundbyers;;W1.98;N54.84;10;
2;ENG;Durham;Egglesburn;;W2.03;N54.61;10;
2;ENG;Durham;Eggleston;;W2.00;N54.60;10;
2;ENG;Durham;Eldon;;W1.64;N54.63;10;
2;ENG;Durham;Eldon Lane;;W1.66;N54.63;10;
2;ENG;Durham;Elemore Vale;;W1.45;N54.79;10;
2;ENG;Durham;Elstob;;W1.47;N54.60;10;
2;ENG;Durham;Elvet Hill;;W1.59;N54.76;10;
2;ENG;Durham;Embleton;;W1.36;N54.65;10;
2;ENG;Durham;Escomb;;W1.72;N54.66;10;
2;ENG;Durham;Esh;;W1.70;N54.79;10;
2;ENG;Durham;Esh Winning;;W1.70;N54.76;10;
2;ENG;Durham;Esperley Lane Ends;;W1.80;N54.61;10;
2;ENG;Durham;Etherley Dene;;W1.70;N54.64;10;
2;ENG;Durham;Ettersgill;;W2.18;N54.65;10;
2;ENG;Durham;Evenwood;;W1.76;N54.62;10;
2;ENG;Durham;Evenwood Gate;;W1.75;N54.61;10;
2;ENG;Durham;Faverdale;;W1.58;N54.53;10;
2;ENG;Durham;Ferryhill;;W1.55;N54.68;10;
2;ENG;Durham;Ferryhill Station;;W1.53;N54.67;10;
2;ENG;Durham;Fir Tree;;W1.78;N54.70;10;
2;ENG;Durham;Firth Moor;;W1.53;N54.51;10;
2;ENG;Durham;Fishburn;;W1.44;N54.68;10;
2;ENG;Durham;Fleming Field;;W1.41;N54.76;10;
2;ENG;Durham;Flint Hill;;W1.75;N54.88;10;
2;ENG;Durham;Forest-in-Teesdale;;W2.21;N54.65;10;
2;ENG;Durham;Framwellgate Moor;;W1.59;N54.79;10;
2;ENG;Durham;Frosterley;;W1.97;N54.72;10;
2;ENG;Durham;Gainford;;W1.73;N54.53;10;
2;ENG;Durham;Garmondsway;;W1.48;N54.70;10;
2;ENG;Durham;Gaunless;;W1.70;N54.62;10;
2;ENG;Durham;Gilesgate;;W1.56;N54.78;10;
2;ENG;Durham;Gilesgate Moor;;W1.55;N54.77;10;
2;ENG;Durham;Gilmonby;;W2.01;N54.50;10;
2;ENG;Durham;Girsby;;W1.46;N54.46;10;
2;ENG;Durham;Grange Hill;;W1.64;N54.65;10;
2;ENG;Durham;Grange Villa;;W1.64;N54.86;10;
2;ENG;Durham;Great Burdon;;W1.52;N54.53;10;
2;ENG;Durham;Great Chilton;;W1.55;N54.66;10;
2;ENG;Durham;Great Lumley;;W1.54;N54.83;10;
2;ENG;Durham;Great Stainton;;W1.49;N54.58;10;
2;ENG;Durham;Greencroft;;W1.75;N54.85;10;
2;ENG;Durham;Greenhill;;W1.39;N54.81;10;
2;ENG;Durham;Greta;;W1.91;N54.49;10;
2;ENG;Durham;Greta Bridge;;W1.87;N54.51;10;
2;ENG;Durham;Hallgarth;;W1.48;N54.78;10;
2;ENG;Durham;Hamsterley;;W1.83;N54.67;10;
2;ENG;Durham;Hamsterley;;W1.82;N54.89;10;
2;ENG;Durham;Hamsterley Forest;;W1.93;N54.65;10;
2;ENG;Durham;Harelaw;;W1.75;N54.86;10;
2;ENG;Durham;Harperley;;W1.73;N54.87;10;
2;ENG;Durham;Harrowgate Hill;;W1.55;N54.53;10;
2;ENG;Durham;Harrowgate Village;;W1.56;N54.54;10;
2;ENG;Durham;Harwood;;W2.28;N54.69;10;
2;ENG;Durham;Harwood Beck;;W2.27;N54.68;10;
2;ENG;Durham;Haswell;;W1.42;N54.78;10;
2;ENG;Durham;Haswell Moor;;W1.41;N54.76;10;
2;ENG;Durham;Haswell Plough;;W1.42;N54.77;10;
2;ENG;Durham;Haughton Le Skerne;;W1.52;N54.53;10;
2;ENG;Durham;Hawthorn;;W1.36;N54.79;10;
2;ENG;Durham;Headlam;;W1.72;N54.56;10;
2;ENG;Durham;Healeyfield;;W1.90;N54.82;10;
2;ENG;Durham;Hedley Hill;;W1.76;N54.76;10;
2;ENG;Durham;Heighington;;W1.63;N54.59;10;
2;ENG;Durham;Helmington Row;;W1.72;N54.71;10;
2;ENG;Durham;Hesleden;;W1.31;N54.73;10;
2;ENG;Durham;Hett;;W1.56;N54.71;10;
2;ENG;Durham;Hetton-le-Hill;;W1.45;N54.79;10;
2;ENG;Durham;High Dubmire;;W1.50;N54.83;10;
2;ENG;Durham;High Dyke;;W2.07;N54.62;10;
2;ENG;Durham;High Etherley;;W1.75;N54.64;10;
2;ENG;Durham;High Forge;;W1.65;N54.88;10;
2;ENG;Durham;High Friarside;;W1.75;N54.89;10;
2;ENG;Durham;High Grange;;W1.73;N54.67;10;
2;ENG;Durham;High Handenhold;;W1.64;N54.87;10;
2;ENG;Durham;High Haswell;;W1.44;N54.78;10;
2;ENG;Durham;High Hesleden;;W1.30;N54.73;10;
2;ENG;Durham;High Moorsley;;W1.48;N54.79;10;
2;ENG;Durham;High Shincliffe;;W1.55;N54.75;10;
2;ENG;Durham;High Stoop;;W1.84;N54.75;10;
2;ENG;Durham;High Urpeth;;W1.64;N54.87;10;
2;ENG;Durham;High Westwood;;W1.83;N54.89;10;
2;ENG;Durham;Hill End;;W1.98;N54.71;10;
2;ENG;Durham;Hill Top;;W2.01;N54.61;10;
2;ENG;Durham;Hill Top;;W1.67;N54.79;10;
2;ENG;Durham;Hill Top;;W1.75;N54.88;10;
2;ENG;Durham;Hilton;;W1.75;N54.58;10;
2;ENG;Durham;Hinden Beck;;W1.96;N54.61;10;
2;ENG;Durham;Hobson;;W1.73;N54.88;10;
2;ENG;Durham;Holmside;;W1.67;N54.83;10;
2;ENG;Durham;Holwick;;W2.15;N54.62;10;
2;ENG;Durham;Horden;;W1.31;N54.76;10;
2;ENG;Durham;Horsleyhope;;W1.92;N54.81;10;
2;ENG;Durham;Houghton Bank;;W1.66;N54.59;10;
2;ENG;Durham;Houghton-le-Side;;W1.66;N54.58;10;
2;ENG;Durham;Howden-le-Wear;;W1.76;N54.69;10;
2;ENG;Durham;Hummersknott;;W1.59;N54.52;10;
2;ENG;Durham;Hunderthwaite;;W2.03;N54.58;10;
2;ENG;Durham;Hunstanworth;;W2.09;N54.83;10;
2;ENG;Durham;Hunwick;;W1.70;N54.68;10;
2;ENG;Durham;Hurworth Place;;W1.55;N54.48;10;
2;ENG;Durham;Hurworth-on-Tees;;W1.53;N54.48;10;
2;ENG;Durham;Hury;;W2.07;N54.56;10;
2;ENG;Durham;Hury Reservoir;;W2.07;N54.56;10;
2;ENG;Durham;Hutton Henry;;W1.34;N54.71;10;
2;ENG;Durham;Hutton Magna;;W1.81;N54.50;10;
2;ENG;Durham;Ingleton;;W1.73;N54.57;10;
2;ENG;Durham;Inkerman;;W1.83;N54.74;10;
2;ENG;Durham;Ireshopeburn;;W2.21;N54.73;10;
2;ENG;Durham;Iveston;;W1.79;N54.84;10;
2;ENG;Durham;Keakham Beck;;W2.29;N54.60;10;
2;ENG;Durham;Kelloe;;W1.47;N54.71;10;
2;ENG;Durham;Kelton;;W2.12;N54.57;10;
2;ENG;Durham;Killerby;;W1.70;N54.56;10;
2;ENG;Durham;Kimblesworth;;W1.61;N54.81;10;
2;ENG;Durham;Kinninvie;;W1.92;N54.58;10;
2;ENG;Durham;Kip Hill;;W1.68;N54.87;10;
2;ENG;Durham;Kirk Merrington;;W1.59;N54.67;10;
2;ENG;Durham;Knitsley;;W1.83;N54.82;10;
2;ENG;Durham;Laithkirk;;W2.07;N54.61;10;
2;ENG;Durham;Lanchester;;W1.75;N54.81;10;
2;ENG;Durham;Lanehead;;W2.25;N54.76;10;
2;ENG;Durham;Langdon Beck;;W2.23;N54.67;10;
2;ENG;Durham;Langley Moor;;W1.61;N54.75;10;
2;ENG;Durham;Langley Park;;W1.67;N54.79;10;
2;ENG;Durham;Langton;;W1.75;N54.56;10;
2;ENG;Durham;Lartington;;W1.98;N54.54;10;
2;ENG;Durham;Leadgate;;W1.81;N54.85;10;
2;ENG;Durham;Leamside;;W1.51;N54.80;10;
2;ENG;Durham;Leasingthorne;;W1.61;N54.65;10;
2;ENG;Durham;Leeholme;;W1.62;N54.66;10;
2;ENG;Durham;Lingfield;;W1.52;N54.52;10;
2;ENG;Durham;Lintz;;W1.75;N54.89;10;
2;ENG;Durham;Lintzford;;W1.78;N54.90;10;
2;ENG;Durham;Lintzgarth;;W2.12;N54.77;10;
2;ENG;Durham;Little Newsham;;W1.81;N54.54;10;
2;ENG;Durham;Little Stainton;;W1.47;N54.57;10;
2;ENG;Durham;Little Thorpe;;W1.34;N54.77;10;
2;ENG;Durham;Littletown;;W1.47;N54.78;10;
2;ENG;Durham;Long Grain;;W2.26;N54.59;10;
2;ENG;Durham;Low Dinsdale;;W1.47;N54.49;10;
2;ENG;Durham;Low Etherley;;W1.73;N54.65;10;
2;ENG;Durham;Low Walworth;;W1.64;N54.54;10;
2;ENG;Durham;Low Westwood;;W1.82;N54.89;10;
2;ENG;Durham;Lowes Barn;;W1.59;N54.76;10;
2;ENG;Durham;Ludworth;;W1.44;N54.76;10;
2;ENG;Durham;Lumley Thicks;;W1.53;N54.84;10;
2;ENG;Durham;Lune;;W2.14;N54.58;10;
2;ENG;Durham;Lune Head Beck;;W2.26;N54.58;10;
2;ENG;Durham;Maiden Law;;W1.73;N54.83;10;
2;ENG;Durham;Mainsforth;;W1.52;N54.67;10;
2;ENG;Durham;Meadowfield;;W1.62;N54.74;10;
2;ENG;Durham;Medomsley;;W1.83;N54.88;10;
2;ENG;Durham;Merrybent;;W1.63;N54.52;10;
2;ENG;Durham;Metal Bridge;;W1.55;N54.70;10;
2;ENG;Durham;Mickleton;;W2.06;N54.60;10;
2;ENG;Durham;Middle Side;;W2.10;N54.62;10;
2;ENG;Durham;Middlestone;;W1.61;N54.67;10;
2;ENG;Durham;Middlestone Moor;;W1.62;N54.68;10;
2;ENG;Durham;Middleton in Teesdale;;W2.09;N54.62;10;
2;ENG;Durham;Middleton St George;;W1.47;N54.51;10;
2;ENG;Durham;Middridge;;W1.61;N54.62;10;
2;ENG;Durham;Monk Hesleden;;W1.30;N54.72;10;
2;ENG;Durham;Moor End;;W1.53;N54.78;10;
2;ENG;Durham;Moorside;;W1.87;N54.83;10;
2;ENG;Durham;Mordon;;W1.50;N54.62;10;
2;ENG;Durham;Morley;;W1.81;N54.63;10;
2;ENG;Durham;Morton Tinmouth;;W1.72;N54.58;10;
2;ENG;Durham;Mount Pleasant;;W1.59;N54.70;10;
2;ENG;Durham;Mowden;;W1.59;N54.53;10;
2;ENG;Durham;Muggleswick;;W1.93;N54.84;10;
2;ENG;Durham;Murton;;W1.39;N54.81;10;
2;ENG;Durham;Neasham;;W1.50;N54.48;10;
2;ENG;Durham;Nettlesworth;;W1.61;N54.81;10;
2;ENG;Durham;Nevilles Cross;;W1.61;N54.76;10;
2;ENG;Durham;New Brancepeth;;W1.65;N54.76;10;
2;ENG;Durham;New Coundon;;W1.66;N54.66;10;
2;ENG;Durham;New Ho;;W2.20;N54.73;10;
2;ENG;Durham;New Hunwick;;W1.72;N54.68;10;
2;ENG;Durham;New Kyo;;W1.73;N54.85;10;
2;ENG;Durham;Newbiggin;;W2.14;N54.63;10;
2;ENG;Durham;Newbiggin;;W1.78;N54.81;10;
2;ENG;Durham;Newbiggin;;W2.07;N54.83;10;
2;ENG;Durham;Newfield;;W1.69;N54.69;10;
2;ENG;Durham;Newfield;;W1.62;N54.86;10;
2;ENG;Durham;Newlands;;W1.84;N54.89;10;
2;ENG;Durham;Newton Aycliffe;;W1.58;N54.61;10;
2;ENG;Durham;Newton Hall;;W1.58;N54.79;10;
2;ENG;Durham;Newton Ketton;;W1.52;N54.57;10;
2;ENG;Durham;Nookton Burn;;W2.16;N54.80;10;
2;ENG;Durham;North Bitchburn;;W1.73;N54.68;10;
2;ENG;Durham;North Close;;W1.59;N54.68;10;
2;ENG;Durham;North End;;W1.59;N54.78;10;
2;ENG;Durham;Northlea;;W1.36;N54.84;10;
2;ENG;Durham;Oak Tree;;W1.46;N54.51;10;
2;ENG;Durham;Oakenshaw;;W1.69;N54.71;10;
2;ENG;Durham;Oakenshaw;;W1.70;N54.72;10;
2;ENG;Durham;Old Burdon;;W1.40;N54.84;10;
2;ENG;Durham;Old Cassop;;W1.48;N54.74;10;
2;ENG;Durham;Old Eldon;;W1.62;N54.63;10;
2;ENG;Durham;Old Quarrington;;W1.50;N54.72;10;
2;ENG;Durham;Old Stillington;;W1.44;N54.59;10;
2;ENG;Durham;Old Wingate;;W1.42;N54.72;10;
2;ENG;Durham;Ornsby Hill;;W1.75;N54.82;10;
2;ENG;Durham;Ouston;;W1.61;N54.88;10;
2;ENG;Durham;Ovington;;W1.80;N54.52;10;
2;ENG;Durham;Oxhill;;W1.72;N54.86;10;
2;ENG;Durham;Page Bank;;W1.64;N54.71;10;
2;ENG;Durham;Parkside;;W1.34;N54.82;10;
2;ENG;Durham;Pelton;;W1.61;N54.87;10;
2;ENG;Durham;Pelton Fell;;W1.61;N54.85;10;
2;ENG;Durham;Perkinsville;;W1.61;N54.87;10;
2;ENG;Durham;Peterlee;;W1.34;N54.75;10;
2;ENG;Durham;Phoenix Row;;W1.75;N54.65;10;
2;ENG;Durham;Pickering Nook;;W1.73;N54.88;10;
2;ENG;Durham;Pittington;;W1.50;N54.79;10;
2;ENG;Durham;Pity Me;;W1.59;N54.79;10;
2;ENG;Durham;Plawsworth;;W1.59;N54.81;10;
2;ENG;Durham;Preston-le-Skerne;;W1.53;N54.61;10;
2;ENG;Durham;Quaking Houses;;W1.72;N54.84;10;
2;ENG;Durham;Quarrington Hill;;W1.48;N54.72;10;
2;ENG;Durham;Quebec;;W1.72;N54.78;10;
2;ENG;Durham;Rainton Gate;;W1.50;N54.80;10;
2;ENG;Durham;Ramshaw;;W1.78;N54.62;10;
2;ENG;Durham;Ramshaw;;W2.07;N54.81;10;
2;ENG;Durham;Redworth;;W1.62;N54.60;10;
2;ENG;Durham;Rickleton;;W1.56;N54.87;10;
2;ENG;Durham;Rise Carr;;W1.56;N54.53;10;
2;ENG;Durham;Roddymoor;;W1.76;N54.71;10;
2;ENG;Durham;Romaldkirk;;W2.01;N54.59;10;
2;ENG;Durham;Rookhope;;W2.11;N54.77;10;
2;ENG;Durham;Rowlands Gill;;W1.75;N54.91;10;
2;ENG;Durham;Royal Oak;;W1.69;N54.60;10;
2;ENG;Durham;Running Waters;;W1.50;N54.75;10;
2;ENG;Durham;Rushford Beck;;W1.57;N54.67;10;
2;ENG;Durham;Rushyford;;W1.56;N54.64;10;
2;ENG;Durham;Sacriston;;W1.62;N54.81;10;
2;ENG;Durham;Sadberge;;W1.47;N54.54;10;
2;ENG;Durham;Sandy Carrs;;W1.39;N54.77;10;
2;ENG;Durham;Satley;;W1.83;N54.78;10;
2;ENG;Durham;Scargill;;W1.92;N54.48;10;
2;ENG;Durham;School Aycliffe;;W1.61;N54.60;10;
2;ENG;Durham;Seaham;;W1.36;N54.83;10;
2;ENG;Durham;Seaton;;W1.39;N54.83;10;
2;ENG;Durham;Sedgefield;;W1.45;N54.64;10;
2;ENG;Durham;Shadforth;;W1.47;N54.75;10;
2;ENG;Durham;Sheep Hill;;W1.73;N54.90;10;
2;ENG;Durham;Sheraton;;W1.31;N54.70;10;
2;ENG;Durham;Sherburn;;W1.51;N54.77;10;
2;ENG;Durham;Sherburn Grange;;W1.53;N54.77;10;
2;ENG;Durham;Sherburn Hill;;W1.48;N54.77;10;
2;ENG;Durham;Shield Row;;W1.68;N54.87;10;
2;ENG;Durham;Shildon;;W1.64;N54.62;10;
2;ENG;Durham;Shincliffe;;W1.55;N54.75;10;
2;ENG;Durham;Shotton;;W1.44;N54.61;10;
2;ENG;Durham;Shotton;;W1.36;N54.74;10;
2;ENG;Durham;Shotton Colliery;;W1.39;N54.75;10;
2;ENG;Durham;Skerne;;W1.56;N54.51;10;
2;ENG;Durham;Skerne Park;;W1.56;N54.50;10;
2;ENG;Durham;Slack;;W1.83;N54.62;10;
2;ENG;Durham;Snaisgill;;W2.07;N54.63;10;
2;ENG;Durham;Soulgill Beck;;W2.23;N54.55;10;
2;ENG;Durham;South Church;;W1.67;N54.64;10;
2;ENG;Durham;South Hetton;;W1.42;N54.79;10;
2;ENG;Durham;South Moor;;W1.72;N54.85;10;
2;ENG;Durham;South Pelaw;;W1.59;N54.86;10;
2;ENG;Durham;South Side;;W1.84;N54.62;10;
2;ENG;Durham;South Stanley;;W1.70;N54.86;10;
2;ENG;Durham;South Wingate;;W1.36;N54.69;10;
2;ENG;Durham;Spennymoor;;W1.61;N54.69;10;
2;ENG;Durham;St Helen Auckland;;W1.72;N54.63;10;
2;ENG;Durham;St John's Chapel;;W2.18;N54.73;10;
2;ENG;Durham;Staindrop;;W1.81;N54.57;10;
2;ENG;Durham;Stainton;;W1.90;N54.55;10;
2;ENG;Durham;Stanhope;;W2.01;N54.74;10;
2;ENG;Durham;Stanley;;W1.70;N54.86;10;
2;ENG;Durham;Stanley Crook;;W1.75;N54.73;10;
2;ENG;Durham;Startforth;;W1.93;N54.53;10;
2;ENG;Durham;Station Town;;W1.38;N54.71;10;
2;ENG;Durham;Stillington;;W1.42;N54.60;10;
2;ENG;Durham;Stony Heap;;W1.78;N54.85;10;
2;ENG;Durham;Summerhouse;;W1.69;N54.56;10;
2;ENG;Durham;Sunderland Bridge;;W1.59;N54.72;10;
2;ENG;Durham;Sunniside;;W1.78;N54.73;10;
2;ENG;Durham;Sunny Brow;;W1.72;N54.70;10;
2;ENG;Durham;Tan Hills;;W1.61;N54.81;10;
2;ENG;Durham;Tanfield;;W1.72;N54.88;10;
2;ENG;Durham;Tanfield Lea;;W1.72;N54.88;10;
2;ENG;Durham;Tantobie;;W1.73;N54.88;10;
2;ENG;Durham;Teas;;W2.28;N54.64;10;
2;ENG;Durham;Tees;;W1.94;N54.54;10;
2;ENG;Durham;Templetown;;W1.84;N54.83;10;
2;ENG;Durham;The Grove;;W1.86;N54.84;10;
2;ENG;Durham;The Middles;;W1.68;N54.85;10;
2;ENG;Durham;Thinford;;W1.56;N54.70;10;
2;ENG;Durham;Thornley;;W1.83;N54.72;10;
2;ENG;Durham;Thornley;;W1.44;N54.74;10;
2;ENG;Durham;Thorpe Larches;;W1.41;N54.62;10;
2;ENG;Durham;Thringarth;;W2.10;N54.60;10;
2;ENG;Durham;Tindale Crescent;;W1.70;N54.63;10;
2;ENG;Durham;Todhills;;W1.67;N54.69;10;
2;ENG;Durham;Toft Hill;;W1.76;N54.64;10;
2;ENG;Durham;Toronto;;W1.70;N54.66;10;
2;ENG;Durham;Tow Law;;W1.83;N54.73;10;
2;ENG;Durham;Town Kelloe;;W1.45;N54.71;10;
2;ENG;Durham;Townfield;;W2.07;N54.82;10;
2;ENG;Durham;Trimdon;;W1.44;N54.69;10;
2;ENG;Durham;Trimdon Colliery;;W1.41;N54.70;10;
2;ENG;Durham;Trimdon Grange;;W1.42;N54.70;10;
2;ENG;Durham;Tudhoe;;W1.59;N54.70;10;
2;ENG;Durham;Tudhoe Grange;;W1.61;N54.70;10;
2;ENG;Durham;Tursdale;;W1.53;N54.70;10;
2;ENG;Durham;Upper Town;;W1.89;N54.72;10;
2;ENG;Durham;Urpeth;;W1.61;N54.88;10;
2;ENG;Durham;Ushaw Moor;;W1.65;N54.77;10;
2;ENG;Durham;Wackerfield;;W1.76;N54.59;10;
2;ENG;Durham;Waldridge;;W1.61;N54.84;10;
2;ENG;Durham;Wall Nook;;W1.67;N54.79;10;
2;ENG;Durham;Walworth;;W1.64;N54.55;10;
2;ENG;Durham;Walworth Gate;;W1.64;N54.57;10;
2;ENG;Durham;Waskerley;;W1.92;N54.80;10;
2;ENG;Durham;Waterhouses;;W1.72;N54.76;10;
2;ENG;Durham;Wear;;W1.73;N54.66;10;
2;ENG;Durham;Wearhead;;W2.23;N54.74;10;
2;ENG;Durham;West Auckland;;W1.72;N54.62;10;
2;ENG;Durham;West Blackdene;;W2.21;N54.74;10;
2;ENG;Durham;West Butsfield;;W1.84;N54.79;10;
2;ENG;Durham;West Cornforth;;W1.52;N54.69;10;
2;ENG;Durham;West Kyo;;W1.73;N54.86;10;
2;ENG;Durham;West Lea;;W1.37;N54.83;10;
2;ENG;Durham;West Pasture;;W2.09;N54.59;10;
2;ENG;Durham;West Pelton;;W1.64;N54.87;10;
2;ENG;Durham;West Rainton;;W1.50;N54.80;10;
2;ENG;Durham;Western Hill;;W1.59;N54.77;10;
2;ENG;Durham;Westerton;;W1.64;N54.67;10;
2;ENG;Durham;Westgate;;W2.15;N54.73;10;
2;ENG;Durham;Westwick;;W1.89;N54.53;10;
2;ENG;Durham;Wheatley Hill;;W1.42;N54.73;10;
2;ENG;Durham;Whinfield;;W1.52;N54.54;10;
2;ENG;Durham;Whinny Hill;;W1.41;N54.56;10;
2;ENG;Durham;White-le-Head;;W1.73;N54.88;10;
2;ENG;Durham;Whitton;;W1.41;N54.59;10;
2;ENG;Durham;Whorlton;;W1.84;N54.52;10;
2;ENG;Durham;Willington;;W1.70;N54.71;10;
2;ENG;Durham;Wingate;;W1.38;N54.72;10;
2;ENG;Durham;Winston;;W1.80;N54.53;10;
2;ENG;Durham;Witton Gilbert;;W1.64;N54.80;10;
2;ENG;Durham;Witton Park;;W1.73;N54.66;10;
2;ENG;Durham;Witton-le-Wear;;W1.78;N54.67;10;
2;ENG;Durham;Wolsingham;;W1.89;N54.72;10;
2;ENG;Durham;Wood Side;;W1.51;N54.80;10;
2;ENG;Durham;Woodham;;W1.56;N54.62;10;
2;ENG;Durham;Woodham Burn;;W1.53;N54.61;10;
2;ENG;Durham;Woodland;;W1.89;N54.62;10;
2;ENG;Durham;Woodside;;W1.73;N54.65;10;
2;ENG;Durham;Wycliffe;;W1.83;N54.52;10;