"Level";"Country";"County";"Place";"void";"Longitude";"Latitude";"ZoomLevel";"Icon"
2;ENG;Lancashire;Abbey Village;;W2.54;N53.69;10;
2;ENG;Lancashire;Abbeystead;;W2.67;N53.98;10;
2;ENG;Lancashire;Abraham Heights;;W2.82;N54.04;10;
2;ENG;Lancashire;Abram;;W2.60;N53.50;10;
2;ENG;Lancashire;Accrington;;W2.38;N53.74;10;
2;ENG;Lancashire;Adlington;;W2.60;N53.61;10;
2;ENG;Lancashire;Adlington Park;;W2.63;N53.59;10;
2;ENG;Lancashire;Adswood;;W2.18;N53.38;10;
2;ENG;Lancashire;Affetside;;W2.37;N53.61;10;
2;ENG;Lancashire;Aigburth;;W2.93;N53.36;10;
2;ENG;Lancashire;Ainsworth;;W2.36;N53.58;10;
2;ENG;Lancashire;Aldcliffe;;W2.82;N54.03;10;
2;ENG;Lancashire;Alkrington Garden Village;;W2.19;N53.53;10;
2;ENG;Lancashire;Allerton;;W2.88;N53.36;10;
2;ENG;Lancashire;Alt;;W2.87;N53.50;10;
2;ENG;Lancashire;Altham;;W2.35;N53.78;10;
2;ENG;Lancashire;Altrincham;;W2.36;N53.37;10;
2;ENG;Lancashire;Anchorsholme;;W3.03;N53.87;10;
2;ENG;Lancashire;Anderton;;W2.60;N53.61;10;
2;ENG;Lancashire;Andertons Mill;;W2.74;N53.62;10;
2;ENG;Lancashire;Anfield;;W2.94;N53.43;10;
2;ENG;Lancashire;Ansdell;;W3.00;N53.74;10;
2;ENG;Lancashire;Appley Bridge;;W2.72;N53.57;10;
2;ENG;Lancashire;Arden Park;;W2.13;N53.41;10;
2;ENG;Lancashire;Arkholme;;W2.64;N54.13;10;
2;ENG;Lancashire;Arrowe Hill;;W3.09;N53.37;10;
2;ENG;Lancashire;Artle Beck;;W2.65;N54.04;10;
2;ENG;Lancashire;Ashton Upon Mersey;;W2.33;N53.42;10;
2;ENG;Lancashire;Ashton-in-Makerfield;;W2.64;N53.48;10;
2;ENG;Lancashire;Ashurst;;W2.78;N53.55;10;
2;ENG;Lancashire;Aspull;;W2.59;N53.56;10;
2;ENG;Lancashire;Aspult Common;;W2.55;N53.47;10;
2;ENG;Lancashire;Astley;;W2.45;N53.49;10;
2;ENG;Lancashire;Astley Bridge;;W2.43;N53.60;10;
2;ENG;Lancashire;Astley Green;;W2.45;N53.48;10;
2;ENG;Lancashire;Atherton;;W2.49;N53.52;10;
2;ENG;Lancashire;Aughton;;W2.92;N53.53;10;
2;ENG;Lancashire;Aughton;;W2.68;N54.09;10;
2;ENG;Lancashire;Aughton Park;;W2.89;N53.54;10;
2;ENG;Lancashire;Bacon's End;;W1.75;N52.48;10;
2;ENG;Lancashire;Bacup;;W2.21;N53.69;10;
2;ENG;Lancashire;Bagslate Moor;;W2.21;N53.61;10;
2;ENG;Lancashire;Bailrigg;;W2.79;N54.01;10;
2;ENG;Lancashire;Balderstone;;W2.56;N53.78;10;
2;ENG;Lancashire;Balderstone;;W2.15;N53.59;10;
2;ENG;Lancashire;Baldingstone;;W2.30;N53.62;10;
2;ENG;Lancashire;Balladen;;W2.30;N53.68;10;
2;ENG;Lancashire;Balsall;;W1.66;N52.38;10;
2;ENG;Lancashire;Balsall Common;;W1.66;N52.39;10;
2;ENG;Lancashire;Balsall Street;;W1.67;N52.38;10;
2;ENG;Lancashire;Bamber Bridge;;W2.66;N53.72;10;
2;ENG;Lancashire;Bamford;;W2.21;N53.61;10;
2;ENG;Lancashire;Bamfurlong;;W2.61;N53.50;10;
2;ENG;Lancashire;Bank Fold;;W2.44;N53.71;10;
2;ENG;Lancashire;Bank Hey;;W2.47;N53.76;10;
2;ENG;Lancashire;Bank Houses;;W2.87;N53.97;10;
2;ENG;Lancashire;Bank Lane;;W2.31;N53.64;10;
2;ENG;Lancashire;Bank Top;;W2.42;N53.60;10;
2;ENG;Lancashire;Bank Top;;W2.74;N53.55;10;
2;ENG;Lancashire;Banks;;W2.92;N53.67;10;
2;ENG;Lancashire;Barber's Moor;;W2.77;N53.66;10;
2;ENG;Lancashire;Bare;;W2.84;N54.06;10;
2;ENG;Lancashire;Barley;;W2.27;N53.85;10;
2;ENG;Lancashire;Barley Green;;W2.29;N53.85;10;
2;ENG;Lancashire;Barnoldswick;;W2.19;N53.91;10;
2;ENG;Lancashire;Barnston;;W3.08;N53.33;10;
2;ENG;Lancashire;Barrow;;W2.41;N53.83;10;
2;ENG;Lancashire;Barrow Bridge;;W2.48;N53.59;10;
2;ENG;Lancashire;Barrow Nook;;W2.84;N53.51;10;
2;ENG;Lancashire;Barrowford;;W2.22;N53.84;10;
2;ENG;Lancashire;Barston;;W1.70;N52.39;10;
2;ENG;Lancashire;Barton;;W2.98;N53.57;10;
2;ENG;Lancashire;Barton;;W2.74;N53.82;10;
2;ENG;Lancashire;Barton Upon Irwell;;W2.36;N53.46;10;
2;ENG;Lancashire;Bashall Eaves;;W2.47;N53.88;10;
2;ENG;Lancashire;Baxenden;;W2.35;N53.73;10;
2;ENG;Lancashire;Bay Gate;;W2.38;N53.93;10;
2;ENG;Lancashire;Bay Horse;;W2.77;N53.97;10;
2;ENG;Lancashire;Beardwood;;W2.51;N53.75;10;
2;ENG;Lancashire;Bebington;;W3.00;N53.34;10;
2;ENG;Lancashire;Becconsall;;W2.84;N53.69;10;
2;ENG;Lancashire;Bedford;;W2.49;N53.48;10;
2;ENG;Lancashire;Beech Hill;;W2.66;N53.55;10;
2;ENG;Lancashire;Beechwood;;W1.61;N52.38;10;
2;ENG;Lancashire;Belfield;;W2.13;N53.61;10;
2;ENG;Lancashire;Belgrave;;W2.21;N53.68;10;
2;ENG;Lancashire;Belle Vale;;W2.87;N53.38;10;
2;ENG;Lancashire;Belmont;;W2.50;N53.63;10;
2;ENG;Lancashire;Belthorn;;W2.44;N53.71;10;
2;ENG;Lancashire;Bent Gate;;W2.31;N53.68;10;
2;ENG;Lancashire;Bentley Heath;;W1.76;N52.37;10;
2;ENG;Lancashire;Benton Green;;W1.63;N52.40;10;
2;ENG;Lancashire;Berkswell;;W1.64;N52.40;10;
2;ENG;Lancashire;Bescar;;W2.92;N53.61;10;
2;ENG;Lancashire;Besses o' th' Barn;;W2.28;N53.54;10;
2;ENG;Lancashire;Bickenhill;;W1.73;N52.43;10;
2;ENG;Lancashire;Bickershaw;;W2.57;N53.51;10;
2;ENG;Lancashire;Bickerstaffe;;W2.84;N53.53;10;
2;ENG;Lancashire;Bidston;;W3.08;N53.40;10;
2;ENG;Lancashire;Bidston Hill;;W3.08;N53.39;10;
2;ENG;Lancashire;Billinge;;W2.70;N53.49;10;
2;ENG;Lancashire;Billington;;W2.42;N53.81;10;
2;ENG;Lancashire;Bilsborrow;;W2.74;N53.84;10;
2;ENG;Lancashire;Birch;;W2.22;N53.55;10;
2;ENG;Lancashire;Birch Green;;W2.77;N53.54;10;
2;ENG;Lancashire;Birkacre;;W2.65;N53.63;10;
2;ENG;Lancashire;Birkenhead;;W3.05;N53.38;10;
2;ENG;Lancashire;Birtle;;W2.25;N53.61;10;
2;ENG;Lancashire;Bispham;;W3.06;N53.85;10;
2;ENG;Lancashire;Bispham Green;;W2.78;N53.61;10;
2;ENG;Lancashire;Black Lane;;W2.34;N53.56;10;
2;ENG;Lancashire;Black Moor;;W2.80;N53.62;10;
2;ENG;Lancashire;Black Pole;;W2.79;N53.81;10;
2;ENG;Lancashire;Blackbrook;;W2.69;N53.45;10;
2;ENG;Lancashire;Blackburn;;W2.48;N53.73;10;
2;ENG;Lancashire;Blackford Bridge;;W2.30;N53.55;10;
2;ENG;Lancashire;Blackleach;;W2.80;N53.80;10;
2;ENG;Lancashire;Blackmoor;;W2.46;N53.49;10;
2;ENG;Lancashire;Blacko;;W2.22;N53.86;10;
2;ENG;Lancashire;Blackpool;;W3.04;N53.81;10;
2;ENG;Lancashire;Blackrod;;W2.59;N53.58;10;
2;ENG;Lancashire;Blacksnape;;W2.44;N53.68;10;
2;ENG;Lancashire;Blaguegate;;W2.83;N53.54;10;
2;ENG;Lancashire;Bleasdale;;W2.65;N53.89;10;
2;ENG;Lancashire;Blossomfield;;W1.81;N52.40;10;
2;ENG;Lancashire;Boar's Head;;W2.65;N53.56;10;
2;ENG;Lancashire;Boarsgreave;;W2.24;N53.67;10;
2;ENG;Lancashire;Bold Heath;;W2.70;N53.39;10;
2;ENG;Lancashire;Bolholt;;W2.33;N53.59;10;
2;ENG;Lancashire;Bolton;;W2.43;N53.56;10;
2;ENG;Lancashire;Bolton by Bowland;;W2.33;N53.93;10;
2;ENG;Lancashire;Bolton Green;;W2.68;N53.64;10;
2;ENG;Lancashire;Bolton Houses;;W2.85;N53.79;10;
2;ENG;Lancashire;Bolton le Sands;;W2.79;N54.10;10;
2;ENG;Lancashire;Bolton Town End;;W2.79;N54.09;10;
2;ENG;Lancashire;Bonds;;W2.77;N53.89;10;
2;ENG;Lancashire;Booth Bridge;;W2.13;N53.91;10;
2;ENG;Lancashire;Borwick;;W2.73;N54.15;10;
2;ENG;Lancashire;Bottom o' th' Moor;;W2.51;N53.58;10;
2;ENG;Lancashire;Bottom of Hutton;;W2.78;N53.73;10;
2;ENG;Lancashire;Bowdon;;W2.37;N53.37;10;
2;ENG;Lancashire;Bowgreave;;W2.77;N53.88;10;
2;ENG;Lancashire;Bowgreen;;W2.37;N53.37;10;
2;ENG;Lancashire;Bowker's Green;;W2.90;N53.52;10;
2;ENG;Lancashire;Bowlee;;W2.24;N53.55;10;
2;ENG;Lancashire;Bowring Park;;W2.87;N53.39;10;
2;ENG;Lancashire;Box Trees;;W1.79;N52.36;10;
2;ENG;Lancashire;Bracewell;;W2.21;N53.92;10;
2;ENG;Lancashire;Bradley Fold;;W2.37;N53.56;10;
2;ENG;Lancashire;Bradnock's Marsh;;W1.67;N52.40;10;
2;ENG;Lancashire;Bradshaw;;W2.40;N53.60;10;
2;ENG;Lancashire;Bradshaw Brook;;W2.40;N53.61;10;
2;ENG;Lancashire;Bradshaw Brook;;W2.41;N53.64;10;
2;ENG;Lancashire;Bramhall;;W2.16;N53.35;10;
2;ENG;Lancashire;Bramhall Moor;;W2.13;N53.37;10;
2;ENG;Lancashire;Bramhall Park;;W2.18;N53.37;10;
2;ENG;Lancashire;Bredbury;;W2.12;N53.41;10;
2;ENG;Lancashire;Bredbury Green;;W2.10;N53.40;10;
2;ENG;Lancashire;Breedy Butts;;W3.00;N53.85;10;
2;ENG;Lancashire;Breightmet;;W2.39;N53.57;10;
2;ENG;Lancashire;Bretherton;;W2.80;N53.67;10;
2;ENG;Lancashire;Brierfield;;W2.24;N53.82;10;
2;ENG;Lancashire;Brimstage;;W3.05;N53.33;10;
2;ENG;Lancashire;Brindle;;W2.62;N53.71;10;
2;ENG;Lancashire;Brinnington;;W2.13;N53.42;10;
2;ENG;Lancashire;Brinscall;;W2.57;N53.68;10;
2;ENG;Lancashire;Britannia;;W2.18;N53.68;10;
2;ENG;Lancashire;Broad Clough;;W2.21;N53.70;10;
2;ENG;Lancashire;Broad Green;;W2.90;N53.40;10;
2;ENG;Lancashire;Broad Oak;;W2.70;N53.45;10;
2;ENG;Lancashire;Broadfield;;W2.71;N53.69;10;
2;ENG;Lancashire;Broadfield;;W2.39;N53.73;10;
2;ENG;Lancashire;Broadfield;;W2.24;N53.58;10;
2;ENG;Lancashire;Broadhalgh;;W2.19;N53.61;10;
2;ENG;Lancashire;Broadheath;;W2.36;N53.39;10;
2;ENG;Lancashire;Broadley;;W2.18;N53.64;10;
2;ENG;Lancashire;Brock;;W2.74;N53.85;10;
2;ENG;Lancashire;Bromborough;;W2.99;N53.33;10;
2;ENG;Lancashire;Bromborough Pool;;W2.99;N53.34;10;
2;ENG;Lancashire;Bromley Cross;;W2.40;N53.61;10;
2;ENG;Lancashire;Brook Bottom;;W2.70;N53.87;10;
2;ENG;Lancashire;Brookfield;;W2.66;N53.77;10;
2;ENG;Lancashire;Brookhouse;;W2.48;N53.74;10;
2;ENG;Lancashire;Brookhouse;;W2.70;N54.07;10;
2;ENG;Lancashire;Brookhurst;;W2.99;N53.31;10;
2;ENG;Lancashire;Brooklands;;W2.31;N53.40;10;
2;ENG;Lancashire;Brooksbottoms;;W2.31;N53.63;10;
2;ENG;Lancashire;Broughton;;W2.73;N53.80;10;
2;ENG;Lancashire;Brown Edge;;W2.96;N53.61;10;
2;ENG;Lancashire;Brown Edge;;W2.75;N53.43;10;
2;ENG;Lancashire;Brownhill;;W2.48;N53.76;10;
2;ENG;Lancashire;Brownlow;;W2.72;N53.50;10;
2;ENG;Lancashire;Brownlow Fold;;W2.45;N53.58;10;
2;ENG;Lancashire;Brownside;;W2.21;N53.78;10;
2;ENG;Lancashire;Brunshaw;;W2.22;N53.78;10;
2;ENG;Lancashire;Bryn;;W2.66;N53.49;10;
2;ENG;Lancashire;Bryn Gates;;W2.61;N53.50;10;
2;ENG;Lancashire;Bryning;;W2.91;N53.75;10;
2;ENG;Lancashire;Buckley;;W2.15;N53.63;10;
2;ENG;Lancashire;Buersil Head;;W2.13;N53.58;10;
2;ENG;Lancashire;Bunkers Hill;;W2.10;N53.39;10;
2;ENG;Lancashire;Burn Naze;;W3.02;N53.87;10;
2;ENG;Lancashire;Burnden;;W2.40;N53.55;10;
2;ENG;Lancashire;Burnley;;W2.25;N53.78;10;
2;ENG;Lancashire;Burnley Lane;;W2.24;N53.80;10;
2;ENG;Lancashire;Burnley Wood;;W2.24;N53.77;10;
2;ENG;Lancashire;Burscough;;W2.86;N53.58;10;
2;ENG;Lancashire;Burscough Bridge;;W2.84;N53.59;10;
2;ENG;Lancashire;Burton Green;;W1.61;N52.37;10;
2;ENG;Lancashire;Bury;;W2.30;N53.58;10;
2;ENG;Lancashire;Butt Yeats;;W2.64;N54.09;10;
2;ENG;Lancashire;Cabus;;W2.77;N53.91;10;
2;ENG;Lancashire;Cadley;;W2.72;N53.77;10;
2;ENG;Lancashire;Cadshaw;;W2.45;N53.65;10;
2;ENG;Lancashire;Calder;;W2.36;N53.79;10;
2;ENG;Lancashire;Calder Vale;;W2.71;N53.89;10;
2;ENG;Lancashire;Calderbrook;;W2.09;N53.65;10;
2;ENG;Lancashire;Caldermoor;;W2.10;N53.64;10;
2;ENG;Lancashire;Calderstones;;W2.90;N53.37;10;
2;ENG;Lancashire;Caldy;;W3.17;N53.35;10;
2;ENG;Lancashire;Cale Green;;W2.16;N53.38;10;
2;ENG;Lancashire;Cantsfield;;W2.58;N54.14;10;
2;ENG;Lancashire;Capernwray;;W2.72;N54.13;10;
2;ENG;Lancashire;Captain Fold;;W2.22;N53.58;10;
2;ENG;Lancashire;Carleton;;W3.01;N53.84;10;
2;ENG;Lancashire;Carnforth;;W2.78;N54.12;10;
2;ENG;Lancashire;Carol Green;;W1.63;N52.39;10;
2;ENG;Lancashire;Carr;;W2.33;N53.64;10;
2;ENG;Lancashire;Carr Cross;;W2.95;N53.61;10;
2;ENG;Lancashire;Carrington;;W2.39;N53.42;10;
2;ENG;Lancashire;Castle Hill;;W2.12;N53.43;10;
2;ENG;Lancashire;Castleton;;W2.18;N53.58;10;
2;ENG;Lancashire;Catchems Corner;;W1.63;N52.38;10;
2;ENG;Lancashire;Catforth;;W2.80;N53.80;10;
2;ENG;Lancashire;Catherine-de-Barnes;;W1.75;N52.41;10;
2;ENG;Lancashire;Catley Lane Head;;W2.19;N53.63;10;
2;ENG;Lancashire;Caton;;W2.71;N54.07;10;
2;ENG;Lancashire;Caton Green;;W2.70;N54.07;10;
2;ENG;Lancashire;Catterall;;W2.77;N53.87;10;
2;ENG;Lancashire;Chadkirk;;W2.09;N53.39;10;
2;ENG;Lancashire;Chadwick Green;;W2.70;N53.48;10;
2;ENG;Lancashire;Chapel Field;;W2.31;N53.55;10;
2;ENG;Lancashire;Chapel Green;;W1.61;N52.46;10;
2;ENG;Lancashire;Chapel House;;W2.80;N53.54;10;
2;ENG;Lancashire;Chapels;;W2.47;N53.70;10;
2;ENG;Lancashire;Chapeltown;;W2.40;N53.63;10;
2;ENG;Lancashire;Charnock Green;;W2.68;N53.63;10;
2;ENG;Lancashire;Charnock Richard;;W2.68;N53.63;10;
2;ENG;Lancashire;Chatburn;;W2.36;N53.89;10;
2;ENG;Lancashire;Chatterton;;W2.31;N53.65;10;
2;ENG;Lancashire;Cheadle;;W2.21;N53.38;10;
2;ENG;Lancashire;Cheadle Heath;;W2.19;N53.39;10;
2;ENG;Lancashire;Cheadle Hulme;;W2.19;N53.37;10;
2;ENG;Lancashire;Chelmsley Wood;;W1.73;N52.47;10;
2;ENG;Lancashire;Chequerbent;;W2.49;N53.55;10;
2;ENG;Lancashire;Cherry Tree;;W2.53;N53.72;10;
2;ENG;Lancashire;Cherry Tree;;W2.07;N53.40;10;
2;ENG;Lancashire;Chesham;;W2.28;N53.60;10;
2;ENG;Lancashire;Cheswick Green;;W1.82;N52.37;10;
2;ENG;Lancashire;Chew Moor;;W2.51;N53.55;10;
2;ENG;Lancashire;Childwall;;W2.88;N53.39;10;
2;ENG;Lancashire;Chipping;;W2.57;N53.88;10;
2;ENG;Lancashire;Chorley;;W2.63;N53.64;10;
2;ENG;Lancashire;Church;;W2.39;N53.75;10;
2;ENG;Lancashire;Church Clough;;W2.18;N53.84;10;
2;ENG;Lancashire;Churchtown;;W2.79;N53.88;10;
2;ENG;Lancashire;Cinder Hill;;W2.36;N53.54;10;
2;ENG;Lancashire;Claughton;;W2.73;N53.87;10;
2;ENG;Lancashire;Claughton;;W2.67;N54.08;10;
2;ENG;Lancashire;Claughton;;W3.05;N53.38;10;
2;ENG;Lancashire;Clayton Brook;;W2.65;N53.71;10;
2;ENG;Lancashire;Clayton Green;;W2.65;N53.70;10;
2;ENG;Lancashire;Clayton Le Dale;;W2.50;N53.79;10;
2;ENG;Lancashire;Clayton-Le-Moors;;W2.39;N53.77;10;
2;ENG;Lancashire;Clayton-le-Woods;;W2.66;N53.69;10;
2;ENG;Lancashire;Cleveleys;;W3.05;N53.87;10;
2;ENG;Lancashire;Cliffe;;W2.42;N53.78;10;
2;ENG;Lancashire;Clifton;;W2.82;N53.76;10;
2;ENG;Lancashire;Clinkham Wood;;W2.73;N53.47;10;
2;ENG;Lancashire;Clitheroe;;W2.39;N53.86;10;
2;ENG;Lancashire;Clock Face;;W2.72;N53.41;10;
2;ENG;Lancashire;Clough;;W2.10;N53.64;10;
2;ENG;Lancashire;Cloughfold;;W2.28;N53.69;10;
2;ENG;Lancashire;Clow Bridge;;W2.27;N53.74;10;
2;ENG;Lancashire;Clubmoor;;W2.93;N53.43;10;
2;ENG;Lancashire;Coates;;W2.18;N53.91;10;
2;ENG;Lancashire;Cockden;;W2.19;N53.80;10;
2;ENG;Lancashire;Cocker Bar;;W2.75;N53.69;10;
2;ENG;Lancashire;Cockerham;;W2.82;N53.96;10;
2;ENG;Lancashire;Cold Row;;W2.96;N53.88;10;
2;ENG;Lancashire;Colne;;W2.16;N53.85;10;
2;ENG;Lancashire;Colne Edge;;W2.18;N53.86;10;
2;ENG;Lancashire;Colne Water;;W2.05;N53.86;10;
2;ENG;Lancashire;Common Edge;;W3.03;N53.78;10;
2;ENG;Lancashire;Compstall;;W2.06;N53.40;10;
2;ENG;Lancashire;Conder;;W2.83;N53.99;10;
2;ENG;Lancashire;Conder;;W2.77;N54.00;10;
2;ENG;Lancashire;Conder Green;;W2.82;N53.98;10;
2;ENG;Lancashire;Constable Lee;;W2.28;N53.70;10;
2;ENG;Lancashire;Cooper Turning;;W2.56;N53.56;10;
2;ENG;Lancashire;Copp;;W2.88;N53.84;10;
2;ENG;Lancashire;Coppull;;W2.66;N53.62;10;
2;ENG;Lancashire;Coppull Moor;;W2.68;N53.60;10;
2;ENG;Lancashire;Copster Green;;W2.50;N53.79;10;
2;ENG;Lancashire;Copt Heath;;W1.75;N52.39;10;
2;ENG;Lancashire;Corner Row;;W2.89;N53.79;10;
2;ENG;Lancashire;Cottam;;W2.76;N53.78;10;
2;ENG;Lancashire;Cotton Tree;;W2.15;N53.84;10;
2;ENG;Lancashire;Coup Green;;W2.62;N53.73;10;
2;ENG;Lancashire;Court Hey;;W2.88;N53.40;10;
2;ENG;Lancashire;Cow Ark;;W2.50;N53.90;10;
2;ENG;Lancashire;Cow Hill;;W2.65;N53.80;10;
2;ENG;Lancashire;Cowan Bridge;;W2.56;N54.17;10;
2;ENG;Lancashire;Cowling;;W2.62;N53.64;10;
2;ENG;Lancashire;Cowpe;;W2.25;N53.67;10;
2;ENG;Lancashire;Cox Green;;W2.43;N53.62;10;
2;ENG;Lancashire;Crag Bank;;W2.78;N54.12;10;
2;ENG;Lancashire;Crag Foot;;W2.79;N54.15;10;
2;ENG;Lancashire;Crank;;W2.75;N53.48;10;
2;ENG;Lancashire;Crankwood;;W2.57;N53.49;10;
2;ENG;Lancashire;Crawford;;W2.75;N53.51;10;
2;ENG;Lancashire;Crawshawbooth;;W2.28;N53.72;10;
2;ENG;Lancashire;Cribden Side;;W2.31;N53.71;10;
2;ENG;Lancashire;Crimble;;W2.21;N53.59;10;
2;ENG;Lancashire;Croal;;W2.38;N53.55;10;
2;ENG;Lancashire;Crofts Bank;;W2.37;N53.45;10;
2;ENG;Lancashire;Cronton;;W2.76;N53.38;10;
2;ENG;Lancashire;Crooke;;W2.68;N53.55;10;
2;ENG;Lancashire;Crossgill;;W2.68;N54.05;10;
2;ENG;Lancashire;Crossmoor;;W2.85;N53.83;10;
2;ENG;Lancashire;Croston;;W2.78;N53.66;10;
2;ENG;Lancashire;Croxteth;;W2.90;N53.45;10;
2;ENG;Lancashire;Cuddy Hill;;W2.77;N53.82;10;
2;ENG;Lancashire;Cuerden Green;;W2.68;N53.71;10;
2;ENG;Lancashire;Cumeragh Village;;W2.66;N53.81;10;
2;ENG;Lancashire;Cutgate;;W2.21;N53.62;10;
2;ENG;Lancashire;Daisy Hill;;W2.52;N53.53;10;
2;ENG;Lancashire;Dalton;;W2.77;N53.56;10;
2;ENG;Lancashire;Dam Side;;W2.91;N53.92;10;
2;ENG;Lancashire;Dangerous Corner;;W2.72;N53.58;10;
2;ENG;Lancashire;Dangerous Corner;;W2.52;N53.52;10;
2;ENG;Lancashire;Darcy Lever;;W2.40;N53.56;10;
2;ENG;Lancashire;Darn Hill;;W2.25;N53.58;10;
2;ENG;Lancashire;Darwen;;W2.47;N53.69;10;
2;ENG;Lancashire;Daubhill;;W2.45;N53.55;10;
2;ENG;Lancashire;Davenport;;W2.16;N53.38;10;
2;ENG;Lancashire;Davenport Green;;W2.30;N53.37;10;
2;ENG;Lancashire;Davyhulme;;W2.37;N53.45;10;
2;ENG;Lancashire;Dean;;W2.22;N53.72;10;
2;ENG;Lancashire;Deane;;W2.48;N53.55;10;
2;ENG;Lancashire;Dearnley;;W2.12;N53.63;10;
2;ENG;Lancashire;Denton's Green;;W2.76;N53.45;10;
2;ENG;Lancashire;Derbyshire Hill;;W2.69;N53.44;10;
2;ENG;Lancashire;Derwent;;W2.57;N53.74;10;
2;ENG;Lancashire;Dickens Heath;;W1.85;N52.38;10;
2;ENG;Lancashire;Digmoor;;W2.77;N53.53;10;
2;ENG;Lancashire;Dill Hall;;W2.39;N53.75;10;
2;ENG;Lancashire;Dimple;;W2.45;N53.63;10;
2;ENG;Lancashire;Dinckley;;W2.48;N53.81;10;
2;ENG;Lancashire;Dingle;;W2.96;N53.37;10;
2;ENG;Lancashire;Ditton Brook;;W2.81;N53.36;10;
2;ENG;Lancashire;Docker;;W2.66;N54.16;10;
2;ENG;Lancashire;Doffcocker;;W2.46;N53.58;10;
2;ENG;Lancashire;Dog & Gun;;W2.92;N53.44;10;
2;ENG;Lancashire;Dolphinholme;;W2.74;N53.97;10;
2;ENG;Lancashire;Dorridge;;W1.76;N52.37;10;
2;ENG;Lancashire;Douglas;;W2.80;N53.61;10;
2;ENG;Lancashire;Douglas;;W2.66;N53.54;10;
2;ENG;Lancashire;Dove Point;;W3.15;N53.40;10;
2;ENG;Lancashire;Dovecot;;W2.88;N53.41;10;
2;ENG;Lancashire;Dover;;W2.58;N53.50;10;
2;ENG;Lancashire;Dowbridge;;W2.86;N53.77;10;
2;ENG;Lancashire;Downall Green;;W2.67;N53.49;10;
2;ENG;Lancashire;Downham;;W2.33;N53.89;10;
2;ENG;Lancashire;Drummersdale;;W2.92;N53.61;10;
2;ENG;Lancashire;Dumplington;;W2.36;N53.46;10;
2;ENG;Lancashire;Duncombe;;W2.76;N53.84;10;
2;ENG;Lancashire;Dunham Town;;W2.39;N53.37;10;
2;ENG;Lancashire;Dunham Woodhouses;;W2.42;N53.38;10;
2;ENG;Lancashire;Dunnockshaw;;W2.28;N53.73;10;
2;ENG;Lancashire;Dunscar;;W2.43;N53.62;10;
2;ENG;Lancashire;Dunsop Bridge;;W2.53;N53.94;10;
2;ENG;Lancashire;Durn;;W2.09;N53.64;10;
2;ENG;Lancashire;Eagland Hill;;W2.86;N53.89;10;
2;ENG;Lancashire;Eagley;;W2.43;N53.61;10;
2;ENG;Lancashire;Earby;;W2.15;N53.91;10;
2;ENG;Lancashire;Earcroft;;W2.48;N53.71;10;
2;ENG;Lancashire;Earlestown;;W2.66;N53.45;10;
2;ENG;Lancashire;Earnshaw Bridge;;W2.71;N53.69;10;
2;ENG;Lancashire;Easington;;W2.45;N53.94;10;
2;ENG;Lancashire;Eastcote;;W1.72;N52.40;10;
2;ENG;Lancashire;Eastham;;W2.97;N53.31;10;
2;ENG;Lancashire;Eastham Ferry;;W2.96;N53.32;10;
2;ENG;Lancashire;Eaves Green;;W1.63;N52.43;10;
2;ENG;Lancashire;Eccleston;;W2.74;N53.64;10;
2;ENG;Lancashire;Eccleston;;W2.78;N53.44;10;
2;ENG;Lancashire;Eccleston Park;;W2.79;N53.43;10;
2;ENG;Lancashire;Edenfield;;W2.31;N53.65;10;
2;ENG;Lancashire;Edge End;;W2.42;N53.78;10;
2;ENG;Lancashire;Edge Fold;;W2.45;N53.55;10;
2;ENG;Lancashire;Edge Fold;;W2.42;N53.65;10;
2;ENG;Lancashire;Edge Green;;W2.61;N53.48;10;
2;ENG;Lancashire;Edge Hill;;W2.96;N53.39;10;
2;ENG;Lancashire;Edgeley;;W2.18;N53.39;10;
2;ENG;Lancashire;Edgeside;;W2.25;N53.69;10;
2;ENG;Lancashire;Edgworth;;W2.39;N53.64;10;
2;ENG;Lancashire;Egerton;;W2.43;N53.62;10;
2;ENG;Lancashire;Egremont;;W3.03;N53.42;10;
2;ENG;Lancashire;Ellel;;W2.79;N53.99;10;
2;ENG;Lancashire;Elmdon;;W1.75;N52.44;10;
2;ENG;Lancashire;Elmdon Heath;;W1.76;N52.41;10;
2;ENG;Lancashire;Elmers Green;;W2.77;N53.54;10;
2;ENG;Lancashire;Elmslack;;W2.82;N54.16;10;
2;ENG;Lancashire;Elswick;;W2.88;N53.83;10;
2;ENG;Lancashire;Elswick Leys;;W2.88;N53.82;10;
2;ENG;Lancashire;Elton;;W2.31;N53.58;10;
2;ENG;Lancashire;Esprick;;W2.91;N53.81;10;
2;ENG;Lancashire;Etherow;;W2.04;N53.41;10;
2;ENG;Lancashire;Euxton;;W2.68;N53.65;10;
2;ENG;Lancashire;Everton;;W2.97;N53.42;10;
2;ENG;Lancashire;Ewood;;W2.50;N53.72;10;
2;ENG;Lancashire;Ewood Bridge;;W2.31;N53.67;10;
2;ENG;Lancashire;Facit;;W2.18;N53.66;10;
2;ENG;Lancashire;Fair Oak;;W2.54;N53.90;10;
2;ENG;Lancashire;Fairfield;;W2.27;N53.59;10;
2;ENG;Lancashire;Fairfield;;W2.94;N53.41;10;
2;ENG;Lancashire;Far Banks;;W2.90;N53.68;10;
2;ENG;Lancashire;Far Moor;;W2.71;N53.53;10;
2;ENG;Lancashire;Farington;;W2.69;N53.70;10;
2;ENG;Lancashire;Farington;;W2.71;N53.71;10;
2;ENG;Lancashire;Farington Moss;;W2.72;N53.71;10;
2;ENG;Lancashire;Farleton;;W2.65;N54.09;10;
2;ENG;Lancashire;Farnworth;;W2.40;N53.54;10;
2;ENG;Lancashire;Fazakerley;;W2.93;N53.45;10;
2;ENG;Lancashire;Fen End;;W1.67;N52.37;10;
2;ENG;Lancashire;Fence;;W2.27;N53.82;10;
2;ENG;Lancashire;Feniscliffe;;W2.53;N53.72;10;
2;ENG;Lancashire;Feniscowles;;W2.53;N53.72;10;
2;ENG;Lancashire;Feniscowles;;W2.54;N53.72;10;
2;ENG;Lancashire;Fernhill;;W2.30;N53.59;10;
2;ENG;Lancashire;Fernhill Gate;;W2.46;N53.55;10;
2;ENG;Lancashire;Fincham;;W2.87;N53.42;10;
2;ENG;Lancashire;Firgrove;;W2.12;N53.61;10;
2;ENG;Lancashire;Firs Lane;;W2.54;N53.49;10;
2;ENG;Lancashire;Firswood;;W2.28;N53.45;10;
2;ENG;Lancashire;Firwood Fold;;W2.40;N53.59;10;
2;ENG;Lancashire;Fishpool;;W2.30;N53.57;10;
2;ENG;Lancashire;Fishwick;;W2.66;N53.75;10;
2;ENG;Lancashire;Five Lane Ends;;W2.76;N53.97;10;
2;ENG;Lancashire;Flax Moss;;W2.33;N53.69;10;
2;ENG;Lancashire;Fleetwood;;W3.03;N53.91;10;
2;ENG;Lancashire;Flint's Green;;W1.61;N52.41;10;
2;ENG;Lancashire;Flixton;;W2.37;N53.44;10;
2;ENG;Lancashire;Flixton;;W2.39;N53.44;10;
2;ENG;Lancashire;Foggbrook;;W2.12;N53.39;10;
2;ENG;Lancashire;Fold Head;;W2.18;N53.64;10;
2;ENG;Lancashire;Ford Green;;W2.80;N53.90;10;
2;ENG;Lancashire;Fordbridge;;W1.75;N52.48;10;
2;ENG;Lancashire;Forest Becks;;W2.33;N53.95;10;
2;ENG;Lancashire;Forest Holme;;W2.24;N53.72;10;
2;ENG;Lancashire;Forest of Bowland;;W2.52;N53.96;10;
2;ENG;Lancashire;Forton;;W2.79;N53.95;10;
2;ENG;Lancashire;Foulridge;;W2.18;N53.87;10;
2;ENG;Lancashire;Four Ashes;;W1.78;N52.37;10;
2;ENG;Lancashire;Four Gates;;W2.54;N53.55;10;
2;ENG;Lancashire;Four Lane End;;W2.50;N53.75;10;
2;ENG;Lancashire;Four Lane Ends;;W2.36;N53.60;10;
2;ENG;Lancashire;Four Oaks;;W1.64;N52.41;10;
2;ENG;Lancashire;Frankby;;W3.14;N53.36;10;
2;ENG;Lancashire;Freckleton;;W2.88;N53.74;10;
2;ENG;Lancashire;Free Town;;W2.28;N53.59;10;
2;ENG;Lancashire;Frenchwood;;W2.69;N53.74;10;
2;ENG;Lancashire;Fulwood;;W2.69;N53.77;10;
2;ENG;Lancashire;Gale;;W2.09;N53.64;10;
2;ENG;Lancashire;Galgate;;W2.79;N53.98;10;
2;ENG;Lancashire;Garstang;;W2.77;N53.89;10;
2;ENG;Lancashire;Garston;;W2.90;N53.34;10;
2;ENG;Lancashire;Garswood;;W2.67;N53.48;10;
2;ENG;Lancashire;Gateacre;;W2.87;N53.37;10;
2;ENG;Lancashire;Gathurst;;W2.69;N53.55;10;
2;ENG;Lancashire;Gatley;;W2.24;N53.38;10;
2;ENG;Lancashire;Gayton;;W3.09;N53.31;10;
2;ENG;Lancashire;Gigg;;W2.28;N53.57;10;
2;ENG;Lancashire;Gillmoss;;W2.90;N53.45;10;
2;ENG;Lancashire;Gilnow;;W2.45;N53.56;10;
2;ENG;Lancashire;Gisburn;;W2.27;N53.92;10;
2;ENG;Lancashire;Glasson;;W2.85;N53.99;10;
2;ENG;Lancashire;Glaze Brook;;W2.60;N53.51;10;
2;ENG;Lancashire;Golborne;;W2.58;N53.46;10;
2;ENG;Lancashire;Goodshaw;;W2.28;N53.72;10;
2;ENG;Lancashire;Goodshaw Chapel;;W2.28;N53.73;10;
2;ENG;Lancashire;Goodshaw Fold;;W2.30;N53.73;10;
2;ENG;Lancashire;Goose Green;;W2.80;N53.69;10;
2;ENG;Lancashire;Goose Green;;W2.66;N53.52;10;
2;ENG;Lancashire;Goosnargh;;W2.68;N53.81;10;
2;ENG;Lancashire;Gorse Hill;;W2.30;N53.45;10;
2;ENG;Lancashire;Goyt;;W2.05;N53.38;10;
2;ENG;Lancashire;Grange;;W2.65;N53.77;10;
2;ENG;Lancashire;Grange;;W3.17;N53.36;10;
2;ENG;Lancashire;Grange Park;;W2.76;N53.44;10;
2;ENG;Lancashire;Grassendale;;W2.91;N53.35;10;
2;ENG;Lancashire;Greasby;;W3.12;N53.37;10;
2;ENG;Lancashire;Great Altcar;;W3.02;N53.54;10;
2;ENG;Lancashire;Great Eccleston;;W2.88;N53.85;10;
2;ENG;Lancashire;Great Harwood;;W2.41;N53.78;10;
2;ENG;Lancashire;Great Howarth;;W2.15;N53.63;10;
2;ENG;Lancashire;Great Lever;;W2.42;N53.55;10;
2;ENG;Lancashire;Great Marton;;W3.01;N53.79;10;
2;ENG;Lancashire;Great Marton Moss;;W3.01;N53.77;10;
2;ENG;Lancashire;Great Mitton;;W2.44;N53.83;10;
2;ENG;Lancashire;Great Moor;;W2.13;N53.38;10;
2;ENG;Lancashire;Great Plumpton;;W2.94;N53.79;10;
2;ENG;Lancashire;Greave;;W2.19;N53.70;10;
2;ENG;Lancashire;Greave;;W2.09;N53.41;10;
2;ENG;Lancashire;Green End;;W2.15;N53.91;10;
2;ENG;Lancashire;Green Haworth;;W2.38;N53.73;10;
2;ENG;Lancashire;Greengate;;W2.13;N53.63;10;
2;ENG;Lancashire;Greenhalgh;;W2.91;N53.80;10;
2;ENG;Lancashire;Greenheys;;W2.45;N53.53;10;
2;ENG;Lancashire;Greenmount;;W2.34;N53.62;10;
2;ENG;Lancashire;Gregson Lane;;W2.62;N53.72;10;
2;ENG;Lancashire;Gressingham;;W2.65;N54.11;10;
2;ENG;Lancashire;Grimeford Village;;W2.59;N53.60;10;
2;ENG;Lancashire;Grimsargh;;W2.63;N53.80;10;
2;ENG;Lancashire;Grimshaw;;W2.45;N53.71;10;
2;ENG;Lancashire;Grimshaw Green;;W2.78;N53.60;10;
2;ENG;Lancashire;Grindleton;;W2.38;N53.90;10;
2;ENG;Lancashire;Grunsagill;;W2.33;N53.98;10;
2;ENG;Lancashire;Guide;;W2.45;N53.72;10;
2;ENG;Lancashire;Habergham;;W2.28;N53.79;10;
2;ENG;Lancashire;Hag Fold;;W2.49;N53.53;10;
2;ENG;Lancashire;Haggate;;W2.19;N53.81;10;
2;ENG;Lancashire;Haigh;;W2.60;N53.57;10;
2;ENG;Lancashire;Haighton Green;;W2.66;N53.80;10;
2;ENG;Lancashire;Haighton Top;;W2.68;N53.80;10;
2;ENG;Lancashire;Hale;;W2.36;N53.37;10;
2;ENG;Lancashire;Hale Nook;;W2.92;N53.88;10;
2;ENG;Lancashire;Halebarns;;W2.31;N53.36;10;
2;ENG;Lancashire;Halewood;;W2.84;N53.35;10;
2;ENG;Lancashire;Halfway Houses;;W2.36;N53.57;10;
2;ENG;Lancashire;Hall Cross;;W2.88;N53.76;10;
2;ENG;Lancashire;Hall Green;;W2.74;N53.53;10;
2;ENG;Lancashire;Hall Green;;W2.81;N53.71;10;
2;ENG;Lancashire;Hall i' th' Wood;;W2.42;N53.59;10;
2;ENG;Lancashire;Halliwell;;W2.45;N53.58;10;
2;ENG;Lancashire;Halsall;;W2.96;N53.58;10;
2;ENG;Lancashire;Halton;;W2.76;N54.06;10;
2;ENG;Lancashire;Halton Green;;W2.75;N54.07;10;
2;ENG;Lancashire;Hambleton;;W2.95;N53.87;10;
2;ENG;Lancashire;Hambleton Moss Side;;W2.94;N53.87;10;
2;ENG;Lancashire;Hampson Green;;W2.77;N53.97;10;
2;ENG;Lancashire;Hampton in Arden;;W1.70;N52.42;10;
2;ENG;Lancashire;Hapton;;W2.32;N53.77;10;
2;ENG;Lancashire;Hardhorn;;W2.98;N53.83;10;
2;ENG;Lancashire;Hare Appletree;;W2.71;N54.01;10;
2;ENG;Lancashire;Hareden Brook;;W2.54;N53.95;10;
2;ENG;Lancashire;Haresfinch;;W2.73;N53.46;10;
2;ENG;Lancashire;Harle Syke;;W2.21;N53.81;10;
2;ENG;Lancashire;Harper Green;;W2.42;N53.55;10;
2;ENG;Lancashire;Hart Common;;W2.55;N53.54;10;
2;ENG;Lancashire;Hartwood;;W2.63;N53.66;10;
2;ENG;Lancashire;Harwood;;W2.37;N53.59;10;
2;ENG;Lancashire;Harwood Lee;;W2.39;N53.60;10;
2;ENG;Lancashire;Haskayne;;W2.98;N53.56;10;
2;ENG;Lancashire;Haslingden;;W2.33;N53.70;10;
2;ENG;Lancashire;Hawes Side;;W3.03;N53.79;10;
2;ENG;Lancashire;Hawk Green;;W2.07;N53.38;10;
2;ENG;Lancashire;Hawkley;;W2.65;N53.52;10;
2;ENG;Lancashire;Hawkshaw;;W2.37;N53.63;10;
2;ENG;Lancashire;Haydock;;W2.66;N53.45;10;
2;ENG;Lancashire;Hazel Grove;;W2.12;N53.37;10;
2;ENG;Lancashire;Hazelhurst;;W2.33;N53.63;10;
2;ENG;Lancashire;Heady Hill;;W2.24;N53.58;10;
2;ENG;Lancashire;Heald Green;;W2.22;N53.36;10;
2;ENG;Lancashire;Healey;;W2.18;N53.63;10;
2;ENG;Lancashire;Heap Bridge;;W2.27;N53.58;10;
2;ENG;Lancashire;Heath Charnock;;W2.62;N53.62;10;
2;ENG;Lancashire;Heaton;;W2.46;N53.57;10;
2;ENG;Lancashire;Heaton;;W2.85;N54.03;10;
2;ENG;Lancashire;Heaton Chapel;;W2.18;N53.42;10;
2;ENG;Lancashire;Heaton Mersey;;W2.21;N53.41;10;
2;ENG;Lancashire;Heaton Moor;;W2.19;N53.41;10;
2;ENG;Lancashire;Heaton Norris;;W2.18;N53.40;10;
2;ENG;Lancashire;Heaton's Bridge;;W2.90;N53.59;10;
2;ENG;Lancashire;Heaviley;;W2.15;N53.38;10;
2;ENG;Lancashire;Height End;;W2.31;N53.70;10;
2;ENG;Lancashire;Helmshore;;W2.33;N53.68;10;
2;ENG;Lancashire;Hesketh Bank;;W2.86;N53.70;10;
2;ENG;Lancashire;Hesketh Lane;;W2.59;N53.86;10;
2;ENG;Lancashire;Hesketh Moss;;W2.86;N53.69;10;
2;ENG;Lancashire;Heskin Green;;W2.71;N53.62;10;
2;ENG;Lancashire;Hest Bank;;W2.81;N54.08;10;
2;ENG;Lancashire;Heswall;;W3.11;N53.33;10;
2;ENG;Lancashire;Hey;;W2.18;N53.88;10;
2;ENG;Lancashire;Hey Houses;;W3.00;N53.75;10;
2;ENG;Lancashire;Heysham;;W2.90;N54.04;10;
2;ENG;Lancashire;Heywood;;W2.22;N53.58;10;
2;ENG;Lancashire;High Field;;W2.42;N53.96;10;
2;ENG;Lancashire;High Lane;;W2.07;N53.36;10;
2;ENG;Lancashire;High Moor;;W2.75;N53.59;10;
2;ENG;Lancashire;Higham;;W2.30;N53.82;10;
2;ENG;Lancashire;Higher Audley;;W2.47;N53.73;10;
2;ENG;Lancashire;Higher Ballam;;W2.98;N53.76;10;
2;ENG;Lancashire;Higher Bartle;;W2.76;N53.79;10;
2;ENG;Lancashire;Higher Bebington;;W3.03;N53.35;10;
2;ENG;Lancashire;Higher Boarshaw;;W2.19;N53.55;10;
2;ENG;Lancashire;Higher Chisworth;;W2.01;N53.41;10;
2;ENG;Lancashire;Higher Croft;;W2.48;N53.72;10;
2;ENG;Lancashire;Higher End;;W2.72;N53.52;10;
2;ENG;Lancashire;Higher Folds;;W2.48;N53.49;10;
2;ENG;Lancashire;Higher Green;;W2.45;N53.49;10;
2;ENG;Lancashire;Higher Heysham;;W2.90;N54.03;10;
2;ENG;Lancashire;Higher Hogshead;;W2.18;N53.69;10;
2;ENG;Lancashire;Higher Penwortham;;W2.74;N53.74;10;
2;ENG;Lancashire;Higher Walton;;W2.65;N53.73;10;
2;ENG;Lancashire;Higher Wheelton;;W2.59;N53.69;10;
2;ENG;Lancashire;Higherford;;W2.21;N53.85;10;
2;ENG;Lancashire;Highfield;;W2.43;N53.54;10;
2;ENG;Lancashire;Highfield;;W2.68;N53.52;10;
2;ENG;Lancashire;Hill Dale;;W2.77;N53.60;10;
2;ENG;Lancashire;Hillfield;;W1.79;N52.40;10;
2;ENG;Lancashire;Hillock Vale;;W2.36;N53.75;10;
2;ENG;Lancashire;Hilton House;;W2.56;N53.56;10;
2;ENG;Lancashire;Hilton Park;;W2.28;N53.51;10;
2;ENG;Lancashire;Hindburn;;W2.60;N54.05;10;
2;ENG;Lancashire;Hindle Fold;;W2.41;N53.78;10;
2;ENG;Lancashire;Hindley;;W2.57;N53.53;10;
2;ENG;Lancashire;Hindley Green;;W2.55;N53.52;10;
2;ENG;Lancashire;Hindsford;;W2.48;N53.51;10;
2;ENG;Lancashire;Hockley;;W1.60;N52.40;10;
2;ENG;Lancashire;Hodder;;W2.51;N53.94;10;
2;ENG;Lancashire;Hoddlesden;;W2.44;N53.69;10;
2;ENG;Lancashire;Hoghton;;W2.59;N53.72;10;
2;ENG;Lancashire;Hoghton Bottoms;;W2.57;N53.73;10;
2;ENG;Lancashire;Holcombe;;W2.33;N53.64;10;
2;ENG;Lancashire;Holcombe Brook;;W2.34;N53.62;10;
2;ENG;Lancashire;Holden;;W2.35;N53.93;10;
2;ENG;Lancashire;Holland Lees;;W2.74;N53.56;10;
2;ENG;Lancashire;Hollin Hall;;W2.13;N53.83;10;
2;ENG;Lancashire;Hollins;;W2.45;N53.54;10;
2;ENG;Lancashire;Hollins;;W2.28;N53.56;10;
2;ENG;Lancashire;Hollins;;W2.19;N53.55;10;
2;ENG;Lancashire;Hollins Lane;;W2.77;N53.95;10;
2;ENG;Lancashire;Hollyberry End;;W1.61;N52.44;10;
2;ENG;Lancashire;Holme Chapel;;W2.19;N53.74;10;
2;ENG;Lancashire;Holme Slack;;W2.68;N53.77;10;
2;ENG;Lancashire;Holmes;;W2.86;N53.65;10;
2;ENG;Lancashire;Holmeswood;;W2.86;N53.63;10;
2;ENG;Lancashire;Holt;;W2.78;N53.41;10;
2;ENG;Lancashire;Holt Green;;W2.92;N53.52;10;
2;ENG;Lancashire;Honresfeld;;W2.09;N53.64;10;
2;ENG;Lancashire;Hoohill;;W3.03;N53.82;10;
2;ENG;Lancashire;Hook End;;W1.70;N52.41;10;
2;ENG;Lancashire;Hooley Bridge;;W2.22;N53.60;10;
2;ENG;Lancashire;Hooley Brow;;W2.22;N53.59;10;
2;ENG;Lancashire;Hopwood;;W2.21;N53.57;10;
2;ENG;Lancashire;Hornby;;W2.64;N54.10;10;
2;ENG;Lancashire;Horrocks Fold;;W2.45;N53.61;10;
2;ENG;Lancashire;Horrocksford;;W2.39;N53.88;10;
2;ENG;Lancashire;Horton;;W2.23;N53.94;10;
2;ENG;Lancashire;Horwich;;W2.56;N53.59;10;
2;ENG;Lancashire;Hoscar;;W2.81;N53.59;10;
2;ENG;Lancashire;Hough Green;;W2.78;N53.36;10;
2;ENG;Lancashire;Houghwood;;W2.74;N53.49;10;
2;ENG;Lancashire;Howe Bridge;;W2.51;N53.51;10;
2;ENG;Lancashire;Howgill;;W2.27;N53.91;10;
2;ENG;Lancashire;Howick Cross;;W2.75;N53.73;10;
2;ENG;Lancashire;Hoylake;;W3.18;N53.38;10;
2;ENG;Lancashire;Hud Hey;;W2.33;N53.71;10;
2;ENG;Lancashire;Hugh Mill;;W2.25;N53.68;10;
2;ENG;Lancashire;Hulme;;W2.25;N53.46;10;
2;ENG;Lancashire;Huncoat;;W2.35;N53.76;10;
2;ENG;Lancashire;Hundred End;;W2.89;N53.69;10;
2;ENG;Lancashire;Hunger Hill;;W2.49;N53.55;10;
2;ENG;Lancashire;Hunger Hill;;W2.71;N53.59;10;
2;ENG;Lancashire;Hunt's Cross;;W2.87;N53.35;10;
2;ENG;Lancashire;Hurlston;;W2.90;N53.58;10;
2;ENG;Lancashire;Hurlston Green;;W2.92;N53.59;10;
2;ENG;Lancashire;Hurst Green;;W2.48;N53.83;10;
2;ENG;Lancashire;Hurstead;;W2.13;N53.63;10;
2;ENG;Lancashire;Hurstwood;;W2.18;N53.77;10;
2;ENG;Lancashire;Huttock Top;;W2.21;N53.69;10;
2;ENG;Lancashire;Hutton;;W2.77;N53.72;10;
2;ENG;Lancashire;Huyton;;W2.84;N53.41;10;
2;ENG;Lancashire;Huyton Park;;W2.84;N53.40;10;
2;ENG;Lancashire;Huyton Quarry;;W2.82;N53.40;10;
2;ENG;Lancashire;Huyton-With-Roby;;W2.84;N53.41;10;
2;ENG;Lancashire;Hyndburn Bridge;;W2.39;N53.78;10;
2;ENG;Lancashire;Ince in Makerfield;;W2.63;N53.53;10;
2;ENG;Lancashire;Inglewhite;;W2.70;N53.84;10;
2;ENG;Lancashire;Ingol;;W2.74;N53.77;10;
2;ENG;Lancashire;Inskip;;W2.82;N53.82;10;
2;ENG;Lancashire;Inskip Moss Side;;W2.83;N53.84;10;
2;ENG;Lancashire;Intack;;W2.45;N53.74;10;
2;ENG;Lancashire;Irby;;W3.12;N53.34;10;
2;ENG;Lancashire;Ireby;;W2.53;N54.17;10;
2;ENG;Lancashire;Irwell;;W2.32;N53.57;10;
2;ENG;Lancashire;Irwell;;W2.31;N53.61;10;
2;ENG;Lancashire;Irwell Vale;;W2.31;N53.67;10;
2;ENG;Lancashire;Jack Green;;W2.62;N53.72;10;
2;ENG;Lancashire;Jericho;;W2.25;N53.59;10;
2;ENG;Lancashire;Johnson Fold;;W2.48;N53.59;10;
2;ENG;Lancashire;Johnson's Hillock;;W2.62;N53.68;10;
2;ENG;Lancashire;Kearsley;;W2.37;N53.54;10;
2;ENG;Lancashire;Kelbrook;;W2.15;N53.89;10;
2;ENG;Lancashire;Kellamergh;;W2.91;N53.75;10;
2;ENG;Lancashire;Kensington;;W2.96;N53.41;10;
2;ENG;Lancashire;Kineton Green;;W1.82;N52.42;10;
2;ENG;Lancashire;Kings Moss;;W2.75;N53.50;10;
2;ENG;Lancashire;Kingsfold;;W2.71;N53.72;10;
2;ENG;Lancashire;Kirkby;;W2.89;N53.47;10;
2;ENG;Lancashire;Kirkdale;;W2.99;N53.43;10;
2;ENG;Lancashire;Kirkham;;W2.88;N53.78;10;
2;ENG;Lancashire;Kirkhams;;W2.28;N53.54;10;
2;ENG;Lancashire;Kirkholt;;W2.16;N53.59;10;
2;ENG;Lancashire;Kirklees;;W2.33;N53.60;10;
2;ENG;Lancashire;Kitt Green;;W2.68;N53.54;10;
2;ENG;Lancashire;Kitt's Moss;;W2.18;N53.35;10;
2;ENG;Lancashire;Knott-End-on-Sea;;W2.99;N53.92;10;
2;ENG;Lancashire;Knotts;;W2.36;N53.97;10;
2;ENG;Lancashire;Knotty Ash;;W2.90;N53.41;10;
2;ENG;Lancashire;Knowle;;W1.73;N52.38;10;
2;ENG;Lancashire;Knowle Green;;W2.56;N53.83;10;
2;ENG;Lancashire;Knowle Grove;;W1.75;N52.37;10;
2;ENG;Lancashire;Knuzden Brook;;W2.44;N53.73;10;
2;ENG;Lancashire;Lady House;;W2.12;N53.59;10;
2;ENG;Lancashire;Laffak;;W2.72;N53.47;10;
2;ENG;Lancashire;Lamberhead Green;;W2.69;N53.53;10;
2;ENG;Lancashire;Lammack;;W2.51;N53.75;10;
2;ENG;Lancashire;Lancaster;;W2.81;N54.04;10;
2;ENG;Lancashire;Lancaster Canal;;W2.79;N53.97;10;
2;ENG;Lancashire;Land Gate;;W2.64;N53.50;10;
2;ENG;Lancashire;Landican;;W3.08;N53.35;10;
2;ENG;Lancashire;Lane Bottom;;W2.19;N53.81;10;
2;ENG;Lancashire;Lane End;;W2.19;N53.91;10;
2;ENG;Lancashire;Lane Ends;;W2.59;N53.63;10;
2;ENG;Lancashire;Lane Ends;;W2.32;N53.76;10;
2;ENG;Lancashire;Lane Ends;;W2.38;N53.94;10;
2;ENG;Lancashire;Lane Ends;;W2.04;N53.40;10;
2;ENG;Lancashire;Lane Head;;W2.57;N53.45;10;
2;ENG;Lancashire;Lane Heads;;W2.86;N53.84;10;
2;ENG;Lancashire;Lane Side;;W2.33;N53.69;10;
2;ENG;Lancashire;Laneshaw Bridge;;W2.12;N53.85;10;
2;ENG;Lancashire;Langho;;W2.45;N53.80;10;
2;ENG;Lancashire;Langley;;W2.21;N53.55;10;
2;ENG;Lancashire;Larbreck;;W2.91;N53.85;10;
2;ENG;Lancashire;Larches;;W2.76;N53.76;10;
2;ENG;Lancashire;Lark Hill;;W2.46;N53.49;10;
2;ENG;Lancashire;Lately Common;;W2.51;N53.47;10;
2;ENG;Lancashire;Lathom;;W2.83;N53.58;10;
2;ENG;Lancashire;Laund;;W2.30;N53.70;10;
2;ENG;Lancashire;Layton;;W3.03;N53.81;10;
2;ENG;Lancashire;Lea;;W2.77;N53.76;10;
2;ENG;Lancashire;Lea Green;;W2.75;N53.42;10;
2;ENG;Lancashire;Lea Town;;W2.80;N53.77;10;
2;ENG;Lancashire;Leasowe;;W3.09;N53.41;10;
2;ENG;Lancashire;Leck;;W2.55;N54.17;10;
2;ENG;Lancashire;Leeds and Liverpool Canal;;W2.49;N53.73;10;
2;ENG;Lancashire;Leeds and Liverpool Canal;;W2.60;N53.54;10;
2;ENG;Lancashire;Leemings;;W2.42;N53.90;10;
2;ENG;Lancashire;Leigh;;W2.52;N53.49;10;
2;ENG;Lancashire;Lever-Edge;;W2.45;N53.55;10;
2;ENG;Lancashire;Lewth;;W2.79;N53.81;10;
2;ENG;Lancashire;Ley Hey Park;;W2.07;N53.39;10;
2;ENG;Lancashire;Leyland;;W2.69;N53.69;10;
2;ENG;Lancashire;Lightfoot Green;;W2.74;N53.79;10;
2;ENG;Lancashire;Lilford;;W2.51;N53.49;10;
2;ENG;Lancashire;Limbrick;;W2.60;N53.63;10;
2;ENG;Lancashire;Limefield;;W2.30;N53.60;10;
2;ENG;Lancashire;Lingley Green;;W2.67;N53.39;10;
2;ENG;Lancashire;Liscard;;W3.05;N53.42;10;
2;ENG;Lancashire;Little Bispham;;W3.05;N53.86;10;
2;ENG;Lancashire;Little Bolton;;W2.33;N53.47;10;
2;ENG;Lancashire;Little Carleton;;W3.01;N53.83;10;
2;ENG;Lancashire;Little Clegg;;W2.12;N53.62;10;
2;ENG;Lancashire;Little Eccleston;;W2.89;N53.85;10;
2;ENG;Lancashire;Little Harwood;;W2.47;N53.75;10;
2;ENG;Lancashire;Little Hoole Moss Houses;;W2.78;N53.70;10;
2;ENG;Lancashire;Little Layton;;W3.03;N53.82;10;
2;ENG;Lancashire;Little Lever;;W2.37;N53.55;10;
2;ENG;Lancashire;Little Marsden;;W2.22;N53.82;10;
2;ENG;Lancashire;Little Marton;;W3.00;N53.79;10;
2;ENG;Lancashire;Little Moor;;W2.39;N53.85;10;
2;ENG;Lancashire;Little Moor;;W2.13;N53.39;10;
2;ENG;Lancashire;Little Moor End;;W2.41;N53.73;10;
2;ENG;Lancashire;Little Plumpton;;W2.95;N53.78;10;
2;ENG;Lancashire;Little Poulton;;W2.98;N53.84;10;
2;ENG;Lancashire;Little Scotland;;W2.60;N53.58;10;
2;ENG;Lancashire;Little Singleton;;W2.95;N53.84;10;
2;ENG;Lancashire;Little Thornton;;W2.98;N53.86;10;
2;ENG;Lancashire;Little Town;;W2.53;N53.81;10;
2;ENG;Lancashire;Littleborough;;W2.10;N53.64;10;
2;ENG;Lancashire;Liverpool;;W2.94;N53.41;10;
2;ENG;Lancashire;Lode Heath;;W1.78;N52.41;10;
2;ENG;Lancashire;Lodge Green;;W1.63;N52.44;10;
2;ENG;Lancashire;Lomeshaye;;W2.24;N53.82;10;
2;ENG;Lancashire;Longridge;;W2.60;N53.82;10;
2;ENG;Lancashire;Longshaw;;W2.72;N53.51;10;
2;ENG;Lancashire;Longton;;W2.80;N53.71;10;
2;ENG;Lancashire;Longview;;W2.84;N53.42;10;
2;ENG;Lancashire;Lostock;;W2.51;N53.56;10;
2;ENG;Lancashire;Lostock Hall;;W2.69;N53.71;10;
2;ENG;Lancashire;Lostock Junction;;W2.49;N53.56;10;
2;ENG;Lancashire;Love Clough;;W2.28;N53.73;10;
2;ENG;Lancashire;Low Bentham;;W2.55;N54.11;10;
2;ENG;Lancashire;Low Moor;;W2.41;N53.86;10;
2;ENG;Lancashire;Lower Ballam;;W2.97;N53.76;10;
2;ENG;Lancashire;Lower Bartle;;W2.77;N53.79;10;
2;ENG;Lancashire;Lower Bebington;;W3.00;N53.34;10;
2;ENG;Lancashire;Lower Bredbury;;W2.13;N53.41;10;
2;ENG;Lancashire;Lower Copthurst;;W2.62;N53.68;10;
2;ENG;Lancashire;Lower Darwen;;W2.48;N53.72;10;
2;ENG;Lancashire;Lower Green;;W2.45;N53.48;10;
2;ENG;Lancashire;Lower Heysham;;W2.90;N54.04;10;
2;ENG;Lancashire;Lower Penwortham;;W2.71;N53.74;10;
2;ENG;Lancashire;Lower Place;;W2.15;N53.59;10;
2;ENG;Lancashire;Lower Thurnham;;W2.84;N53.97;10;
2;ENG;Lancashire;Lowerford;;W2.22;N53.84;10;
2;ENG;Lancashire;Lowerhouse;;W2.28;N53.78;10;
2;ENG;Lancashire;Lowgill;;W2.53;N54.07;10;
2;ENG;Lancashire;Lowton;;W2.57;N53.46;10;
2;ENG;Lancashire;Lowton Common;;W2.55;N53.46;10;
2;ENG;Lancashire;Lowton Heath;;W2.58;N53.45;10;
2;ENG;Lancashire;Lowton St Mary's;;W2.55;N53.46;10;
2;ENG;Lancashire;Lucas Green;;W2.63;N53.67;10;
2;ENG;Lancashire;Lumb;;W2.33;N53.66;10;
2;ENG;Lancashire;Lumb;;W2.25;N53.71;10;
2;ENG;Lancashire;Lune;;W2.71;N54.08;10;
2;ENG;Lancashire;Lytham;;W2.98;N53.73;10;
2;ENG;Lancashire;Lytham St Anne's;;W3.01;N53.73;10;
2;ENG;Lancashire;Main Dyke;;W2.98;N53.80;10;
2;ENG;Lancashire;Manchester Ship Canal;;W2.37;N53.46;10;
2;ENG;Lancashire;Markland Hill;;W2.48;N53.57;10;
2;ENG;Lancashire;Marland;;W2.19;N53.59;10;
2;ENG;Lancashire;Marple;;W2.07;N53.38;10;
2;ENG;Lancashire;Marple Bridge;;W2.06;N53.39;10;
2;ENG;Lancashire;Marpleridge;;W2.07;N53.38;10;
2;ENG;Lancashire;Marsden Height;;W2.21;N53.82;10;
2;ENG;Lancashire;Marsh Green;;W2.68;N53.54;10;
2;ENG;Lancashire;Marsh Houses;;W2.83;N53.95;10;
2;ENG;Lancashire;Marshall's Cross;;W2.73;N53.42;10;
2;ENG;Lancashire;Marston Green;;W1.75;N52.46;10;
2;ENG;Lancashire;Marton Moss Side;;W3.01;N53.78;10;
2;ENG;Lancashire;Marylebone;;W2.63;N53.55;10;
2;ENG;Lancashire;Matshead;;W2.74;N53.85;10;
2;ENG;Lancashire;Mawdesley;;W2.77;N53.62;10;
2;ENG;Lancashire;Medlar;;W2.89;N53.80;10;
2;ENG;Lancashire;Meer End;;W1.64;N52.36;10;
2;ENG;Lancashire;Melling;;W2.62;N54.13;10;
2;ENG;Lancashire;Mellor;;W2.53;N53.76;10;
2;ENG;Lancashire;Mellor;;W2.04;N53.38;10;
2;ENG;Lancashire;Mellor Brook;;W2.54;N53.77;10;
2;ENG;Lancashire;Meols;;W3.17;N53.39;10;
2;ENG;Lancashire;Mere Brow;;W2.89;N53.65;10;
2;ENG;Lancashire;Mereclough;;W2.19;N53.76;10;
2;ENG;Lancashire;Mereside;;W3.00;N53.79;10;
2;ENG;Lancashire;Meriden;;W1.64;N52.43;10;
2;ENG;Lancashire;Mersey;;W2.09;N53.40;10;
2;ENG;Lancashire;Middle Bickenhill;;W1.70;N52.44;10;
2;ENG;Lancashire;Middleforth Green;;W2.72;N53.73;10;
2;ENG;Lancashire;Middleton;;W2.88;N54.01;10;
2;ENG;Lancashire;Middleton;;W2.19;N53.55;10;
2;ENG;Lancashire;Middleton Junction;;W2.18;N53.53;10;
2;ENG;Lancashire;Midge Hall;;W2.74;N53.70;10;
2;ENG;Lancashire;Mill Brow;;W2.04;N53.39;10;
2;ENG;Lancashire;Mill Hill;;W2.42;N53.57;10;
2;ENG;Lancashire;Mill Hill;;W2.51;N53.72;10;
2;ENG;Lancashire;Millgate;;W2.18;N53.66;10;
2;ENG;Lancashire;Millhead;;W2.78;N54.13;10;
2;ENG;Lancashire;Milnrow;;W2.12;N53.60;10;
2;ENG;Lancashire;Milnshaw;;W2.38;N53.75;10;
2;ENG;Lancashire;Monkspath;;W1.79;N52.38;10;
2;ENG;Lancashire;Montcliffe;;W2.53;N53.60;10;
2;ENG;Lancashire;Moor End;;W2.96;N53.88;10;
2;ENG;Lancashire;Moor Side;;W2.86;N53.79;10;
2;ENG;Lancashire;Moor Side;;W2.77;N53.80;10;
2;ENG;Lancashire;Moorclose;;W2.18;N53.54;10;
2;ENG;Lancashire;Moorend;;W2.01;N53.38;10;
2;ENG;Lancashire;Morecambe;;W2.88;N54.06;10;
2;ENG;Lancashire;Moreton;;W3.11;N53.40;10;
2;ENG;Lancashire;Moses Gate;;W2.40;N53.55;10;
2;ENG;Lancashire;Mosley Common;;W2.43;N53.50;10;
2;ENG;Lancashire;Moss Bank;;W2.73;N53.46;10;
2;ENG;Lancashire;Moss Edge;;W2.88;N53.88;10;
2;ENG;Lancashire;Moss Edge;;W2.86;N53.93;10;
2;ENG;Lancashire;Moss Nook;;W2.70;N53.44;10;
2;ENG;Lancashire;Moss Side;;W2.84;N53.46;10;
2;ENG;Lancashire;Moss Side;;W2.74;N53.69;10;
2;ENG;Lancashire;Moss Side;;W2.94;N53.76;10;
2;ENG;Lancashire;Mossbrow;;W2.43;N53.39;10;
2;ENG;Lancashire;Mossley Hill;;W2.93;N53.37;10;
2;ENG;Lancashire;Mossy Lea;;W2.71;N53.60;10;
2;ENG;Lancashire;Mowbreck;;W2.88;N53.79;10;
2;ENG;Lancashire;Much Hoole;;W2.80;N53.70;10;
2;ENG;Lancashire;Much Hoole Moss Houses;;W2.78;N53.69;10;
2;ENG;Lancashire;Much Hoole Town;;W2.80;N53.69;10;
2;ENG;Lancashire;Myerscough Smithy;;W2.59;N53.77;10;
2;ENG;Lancashire;Mythop;;W2.97;N53.79;10;
2;ENG;Lancashire;Nab's Head;;W2.57;N53.75;10;
2;ENG;Lancashire;Nangreaves;;W2.28;N53.63;10;
2;ENG;Lancashire;Nateby;;W2.82;N53.88;10;
2;ENG;Lancashire;Nelson;;W2.21;N53.82;10;
2;ENG;Lancashire;Nether Burrow;;W2.59;N54.16;10;
2;ENG;Lancashire;Nether Kellet;;W2.76;N54.10;10;
2;ENG;Lancashire;Netherley;;W2.84;N53.38;10;
2;ENG;Lancashire;Nethertown;;W2.42;N53.81;10;
2;ENG;Lancashire;New Boston;;W2.66;N53.46;10;
2;ENG;Lancashire;New Brighton;;W3.05;N53.42;10;
2;ENG;Lancashire;New Bury;;W2.40;N53.54;10;
2;ENG;Lancashire;New Ferry;;W2.99;N53.35;10;
2;ENG;Lancashire;New Hall Hey;;W2.30;N53.69;10;
2;ENG;Lancashire;New Houses;;W2.68;N53.51;10;
2;ENG;Lancashire;New Lane;;W2.87;N53.60;10;
2;ENG;Lancashire;New Longton;;W2.75;N53.71;10;
2;ENG;Lancashire;New Row;;W2.54;N53.83;10;
2;ENG;Lancashire;New Springs;;W2.60;N53.55;10;
2;ENG;Lancashire;New Town;;W2.60;N53.81;10;
2;ENG;Lancashire;Newbold;;W2.13;N53.61;10;
2;ENG;Lancashire;Newbridge;;W2.22;N53.83;10;
2;ENG;Lancashire;Newburgh;;W2.78;N53.58;10;
2;ENG;Lancashire;Newby;;W2.29;N53.90;10;
2;ENG;Lancashire;Newchurch;;W2.27;N53.69;10;
2;ENG;Lancashire;Newchurch in Pendle;;W2.27;N53.84;10;
2;ENG;Lancashire;Newgate;;W2.74;N53.53;10;
2;ENG;Lancashire;Newsham;;W2.74;N53.81;10;
2;ENG;Lancashire;Newsholme;;W2.24;N53.95;10;
2;ENG;Lancashire;Newton;;W3.00;N53.81;10;
2;ENG;Lancashire;Newton;;W2.47;N53.94;10;
2;ENG;Lancashire;Newton;;W2.62;N54.16;10;
2;ENG;Lancashire;Newton;;W3.15;N53.37;10;
2;ENG;Lancashire;Newton Park;;W2.61;N53.44;10;
2;ENG;Lancashire;Newton with Scales;;W2.85;N53.76;10;
2;ENG;Lancashire;Newton-Le-Willows;;W2.63;N53.45;10;
2;ENG;Lancashire;Newtown;;W2.74;N53.65;10;
2;ENG;Lancashire;Newtown;;W2.76;N53.44;10;
2;ENG;Lancashire;Newtown;;W2.66;N53.54;10;
2;ENG;Lancashire;Nob End;;W2.37;N53.55;10;
2;ENG;Lancashire;Noctorum;;W3.08;N53.37;10;
2;ENG;Lancashire;Nog Tow;;W2.76;N53.79;10;
2;ENG;Lancashire;Norbreck;;W3.05;N53.86;10;
2;ENG;Lancashire;Norbury Moor;;W2.13;N53.37;10;
2;ENG;Lancashire;Norcross;;W3.03;N53.86;10;
2;ENG;Lancashire;Norden;;W2.22;N53.62;10;
2;ENG;Lancashire;Normoss;;W3.00;N53.82;10;
2;ENG;Lancashire;Norris Green;;W2.91;N53.43;10;
2;ENG;Lancashire;North Reddish;;W2.16;N53.44;10;
2;ENG;Lancashire;North Shore;;W3.06;N53.83;10;
2;ENG;Lancashire;Northwood;;W2.87;N53.48;10;
2;ENG;Lancashire;Norton Green;;W1.75;N52.36;10;
2;ENG;Lancashire;Nun Hills;;W2.22;N53.68;10;
2;ENG;Lancashire;Nut Grove;;W2.76;N53.42;10;
2;ENG;Lancashire;Nuttall;;W2.31;N53.63;10;
2;ENG;Lancashire;Oak Bank;;W2.28;N53.54;10;
2;ENG;Lancashire;Oakenclough;;W2.70;N53.91;10;
2;ENG;Lancashire;Oakenshaw;;W2.39;N53.77;10;
2;ENG;Lancashire;Offerton;;W2.13;N53.38;10;
2;ENG;Lancashire;Offerton Green;;W2.10;N53.38;10;
2;ENG;Lancashire;Old Boston;;W2.64;N53.46;10;
2;ENG;Lancashire;Old Langho;;W2.45;N53.81;10;
2;ENG;Lancashire;Old Swan;;W2.91;N53.41;10;
2;ENG;Lancashire;Old Trafford;;W2.27;N53.45;10;
2;ENG;Lancashire;Oldfield Brow;;W2.37;N53.38;10;
2;ENG;Lancashire;Oldham;;W2.12;N53.53;10;
2;ENG;Lancashire;Oldwich Lane;;W1.69;N52.36;10;
2;ENG;Lancashire;Ollerton Fold;;W2.59;N53.70;10;
2;ENG;Lancashire;Olton;;W1.81;N52.43;10;
2;ENG;Lancashire;Ormskirk;;W2.89;N53.56;10;
2;ENG;Lancashire;Orrell;;W2.71;N53.53;10;
2;ENG;Lancashire;Orrell Post;;W2.71;N53.53;10;
2;ENG;Lancashire;Ortner;;W2.71;N53.98;10;
2;ENG;Lancashire;Osbaldeston;;W2.54;N53.77;10;
2;ENG;Lancashire;Osbaldeston Green;;W2.54;N53.78;10;
2;ENG;Lancashire;Oswaldtwistle;;W2.41;N53.73;10;
2;ENG;Lancashire;Otterspool;;W2.94;N53.35;10;
2;ENG;Lancashire;Out Rawcliffe;;W2.91;N53.86;10;
2;ENG;Lancashire;Outwood;;W2.34;N53.54;10;
2;ENG;Lancashire;Over Burrow;;W2.59;N54.17;10;
2;ENG;Lancashire;Over Hulton;;W2.48;N53.54;10;
2;ENG;Lancashire;Over Kellet;;W2.73;N54.11;10;
2;ENG;Lancashire;Over Town;;W2.19;N53.75;10;
2;ENG;Lancashire;Overton;;W2.87;N54.01;10;
2;ENG;Lancashire;Overtown;;W2.58;N54.17;10;
2;ENG;Lancashire;Oxton;;W3.06;N53.37;10;
2;ENG;Lancashire;Padiham;;W2.32;N53.79;10;
2;ENG;Lancashire;Page Moss;;W2.87;N53.41;10;
2;ENG;Lancashire;Parbold;;W2.77;N53.59;10;
2;ENG;Lancashire;Park Close;;W2.18;N53.89;10;
2;ENG;Lancashire;Park Hill;;W2.81;N53.51;10;
2;ENG;Lancashire;Parr;;W2.70;N53.44;10;
2;ENG;Lancashire;Parr Brow;;W2.43;N53.50;10;
2;ENG;Lancashire;Partington;;W2.43;N53.41;10;
2;ENG;Lancashire;Paythorne;;W2.26;N53.95;10;
2;ENG;Lancashire;Peak Forest Canal;;W2.07;N53.40;10;
2;ENG;Lancashire;Peasley Cross;;W2.72;N53.43;10;
2;ENG;Lancashire;Peel;;W2.98;N53.77;10;
2;ENG;Lancashire;Peel Hill;;W2.98;N53.78;10;
2;ENG;Lancashire;Pemberton;;W2.68;N53.53;10;
2;ENG;Lancashire;Pendle Water;;W2.21;N53.84;10;
2;ENG;Lancashire;Pendleton;;W2.38;N53.84;10;
2;ENG;Lancashire;Pennington;;W2.52;N53.48;10;
2;ENG;Lancashire;Pennington Green;;W2.59;N53.54;10;
2;ENG;Lancashire;Pennylands;;W2.80;N53.54;10;
2;ENG;Lancashire;Pensby;;W3.11;N53.33;10;
2;ENG;Lancashire;Penwortham Lane;;W2.71;N53.72;10;
2;ENG;Lancashire;Pickley Green;;W2.52;N53.51;10;
2;ENG;Lancashire;Pickup Bank;;W2.42;N53.69;10;
2;ENG;Lancashire;Pike Hill;;W2.21;N53.78;10;
2;ENG;Lancashire;Pilling;;W2.91;N53.92;10;
2;ENG;Lancashire;Pilling Lane;;W2.96;N53.93;10;
2;ENG;Lancashire;Pilling Water;;W2.89;N53.90;10;
2;ENG;Lancashire;Pimhole;;W2.28;N53.58;10;
2;ENG;Lancashire;Pimlico;;W2.39;N53.88;10;
2;ENG;Lancashire;Pincock;;W2.68;N53.64;10;
2;ENG;Lancashire;Pinfold;;W2.93;N53.59;10;
2;ENG;Lancashire;Pippin Street;;W2.62;N53.71;10;
2;ENG;Lancashire;Plank Lane;;W2.55;N53.49;10;
2;ENG;Lancashire;Platt Bridge;;W2.60;N53.51;10;
2;ENG;Lancashire;Pleasington;;W2.54;N53.72;10;
2;ENG;Lancashire;Pleckgate;;W2.50;N53.76;10;
2;ENG;Lancashire;Poll Hill;;W3.11;N53.33;10;
2;ENG;Lancashire;Pool Hey;;W2.96;N53.62;10;
2;ENG;Lancashire;Poolstock;;W2.65;N53.53;10;
2;ENG;Lancashire;Port Sunlight;;W3.00;N53.34;10;
2;ENG;Lancashire;Portico;;W2.78;N53.43;10;
2;ENG;Lancashire;Portsmouth;;W2.16;N53.73;10;
2;ENG;Lancashire;Portwood;;W2.15;N53.40;10;
2;ENG;Lancashire;Potters Brook;;W2.79;N53.96;10;
2;ENG;Lancashire;Poulton;;W3.00;N53.33;10;
2;ENG;Lancashire;Poulton;;W3.05;N53.40;10;
2;ENG;Lancashire;Poulton-le-Fylde;;W3.00;N53.84;10;
2;ENG;Lancashire;Preesall;;W2.97;N53.91;10;
2;ENG;Lancashire;Preesall Park;;W2.96;N53.90;10;
2;ENG;Lancashire;Prenton;;W3.05;N53.36;10;
2;ENG;Lancashire;Prescot;;W2.81;N53.42;10;
2;ENG;Lancashire;Prestolee;;W2.37;N53.54;10;
2;ENG;Lancashire;Preston;;W2.71;N53.75;10;
2;ENG;Lancashire;Prestwich;;W2.28;N53.52;10;
2;ENG;Lancashire;Priest Hutton;;W2.72;N54.15;10;
2;ENG;Lancashire;Primrose Hill;;W2.93;N53.57;10;
2;ENG;Lancashire;Princes Park;;W2.96;N53.38;10;
2;ENG;Lancashire;Pudding Pie Nook;;W2.70;N53.80;10;
2;ENG;Lancashire;Queen's Park;;W2.47;N53.73;10;
2;ENG;Lancashire;Queenstown;;W3.03;N53.82;10;
2;ENG;Lancashire;Quernmore;;W2.74;N54.02;10;
2;ENG;Lancashire;Quernmore;;W2.74;N54.03;10;
2;ENG;Lancashire;Raby;;W3.03;N53.30;10;
2;ENG;Lancashire;Radcliffe;;W2.33;N53.55;10;
2;ENG;Lancashire;Rain Shore;;W2.22;N53.63;10;
2;ENG;Lancashire;Rainford;;W2.80;N53.50;10;
2;ENG;Lancashire;Rainford Brook;;W2.81;N53.52;10;
2;ENG;Lancashire;Rainford Junction;;W2.80;N53.51;10;
2;ENG;Lancashire;Rainhill;;W2.76;N53.41;10;
2;ENG;Lancashire;Rainhill Stoops;;W2.75;N53.40;10;
2;ENG;Lancashire;Rainsough;;W2.28;N53.51;10;
2;ENG;Lancashire;Rake Head;;W2.24;N53.68;10;
2;ENG;Lancashire;Rakewood;;W2.09;N53.62;10;
2;ENG;Lancashire;Ramsbottom;;W2.33;N53.64;10;
2;ENG;Lancashire;Ratten Row;;W2.88;N53.86;10;
2;ENG;Lancashire;Ravenhead;;W2.75;N53.44;10;
2;ENG;Lancashire;Rawtenstall;;W2.28;N53.71;10;
2;ENG;Lancashire;Read;;W2.36;N53.80;10;
2;ENG;Lancashire;Red Bridge;;W2.81;N54.16;10;
2;ENG;Lancashire;Red Lumb;;W2.24;N53.63;10;
2;ENG;Lancashire;Red Rock;;W2.63;N53.57;10;
2;ENG;Lancashire;Red Scar;;W2.63;N53.78;10;
2;ENG;Lancashire;Reddish;;W2.16;N53.43;10;
2;ENG;Lancashire;Redvales;;W2.30;N53.56;10;
2;ENG;Lancashire;Reedley;;W2.24;N53.81;10;
2;ENG;Lancashire;Reeds Holme;;W2.30;N53.71;10;
2;ENG;Lancashire;Reeves Green;;W1.61;N52.39;10;
2;ENG;Lancashire;Revidge;;W2.50;N53.75;10;
2;ENG;Lancashire;Ribble;;W2.59;N53.79;10;
2;ENG;Lancashire;Ribbleton;;W2.66;N53.76;10;
2;ENG;Lancashire;Ribby;;W2.91;N53.77;10;
2;ENG;Lancashire;Ribchester;;W2.54;N53.81;10;
2;ENG;Lancashire;Ridge;;W2.79;N54.05;10;
2;ENG;Lancashire;Riley Green;;W2.57;N53.72;10;
2;ENG;Lancashire;Rimington;;W2.30;N53.90;10;
2;ENG;Lancashire;Ring o' Bells;;W2.83;N53.58;10;
2;ENG;Lancashire;Ringley;;W2.36;N53.54;10;
2;ENG;Lancashire;Rishton;;W2.42;N53.76;10;
2;ENG;Lancashire;Rising Bridge;;W2.33;N53.72;10;
2;ENG;Lancashire;Riverside Docklands;;W2.74;N53.75;10;
2;ENG;Lancashire;Rivington;;W2.57;N53.62;10;
2;ENG;Lancashire;Roach Bridge;;W2.62;N53.74;10;
2;ENG;Lancashire;Robin Hood;;W2.72;N53.59;10;
2;ENG;Lancashire;Roby;;W2.85;N53.40;10;
2;ENG;Lancashire;Roby Mill;;W2.74;N53.55;10;
2;ENG;Lancashire;Rochdale;;W2.16;N53.61;10;
2;ENG;Lancashire;Roche;;W2.26;N53.59;10;
2;ENG;Lancashire;Rock Ferry;;W3.02;N53.36;10;
2;ENG;Lancashire;Rockcliffe;;W2.19;N53.69;10;
2;ENG;Lancashire;Roe Lee;;W2.48;N53.76;10;
2;ENG;Lancashire;Romiley;;W2.09;N53.40;10;
2;ENG;Lancashire;Rose Grove;;W2.28;N53.78;10;
2;ENG;Lancashire;Rose Hill;;W2.43;N53.56;10;
2;ENG;Lancashire;Rose Hill;;W2.25;N53.77;10;
2;ENG;Lancashire;Roseacre;;W2.86;N53.81;10;
2;ENG;Lancashire;Rosehill;;W2.45;N53.68;10;
2;ENG;Lancashire;Rosehill;;W2.36;N53.37;10;
2;ENG;Lancashire;Rotherham;;W1.35;N53.42;10;
2;ENG;Lancashire;Rotten Row;;W1.73;N52.37;10;
2;ENG;Lancashire;Rough Bank;;W2.09;N53.60;10;
2;ENG;Lancashire;Roughlee;;W2.24;N53.85;10;
2;ENG;Lancashire;Roundthorn;;W2.30;N53.38;10;
2;ENG;Lancashire;Rufford;;W2.83;N53.62;10;
2;ENG;Lancashire;Rumbush;;W1.85;N52.37;10;
2;ENG;Lancashire;Runshaw Moor;;W2.71;N53.66;10;
2;ENG;Lancashire;Sabden;;W2.35;N53.82;10;
2;ENG;Lancashire;Sale;;W2.33;N53.41;10;
2;ENG;Lancashire;Salesbury;;W2.50;N53.78;10;
2;ENG;Lancashire;Saltcotes;;W2.95;N53.74;10;
2;ENG;Lancashire;Salterforth;;W2.18;N53.90;10;
2;ENG;Lancashire;Samlesbury;;W2.62;N53.76;10;
2;ENG;Lancashire;Samlesbury Bottoms;;W2.59;N53.74;10;
2;ENG;Lancashire;Sand Side;;W2.86;N53.94;10;
2;ENG;Lancashire;Sandhills;;W3.00;N53.42;10;
2;ENG;Lancashire;Sandy Brook;;W2.92;N53.60;10;
2;ENG;Lancashire;Sandylands;;W2.88;N54.06;10;
2;ENG;Lancashire;Saughall Massie;;W3.12;N53.38;10;
2;ENG;Lancashire;Sawley;;W2.35;N53.91;10;
2;ENG;Lancashire;Scaitcliffe;;W2.38;N53.74;10;
2;ENG;Lancashire;Scale Hall;;W2.82;N54.05;10;
2;ENG;Lancashire;Scarisbrick;;W2.95;N53.61;10;
2;ENG;Lancashire;Scarth Hill;;W2.87;N53.54;10;
2;ENG;Lancashire;Scholes;;W2.63;N53.54;10;
2;ENG;Lancashire;Scorton;;W2.76;N53.92;10;
2;ENG;Lancashire;Scot Lane End;;W2.57;N53.57;10;
2;ENG;Lancashire;Scotforth;;W2.79;N54.02;10;
2;ENG;Lancashire;Scronkey;;W2.89;N53.91;10;
2;ENG;Lancashire;Seacombe;;W3.02;N53.40;10;
2;ENG;Lancashire;Sedgemere;;W1.67;N52.37;10;
2;ENG;Lancashire;Seed Lee;;W2.63;N53.71;10;
2;ENG;Lancashire;Sefton;;W2.98;N53.50;10;
2;ENG;Lancashire;Sefton Park;;W2.94;N53.37;10;
2;ENG;Lancashire;Shadsworth;;W2.45;N53.73;10;
2;ENG;Lancashire;Shakerley;;W2.46;N53.52;10;
2;ENG;Lancashire;Sharmans Cross;;W1.81;N52.40;10;
2;ENG;Lancashire;Sharneyford;;W2.18;N53.71;10;
2;ENG;Lancashire;Sharoe Green;;W2.71;N53.79;10;
2;ENG;Lancashire;Sharples;;W2.45;N53.59;10;
2;ENG;Lancashire;Shaw Green;;W2.72;N53.65;10;
2;ENG;Lancashire;Shaw Heath;;W2.16;N53.39;10;
2;ENG;Lancashire;Shawclough;;W2.18;N53.62;10;
2;ENG;Lancashire;Shawfield;;W2.19;N53.62;10;
2;ENG;Lancashire;Shawforth;;W2.16;N53.67;10;
2;ENG;Lancashire;Sherfin;;W2.33;N53.72;10;
2;ENG;Lancashire;Shevington;;W2.69;N53.56;10;
2;ENG;Lancashire;Shevington Moor;;W2.69;N53.58;10;
2;ENG;Lancashire;Shevington Vale;;W2.71;N53.57;10;
2;ENG;Lancashire;Shirdley Hill;;W2.98;N53.60;10;
2;ENG;Lancashire;Shirley;;W1.82;N52.40;10;
2;ENG;Lancashire;Shirley Heath;;W1.83;N52.39;10;
2;ENG;Lancashire;Shore;;W2.12;N53.64;10;
2;ENG;Lancashire;Shuttleworth;;W2.30;N53.64;10;
2;ENG;Lancashire;Side of the Moor;;W2.39;N53.60;10;
2;ENG;Lancashire;Silverdale;;W2.82;N54.16;10;
2;ENG;Lancashire;Silverdale Green;;W2.82;N54.15;10;
2;ENG;Lancashire;Simm's Lane End;;W2.69;N53.49;10;
2;ENG;Lancashire;Simonstone;;W2.35;N53.80;10;
2;ENG;Lancashire;Simonstone;;W2.36;N53.80;10;
2;ENG;Lancashire;Sinderland Green;;W2.40;N53.40;10;
2;ENG;Lancashire;Singleton;;W2.94;N53.83;10;
2;ENG;Lancashire;Skelmersdale;;W2.78;N53.54;10;
2;ENG;Lancashire;Skerton;;W2.81;N54.06;10;
2;ENG;Lancashire;Skippool;;W2.98;N53.85;10;
2;ENG;Lancashire;Skitham;;W2.88;N53.88;10;
2;ENG;Lancashire;Slaidburn;;W2.44;N53.96;10;
2;ENG;Lancashire;Slattocks;;W2.18;N53.56;10;
2;ENG;Lancashire;Slyne;;W2.81;N54.07;10;
2;ENG;Lancashire;Smallbridge;;W2.13;N53.63;10;
2;ENG;Lancashire;Smallwood Hey;;W2.93;N53.92;10;
2;ENG;Lancashire;Smith Green;;W2.77;N53.97;10;
2;ENG;Lancashire;Smithy Bridge;;W2.10;N53.63;10;
2;ENG;Lancashire;Smithy Green;;W2.19;N53.36;10;
2;ENG;Lancashire;Smithy Lane Ends;;W2.90;N53.60;10;
2;ENG;Lancashire;Snape Green;;W2.95;N53.61;10;
2;ENG;Lancashire;Sollom;;W2.83;N53.65;10;
2;ENG;Lancashire;South Reddish;;W2.16;N53.42;10;
2;ENG;Lancashire;South Shore;;W3.06;N53.78;10;
2;ENG;Lancashire;Southdene;;W2.89;N53.46;10;
2;ENG;Lancashire;Sower Carr;;W2.95;N53.87;10;
2;ENG;Lancashire;Speke;;W2.84;N53.34;10;
2;ENG;Lancashire;Spital;;W2.99;N53.34;10;
2;ENG;Lancashire;Spotland Bridge;;W2.18;N53.61;10;
2;ENG;Lancashire;Spring Green;;W2.10;N53.88;10;
2;ENG;Lancashire;Spring Hill;;W2.39;N53.74;10;
2;ENG;Lancashire;Springfield;;W2.65;N53.54;10;
2;ENG;Lancashire;Squires Gate;;W3.04;N53.78;10;
2;ENG;Lancashire;St Annes;;W3.04;N53.74;10;
2;ENG;Lancashire;St George's;;W2.27;N53.46;10;
2;ENG;Lancashire;St Michael's Hamlet;;W2.96;N53.36;10;
2;ENG;Lancashire;St Michael's on Wyre;;W2.82;N53.86;10;
2;ENG;Lancashire;St. Helens;;W2.75;N53.44;10;
2;ENG;Lancashire;Stacksteads;;W2.24;N53.68;10;
2;ENG;Lancashire;Staining;;W3.00;N53.81;10;
2;ENG;Lancashire;Stake Hill;;W2.16;N53.56;10;
2;ENG;Lancashire;Stalmine;;W2.96;N53.89;10;
2;ENG;Lancashire;Stalmine Moss Side;;W2.96;N53.89;10;
2;ENG;Lancashire;Stanah;;W2.99;N53.87;10;
2;ENG;Lancashire;Stand;;W2.31;N53.54;10;
2;ENG;Lancashire;Standen Hall;;W2.39;N53.85;10;
2;ENG;Lancashire;Standish;;W2.66;N53.58;10;
2;ENG;Lancashire;Standish Lower Ground;;W2.68;N53.55;10;
2;ENG;Lancashire;Stanhill;;W2.42;N53.73;10;
2;ENG;Lancashire;Stanley Gate;;W2.86;N53.53;10;
2;ENG;Lancashire;Stanycliffe;;W2.18;N53.55;10;
2;ENG;Lancashire;Starling;;W2.34;N53.58;10;
2;ENG;Lancashire;Staynall;;W2.97;N53.87;10;
2;ENG;Lancashire;Stepping Hill;;W2.13;N53.38;10;
2;ENG;Lancashire;Stock;;W2.21;N53.92;10;
2;ENG;Lancashire;Stockbridge Village;;W2.87;N53.43;10;
2;ENG;Lancashire;Stockport;;W2.16;N53.40;10;
2;ENG;Lancashire;Stockton-on-Tees;;W1.33;N54.57;10;
2;ENG;Lancashire;Stodday;;W2.82;N54.01;10;
2;ENG;Lancashire;Stone Head;;W2.09;N53.88;10;
2;ENG;Lancashire;Stonebridge;;W1.69;N52.43;10;
2;ENG;Lancashire;Stoneclough;;W2.37;N53.54;10;
2;ENG;Lancashire;Stoneycroft;;W2.91;N53.41;10;
2;ENG;Lancashire;Stoneyfield;;W2.16;N53.60;10;
2;ENG;Lancashire;Stopper Lane;;W2.29;N53.90;10;
2;ENG;Lancashire;Storeton;;W3.05;N53.34;10;
2;ENG;Lancashire;Stratford-upon-Avon Canal;;W1.83;N52.38;10;
2;ENG;Lancashire;Street;;W2.73;N53.96;10;
2;ENG;Lancashire;Stretford;;W2.31;N53.44;10;
2;ENG;Lancashire;Strines;;W2.04;N53.37;10;
2;ENG;Lancashire;Stubbins;;W2.33;N53.65;10;
2;ENG;Lancashire;Stubbins;;W2.76;N53.87;10;
2;ENG;Lancashire;Stubshaw Cross;;W2.63;N53.49;10;
2;ENG;Lancashire;Stydd;;W2.53;N53.81;10;
2;ENG;Lancashire;Sudden;;W2.18;N53.59;10;
2;ENG;Lancashire;Summerseat;;W2.31;N53.62;10;
2;ENG;Lancashire;Summit;;W2.15;N53.57;10;
2;ENG;Lancashire;Summit;;W2.24;N53.59;10;
2;ENG;Lancashire;Summit;;W2.09;N53.65;10;
2;ENG;Lancashire;Sunderland;;W2.88;N53.98;10;
2;ENG;Lancashire;Sunny Bank;;W2.28;N53.55;10;
2;ENG;Lancashire;Sunny Bower;;W2.45;N53.76;10;
2;ENG;Lancashire;Sunnyhurst;;W2.48;N53.69;10;
2;ENG;Lancashire;Sutton;;W2.70;N53.43;10;
2;ENG;Lancashire;Sutton Heath;;W2.75;N53.43;10;
2;ENG;Lancashire;Sutton Leach;;W2.72;N53.42;10;
2;ENG;Lancashire;Sutton Manor;;W2.73;N53.40;10;
2;ENG;Lancashire;Swanside;;W2.88;N53.41;10;
2;ENG;Lancashire;Swillbrook;;W2.79;N53.80;10;
2;ENG;Lancashire;Syke;;W2.16;N53.63;10;
2;ENG;Lancashire;Sykes;;W2.56;N53.95;10;
2;ENG;Lancashire;Tamer Lane End;;W2.55;N53.50;10;
2;ENG;Lancashire;Tanhouse;;W2.77;N53.53;10;
2;ENG;Lancashire;Tanterton;;W2.74;N53.78;10;
2;ENG;Lancashire;Tarbock Green;;W2.81;N53.37;10;
2;ENG;Lancashire;Tardy Gate;;W2.71;N53.71;10;
2;ENG;Lancashire;Tarleton;;W2.83;N53.67;10;
2;ENG;Lancashire;Tarleton Moss;;W2.86;N53.68;10;
2;ENG;Lancashire;Tarlscough;;W2.86;N53.61;10;
2;ENG;Lancashire;Tarnbrook;;W2.64;N53.98;10;
2;ENG;Lancashire;Tatham;;W2.61;N54.11;10;
2;ENG;Lancashire;Temple Balsall;;W1.70;N52.37;10;
2;ENG;Lancashire;Tewitfield;;W2.73;N54.15;10;
2;ENG;Lancashire;Thatto Heath;;W2.75;N53.43;10;
2;ENG;Lancashire;The Banks;;W2.04;N53.38;10;
2;ENG;Lancashire;The Bell;;W2.69;N53.54;10;
2;ENG;Lancashire;The Row;;W2.81;N54.16;10;
2;ENG;Lancashire;Thingwall;;W3.09;N53.34;10;
2;ENG;Lancashire;Thistleton;;W2.91;N53.82;10;
2;ENG;Lancashire;Thornham Fold;;W2.16;N53.57;10;
2;ENG;Lancashire;Thornton;;W3.00;N53.87;10;
2;ENG;Lancashire;Thornton Hough;;W3.05;N53.32;10;
2;ENG;Lancashire;Thornton-in-Craven;;W2.15;N53.92;10;
2;ENG;Lancashire;Thorpe Green;;W2.62;N53.70;10;
2;ENG;Lancashire;Three Maypoles;;W1.83;N52.39;10;
2;ENG;Lancashire;Three Pools Waterways;;W2.94;N53.68;10;
2;ENG;Lancashire;Thursden Brook;;W2.15;N53.80;10;
2;ENG;Lancashire;Thurstaston;;W3.14;N53.34;10;
2;ENG;Lancashire;Tilehouse Green;;W1.75;N52.38;10;
2;ENG;Lancashire;Timperley;;W2.33;N53.39;10;
2;ENG;Lancashire;Tithe Barn Hillock;;W2.67;N53.48;10;
2;ENG;Lancashire;Tockholes;;W2.51;N53.70;10;
2;ENG;Lancashire;Toll Bar;;W2.76;N53.44;10;
2;ENG;Lancashire;Tonge Fold;;W2.40;N53.57;10;
2;ENG;Lancashire;Tonge Moor;;W2.42;N53.58;10;
2;ENG;Lancashire;Tontine;;W2.72;N53.53;10;
2;ENG;Lancashire;Top Lock;;W2.60;N53.54;10;
2;ENG;Lancashire;Top of Hebers;;W2.21;N53.55;10;
2;ENG;Lancashire;Top o'th' Lane;;W2.62;N53.70;10;
2;ENG;Lancashire;Toppings;;W2.42;N53.61;10;
2;ENG;Lancashire;Torkington;;W2.10;N53.37;10;
2;ENG;Lancashire;Torrisholme;;W2.84;N54.06;10;
2;ENG;Lancashire;Tosside;;W2.36;N53.99;10;
2;ENG;Lancashire;Tottington;;W2.34;N53.60;10;
2;ENG;Lancashire;Tottleworth;;W2.41;N53.77;10;
2;ENG;Lancashire;Tower Hill;;W2.89;N53.49;10;
2;ENG;Lancashire;Town Centre;;W2.78;N53.54;10;
2;ENG;Lancashire;Town End;;W2.76;N53.38;10;
2;ENG;Lancashire;Town Green;;W2.90;N53.53;10;
2;ENG;Lancashire;Town Green;;W2.63;N53.48;10;
2;ENG;Lancashire;Town Lane;;W2.46;N53.48;10;
2;ENG;Lancashire;Town of Lowton;;W2.60;N53.45;10;
2;ENG;Lancashire;Townsend Fold;;W2.30;N53.68;10;
2;ENG;Lancashire;Toxteth;;W2.97;N53.38;10;
2;ENG;Lancashire;Trafford Park;;W2.33;N53.46;10;
2;ENG;Lancashire;Tranmere;;W3.02;N53.37;10;
2;ENG;Lancashire;Trawden;;W2.13;N53.83;10;
2;ENG;Lancashire;Treales;;W2.85;N53.78;10;
2;ENG;Lancashire;Trough Gate;;W2.18;N53.68;10;
2;ENG;Lancashire;Trub;;W2.18;N53.57;10;
2;ENG;Lancashire;Trunnah;;W3.02;N53.87;10;
2;ENG;Lancashire;Tuebrook;;W2.93;N53.42;10;
2;ENG;Lancashire;Tunshill;;W2.09;N53.61;10;
2;ENG;Lancashire;Tunstall;;W2.61;N54.15;10;
2;ENG;Lancashire;Turf Hill;;W2.15;N53.59;10;
2;ENG;Lancashire;Turn;;W2.28;N53.65;10;
2;ENG;Lancashire;Turner Green;;W2.59;N53.76;10;
2;ENG;Lancashire;Turton Bottoms;;W2.40;N53.63;10;
2;ENG;Lancashire;Twiston;;W2.29;N53.88;10;
2;ENG;Lancashire;Tyldesley;;W2.45;N53.50;10;
2;ENG;Lancashire;Ulverley Green;;W1.81;N52.42;10;
2;ENG;Lancashire;Unsworth;;W2.28;N53.55;10;
2;ENG;Lancashire;Up Holland;;W2.74;N53.53;10;
2;ENG;Lancashire;Upper Eastern Green;;W1.60;N52.41;10;
2;ENG;Lancashire;Upper Thurnham;;W2.84;N53.97;10;
2;ENG;Lancashire;Upton;;W2.78;N53.37;10;
2;ENG;Lancashire;Upton;;W3.09;N53.38;10;
2;ENG;Lancashire;Urmston;;W2.39;N53.44;10;
2;ENG;Lancashire;Vauxhall;;W2.99;N53.41;10;
2;ENG;Lancashire;Waddington;;W2.42;N53.88;10;
2;ENG;Lancashire;Wade Hall;;W2.72;N53.68;10;
2;ENG;Lancashire;Walk Mill;;W2.21;N53.76;10;
2;ENG;Lancashire;Walker Fold;;W2.50;N53.86;10;
2;ENG;Lancashire;Wallasey;;W3.05;N53.42;10;
2;ENG;Lancashire;Wallbank;;W2.19;N53.64;10;
2;ENG;Lancashire;Wallsuches;;W2.53;N53.59;10;
2;ENG;Lancashire;Walmer Bridge;;W2.80;N53.71;10;
2;ENG;Lancashire;Walmersley;;W2.30;N53.61;10;
2;ENG;Lancashire;Walsal End;;W1.70;N52.40;10;
2;ENG;Lancashire;Walshaw;;W2.34;N53.59;10;
2;ENG;Lancashire;Walton;;W2.96;N53.43;10;
2;ENG;Lancashire;Walton Summit;;W2.65;N53.72;10;
2;ENG;Lancashire;Walton-le-Dale;;W2.68;N53.73;10;
2;ENG;Lancashire;Warbreck;;W3.03;N53.83;10;
2;ENG;Lancashire;Warburton;;W2.46;N53.39;10;
2;ENG;Lancashire;Ward Green Cross;;W2.56;N53.82;10;
2;ENG;Lancashire;Wardle;;W2.13;N53.64;10;
2;ENG;Lancashire;Warton;;W2.89;N53.74;10;
2;ENG;Lancashire;Warton;;W2.76;N54.14;10;
2;ENG;Lancashire;Warton Bank;;W2.91;N53.73;10;
2;ENG;Lancashire;Water;;W2.24;N53.72;10;
2;ENG;Lancashire;Waterfoot;;W2.25;N53.68;10;
2;ENG;Lancashire;Waterloo;;W2.51;N53.72;10;
2;ENG;Lancashire;Water's Nook;;W2.51;N53.54;10;
2;ENG;Lancashire;Waterside;;W2.44;N53.70;10;
2;ENG;Lancashire;Waterslack;;W2.81;N54.17;10;
2;ENG;Lancashire;Wavertree;;W2.93;N53.39;10;
2;ENG;Lancashire;Weeton;;W2.94;N53.79;10;
2;ENG;Lancashire;Weld Bank;;W2.63;N53.63;10;
2;ENG;Lancashire;Well Green;;W2.33;N53.37;10;
2;ENG;Lancashire;Wenning;;W2.65;N54.10;10;
2;ENG;Lancashire;Wennington;;W2.59;N54.12;10;
2;ENG;Lancashire;Werneth Low;;W2.07;N53.42;10;
2;ENG;Lancashire;Wesham;;W2.88;N53.78;10;
2;ENG;Lancashire;West Bradford;;W2.39;N53.89;10;
2;ENG;Lancashire;West Derby;;W2.91;N53.43;10;
2;ENG;Lancashire;West End;;W2.41;N53.74;10;
2;ENG;Lancashire;West End;;W2.87;N54.06;10;
2;ENG;Lancashire;West Kirkby;;W3.18;N53.36;10;
2;ENG;Lancashire;West Park;;W2.76;N53.44;10;
2;ENG;Lancashire;Westby;;W2.94;N53.77;10;
2;ENG;Lancashire;Westhead;;W2.86;N53.55;10;
2;ENG;Lancashire;Westhoughton;;W2.52;N53.54;10;
2;ENG;Lancashire;Westleigh;;W2.54;N53.50;10;
2;ENG;Lancashire;Westvale;;W2.90;N53.47;10;
2;ENG;Lancashire;Whalley;;W2.41;N53.82;10;
2;ENG;Lancashire;Whalley Banks;;W2.41;N53.81;10;
2;ENG;Lancashire;Whalleys;;W2.78;N53.56;10;
2;ENG;Lancashire;Wharles;;W2.85;N53.80;10;
2;ENG;Lancashire;Wheatley Lane;;W2.25;N53.83;10;
2;ENG;Lancashire;Wheelton;;W2.60;N53.68;10;
2;ENG;Lancashire;Whelley;;W2.62;N53.54;10;
2;ENG;Lancashire;Whin Lane End;;W2.92;N53.86;10;
2;ENG;Lancashire;Whinny Heights;;W2.47;N53.72;10;
2;ENG;Lancashire;Whiston;;W2.79;N53.41;10;
2;ENG;Lancashire;Whiston Cross;;W2.81;N53.41;10;
2;ENG;Lancashire;White Coppice;;W2.59;N53.65;10;
2;ENG;Lancashire;White Lund;;W2.85;N54.05;10;
2;ENG;Lancashire;White Stake;;W2.72;N53.71;10;
2;ENG;Lancashire;Whitebirk;;W2.45;N53.74;10;
2;ENG;Lancashire;Whitechapel;;W2.68;N53.86;10;
2;ENG;Lancashire;Whitefield;;W2.28;N53.55;10;
2;ENG;Lancashire;Whitefield Lane End;;W2.82;N53.39;10;
2;ENG;Lancashire;Whitehall;;W2.47;N53.67;10;
2;ENG;Lancashire;Whiteholme;;W3.03;N53.86;10;
2;ENG;Lancashire;Whitewell;;W2.53;N53.90;10;
2;ENG;Lancashire;Whitewell Bottom;;W2.25;N53.70;10;
2;ENG;Lancashire;Whitley;;W2.63;N53.55;10;
2;ENG;Lancashire;Whitlock's End;;W1.85;N52.38;10;
2;ENG;Lancashire;Whittington;;W2.61;N54.17;10;
2;ENG;Lancashire;Whittle-le-Woods;;W2.63;N53.68;10;
2;ENG;Lancashire;Whittlestone Head;;W2.42;N53.66;10;
2;ENG;Lancashire;Whitworth;;W2.18;N53.65;10;
2;ENG;Lancashire;Wigan;;W2.63;N53.54;10;
2;ENG;Lancashire;Wilderswood;;W2.54;N53.60;10;
2;ENG;Lancashire;Willacy Lane End;;W2.80;N53.80;10;
2;ENG;Lancashire;Willows;;W2.45;N53.56;10;
2;ENG;Lancashire;Wilpshire;;W2.48;N53.78;10;
2;ENG;Lancashire;Windlehurst;;W2.07;N53.37;10;
2;ENG;Lancashire;Windy Arbor;;W2.81;N53.39;10;
2;ENG;Lancashire;Winewall;;W2.13;N53.84;10;
2;ENG;Lancashire;Wingates;;W2.52;N53.55;10;
2;ENG;Lancashire;Winmarleigh Moss;;W2.85;N53.91;10;
2;ENG;Lancashire;Winstanley;;W2.68;N53.52;10;
2;ENG;Lancashire;Winstanleys;;W2.63;N53.57;10;
2;ENG;Lancashire;Wiswell;;W2.39;N53.82;10;
2;ENG;Lancashire;Withnell;;W2.56;N53.69;10;
2;ENG;Lancashire;Withnell Fold;;W2.59;N53.70;10;
2;ENG;Lancashire;Wolstenholme;;W2.22;N53.63;10;
2;ENG;Lancashire;Wood House;;W2.45;N53.97;10;
2;ENG;Lancashire;Wood Road;;W2.31;N53.62;10;
2;ENG;Lancashire;Woodchurch;;W3.08;N53.37;10;
2;ENG;Lancashire;Woodford;;W2.16;N53.33;10;
2;ENG;Lancashire;Woodgate Hill;;W2.27;N53.59;10;
2;ENG;Lancashire;Woodhey;;W2.33;N53.63;10;
2;ENG;Lancashire;Woodhey;;W3.02;N53.35;10;
2;ENG;Lancashire;Woodhouses;;W2.36;N53.40;10;
2;ENG;Lancashire;Woodley;;W2.09;N53.42;10;
2;ENG;Lancashire;Woodnook;;W2.36;N53.73;10;
2;ENG;Lancashire;Woodplumpton;;W2.76;N53.80;10;
2;ENG;Lancashire;Woods End;;W2.39;N53.45;10;
2;ENG;Lancashire;Woods Moor;;W2.15;N53.38;10;
2;ENG;Lancashire;Woodsfold;;W2.80;N53.81;10;
2;ENG;Lancashire;Woolfall Heath;;W2.85;N53.42;10;
2;ENG;Lancashire;Woolfold;;W2.33;N53.59;10;
2;ENG;Lancashire;Woolton;;W2.87;N53.36;10;
2;ENG;Lancashire;Wootton Green;;W1.67;N52.39;10;
2;ENG;Lancashire;Worlds End;;W1.79;N52.41;10;
2;ENG;Lancashire;Worsley Hall;;W2.68;N53.54;10;
2;ENG;Lancashire;Worsley Mesnes;;W2.65;N53.53;10;
2;ENG;Lancashire;Worsthorne;;W2.19;N53.78;10;
2;ENG;Lancashire;Worston;;W2.36;N53.87;10;
2;ENG;Lancashire;Wray;;W2.61;N54.09;10;
2;ENG;Lancashire;Wrayton;;W2.59;N54.14;10;
2;ENG;Lancashire;Wrea Green;;W2.92;N53.77;10;
2;ENG;Lancashire;Wrightington Bar;;W2.71;N53.61;10;
2;ENG;Lancashire;Wycoller;;W2.10;N53.84;10;
2;ENG;Lancashire;Wymott;;W2.75;N53.67;10;
2;ENG;Lancashire;Wyre;;W2.74;N53.85;10;
2;ENG;Lancashire;Yealand Conyers;;W2.76;N54.15;10;
2;ENG;Lancashire;Yealand Redmayne;;W2.76;N54.16;10;
2;ENG;Lancashire;Yealand Storrs;;W2.78;N54.17;10;
2;ENG;Lancashire;York;;W2.45;N53.79;10;