"Level";"Country";"County";"Place";"void";"Longitude";"Latitude";"ZoomLevel";"Icon"
2;England;Surrey;Aaron's Hill;;W0.64;N51.17;10;
2;England;Surrey;Abbey Mead;;W0.50;N51.39;10;
2;England;Surrey;Abbotswood;;W0.56;N51.24;10;
2;England;Surrey;Abinger Common;;W0.41;N51.19;10;
2;England;Surrey;Abinger Hammer;;W0.44;N51.21;10;
2;England;Surrey;Addington;;W0.03;N51.35;10;
2;England;Surrey;Addiscombe;;W0.07;N51.37;10;
2;England;Surrey;Addlestone;;W0.50;N51.36;10;
2;England;Surrey;Addlestonemoor;;W0.50;N51.37;10;
2;England;Surrey;Albury;;W0.49;N51.21;10;
2;England;Surrey;Albury Heath;;W0.48;N51.20;10;
2;England;Surrey;Alfold;;W0.53;N51.09;10;
2;England;Surrey;Alfold Crossways;;W0.51;N51.10;10;
2;England;Surrey;Anerley;;W0.07;N51.40;10;
2;England;Surrey;Ansteadbrook;;W0.67;N51.07;10;
2;England;Surrey;Aperfield;;E0.03;N51.30;10;
2;England;Surrey;Artington;;W0.58;N51.21;10;
2;England;Surrey;Ash;;W0.72;N51.25;10;
2;England;Surrey;Ash Green;;W0.71;N51.23;10;
2;England;Surrey;Ash Vale;;W0.72;N51.26;10;
2;England;Surrey;Ashford;;W0.47;N51.42;10;
2;England;Surrey;Ashford Common;;W0.44;N51.41;10;
2;England;Surrey;Ashley Park;;W0.42;N51.37;10;
2;England;Surrey;Ashtead;;W0.30;N51.30;10;
2;England;Surrey;Badshot Lea;;W0.76;N51.22;10;
2;England;Surrey;Bagshot;;W0.69;N51.35;10;
2;England;Surrey;Bagshot Heath;;W0.69;N51.34;10;
2;England;Surrey;Bandonhill;;W0.14;N51.36;10;
2;England;Surrey;Banstead;;W0.20;N51.31;10;
2;England;Surrey;Barnes;;W0.24;N51.47;10;
2;England;Surrey;Barwell;;W0.32;N51.35;10;
2;England;Surrey;Basingstoke Canal;;W0.71;N51.27;10;
2;England;Surrey;Beacon Hill;;W0.75;N51.11;10;
2;England;Surrey;Beare Green;;W0.32;N51.17;10;
2;England;Surrey;Beddington;;W0.13;N51.36;10;
2;England;Surrey;Beddington Corner;;W0.16;N51.37;10;
2;England;Surrey;Bellfields;;W0.58;N51.24;10;
2;England;Surrey;Belmont;;W0.20;N51.34;10;
2;England;Surrey;Benhilton;;W0.19;N51.37;10;
2;England;Surrey;Berrylands;;W0.29;N51.38;10;
2;England;Surrey;Betchworth;;W0.26;N51.23;10;
2;England;Surrey;Beverley Beck;;W0.24;N51.40;10;
2;England;Surrey;Binscombe;;W0.62;N51.19;10;
2;England;Surrey;Birtley Green;;W0.55;N51.17;10;
2;England;Surrey;Bishopsgate;;W0.59;N51.42;10;
2;England;Surrey;Bisley;;W0.63;N51.32;10;
2;England;Surrey;Bisley Camp;;W0.66;N51.30;10;
2;England;Surrey;Blackbrook;;W0.31;N51.20;10;
2;England;Surrey;Bletchingley;;W0.09;N51.23;10;
2;England;Surrey;Blindley Heath;;W0.05;N51.18;10;
2;England;Surrey;Boundstone;;W0.81;N51.18;10;
2;England;Surrey;Bowlhead Green;;W0.70;N51.13;10;
2;England;Surrey;Box Hill;;W0.29;N51.24;10;
2;England;Surrey;Bramley;;W0.57;N51.18;10;
2;England;Surrey;Brentford;;W0.30;N51.47;10;
2;England;Surrey;Brentford End;;W0.33;N51.48;10;
2;England;Surrey;Brewer Street;;W0.11;N51.24;10;
2;England;Surrey;Brick Hill;;W0.63;N51.36;10;
2;England;Surrey;Bridge End;;W0.46;N51.30;10;
2;England;Surrey;Broad Green;;W0.10;N51.37;10;
2;England;Surrey;Broadford;;W0.58;N51.20;10;
2;England;Surrey;Broadham Green;;W0.02;N51.24;10;
2;England;Surrey;Broadmoor;;W0.38;N51.19;10;
2;England;Surrey;Brockham;;W0.29;N51.22;10;
2;England;Surrey;Brockham Park;;W0.28;N51.20;10;
2;England;Surrey;Brook;;W0.67;N51.12;10;
2;England;Surrey;Brook;;W0.48;N51.20;10;
2;England;Surrey;Brook Place;;W0.63;N51.34;10;
2;England;Surrey;Brooklands;;W0.47;N51.34;10;
2;England;Surrey;Brookwood;;W0.63;N51.30;10;
2;England;Surrey;Broomhall;;W0.63;N51.38;10;
2;England;Surrey;Buckland;;W0.25;N51.23;10;
2;England;Surrey;Bunce Common;;W0.28;N51.20;10;
2;England;Surrey;Burgh Heath;;W0.22;N51.29;10;
2;England;Surrey;Burntcommon;;W0.52;N51.27;10;
2;England;Surrey;Burpham;;W0.55;N51.25;10;
2;England;Surrey;Burrowhill;;W0.60;N51.35;10;
2;England;Surrey;Burrows Cross;;W0.45;N51.20;10;
2;England;Surrey;Burwood Park;;W0.42;N51.36;10;
2;England;Surrey;Busbridge;;W0.61;N51.16;10;
2;England;Surrey;Bushbury;;W0.29;N51.21;10;
2;England;Surrey;Bushy Hill;;W0.53;N51.24;10;
2;England;Surrey;Byfleet;;W0.47;N51.33;10;
2;England;Surrey;Camberley;;W0.73;N51.33;10;
2;England;Surrey;Capel;;W0.32;N51.14;10;
2;England;Surrey;Carshalton;;W0.17;N51.36;10;
2;England;Surrey;Carshalton Beeches;;W0.17;N51.35;10;
2;England;Surrey;Carshalton on the Hill;;W0.16;N51.35;10;
2;England;Surrey;Cartbridge;;W0.55;N51.29;10;
2;England;Surrey;Castle Green;;W0.62;N51.33;10;
2;England;Surrey;Caterham;;W0.09;N51.27;10;
2;England;Surrey;Catteshall;;W0.59;N51.18;10;
2;England;Surrey;Chaldon;;W0.12;N51.27;10;
2;England;Surrey;Charleshill;;W0.72;N51.18;10;
2;England;Surrey;Charlton;;W0.44;N51.40;10;
2;England;Surrey;Charlwood;;W0.22;N51.15;10;
2;England;Surrey;Chattern Hill;;W0.44;N51.42;10;
2;England;Surrey;Cheam;;W0.22;N51.34;10;
2;England;Surrey;Chelsham;;W0.03;N51.31;10;
2;England;Surrey;Chertsey;;W0.50;N51.38;10;
2;England;Surrey;Chertsey Meads;;W0.49;N51.38;10;
2;England;Surrey;Chessington;;W0.30;N51.35;10;
2;England;Surrey;Chiddingfold;;W0.64;N51.10;10;
2;England;Surrey;Chilworth;;W0.54;N51.21;10;
2;England;Surrey;Chipstead;;W0.17;N51.29;10;
2;England;Surrey;Chiswick;;W0.27;N51.48;10;
2;England;Surrey;Chobham;;W0.60;N51.34;10;
2;England;Surrey;Church End;;W0.48;N51.29;10;
2;England;Surrey;Church Town;;W0.06;N51.24;10;
2;England;Surrey;Claremont Park;;W0.37;N51.35;10;
2;England;Surrey;Clark's Green;;W0.32;N51.13;10;
2;England;Surrey;Claygate;;W0.33;N51.35;10;
2;England;Surrey;Clock House;;W0.16;N51.32;10;
2;England;Surrey;Cobham;;W0.40;N51.32;10;
2;England;Surrey;Coldharbour;;W0.37;N51.17;10;
2;England;Surrey;Cole Park;;W0.33;N51.44;10;
2;England;Surrey;Coles Meads;;W0.18;N51.24;10;
2;England;Surrey;Colne;;W0.50;N51.46;10;
2;England;Surrey;Combe Common;;W0.64;N51.10;10;
2;England;Surrey;Compton;;W0.64;N51.20;10;
2;England;Surrey;Compton;;W0.78;N51.20;10;
2;England;Surrey;Coombe;;W0.27;N51.41;10;
2;England;Surrey;Cooper's Hill;;W0.57;N51.43;10;
2;England;Surrey;Cottenham Park;;W0.24;N51.40;10;
2;England;Surrey;Coulsdon;;W0.13;N51.30;10;
2;England;Surrey;Cramhurst;;W0.65;N51.15;10;
2;England;Surrey;Cranleigh;;W0.48;N51.13;10;
2;England;Surrey;Crawley Hill;;W0.73;N51.33;10;
2;England;Surrey;Critchmere;;W0.74;N51.08;10;
2;England;Surrey;Crosswater;;W0.78;N51.14;10;
2;England;Surrey;Crowhurst;;W0.01;N51.20;10;
2;England;Surrey;Crowhurst Lane End;;W0.03;N51.21;10;
2;England;Surrey;Crownpits;;W0.61;N51.17;10;
2;England;Surrey;Croydon;;W0.09;N51.35;10;
2;England;Surrey;Cudworth;;W0.27;N51.15;10;
2;England;Surrey;Culmer;;W0.65;N51.14;10;
2;England;Surrey;Dawesgreen;;W0.26;N51.20;10;
2;England;Surrey;Deepcut;;W0.71;N51.30;10;
2;England;Surrey;Deepdene;;W0.32;N51.22;10;
2;England;Surrey;Dippenhall;;W0.84;N51.20;10;
2;England;Surrey;Dockenfield;;W0.82;N51.15;10;
2;England;Surrey;Domewood;;W0.08;N51.14;10;
2;England;Surrey;Donkey Town;;W0.66;N51.33;10;
2;England;Surrey;Dorking;;W0.33;N51.22;10;
2;England;Surrey;Dormans Park;;W0.01;N51.14;10;
2;England;Surrey;Dormansland;;E0.00;N51.16;10;
2;England;Surrey;Doversgreen;;W0.21;N51.21;10;
2;England;Surrey;Downside;;W0.32;N51.28;10;
2;England;Surrey;Downside;;W0.42;N51.31;10;
2;England;Surrey;Dunsfold Common;;W0.57;N51.10;10;
2;England;Surrey;Dunsfold Green;;W0.57;N51.11;10;
2;England;Surrey;Dunsford;;W0.57;N51.11;10;
2;England;Surrey;Earlswood;;W0.16;N51.22;10;
2;England;Surrey;Eashing;;W0.65;N51.17;10;
2;England;Surrey;East Bedfont;;W0.44;N51.44;10;
2;England;Surrey;East Clandon;;W0.49;N51.24;10;
2;England;Surrey;East Ewell;;W0.23;N51.34;10;
2;England;Surrey;East Horsley;;W0.43;N51.26;10;
2;England;Surrey;East Molesey;;W0.36;N51.39;10;
2;England;Surrey;East Sheen;;W0.27;N51.46;10;
2;England;Surrey;Eden;;E0.03;N51.18;10;
2;England;Surrey;Effingham;;W0.41;N51.26;10;
2;England;Surrey;Egham;;W0.56;N51.42;10;
2;England;Surrey;Egham Hythe;;W0.53;N51.42;10;
2;England;Surrey;Egham Wick;;W0.59;N51.42;10;
2;England;Surrey;Ellen's Green;;W0.44;N51.10;10;
2;England;Surrey;Elm Corner;;W0.46;N51.30;10;
2;England;Surrey;Elmers End;;W0.06;N51.39;10;
2;England;Surrey;Elstead;;W0.71;N51.17;10;
2;England;Surrey;Englefield Green;;W0.57;N51.42;10;
2;England;Surrey;Enton Green;;W0.64;N51.15;10;
2;England;Surrey;Epsom;;W0.27;N51.32;10;
2;England;Surrey;Esher;;W0.36;N51.36;10;
2;England;Surrey;Ewell;;W0.26;N51.34;10;
2;England;Surrey;Ewhurst;;W0.44;N51.14;10;
2;England;Surrey;Ewhurst Green;;W0.44;N51.14;10;
2;England;Surrey;Fairlands;;W0.62;N51.25;10;
2;England;Surrey;Fairmile;;W0.39;N51.33;10;
2;England;Surrey;Farleigh;;W0.03;N51.32;10;
2;England;Surrey;Farleigh Court;;W0.03;N51.32;10;
2;England;Surrey;Farley Green;;W0.48;N51.19;10;
2;England;Surrey;Farncombe;;W0.61;N51.19;10;
2;England;Surrey;Farnham;;W0.79;N51.20;10;
2;England;Surrey;Felcourt;;W0.02;N51.15;10;
2;England;Surrey;Feltham;;W0.41;N51.44;10;
2;England;Surrey;Felthamhill;;W0.43;N51.42;10;
2;England;Surrey;Fetcham;;W0.36;N51.28;10;
2;England;Surrey;Fickleshole;;W0.02;N51.32;10;
2;England;Surrey;Field Common;;W0.39;N51.38;10;
2;England;Surrey;Flexford;;W0.68;N51.24;10;
2;England;Surrey;Forest Green;;W0.39;N51.15;10;
2;England;Surrey;Forestdale;;W0.04;N51.34;10;
2;England;Surrey;Fox Corner;;W0.62;N51.27;10;
2;England;Surrey;Fredley;;W0.33;N51.25;10;
2;England;Surrey;Frensham;;W0.79;N51.16;10;
2;England;Surrey;Friday Street;;W0.39;N51.19;10;
2;England;Surrey;Frimley;;W0.73;N51.31;10;
2;England;Surrey;Frimley Green;;W0.73;N51.29;10;
2;England;Surrey;Frimley Ridge;;W0.72;N51.32;10;
2;England;Surrey;Frith Hill;;W0.61;N51.18;10;
2;England;Surrey;Gadbrook;;W0.28;N51.20;10;
2;England;Surrey;Gatton;;W0.18;N51.26;10;
2;England;Surrey;Giggshill;;W0.33;N51.38;10;
2;England;Surrey;Givons Grove;;W0.32;N51.27;10;
2;England;Surrey;Godalming;;W0.62;N51.17;10;
2;England;Surrey;Godstone;;W0.06;N51.24;10;
2;England;Surrey;Gomshall;;W0.45;N51.21;10;
2;England;Surrey;Grafham;;W0.54;N51.15;10;
2;England;Surrey;Grayswood;;W0.70;N51.09;10;
2;England;Surrey;Great Bookham;;W0.38;N51.27;10;
2;England;Surrey;Green Cross;;W0.77;N51.13;10;
2;England;Surrey;Grove Park;;W0.27;N51.47;10;
2;England;Surrey;Guildford;;W0.58;N51.23;10;
2;England;Surrey;Guildford Park;;W0.59;N51.23;10;
2;England;Surrey;Gunnersbury;;W0.28;N51.48;10;
2;England;Surrey;Hackbridge;;W0.16;N51.36;10;
2;England;Surrey;Hale;;W0.79;N51.22;10;
2;England;Surrey;Ham;;W0.31;N51.43;10;
2;England;Surrey;Ham Moor;;W0.47;N51.36;10;
2;England;Surrey;Hambledon;;W0.62;N51.13;10;
2;England;Surrey;Hampton;;W0.37;N51.41;10;
2;England;Surrey;Hampton Hill;;W0.36;N51.42;10;
2;England;Surrey;Hampton Wick;;W0.31;N51.40;10;
2;England;Surrey;Hamsey Green;;W0.06;N51.31;10;
2;England;Surrey;Hanworth;;W0.39;N51.42;10;
2;England;Surrey;Hascombe;;W0.57;N51.14;10;
2;England;Surrey;Hatton Hill;;W0.66;N51.36;10;
2;England;Surrey;Hawk's Hill;;W0.35;N51.28;10;
2;England;Surrey;Haxted;;E0.03;N51.18;10;
2;England;Surrey;Headley;;W0.28;N51.27;10;
2;England;Surrey;Heath End;;W0.79;N51.23;10;
2;England;Surrey;Heatherside;;W0.70;N51.32;10;
2;England;Surrey;Hersham;;W0.40;N51.36;10;
2;England;Surrey;Heston;;W0.38;N51.48;10;
2;England;Surrey;High Curley;;W0.69;N51.34;10;
2;England;Surrey;Highstreet Green;;W0.60;N51.10;10;
2;England;Surrey;Hinchley Wood;;W0.34;N51.37;10;
2;England;Surrey;Hindhead;;W0.74;N51.11;10;
2;England;Surrey;Hoe;;W0.44;N51.19;10;
2;England;Surrey;Hog Hatch;;W0.81;N51.22;10;
2;England;Surrey;Holland;;E0.00;N51.23;10;
2;England;Surrey;Holloway Hill;;W0.61;N51.16;10;
2;England;Surrey;Holmbury St Mary;;W0.41;N51.18;10;
2;England;Surrey;Holmethorpe;;W0.16;N51.24;10;
2;England;Surrey;Holmwood Corner;;W0.32;N51.18;10;
2;England;Surrey;Hook;;W0.30;N51.36;10;
2;England;Surrey;Hook Heath;;W0.59;N51.30;10;
2;England;Surrey;Hookwood;;W0.19;N51.16;10;
2;England;Surrey;Hooley;;W0.16;N51.28;10;
2;England;Surrey;Horley;;W0.17;N51.17;10;
2;England;Surrey;Horne;;W0.09;N51.17;10;
2;England;Surrey;Horsell;;W0.58;N51.32;10;
2;England;Surrey;Horsell Birch;;W0.59;N51.32;10;
2;England;Surrey;Hounslow West;;W0.38;N51.47;10;
2;England;Surrey;Hurst Green;;W0.01;N51.24;10;
2;England;Surrey;Hurst Park;;W0.37;N51.39;10;
2;England;Surrey;Hurtmore;;W0.64;N51.19;10;
2;England;Surrey;Hydestile;;W0.62;N51.15;10;
2;England;Surrey;Hythe;;W0.53;N51.42;10;
2;England;Surrey;Hythe End;;W0.54;N51.43;10;
2;England;Surrey;Irons Bottom;;W0.21;N51.19;10;
2;England;Surrey;Isleworth;;W0.34;N51.46;10;
2;England;Surrey;Jacobs Well;;W0.58;N51.25;10;
2;England;Surrey;Kenley;;W0.10;N51.31;10;
2;England;Surrey;Kew;;W0.28;N51.47;10;
2;England;Surrey;Kingfield;;W0.56;N51.30;10;
2;England;Surrey;Kingston upon Thames;;W0.30;N51.41;10;
2;England;Surrey;Kingston Vale;;W0.26;N51.42;10;
2;England;Surrey;Kingswood;;W0.22;N51.28;10;
2;England;Surrey;Knaphill;;W0.62;N51.31;10;
2;England;Surrey;Knowle Green;;W0.50;N51.41;10;
2;England;Surrey;Knowle Hill;;W0.59;N51.38;10;
2;England;Surrey;Laker's Green;;W0.53;N51.10;10;
2;England;Surrey;Laleham;;W0.49;N51.40;10;
2;England;Surrey;Lampton;;W0.37;N51.47;10;
2;England;Surrey;Lane End;;W0.79;N51.16;10;
2;England;Surrey;Langley Vale;;W0.26;N51.29;10;
2;England;Surrey;Leatherhead;;W0.33;N51.29;10;
2;England;Surrey;Leatherhead Common;;W0.33;N51.30;10;
2;England;Surrey;Leigh;;W0.25;N51.20;10;
2;England;Surrey;Lightwater;;W0.68;N51.34;10;
2;England;Surrey;Limpsfield;;W0.01;N51.25;10;
2;England;Surrey;Limpsfield Chart;;E0.03;N51.24;10;
2;England;Surrey;Limpsfield Common;;E0.01;N51.24;10;
2;England;Surrey;Lingfield;;W0.02;N51.16;10;
2;England;Surrey;Lingfield Common;;W0.02;N51.17;10;
2;England;Surrey;Little Bookham;;W0.39;N51.27;10;
2;England;Surrey;Little Heath;;W0.37;N51.32;10;
2;England;Surrey;Little Woodcote;;W0.16;N51.33;10;
2;England;Surrey;Littlefield Common;;W0.63;N51.25;10;
2;England;Surrey;Littleton;;W0.59;N51.21;10;
2;England;Surrey;Littleton;;W0.46;N51.40;10;
2;England;Surrey;Littleton Common;;W0.44;N51.41;10;
2;England;Surrey;Logmore Green;;W0.36;N51.21;10;
2;England;Surrey;Long Ditton;;W0.33;N51.38;10;
2;England;Surrey;Longcross;;W0.59;N51.37;10;
2;England;Surrey;Lordshill Common;;W0.54;N51.17;10;
2;England;Surrey;Lower Ashtead;;W0.32;N51.30;10;
2;England;Surrey;Lower Bourne;;W0.79;N51.18;10;
2;England;Surrey;Lower Feltham;;W0.43;N51.42;10;
2;England;Surrey;Lower Green;;W0.37;N51.38;10;
2;England;Surrey;Lower Halliford;;W0.44;N51.39;10;
2;England;Surrey;Lower Kingswood;;W0.22;N51.26;10;
2;England;Surrey;Loxhill;;W0.57;N51.13;10;
2;England;Surrey;Lucas Green;;W0.65;N51.32;10;
2;England;Surrey;Malden Rushett;;W0.32;N51.33;10;
2;England;Surrey;Margery;;W0.21;N51.25;10;
2;England;Surrey;Martyr's Green;;W0.43;N51.30;10;
2;England;Surrey;Maybury;;W0.55;N51.31;10;
2;England;Surrey;Mayes Green;;W0.40;N51.13;10;
2;England;Surrey;Mayford;;W0.58;N51.29;10;
2;England;Surrey;May's Green;;W0.43;N51.30;10;
2;England;Surrey;Mead Vale;;W0.19;N51.22;10;
2;England;Surrey;Meath Green;;W0.18;N51.18;10;
2;England;Surrey;Merle Common;;W0.00;N51.22;10;
2;England;Surrey;Merrow;;W0.55;N51.24;10;
2;England;Surrey;Merstham;;W0.15;N51.26;10;
2;England;Surrey;Mickleham;;W0.32;N51.26;10;
2;England;Surrey;Mid Holmwood;;W0.34;N51.20;10;
2;England;Surrey;Middle Bourne;;W0.79;N51.18;10;
2;England;Surrey;Miles Green;;W0.63;N51.31;10;
2;England;Surrey;Milford;;W0.65;N51.16;10;
2;England;Surrey;Millbridge;;W0.79;N51.17;10;
2;England;Surrey;Mimbridge;;W0.59;N51.33;10;
2;England;Surrey;Mogador;;W0.23;N51.25;10;
2;England;Surrey;Mole;;W0.36;N51.30;10;
2;England;Surrey;Monks Orchard;;W0.06;N51.38;10;
2;England;Surrey;Moor Park;;W0.77;N51.20;10;
2;England;Surrey;Moorhouse Bank;;E0.03;N51.25;10;
2;England;Surrey;Morden Park;;W0.23;N51.37;10;
2;England;Surrey;Mortlake;;W0.27;N51.46;10;
2;England;Surrey;Motspur Park;;W0.26;N51.38;10;
2;England;Surrey;Mount Hermon;;W0.56;N51.30;10;
2;England;Surrey;Mousehill;;W0.65;N51.16;10;
2;England;Surrey;Mugswell;;W0.19;N51.27;10;
2;England;Surrey;Mytchett Place;;W0.72;N51.27;10;
2;England;Surrey;Nalderswood;;W0.24;N51.19;10;
2;England;Surrey;New Addington;;W0.01;N51.34;10;
2;England;Surrey;New Haw;;W0.49;N51.35;10;
2;England;Surrey;New Malden;;W0.26;N51.39;10;
2;England;Surrey;Newchapel;;W0.05;N51.16;10;
2;England;Surrey;Newdigate;;W0.29;N51.16;10;
2;England;Surrey;Newlands Corner;;W0.51;N51.23;10;
2;England;Surrey;Norbiton;;W0.29;N51.40;10;
2;England;Surrey;Norbury;;W0.11;N51.40;10;
2;England;Surrey;Nork;;W0.23;N51.31;10;
2;England;Surrey;Nork;;W0.22;N51.32;10;
2;England;Surrey;Norley Common;;W0.54;N51.18;10;
2;England;Surrey;Normandy;;W0.68;N51.25;10;
2;England;Surrey;Norney;;W0.65;N51.18;10;
2;England;Surrey;North Cheam;;W0.21;N51.37;10;
2;England;Surrey;North Feltham;;W0.41;N51.45;10;
2;England;Surrey;North Holmwood;;W0.34;N51.21;10;
2;England;Surrey;North Hyde;;W0.38;N51.49;10;
2;England;Surrey;North Looe;;W0.25;N51.32;10;
2;England;Surrey;North Sheen;;W0.28;N51.47;10;
2;England;Surrey;Norwood Green;;W0.37;N51.48;10;
2;England;Surrey;Norwood Hill;;W0.22;N51.17;10;
2;England;Surrey;Norwood New Town;;W0.10;N51.41;10;
2;England;Surrey;Nutcombe;;W0.74;N51.09;10;
2;England;Surrey;Nutfield;;W0.13;N51.23;10;
2;England;Surrey;Oakwoodhill;;W0.38;N51.12;10;
2;England;Surrey;Oatlands Park;;W0.43;N51.36;10;
2;England;Surrey;Ockford Ridge;;W0.64;N51.16;10;
2;England;Surrey;Ockham;;W0.46;N51.29;10;
2;England;Surrey;Ockley;;W0.37;N51.14;10;
2;England;Surrey;Old Coulsdon;;W0.12;N51.29;10;
2;England;Surrey;Old Malden;;W0.26;N51.38;10;
2;England;Surrey;Old Woking;;W0.55;N51.30;10;
2;England;Surrey;Onslow Village;;W0.61;N51.23;10;
2;England;Surrey;Osterley;;W0.35;N51.48;10;
2;England;Surrey;Ottershaw;;W0.53;N51.35;10;
2;England;Surrey;Outwood;;W0.11;N51.18;10;
2;England;Surrey;Oxshott;;W0.36;N51.32;10;
2;England;Surrey;Oxted;;W0.02;N51.25;10;
2;England;Surrey;Pachesham Park;;W0.33;N51.31;10;
2;England;Surrey;Pains Hill;;E0.01;N51.24;10;
2;England;Surrey;Palmers Cross;;W0.54;N51.15;10;
2;England;Surrey;Park Barn;;W0.61;N51.24;10;
2;England;Surrey;Parkgate;;W0.28;N51.17;10;
2;England;Surrey;Paynes Green;;W0.37;N51.12;10;
2;England;Surrey;Peartree Green;;W0.58;N51.12;10;
2;England;Surrey;Peaslake;;W0.45;N51.18;10;
2;England;Surrey;Peasmarsh;;W0.58;N51.20;10;
2;England;Surrey;Penge;;W0.07;N51.41;10;
2;England;Surrey;Peper Harow;;W0.67;N51.18;10;
2;England;Surrey;Petersham;;W0.31;N51.44;10;
2;England;Surrey;Pirbright;;W0.65;N51.28;10;
2;England;Surrey;Pirbright Camp;;W0.68;N51.29;10;
2;England;Surrey;Pitch Place;;W0.72;N51.14;10;
2;England;Surrey;Pitch Place;;W0.61;N51.25;10;
2;England;Surrey;Pixham;;W0.32;N51.23;10;
2;England;Surrey;Polesden Lacey;;W0.38;N51.25;10;
2;England;Surrey;Pot Common;;W0.71;N51.17;10;
2;England;Surrey;Povey Cross;;W0.19;N51.16;10;
2;England;Surrey;Prey Heath;;W0.58;N51.28;10;
2;England;Surrey;Purley;;W0.12;N51.33;10;
2;England;Surrey;Puttenham;;W0.66;N51.21;10;
2;England;Surrey;Pyle Hill;;W0.58;N51.28;10;
2;England;Surrey;Pyrford;;W0.52;N51.32;10;
2;England;Surrey;Pyrford Green;;W0.50;N51.31;10;
2;England;Surrey;Pyrford Village;;W0.50;N51.31;10;
2;England;Surrey;Ramsnest Common;;W0.65;N51.08;10;
2;England;Surrey;Ranmore Common;;W0.36;N51.23;10;
2;England;Surrey;Redbridge;;E0.04;N51.57;10;
2;England;Surrey;Redhill;;W0.18;N51.23;10;
2;England;Surrey;Reigate;;W0.19;N51.22;10;
2;England;Surrey;Reigate Heath;;W0.23;N51.23;10;
2;England;Surrey;Richmond;;W0.30;N51.45;10;
2;England;Surrey;Ridge Green;;W0.13;N51.21;10;
2;England;Surrey;Ridgway;;W0.50;N51.32;10;
2;England;Surrey;Ripley;;W0.49;N51.29;10;
2;England;Surrey;Rose Hill;;W0.33;N51.22;10;
2;England;Surrey;Rosehill;;W0.19;N51.37;10;
2;England;Surrey;Roundshaw;;W0.13;N51.35;10;
2;England;Surrey;Row Town;;W0.50;N51.35;10;
2;England;Surrey;Rowhill;;W0.52;N51.35;10;
2;England;Surrey;Rowly;;W0.51;N51.15;10;
2;England;Surrey;Runfold;;W0.75;N51.21;10;
2;England;Surrey;Rushmoor;;W0.75;N51.15;10;
2;England;Surrey;Russ Hill;;W0.24;N51.14;10;
2;England;Surrey;Russell Hill;;W0.13;N51.33;10;
2;England;Surrey;Rydens;;W0.40;N51.37;10;
2;England;Surrey;Rydeshill;;W0.61;N51.25;10;
2;England;Surrey;Salfords;;W0.16;N51.19;10;
2;England;Surrey;Sanderstead;;W0.09;N51.33;10;
2;England;Surrey;Sandhills;;W0.67;N51.12;10;
2;England;Surrey;Sandy Cross;;W0.74;N51.21;10;
2;England;Surrey;Scotswood;;W0.65;N51.38;10;
2;England;Surrey;Seale;;W0.72;N51.21;10;
2;England;Surrey;Seething Wells;;W0.31;N51.39;10;
2;England;Surrey;Selhurst;;W0.10;N51.38;10;
2;England;Surrey;Selsdon;;W0.06;N51.34;10;
2;England;Surrey;Send;;W0.53;N51.28;10;
2;England;Surrey;Send Grove;;W0.55;N51.27;10;
2;England;Surrey;Send Marsh;;W0.52;N51.28;10;
2;England;Surrey;Shacklford;;W0.67;N51.19;10;
2;England;Surrey;Shalford;;W0.56;N51.20;10;
2;England;Surrey;Shamley Green;;W0.54;N51.17;10;
2;England;Surrey;Sheerwater;;W0.53;N51.33;10;
2;England;Surrey;Sheets Heath;;W0.65;N51.30;10;
2;England;Surrey;Shellwood Cross;;W0.26;N51.19;10;
2;England;Surrey;Shepherd's Hill;;W0.71;N51.08;10;
2;England;Surrey;Shepperton;;W0.46;N51.39;10;
2;England;Surrey;Shepperton Green;;W0.46;N51.39;10;
2;England;Surrey;Shere;;W0.46;N51.21;10;
2;England;Surrey;Shirley;;W0.06;N51.37;10;
2;England;Surrey;Shortfield Common;;W0.79;N51.17;10;
2;England;Surrey;Shortheath;;W0.81;N51.18;10;
2;England;Surrey;Sidlow;;W0.21;N51.19;10;
2;England;Surrey;Slyfield;;W0.58;N51.25;10;
2;England;Surrey;Smallfield;;W0.12;N51.17;10;
2;England;Surrey;South Acton;;W0.28;N51.49;10;
2;England;Surrey;South Beddington;;W0.14;N51.35;10;
2;England;Surrey;South Croydon;;W0.10;N51.35;10;
2;England;Surrey;South Earlswood;;W0.18;N51.20;10;
2;England;Surrey;South Godstone;;W0.05;N51.21;10;
2;England;Surrey;South Holmwood;;W0.32;N51.19;10;
2;England;Surrey;South Merstham;;W0.15;N51.25;10;
2;England;Surrey;South Norwood;;W0.08;N51.39;10;
2;England;Surrey;South Nutfield;;W0.13;N51.22;10;
2;England;Surrey;South Park;;W0.22;N51.21;10;
2;England;Surrey;Southborough;;W0.30;N51.38;10;
2;England;Surrey;Spreakley;;W0.79;N51.16;10;
2;England;Surrey;Spring Grove;;W0.34;N51.47;10;
2;England;Surrey;Spring Park;;W0.04;N51.36;10;
2;England;Surrey;St George's Hill;;W0.46;N51.34;10;
2;England;Surrey;St Helier;;W0.17;N51.37;10;
2;England;Surrey;St Johns;;W0.59;N51.30;10;
2;England;Surrey;St Margarets;;W0.31;N51.45;10;
2;England;Surrey;Staines;;W0.50;N51.42;10;
2;England;Surrey;Stanners Hill;;W0.57;N51.35;10;
2;England;Surrey;Stanwell;;W0.49;N51.44;10;
2;England;Surrey;Stanwell Moor;;W0.50;N51.45;10;
2;England;Surrey;Stoke D' Abernon;;W0.39;N51.31;10;
2;England;Surrey;Stonebridge;;W0.32;N51.21;10;
2;England;Surrey;Stonehill;;W0.56;N51.35;10;
2;England;Surrey;Stoneleigh;;W0.24;N51.36;10;
2;England;Surrey;Stoughton;;W0.59;N51.24;10;
2;England;Surrey;Strawberry Hill;;W0.34;N51.43;10;
2;England;Surrey;Strood Green;;W0.28;N51.21;10;
2;England;Surrey;Stroud;;W0.68;N51.10;10;
2;England;Surrey;Stroude;;W0.56;N51.40;10;
2;England;Surrey;Sunbury;;W0.41;N51.40;10;
2;England;Surrey;Sunbury Common;;W0.43;N51.41;10;
2;England;Surrey;Surbiton;;W0.31;N51.39;10;
2;England;Surrey;Sutton Abinger;;W0.42;N51.19;10;
2;England;Surrey;Sutton Green;;W0.56;N51.27;10;
2;England;Surrey;Tadworth;;W0.25;N51.29;10;
2;England;Surrey;Tandridge;;W0.03;N51.23;10;
2;England;Surrey;Tatsfield;;E0.02;N51.29;10;
2;England;Surrey;Teddington;;W0.33;N51.41;10;
2;England;Surrey;Thames;;W0.30;N51.47;10;
2;England;Surrey;Thames;;W0.50;N51.41;10;
2;England;Surrey;Thames Ditton;;W0.34;N51.39;10;
2;England;Surrey;The Bourne;;W0.79;N51.18;10;
2;England;Surrey;The Downs;;W0.64;N51.10;10;
2;England;Surrey;The Sands;;W0.74;N51.20;10;
2;England;Surrey;The Wells;;W0.29;N51.32;10;
2;England;Surrey;The Wrythe;;W0.17;N51.37;10;
2;England;Surrey;Thorncombe Street;;W0.58;N51.16;10;
2;England;Surrey;Thornton Heath;;W0.11;N51.39;10;
2;England;Surrey;Thorpe;;W0.54;N51.40;10;
2;England;Surrey;Thorpe Green;;W0.54;N51.40;10;
2;England;Surrey;Thorpe Lea;;W0.53;N51.42;10;
2;England;Surrey;Thursley;;W0.71;N51.14;10;
2;England;Surrey;Tilford;;W0.75;N51.17;10;
2;England;Surrey;Tilford Common;;W0.75;N51.17;10;
2;England;Surrey;Tilford Reeds;;W0.77;N51.17;10;
2;England;Surrey;Tilling Bourne;;W0.43;N51.21;10;
2;England;Surrey;Titsey;;E0.01;N51.26;10;
2;England;Surrey;Tolworth;;W0.29;N51.37;10;
2;England;Surrey;Tower Hill;;W0.34;N51.21;10;
2;England;Surrey;Troy Town;;E0.03;N51.20;10;
2;England;Surrey;Trumps Green;;W0.57;N51.39;10;
2;England;Surrey;Tuesley;;W0.62;N51.16;10;
2;England;Surrey;Twickenham;;W0.34;N51.44;10;
2;England;Surrey;Tyler's Green;;W0.06;N51.25;10;
2;England;Surrey;Tyrell's Wood;;W0.30;N51.28;10;
2;England;Surrey;Upper Eashing;;W0.64;N51.17;10;
2;England;Surrey;Upper Elmers End;;W0.04;N51.38;10;
2;England;Surrey;Upper Hale;;W0.79;N51.23;10;
2;England;Surrey;Upper Halliford;;W0.43;N51.40;10;
2;England;Surrey;Upper Ifold;;W0.57;N51.08;10;
2;England;Surrey;Upper Norwood;;W0.08;N51.40;10;
2;England;Surrey;Upper Shirley;;W0.06;N51.35;10;
2;England;Surrey;Virginia Water;;W0.57;N51.39;10;
2;England;Surrey;Waddon;;W0.11;N51.36;10;
2;England;Surrey;Wallington;;W0.14;N51.36;10;
2;England;Surrey;Walliswood;;W0.41;N51.13;10;
2;England;Surrey;Walton on the Hill;;W0.25;N51.27;10;
2;England;Surrey;Walton-on-Thames;;W0.42;N51.38;10;
2;England;Surrey;Wanborough;;W0.66;N51.22;10;
2;England;Surrey;Wandle Park;;W0.11;N51.36;10;
2;England;Surrey;Warlingham;;W0.06;N51.30;10;
2;England;Surrey;Warwick Wold;;W0.12;N51.25;10;
2;England;Surrey;Wasp Green;;W0.11;N51.18;10;
2;England;Surrey;Waterside;;W0.01;N51.18;10;
2;England;Surrey;Weatherhill;;W0.12;N51.17;10;
2;England;Surrey;West Barnes;;W0.24;N51.38;10;
2;England;Surrey;West Bedfont;;W0.46;N51.44;10;
2;England;Surrey;West Byfleet;;W0.50;N51.32;10;
2;England;Surrey;West Clandon;;W0.51;N51.25;10;
2;England;Surrey;West End;;W0.65;N51.33;10;
2;England;Surrey;West End;;W0.39;N51.35;10;
2;England;Surrey;West Ewell;;W0.27;N51.35;10;
2;England;Surrey;West Horsley;;W0.46;N51.25;10;
2;England;Surrey;West Molesey;;W0.37;N51.39;10;
2;England;Surrey;Westbrook;;W0.62;N51.17;10;
2;England;Surrey;Westcott;;W0.36;N51.22;10;
2;England;Surrey;Westfield;;W0.56;N51.29;10;
2;England;Surrey;Westhumble;;W0.33;N51.24;10;
2;England;Surrey;Weston Green;;W0.34;N51.38;10;
2;England;Surrey;Wey;;W0.56;N51.25;10;
2;England;Surrey;Wey Navigation;;W0.54;N51.27;10;
2;England;Surrey;Weybourne;;W0.78;N51.23;10;
2;England;Surrey;Weybridge;;W0.44;N51.36;10;
2;England;Surrey;Wheelerstreet;;W0.65;N51.15;10;
2;England;Surrey;Whitebushes;;W0.16;N51.20;10;
2;England;Surrey;Whiteley Village;;W0.43;N51.34;10;
2;England;Surrey;Whitfield Court;;W0.62;N51.32;10;
2;England;Surrey;Whitton;;W0.36;N51.44;10;
2;England;Surrey;Whyteleafe;;W0.09;N51.30;10;
2;England;Surrey;Willey Green;;W0.66;N51.25;10;
2;England;Surrey;Windlesham;;W0.66;N51.35;10;
2;England;Surrey;Wisley;;W0.48;N51.32;10;
2;England;Surrey;Witley;;W0.65;N51.14;10;
2;England;Surrey;Woking;;W0.56;N51.31;10;
2;England;Surrey;Woldingham;;W0.03;N51.28;10;
2;England;Surrey;Woldingham Garden Village;;W0.05;N51.28;10;
2;England;Surrey;Wonersh;;W0.55;N51.19;10;
2;England;Surrey;Wood Street Village;;W0.64;N51.24;10;
2;England;Surrey;Woodbridge Hill;;W0.59;N51.24;10;
2;England;Surrey;Woodcote;;W0.13;N51.33;10;
2;England;Surrey;Woodcote;;W0.27;N51.31;10;
2;England;Surrey;Woodcote Green;;W0.14;N51.34;10;
2;England;Surrey;Woodham;;W0.50;N51.34;10;
2;England;Surrey;Woodhatch;;W0.21;N51.21;10;
2;England;Surrey;Woodlands;;W0.34;N51.46;10;
2;England;Surrey;Woodmansterne;;W0.17;N51.31;10;
2;England;Surrey;Woodside;;W0.07;N51.38;10;
2;England;Surrey;Worcester Park;;W0.24;N51.37;10;
2;England;Surrey;Wormley;;W0.65;N51.13;10;
2;England;Surrey;Worplesdon;;W0.61;N51.26;10;
2;England;Surrey;Wotton;;W0.39;N51.21;10;
2;England;Surrey;Wray Common;;W0.19;N51.23;10;
2;England;Surrey;Wrecclesham;;W0.82;N51.18;10;
2;England;Surrey;Wyke;;W0.68;N51.25;10;