"Level";"Country";"County";"Place";"void";"Longitude";"Latitude";"ZoomLevel";"Icon"
2;ENG;Staffordshire;Abbey Green;;W2.04;N53.11;10;
2;ENG;Staffordshire;Abbey Hulton;;W2.13;N53.02;10;
2;ENG;Staffordshire;Abbots Bromley;;W1.88;N52.81;10;
2;ENG;Staffordshire;Acres Nook;;W2.24;N53.07;10;
2;ENG;Staffordshire;Acton;;W2.26;N52.96;10;
2;ENG;Staffordshire;Acton Trussell;;W2.10;N52.75;10;
2;ENG;Staffordshire;Adbaston;;W2.35;N52.84;10;
2;ENG;Staffordshire;Adderley Green;;W2.13;N52.99;10;
2;ENG;Staffordshire;Admaston;;W1.92;N52.80;10;
2;ENG;Staffordshire;Aislaby;;W1.38;N54.50;10;
2;ENG;Staffordshire;Alder Forest;;W2.37;N53.48;10;
2;ENG;Staffordshire;Alder Moor;;W1.67;N52.84;10;
2;ENG;Staffordshire;Aldershawe;;W1.85;N52.66;10;
2;ENG;Staffordshire;Allgreave;;W2.04;N53.19;10;
2;ENG;Staffordshire;Allimore Green;;W2.22;N52.76;10;
2;ENG;Staffordshire;Almington;;W2.44;N52.90;10;
2;ENG;Staffordshire;Alrewas;;W1.76;N52.72;10;
2;ENG;Staffordshire;Alsagers Bank;;W2.29;N53.02;10;
2;ENG;Staffordshire;Alstonefield;;W1.80;N53.09;10;
2;ENG;Staffordshire;Alt Hill;;W2.09;N53.51;10;
2;ENG;Staffordshire;Alton;;W1.89;N52.97;10;
2;ENG;Staffordshire;Alvecote;;W1.64;N52.63;10;
2;ENG;Staffordshire;Amerton;;W2.01;N52.84;10;
2;ENG;Staffordshire;Amington;;W1.66;N52.63;10;
2;ENG;Staffordshire;Anslow;;W1.68;N52.82;10;
2;ENG;Staffordshire;Anslow Gate;;W1.71;N52.81;10;
2;ENG;Staffordshire;Apedale;;W2.28;N53.03;10;
2;ENG;Staffordshire;Apeton;;W2.22;N52.75;10;
2;ENG;Staffordshire;Armitage;;W1.89;N52.74;10;
2;ENG;Staffordshire;Armsdale;;W2.35;N52.88;10;
2;ENG;Staffordshire;Armshead;;W2.10;N53.02;10;
2;ENG;Staffordshire;Ash Bank;;W2.10;N53.01;10;
2;ENG;Staffordshire;Ashley;;W2.35;N52.92;10;
2;ENG;Staffordshire;Ashley Dale;;W2.37;N52.92;10;
2;ENG;Staffordshire;Ashley Heath;;W2.38;N52.91;10;
2;ENG;Staffordshire;Ashton Canal;;W2.15;N53.47;10;
2;ENG;Staffordshire;Ashton-Under-Lyne;;W2.09;N53.48;10;
2;ENG;Staffordshire;Ashwood;;W2.20;N52.49;10;
2;ENG;Staffordshire;Aspley;;W2.28;N52.89;10;
2;ENG;Staffordshire;Aston;;W2.16;N52.80;10;
2;ENG;Staffordshire;Aston;;W1.76;N52.87;10;
2;ENG;Staffordshire;Aston;;W2.37;N52.96;10;
2;ENG;Staffordshire;Aston-By-Stone;;W2.13;N52.87;10;
2;ENG;Staffordshire;Audenshaw;;W2.12;N53.47;10;
2;ENG;Staffordshire;Audenshaw Reservoir;;W2.13;N53.46;10;
2;ENG;Staffordshire;Audley;;W2.31;N53.04;10;
2;ENG;Staffordshire;Back Brook;;W2.31;N52.73;10;
2;ENG;Staffordshire;Back o'th' Brook;;W1.88;N53.05;10;
2;ENG;Staffordshire;Backbower;;W2.07;N53.43;10;
2;ENG;Staffordshire;Baddeley Edge;;W2.13;N53.04;10;
2;ENG;Staffordshire;Baddeley Green;;W2.15;N53.05;10;
2;ENG;Staffordshire;Bagnall;;W2.12;N53.04;10;
2;ENG;Staffordshire;Balance Hill;;W1.88;N52.88;10;
2;ENG;Staffordshire;Baldwin's Gate;;W2.31;N52.94;10;
2;ENG;Staffordshire;Ball Green;;W2.16;N53.06;10;
2;ENG;Staffordshire;Ball Haye Green;;W2.03;N53.11;10;
2;ENG;Staffordshire;Balterley;;W2.35;N53.04;10;
2;ENG;Staffordshire;Balterley Green;;W2.35;N53.04;10;
2;ENG;Staffordshire;Bank Top;;W2.19;N53.05;10;
2;ENG;Staffordshire;Bar Hill;;W2.35;N52.98;10;
2;ENG;Staffordshire;Bardsley;;W2.10;N53.50;10;
2;ENG;Staffordshire;Barlaston;;W2.16;N52.93;10;
2;ENG;Staffordshire;Barnfields;;W2.04;N53.09;10;
2;ENG;Staffordshire;Barton Gate;;W1.74;N52.76;10;
2;ENG;Staffordshire;Barton Green;;W1.73;N52.75;10;
2;ENG;Staffordshire;Barton Turn;;W1.70;N52.75;10;
2;ENG;Staffordshire;Barton under Needwood;;W1.73;N52.75;10;
2;ENG;Staffordshire;Basford;;W2.22;N53.01;10;
2;ENG;Staffordshire;Basford Green;;W2.01;N53.05;10;
2;ENG;Staffordshire;Baswich;;W2.09;N52.79;10;
2;ENG;Staffordshire;Beaconside;;W2.10;N52.81;10;
2;ENG;Staffordshire;Beam Hill;;W1.66;N52.83;10;
2;ENG;Staffordshire;Beamhurst;;W1.92;N52.92;10;
2;ENG;Staffordshire;Beamhurst Lane;;W1.91;N52.91;10;
2;ENG;Staffordshire;Bearstone;;W2.41;N52.94;10;
2;ENG;Staffordshire;Beasley;;W2.25;N53.03;10;
2;ENG;Staffordshire;Bednall;;W2.07;N52.75;10;
2;ENG;Staffordshire;Bednall Head;;W2.06;N52.75;10;
2;ENG;Staffordshire;Beech;;W2.22;N52.93;10;
2;ENG;Staffordshire;Beechcliff;;W2.22;N52.93;10;
2;ENG;Staffordshire;Beffcote;;W2.29;N52.76;10;
2;ENG;Staffordshire;Belgrave;;W1.67;N52.61;10;
2;ENG;Staffordshire;Bentilee;;W2.13;N53.01;10;
2;ENG;Staffordshire;Berry Hill;;W2.15;N53.01;10;
2;ENG;Staffordshire;Betley;;W2.37;N53.02;10;
2;ENG;Staffordshire;Bickford;;W2.17;N52.72;10;
2;ENG;Staffordshire;Biddulph;;W2.18;N53.11;10;
2;ENG;Staffordshire;Biddulph Moor;;W2.15;N53.11;10;
2;ENG;Staffordshire;Bignall End;;W2.29;N53.05;10;
2;ENG;Staffordshire;Bilbrook;;W2.17;N52.62;10;
2;ENG;Staffordshire;Billingham;;W1.28;N54.60;10;
2;ENG;Staffordshire;Billington;;W2.17;N52.77;10;
2;ENG;Staffordshire;Birch Cross;;W1.82;N52.86;10;
2;ENG;Staffordshire;Birchall;;W2.03;N53.08;10;
2;ENG;Staffordshire;Birchendale;;W1.92;N52.93;10;
2;ENG;Staffordshire;Birches Head;;W2.16;N53.02;10;
2;ENG;Staffordshire;Birmingham and Fazeley Canal;;W1.70;N52.59;10;
2;ENG;Staffordshire;Bishop's Offley;;W2.34;N52.85;10;
2;ENG;Staffordshire;Bishopsgarth;;W1.36;N54.57;10;
2;ENG;Staffordshire;Bishton;;W1.97;N52.77;10;
2;ENG;Staffordshire;Bitterscote;;W1.70;N52.62;10;
2;ENG;Staffordshire;Black Brook;;W1.89;N52.59;10;
2;ENG;Staffordshire;Blackbrook;;W2.35;N52.94;10;
2;ENG;Staffordshire;Blackfords;;W2.03;N52.69;10;
2;ENG;Staffordshire;Blackshaw Moor;;W2.00;N53.12;10;
2;ENG;Staffordshire;Blakeley;;W2.20;N52.52;10;
2;ENG;Staffordshire;Blakeley Lane;;W2.04;N53.02;10;
2;ENG;Staffordshire;Blank Bank;;W2.28;N53.02;10;
2;ENG;Staffordshire;Blithbury;;W1.88;N52.77;10;
2;ENG;Staffordshire;Blithe;;W1.93;N52.84;10;
2;ENG;Staffordshire;Blithfield Reservoir;;W1.92;N52.80;10;
2;ENG;Staffordshire;Blore;;W2.41;N52.90;10;
2;ENG;Staffordshire;Blore;;W1.80;N53.03;10;
2;ENG;Staffordshire;Bloreheath;;W2.43;N52.91;10;
2;ENG;Staffordshire;Blount's Green;;W1.89;N52.88;10;
2;ENG;Staffordshire;Blundies;;W2.26;N52.48;10;
2;ENG;Staffordshire;Blurton;;W2.16;N52.97;10;
2;ENG;Staffordshire;Blymhill;;W2.29;N52.70;10;
2;ENG;Staffordshire;Blymhill Lawns;;W2.28;N52.69;10;
2;ENG;Staffordshire;Blythe Bridge;;W2.07;N52.96;10;
2;ENG;Staffordshire;Blythe Marsh;;W2.06;N52.96;10;
2;ENG;Staffordshire;Bolehall;;W1.69;N52.62;10;
2;ENG;Staffordshire;Boley Park;;W1.80;N52.67;10;
2;ENG;Staffordshire;Bond End;;W1.79;N52.75;10;
2;ENG;Staffordshire;Bonehill;;W1.72;N52.61;10;
2;ENG;Staffordshire;Boon Hill;;W2.29;N53.04;10;
2;ENG;Staffordshire;Booth;;W1.94;N52.84;10;
2;ENG;Staffordshire;Boothen;;W2.19;N52.99;10;
2;ENG;Staffordshire;Boothstown;;W2.42;N53.49;10;
2;ENG;Staffordshire;Borough Park;;W1.69;N52.64;10;
2;ENG;Staffordshire;Boscomoor;;W2.11;N52.71;10;
2;ENG;Staffordshire;Bosley;;W2.13;N53.18;10;
2;ENG;Staffordshire;Bottom House;;W1.94;N53.06;10;
2;ENG;Staffordshire;Boundary;;W2.03;N52.97;10;
2;ENG;Staffordshire;Bourne Brook;;W1.75;N52.61;10;
2;ENG;Staffordshire;Bowers;;W2.28;N52.91;10;
2;ENG;Staffordshire;Braddocks Hay;;W2.18;N53.11;10;
2;ENG;Staffordshire;Bradeley;;W2.18;N53.05;10;
2;ENG;Staffordshire;Bradley;;W2.17;N52.75;10;
2;ENG;Staffordshire;Bradley in the Moors;;W1.91;N52.96;10;
2;ENG;Staffordshire;Bradnop;;W1.98;N53.09;10;
2;ENG;Staffordshire;Bradshaw;;W2.09;N53.09;10;
2;ENG;Staffordshire;Bradwell;;W2.24;N53.03;10;
2;ENG;Staffordshire;Brampton, The;;W2.23;N53.01;10;
2;ENG;Staffordshire;Bramshall;;W1.91;N52.89;10;
2;ENG;Staffordshire;Branston;;W1.67;N52.78;10;
2;ENG;Staffordshire;Brazenhill;;W2.20;N52.78;10;
2;ENG;Staffordshire;Brereton;;W1.92;N52.74;10;
2;ENG;Staffordshire;Brereton Cross;;W1.91;N52.73;10;
2;ENG;Staffordshire;Breretonhill;;W1.92;N52.73;10;
2;ENG;Staffordshire;Brewood;;W2.17;N52.66;10;
2;ENG;Staffordshire;Bridgetown;;W2.03;N52.67;10;
2;ENG;Staffordshire;Bridgewater Canal;;W2.37;N53.49;10;
2;ENG;Staffordshire;Brindle Heath;;W2.30;N53.49;10;
2;ENG;Staffordshire;Brineton;;W2.29;N52.71;10;
2;ENG;Staffordshire;Brinsford;;W2.13;N52.64;10;
2;ENG;Staffordshire;Broad Heath;;W2.22;N52.82;10;
2;ENG;Staffordshire;Broad Meadow;;W2.25;N53.02;10;
2;ENG;Staffordshire;Broadbottom;;W2.03;N53.44;10;
2;ENG;Staffordshire;Broadoak Park;;W2.36;N53.49;10;
2;ENG;Staffordshire;Brockton;;W2.28;N52.87;10;
2;ENG;Staffordshire;Brocton;;W2.06;N52.76;10;
2;ENG;Staffordshire;Bromley Hall;;W2.34;N52.90;10;
2;ENG;Staffordshire;Bromley Wood;;W1.85;N52.81;10;
2;ENG;Staffordshire;Bromstead Common;;W2.29;N52.75;10;
2;ENG;Staffordshire;Bromstead Heath;;W2.29;N52.75;10;
2;ENG;Staffordshire;Brook Bottom;;W2.06;N53.51;10;
2;ENG;Staffordshire;Brookhouses;;W2.01;N52.98;10;
2;ENG;Staffordshire;Broomyshaw;;W1.91;N53.03;10;
2;ENG;Staffordshire;Broughton;;W2.35;N52.90;10;
2;ENG;Staffordshire;Broughton Park;;W2.25;N53.50;10;
2;ENG;Staffordshire;Brown Edge;;W2.15;N53.07;10;
2;ENG;Staffordshire;Brown Lees;;W2.19;N53.10;10;
2;ENG;Staffordshire;Brund;;W1.85;N53.14;10;
2;ENG;Staffordshire;Brushes;;W2.04;N53.48;10;
2;ENG;Staffordshire;Bucknall;;W2.15;N53.02;10;
2;ENG;Staffordshire;Buckton Vale;;W2.03;N53.49;10;
2;ENG;Staffordshire;Buddileigh;;W2.37;N53.03;10;
2;ENG;Staffordshire;Burntwood;;W1.92;N52.67;10;
2;ENG;Staffordshire;Burntwood Green;;W1.89;N52.67;10;
2;ENG;Staffordshire;Burslem;;W2.19;N53.03;10;
2;ENG;Staffordshire;Burston;;W2.09;N52.86;10;
2;ENG;Staffordshire;Burton Manor;;W2.13;N52.77;10;
2;ENG;Staffordshire;Burton upon Trent;;W1.64;N52.79;10;
2;ENG;Staffordshire;Burybank;;W2.17;N52.91;10;
2;ENG;Staffordshire;Butt Lane;;W2.27;N53.08;10;
2;ENG;Staffordshire;Butter Bank;;W2.19;N52.80;10;
2;ENG;Staffordshire;Butters Green;;W2.28;N53.04;10;
2;ENG;Staffordshire;Butterton;;W2.25;N52.97;10;
2;ENG;Staffordshire;Butterton;;W1.89;N53.10;10;
2;ENG;Staffordshire;Caldon Canal;;W2.03;N53.05;10;
2;ENG;Staffordshire;Calf Heath;;W2.10;N52.67;10;
2;ENG;Staffordshire;Callingwood;;W1.71;N52.80;10;
2;ENG;Staffordshire;Calton;;W1.85;N53.04;10;
2;ENG;Staffordshire;Cannock;;W2.03;N52.68;10;
2;ENG;Staffordshire;Cannock Wood;;W1.94;N52.70;10;
2;ENG;Staffordshire;Carlton;;W1.39;N54.58;10;
2;ENG;Staffordshire;Carrbrook;;W2.03;N53.50;10;
2;ENG;Staffordshire;Castlecroft;;W2.19;N52.57;10;
2;ENG;Staffordshire;Castletown;;W2.13;N52.80;10;
2;ENG;Staffordshire;Cats Edge;;W2.07;N53.06;10;
2;ENG;Staffordshire;Cat's Hill Cross;;W2.26;N52.86;10;
2;ENG;Staffordshire;Cauldon;;W1.89;N53.03;10;
2;ENG;Staffordshire;Cauldon Lowe;;W1.88;N53.02;10;
2;ENG;Staffordshire;Caverswall;;W2.07;N52.97;10;
2;ENG;Staffordshire;Cellarhead;;W2.07;N53.02;10;
2;ENG;Staffordshire;Chadsmoor;;W2.03;N52.69;10;
2;ENG;Staffordshire;Chapel Chorlton;;W2.28;N52.93;10;
2;ENG;Staffordshire;Charlestown;;W2.28;N53.48;10;
2;ENG;Staffordshire;Charnes;;W2.34;N52.89;10;
2;ENG;Staffordshire;Chase Terrace;;W1.94;N52.67;10;
2;ENG;Staffordshire;Chasetown;;W1.92;N52.67;10;
2;ENG;Staffordshire;Chatcull;;W2.31;N52.90;10;
2;ENG;Staffordshire;Chatterley;;W2.24;N53.05;10;
2;ENG;Staffordshire;Cheadle;;W1.98;N52.98;10;
2;ENG;Staffordshire;Cheadle Park;;W2.00;N52.98;10;
2;ENG;Staffordshire;Chebsey;;W2.20;N52.84;10;
2;ENG;Staffordshire;Checkley;;W1.97;N52.93;10;
2;ENG;Staffordshire;Cheddleton;;W2.04;N53.06;10;
2;ENG;Staffordshire;Cheddleton Heath;;W2.03;N53.07;10;
2;ENG;Staffordshire;Chell Heath;;W2.19;N53.06;10;
2;ENG;Staffordshire;Cheslyn Hay;;W2.04;N52.66;10;
2;ENG;Staffordshire;Chestall;;W1.92;N52.70;10;
2;ENG;Staffordshire;Chesterfield;;W1.85;N52.64;10;
2;ENG;Staffordshire;Chesterton;;W2.25;N53.03;10;
2;ENG;Staffordshire;Chorley;;W1.89;N52.68;10;
2;ENG;Staffordshire;Church Eaton;;W2.23;N52.75;10;
2;ENG;Staffordshire;Church Eaton Brook;;W2.14;N52.72;10;
2;ENG;Staffordshire;Church Hill;;W2.00;N52.70;10;
2;ENG;Staffordshire;Church Leigh;;W1.97;N52.91;10;
2;ENG;Staffordshire;Churchbridge;;W2.03;N52.67;10;
2;ENG;Staffordshire;Churnet;;W2.01;N53.13;10;
2;ENG;Staffordshire;Churnet Grange;;W2.03;N53.06;10;
2;ENG;Staffordshire;Clay Mills;;W1.61;N52.84;10;
2;ENG;Staffordshire;Clayton;;W2.22;N52.98;10;
2;ENG;Staffordshire;Clifton;;W2.34;N53.52;10;
2;ENG;Staffordshire;Clifton Campville;;W1.63;N52.68;10;
2;ENG;Staffordshire;Clifton Green;;W2.33;N53.51;10;
2;ENG;Staffordshire;Clifton Junction;;W2.31;N53.52;10;
2;ENG;Staffordshire;Cloud Side;;W2.13;N53.15;10;
2;ENG;Staffordshire;Clough Hall;;W2.25;N53.07;10;
2;ENG;Staffordshire;Coalpit Hill;;W2.27;N53.07;10;
2;ENG;Staffordshire;Cobridge;;W2.19;N53.02;10;
2;ENG;Staffordshire;Codsall;;W2.19;N52.62;10;
2;ENG;Staffordshire;Cold Well;;W1.92;N52.69;10;
2;ENG;Staffordshire;Coldeaton;;W1.79;N53.10;10;
2;ENG;Staffordshire;Coldham;;W2.22;N52.66;10;
2;ENG;Staffordshire;Coldmeece;;W2.22;N52.88;10;
2;ENG;Staffordshire;Colshaw;;W1.94;N53.20;10;
2;ENG;Staffordshire;Colton;;W1.92;N52.77;10;
2;ENG;Staffordshire;Colton Hills;;W2.14;N52.55;10;
2;ENG;Staffordshire;Colwich;;W1.98;N52.78;10;
2;ENG;Staffordshire;Comberford;;W1.72;N52.66;10;
2;ENG;Staffordshire;Combridge;;W1.86;N52.93;10;
2;ENG;Staffordshire;Compton;;W2.26;N52.45;10;
2;ENG;Staffordshire;Congreve;;W2.14;N52.71;10;
2;ENG;Staffordshire;Consall;;W2.03;N53.02;10;
2;ENG;Staffordshire;Cookshill;;W2.09;N52.98;10;
2;ENG;Staffordshire;Coombesdale;;W2.29;N52.93;10;
2;ENG;Staffordshire;Copley;;W2.04;N53.47;10;
2;ENG;Staffordshire;Copmere End;;W2.29;N52.85;10;
2;ENG;Staffordshire;Coppenhall;;W2.14;N52.76;10;
2;ENG;Staffordshire;Cornhill;;W2.16;N53.06;10;
2;ENG;Staffordshire;Cotes;;W2.23;N52.90;10;
2;ENG;Staffordshire;Cotes Heath;;W2.25;N52.90;10;
2;ENG;Staffordshire;Coton;;W1.73;N52.64;10;
2;ENG;Staffordshire;Coton;;W2.28;N52.77;10;
2;ENG;Staffordshire;Coton;;W2.04;N52.87;10;
2;ENG;Staffordshire;Coton Clanford;;W2.19;N52.80;10;
2;ENG;Staffordshire;Coton Hayes;;W2.01;N52.88;10;
2;ENG;Staffordshire;Coton Hill;;W2.03;N52.88;10;
2;ENG;Staffordshire;Coton in the Clay;;W1.76;N52.85;10;
2;ENG;Staffordshire;Cotonwood;;W2.29;N52.77;10;
2;ENG;Staffordshire;Cotton;;W1.91;N53.01;10;
2;ENG;Staffordshire;Cotwalton;;W2.12;N52.90;10;
2;ENG;Staffordshire;Coven;;W2.14;N52.65;10;
2;ENG;Staffordshire;Coven Heath;;W2.13;N52.63;10;
2;ENG;Staffordshire;Coven Lawn;;W2.14;N52.64;10;
2;ENG;Staffordshire;Coventry Canal;;W1.69;N52.61;10;
2;ENG;Staffordshire;Cowpen Bewley;;W1.25;N54.60;10;
2;ENG;Staffordshire;Crackley;;W2.25;N53.04;10;
2;ENG;Staffordshire;Cracow Moss;;W2.37;N53.02;10;
2;ENG;Staffordshire;Crakemarsh;;W1.86;N52.92;10;
2;ENG;Staffordshire;Cranberry;;W2.26;N52.91;10;
2;ENG;Staffordshire;Crateford;;W2.14;N52.67;10;
2;ENG;Staffordshire;Creighton;;W1.88;N52.92;10;
2;ENG;Staffordshire;Cresswell;;W2.04;N52.94;10;
2;ENG;Staffordshire;Creswell;;W2.14;N52.82;10;
2;ENG;Staffordshire;Creswell;;W2.16;N52.82;10;
2;ENG;Staffordshire;Creswell Green;;W1.89;N52.68;10;
2;ENG;Staffordshire;Cross Green;;W2.13;N52.64;10;
2;ENG;Staffordshire;Cross Heath;;W2.23;N53.02;10;
2;ENG;Staffordshire;Crossgate;;W2.09;N52.93;10;
2;ENG;Staffordshire;Crowborough;;W2.15;N53.11;10;
2;ENG;Staffordshire;Crowhill;;W2.12;N53.48;10;
2;ENG;Staffordshire;Croxall;;W1.72;N52.71;10;
2;ENG;Staffordshire;Croxden;;W1.91;N52.94;10;
2;ENG;Staffordshire;Croxton;;W2.32;N52.87;10;
2;ENG;Staffordshire;Croxtonbank;;W2.32;N52.88;10;
2;ENG;Staffordshire;Curborough;;W1.82;N52.70;10;
2;ENG;Staffordshire;Dagdale;;W1.92;N52.90;10;
2;ENG;Staffordshire;Dales Brow;;W2.34;N53.49;10;
2;ENG;Staffordshire;Dales Green;;W2.22;N53.10;10;
2;ENG;Staffordshire;Dam Mill;;W2.17;N52.61;10;
2;ENG;Staffordshire;Dane;;W2.02;N53.18;10;
2;ENG;Staffordshire;Dane Bank;;W2.15;N53.45;10;
2;ENG;Staffordshire;Dapple Heath;;W1.94;N52.83;10;
2;ENG;Staffordshire;Darnford;;W1.80;N52.66;10;
2;ENG;Staffordshire;Dayhills;;W2.07;N52.88;10;
2;ENG;Staffordshire;Deadman's Green;;W1.95;N52.93;10;
2;ENG;Staffordshire;Denford;;W2.07;N53.07;10;
2;ENG;Staffordshire;Denstone;;W1.86;N52.95;10;
2;ENG;Staffordshire;Denton;;W2.12;N53.45;10;
2;ENG;Staffordshire;Derrington;;W2.16;N52.79;10;
2;ENG;Staffordshire;Dilhorne;;W2.04;N52.98;10;
2;ENG;Staffordshire;Dimsdale;;W2.24;N53.02;10;
2;ENG;Staffordshire;Dods Leigh;;W1.98;N52.90;10;
2;ENG;Staffordshire;Dogingtree Estate;;W2.04;N52.71;10;
2;ENG;Staffordshire;Doley;;W2.38;N52.85;10;
2;ENG;Staffordshire;Dosthill;;W1.69;N52.59;10;
2;ENG;Staffordshire;Doveridge;;W1.83;N52.90;10;
2;ENG;Staffordshire;Doxey;;W2.14;N52.80;10;
2;ENG;Staffordshire;Draycott in the Clay;;W1.77;N52.84;10;
2;ENG;Staffordshire;Draycott in the Moors;;W2.03;N52.95;10;
2;ENG;Staffordshire;Drayton Bassett;;W1.72;N52.59;10;
2;ENG;Staffordshire;Dresden;;W2.15;N52.97;10;
2;ENG;Staffordshire;Drointon;;W1.97;N52.83;10;
2;ENG;Staffordshire;Dukinfield;;W2.09;N53.47;10;
2;ENG;Staffordshire;Dunkirk;;W2.28;N53.06;10;
2;ENG;Staffordshire;Dunsley;;W2.22;N52.44;10;
2;ENG;Staffordshire;Dunstal;;W1.89;N52.83;10;
2;ENG;Staffordshire;Dunstall;;W1.73;N52.77;10;
2;ENG;Staffordshire;Dunston;;W2.11;N52.75;10;
2;ENG;Staffordshire;Dunston Heath;;W2.13;N52.75;10;
2;ENG;Staffordshire;Dunwood;;W2.07;N53.09;10;
2;ENG;Staffordshire;Eaglescliffe;;W1.35;N54.52;10;
2;ENG;Staffordshire;Eccles;;W2.34;N53.47;10;
2;ENG;Staffordshire;Eccleshall;;W2.25;N52.85;10;
2;ENG;Staffordshire;Ecton;;W1.86;N53.11;10;
2;ENG;Staffordshire;Edial;;W1.89;N52.67;10;
2;ENG;Staffordshire;Edingale;;W1.69;N52.70;10;
2;ENG;Staffordshire;Efflinch;;W1.71;N52.75;10;
2;ENG;Staffordshire;Egglescliffe;;W1.36;N54.51;10;
2;ENG;Staffordshire;Elford;;W1.72;N52.68;10;
2;ENG;Staffordshire;Ellastone;;W1.83;N52.98;10;
2;ENG;Staffordshire;Ellenhall;;W2.23;N52.83;10;
2;ENG;Staffordshire;Ellesmere Park;;W2.34;N53.48;10;
2;ENG;Staffordshire;Elmhurst;;W1.83;N52.70;10;
2;ENG;Staffordshire;Elton;;W1.38;N54.54;10;
2;ENG;Staffordshire;Endon;;W2.12;N53.07;10;
2;ENG;Staffordshire;Endon Bank;;W2.12;N53.07;10;
2;ENG;Staffordshire;Enville;;W2.26;N52.47;10;
2;ENG;Staffordshire;Essington;;W2.06;N52.62;10;
2;ENG;Staffordshire;Etchinghill;;W1.97;N52.75;10;
2;ENG;Staffordshire;Etruria;;W2.21;N53.02;10;
2;ENG;Staffordshire;Fairfield;;W1.36;N54.56;10;
2;ENG;Staffordshire;Fairoak;;W2.35;N52.88;10;
2;ENG;Staffordshire;Far Hoarcross;;W1.80;N52.79;10;
2;ENG;Staffordshire;Farewell;;W1.88;N52.69;10;
2;ENG;Staffordshire;Farley;;W1.91;N52.99;10;
2;ENG;Staffordshire;Fauld;;W1.73;N52.84;10;
2;ENG;Staffordshire;Fawfieldhead;;W1.89;N53.16;10;
2;ENG;Staffordshire;Fazeley;;W1.70;N52.61;10;
2;ENG;Staffordshire;Featherstone;;W2.09;N52.64;10;
2;ENG;Staffordshire;Fegg Hayes;;W2.19;N53.07;10;
2;ENG;Staffordshire;Fenton;;W2.16;N52.99;10;
2;ENG;Staffordshire;Fenton Low;;W2.16;N53.00;10;
2;ENG;Staffordshire;Fern Bank;;W2.04;N53.47;10;
2;ENG;Staffordshire;Field;;W1.97;N52.89;10;
2;ENG;Staffordshire;Finney Green;;W2.31;N53.01;10;
2;ENG;Staffordshire;Fisherwick;;W1.73;N52.66;10;
2;ENG;Staffordshire;Flash;;W1.97;N53.20;10;
2;ENG;Staffordshire;Florence;;W2.13;N52.97;10;
2;ENG;Staffordshire;Flowery Field;;W2.09;N53.45;10;
2;ENG;Staffordshire;Fole;;W1.94;N52.93;10;
2;ENG;Staffordshire;Footherley;;W1.85;N52.61;10;
2;ENG;Staffordshire;Ford;;W1.91;N53.07;10;
2;ENG;Staffordshire;Ford Green;;W2.18;N53.04;10;
2;ENG;Staffordshire;Forebridge;;W2.12;N52.79;10;
2;ENG;Staffordshire;Forsbrook;;W2.06;N52.96;10;
2;ENG;Staffordshire;Forton;;W2.37;N52.78;10;
2;ENG;Staffordshire;Four Ashes;;W2.29;N52.48;10;
2;ENG;Staffordshire;Four Ashes;;W2.13;N52.66;10;
2;ENG;Staffordshire;Four Crosses;;W2.07;N52.67;10;
2;ENG;Staffordshire;Foxley;;W2.31;N53.07;10;
2;ENG;Staffordshire;Foxt;;W1.95;N53.02;10;
2;ENG;Staffordshire;Foxton;;W1.44;N54.61;10;
2;ENG;Staffordshire;Fradley;;W1.76;N52.71;10;
2;ENG;Staffordshire;Fradley Junction;;W1.80;N52.72;10;
2;ENG;Staffordshire;Fradswell;;W2.01;N52.87;10;
2;ENG;Staffordshire;Freehay;;W1.97;N52.96;10;
2;ENG;Staffordshire;Froghall;;W1.97;N53.02;10;
2;ENG;Staffordshire;Fulford;;W2.07;N52.93;10;
2;ENG;Staffordshire;Fulthorpe;;W1.36;N54.61;10;
2;ENG;Staffordshire;Gailey;;W2.13;N52.68;10;
2;ENG;Staffordshire;Gailey Wharf;;W2.11;N52.68;10;
2;ENG;Staffordshire;Gallows Green;;W1.89;N52.96;10;
2;ENG;Staffordshire;Garmelow;;W2.31;N52.84;10;
2;ENG;Staffordshire;Garshall Green;;W2.06;N52.90;10;
2;ENG;Staffordshire;Gayton;;W2.03;N52.84;10;
2;ENG;Staffordshire;Gee Cross;;W2.07;N53.43;10;
2;ENG;Staffordshire;Gentleshaw;;W1.92;N52.69;10;
2;ENG;Staffordshire;Gerrard's Bromley;;W2.32;N52.90;10;
2;ENG;Staffordshire;Giggetty;;W2.20;N52.52;10;
2;ENG;Staffordshire;Gillow Heath;;W2.18;N53.11;10;
2;ENG;Staffordshire;Gillway;;W1.70;N52.63;10;
2;ENG;Staffordshire;Glascote;;W1.67;N52.61;10;
2;ENG;Staffordshire;Glutton Bridge;;W1.88;N53.19;10;
2;ENG;Staffordshire;Gnosall;;W2.25;N52.78;10;
2;ENG;Staffordshire;Gnosall Heath;;W2.26;N52.77;10;
2;ENG;Staffordshire;Godley;;W2.07;N53.45;10;
2;ENG;Staffordshire;Godley Hill;;W2.06;N53.44;10;
2;ENG;Staffordshire;Godleybrook;;W2.04;N52.99;10;
2;ENG;Staffordshire;Goldenhill;;W2.22;N53.07;10;
2;ENG;Staffordshire;Goosemoor;;W2.26;N52.75;10;
2;ENG;Staffordshire;Goosemoor Green;;W1.91;N52.69;10;
2;ENG;Staffordshire;Gorsley Ley;;W1.91;N52.67;10;
2;ENG;Staffordshire;Gorsty Hill;;W1.85;N52.85;10;
2;ENG;Staffordshire;Gospel Ash;;W2.25;N52.51;10;
2;ENG;Staffordshire;Gospel End Village;;W2.16;N52.53;10;
2;ENG;Staffordshire;Gratwich;;W1.97;N52.87;10;
2;ENG;Staffordshire;Great Bridgeford;;W2.17;N52.83;10;
2;ENG;Staffordshire;Great Chell;;W2.19;N53.06;10;
2;ENG;Staffordshire;Great Gate;;W1.92;N52.95;10;
2;ENG;Staffordshire;Great Haywood;;W2.00;N52.79;10;
2;ENG;Staffordshire;Great Moor;;W2.25;N52.57;10;
2;ENG;Staffordshire;Great Saredon;;W2.07;N52.67;10;
2;ENG;Staffordshire;Great Wyrley;;W2.01;N52.66;10;
2;ENG;Staffordshire;Green Heath;;W2.01;N52.71;10;
2;ENG;Staffordshire;Greenhead;;W2.03;N53.01;10;
2;ENG;Staffordshire;Greensforge;;W2.22;N52.49;10;
2;ENG;Staffordshire;Greenside;;W2.15;N53.48;10;
2;ENG;Staffordshire;Grindley;;W1.95;N52.85;10;
2;ENG;Staffordshire;Grindon;;W1.88;N53.08;10;
2;ENG;Staffordshire;Grindon;;W1.39;N54.61;10;
2;ENG;Staffordshire;Grub Street;;W2.32;N52.82;10;
2;ENG;Staffordshire;Guide Bridge;;W2.12;N53.47;10;
2;ENG;Staffordshire;Gunstone;;W2.19;N52.63;10;
2;ENG;Staffordshire;Hademore;;W1.75;N52.66;10;
2;ENG;Staffordshire;Hadley End;;W1.80;N52.77;10;
2;ENG;Staffordshire;Hales;;W2.43;N52.90;10;
2;ENG;Staffordshire;Halfpenny Green;;W2.26;N52.51;10;
2;ENG;Staffordshire;Halmer End;;W2.31;N53.03;10;
2;ENG;Staffordshire;Hammerwich;;W1.91;N52.66;10;
2;ENG;Staffordshire;Hamstall Ridware;;W1.85;N52.76;10;
2;ENG;Staffordshire;Hanbury;;W1.74;N52.84;10;
2;ENG;Staffordshire;Hanbury Woodend;;W1.76;N52.83;10;
2;ENG;Staffordshire;Hanchurch;;W2.23;N52.96;10;
2;ENG;Staffordshire;Handsacre;;W1.86;N52.74;10;
2;ENG;Staffordshire;Hanford;;W2.19;N52.97;10;
2;ENG;Staffordshire;Hanley;;W2.18;N53.02;10;
2;ENG;Staffordshire;Hansley Cross;;W1.91;N52.97;10;
2;ENG;Staffordshire;Hardings Booth;;W1.91;N53.17;10;
2;ENG;Staffordshire;Hardings Wood;;W2.25;N53.08;10;
2;ENG;Staffordshire;Hardwick;;W1.36;N54.58;10;
2;ENG;Staffordshire;Haregate;;W2.01;N53.11;10;
2;ENG;Staffordshire;Harlaston;;W1.69;N52.68;10;
2;ENG;Staffordshire;Harper's Gate;;W2.07;N53.11;10;
2;ENG;Staffordshire;Harriseahead;;W2.21;N53.10;10;
2;ENG;Staffordshire;Hartburn;;W1.35;N54.55;10;
2;ENG;Staffordshire;Hartington;;W1.82;N53.13;10;
2;ENG;Staffordshire;Hartley Green;;W2.04;N52.85;10;
2;ENG;Staffordshire;Hartshead Green;;W2.06;N53.50;10;
2;ENG;Staffordshire;Hartshead Pike;;W2.06;N53.51;10;
2;ENG;Staffordshire;Hartshill;;W2.21;N53.00;10;
2;ENG;Staffordshire;Hartwell;;W2.13;N52.94;10;
2;ENG;Staffordshire;Hatherton;;W2.07;N52.68;10;
2;ENG;Staffordshire;Hattersley;;W2.03;N53.44;10;
2;ENG;Staffordshire;Haughton;;W2.20;N52.77;10;
2;ENG;Staffordshire;Haughton Green;;W2.10;N53.43;10;
2;ENG;Staffordshire;Haunton;;W1.66;N52.68;10;
2;ENG;Staffordshire;Haverton Hill;;W1.25;N54.59;10;
2;ENG;Staffordshire;Hawks Green;;W2.01;N52.68;10;
2;ENG;Staffordshire;Hawthorns;;W2.29;N53.00;10;
2;ENG;Staffordshire;Hayes;;W1.88;N53.13;10;
2;ENG;Staffordshire;Hazelhurst;;W2.37;N53.50;10;
2;ENG;Staffordshire;Hazelhurst;;W2.06;N53.49;10;
2;ENG;Staffordshire;Hazelslade;;W1.97;N52.70;10;
2;ENG;Staffordshire;Hazles;;W2.00;N53.02;10;
2;ENG;Staffordshire;Hazlescross;;W2.00;N53.02;10;
2;ENG;Staffordshire;Heath Hayes;;W1.98;N52.68;10;
2;ENG;Staffordshire;Heatley;;W1.91;N52.84;10;
2;ENG;Staffordshire;Heaton;;W2.07;N53.15;10;
2;ENG;Staffordshire;Hednesford;;W2.00;N52.70;10;
2;ENG;Staffordshire;Heighley;;W2.34;N53.02;10;
2;ENG;Staffordshire;Hem Heath;;W2.18;N52.96;10;
2;ENG;Staffordshire;Heron Cross;;W2.16;N52.98;10;
2;ENG;Staffordshire;Heyheads;;W2.03;N53.50;10;
2;ENG;Staffordshire;Heyrod;;W2.04;N53.48;10;
2;ENG;Staffordshire;High Leven;;W1.32;N54.50;10;
2;ENG;Staffordshire;High Offley;;W2.32;N52.83;10;
2;ENG;Staffordshire;High Onn;;W2.26;N52.74;10;
2;ENG;Staffordshire;High Onn Wharf;;W2.25;N52.74;10;
2;ENG;Staffordshire;High Town;;W2.03;N52.70;10;
2;ENG;Staffordshire;Higher Broughton;;W2.27;N53.49;10;
2;ENG;Staffordshire;Highfields;;W2.13;N52.78;10;
2;ENG;Staffordshire;Highlanes;;W2.31;N52.88;10;
2;ENG;Staffordshire;Hilderstone;;W2.09;N52.90;10;
2;ENG;Staffordshire;Hill Chorlton;;W2.31;N52.94;10;
2;ENG;Staffordshire;Hill Ridware;;W1.89;N52.75;10;
2;ENG;Staffordshire;Hill Top;;W2.40;N53.52;10;
2;ENG;Staffordshire;Hill Top;;W2.17;N52.66;10;
2;ENG;Staffordshire;Hilliard's Cross;;W1.77;N52.69;10;
2;ENG;Staffordshire;Hilton;;W1.88;N52.64;10;
2;ENG;Staffordshire;Hilton;;W1.29;N54.49;10;
2;ENG;Staffordshire;Himley;;W2.19;N52.51;10;
2;ENG;Staffordshire;Hints;;W1.77;N52.61;10;
2;ENG;Staffordshire;Hixon;;W2.00;N52.82;10;
2;ENG;Staffordshire;Hoar Cross;;W1.82;N52.80;10;
2;ENG;Staffordshire;Hobble End;;W2.00;N52.64;10;
2;ENG;Staffordshire;Hockley;;W1.67;N52.59;10;
2;ENG;Staffordshire;Hodgefield;;W2.15;N53.08;10;
2;ENG;Staffordshire;Hollies Common;;W2.26;N52.78;10;
2;ENG;Staffordshire;Hollington;;W1.92;N52.94;10;
2;ENG;Staffordshire;Hollingworth;;W2.00;N53.46;10;
2;ENG;Staffordshire;Hollins;;W2.01;N53.02;10;
2;ENG;Staffordshire;Hollins;;W2.27;N53.07;10;
2;ENG;Staffordshire;Hollins;;W2.12;N53.11;10;
2;ENG;Staffordshire;Hollinsclough;;W1.91;N53.19;10;
2;ENG;Staffordshire;Hollybush;;W2.16;N52.98;10;
2;ENG;Staffordshire;Holmcroft;;W2.14;N52.82;10;
2;ENG;Staffordshire;Holt Hill;;W1.82;N52.83;10;
2;ENG;Staffordshire;Hookgate;;W2.38;N52.91;10;
2;ENG;Staffordshire;Hooley Hill;;W2.12;N53.47;10;
2;ENG;Staffordshire;Hope;;W1.82;N53.09;10;
2;ENG;Staffordshire;Hopedale;;W1.82;N53.09;10;
2;ENG;Staffordshire;Hopton;;W2.09;N52.83;10;
2;ENG;Staffordshire;Hopton Heath;;W2.07;N52.83;10;
2;ENG;Staffordshire;Hopwas;;W1.75;N52.64;10;
2;ENG;Staffordshire;Horninglow;;W1.64;N52.82;10;
2;ENG;Staffordshire;Horse Bridge;;W2.06;N53.07;10;
2;ENG;Staffordshire;Horsebrook;;W2.17;N52.68;10;
2;ENG;Staffordshire;Horton;;W2.09;N53.11;10;
2;ENG;Staffordshire;Huddlesford;;W1.77;N52.67;10;
2;ENG;Staffordshire;Hulme;;W2.10;N53.00;10;
2;ENG;Staffordshire;Hulme End;;W1.85;N53.12;10;
2;ENG;Staffordshire;Huntington;;W2.04;N52.70;10;
2;ENG;Staffordshire;Huntley;;W2.00;N52.96;10;
2;ENG;Staffordshire;Hurst;;W2.09;N53.49;10;
2;ENG;Staffordshire;Hyde;;W2.09;N53.44;10;
2;ENG;Staffordshire;Hyde Lea;;W2.13;N52.77;10;
2;ENG;Staffordshire;Ilam;;W1.80;N53.04;10;
2;ENG;Staffordshire;Ingestre;;W2.03;N52.81;10;
2;ENG;Staffordshire;Ipstones;;W1.97;N53.03;10;
2;ENG;Staffordshire;Irlam;;W2.42;N53.44;10;
2;ENG;Staffordshire;Irlams o' th' Height;;W2.31;N53.49;10;
2;ENG;Staffordshire;Iverley;;W2.19;N52.42;10;
2;ENG;Staffordshire;Jack Hayes;;W2.10;N53.03;10;
2;ENG;Staffordshire;Jugbank;;W2.37;N52.91;10;
2;ENG;Staffordshire;Keele;;W2.29;N53.00;10;
2;ENG;Staffordshire;Kerry Hill;;W2.12;N53.03;10;
2;ENG;Staffordshire;Kersal;;W2.28;N53.50;10;
2;ENG;Staffordshire;Kettlebrook;;W1.69;N52.62;10;
2;ENG;Staffordshire;Kiddemore Green;;W2.22;N52.66;10;
2;ENG;Staffordshire;Kidsgrove;;W2.25;N53.08;10;
2;ENG;Staffordshire;King's Bromley;;W1.82;N52.74;10;
2;ENG;Staffordshire;Kingsley;;W2.00;N53.01;10;
2;ENG;Staffordshire;Kingsley Holt;;W1.97;N53.01;10;
2;ENG;Staffordshire;Kingsley Moor;;W2.01;N53.01;10;
2;ENG;Staffordshire;Kingston;;W2.09;N53.45;10;
2;ENG;Staffordshire;Kingstone;;W1.91;N52.85;10;
2;ENG;Staffordshire;Kingswood Common;;W2.23;N52.61;10;
2;ENG;Staffordshire;Kinver;;W2.23;N52.44;10;
2;ENG;Staffordshire;Kirklevington;;W1.35;N54.47;10;
2;ENG;Staffordshire;Knenhall;;W2.12;N52.93;10;
2;ENG;Staffordshire;Knightley;;W2.28;N52.82;10;
2;ENG;Staffordshire;Knightley Dale;;W2.28;N52.80;10;
2;ENG;Staffordshire;Knotbury;;W1.98;N53.20;10;
2;ENG;Staffordshire;Knowl Bank;;W2.34;N53.03;10;
2;ENG;Staffordshire;Knowl Wall;;W2.22;N52.94;10;
2;ENG;Staffordshire;Knutton;;W2.25;N53.02;10;
2;ENG;Staffordshire;Knypersley;;W2.18;N53.10;10;
2;ENG;Staffordshire;Landslow Green;;W2.01;N53.47;10;
2;ENG;Staffordshire;Landywood;;W2.01;N52.65;10;
2;ENG;Staffordshire;Lane Ends;;W2.19;N53.08;10;
2;ENG;Staffordshire;Lane Green;;W2.17;N52.62;10;
2;ENG;Staffordshire;Laney Green;;W2.06;N52.65;10;
2;ENG;Staffordshire;Lapley;;W2.19;N52.70;10;
2;ENG;Staffordshire;Lask Edge;;W2.13;N53.10;10;
2;ENG;Staffordshire;Lawnhead;;W2.25;N52.81;10;
2;ENG;Staffordshire;Lea Heath;;W1.97;N52.83;10;
2;ENG;Staffordshire;Leadendale;;W2.12;N52.94;10;
2;ENG;Staffordshire;Leamonsley;;W1.85;N52.67;10;
2;ENG;Staffordshire;Leek;;W2.03;N53.10;10;
2;ENG;Staffordshire;Leekbrook;;W2.03;N53.07;10;
2;ENG;Staffordshire;Levedale;;W2.16;N52.74;10;
2;ENG;Staffordshire;Leven;;W1.29;N54.48;10;
2;ENG;Staffordshire;Leycett;;W2.31;N53.01;10;
2;ENG;Staffordshire;Leyfields;;W1.72;N52.64;10;
2;ENG;Staffordshire;Leys;;W1.95;N53.02;10;
2;ENG;Staffordshire;Lichfield;;W1.83;N52.67;10;
2;ENG;Staffordshire;Light Oaks;;W2.12;N53.04;10;
2;ENG;Staffordshire;Lightwood;;W2.12;N52.96;10;
2;ENG;Staffordshire;Lightwood;;W1.98;N52.97;10;
2;ENG;Staffordshire;Limehurst;;W2.10;N53.49;10;
2;ENG;Staffordshire;Linnyshaw;;W2.39;N53.52;10;
2;ENG;Staffordshire;Little Aston;;W1.86;N52.59;10;
2;ENG;Staffordshire;Little Bridgeford;;W2.19;N52.84;10;
2;ENG;Staffordshire;Little Chell;;W2.19;N53.06;10;
2;ENG;Staffordshire;Little Hay;;W1.82;N52.61;10;
2;ENG;Staffordshire;Little Haywood;;W2.00;N52.78;10;
2;ENG;Staffordshire;Little Heath;;W2.14;N52.75;10;
2;ENG;Staffordshire;Little Hulton;;W2.42;N53.52;10;
2;ENG;Staffordshire;Little Ingestre;;W2.01;N52.81;10;
2;ENG;Staffordshire;Little Madeley;;W2.34;N53.00;10;
2;ENG;Staffordshire;Little Onn;;W2.25;N52.74;10;
2;ENG;Staffordshire;Little Saredon;;W2.09;N52.66;10;
2;ENG;Staffordshire;Little Stoke;;W2.13;N52.88;10;
2;ENG;Staffordshire;Little Sugnall;;W2.29;N52.87;10;
2;ENG;Staffordshire;Little Wyrley;;W1.98;N52.64;10;
2;ENG;Staffordshire;Littlemoss;;W2.13;N53.48;10;
2;ENG;Staffordshire;Littlewood;;W2.03;N52.66;10;
2;ENG;Staffordshire;Littleworth;;W1.98;N52.70;10;
2;ENG;Staffordshire;Littleworth;;W2.10;N52.80;10;
2;ENG;Staffordshire;Logherheads;;W2.40;N52.92;10;
2;ENG;Staffordshire;Lonco Brook;;W2.36;N52.83;10;
2;ENG;Staffordshire;Long Compton;;W2.22;N52.79;10;
2;ENG;Staffordshire;Longbridge Hayes;;W2.22;N53.04;10;
2;ENG;Staffordshire;Longdon;;W1.88;N52.72;10;
2;ENG;Staffordshire;Longdon Green;;W1.88;N52.71;10;
2;ENG;Staffordshire;Longnewton;;W1.41;N54.53;10;
2;ENG;Staffordshire;Longnor;;W2.20;N52.72;10;
2;ENG;Staffordshire;Longnor;;W1.88;N53.17;10;
2;ENG;Staffordshire;Longport;;W2.22;N53.03;10;
2;ENG;Staffordshire;Longridge;;W2.13;N52.73;10;
2;ENG;Staffordshire;Longsdon;;W2.06;N53.08;10;
2;ENG;Staffordshire;Longshaw;;W1.91;N53.00;10;
2;ENG;Staffordshire;Longton;;W2.15;N52.98;10;
2;ENG;Staffordshire;Lowe Hill;;W2.01;N53.09;10;
2;ENG;Staffordshire;Lower Broughton;;W2.27;N53.48;10;
2;ENG;Staffordshire;Lower Elkstone;;W1.91;N53.11;10;
2;ENG;Staffordshire;Lower Ellastone;;W1.83;N52.97;10;
2;ENG;Staffordshire;Lower Green;;W2.14;N52.66;10;
2;ENG;Staffordshire;Lower Hatton;;W2.26;N52.92;10;
2;ENG;Staffordshire;Lower Kersal;;W2.28;N53.50;10;
2;ENG;Staffordshire;Lower Knightley;;W2.26;N52.80;10;
2;ENG;Staffordshire;Lower Leigh;;W1.98;N52.92;10;
2;ENG;Staffordshire;Lower Nobut;;W1.94;N52.90;10;
2;ENG;Staffordshire;Lower Penn;;W2.19;N52.55;10;
2;ENG;Staffordshire;Lower Stonnall;;W1.88;N52.62;10;
2;ENG;Staffordshire;Lower Tean;;W1.98;N52.93;10;
2;ENG;Staffordshire;Loxley Green;;W1.91;N52.86;10;
2;ENG;Staffordshire;Lupin;;W1.79;N52.74;10;
2;ENG;Staffordshire;Luzley;;W2.06;N53.50;10;
2;ENG;Staffordshire;Lyme Brook;;W2.23;N53.00;10;
2;ENG;Staffordshire;Lynn;;W1.88;N52.63;10;
2;ENG;Staffordshire;Madeley;;W2.34;N52.99;10;
2;ENG;Staffordshire;Madeley Heath;;W2.32;N53.00;10;
2;ENG;Staffordshire;Maer;;W2.31;N52.93;10;
2;ENG;Staffordshire;Maltby;;W1.29;N54.51;10;
2;ENG;Staffordshire;Manchester and Ashton Canal, Hollinwood Branch;;W2.15;N53.47;10;
2;ENG;Staffordshire;Marchington;;W1.80;N52.86;10;
2;ENG;Staffordshire;Marchington Woodlands;;W1.83;N52.84;10;
2;ENG;Staffordshire;Marsh Green;;W2.18;N53.12;10;
2;ENG;Staffordshire;Marston;;W2.25;N52.72;10;
2;ENG;Staffordshire;Marston;;W2.12;N52.84;10;
2;ENG;Staffordshire;Matley;;W2.03;N53.46;10;
2;ENG;Staffordshire;Mavesyn Ridware;;W1.88;N52.74;10;
2;ENG;Staffordshire;May Bank;;W2.22;N53.02;10;
2;ENG;Staffordshire;Mayfield;;W1.77;N53.00;10;
2;ENG;Staffordshire;Meaford;;W2.17;N52.91;10;
2;ENG;Staffordshire;Mease;;W1.69;N52.69;10;
2;ENG;Staffordshire;Meece Brook;;W2.22;N52.88;10;
2;ENG;Staffordshire;Meerbrook;;W2.01;N53.13;10;
2;ENG;Staffordshire;Meese;;W2.37;N52.78;10;
2;ENG;Staffordshire;Meir;;W2.10;N52.97;10;
2;ENG;Staffordshire;Meir Heath;;W2.10;N52.94;10;
2;ENG;Staffordshire;Micklehurst;;W2.03;N53.51;10;
2;ENG;Staffordshire;Middle Cliff;;W2.00;N53.08;10;
2;ENG;Staffordshire;Middle Hill;;W2.06;N52.66;10;
2;ENG;Staffordshire;Middle Madeley;;W2.34;N53.00;10;
2;ENG;Staffordshire;Middle Mayfield;;W1.79;N52.99;10;
2;ENG;Staffordshire;Middleport;;W2.21;N53.03;10;
2;ENG;Staffordshire;Middleton Green;;W2.01;N52.91;10;
2;ENG;Staffordshire;Mile Oak;;W1.73;N52.61;10;
2;ENG;Staffordshire;Miles Green;;W2.29;N53.03;10;
2;ENG;Staffordshire;Milford;;W2.06;N52.78;10;
2;ENG;Staffordshire;Millbrook;;W2.03;N53.48;10;
2;ENG;Staffordshire;Milldale;;W1.80;N53.08;10;
2;ENG;Staffordshire;Millmeece;;W2.25;N52.89;10;
2;ENG;Staffordshire;Milton;;W2.15;N53.04;10;
2;ENG;Staffordshire;Milwich;;W2.04;N52.88;10;
2;ENG;Staffordshire;Mitton;;W2.17;N52.73;10;
2;ENG;Staffordshire;Mobberley;;W2.00;N52.96;10;
2;ENG;Staffordshire;Moddershall;;W2.12;N52.92;10;
2;ENG;Staffordshire;Moneystone;;W1.92;N53.01;10;
2;ENG;Staffordshire;Monton;;W2.36;N53.48;10;
2;ENG;Staffordshire;Moor Green;;W2.06;N52.96;10;
2;ENG;Staffordshire;Moorside;;W2.34;N53.50;10;
2;ENG;Staffordshire;Moreton;;W2.31;N52.75;10;
2;ENG;Staffordshire;Moreton;;W1.79;N52.85;10;
2;ENG;Staffordshire;Morrey;;W1.82;N52.75;10;
2;ENG;Staffordshire;Morridge Side;;W1.97;N53.08;10;
2;ENG;Staffordshire;Morrilow Heath;;W2.03;N52.91;10;
2;ENG;Staffordshire;Moss Pit;;W2.12;N52.77;10;
2;ENG;Staffordshire;Mossgate;;W2.09;N52.93;10;
2;ENG;Staffordshire;Mossley;;W2.04;N53.50;10;
2;ENG;Staffordshire;Mossley Brow;;W2.04;N53.51;10;
2;ENG;Staffordshire;Mottram in Longdendale;;W2.01;N53.45;10;
2;ENG;Staffordshire;Mottram Rise;;W2.03;N53.47;10;
2;ENG;Staffordshire;Mount Pleasant;;W2.18;N52.99;10;
2;ENG;Staffordshire;Mount Pleasant;;W1.32;N54.57;10;
2;ENG;Staffordshire;Mucklestone;;W2.41;N52.93;10;
2;ENG;Staffordshire;Muckley Corner;;W1.88;N52.65;10;
2;ENG;Staffordshire;Mudd;;W2.01;N53.44;10;
2;ENG;Staffordshire;Napley;;W2.43;N52.92;10;
2;ENG;Staffordshire;Napley Heath;;W2.41;N52.93;10;
2;ENG;Staffordshire;Needwood;;W1.73;N52.81;10;
2;ENG;Staffordshire;Nether Stowe;;W1.82;N52.68;10;
2;ENG;Staffordshire;Netherland Green;;W1.85;N52.86;10;
2;ENG;Staffordshire;Nethertown;;W1.85;N52.75;10;
2;ENG;Staffordshire;New Street;;W1.92;N53.06;10;
2;ENG;Staffordshire;Newborough;;W1.80;N52.82;10;
2;ENG;Staffordshire;Newcastle under Lyme;;W2.22;N53.01;10;
2;ENG;Staffordshire;Newchapel;;W2.21;N53.08;10;
2;ENG;Staffordshire;Newchurch;;W1.79;N52.80;10;
2;ENG;Staffordshire;Newfield;;W2.22;N53.06;10;
2;ENG;Staffordshire;Newlands;;W1.89;N52.78;10;
2;ENG;Staffordshire;Newpool;;W2.19;N53.10;10;
2;ENG;Staffordshire;Newstead;;W2.16;N52.95;10;
2;ENG;Staffordshire;Newton;;W1.95;N52.82;10;
2;ENG;Staffordshire;Newton;;W2.07;N53.46;10;
2;ENG;Staffordshire;Newton Bewley;;W1.28;N54.62;10;
2;ENG;Staffordshire;Newton Hurst;;W1.92;N52.82;10;
2;ENG;Staffordshire;Newton Wood;;W2.10;N53.46;10;
2;ENG;Staffordshire;Newtown;;W2.34;N53.51;10;
2;ENG;Staffordshire;Newtown;;W2.01;N52.63;10;
2;ENG;Staffordshire;Newtown;;W2.15;N53.13;10;
2;ENG;Staffordshire;Newtown;;W1.91;N53.16;10;
2;ENG;Staffordshire;Norbury;;W2.32;N52.80;10;
2;ENG;Staffordshire;Norbury Junction;;W2.31;N52.79;10;
2;ENG;Staffordshire;Normacot;;W2.12;N52.97;10;
2;ENG;Staffordshire;Northwood;;W2.16;N53.02;10;
2;ENG;Staffordshire;Northwood;;W2.22;N52.97;10;
2;ENG;Staffordshire;Norton;;W1.32;N54.58;10;
2;ENG;Staffordshire;Norton Bridge;;W2.19;N52.86;10;
2;ENG;Staffordshire;Norton Canes;;W1.98;N52.66;10;
2;ENG;Staffordshire;Norton East;;W1.97;N52.67;10;
2;ENG;Staffordshire;Norton Green;;W2.15;N53.06;10;
2;ENG;Staffordshire;Norton-in-the-Moors;;W2.16;N53.05;10;
2;ENG;Staffordshire;Nurton;;W2.25;N52.58;10;
2;ENG;Staffordshire;Nurton Hill;;W2.25;N52.58;10;
2;ENG;Staffordshire;Oak Hill;;W2.21;N52.99;10;
2;ENG;Staffordshire;Oakamoor;;W1.92;N52.99;10;
2;ENG;Staffordshire;Oaken;;W2.22;N52.61;10;
2;ENG;Staffordshire;Oakley;;W2.44;N52.92;10;
2;ENG;Staffordshire;Offleyhay;;W2.31;N52.85;10;
2;ENG;Staffordshire;Offleymarsh;;W2.32;N52.85;10;
2;ENG;Staffordshire;Offleyrock;;W2.32;N52.85;10;
2;ENG;Staffordshire;Old Perton;;W2.22;N52.57;10;
2;ENG;Staffordshire;Oldfallow;;W2.04;N52.69;10;
2;ENG;Staffordshire;Oldfurnace;;W1.94;N52.98;10;
2;ENG;Staffordshire;Olive Green;;W1.83;N52.75;10;
2;ENG;Staffordshire;Onecote;;W1.94;N53.09;10;
2;ENG;Staffordshire;Ordsall;;W2.28;N53.46;10;
2;ENG;Staffordshire;Orgreave;;W1.79;N52.74;10;
2;ENG;Staffordshire;Orslow;;W2.29;N52.73;10;
2;ENG;Staffordshire;Orton;;W2.20;N52.55;10;
2;ENG;Staffordshire;Otherton;;W2.11;N52.70;10;
2;ENG;Staffordshire;Oulton;;W2.32;N52.79;10;
2;ENG;Staffordshire;Oulton;;W2.13;N52.91;10;
2;ENG;Staffordshire;Oulton Grange;;W2.15;N52.91;10;
2;ENG;Staffordshire;Oulton Heath;;W2.15;N52.92;10;
2;ENG;Staffordshire;Oultoncross;;W2.15;N52.90;10;
2;ENG;Staffordshire;Ounsdale;;W2.20;N52.53;10;
2;ENG;Staffordshire;Outlands;;W2.34;N52.86;10;
2;ENG;Staffordshire;Outwoods;;W2.32;N52.75;10;
2;ENG;Staffordshire;Outwoods;;W1.66;N52.81;10;
2;ENG;Staffordshire;Overley;;W1.76;N52.73;10;
2;ENG;Staffordshire;Overmoor;;W2.06;N53.02;10;
2;ENG;Staffordshire;Overton;;W1.94;N52.93;10;
2;ENG;Staffordshire;Owen's Bank;;W1.70;N52.84;10;
2;ENG;Staffordshire;Oxford;;W2.19;N53.07;10;
2;ENG;Staffordshire;Packmoor;;W2.21;N53.08;10;
2;ENG;Staffordshire;Painleyhill;;W1.95;N52.89;10;
2;ENG;Staffordshire;Palmers Cross;;W2.17;N52.60;10;
2;ENG;Staffordshire;Park Bridge;;W2.09;N53.51;10;
2;ENG;Staffordshire;Park End;;W2.32;N53.05;10;
2;ENG;Staffordshire;Park Lane;;W2.17;N52.65;10;
2;ENG;Staffordshire;Parkside;;W2.13;N52.82;10;
2;ENG;Staffordshire;Pasford;;W2.29;N52.58;10;
2;ENG;Staffordshire;Pasturefields;;W2.01;N52.82;10;
2;ENG;Staffordshire;Patricroft;;W2.36;N53.47;10;
2;ENG;Staffordshire;Pattingham;;W2.26;N52.58;10;
2;ENG;Staffordshire;Peel Green;;W2.39;N53.46;10;
2;ENG;Staffordshire;Pendleton;;W2.28;N53.48;10;
2;ENG;Staffordshire;Penk;;W2.09;N52.77;10;
2;ENG;Staffordshire;Penkhull;;W2.21;N52.99;10;
2;ENG;Staffordshire;Penkridge;;W2.11;N52.71;10;
2;ENG;Staffordshire;Perry Crofts;;W1.69;N52.63;10;
2;ENG;Staffordshire;Pershall;;W2.28;N52.85;10;
2;ENG;Staffordshire;Perton;;W2.20;N52.58;10;
2;ENG;Staffordshire;Pillaton;;W2.09;N52.71;10;
2;ENG;Staffordshire;Pipe Gate;;W2.40;N52.95;10;
2;ENG;Staffordshire;Pipe Ridware;;W1.86;N52.75;10;
2;ENG;Staffordshire;Pipehill;;W1.86;N52.66;10;
2;ENG;Staffordshire;Pitts Hill;;W2.21;N53.06;10;
2;ENG;Staffordshire;Plardiwick;;W2.28;N52.77;10;
2;ENG;Staffordshire;Podmore;;W2.32;N52.91;10;
2;ENG;Staffordshire;Poolend;;W2.06;N53.11;10;
2;ENG;Staffordshire;Poolfold;;W2.16;N53.12;10;
2;ENG;Staffordshire;Porthill;;W2.22;N53.02;10;
2;ENG;Staffordshire;Portrack;;W1.29;N54.56;10;
2;ENG;Staffordshire;Potteries, The;;W2.18;N53.01;10;
2;ENG;Staffordshire;Preston-on-Tees;;W1.33;N54.52;10;
2;ENG;Staffordshire;Prestwood;;W2.20;N52.47;10;
2;ENG;Staffordshire;Prestwood;;W1.85;N52.97;10;
2;ENG;Staffordshire;Prospect Village;;W1.95;N52.69;10;
2;ENG;Staffordshire;Pye Green;;W2.01;N52.72;10;
2;ENG;Staffordshire;Quarry Heath;;W2.09;N52.71;10;
2;ENG;Staffordshire;Quarry Hill;;W1.66;N52.60;10;
2;ENG;Staffordshire;Queensville;;W2.10;N52.79;10;
2;ENG;Staffordshire;Quick;;W2.04;N53.52;10;
2;ENG;Staffordshire;Quixhill;;W1.85;N52.96;10;
2;ENG;Staffordshire;Radmore Wood;;W1.86;N52.82;10;
2;ENG;Staffordshire;Rake End;;W1.89;N52.75;10;
2;ENG;Staffordshire;Rakes Dale;;W1.91;N52.97;10;
2;ENG;Staffordshire;Rakeway;;W1.97;N52.97;10;
2;ENG;Staffordshire;Ramshorn;;W1.88;N53.00;10;
2;ENG;Staffordshire;Rangemore;;W1.73;N52.80;10;
2;ENG;Staffordshire;Ranton;;W2.22;N52.81;10;
2;ENG;Staffordshire;Ranton Green;;W2.23;N52.79;10;
2;ENG;Staffordshire;Ravenscliffe;;W2.24;N53.06;10;
2;ENG;Staffordshire;Ravenshall;;W2.37;N53.02;10;
2;ENG;Staffordshire;Rawnsley;;W1.97;N52.70;10;
2;ENG;Staffordshire;Red Bull;;W2.44;N52.91;10;
2;ENG;Staffordshire;Red Street;;W2.27;N53.05;10;
2;ENG;Staffordshire;Redhill;;W2.25;N52.84;10;
2;ENG;Staffordshire;Redmarshall;;W1.41;N54.58;10;
2;ENG;Staffordshire;Rickerscote;;W2.12;N52.77;10;
2;ENG;Staffordshire;Ridge Hill;;W2.06;N53.48;10;
2;ENG;Staffordshire;Ridgeway;;W2.16;N53.07;10;
2;ENG;Staffordshire;Rileyhill;;W1.83;N52.73;10;
2;ENG;Staffordshire;Risingbrook;;W2.12;N52.78;10;
2;ENG;Staffordshire;Roaches;;W2.03;N53.52;10;
2;ENG;Staffordshire;Robin Hill;;W2.15;N53.11;10;
2;ENG;Staffordshire;Rocester;;W1.85;N52.94;10;
2;ENG;Staffordshire;Roche Grange;;W2.01;N53.16;10;
2;ENG;Staffordshire;Rock End;;W2.16;N53.10;10;
2;ENG;Staffordshire;Rodbaston;;W2.11;N52.69;10;
2;ENG;Staffordshire;Roe Cross;;W2.03;N53.46;10;
2;ENG;Staffordshire;Roe Green;;W2.37;N53.50;10;
2;ENG;Staffordshire;Rolleston on Dove;;W1.65;N52.84;10;
2;ENG;Staffordshire;Roseworth;;W1.35;N54.58;10;
2;ENG;Staffordshire;Rough Close;;W2.12;N52.94;10;
2;ENG;Staffordshire;Rough Hay;;W1.70;N52.80;10;
2;ENG;Staffordshire;Roughcote;;W2.09;N52.99;10;
2;ENG;Staffordshire;Rowley Park;;W2.13;N52.79;10;
2;ENG;Staffordshire;Rownall;;W2.07;N53.03;10;
2;ENG;Staffordshire;Rudyard;;W2.09;N53.11;10;
2;ENG;Staffordshire;Rudyard Reservoir;;W2.08;N53.12;10;
2;ENG;Staffordshire;Rugeley;;W1.94;N52.75;10;
2;ENG;Staffordshire;Rumer Hill;;W2.03;N52.67;10;
2;ENG;Staffordshire;Rushall Canal;;W1.94;N52.65;10;
2;ENG;Staffordshire;Rushton Spencer;;W2.09;N53.15;10;
2;ENG;Staffordshire;Ryecroft Gate;;W2.10;N53.14;10;
2;ENG;Staffordshire;Salford;;W2.30;N53.47;10;
2;ENG;Staffordshire;Salt;;W2.07;N52.84;10;
2;ENG;Staffordshire;Sandborough;;W1.83;N52.76;10;
2;ENG;Staffordshire;Sandfields;;W1.83;N52.66;10;
2;ENG;Staffordshire;Sandford Hill;;W2.13;N52.99;10;
2;ENG;Staffordshire;Sandon;;W2.09;N52.85;10;
2;ENG;Staffordshire;Sandonbank;;W2.09;N52.84;10;
2;ENG;Staffordshire;Sandwell;;W1.97;N52.49;10;
2;ENG;Staffordshire;Sandyford;;W2.22;N53.06;10;
2;ENG;Staffordshire;Saverley Green;;W2.06;N52.93;10;
2;ENG;Staffordshire;Scot Hay;;W2.29;N53.02;10;
2;ENG;Staffordshire;Scounslow Green;;W1.86;N52.85;10;
2;ENG;Staffordshire;Seabridge;;W2.25;N52.98;10;
2;ENG;Staffordshire;Sedgley Park;;W2.27;N53.51;10;
2;ENG;Staffordshire;Seedley;;W2.30;N53.48;10;
2;ENG;Staffordshire;Seighford;;W2.17;N52.81;10;
2;ENG;Staffordshire;Seisdon;;W2.23;N52.54;10;
2;ENG;Staffordshire;Shaffalong;;W2.06;N53.06;10;
2;ENG;Staffordshire;Shallowford;;W2.19;N52.85;10;
2;ENG;Staffordshire;Shareshill;;W2.09;N52.65;10;
2;ENG;Staffordshire;Sharpley Heath;;W2.06;N52.91;10;
2;ENG;Staffordshire;Shaw and Crompton;;W2.10;N53.56;10;
2;ENG;Staffordshire;Shawfield;;W1.91;N53.14;10;
2;ENG;Staffordshire;Shebdon;;W2.35;N52.82;10;
2;ENG;Staffordshire;Sheen;;W1.83;N53.14;10;
2;ENG;Staffordshire;Shelton;;W2.19;N53.01;10;
2;ENG;Staffordshire;Shelton under Harley;;W2.28;N52.94;10;
2;ENG;Staffordshire;Shenstone;;W1.85;N52.63;10;
2;ENG;Staffordshire;Shenstone Woodend;;W1.83;N52.61;10;
2;ENG;Staffordshire;Shobnall;;W1.66;N52.80;10;
2;ENG;Staffordshire;Shraleybrook;;W2.32;N53.03;10;
2;ENG;Staffordshire;Shropshire Union Canal;;W2.16;N52.61;10;
2;ENG;Staffordshire;Shut Heath;;W2.20;N52.78;10;
2;ENG;Staffordshire;Shutt Green;;W2.19;N52.67;10;
2;ENG;Staffordshire;Sideway;;W2.19;N52.98;10;
2;ENG;Staffordshire;Sidway;;W2.35;N52.94;10;
2;ENG;Staffordshire;Silverdale;;W2.28;N53.01;10;
2;ENG;Staffordshire;Six Ashes;;W2.31;N52.48;10;
2;ENG;Staffordshire;Slade Heath;;W2.11;N52.65;10;
2;ENG;Staffordshire;Slindon;;W2.26;N52.88;10;
2;ENG;Staffordshire;Slitting Mill;;W1.97;N52.75;10;
2;ENG;Staffordshire;Smallrice;;W2.07;N52.87;10;
2;ENG;Staffordshire;Smallshaw;;W2.09;N53.49;10;
2;ENG;Staffordshire;Smallthorne;;W2.18;N53.04;10;
2;ENG;Staffordshire;Smestow;;W2.22;N52.51;10;
2;ENG;Staffordshire;Sneyd Green;;W2.18;N53.03;10;
2;ENG;Staffordshire;Somerford;;W2.16;N52.66;10;
2;ENG;Staffordshire;Sow;;W2.09;N52.79;10;
2;ENG;Staffordshire;Spath;;W1.88;N52.91;10;
2;ENG;Staffordshire;Spring Hill;;W2.17;N52.55;10;
2;ENG;Staffordshire;Springfields;;W2.21;N52.99;10;
2;ENG;Staffordshire;Springhill;;W2.04;N52.63;10;
2;ENG;Staffordshire;Stableford;;W2.28;N52.93;10;
2;ENG;Staffordshire;Stadmorslow;;W2.21;N53.09;10;
2;ENG;Staffordshire;Stafford;;W2.12;N52.80;10;
2;ENG;Staffordshire;Stallington;;W2.09;N52.94;10;
2;ENG;Staffordshire;Stalybridge;;W2.06;N53.47;10;
2;ENG;Staffordshire;Standeford;;W2.13;N52.66;10;
2;ENG;Staffordshire;Standon;;W2.28;N52.90;10;
2;ENG;Staffordshire;Stanfield;;W2.19;N53.05;10;
2;ENG;Staffordshire;Stanley;;W2.10;N53.06;10;
2;ENG;Staffordshire;Stanley Moor;;W2.12;N53.05;10;
2;ENG;Staffordshire;Stanshope;;W1.82;N53.08;10;
2;ENG;Staffordshire;Stanton;;W1.82;N53.01;10;
2;ENG;Staffordshire;Stapenhill;;W1.63;N52.78;10;
2;ENG;Staffordshire;Stockton Brook;;W2.13;N53.06;10;
2;ENG;Staffordshire;Stockwell Heath;;W1.92;N52.78;10;
2;ENG;Staffordshire;Stoke on Trent;;W2.19;N53.02;10;
2;ENG;Staffordshire;Stoke-upon-Trent;;W2.19;N53.00;10;
2;ENG;Staffordshire;Stone;;W2.15;N52.90;10;
2;ENG;Staffordshire;Stone Heath;;W2.04;N52.91;10;
2;ENG;Staffordshire;Stonefield;;W2.16;N52.90;10;
2;ENG;Staffordshire;Stonehouses;;W2.04;N52.95;10;
2;ENG;Staffordshire;Stour;;W2.24;N52.54;10;
2;ENG;Staffordshire;Stourbridge;;W2.17;N52.44;10;
2;ENG;Staffordshire;Stourton;;W2.20;N52.46;10;
2;ENG;Staffordshire;Stowe;;W1.82;N52.68;10;
2;ENG;Staffordshire;Stowe-by-Chartley;;W2.00;N52.84;10;
2;ENG;Staffordshire;Stramshall;;W1.89;N52.91;10;
2;ENG;Staffordshire;Streethay;;W1.79;N52.68;10;
2;ENG;Staffordshire;Stretton;;W2.17;N52.69;10;
2;ENG;Staffordshire;Stretton;;W1.63;N52.83;10;
2;ENG;Staffordshire;Stubwood;;W1.86;N52.94;10;
2;ENG;Staffordshire;Sturbridge;;W2.25;N52.86;10;
2;ENG;Staffordshire;Sugnall;;W2.31;N52.86;10;
2;ENG;Staffordshire;Summerhill;;W1.89;N52.64;10;
2;ENG;Staffordshire;Sun Green;;W2.03;N53.48;10;
2;ENG;Staffordshire;Sutton;;W2.35;N52.79;10;
2;ENG;Staffordshire;Swindon;;W2.20;N52.50;10;
2;ENG;Staffordshire;Swinscoe;;W1.80;N53.02;10;
2;ENG;Staffordshire;Swinton;;W2.34;N53.50;10;
2;ENG;Staffordshire;Swinton Park;;W2.33;N53.49;10;
2;ENG;Staffordshire;Swynnerton;;W2.22;N52.91;10;
2;ENG;Staffordshire;Talke;;W2.27;N53.07;10;
2;ENG;Staffordshire;Talke Pits;;W2.27;N53.06;10;
2;ENG;Staffordshire;Tame;;W1.71;N52.72;10;
2;ENG;Staffordshire;Tame;;W2.11;N53.47;10;
2;ENG;Staffordshire;Tamworth;;W1.67;N52.62;10;
2;ENG;Staffordshire;Tatenhill;;W1.70;N52.78;10;
2;ENG;Staffordshire;Tatenhill Common;;W1.71;N52.79;10;
2;ENG;Staffordshire;Taunton;;W2.12;N53.49;10;
2;ENG;Staffordshire;Tean;;W1.97;N52.93;10;
2;ENG;Staffordshire;Teanford;;W2.00;N52.95;10;
2;ENG;Staffordshire;Tees;;W1.34;N54.53;10;
2;ENG;Staffordshire;Tern;;W2.38;N52.94;10;
2;ENG;Staffordshire;The Alders;;W1.72;N52.63;10;
2;ENG;Staffordshire;The Bents;;W1.97;N52.90;10;
2;ENG;Staffordshire;The Blythe;;W1.94;N52.84;10;
2;ENG;Staffordshire;The Bratch;;W2.20;N52.53;10;
2;ENG;Staffordshire;The Handfords;;W2.19;N52.79;10;
2;ENG;Staffordshire;The Heath;;W1.88;N52.90;10;
2;ENG;Staffordshire;The Hollands;;W2.13;N53.12;10;
2;ENG;Staffordshire;The Laches;;W2.11;N52.66;10;
2;ENG;Staffordshire;The Leys;;W1.70;N52.63;10;
2;ENG;Staffordshire;The Marsh;;W2.23;N52.83;10;
2;ENG;Staffordshire;The Rookery;;W2.22;N53.09;10;
2;ENG;Staffordshire;The Rowe;;W2.26;N52.93;10;
2;ENG;Staffordshire;The Sale;;W1.77;N52.72;10;
2;ENG;Staffordshire;The Shruggs;;W2.09;N52.86;10;
2;ENG;Staffordshire;The Toft;;W2.14;N52.75;10;
2;ENG;Staffordshire;Thornaby-on-Tees;;W1.30;N54.53;10;
2;ENG;Staffordshire;Thorncliffe;;W1.98;N53.11;10;
2;ENG;Staffordshire;Thornton;;W1.27;N54.51;10;
2;ENG;Staffordshire;Thorpe Constantine;;W1.63;N52.66;10;
2;ENG;Staffordshire;Thorpe Thewles;;W1.38;N54.60;10;
2;ENG;Staffordshire;Threapwood;;W1.94;N52.97;10;
2;ENG;Staffordshire;Threelows;;W1.89;N53.01;10;
2;ENG;Staffordshire;Tillington;;W2.13;N52.81;10;
2;ENG;Staffordshire;Tithebarn;;W1.89;N52.96;10;
2;ENG;Staffordshire;Tittensor;;W2.19;N52.93;10;
2;ENG;Staffordshire;Tittesworth Reservoir;;W2.01;N53.13;10;
2;ENG;Staffordshire;Tixall;;W2.04;N52.79;10;
2;ENG;Staffordshire;Tompkin;;W2.09;N53.05;10;
2;ENG;Staffordshire;Toot Hill;;W1.91;N52.97;10;
2;ENG;Staffordshire;Totmonslow;;W2.01;N52.94;10;
2;ENG;Staffordshire;Town Head;;W1.94;N53.03;10;
2;ENG;Staffordshire;Townend;;W2.07;N52.93;10;
2;ENG;Staffordshire;Townsend;;W2.13;N53.02;10;
2;ENG;Staffordshire;Trent;;W1.75;N52.73;10;
2;ENG;Staffordshire;Trent and Mersey Canal;;W2.01;N52.80;10;
2;ENG;Staffordshire;Trent Vale;;W2.21;N52.98;10;
2;ENG;Staffordshire;Trentham;;W2.19;N52.96;10;
2;ENG;Staffordshire;Trescott;;W2.23;N52.57;10;
2;ENG;Staffordshire;Triangle;;W1.92;N52.66;10;
2;ENG;Staffordshire;Trinity Fields;;W2.13;N52.82;10;
2;ENG;Staffordshire;Trysull;;W2.22;N52.54;10;
2;ENG;Staffordshire;Tunstall;;W2.21;N53.05;10;
2;ENG;Staffordshire;Tunstall;;W2.34;N52.84;10;
2;ENG;Staffordshire;Turnhurst;;W2.21;N53.07;10;
2;ENG;Staffordshire;Tutbury;;W1.70;N52.84;10;
2;ENG;Staffordshire;Two Gates;;W1.69;N52.60;10;
2;ENG;Staffordshire;Ubberley;;W2.13;N53.01;10;
2;ENG;Staffordshire;Upper Cotton;;W1.92;N53.02;10;
2;ENG;Staffordshire;Upper Elkstone;;W1.92;N53.11;10;
2;ENG;Staffordshire;Upper Ellastone;;W1.83;N52.98;10;
2;ENG;Staffordshire;Upper Hatton;;W2.25;N52.93;10;
2;ENG;Staffordshire;Upper Hulme;;W1.98;N53.13;10;
2;ENG;Staffordshire;Upper Landywood;;W2.03;N52.64;10;
2;ENG;Staffordshire;Upper Leigh;;W1.98;N52.92;10;
2;ENG;Staffordshire;Upper Longdon;;W1.92;N52.72;10;
2;ENG;Staffordshire;Upper Nobut;;W1.94;N52.91;10;
2;ENG;Staffordshire;Upper Tean;;W1.98;N52.94;10;
2;ENG;Staffordshire;Urlay Nook;;W1.38;N54.52;10;
2;ENG;Staffordshire;Uttoxeter;;W1.86;N52.89;10;
2;ENG;Staffordshire;Waggersley;;W2.19;N52.93;10;
2;ENG;Staffordshire;Wain Lee;;W2.21;N53.09;10;
2;ENG;Staffordshire;Walford;;W2.28;N52.89;10;
2;ENG;Staffordshire;Walkden;;W2.40;N53.52;10;
2;ENG;Staffordshire;Wall;;W1.86;N52.65;10;
2;ENG;Staffordshire;Wall Heath;;W2.19;N52.49;10;
2;ENG;Staffordshire;Walton;;W2.22;N52.84;10;
2;ENG;Staffordshire;Walton;;W2.16;N52.89;10;
2;ENG;Staffordshire;Walton-on-the-Hill;;W2.07;N52.77;10;
2;ENG;Staffordshire;Walton-on-Trent;;W1.69;N52.75;10;
2;ENG;Staffordshire;Wardley;;W2.36;N53.51;10;
2;ENG;Staffordshire;Warhill;;W2.01;N53.45;10;
2;ENG;Staffordshire;Warslow;;W1.88;N53.11;10;
2;ENG;Staffordshire;Warstone;;W2.04;N52.64;10;
2;ENG;Staffordshire;Washerwall;;W2.10;N53.02;10;
2;ENG;Staffordshire;Waterfall;;W1.88;N53.05;10;
2;ENG;Staffordshire;Waterhouses;;W1.88;N53.04;10;
2;ENG;Staffordshire;Waterloo;;W2.10;N53.49;10;
2;ENG;Staffordshire;Weaste;;W2.30;N53.47;10;
2;ENG;Staffordshire;Weaverslake;;W1.80;N52.76;10;
2;ENG;Staffordshire;Weeford;;W1.79;N52.62;10;
2;ENG;Staffordshire;Weeping Cross;;W2.09;N52.78;10;
2;ENG;Staffordshire;Wereton;;W2.31;N53.04;10;
2;ENG;Staffordshire;Wergs;;W2.19;N52.59;10;
2;ENG;Staffordshire;Werrington;;W2.09;N53.02;10;
2;ENG;Staffordshire;West Chadsmoor;;W2.03;N52.70;10;
2;ENG;Staffordshire;West Hill;;W2.01;N52.70;10;
2;ENG;Staffordshire;Western Downs;;W2.14;N52.78;10;
2;ENG;Staffordshire;Westlands;;W2.23;N52.99;10;
2;ENG;Staffordshire;Weston;;W2.04;N52.84;10;
2;ENG;Staffordshire;Weston Coyney;;W2.10;N52.99;10;
2;ENG;Staffordshire;Weston Jones;;W2.35;N52.81;10;
2;ENG;Staffordshire;Weston Under Lizard;;W2.29;N52.68;10;
2;ENG;Staffordshire;Westwood Park;;W2.37;N53.48;10;
2;ENG;Staffordshire;Wetley Rocks;;W2.06;N53.03;10;
2;ENG;Staffordshire;Wetmore;;W1.63;N52.81;10;
2;ENG;Staffordshire;Wetton;;W1.85;N53.09;10;
2;ENG;Staffordshire;Wetwood;;W2.34;N52.89;10;
2;ENG;Staffordshire;Wheaton Aston;;W2.22;N52.70;10;
2;ENG;Staffordshire;Whiston;;W2.16;N52.72;10;
2;ENG;Staffordshire;Whiston;;W1.95;N53.02;10;
2;ENG;Staffordshire;Whitecross;;W2.20;N52.79;10;
2;ENG;Staffordshire;Whitehill;;W2.24;N53.08;10;
2;ENG;Staffordshire;Whitemore;;W2.18;N53.13;10;
2;ENG;Staffordshire;Whitgreave;;W2.16;N52.84;10;
2;ENG;Staffordshire;Whitley Heath;;W2.28;N52.83;10;
2;ENG;Staffordshire;Whitmore;;W2.28;N52.95;10;
2;ENG;Staffordshire;Whittington;;W2.22;N52.43;10;
2;ENG;Staffordshire;Whittington;;W1.76;N52.66;10;
2;ENG;Staffordshire;Whittington;;W2.31;N52.89;10;
2;ENG;Staffordshire;Wiggington;;W1.70;N52.65;10;
2;ENG;Staffordshire;Wigginstall;;W1.86;N53.13;10;
2;ENG;Staffordshire;Wightwick Manor;;W2.20;N52.57;10;
2;ENG;Staffordshire;Wildwood;;W2.09;N52.77;10;
2;ENG;Staffordshire;Willslock;;W1.89;N52.86;10;
2;ENG;Staffordshire;Wilnecote;;W1.67;N52.60;10;
2;ENG;Staffordshire;Wimblebury;;W1.98;N52.69;10;
2;ENG;Staffordshire;Winkhill;;W1.91;N53.05;10;
2;ENG;Staffordshire;Winnington;;W2.41;N52.93;10;
2;ENG;Staffordshire;Winnothdale;;W1.95;N52.95;10;
2;ENG;Staffordshire;Winshill;;W1.61;N52.80;10;
2;ENG;Staffordshire;Winton;;W2.37;N53.47;10;
2;ENG;Staffordshire;Withington;;W1.95;N52.91;10;
2;ENG;Staffordshire;Withystakes;;W2.07;N53.02;10;
2;ENG;Staffordshire;Wollaston;;W2.17;N52.45;10;
2;ENG;Staffordshire;Wolstanton;;W2.22;N53.02;10;
2;ENG;Staffordshire;Wolviston;;W1.30;N54.61;10;
2;ENG;Staffordshire;Wombourne;;W2.19;N52.52;10;
2;ENG;Staffordshire;Wood Eaton;;W2.23;N52.75;10;
2;ENG;Staffordshire;Wood End;;W2.04;N53.51;10;
2;ENG;Staffordshire;Wood Gate;;W1.77;N52.84;10;
2;ENG;Staffordshire;Wood Lane;;W2.28;N53.04;10;
2;ENG;Staffordshire;Woodcock Heath;;W1.92;N52.85;10;
2;ENG;Staffordshire;Woodend;;W1.74;N52.83;10;
2;ENG;Staffordshire;Woodhouse Green;;W2.13;N53.15;10;
2;ENG;Staffordshire;Woodhouses;;W1.88;N52.67;10;
2;ENG;Staffordshire;Woodhouses;;W1.77;N52.76;10;
2;ENG;Staffordshire;Woodlands;;W2.04;N53.47;10;
2;ENG;Staffordshire;Woodlane;;W1.79;N52.77;10;
2;ENG;Staffordshire;Woodmill;;W1.80;N52.78;10;
2;ENG;Staffordshire;Woodseaves;;W2.31;N52.82;10;
2;ENG;Staffordshire;Woodwall Green;;W2.32;N52.87;10;
2;ENG;Staffordshire;Woollaston;;W2.20;N52.73;10;
2;ENG;Staffordshire;Woolley Bridge;;W2.00;N53.45;10;
2;ENG;Staffordshire;Wootton;;W2.26;N52.84;10;
2;ENG;Staffordshire;Wootton;;W1.85;N53.00;10;
2;ENG;Staffordshire;Woottons;;W1.89;N52.93;10;
2;ENG;Staffordshire;Worsley;;W2.39;N53.50;10;
2;ENG;Staffordshire;Wrinehill;;W2.37;N53.02;10;
2;ENG;Staffordshire;Wychnor;;W1.74;N52.74;10;
2;ENG;Staffordshire;Wychnor Bridges;;W1.73;N52.74;10;
2;ENG;Staffordshire;Wyrley and Essington Canal;;W2.02;N52.64;10;
2;ENG;Staffordshire;Yarm;;W1.36;N54.50;10;
2;ENG;Staffordshire;Yarnfield;;W2.20;N52.88;10;
2;ENG;Staffordshire;Yew Tree;;W2.07;N53.47;10;
2;ENG;Staffordshire;Yoxall;;W1.79;N52.75;10;