"Level";"Country";"County";"Place";"void";"Longitude";"Latitude";"ZoomLevel";"Icon"
2;England;Leicestershire;Ab Kettleby;;W0.93;N52.80;10;
2;England;Leicestershire;Agar Nook;;W1.33;N52.72;10;
2;England;Leicestershire;Allexton;;W0.80;N52.59;10;
2;England;Leicestershire;Anker;;W1.55;N52.58;10;
2;England;Leicestershire;Annwell Place;;W1.49;N52.75;10;
2;England;Leicestershire;Anstey;;W1.20;N52.66;10;
2;England;Leicestershire;Appleby Magna;;W1.54;N52.67;10;
2;England;Leicestershire;Arnesby;;W1.10;N52.52;10;
2;England;Leicestershire;Asfordby;;W0.96;N52.76;10;
2;England;Leicestershire;Asfordby Hill;;W0.93;N52.76;10;
2;England;Leicestershire;Ashby Folville;;W0.96;N52.70;10;
2;England;Leicestershire;Ashby Magna;;W1.17;N52.50;10;
2;England;Leicestershire;Ashby Parva;;W1.23;N52.48;10;
2;England;Leicestershire;Ashby-de-la-Zouch;;W1.48;N52.74;10;
2;England;Leicestershire;Ashby-de-la-Zouch Canal;;W1.42;N52.62;10;
2;England;Leicestershire;Aston Flamville;;W1.32;N52.52;10;
2;England;Leicestershire;Atterton;;W1.48;N52.57;10;
2;England;Leicestershire;Avon;;W1.08;N52.43;10;
2;England;Leicestershire;Aylestone;;W1.15;N52.59;10;
2;England;Leicestershire;Aylestone Park;;W1.14;N52.60;10;
2;England;Leicestershire;Bagworth;;W1.35;N52.66;10;
2;England;Leicestershire;Bardon;;W1.33;N52.70;10;
2;England;Leicestershire;Barkby;;W1.06;N52.67;10;
2;England;Leicestershire;Barkby Thorpe;;W1.06;N52.67;10;
2;England;Leicestershire;Barkestone le Vale;;W0.84;N52.89;10;
2;England;Leicestershire;Barlestone;;W1.38;N52.64;10;
2;England;Leicestershire;Barrow upon Soar;;W1.15;N52.74;10;
2;England;Leicestershire;Barsby;;W0.98;N52.69;10;
2;England;Leicestershire;Barton in the Beans;;W1.42;N52.65;10;
2;England;Leicestershire;Barwell;;W1.35;N52.56;10;
2;England;Leicestershire;Battram;;W1.38;N52.67;10;
2;England;Leicestershire;Beaumont Leys;;W1.17;N52.66;10;
2;England;Leicestershire;Beeby;;W1.02;N52.66;10;
2;England;Leicestershire;Belcher's Bar;;W1.40;N52.66;10;
2;England;Leicestershire;Belgrave;;W1.12;N52.64;10;
2;England;Leicestershire;Belton;;W1.34;N52.77;10;
2;England;Leicestershire;Belvoir;;W0.78;N52.88;10;
2;England;Leicestershire;Bescaby;;W0.78;N52.82;10;
2;England;Leicestershire;Billesdon;;W0.95;N52.61;10;
2;England;Leicestershire;Bilstone;;W1.46;N52.64;10;
2;England;Leicestershire;Birstall;;W1.12;N52.67;10;
2;England;Leicestershire;Bitteswell;;W1.22;N52.46;10;
2;England;Leicestershire;Blaby;;W1.17;N52.56;10;
2;England;Leicestershire;Blackfordby;;W1.52;N52.75;10;
2;England;Leicestershire;Blaston;;W0.82;N52.54;10;
2;England;Leicestershire;Bondman Hays;;W1.27;N52.65;10;
2;England;Leicestershire;Botcheston;;W1.29;N52.63;10;
2;England;Leicestershire;Bottesford;;W0.81;N52.93;10;
2;England;Leicestershire;Boundary;;W1.51;N52.75;10;
2;England;Leicestershire;Branston;;W0.79;N52.85;10;
2;England;Leicestershire;Brascote;;W1.35;N52.61;10;
2;England;Leicestershire;Braunstone;;W1.18;N52.61;10;
2;England;Leicestershire;Breedon on the Hill;;W1.40;N52.79;10;
2;England;Leicestershire;Brentingby;;W0.84;N52.75;10;
2;England;Leicestershire;Bringhurst;;W0.76;N52.51;10;
2;England;Leicestershire;Brooksby;;W1.00;N52.73;10;
2;England;Leicestershire;Broughton Astley;;W1.23;N52.52;10;
2;England;Leicestershire;Broughton Lodges;;W0.96;N52.80;10;
2;England;Leicestershire;Bruntingthorpe;;W1.11;N52.49;10;
2;England;Leicestershire;Buckminster;;W0.71;N52.78;10;
2;England;Leicestershire;Bufton;;W1.41;N52.64;10;
2;England;Leicestershire;Bulwick;;W1.02;N52.54;10;
2;England;Leicestershire;Burbage;;W1.35;N52.52;10;
2;England;Leicestershire;Burrough on the Hill;;W0.89;N52.68;10;
2;England;Leicestershire;Burton Lazars;;W0.87;N52.73;10;
2;England;Leicestershire;Burton on the Wolds;;W1.12;N52.78;10;
2;England;Leicestershire;Burton Overy;;W1.01;N52.57;10;
2;England;Leicestershire;Bushby;;W1.04;N52.63;10;
2;England;Leicestershire;Cadeby;;W1.38;N52.61;10;
2;England;Leicestershire;Caldecott;;W0.73;N52.52;10;
2;England;Leicestershire;Care Village;;W0.93;N52.55;10;
2;England;Leicestershire;Carlton;;W1.42;N52.64;10;
2;England;Leicestershire;Carlton Curlieu;;W0.98;N52.56;10;
2;England;Leicestershire;Castle Donington;;W1.34;N52.83;10;
2;England;Leicestershire;Catthorpe;;W1.19;N52.39;10;
2;England;Leicestershire;Cavendish Bridge;;W1.34;N52.85;10;
2;England;Leicestershire;Chadwell;;W0.84;N52.80;10;
2;England;Leicestershire;Chater;;W0.52;N52.63;10;
2;England;Leicestershire;Chilcote;;W1.58;N52.69;10;
2;England;Leicestershire;Church Langton;;W0.93;N52.53;10;
2;England;Leicestershire;Church Town;;W1.42;N52.74;10;
2;England;Leicestershire;Clarendon Park;;W1.12;N52.61;10;
2;England;Leicestershire;Claybrooke Magna;;W1.27;N52.48;10;
2;England;Leicestershire;Claybrooke Parva;;W1.27;N52.47;10;
2;England;Leicestershire;Coalville;;W1.37;N52.71;10;
2;England;Leicestershire;Cold Newton;;W0.95;N52.64;10;
2;England;Leicestershire;Cold Overton;;W0.80;N52.68;10;
2;England;Leicestershire;Coleorton;;W1.40;N52.74;10;
2;England;Leicestershire;Coleorton Moor;;W1.40;N52.74;10;
2;England;Leicestershire;Congerstone;;W1.46;N52.64;10;
2;England;Leicestershire;Copt Oak;;W1.29;N52.70;10;
2;England;Leicestershire;Cosby;;W1.20;N52.55;10;
2;England;Leicestershire;Cossington;;W1.11;N52.71;10;
2;England;Leicestershire;Coston;;W0.75;N52.78;10;
2;England;Leicestershire;Cotes;;W1.18;N52.77;10;
2;England;Leicestershire;Cotesbach;;W1.22;N52.43;10;
2;England;Leicestershire;Countesthorpe;;W1.14;N52.55;10;
2;England;Leicestershire;Cranoe;;W0.89;N52.54;10;
2;England;Leicestershire;Croft;;W1.24;N52.55;10;
2;England;Leicestershire;Cropston;;W1.18;N52.69;10;
2;England;Leicestershire;Crown Hills;;W1.08;N52.63;10;
2;England;Leicestershire;Croxton Kerrial;;W0.76;N52.85;10;
2;England;Leicestershire;Dadlington;;W1.41;N52.57;10;
2;England;Leicestershire;Desford;;W1.30;N52.62;10;
2;England;Leicestershire;Devon;;W0.80;N52.94;10;
2;England;Leicestershire;Diseworth;;W1.33;N52.81;10;
2;England;Leicestershire;Dishley;;W1.24;N52.78;10;
2;England;Leicestershire;Donington le Heath;;W1.39;N52.70;10;
2;England;Leicestershire;Donisthorpe;;W1.54;N52.72;10;
2;England;Leicestershire;Drayton;;W0.77;N52.51;10;
2;England;Leicestershire;Dunton Bassett;;W1.20;N52.50;10;
2;England;Leicestershire;Earl Shilton;;W1.32;N52.56;10;
2;England;Leicestershire;East Goscote;;W1.05;N52.71;10;
2;England;Leicestershire;East Langton;;W0.94;N52.52;10;
2;England;Leicestershire;East Norton;;W0.84;N52.59;10;
2;England;Leicestershire;Easthorpe;;W0.79;N52.93;10;
2;England;Leicestershire;Eastwell;;W0.85;N52.84;10;
2;England;Leicestershire;Eaton;;W0.82;N52.85;10;
2;England;Leicestershire;Edmondthorpe;;W0.74;N52.74;10;
2;England;Leicestershire;Ellistown;;W1.36;N52.69;10;
2;England;Leicestershire;Elmsthorpe;;W1.32;N52.56;10;
2;England;Leicestershire;Enderby;;W1.21;N52.58;10;
2;England;Leicestershire;Evington;;W1.08;N52.62;10;
2;England;Leicestershire;Eye;;W0.76;N52.82;10;
2;England;Leicestershire;Eye Brook;;W0.83;N52.59;10;
2;England;Leicestershire;Eyebrook;;W0.76;N52.57;10;
2;England;Leicestershire;Eyebrook Reservoir;;W0.73;N52.54;10;
2;England;Leicestershire;Eyres Monsell;;W1.16;N52.58;10;
2;England;Leicestershire;Fairham Brook;;W1.03;N52.84;10;
2;England;Leicestershire;Far Coton;;W1.44;N52.61;10;
2;England;Leicestershire;Farm Town;;W1.42;N52.74;10;
2;England;Leicestershire;Fenny Drayton;;W1.48;N52.56;10;
2;England;Leicestershire;Field Head;;W1.27;N52.67;10;
2;England;Leicestershire;Fleckney;;W1.05;N52.53;10;
2;England;Leicestershire;Foston;;W1.11;N52.54;10;
2;England;Leicestershire;Foxton;;W0.97;N52.49;10;
2;England;Leicestershire;Freeby;;W0.81;N52.77;10;
2;England;Leicestershire;Frisby;;W0.96;N52.60;10;
2;England;Leicestershire;Frisby on the Wreake;;W0.97;N52.74;10;
2;England;Leicestershire;Frolesworth;;W1.26;N52.50;10;
2;England;Leicestershire;Gaddesby;;W0.99;N52.71;10;
2;England;Leicestershire;Garthorpe;;W0.77;N52.77;10;
2;England;Leicestershire;Gaulby;;W0.98;N52.59;10;
2;England;Leicestershire;Gelsmoor;;W1.40;N52.75;10;
2;England;Leicestershire;Gilmorton;;W1.16;N52.47;10;
2;England;Leicestershire;Glen Parva;;W1.17;N52.58;10;
2;England;Leicestershire;Glenfield;;W1.20;N52.64;10;
2;England;Leicestershire;Glooston;;W0.89;N52.54;10;
2;England;Leicestershire;Goadby;;W0.89;N52.57;10;
2;England;Leicestershire;Goadby Marwood;;W0.84;N52.82;10;
2;England;Leicestershire;Grand Union Canal;;W1.16;N52.57;10;
2;England;Leicestershire;Grantham Canal;;W0.98;N52.85;10;
2;England;Leicestershire;Great Bowden;;W0.91;N52.48;10;
2;England;Leicestershire;Great Dalby;;W0.90;N52.71;10;
2;England;Leicestershire;Great Easton;;W0.76;N52.52;10;
2;England;Leicestershire;Great Glen;;W1.04;N52.56;10;
2;England;Leicestershire;Great Stretton;;W1.04;N52.59;10;
2;England;Leicestershire;Greenhill;;W1.35;N52.71;10;
2;England;Leicestershire;Griffydam;;W1.39;N52.75;10;
2;England;Leicestershire;Grimston;;W0.99;N52.78;10;
2;England;Leicestershire;Groby;;W1.23;N52.65;10;
2;England;Leicestershire;Gumley;;W0.99;N52.50;10;
2;England;Leicestershire;Gwash;;W0.92;N52.68;10;
2;England;Leicestershire;Hallaton;;W0.85;N52.55;10;
2;England;Leicestershire;Halstead;;W0.89;N52.63;10;
2;England;Leicestershire;Harby;;W0.90;N52.87;10;
2;England;Leicestershire;Harston;;W0.76;N52.87;10;
2;England;Leicestershire;Hathern;;W1.25;N52.79;10;
2;England;Leicestershire;Heather;;W1.43;N52.68;10;
2;England;Leicestershire;Hemington;;W1.33;N52.84;10;
2;England;Leicestershire;Higham on the Hill;;W1.44;N52.55;10;
2;England;Leicestershire;Highfields;;W1.11;N52.63;10;
2;England;Leicestershire;Hinckley;;W1.38;N52.54;10;
2;England;Leicestershire;Hoby;;W1.02;N52.74;10;
2;England;Leicestershire;Hollycroft;;W1.39;N52.54;10;
2;England;Leicestershire;Holwell;;W0.91;N52.79;10;
2;England;Leicestershire;Horninghold;;W0.82;N52.56;10;
2;England;Leicestershire;Hose;;W0.91;N52.85;10;
2;England;Leicestershire;Hoton;;W1.15;N52.79;10;
2;England;Leicestershire;Houghton on the Hill;;W1.01;N52.62;10;
2;England;Leicestershire;Hugglescote;;W1.37;N52.70;10;
2;England;Leicestershire;Humberstone;;W1.08;N52.63;10;
2;England;Leicestershire;Huncote;;W1.24;N52.56;10;
2;England;Leicestershire;Hungarton;;W0.98;N52.65;10;
2;England;Leicestershire;Hunt's Lane;;W1.33;N52.62;10;
2;England;Leicestershire;Husbands Bosworth;;W1.05;N52.45;10;
2;England;Leicestershire;Ibstock;;W1.40;N52.68;10;
2;England;Leicestershire;Illston on the Hill;;W0.96;N52.58;10;
2;England;Leicestershire;Isley Walton;;W1.37;N52.82;10;
2;England;Leicestershire;John O'Gaunt;;W0.92;N52.67;10;
2;England;Leicestershire;Kegworth;;W1.28;N52.82;10;
2;England;Leicestershire;Keyham;;W1.01;N52.64;10;
2;England;Leicestershire;Kibworth Beauchamp;;W0.99;N52.53;10;
2;England;Leicestershire;Kibworth Harcourt;;W0.99;N52.53;10;
2;England;Leicestershire;Kilby;;W1.08;N52.54;10;
2;England;Leicestershire;Kilby Bridge;;W1.10;N52.56;10;
2;England;Leicestershire;Kimcote;;W1.14;N52.46;10;
2;England;Leicestershire;King's Norton;;W0.99;N52.59;10;
2;England;Leicestershire;Kirby Bellars;;W0.94;N52.74;10;
2;England;Leicestershire;Kirby Fields;;W1.23;N52.62;10;
2;England;Leicestershire;Kirby Muxloe;;W1.24;N52.63;10;
2;England;Leicestershire;Kirkby Mallory;;W1.33;N52.59;10;
2;England;Leicestershire;Knaptoft;;W1.08;N52.49;10;
2;England;Leicestershire;Knighton;;W1.13;N52.60;10;
2;England;Leicestershire;Knighton Fields;;W1.13;N52.60;10;
2;England;Leicestershire;Knipton;;W0.78;N52.87;10;
2;England;Leicestershire;Knossington;;W0.81;N52.66;10;
2;England;Leicestershire;Laughton;;W1.04;N52.49;10;
2;England;Leicestershire;Leesthorpe;;W0.84;N52.70;10;
2;England;Leicestershire;Leicester;;W1.14;N52.63;10;
2;England;Leicestershire;Leicester Forest East;;W1.21;N52.62;10;
2;England;Leicestershire;Leire;;W1.23;N52.50;10;
2;England;Leicestershire;Little Bowden;;W0.91;N52.47;10;
2;England;Leicestershire;Little Dalby;;W0.86;N52.71;10;
2;England;Leicestershire;Little Orton;;W1.54;N52.64;10;
2;England;Leicestershire;Little Stretton;;W1.02;N52.59;10;
2;England;Leicestershire;Little Twycross;;W1.51;N52.64;10;
2;England;Leicestershire;Littlethorpe;;W1.20;N52.55;10;
2;England;Leicestershire;Lockington;;W1.31;N52.83;10;
2;England;Leicestershire;Loddington;;W0.84;N52.61;10;
2;England;Leicestershire;Long Clawson;;W0.93;N52.83;10;
2;England;Leicestershire;Long Whatton;;W1.28;N52.80;10;
2;England;Leicestershire;Long Whatton Brook;;W1.30;N52.80;10;
2;England;Leicestershire;Loughborough;;W1.21;N52.76;10;
2;England;Leicestershire;Lount;;W1.43;N52.76;10;
2;England;Leicestershire;Lowesby;;W0.93;N52.65;10;
2;England;Leicestershire;Lubenham;;W0.97;N52.47;10;
2;England;Leicestershire;Lutterworth;;W1.20;N52.45;10;
2;England;Leicestershire;Marefield;;W0.90;N52.65;10;
2;England;Leicestershire;Market Bosworth;;W1.41;N52.62;10;
2;England;Leicestershire;Market Harborough;;W0.92;N52.47;10;
2;England;Leicestershire;Markfield;;W1.29;N52.68;10;
2;England;Leicestershire;Mease;;W1.55;N52.70;10;
2;England;Leicestershire;Measham;;W1.51;N52.70;10;
2;England;Leicestershire;Medbourne;;W0.83;N52.52;10;
2;England;Leicestershire;Melton Mowbray;;W0.88;N52.76;10;
2;England;Leicestershire;Merry Lees;;W1.30;N52.64;10;
2;England;Leicestershire;Misterton;;W1.19;N52.44;10;
2;England;Leicestershire;Moira;;W1.54;N52.73;10;
2;England;Leicestershire;Money Hill;;W1.48;N52.74;10;
2;England;Leicestershire;Mountsorrel;;W1.14;N52.72;10;
2;England;Leicestershire;Mowmacre Hill;;W1.15;N52.66;10;
2;England;Leicestershire;Mowsley;;W1.05;N52.49;10;
2;England;Leicestershire;Muston;;W0.78;N52.92;10;
2;England;Leicestershire;Nailstone;;W1.39;N52.65;10;
2;England;Leicestershire;Nanpantan;;W1.26;N52.74;10;
2;England;Leicestershire;Narborough;;W1.20;N52.56;10;
2;England;Leicestershire;Nether Broughton;;W0.97;N52.81;10;
2;England;Leicestershire;Nether End;;W0.90;N52.71;10;
2;England;Leicestershire;Nether Hall;;W1.07;N52.64;10;
2;England;Leicestershire;New Parks;;W1.18;N52.64;10;
2;England;Leicestershire;New Swannington;;W1.37;N52.73;10;
2;England;Leicestershire;Newbold;;W0.87;N52.67;10;
2;England;Leicestershire;Newbold;;W1.40;N52.76;10;
2;England;Leicestershire;Newbold Heath;;W1.35;N52.64;10;
2;England;Leicestershire;Newbold Verdon;;W1.35;N52.62;10;
2;England;Leicestershire;Newton Burgoland;;W1.45;N52.67;10;
2;England;Leicestershire;Newton Harcourt;;W1.07;N52.55;10;
2;England;Leicestershire;Newtown Linford;;W1.24;N52.67;10;
2;England;Leicestershire;Newtown Linford;;W1.24;N52.68;10;
2;England;Leicestershire;Newtown Unthank;;W1.27;N52.63;10;
2;England;Leicestershire;Normanton;;W0.79;N52.95;10;
2;England;Leicestershire;Normanton le Heath;;W1.45;N52.70;10;
2;England;Leicestershire;Normanton on Soar;;W1.24;N52.80;10;
2;England;Leicestershire;Normanton Turville;;W1.27;N52.57;10;
2;England;Leicestershire;Norris Hill;;W1.52;N52.74;10;
2;England;Leicestershire;North End;;W1.15;N52.72;10;
2;England;Leicestershire;North Evington;;W1.10;N52.63;10;
2;England;Leicestershire;North Kilworth;;W1.10;N52.44;10;
2;England;Leicestershire;Norton-Juxta-Twycross;;W1.52;N52.65;10;
2;England;Leicestershire;Noseley;;W0.92;N52.57;10;
2;England;Leicestershire;Oadby;;W1.08;N52.59;10;
2;England;Leicestershire;Oaks in Charnwood;;W1.30;N52.73;10;
2;England;Leicestershire;Oakthorpe;;W1.52;N52.71;10;
2;England;Leicestershire;Odstone;;W1.42;N52.65;10;
2;England;Leicestershire;Old Dalby;;W1.00;N52.80;10;
2;England;Leicestershire;Orton-on-the-Hill;;W1.55;N52.62;10;
2;England;Leicestershire;Osbaston;;W1.38;N52.63;10;
2;England;Leicestershire;Osbaston Hollow;;W1.39;N52.65;10;
2;England;Leicestershire;Osgathorpe;;W1.36;N52.76;10;
2;England;Leicestershire;Outwoods;;W1.40;N52.75;10;
2;England;Leicestershire;Owston;;W0.86;N52.65;10;
2;England;Leicestershire;Packington;;W1.46;N52.72;10;
2;England;Leicestershire;Peatling Magna;;W1.13;N52.52;10;
2;England;Leicestershire;Peatling Parva;;W1.14;N52.49;10;
2;England;Leicestershire;Peckleton;;W1.32;N52.59;10;
2;England;Leicestershire;Peggs Green;;W1.39;N52.74;10;
2;England;Leicestershire;Pickwell;;W0.84;N52.69;10;
2;England;Leicestershire;Pinwall;;W1.55;N52.59;10;
2;England;Leicestershire;Plungar;;W0.87;N52.88;10;
2;England;Leicestershire;Potter Hill;;W0.91;N52.78;10;
2;England;Leicestershire;Potters Marston;;W1.27;N52.55;10;
2;England;Leicestershire;Prestwold;;W1.15;N52.78;10;
2;England;Leicestershire;Primethorpe;;W1.23;N52.53;10;
2;England;Leicestershire;Queniborough;;W1.05;N52.70;10;
2;England;Leicestershire;Quorn (Quorndon);;W1.17;N52.73;10;
2;England;Leicestershire;Quorndon (Quorn);;W1.17;N52.73;10;
2;England;Leicestershire;Ragdale;;W1.02;N52.76;10;
2;England;Leicestershire;Ratby;;W1.24;N52.64;10;
2;England;Leicestershire;Ratcliffe Culey;;W1.52;N52.58;10;
2;England;Leicestershire;Ratcliffe on Soar;;W1.27;N52.85;10;
2;England;Leicestershire;Ratcliffe on the Wreake;;W1.06;N52.72;10;
2;England;Leicestershire;Ravenstone;;W1.40;N52.71;10;
2;England;Leicestershire;Rearsby;;W1.03;N52.72;10;
2;England;Leicestershire;Red Hill;;W1.21;N52.56;10;
2;England;Leicestershire;Redmile;;W0.82;N52.90;10;
2;England;Leicestershire;Ringing Hill;;W1.33;N52.75;10;
2;England;Leicestershire;Rolleston;;W0.92;N52.59;10;
2;England;Leicestershire;Rotherby;;W1.00;N52.73;10;
2;England;Leicestershire;Rothley;;W1.21;N52.64;10;
2;England;Leicestershire;Rothley;;W1.14;N52.70;10;
2;England;Leicestershire;Rothley Plain;;W1.17;N52.71;10;
2;England;Leicestershire;Rushey Mead;;W1.11;N52.65;10;
2;England;Leicestershire;Rutland Water;;W0.65;N52.64;10;
2;England;Leicestershire;Saddington;;W1.04;N52.51;10;
2;England;Leicestershire;Saltby;;W0.73;N52.82;10;
2;England;Leicestershire;Sapcote;;W1.29;N52.53;10;
2;England;Leicestershire;Sawley;;W1.30;N52.87;10;
2;England;Leicestershire;Saxby;;W0.78;N52.77;10;
2;England;Leicestershire;Saxelbye;;W0.96;N52.77;10;
2;England;Leicestershire;Scalford;;W0.87;N52.80;10;
2;England;Leicestershire;Scotland;;W0.99;N52.57;10;
2;England;Leicestershire;Scotland;;W1.43;N52.79;10;
2;England;Leicestershire;Scraptoft;;W1.05;N52.63;10;
2;England;Leicestershire;Seagrave;;W1.09;N52.74;10;
2;England;Leicestershire;Sence;;W1.12;N52.56;10;
2;England;Leicestershire;Sewstern;;W0.69;N52.77;10;
2;England;Leicestershire;Shackerstone;;W1.45;N52.65;10;
2;England;Leicestershire;Shangton;;W0.95;N52.55;10;
2;England;Leicestershire;Sharnford;;W1.29;N52.51;10;
2;England;Leicestershire;Shawell;;W1.20;N52.41;10;
2;England;Leicestershire;Shearsby;;W1.08;N52.50;10;
2;England;Leicestershire;Sheepy Magna;;W1.52;N52.60;10;
2;England;Leicestershire;Sheepy Parva;;W1.51;N52.60;10;
2;England;Leicestershire;Shellbrook;;W1.51;N52.74;10;
2;England;Leicestershire;Shelthorpe;;W1.21;N52.74;10;
2;England;Leicestershire;Shenton;;W1.44;N52.59;10;
2;England;Leicestershire;Shepshed;;W1.30;N52.76;10;
2;England;Leicestershire;Shoby;;W0.99;N52.77;10;
2;England;Leicestershire;Sibson;;W1.48;N52.59;10;
2;England;Leicestershire;Sileby;;W1.11;N52.72;10;
2;England;Leicestershire;Six Hills;;W1.05;N52.77;10;
2;England;Leicestershire;Skeffington;;W0.90;N52.61;10;
2;England;Leicestershire;Sketchley;;W1.38;N52.52;10;
2;England;Leicestershire;Slawston;;W0.86;N52.53;10;
2;England;Leicestershire;Smeeton Westerby;;W1.01;N52.52;10;
2;England;Leicestershire;Snarestone;;W1.49;N52.67;10;
2;England;Leicestershire;Snibston;;W1.39;N52.71;10;
2;England;Leicestershire;Soar;;W1.12;N52.71;10;
2;England;Leicestershire;Somerby;;W0.86;N52.68;10;
2;England;Leicestershire;South Croxton;;W0.99;N52.68;10;
2;England;Leicestershire;South Kilworth;;W1.11;N52.42;10;
2;England;Leicestershire;South Knighton;;W1.11;N52.60;10;
2;England;Leicestershire;South Wigston;;W1.13;N52.57;10;
2;England;Leicestershire;Spinney Hills;;W1.11;N52.63;10;
2;England;Leicestershire;Sproxton;;W0.74;N52.80;10;
2;England;Leicestershire;Stanford on Soar;;W1.20;N52.79;10;
2;England;Leicestershire;Stanton under Bardon;;W1.32;N52.68;10;
2;England;Leicestershire;Stapleford;;W0.80;N52.75;10;
2;England;Leicestershire;Stapleton;;W1.36;N52.57;10;
2;England;Leicestershire;Stathern;;W0.85;N52.87;10;
2;England;Leicestershire;Stockerston;;W0.77;N52.56;10;
2;England;Leicestershire;Stoke Dry;;W0.74;N52.55;10;
2;England;Leicestershire;Stoke Golding;;W1.41;N52.56;10;
2;England;Leicestershire;Stonesby;;W0.78;N52.80;10;
2;England;Leicestershire;Stoney Stanton;;W1.27;N52.54;10;
2;England;Leicestershire;Stoneygate;;W1.11;N52.61;10;
2;England;Leicestershire;Stonton Wyville;;W0.92;N52.54;10;
2;England;Leicestershire;Stoughton;;W1.05;N52.61;10;
2;England;Leicestershire;Stretton en le Field;;W1.55;N52.69;10;
2;England;Leicestershire;Sutton Cheney;;W1.39;N52.59;10;
2;England;Leicestershire;Sutton in the Elms;;W1.24;N52.53;10;
2;England;Leicestershire;Swannington;;W1.39;N52.74;10;
2;England;Leicestershire;Swepstone;;W1.46;N52.68;10;
2;England;Leicestershire;Swift;;W1.21;N52.44;10;
2;England;Leicestershire;Swinford;;W1.17;N52.40;10;
2;England;Leicestershire;Swithland;;W1.18;N52.71;10;
2;England;Leicestershire;Syston;;W1.08;N52.69;10;
2;England;Leicestershire;The Brand;;W1.21;N52.71;10;
2;England;Leicestershire;The Cross Hands;;W1.51;N52.61;10;
2;England;Leicestershire;The Valley;;W0.94;N52.76;10;
2;England;Leicestershire;The Woodlands;;W1.04;N52.55;10;
2;England;Leicestershire;Theddingworth;;W1.02;N52.45;10;
2;England;Leicestershire;Thornton;;W1.32;N52.65;10;
2;England;Leicestershire;Thorpe Acre;;W1.24;N52.77;10;
2;England;Leicestershire;Thorpe Arnold;;W0.85;N52.77;10;
2;England;Leicestershire;Thorpe Langton;;W0.91;N52.52;10;
2;England;Leicestershire;Thorpe Satchville;;W0.92;N52.69;10;
2;England;Leicestershire;Thringstone;;W1.37;N52.74;10;
2;England;Leicestershire;Thrussington;;W1.05;N52.72;10;
2;England;Leicestershire;Thurcaston;;W1.17;N52.68;10;
2;England;Leicestershire;Thurlaston;;W1.26;N52.58;10;
2;England;Leicestershire;Thurmaston;;W1.09;N52.67;10;
2;England;Leicestershire;Thurnby;;W1.05;N52.63;10;
2;England;Leicestershire;Tilton on the Hill;;W0.90;N52.63;10;
2;England;Leicestershire;Tonge;;W1.39;N52.80;10;
2;England;Leicestershire;Trent;;W1.16;N52.74;10;
2;England;Leicestershire;Tugby;;W0.87;N52.59;10;
2;England;Leicestershire;Tur Langton;;W0.95;N52.53;10;
2;England;Leicestershire;Twycross;;W1.51;N52.63;10;
2;England;Leicestershire;Twyford;;W0.93;N52.68;10;
2;England;Leicestershire;Ullesthorpe;;W1.26;N52.47;10;
2;England;Leicestershire;Upper Bruntingthorpe;;W1.11;N52.48;10;
2;England;Leicestershire;Upper End;;W0.90;N52.71;10;
2;England;Leicestershire;Upton;;W1.47;N52.58;10;
2;England;Leicestershire;Walcote;;W1.17;N52.44;10;
2;England;Leicestershire;Waltham on the Wolds;;W0.81;N52.81;10;
2;England;Leicestershire;Walton;;W1.13;N52.47;10;
2;England;Leicestershire;Walton on the Wolds;;W1.12;N52.76;10;
2;England;Leicestershire;Wanlip;;W1.11;N52.68;10;
2;England;Leicestershire;Wartnaby;;W0.94;N52.80;10;
2;England;Leicestershire;Welham;;W0.88;N52.52;10;
2;England;Leicestershire;Welland;;W0.72;N52.52;10;
2;England;Leicestershire;Wellsborough;;W1.46;N52.61;10;
2;England;Leicestershire;West End;;W1.37;N52.76;10;
2;England;Leicestershire;West Meadow Brook;;W1.34;N52.77;10;
2;England;Leicestershire;Westcotes;;W1.15;N52.62;10;
2;England;Leicestershire;Western Park;;W1.17;N52.63;10;
2;England;Leicestershire;Whetstone;;W1.18;N52.56;10;
2;England;Leicestershire;Whitwick;;W1.36;N52.74;10;
2;England;Leicestershire;Wigston;;W1.11;N52.58;10;
2;England;Leicestershire;Wigston Magna;;W1.10;N52.56;10;
2;England;Leicestershire;Wigston Magna;;W1.11;N52.57;10;
2;England;Leicestershire;Willesley;;W1.49;N52.72;10;
2;England;Leicestershire;Willoughby Waterleys;;W1.16;N52.52;10;
2;England;Leicestershire;Wilson;;W1.40;N52.81;10;
2;England;Leicestershire;Wistow;;W1.05;N52.54;10;
2;England;Leicestershire;Woodhouse;;W1.20;N52.73;10;
2;England;Leicestershire;Woodhouse Eaves;;W1.23;N52.72;10;
2;England;Leicestershire;Woodthorpe;;W1.20;N52.74;10;
2;England;Leicestershire;Woolsthorpe By Belvoir;;W0.76;N52.89;10;
2;England;Leicestershire;Worthington;;W1.40;N52.77;10;
2;England;Leicestershire;Wreake;;W1.10;N52.69;10;
2;England;Leicestershire;Wycomb;;W0.85;N52.80;10;
2;England;Leicestershire;Wyfordby;;W0.83;N52.75;10;
2;England;Leicestershire;Wykin;;W1.41;N52.55;10;
2;England;Leicestershire;Wymeswold;;W1.11;N52.80;10;
2;England;Leicestershire;Wymondham;;W0.74;N52.75;10;
2;England;Leicestershire;Zouch;;W1.25;N52.80;10;