"Level";"Country";"County";"Place";"void";"Longitude";"Latitude";"ZoomLevel";"Icon"
2;England;Cornwall;Addington;;W4.46;N50.45;10; 
2;England;Cornwall;Alfardisworthy;;W4.43;N50.87;10; 
2;England;Cornwall;Allen;;W5.04;N50.29;10; 
2;England;Cornwall;Allet;;W5.10;N50.29;10; 
2;England;Cornwall;Altarnun;;W4.51;N50.60;10; 
2;England;Cornwall;Amalebra;;W5.51;N50.17;10; 
2;England;Cornwall;Amalveor;;W5.53;N50.17;10; 
2;England;Cornwall;Anderton;;W4.22;N50.33;10; 
2;England;Cornwall;Angarrack;;W5.39;N50.19;10; 
2;England;Cornwall;Angarrick;;W5.09;N50.19;10; 
2;England;Cornwall;Anthony;;W4.26;N50.36;10; 
2;England;Cornwall;Antony Passage;;W4.23;N50.39;10; 
2;England;Cornwall;Ashill;;W5.20;N50.13;10; 
2;England;Cornwall;Ashton;;W5.35;N50.10;10; 
2;England;Cornwall;Badgall;;W4.50;N50.64;10; 
2;England;Cornwall;Badharlick;;W4.46;N50.64;10; 
2;England;Cornwall;Bakesdown;;W4.49;N50.77;10; 
2;England;Cornwall;Baldhu;;W5.12;N50.23;10; 
2;England;Cornwall;Ball;;W4.82;N50.52;10; 
2;England;Cornwall;Balwest;;W5.37;N50.12;10; 
2;England;Cornwall;Bangors;;W4.55;N50.76;10; 
2;England;Cornwall;Banns;;W5.23;N50.28;10; 
2;England;Cornwall;Barcelona;;W4.51;N50.34;10; 
2;England;Cornwall;Bareppa;;W5.10;N50.11;10; 
2;England;Cornwall;Barkla Shop;;W5.18;N50.30;10; 
2;England;Cornwall;Barripper;;W5.32;N50.19;10; 
2;England;Cornwall;Bathpool;;W4.42;N50.54;10; 
2;England;Cornwall;Beacon;;W5.29;N50.20;10; 
2;England;Cornwall;Bealbury;;W4.29;N50.47;10; 
2;England;Cornwall;Bealsmill;;W4.33;N50.56;10; 
2;England;Cornwall;Beeny;;W4.67;N50.69;10; 
2;England;Cornwall;Belowda;;W4.87;N50.41;10; 
2;England;Cornwall;Bennacott;;W4.42;N50.70;10; 
2;England;Cornwall;Berepper;;W5.28;N50.05;10; 
2;England;Cornwall;Berriowbridge;;W4.44;N50.54;10; 
2;England;Cornwall;Bethany;;W4.36;N50.40;10; 
2;England;Cornwall;Bethel;;W4.76;N50.33;10; 
2;England;Cornwall;Bilberry;;W4.78;N50.40;10; 
2;England;Cornwall;Billacott;;W4.47;N50.68;10; 
2;England;Cornwall;Biscovey;;W4.72;N50.34;10; 
2;England;Cornwall;Bishop's Quay;;W5.18;N50.08;10; 
2;England;Cornwall;Bissoe;;W5.12;N50.22;10; 
2;England;Cornwall;Bissom;;W5.09;N50.16;10; 
2;England;Cornwall;Black Cross;;W4.95;N50.40;10; 
2;England;Cornwall;Black Head;;W5.10;N50.00;10; 
2;England;Cornwall;Black Head;;W4.75;N50.30;10; 
2;England;Cornwall;Black Rock;;W5.27;N50.15;10; 
2;England;Cornwall;Blackwater;;W5.18;N50.27;10; 
2;England;Cornwall;Blisland;;W4.68;N50.52;10; 
2;England;Cornwall;Blowinghouse;;W5.17;N50.31;10; 
2;England;Cornwall;Blue Anchor;;W4.94;N50.37;10; 
2;England;Cornwall;Blunts;;W4.33;N50.44;10; 
2;England;Cornwall;Bocaddon;;W4.57;N50.39;10; 
2;England;Cornwall;Bodellick;;W4.89;N50.52;10; 
2;England;Cornwall;Bodelva;;W4.74;N50.35;10; 
2;England;Cornwall;Bodieve;;W4.83;N50.52;10; 
2;England;Cornwall;Bodiggo;;W4.75;N50.38;10; 
2;England;Cornwall;Bodilly;;W5.27;N50.14;10; 
2;England;Cornwall;Bodinnick;;W4.62;N50.33;10; 
2;England;Cornwall;Bodmin;;W4.73;N50.47;10; 
2;England;Cornwall;Bodmin Moor;;W4.53;N50.57;10; 
2;England;Cornwall;Boduel;;W4.50;N50.43;10; 
2;England;Cornwall;Bodwen;;W4.77;N50.40;10; 
2;England;Cornwall;Bofarnel;;W4.67;N50.43;10; 
2;England;Cornwall;Bohetherick;;W4.24;N50.48;10; 
2;England;Cornwall;Bohortha;;W4.99;N50.14;10; 
2;England;Cornwall;Bojewyan;;W5.65;N50.14;10; 
2;England;Cornwall;Bokiddick;;W4.74;N50.42;10; 
2;England;Cornwall;Bolenowe;;W5.26;N50.18;10; 
2;England;Cornwall;Bolingey;;W5.14;N50.33;10; 
2;England;Cornwall;Bolitho;;W5.27;N50.15;10; 
2;England;Cornwall;Bolventor;;W4.57;N50.55;10; 
2;England;Cornwall;Boquio;;W5.26;N50.15;10; 
2;England;Cornwall;Boscadjack;;W5.27;N50.13;10; 
2;England;Cornwall;Boscastle;;W4.70;N50.67;10; 
2;England;Cornwall;Boscean;;W5.69;N50.12;10; 
2;England;Cornwall;Boscoppa;;W4.77;N50.34;10; 
2;England;Cornwall;Boscreege;;W5.37;N50.12;10; 
2;England;Cornwall;Boskednan;;W5.58;N50.15;10; 
2;England;Cornwall;Boskenna;;W5.60;N50.05;10; 
2;England;Cornwall;Bosleake;;W5.26;N50.21;10; 
2;England;Cornwall;Boslowick;;W5.09;N50.13;10; 
2;England;Cornwall;Boslymon;;W4.70;N50.41;10; 
2;England;Cornwall;Bosoughan;;W4.99;N50.40;10; 
2;England;Cornwall;Bosporthennis;;W5.60;N50.16;10; 
2;England;Cornwall;Bossiney;;W4.74;N50.65;10; 
2;England;Cornwall;Boswednack;;W5.58;N50.17;10; 
2;England;Cornwall;Boswin;;W5.23;N50.16;10; 
2;England;Cornwall;Boswinger;;W4.82;N50.23;10; 
2;England;Cornwall;Boswyn;;W5.27;N50.17;10; 
2;England;Cornwall;Botallack;;W5.69;N50.12;10; 
2;England;Cornwall;Botternell;;W4.44;N50.54;10; 
2;England;Cornwall;Bottoms;;W5.66;N50.05;10; 
2;England;Cornwall;Botusfleming;;W4.25;N50.42;10; 
2;England;Cornwall;Bowithick;;W4.57;N50.60;10; 
2;England;Cornwall;Bowling Green;;W4.78;N50.38;10; 
2;England;Cornwall;Bowling Green;;W4.31;N50.50;10; 
2;England;Cornwall;Box's Shop;;W4.54;N50.78;10; 
2;England;Cornwall;Boyton;;W4.39;N50.69;10; 
2;England;Cornwall;Braddock;;W4.59;N50.42;10; 
2;England;Cornwall;Bradford;;W4.66;N50.54;10; 
2;England;Cornwall;Brane;;W5.63;N50.09;10; 
2;England;Cornwall;Bray Shop;;W4.35;N50.54;10; 
2;England;Cornwall;Brazacott;;W4.46;N50.69;10; 
2;England;Cornwall;Brea;;W5.28;N50.21;10; 
2;England;Cornwall;Breage;;W5.34;N50.10;10; 
2;England;Cornwall;Brent;;W4.51;N50.33;10; 
2;England;Cornwall;Bridge;;W5.19;N50.11;10; 
2;England;Cornwall;Bridge;;W5.27;N50.25;10; 
2;England;Cornwall;Bridgend;;W4.67;N50.40;10; 
2;England;Cornwall;Bridges;;W4.75;N50.38;10; 
2;England;Cornwall;Bridgetown;;W4.35;N50.67;10; 
2;England;Cornwall;Brighton;;W4.95;N50.34;10; 
2;England;Cornwall;Brill;;W5.19;N50.11;10; 
2;England;Cornwall;Broad Lane;;W5.26;N50.23;10; 
2;England;Cornwall;Broadlane;;W5.34;N50.12;10; 
2;England;Cornwall;Brocton;;W4.80;N50.47;10; 
2;England;Cornwall;Brooks;;W4.60;N50.41;10; 
2;England;Cornwall;Brunnion;;W5.50;N50.17;10; 
2;England;Cornwall;Bude;;W4.54;N50.82;10; 
2;England;Cornwall;Budge's Shop;;W4.36;N50.40;10; 
2;England;Cornwall;Budock Water;;W5.10;N50.14;10; 
2;England;Cornwall;Bugle;;W4.80;N50.38;10; 
2;England;Cornwall;Burgois;;W4.93;N50.51;10; 
2;England;Cornwall;Burlawn;;W4.83;N50.49;10; 
2;England;Cornwall;Burlorne Tregoose;;W4.80;N50.48;10; 
2;England;Cornwall;Burniere;;W4.85;N50.52;10; 
2;England;Cornwall;Burnthouse;;W5.13;N50.18;10; 
2;England;Cornwall;Burras;;W5.26;N50.16;10; 
2;England;Cornwall;Burraton;;W4.23;N50.40;10; 
2;England;Cornwall;Burraton Coombe;;W4.23;N50.40;10; 
2;England;Cornwall;Buryas Br;;W5.58;N50.10;10; 
2;England;Cornwall;Bush;;W4.51;N50.83;10; 
2;England;Cornwall;Busveal;;W5.21;N50.22;10; 
2;England;Cornwall;Butteriss Gate;;W5.20;N50.15;10; 
2;England;Cornwall;Buttsbear Cross;;W4.47;N50.80;10; 
2;England;Cornwall;Cadgwith;;W5.18;N49.98;10; 
2;England;Cornwall;Calenick;;W5.05;N50.24;10; 
2;England;Cornwall;Callestick;;W5.13;N50.30;10; 
2;England;Cornwall;Callington;;W4.31;N50.49;10; 
2;England;Cornwall;Calloose;;W5.37;N50.16;10; 
2;England;Cornwall;Calvadnack;;W5.23;N50.17;10; 
2;England;Cornwall;Cambeak;;W4.64;N50.73;10; 
2;England;Cornwall;Camborne;;W5.30;N50.21;10; 
2;England;Cornwall;Cambrose;;W5.25;N50.25;10; 
2;England;Cornwall;Camel;;W4.73;N50.49;10; 
2;England;Cornwall;Camelford;;W4.68;N50.61;10; 
2;England;Cornwall;Cannalidgey;;W4.91;N50.48;10; 
2;England;Cornwall;Canonstown;;W5.46;N50.16;10; 
2;England;Cornwall;Canworthy Water;;W4.52;N50.69;10; 
2;England;Cornwall;Cape Cornwall;;W5.70;N50.12;10; 
2;England;Cornwall;Caradon Town;;W4.41;N50.51;10; 
2;England;Cornwall;Carbis;;W4.81;N50.39;10; 
2;England;Cornwall;Carbis Bay;;W5.47;N50.19;10; 
2;England;Cornwall;Carclaze;;W4.78;N50.35;10; 
2;England;Cornwall;Carclew;;W5.11;N50.20;10; 
2;England;Cornwall;Cardinham;;W4.65;N50.48;10; 
2;England;Cornwall;Carey Park;;W4.51;N50.33;10; 
2;England;Cornwall;Carfury;;W5.58;N50.15;10; 
2;England;Cornwall;Cargreen;;W4.21;N50.43;10; 
2;England;Cornwall;Carharrack;;W5.18;N50.22;10; 
2;England;Cornwall;Carkeel;;W4.23;N50.41;10; 
2;England;Cornwall;Carleen;;W5.34;N50.12;10; 
2;England;Cornwall;Carlidnack;;W5.12;N50.11;10; 
2;England;Cornwall;Carloggas;;W4.88;N50.35;10; 
2;England;Cornwall;Carloggas;;W5.00;N50.44;10; 
2;England;Cornwall;Carluddon;;W4.78;N50.36;10; 
2;England;Cornwall;Carlyon Bay;;W4.74;N50.33;10; 
2;England;Cornwall;Carminow Cross;;W4.70;N50.45;10; 
2;England;Cornwall;Carn Arthen;;W5.26;N50.20;10; 
2;England;Cornwall;Carn Brea Village;;W5.25;N50.22;10; 
2;England;Cornwall;Carn Towan;;W5.69;N50.07;10; 
2;England;Cornwall;Carne;;W5.11;N50.07;10; 
2;England;Cornwall;Carne;;W4.93;N50.20;10; 
2;England;Cornwall;Carne;;W4.88;N50.38;10; 
2;England;Cornwall;Carnebone;;W5.22;N50.13;10; 
2;England;Cornwall;Carnhell Green;;W5.34;N50.18;10; 
2;England;Cornwall;Carnhot;;W5.17;N50.26;10; 
2;England;Cornwall;Carnkie;;W5.20;N50.16;10; 
2;England;Cornwall;Carnkie;;W5.25;N50.20;10; 
2;England;Cornwall;Carnkief;;W5.12;N50.32;10; 
2;England;Cornwall;Carnon Downs;;W5.09;N50.21;10; 
2;England;Cornwall;Carnon River;;W5.13;N50.19;10; 
2;England;Cornwall;Carnsmerry;;W4.80;N50.38;10; 
2;England;Cornwall;Carnyorth;;W5.68;N50.13;10; 
2;England;Cornwall;Caroe;;W4.60;N50.68;10; 
2;England;Cornwall;Carpalla;;W4.86;N50.35;10; 
2;England;Cornwall;Carthamartha;;W4.31;N50.56;10; 
2;England;Cornwall;Carthew;;W5.25;N50.17;10; 
2;England;Cornwall;Carthew;;W4.81;N50.36;10; 
2;England;Cornwall;Carwynnen;;W5.29;N50.18;10; 
2;England;Cornwall;Carzise;;W5.37;N50.15;10; 
2;England;Cornwall;Castallack;;W5.56;N50.07;10; 
2;England;Cornwall;Castle Gate;;W5.51;N50.15;10; 
2;England;Cornwall;Catchall;;W5.59;N50.08;10; 
2;England;Cornwall;Cawsand;;W4.20;N50.32;10; 
2;England;Cornwall;Chacewater;;W5.15;N50.25;10; 
2;England;Cornwall;Chapel;;W5.04;N50.40;10; 
2;England;Cornwall;Chapel Amble;;W4.83;N50.54;10; 
2;England;Cornwall;Chapel Point;;W4.77;N50.25;10; 
2;England;Cornwall;Chapeltown;;W4.98;N50.35;10; 
2;England;Cornwall;Charaton;;W4.39;N50.49;10; 
2;England;Cornwall;Charlestown;;W4.75;N50.32;10; 
2;England;Cornwall;Chenhalls;;W5.43;N50.16;10; 
2;England;Cornwall;Chilsworthy;;W4.24;N50.52;10; 
2;England;Cornwall;Church Coombe;;W5.23;N50.21;10; 
2;England;Cornwall;Church Cove;;W5.19;N49.96;10; 
2;England;Cornwall;Church Town;;W5.24;N50.22;10; 
2;England;Cornwall;Churchbridge;;W4.52;N50.39;10; 
2;England;Cornwall;Churchtown;;W4.69;N50.56;10; 
2;England;Cornwall;Chyandour;;W5.54;N50.11;10; 
2;England;Cornwall;Chyanvounder;;W5.28;N50.05;10; 
2;England;Cornwall;Chycoose;;W5.08;N50.20;10; 
2;England;Cornwall;Chynhale;;W5.30;N50.12;10; 
2;England;Cornwall;Chynoweth;;W5.44;N50.12;10; 
2;England;Cornwall;Chyvarloe;;W5.28;N50.06;10; 
2;England;Cornwall;Clapper;;W4.82;N50.50;10; 
2;England;Cornwall;Clerkenwater;;W4.73;N50.47;10; 
2;England;Cornwall;Clowance Wood;;W5.33;N50.15;10; 
2;England;Cornwall;Clubworthy;;W4.45;N50.70;10; 
2;England;Cornwall;Coad's Green;;W4.41;N50.55;10; 
2;England;Cornwall;Cober;;W5.25;N50.13;10; 
2;England;Cornwall;Cocks;;W5.14;N50.32;10; 
2;England;Cornwall;Cockwells;;W5.47;N50.15;10; 
2;England;Cornwall;Colan;;W5.01;N50.40;10; 
2;England;Cornwall;Cold Northcott;;W4.54;N50.64;10; 
2;England;Cornwall;Coldharbour;;W5.16;N50.28;10; 
2;England;Cornwall;Coldvreath;;W4.84;N50.38;10; 
2;England;Cornwall;Collamoor Head;;W4.59;N50.70;10; 
2;England;Cornwall;Colliford Lake Reservoir;;W4.58;N50.51;10; 
2;England;Cornwall;Come-to-Good;;W5.07;N50.21;10; 
2;England;Cornwall;Comford;;W5.18;N50.20;10; 
2;England;Cornwall;Comfort;;W5.17;N50.11;10; 
2;England;Cornwall;Common Moor;;W4.48;N50.49;10; 
2;England;Cornwall;Congdon's Shop;;W4.44;N50.57;10; 
2;England;Cornwall;Connon;;W4.55;N50.42;10; 
2;England;Cornwall;Connor Downs;;W5.37;N50.20;10; 
2;England;Cornwall;Constantine;;W5.17;N50.11;10; 
2;England;Cornwall;Constantine Bay;;W5.02;N50.52;10; 
2;England;Cornwall;Cooksland;;W4.70;N50.47;10; 
2;England;Cornwall;Coombe;;W5.04;N50.22;10; 
2;England;Cornwall;Coombe;;W5.14;N50.22;10; 
2;England;Cornwall;Coombe;;W5.33;N50.23;10; 
2;England;Cornwall;Coombe;;W4.88;N50.32;10; 
2;England;Cornwall;Coombe;;W4.49;N50.44;10; 
2;England;Cornwall;Coombe;;W4.55;N50.87;10; 
2;England;Cornwall;Coppathorne;;W4.54;N50.77;10; 
2;England;Cornwall;Copperhouse;;W5.40;N50.18;10; 
2;England;Cornwall;Copthorne;;W4.46;N50.70;10; 
2;England;Cornwall;Corgee;;W4.76;N50.40;10; 
2;England;Cornwall;Costislost;;W4.79;N50.49;10; 
2;England;Cornwall;Coswinsawsin;;W5.33;N50.19;10; 
2;England;Cornwall;Cotts;;W4.21;N50.46;10; 
2;England;Cornwall;Couch's Mill;;W4.61;N50.40;10; 
2;England;Cornwall;Coverack;;W5.10;N50.02;10; 
2;England;Cornwall;Coverack Bridges;;W5.27;N50.12;10; 
2;England;Cornwall;Cowlands;;W5.05;N50.21;10; 
2;England;Cornwall;Cox Hill;;W5.17;N50.24;10; 
2;England;Cornwall;Coxford;;W4.60;N50.73;10; 
2;England;Cornwall;Coxpark;;W4.25;N50.52;10; 
2;England;Cornwall;Crackington Haven;;W4.63;N50.73;10; 
2;England;Cornwall;Crafthole;;W4.30;N50.36;10; 
2;England;Cornwall;Crahan;;W5.24;N50.12;10; 
2;England;Cornwall;Crantock;;W5.11;N50.39;10; 
2;England;Cornwall;Crean;;W5.64;N50.05;10; 
2;England;Cornwall;Creed;;W4.90;N50.28;10; 
2;England;Cornwall;Creegbrawse;;W5.17;N50.24;10; 
2;England;Cornwall;Crelly;;W5.26;N50.14;10; 
2;England;Cornwall;Cremyll;;W4.18;N50.35;10; 
2;England;Cornwall;Criggan;;W4.80;N50.40;10; 
2;England;Cornwall;Crimp;;W4.49;N50.90;10; 
2;England;Cornwall;Cripplesease;;W5.50;N50.17;10; 
2;England;Cornwall;Croanford;;W4.77;N50.50;10; 
2;England;Cornwall;Croft Mitchell;;W5.27;N50.18;10; 
2;England;Cornwall;Crofthandy;;W5.18;N50.23;10; 
2;England;Cornwall;Cross Coombe;;W5.20;N50.31;10; 
2;England;Cornwall;Cross Hill;;W4.76;N50.53;10; 
2;England;Cornwall;Cross Lanes;;W5.22;N50.04;10; 
2;England;Cornwall;Crossgate;;W4.35;N50.66;10; 
2;England;Cornwall;Crosstown;;W4.56;N50.90;10; 
2;England;Cornwall;Crowan;;W5.30;N50.15;10; 
2;England;Cornwall;Crowlas;;W5.48;N50.14;10; 
2;England;Cornwall;Crowntown;;W5.31;N50.12;10; 
2;England;Cornwall;Crow's Nest;;W4.45;N50.49;10; 
2;England;Cornwall;Crows-an-wra;;W5.65;N50.08;10; 
2;England;Cornwall;Crugmeer;;W4.96;N50.54;10; 
2;England;Cornwall;Crumplehorn;;W4.53;N50.33;10; 
2;England;Cornwall;Cubert;;W5.12;N50.37;10; 
2;England;Cornwall;Curgurrell;;W4.97;N50.19;10; 
2;England;Cornwall;Currian Vale;;W4.87;N50.37;10; 
2;England;Cornwall;Curry Lane;;W4.42;N50.71;10; 
2;England;Cornwall;Cury;;W5.25;N50.04;10; 
2;England;Cornwall;Cusgarne;;W5.15;N50.21;10; 
2;England;Cornwall;Cusveorth Coombe;;W5.14;N50.24;10; 
2;England;Cornwall;Cutmadoc;;W4.69;N50.43;10; 
2;England;Cornwall;Cutmere;;W4.36;N50.41;10; 
2;England;Cornwall;Dannonchapel;;W4.78;N50.60;10; 
2;England;Cornwall;Darite;;W4.46;N50.49;10; 
2;England;Cornwall;Darleyford;;W4.44;N50.53;10; 
2;England;Cornwall;Darracott;;W4.52;N50.92;10; 
2;England;Cornwall;Davidstow;;W4.61;N50.65;10; 
2;England;Cornwall;Daw's House;;W4.39;N50.61;10; 
2;England;Cornwall;De Lank;;W4.64;N50.55;10; 
2;England;Cornwall;Degibna;;W5.28;N50.07;10; 
2;England;Cornwall;Delabole;;W4.74;N50.62;10; 
2;England;Cornwall;Demelza;;W4.86;N50.43;10; 
2;England;Cornwall;Deveral;;W5.37;N50.16;10; 
2;England;Cornwall;Devoran;;W5.09;N50.20;10; 
2;England;Cornwall;Dimson;;W4.23;N50.51;10; 
2;England;Cornwall;Dinas;;W4.95;N50.52;10; 
2;England;Cornwall;Dizzard;;W4.61;N50.75;10; 
2;England;Cornwall;Dizzard Point;;W4.60;N50.75;10; 
2;England;Cornwall;Dobwalls;;W4.52;N50.45;10; 
2;England;Cornwall;Doddycross;;W4.39;N50.43;10; 
2;England;Cornwall;Dodman Point;;W4.80;N50.22;10; 
2;England;Cornwall;Doublebois;;W4.53;N50.44;10; 
2;England;Cornwall;Downderry;;W4.37;N50.36;10; 
2;England;Cornwall;Downgate;;W4.42;N50.51;10; 
2;England;Cornwall;Downgate;;W4.31;N50.52;10; 
2;England;Cornwall;Downhill;;W5.01;N50.48;10; 
2;England;Cornwall;Downinney;;W4.54;N50.68;10; 
2;England;Cornwall;Dozmary Pool;;W4.56;N50.52;10; 
2;England;Cornwall;Drakewalls;;W4.22;N50.50;10; 
2;England;Cornwall;Drawbridge;;W4.59;N50.45;10; 
2;England;Cornwall;Drift;;W5.59;N50.09;10; 
2;England;Cornwall;Drym;;W5.33;N50.14;10; 
2;England;Cornwall;Duloe;;W4.49;N50.39;10; 
2;England;Cornwall;Dunmere;;W4.76;N50.47;10; 
2;England;Cornwall;Dunslea;;W4.44;N50.51;10; 
2;England;Cornwall;Dunveth;;W4.85;N50.51;10; 
2;England;Cornwall;Durgan;;W5.12;N50.10;10; 
2;England;Cornwall;Dutson;;W4.34;N50.64;10; 
2;England;Cornwall;East Looe;;W4.46;N50.35;10; 
2;England;Cornwall;East Taphouse;;W4.56;N50.43;10; 
2;England;Cornwall;East Youlstone;;W4.46;N50.90;10; 
2;England;Cornwall;Eastcott;;W4.49;N50.90;10; 
2;England;Cornwall;Edgcumbe;;W5.19;N50.15;10; 
2;England;Cornwall;Edmonton;;W4.87;N50.51;10; 
2;England;Cornwall;Eggbeare;;W4.36;N50.66;10; 
2;England;Cornwall;Egloshayle;;W4.82;N50.51;10; 
2;England;Cornwall;Egloskerry;;W4.44;N50.64;10; 
2;England;Cornwall;Ellenglaze;;W5.13;N50.37;10; 
2;England;Cornwall;Engollan;;W5.01;N50.49;10; 
2;England;Cornwall;Enniscaven;;W4.87;N50.39;10; 
2;England;Cornwall;Fal;;W4.90;N50.32;10; 
2;England;Cornwall;Falmouth;;W5.08;N50.14;10; 
2;England;Cornwall;Farms Common;;W5.26;N50.16;10; 
2;England;Cornwall;Fenton Pits;;W4.73;N50.43;10; 
2;England;Cornwall;Fentonadle;;W4.71;N50.57;10; 
2;England;Cornwall;Feock;;W5.05;N50.20;10; 
2;England;Cornwall;Fernsplatt;;W5.14;N50.22;10; 
2;England;Cornwall;Fire Beacon Point;;W4.67;N50.70;10; 
2;England;Cornwall;Fivelanes;;W4.51;N50.59;10; 
2;England;Cornwall;Fletchersbridge;;W4.67;N50.45;10; 
2;England;Cornwall;Flexbury;;W4.54;N50.83;10; 
2;England;Cornwall;Flushing;;W5.10;N50.08;10; 
2;England;Cornwall;Flushing;;W5.08;N50.15;10; 
2;England;Cornwall;Fonston;;W4.53;N50.69;10; 
2;England;Cornwall;Forder;;W4.23;N50.40;10; 
2;England;Cornwall;Forge;;W5.24;N50.25;10; 
2;England;Cornwall;Forrabury;;W4.70;N50.67;10; 
2;England;Cornwall;Foundry;;W5.43;N50.18;10; 
2;England;Cornwall;Four Lanes;;W5.25;N50.19;10; 
2;England;Cornwall;Fowey;;W4.64;N50.32;10; 
2;England;Cornwall;Fowey;;W4.63;N50.46;10; 
2;England;Cornwall;Foxhole;;W4.86;N50.35;10; 
2;England;Cornwall;Fraddam;;W5.37;N50.15;10; 
2;England;Cornwall;Fraddon;;W4.94;N50.38;10; 
2;England;Cornwall;Freathy;;W4.26;N50.34;10; 
2;England;Cornwall;Frogmore;;W3.72;N50.26;10; 
2;England;Cornwall;Frogpool;;W5.14;N50.21;10; 
2;England;Cornwall;Frogwell;;W4.34;N50.48;10; 
2;England;Cornwall;Gam;;W4.71;N50.56;10; 
2;England;Cornwall;Gang;;W4.39;N50.48;10; 
2;England;Cornwall;Garker;;W4.75;N50.35;10; 
2;England;Cornwall;Garras;;W5.21;N50.06;10; 
2;England;Cornwall;Georgia;;W5.53;N50.17;10; 
2;England;Cornwall;Germoe;;W5.38;N50.11;10; 
2;England;Cornwall;Gerrans;;W4.98;N50.17;10; 
2;England;Cornwall;Gilbert's Coombe;;W5.24;N50.24;10; 
2;England;Cornwall;Gillan;;W5.10;N50.07;10; 
2;England;Cornwall;Gloweth;;W5.10;N50.25;10; 
2;England;Cornwall;Gluvian;;W4.94;N50.43;10; 
2;England;Cornwall;Godolphin Cross;;W5.35;N50.13;10; 
2;England;Cornwall;Golant;;W4.64;N50.35;10; 
2;England;Cornwall;Golberdon;;W4.37;N50.51;10; 
2;England;Cornwall;Goldsithney;;W5.44;N50.11;10; 
2;England;Cornwall;Gollawater;;W5.16;N50.30;10; 
2;England;Cornwall;Gonamena;;W4.45;N50.50;10; 
2;England;Cornwall;Goon Gumpas;;W5.17;N50.23;10; 
2;England;Cornwall;Goon Piper;;W5.07;N50.21;10; 
2;England;Cornwall;Goonabarn;;W4.88;N50.35;10; 
2;England;Cornwall;Goonbell;;W5.20;N50.29;10; 
2;England;Cornwall;Goonhavern;;W5.12;N50.33;10; 
2;England;Cornwall;Goonhusband;;W5.27;N50.07;10; 
2;England;Cornwall;Goonlaze;;W5.20;N50.18;10; 
2;England;Cornwall;Goonown;;W5.20;N50.30;10; 
2;England;Cornwall;Goonvrea;;W5.23;N50.29;10; 
2;England;Cornwall;Gooseham;;W4.53;N50.91;10; 
2;England;Cornwall;Gooseham Mill;;W4.52;N50.92;10; 
2;England;Cornwall;Gorran Churchtown;;W4.82;N50.24;10; 
2;England;Cornwall;Gorran Haven;;W4.80;N50.23;10; 
2;England;Cornwall;Gorran High Lanes;;W4.83;N50.25;10; 
2;England;Cornwall;Gothers;;W4.87;N50.38;10; 
2;England;Cornwall;Gracca;;W4.80;N50.39;10; 
2;England;Cornwall;Grade;;W5.19;N49.98;10; 
2;England;Cornwall;Grampound;;W4.90;N50.29;10; 
2;England;Cornwall;Grampound Road;;W4.93;N50.31;10; 
2;England;Cornwall;Great Bosullow;;W5.62;N50.14;10; 
2;England;Cornwall;Great Tree;;W4.44;N50.36;10; 
2;England;Cornwall;Green Bottom;;W5.14;N50.26;10; 
2;England;Cornwall;Greensplat;;W4.82;N50.36;10; 
2;England;Cornwall;Greenwith Common;;W5.12;N50.21;10; 
2;England;Cornwall;Gribbin Head;;W4.67;N50.31;10; 
2;England;Cornwall;Grillis;;W5.26;N50.19;10; 
2;England;Cornwall;Grimscott;;W4.47;N50.82;10; 
2;England;Cornwall;Grumbla;;W5.63;N50.10;10; 
2;England;Cornwall;Gulval;;W5.52;N50.12;10; 
2;England;Cornwall;Gummow's Shop;;W5.01;N50.37;10; 
2;England;Cornwall;Gunnislake;;W4.21;N50.51;10; 
2;England;Cornwall;Gunwalloe;;W5.28;N50.05;10; 
2;England;Cornwall;Gunwalloe Fishing Cove;;W5.28;N50.05;10; 
2;England;Cornwall;Gurnard's Head;;W5.59;N50.19;10; 
2;England;Cornwall;Gwallon;;W5.47;N50.12;10; 
2;England;Cornwall;Gwavas;;W5.19;N49.97;10; 
2;England;Cornwall;Gwavas;;W5.28;N50.11;10; 
2;England;Cornwall;Gwedna;;W5.36;N50.13;10; 
2;England;Cornwall;Gweek;;W5.21;N50.08;10; 
2;England;Cornwall;Gwennap;;W5.18;N50.21;10; 
2;England;Cornwall;Gwennap Head;;W5.67;N50.03;10; 
2;England;Cornwall;Gwenter;;W5.15;N50.01;10; 
2;England;Cornwall;Gwills;;W5.06;N50.39;10; 
2;England;Cornwall;Gwinear;;W5.37;N50.18;10; 
2;England;Cornwall;Gwinear Downs;;W5.36;N50.15;10; 
2;England;Cornwall;Gwithian;;W5.39;N50.21;10; 
2;England;Cornwall;Halabezack;;W5.22;N50.16;10; 
2;England;Cornwall;Halamanning;;W5.41;N50.12;10; 
2;England;Cornwall;Hale Mills;;W5.15;N50.23;10; 
2;England;Cornwall;Halgabron;;W4.73;N50.65;10; 
2;England;Cornwall;Hallew;;W4.81;N50.39;10; 
2;England;Cornwall;Hallworthy;;W4.57;N50.65;10; 
2;England;Cornwall;Halsetown;;W5.50;N50.18;10; 
2;England;Cornwall;Halton Barton;;W4.25;N50.46;10; 
2;England;Cornwall;Halvosso;;W5.16;N50.15;10; 
2;England;Cornwall;Halwin;;W5.23;N50.15;10; 
2;England;Cornwall;Hannafore;;W4.46;N50.34;10; 
2;England;Cornwall;Harcourt;;W5.06;N50.19;10; 
2;England;Cornwall;Harlyn;;W5.00;N50.53;10; 
2;England;Cornwall;Harrowbarrow;;W4.27;N50.49;10; 
2;England;Cornwall;Hatt;;W4.26;N50.42;10; 
2;England;Cornwall;Hay;;W4.86;N50.49;10; 
2;England;Cornwall;Haye;;W4.34;N50.49;10; 
2;England;Cornwall;Hayle;;W5.31;N50.17;10; 
2;England;Cornwall;Hayle;;W5.43;N50.18;10; 
2;England;Cornwall;Heamoor;;W5.55;N50.12;10; 
2;England;Cornwall;Hele;;W4.36;N50.69;10; 
2;England;Cornwall;Helebridge;;W4.54;N50.79;10; 
2;England;Cornwall;Helford;;W5.14;N50.09;10; 
2;England;Cornwall;Helford Passage;;W5.13;N50.09;10; 
2;England;Cornwall;Helland;;W4.72;N50.49;10; 
2;England;Cornwall;Hellandbridge;;W4.73;N50.50;10; 
2;England;Cornwall;Hellesveor;;W5.50;N50.20;10; 
2;England;Cornwall;Helscott;;W4.54;N50.79;10; 
2;England;Cornwall;Helston;;W5.27;N50.09;10; 
2;England;Cornwall;Helston Water;;W5.11;N50.22;10; 
2;England;Cornwall;Helstone;;W4.71;N50.59;10; 
2;England;Cornwall;Hendra;;W5.21;N50.00;10; 
2;England;Cornwall;Hendra;;W5.37;N50.09;10; 
2;England;Cornwall;Hendra;;W5.23;N50.13;10; 
2;England;Cornwall;Hendra;;W5.19;N50.18;10; 
2;England;Cornwall;Hendra;;W4.88;N50.37;10; 
2;England;Cornwall;Hendra;;W4.84;N50.44;10; 
2;England;Cornwall;Hendra;;W4.70;N50.61;10; 
2;England;Cornwall;Hendra Croft;;W5.10;N50.35;10; 
2;England;Cornwall;Hendrabridge;;W4.45;N50.45;10; 
2;England;Cornwall;Hendraburnick;;W4.66;N50.65;10; 
2;England;Cornwall;Henwood;;W4.45;N50.53;10; 
2;England;Cornwall;Herniss;;W5.18;N50.16;10; 
2;England;Cornwall;Herodsfoot;;W4.52;N50.41;10; 
2;England;Cornwall;Hersham;;W4.48;N50.83;10; 
2;England;Cornwall;Hessenford;;W4.39;N50.38;10; 
2;England;Cornwall;Hewas Water;;W4.86;N50.30;10; 
2;England;Cornwall;Hick's Mill;;W5.14;N50.21;10; 
2;England;Cornwall;High Cross;;W5.16;N50.10;10; 
2;England;Cornwall;High Lanes;;W5.41;N50.18;10; 
2;England;Cornwall;High Street;;W4.86;N50.34;10; 
2;England;Cornwall;Higher Bal;;W5.23;N50.30;10; 
2;England;Cornwall;Higher Boscaswell;;W5.66;N50.14;10; 
2;England;Cornwall;Higher Condurrow;;W5.28;N50.20;10; 
2;England;Cornwall;Higher Crackington;;W4.62;N50.72;10; 
2;England;Cornwall;Higher Cransworth;;W4.87;N50.47;10; 
2;England;Cornwall;Higher Downs;;W5.42;N50.11;10; 
2;England;Cornwall;Higher Menadew;;W4.77;N50.39;10; 
2;England;Cornwall;Higher Porthpean;;W4.78;N50.31;10; 
2;England;Cornwall;Higher Tolcarne;;W4.98;N50.44;10; 
2;England;Cornwall;Higher Town;;W4.81;N50.41;10; 
2;England;Cornwall;Higher Tremarcoombe;;W4.46;N50.49;10; 
2;England;Cornwall;Highercliff;;W4.47;N50.38;10; 
2;England;Cornwall;Highertown;;W5.08;N50.25;10; 
2;England;Cornwall;Highertown;;W4.65;N50.59;10; 
2;England;Cornwall;Highlanes;;W4.96;N50.51;10; 
2;England;Cornwall;Highway;;W5.21;N50.24;10; 
2;England;Cornwall;Hillhead;;W4.68;N50.40;10; 
2;England;Cornwall;Hole's Hole;;W4.21;N50.46;10; 
2;England;Cornwall;Holmbush;;W4.76;N50.33;10; 
2;England;Cornwall;Holywell;;W5.15;N50.37;10; 
2;England;Cornwall;Hornick;;W4.85;N50.34;10; 
2;England;Cornwall;Horningtops;;W4.43;N50.41;10; 
2;England;Cornwall;Horsedowns;;W5.34;N50.15;10; 
2;England;Cornwall;Hugus;;W5.12;N50.24;10; 
2;England;Cornwall;Idless;;W5.06;N50.28;10; 
2;England;Cornwall;Illand;;W4.43;N50.57;10; 
2;England;Cornwall;Illogan;;W5.27;N50.25;10; 
2;England;Cornwall;Illogan Highway;;W5.26;N50.22;10; 
2;England;Cornwall;Inchs;;W4.83;N50.43;10; 
2;England;Cornwall;Indian Queens;;W4.94;N50.39;10; 
2;England;Cornwall;Insworke;;W4.22;N50.34;10; 
2;England;Cornwall;Jacobstow;;W4.56;N50.72;10; 
2;England;Cornwall;Jolly's Bottom;;W5.15;N50.26;10; 
2;England;Cornwall;Joppa;;W5.41;N50.17;10; 
2;England;Cornwall;Kea;;W5.08;N50.23;10; 
2;England;Cornwall;Kehelland;;W5.33;N50.22;10; 
2;England;Cornwall;Kelly;;W4.80;N50.52;10; 
2;England;Cornwall;Kelly Bray;;W4.32;N50.51;10; 
2;England;Cornwall;Kelsey Head;;W5.14;N50.40;10; 
2;England;Cornwall;Kelynack;;W5.67;N50.10;10; 
2;England;Cornwall;Kennards House;;W4.43;N50.62;10; 
2;England;Cornwall;Kenneggy;;W5.41;N50.10;10; 
2;England;Cornwall;Kenneggy Downs;;W5.41;N50.11;10; 
2;England;Cornwall;Kents;;W4.56;N50.72;10; 
2;England;Cornwall;Kenwyn;;W5.06;N50.26;10; 
2;England;Cornwall;Kerley Downs;;W5.14;N50.25;10; 
2;England;Cornwall;Kerris;;W5.58;N50.08;10; 
2;England;Cornwall;Kersbrook Cross;;W4.38;N50.55;10; 
2;England;Cornwall;Kerthen Wood;;W5.38;N50.14;10; 
2;England;Cornwall;Kestle;;W4.82;N50.27;10; 
2;England;Cornwall;Kestle Mill;;W5.02;N50.39;10; 
2;England;Cornwall;Keybridge;;W4.71;N50.52;10; 
2;England;Cornwall;Kilhallon;;W4.71;N50.35;10; 
2;England;Cornwall;Kilkhampton;;W4.48;N50.87;10; 
2;England;Cornwall;Killaworgey;;W4.95;N50.40;10; 
2;England;Cornwall;Killivose;;W5.30;N50.19;10; 
2;England;Cornwall;Kingbeare;;W4.44;N50.54;10; 
2;England;Cornwall;Kingford;;W4.44;N50.82;10; 
2;England;Cornwall;Kingsand;;W4.20;N50.32;10; 
2;England;Cornwall;Knightor;;W4.77;N50.37;10; 
2;England;Cornwall;Knightsmill;;W4.72;N50.58;10; 
2;England;Cornwall;Kuggar;;W5.18;N50.00;10; 
2;England;Cornwall;Laddenvean;;W5.10;N50.04;10; 
2;England;Cornwall;Ladock;;W4.96;N50.31;10; 
2;England;Cornwall;Ladycross;;W4.37;N50.66;10; 
2;England;Cornwall;Laity Moor;;W5.24;N50.25;10; 
2;England;Cornwall;Lamanva;;W5.13;N50.13;10; 
2;England;Cornwall;Lambourne;;W5.14;N50.31;10; 
2;England;Cornwall;Lamellion;;W4.48;N50.44;10; 
2;England;Cornwall;Lamledra;;W4.79;N50.23;10; 
2;England;Cornwall;Lamorick;;W4.77;N50.44;10; 
2;England;Cornwall;Lamorna;;W5.57;N50.06;10; 
2;England;Cornwall;Lamorran;;W4.98;N50.23;10; 
2;England;Cornwall;Landrake;;W4.29;N50.41;10; 
2;England;Cornwall;Lands End;;W5.70;N50.06;10; 
2;England;Cornwall;Landulph;;W4.21;N50.42;10; 
2;England;Cornwall;Lane;;W5.06;N50.39;10; 
2;England;Cornwall;Laneast;;W4.51;N50.61;10; 
2;England;Cornwall;Lane-end;;W4.77;N50.48;10; 
2;England;Cornwall;Lanescot;;W4.70;N50.36;10; 
2;England;Cornwall;Langore;;W4.42;N50.64;10; 
2;England;Cornwall;Lanivet;;W4.77;N50.44;10; 
2;England;Cornwall;Lanjeth;;W4.85;N50.33;10; 
2;England;Cornwall;Lanjew;;W4.84;N50.44;10; 
2;England;Cornwall;Lank;;W4.71;N50.54;10; 
2;England;Cornwall;Lanlivery;;W4.71;N50.39;10; 
2;England;Cornwall;Lanner;;W5.21;N50.20;10; 
2;England;Cornwall;Lanreath;;W4.56;N50.37;10; 
2;England;Cornwall;Lansallos;;W4.57;N50.33;10; 
2;England;Cornwall;Lanteglos;;W4.71;N50.60;10; 
2;England;Cornwall;Lanteglos Highway;;W4.61;N50.34;10; 
2;England;Cornwall;Lantuel;;W4.86;N50.46;10; 
2;England;Cornwall;Lantyan;;W4.67;N50.38;10; 
2;England;Cornwall;Larrick;;W4.40;N50.57;10; 
2;England;Cornwall;Latchbrook;;W4.25;N50.40;10; 
2;England;Cornwall;Latchley;;W4.25;N50.53;10; 
2;England;Cornwall;Launcells Cross;;W4.47;N50.82;10; 
2;England;Cornwall;Launceston;;W4.36;N50.63;10; 
2;England;Cornwall;Lavrean;;W4.77;N50.38;10; 
2;England;Cornwall;Lawhitton;;W4.33;N50.61;10; 
2;England;Cornwall;Leburnick;;W4.33;N50.60;10; 
2;England;Cornwall;Leedstown;;W5.36;N50.15;10; 
2;England;Cornwall;Lelant;;W5.44;N50.18;10; 
2;England;Cornwall;Lelant Downs;;W5.47;N50.17;10; 
2;England;Cornwall;Lerryn;;W4.61;N50.37;10; 
2;England;Cornwall;Lesnewth;;W4.64;N50.67;10; 
2;England;Cornwall;Levalsa Meor;;W4.81;N50.30;10; 
2;England;Cornwall;Lewannick;;W4.44;N50.59;10; 
2;England;Cornwall;Lezant;;W4.36;N50.58;10; 
2;England;Cornwall;Lezerea;;W5.24;N50.15;10; 
2;England;Cornwall;Linkinhorne;;W4.38;N50.53;10; 
2;England;Cornwall;Liskeard;;W4.46;N50.44;10; 
2;England;Cornwall;Little Bosullow;;W5.62;N50.14;10; 
2;England;Cornwall;Little Comfort;;W4.34;N50.59;10; 
2;England;Cornwall;Little Petherick;;W4.94;N50.51;10; 
2;England;Cornwall;Lizard;;W5.20;N49.96;10; 
2;England;Cornwall;Lizard Point;;W5.21;N49.96;10; 
2;England;Cornwall;Lockengate;;W4.77;N50.41;10; 
2;England;Cornwall;Lodge Hill;;W4.48;N50.44;10; 
2;England;Cornwall;London Apprentice;;W4.81;N50.31;10; 
2;England;Cornwall;Longdowns;;W5.16;N50.16;10; 
2;England;Cornwall;Longrock;;W5.51;N50.12;10; 
2;England;Cornwall;Longstone;;W5.46;N50.19;10; 
2;England;Cornwall;Longstone;;W4.73;N50.52;10; 
2;England;Cornwall;Looe;;W4.46;N50.35;10; 
2;England;Cornwall;Looe Mills;;W4.49;N50.44;10; 
2;England;Cornwall;Lostwithiel;;W4.67;N50.40;10; 
2;England;Cornwall;Lower Amble;;W4.85;N50.53;10; 
2;England;Cornwall;Lower Bodinnar;;W5.61;N50.13;10; 
2;England;Cornwall;Lower Boscaswell;;W5.68;N50.14;10; 
2;England;Cornwall;Lower Brynn;;W4.83;N50.42;10; 
2;England;Cornwall;Lower Clicker;;W4.42;N50.42;10; 
2;England;Cornwall;Lower Croan;;W4.79;N50.50;10; 
2;England;Cornwall;Lower Menadue;;W4.77;N50.39;10; 
2;England;Cornwall;Lower Mill;;W4.94;N50.20;10; 
2;England;Cornwall;Lower Porthpean;;W4.76;N50.31;10; 
2;England;Cornwall;Lower Rose;;W5.12;N50.34;10; 
2;England;Cornwall;Lower Trebullett;;W4.37;N50.56;10; 
2;England;Cornwall;Lower Woodley;;W4.79;N50.45;10; 
2;England;Cornwall;Lower Woon;;W4.77;N50.43;10; 
2;England;Cornwall;Lowertown;;W5.28;N50.11;10; 
2;England;Cornwall;Lowertown;;W4.74;N50.41;10; 
2;England;Cornwall;Luckett;;W4.28;N50.53;10; 
2;England;Cornwall;Ludgvan;;W5.50;N50.14;10; 
2;England;Cornwall;Luffincott;;W4.36;N50.72;10; 
2;England;Cornwall;Luxulyan;;W4.74;N50.38;10; 
2;England;Cornwall;Lynher;;W4.39;N50.52;10; 
2;England;Cornwall;Lynher;;W4.46;N50.58;10; 
2;England;Cornwall;Lynstone;;W4.55;N50.81;10; 
2;England;Cornwall;Mabe Burnthouse;;W5.13;N50.16;10; 
2;England;Cornwall;Maders;;W4.34;N50.51;10; 
2;England;Cornwall;Madron;;W5.56;N50.12;10; 
2;England;Cornwall;Maenporth;;W5.09;N50.11;10; 
2;England;Cornwall;Maer;;W4.55;N50.83;10; 
2;England;Cornwall;Malpas;;W5.03;N50.23;10; 
2;England;Cornwall;Manaccan;;W5.13;N50.08;10; 
2;England;Cornwall;Manacle Point;;W5.06;N50.05;10; 
2;England;Cornwall;Manhay;;W5.23;N50.12;10; 
2;England;Cornwall;Manor Parsley;;W5.22;N50.26;10; 
2;England;Cornwall;Marazanvose;;W5.09;N50.30;10; 
2;England;Cornwall;Marazion;;W5.48;N50.11;10; 
2;England;Cornwall;Marhamchurch;;W4.52;N50.79;10; 
2;England;Cornwall;Marshgate;;W4.62;N50.68;10; 
2;England;Cornwall;Maryfield;;W4.22;N50.37;10; 
2;England;Cornwall;Maudlin;;W4.70;N50.42;10; 
2;England;Cornwall;Mawgan;;W5.21;N50.08;10; 
2;England;Cornwall;Mawgan Porth;;W5.03;N50.46;10; 
2;England;Cornwall;Mawla;;W5.22;N50.26;10; 
2;England;Cornwall;Mawnan;;W5.10;N50.10;10; 
2;England;Cornwall;Mawnan Smith;;W5.12;N50.11;10; 
2;England;Cornwall;Maxworthy;;W4.47;N50.70;10; 
2;England;Cornwall;Mayon;;W5.70;N50.06;10; 
2;England;Cornwall;Mead;;W4.53;N50.92;10; 
2;England;Cornwall;Meaver;;W5.24;N50.01;10; 
2;England;Cornwall;Meddon;;W4.46;N50.92;10; 
2;England;Cornwall;Medlyn;;W5.22;N50.15;10; 
2;England;Cornwall;Melinsey;;W4.94;N50.21;10; 
2;England;Cornwall;Mellangoose;;W5.24;N50.08;10; 
2;England;Cornwall;Mellingey;;W4.93;N50.50;10; 
2;England;Cornwall;Mena;;W4.76;N50.42;10; 
2;England;Cornwall;Menadarva;;W5.35;N50.22;10; 
2;England;Cornwall;Menagissey;;W5.21;N50.26;10; 
2;England;Cornwall;Menheniot;;W4.42;N50.43;10; 
2;England;Cornwall;Menherion;;W5.22;N50.17;10; 
2;England;Cornwall;Menna;;W4.93;N50.34;10; 
2;England;Cornwall;Merrifield;;W4.46;N50.78;10; 
2;England;Cornwall;Merry Meeting;;W4.71;N50.52;10; 
2;England;Cornwall;Merrymeet;;W4.43;N50.45;10; 
2;England;Cornwall;Merther;;W5.00;N50.25;10; 
2;England;Cornwall;Merther Lane;;W5.01;N50.23;10; 
2;England;Cornwall;Metherell;;W4.25;N50.49;10; 
2;England;Cornwall;Mevagissey;;W4.79;N50.27;10; 
2;England;Cornwall;Michaelstow;;W4.71;N50.57;10; 
2;England;Cornwall;Middle Crackington;;W4.62;N50.72;10; 
2;England;Cornwall;Middle Taphouse;;W4.57;N50.43;10; 
2;England;Cornwall;Middlehill;;W4.42;N50.49;10; 
2;England;Cornwall;Middlewood;;W4.44;N50.54;10; 
2;England;Cornwall;Milcombe;;W4.49;N50.36;10; 
2;England;Cornwall;Millbrook;;W4.22;N50.34;10; 
2;England;Cornwall;Millendreath;;W4.44;N50.36;10; 
2;England;Cornwall;Millook;;W4.58;N50.76;10; 
2;England;Cornwall;Millpool;;W5.40;N50.12;10; 
2;England;Cornwall;Millpool;;W4.65;N50.49;10; 
2;England;Cornwall;Milltown;;W4.67;N50.38;10; 
2;England;Cornwall;Milltown;;W4.66;N50.48;10; 
2;England;Cornwall;Mineshope;;W4.62;N50.73;10; 
2;England;Cornwall;Mingoose;;W5.21;N50.28;10; 
2;England;Cornwall;Minions;;W4.45;N50.51;10; 
2;England;Cornwall;Mitchell;;W5.00;N50.34;10; 
2;England;Cornwall;Mithian;;W5.17;N50.30;10; 
2;England;Cornwall;Mithian Downs;;W5.17;N50.29;10; 
2;England;Cornwall;Mixtow;;W4.64;N50.34;10; 
2;England;Cornwall;Molinnis;;W4.80;N50.39;10; 
2;England;Cornwall;Mongleath;;W5.10;N50.14;10; 
2;England;Cornwall;Monkscross;;W4.28;N50.51;10; 
2;England;Cornwall;Moorswater;;W4.49;N50.44;10; 
2;England;Cornwall;Mornick;;W4.38;N50.52;10; 
2;England;Cornwall;Morvah;;W5.64;N50.15;10; 
2;England;Cornwall;Morval;;W4.44;N50.37;10; 
2;England;Cornwall;Morwellham Quay;;W4.20;N50.50;10; 
2;England;Cornwall;Morwenstow;;W4.56;N50.90;10; 
2;England;Cornwall;Mount;;W5.12;N50.36;10; 
2;England;Cornwall;Mount;;W4.62;N50.47;10; 
2;England;Cornwall;Mount Ambrose;;W5.22;N50.24;10; 
2;England;Cornwall;Mount Charles;;W4.78;N50.33;10; 
2;England;Cornwall;Mount Charles;;W4.76;N50.47;10; 
2;England;Cornwall;Mount Hawke;;W5.21;N50.27;10; 
2;England;Cornwall;Mount Hermon;;W5.21;N49.99;10; 
2;England;Cornwall;Mount Pleasant;;W4.81;N50.42;10; 
2;England;Cornwall;Mount Wise;;W4.18;N50.35;10; 
2;England;Cornwall;Mountjoy;;W4.99;N50.40;10; 
2;England;Cornwall;Mousehole;;W5.55;N50.07;10; 
2;England;Cornwall;Muchlarnick;;W4.51;N50.37;10; 
2;England;Cornwall;Mulberry;;W4.79;N50.45;10; 
2;England;Cornwall;Mulfra;;W5.57;N50.15;10; 
2;England;Cornwall;Mullion;;W5.25;N50.02;10; 
2;England;Cornwall;Mullion Cove;;W5.26;N50.00;10; 
2;England;Cornwall;Mylor Bridge;;W5.08;N50.18;10; 
2;England;Cornwall;Mylor Churchtown;;W5.05;N50.17;10; 
2;England;Cornwall;Nance;;W5.28;N50.24;10; 
2;England;Cornwall;Nanceddan;;W5.50;N50.14;10; 
2;England;Cornwall;Nancegollan;;W5.31;N50.14;10; 
2;England;Cornwall;Nancemellin;;W5.36;N50.22;10; 
2;England;Cornwall;Nancenoy;;W5.17;N50.10;10; 
2;England;Cornwall;Nancledra;;W5.51;N50.16;10; 
2;England;Cornwall;Nanpean;;W4.87;N50.36;10; 
2;England;Cornwall;Nanquidno;;W5.69;N50.10;10; 
2;England;Cornwall;Nanstallon;;W4.77;N50.46;10; 
2;England;Cornwall;Nantithet;;W5.24;N50.05;10; 
2;England;Cornwall;Nare Point;;W5.08;N50.08;10; 
2;England;Cornwall;Narkurs;;W4.36;N50.37;10; 
2;England;Cornwall;Navarino;;W4.43;N50.67;10; 
2;England;Cornwall;Navax Point;;W5.38;N50.23;10; 
2;England;Cornwall;Netherton;;W4.42;N50.52;10; 
2;England;Cornwall;New Downs;;W5.69;N50.12;10; 
2;England;Cornwall;New Downs;;W5.23;N50.31;10; 
2;England;Cornwall;New Mill;;W5.57;N50.15;10; 
2;England;Cornwall;New Mill;;W5.08;N50.26;10; 
2;England;Cornwall;New Mills;;W4.95;N50.33;10; 
2;England;Cornwall;New Polzeath;;W4.92;N50.57;10; 
2;England;Cornwall;Newbridge;;W5.61;N50.12;10; 
2;England;Cornwall;Newbridge;;W5.10;N50.25;10; 
2;England;Cornwall;Newbridge;;W4.34;N50.48;10; 
2;England;Cornwall;Newlyn;;W5.55;N50.09;10; 
2;England;Cornwall;Newport;;W4.37;N50.64;10; 
2;England;Cornwall;Newquay;;W5.08;N50.40;10; 
2;England;Cornwall;Newton;;W4.69;N50.43;10; 
2;England;Cornwall;Newtown;;W5.40;N50.11;10; 
2;England;Cornwall;Newtown;;W4.41;N50.57;10; 
2;England;Cornwall;Newtown-in-St Martin;;W5.15;N50.06;10; 
2;England;Cornwall;Nine Maidens Downs;;W5.26;N50.17;10; 
2;England;Cornwall;Ninnes;;W5.57;N50.15;10; 
2;England;Cornwall;Ninnes Bridge;;W5.48;N50.16;10; 
2;England;Cornwall;No Man's Land;;W4.43;N50.37;10; 
2;England;Cornwall;Noonvares;;W5.37;N50.13;10; 
2;England;Cornwall;Norris Green;;W4.24;N50.49;10; 
2;England;Cornwall;North Beer;;W4.40;N50.70;10; 
2;England;Cornwall;North Corner;;W5.10;N50.02;10; 
2;England;Cornwall;North Country;;W5.24;N50.24;10; 
2;England;Cornwall;North Darley;;W4.44;N50.53;10; 
2;England;Cornwall;North Hill;;W4.44;N50.55;10; 
2;England;Cornwall;North Petherwin;;W4.43;N50.67;10; 
2;England;Cornwall;North Tamerton;;W4.39;N50.74;10; 
2;England;Cornwall;Northcott;;W4.54;N50.84;10; 
2;England;Cornwall;Notter;;W4.26;N50.41;10; 
2;England;Cornwall;Old Cardinham Castle;;W4.65;N50.47;10; 
2;England;Cornwall;Old Kea;;W5.03;N50.22;10; 
2;England;Cornwall;Old Mill;;W4.31;N50.53;10; 
2;England;Cornwall;Old Park;;W4.48;N50.45;10; 
2;England;Cornwall;Otterham;;W4.60;N50.68;10; 
2;England;Cornwall;Otterham Station;;W4.61;N50.67;10; 
2;England;Cornwall;Ottery;;W4.43;N50.67;10; 
2;England;Cornwall;Padstow;;W4.95;N50.53;10; 
2;England;Cornwall;Palmersbridge;;W4.55;N50.56;10; 
2;England;Cornwall;Pantersbridge;;W4.60;N50.48;10; 
2;England;Cornwall;Par;;W4.71;N50.34;10; 
2;England;Cornwall;Paramoor;;W4.85;N50.30;10; 
2;England;Cornwall;Parc Erissey;;W5.24;N50.25;10; 
2;England;Cornwall;Park;;W4.77;N50.49;10; 
2;England;Cornwall;Park Bottom;;W5.28;N50.23;10; 
2;England;Cornwall;Park Head;;W5.03;N50.49;10; 
2;England;Cornwall;Parkengear;;W4.94;N50.28;10; 
2;England;Cornwall;Parkfield;;W4.38;N50.47;10; 
2;England;Cornwall;Paul;;W5.55;N50.08;10; 
2;England;Cornwall;Paul's Green;;W5.36;N50.14;10; 
2;England;Cornwall;Paynter's Cross;;W4.26;N50.45;10; 
2;England;Cornwall;Paynter's Lane End;;W5.26;N50.24;10; 
2;England;Cornwall;Pelynt;;W4.53;N50.36;10; 
2;England;Cornwall;Pempwell;;W4.30;N50.55;10; 
2;England;Cornwall;Penare;;W4.81;N50.22;10; 
2;England;Cornwall;Penbeagle;;W5.50;N50.19;10; 
2;England;Cornwall;Penberth;;W5.63;N50.04;10; 
2;England;Cornwall;Pencarrow;;W4.68;N50.60;10; 
2;England;Cornwall;Pencoys;;W5.25;N50.19;10; 
2;England;Cornwall;Pencuke;;W4.60;N50.71;10; 
2;England;Cornwall;Pendeen;;W5.66;N50.14;10; 
2;England;Cornwall;Pendeen Watch;;W5.66;N50.16;10; 
2;England;Cornwall;Pendoggett;;W4.79;N50.57;10; 
2;England;Cornwall;Pendrift;;W4.68;N50.53;10; 
2;England;Cornwall;Penelewey;;W5.07;N50.21;10; 
2;England;Cornwall;Pengegon;;W5.28;N50.20;10; 
2;England;Cornwall;Pengelly;;W4.72;N50.61;10; 
2;England;Cornwall;Pengersick;;W5.38;N50.10;10; 
2;England;Cornwall;Pengold;;W4.65;N50.71;10; 
2;England;Cornwall;Pengover Green;;W4.43;N50.45;10; 
2;England;Cornwall;Penhale;;W5.22;N50.01;10; 
2;England;Cornwall;Penhale;;W4.95;N50.37;10; 
2;England;Cornwall;Penhale Jakes;;W5.35;N50.10;10; 
2;England;Cornwall;Penhale Point;;W5.14;N50.38;10; 
2;England;Cornwall;Penhallick;;W5.12;N50.02;10; 
2;England;Cornwall;Penhallick;;W5.26;N50.21;10; 
2;England;Cornwall;Penhallow;;W5.14;N50.31;10; 
2;England;Cornwall;Penhalurick;;W5.22;N50.19;10; 
2;England;Cornwall;Penhalvean;;W5.20;N50.18;10; 
2;England;Cornwall;Penmarth;;W5.22;N50.17;10; 
2;England;Cornwall;Penmayne;;W4.90;N50.54;10; 
2;England;Cornwall;Pennance;;W5.21;N50.21;10; 
2;England;Cornwall;Pennytinney;;W4.81;N50.55;10; 
2;England;Cornwall;Penpethy;;W4.71;N50.64;10; 
2;England;Cornwall;Penpillick;;W4.70;N50.37;10; 
2;England;Cornwall;Penpol;;W5.07;N50.21;10; 
2;England;Cornwall;Penpoll;;W4.61;N50.35;10; 
2;England;Cornwall;Penponds;;W5.32;N50.20;10; 
2;England;Cornwall;Penpont;;W4.71;N50.53;10; 
2;England;Cornwall;Penrose;;W5.00;N50.49;10; 
2;England;Cornwall;Penrose;;W4.71;N50.55;10; 
2;England;Cornwall;Penrose Hill;;W5.31;N50.08;10; 
2;England;Cornwall;Penryn;;W5.11;N50.16;10; 
2;England;Cornwall;Pensilva;;W4.41;N50.49;10; 
2;England;Cornwall;Penstraze;;W5.15;N50.27;10; 
2;England;Cornwall;Pentewan;;W4.79;N50.28;10; 
2;England;Cornwall;Pentire;;W5.11;N50.40;10; 
2;England;Cornwall;Pentire Point;;W4.92;N50.58;10; 
2;England;Cornwall;Penwartha;;W5.16;N50.32;10; 
2;England;Cornwall;Penwartha Coombe;;W5.14;N50.32;10; 
2;England;Cornwall;Penweathers;;W5.08;N50.24;10; 
2;England;Cornwall;Penwithick;;W4.78;N50.37;10; 
2;England;Cornwall;Penzance;;W5.55;N50.11;10; 
2;England;Cornwall;Percuil;;W5.01;N50.16;10; 
2;England;Cornwall;Perran Downs;;W5.42;N50.11;10; 
2;England;Cornwall;Perran Wharf;;W5.12;N50.20;10; 
2;England;Cornwall;Perranarworthal;;W5.12;N50.20;10; 
2;England;Cornwall;Perrancoombe;;W5.16;N50.32;10; 
2;England;Cornwall;Perranporth;;W5.16;N50.34;10; 
2;England;Cornwall;Perranuthnoe;;W5.45;N50.10;10; 
2;England;Cornwall;Perranwell;;W5.12;N50.20;10; 
2;England;Cornwall;Perranwell;;W5.13;N50.32;10; 
2;England;Cornwall;Perranwell Station;;W5.11;N50.20;10; 
2;England;Cornwall;Perranzabuloe;;W5.13;N50.32;10; 
2;England;Cornwall;Peterville;;W5.20;N50.30;10; 
2;England;Cornwall;Petherwin Gate;;W4.43;N50.67;10; 
2;England;Cornwall;Phillack;;W5.42;N50.19;10; 
2;England;Cornwall;Philleigh;;W4.98;N50.21;10; 
2;England;Cornwall;Piece;;W5.26;N50.20;10; 
2;England;Cornwall;Pillaton;;W4.31;N50.45;10; 
2;England;Cornwall;Pipers Pool;;W4.46;N50.62;10; 
2;England;Cornwall;Pityme;;W4.90;N50.54;10; 
2;England;Cornwall;Plaidy;;W4.44;N50.35;10; 
2;England;Cornwall;Plain Street;;W4.86;N50.56;10; 
2;England;Cornwall;Plain-an-Gwarry;;W5.45;N50.12;10; 
2;England;Cornwall;Plain-an-Gwarry;;W5.24;N50.23;10; 
2;England;Cornwall;Playing Place;;W5.07;N50.22;10; 
2;England;Cornwall;Plusha;;W4.47;N50.59;10; 
2;England;Cornwall;Plushabridge;;W4.39;N50.52;10; 
2;England;Cornwall;Polbathic;;W4.33;N50.38;10; 
2;England;Cornwall;Polborder;;W4.28;N50.45;10; 
2;England;Cornwall;Polbrock;;W4.80;N50.48;10; 
2;England;Cornwall;Poldhu Point;;W5.25;N50.02;10; 
2;England;Cornwall;Polgear;;W5.25;N50.17;10; 
2;England;Cornwall;Polgigga;;W5.67;N50.04;10; 
2;England;Cornwall;Polgooth;;W4.82;N50.31;10; 
2;England;Cornwall;Polkerris;;W4.68;N50.33;10; 
2;England;Cornwall;Polladras;;W5.34;N50.12;10; 
2;England;Cornwall;Polmarth;;W5.22;N50.17;10; 
2;England;Cornwall;Polmassick;;W4.85;N50.27;10; 
2;England;Cornwall;Polmear;;W4.70;N50.34;10; 
2;England;Cornwall;Polmorla;;W4.85;N50.50;10; 
2;England;Cornwall;Polpenwith;;W5.17;N50.09;10; 
2;England;Cornwall;Polpeor;;W5.48;N50.17;10; 
2;England;Cornwall;Polperro;;W4.53;N50.32;10; 
2;England;Cornwall;Polruan;;W4.64;N50.31;10; 
2;England;Cornwall;Poltesco;;W5.18;N49.99;10; 
2;England;Cornwall;Polwheveral;;W5.17;N50.10;10; 
2;England;Cornwall;Polyphant;;W4.46;N50.61;10; 
2;England;Cornwall;Polzeath;;W4.92;N50.56;10; 
2;England;Cornwall;Poniou;;W5.58;N50.18;10; 
2;England;Cornwall;Ponjeravah;;W5.17;N50.11;10; 
2;England;Cornwall;Ponsanooth;;W5.15;N50.19;10; 
2;England;Cornwall;Ponsongath;;W5.14;N50.01;10; 
2;England;Cornwall;Pont;;W4.61;N50.33;10; 
2;England;Cornwall;Pool;;W5.26;N50.22;10; 
2;England;Cornwall;Porkellis;;W5.23;N50.15;10; 
2;England;Cornwall;Port Gaverne;;W4.82;N50.58;10; 
2;England;Cornwall;Port Isaac;;W4.84;N50.58;10; 
2;England;Cornwall;Port Quin;;W4.86;N50.58;10; 
2;England;Cornwall;Porteath;;W4.88;N50.57;10; 
2;England;Cornwall;Porth;;W5.05;N50.41;10; 
2;England;Cornwall;Porth Kea;;W5.05;N50.23;10; 
2;England;Cornwall;Porth Navas;;W5.14;N50.10;10; 
2;England;Cornwall;Porthallow;;W4.50;N50.33;10; 
2;England;Cornwall;Porthcothan;;W5.03;N50.50;10; 
2;England;Cornwall;Porthcurno;;W5.66;N50.04;10; 
2;England;Cornwall;Porthgwarra;;W5.67;N50.03;10; 
2;England;Cornwall;Porthhallow;;W5.08;N50.06;10; 
2;England;Cornwall;Porthilly;;W4.92;N50.53;10; 
2;England;Cornwall;Porthleven;;W5.32;N50.07;10; 
2;England;Cornwall;Porthmeor;;W5.60;N50.17;10; 
2;England;Cornwall;Portholland;;W4.87;N50.23;10; 
2;England;Cornwall;Porthoustock;;W5.07;N50.04;10; 
2;England;Cornwall;Porthtowan;;W5.24;N50.27;10; 
2;England;Cornwall;Portloe;;W4.90;N50.21;10; 
2;England;Cornwall;Portlooe;;W4.47;N50.34;10; 
2;England;Cornwall;Portmellon;;W4.79;N50.25;10; 
2;England;Cornwall;Portreath;;W5.29;N50.25;10; 
2;England;Cornwall;Portscatho;;W4.98;N50.17;10; 
2;England;Cornwall;Portwrinkle;;W4.32;N50.35;10; 
2;England;Cornwall;Poughill;;W4.52;N50.83;10; 
2;England;Cornwall;Poundstock;;W4.55;N50.76;10; 
2;England;Cornwall;Praa Sands;;W5.38;N50.10;10; 
2;England;Cornwall;Praze-an-Beeble;;W5.32;N50.16;10; 
2;England;Cornwall;Probus;;W4.96;N50.28;10; 
2;England;Cornwall;Prospidnick;;W5.30;N50.13;10; 
2;England;Cornwall;Prussia Cove;;W5.42;N50.09;10; 
2;England;Cornwall;Puddle;;W4.71;N50.39;10; 
2;England;Cornwall;Quethiock;;W4.38;N50.45;10; 
2;England;Cornwall;Quintrell Downs;;W5.04;N50.40;10; 
2;England;Cornwall;Quoit;;W4.92;N50.42;10; 
2;England;Cornwall;Radnor;;W5.22;N50.25;10; 
2;England;Cornwall;Raginnis;;W5.55;N50.07;10; 
2;England;Cornwall;Rame;;W5.19;N50.16;10; 
2;England;Cornwall;Rame;;W4.22;N50.31;10; 
2;England;Cornwall;Rame Head;;W4.22;N50.31;10; 
2;England;Cornwall;Readymoney;;W4.65;N50.32;10; 
2;England;Cornwall;Reawla;;W5.36;N50.17;10; 
2;England;Cornwall;Red Post;;W4.47;N50.81;10; 
2;England;Cornwall;Red River;;W5.38;N50.22;10; 
2;England;Cornwall;Redmoor;;W4.70;N50.41;10; 
2;England;Cornwall;Redruth;;W5.24;N50.23;10; 
2;England;Cornwall;Redtye;;W4.78;N50.43;10; 
2;England;Cornwall;Reen Manor;;W5.14;N50.34;10; 
2;England;Cornwall;Rejerrah;;W5.09;N50.36;10; 
2;England;Cornwall;Releath;;W5.27;N50.15;10; 
2;England;Cornwall;Relubbus;;W5.41;N50.12;10; 
2;England;Cornwall;Rescassa;;W4.83;N50.24;10; 
2;England;Cornwall;Rescorla;;W4.78;N50.37;10; 
2;England;Cornwall;Reskadinnick;;W5.32;N50.22;10; 
2;England;Cornwall;Restronguet Passage;;W5.06;N50.19;10; 
2;England;Cornwall;Resugga Green;;W4.78;N50.37;10; 
2;England;Cornwall;Retallack;;W4.91;N50.44;10; 
2;England;Cornwall;Retire;;W4.81;N50.44;10; 
2;England;Cornwall;Rezare;;W4.31;N50.56;10; 
2;England;Cornwall;Rilla Mill;;W4.41;N50.53;10; 
2;England;Cornwall;Rillaton;;W4.41;N50.53;10; 
2;England;Cornwall;Rinsey;;W5.37;N50.09;10; 
2;England;Cornwall;Rinsey Croft;;W5.35;N50.10;10; 
2;England;Cornwall;Rising Sun;;W4.27;N50.50;10; 
2;England;Cornwall;Riverside;;W4.21;N50.40;10; 
2;England;Cornwall;Roche;;W4.84;N50.40;10; 
2;England;Cornwall;Rock;;W4.90;N50.54;10; 
2;England;Cornwall;Rockhead;;W4.73;N50.62;10; 
2;England;Cornwall;Roscroggan;;W5.31;N50.23;10; 
2;England;Cornwall;Rose;;W5.13;N50.34;10; 
2;England;Cornwall;Rose-an-Grouse;;W5.46;N50.16;10; 
2;England;Cornwall;Rosecare;;W4.60;N50.72;10; 
2;England;Cornwall;Rosedinnick;;W4.94;N50.44;10; 
2;England;Cornwall;Rosehill;;W5.12;N50.34;10; 
2;England;Cornwall;Rosehill;;W4.77;N50.44;10; 
2;England;Cornwall;Roseland;;W4.43;N50.44;10; 
2;England;Cornwall;Rosemelling;;W4.75;N50.38;10; 
2;England;Cornwall;Rosemergy;;W5.62;N50.16;10; 
2;England;Cornwall;Rosemullion Head;;W5.08;N50.10;10; 
2;England;Cornwall;Rosenannon;;W4.88;N50.45;10; 
2;England;Cornwall;Rosenithon;;W5.07;N50.04;10; 
2;England;Cornwall;Rosevean;;W4.78;N50.38;10; 
2;England;Cornwall;Rosevear;;W5.22;N50.07;10; 
2;England;Cornwall;Rosevine;;W4.98;N50.18;10; 
2;England;Cornwall;Rosewarne;;W5.34;N50.17;10; 
2;England;Cornwall;Rosewarne;;W5.30;N50.21;10; 
2;England;Cornwall;Roseworthy;;W5.35;N50.20;10; 
2;England;Cornwall;Roseworthy;;W5.10;N50.28;10; 
2;England;Cornwall;Roseworthy Barton;;W5.35;N50.20;10; 
2;England;Cornwall;Roskear Croft;;W5.29;N50.22;10; 
2;England;Cornwall;Roskorwell;;W5.08;N50.06;10; 
2;England;Cornwall;Rosudgeon;;W5.42;N50.11;10; 
2;England;Cornwall;Row;;W4.69;N50.55;10; 
2;England;Cornwall;Ruan High Lanes;;W4.94;N50.21;10; 
2;England;Cornwall;Ruan Lanihorne;;W4.96;N50.23;10; 
2;England;Cornwall;Ruan Major;;W5.21;N49.99;10; 
2;England;Cornwall;Ruan Minor;;W5.18;N49.99;10; 
2;England;Cornwall;Rumford;;W4.97;N50.49;10; 
2;England;Cornwall;Ruthernbridge;;W4.80;N50.46;10; 
2;England;Cornwall;Ruthvoes;;W4.92;N50.40;10; 
2;England;Cornwall;Salem;;W5.17;N50.25;10; 
2;England;Cornwall;Saltash;;W4.22;N50.40;10; 
2;England;Cornwall;Sancreed;;W5.62;N50.10;10; 
2;England;Cornwall;Sandplace;;W4.46;N50.37;10; 
2;England;Cornwall;Sandylake;;W4.64;N50.40;10; 
2;England;Cornwall;Saveock;;W5.15;N50.26;10; 
2;England;Cornwall;Scarcewater;;W4.93;N50.34;10; 
2;England;Cornwall;Scorrier;;W5.20;N50.25;10; 
2;England;Cornwall;Scredda;;W4.79;N50.35;10; 
2;England;Cornwall;Sea Mills;;W4.93;N50.51;10; 
2;England;Cornwall;Seaton;;W4.39;N50.36;10; 
2;England;Cornwall;Seaton;;W4.45;N50.49;10; 
2;England;Cornwall;Seaureaugh Moor;;W5.18;N50.18;10; 
2;England;Cornwall;Sellan;;W5.61;N50.11;10; 
2;England;Cornwall;Sennen;;W5.70;N50.06;10; 
2;England;Cornwall;Sennen Cove;;W5.70;N50.07;10; 
2;England;Cornwall;Seworgan;;W5.22;N50.13;10; 
2;England;Cornwall;Sharpnose Points;;W4.56;N50.88;10; 
2;England;Cornwall;Sharptor;;W4.47;N50.53;10; 
2;England;Cornwall;Sheffield;;W5.56;N50.07;10; 
2;England;Cornwall;Sheviock;;W4.29;N50.37;10; 
2;England;Cornwall;Shortacross;;W4.40;N50.38;10; 
2;England;Cornwall;Shortlanesend;;W5.08;N50.28;10; 
2;England;Cornwall;Shutta;;W4.46;N50.35;10; 
2;England;Cornwall;Silverwell;;W5.17;N50.28;10; 
2;England;Cornwall;Sithney;;W5.31;N50.10;10; 
2;England;Cornwall;Sithney Common;;W5.30;N50.10;10; 
2;England;Cornwall;Sithney Green;;W5.30;N50.11;10; 
2;England;Cornwall;Skewes;;W4.87;N50.44;10; 
2;England;Cornwall;Skinner's Bottom;;W5.20;N50.26;10; 
2;England;Cornwall;Sladesbridge;;W4.80;N50.50;10; 
2;England;Cornwall;Slaughterbridge;;W4.68;N50.63;10; 
2;England;Cornwall;South Carne;;W4.54;N50.60;10; 
2;England;Cornwall;South Hill;;W4.37;N50.52;10; 
2;England;Cornwall;South Petherwin;;W4.40;N50.60;10; 
2;England;Cornwall;South Pill;;W4.22;N50.40;10; 
2;England;Cornwall;South Pool;;W3.72;N50.24;10; 
2;England;Cornwall;South Tehidy;;W5.29;N50.23;10; 
2;England;Cornwall;South Wheatley;;W4.49;N50.70;10; 
2;England;Cornwall;Southcott;;W4.56;N50.72;10; 
2;England;Cornwall;Southdown;;W4.20;N50.34;10; 
2;England;Cornwall;Sparnon Gate;;W5.25;N50.24;10; 
2;England;Cornwall;Splatt;;W4.90;N50.54;10; 
2;England;Cornwall;Splatt;;W4.52;N50.66;10; 
2;England;Cornwall;St Agnes;;W5.20;N50.30;10; 
2;England;Cornwall;St Agnes Head;;W5.23;N50.31;10; 
2;England;Cornwall;St Allen;;W5.06;N50.30;10; 
2;England;Cornwall;St Ann's Chapel;;W4.24;N50.51;10; 
2;England;Cornwall;St Anthony;;W5.01;N50.14;10; 
2;England;Cornwall;St Anthony-in-Meneage;;W5.10;N50.08;10; 
2;England;Cornwall;St Austell;;W4.78;N50.33;10; 
2;England;Cornwall;St Blazey;;W4.72;N50.35;10; 
2;England;Cornwall;St Blazey Gate;;W4.72;N50.34;10; 
2;England;Cornwall;St Breock;;W4.86;N50.50;10; 
2;England;Cornwall;St Breward;;W4.69;N50.55;10; 
2;England;Cornwall;St Buryan;;W5.63;N50.06;10; 
2;England;Cornwall;St Cleer;;W4.48;N50.48;10; 
2;England;Cornwall;St Clement;;W5.01;N50.24;10; 
2;England;Cornwall;St Clether;;W4.54;N50.62;10; 
2;England;Cornwall;St Columb Major;;W4.94;N50.42;10; 
2;England;Cornwall;St Columb Minor;;W5.04;N50.41;10; 
2;England;Cornwall;St Columb Road;;W4.94;N50.39;10; 
2;England;Cornwall;St Day;;W5.18;N50.23;10; 
2;England;Cornwall;St Dennis;;W4.88;N50.37;10; 
2;England;Cornwall;St Dominick;;W4.25;N50.48;10; 
2;England;Cornwall;St Endellion;;W4.83;N50.56;10; 
2;England;Cornwall;St Enoder;;W4.96;N50.36;10; 
2;England;Cornwall;St Erme;;W5.03;N50.30;10; 
2;England;Cornwall;St Erney;;W4.29;N50.40;10; 
2;England;Cornwall;St Erth;;W5.43;N50.16;10; 
2;England;Cornwall;St Erth Praze;;W5.40;N50.16;10; 
2;England;Cornwall;St Ervan;;W4.97;N50.49;10; 
2;England;Cornwall;St Eval;;W4.98;N50.47;10; 
2;England;Cornwall;St Ewe;;W4.85;N50.27;10; 
2;England;Cornwall;St Gennys;;W4.63;N50.74;10; 
2;England;Cornwall;St Germans;;W4.32;N50.38;10; 
2;England;Cornwall;St Gluvias;;W5.11;N50.16;10; 
2;England;Cornwall;St Hilary;;W5.42;N50.12;10; 
2;England;Cornwall;St Issey;;W4.93;N50.50;10; 
2;England;Cornwall;St Ive;;W4.39;N50.47;10; 
2;England;Cornwall;St Ive Cross;;W4.38;N50.47;10; 
2;England;Cornwall;St Ives;;W5.49;N50.20;10; 
2;England;Cornwall;St Jidgey;;W4.90;N50.48;10; 
2;England;Cornwall;St John;;W4.25;N50.35;10; 
2;England;Cornwall;St Just;;W5.69;N50.12;10; 
2;England;Cornwall;St Just in Roseland;;W5.01;N50.17;10; 
2;England;Cornwall;St Keverne;;W5.08;N50.04;10; 
2;England;Cornwall;St Kew;;W4.79;N50.55;10; 
2;England;Cornwall;St Kew Highway;;W4.78;N50.54;10; 
2;England;Cornwall;St Keyne;;W4.47;N50.41;10; 
2;England;Cornwall;St Lawrence;;W4.76;N50.46;10; 
2;England;Cornwall;St Levan;;W5.66;N50.04;10; 
2;England;Cornwall;St Mabyn;;W4.76;N50.52;10; 
2;England;Cornwall;St Martin;;W5.17;N50.06;10; 
2;England;Cornwall;St Martin;;W4.44;N50.36;10; 
2;England;Cornwall;St Mawes;;W5.02;N50.15;10; 
2;England;Cornwall;St Mawgan;;W5.00;N50.44;10; 
2;England;Cornwall;St Mellion;;W4.28;N50.46;10; 
2;England;Cornwall;St Merryn;;W4.99;N50.51;10; 
2;England;Cornwall;St Mewan;;W4.82;N50.32;10; 
2;England;Cornwall;St Michael Caerhays;;W4.86;N50.24;10; 
2;England;Cornwall;St Micheal Penkevil;;W5.01;N50.23;10; 
2;England;Cornwall;St Minver;;W4.88;N50.55;10; 
2;England;Cornwall;St Neot;;W4.56;N50.47;10; 
2;England;Cornwall;St Newlyn East;;W5.06;N50.36;10; 
2;England;Cornwall;St Pinnock;;W4.53;N50.43;10; 
2;England;Cornwall;St Ruan;;W5.19;N49.99;10; 
2;England;Cornwall;St Stephen;;W4.89;N50.34;10; 
2;England;Cornwall;St Stephens;;W4.23;N50.40;10; 
2;England;Cornwall;St Stephens;;W4.37;N50.64;10; 
2;England;Cornwall;St Teath;;W4.74;N50.58;10; 
2;England;Cornwall;St Tudy;;W4.74;N50.55;10; 
2;England;Cornwall;St Veep;;W4.63;N50.36;10; 
2;England;Cornwall;St Wenn;;W4.87;N50.44;10; 
2;England;Cornwall;St Winnow;;W4.66;N50.38;10; 
2;England;Cornwall;Stenalees;;W4.80;N50.37;10; 
2;England;Cornwall;Stencoose;;W5.21;N50.26;10; 
2;England;Cornwall;Stennack;;W5.29;N50.18;10; 
2;England;Cornwall;Stepaside;;W4.87;N50.26;10; 
2;England;Cornwall;Stibb;;W4.53;N50.86;10; 
2;England;Cornwall;Sticker;;W4.85;N50.31;10; 
2;England;Cornwall;Stithians;;W5.18;N50.18;10; 
2;England;Cornwall;Stoke Climsland;;W4.31;N50.54;10; 
2;England;Cornwall;Stoptide;;W4.90;N50.53;10; 
2;England;Cornwall;Stratton;;W4.52;N50.82;10; 
2;England;Cornwall;Stursdon;;W4.50;N50.88;10; 
2;England;Cornwall;Summercourt;;W4.98;N50.36;10; 
2;England;Cornwall;Sunrising Estate;;W4.46;N50.35;10; 
2;England;Cornwall;Sweets;;W4.62;N50.72;10; 
2;England;Cornwall;Sweetshouse;;W4.70;N50.41;10; 
2;England;Cornwall;Talland;;W4.50;N50.33;10; 
2;England;Cornwall;Talskiddy;;W4.94;N50.44;10; 
2;England;Cornwall;Tamar;;W4.39;N50.75;10; 
2;England;Cornwall;Temple;;W4.62;N50.52;10; 
2;England;Cornwall;Tencreek;;W4.48;N50.34;10; 
2;England;Cornwall;Terras;;W4.91;N50.34;10; 
2;England;Cornwall;The Carracks;;W5.54;N50.20;10; 
2;England;Cornwall;The Towans;;W5.43;N50.19;10; 
2;England;Cornwall;Thorne;;W4.54;N50.80;10; 
2;England;Cornwall;Three Burrows;;W5.17;N50.27;10; 
2;England;Cornwall;Three Hammers;;W4.51;N50.65;10; 
2;England;Cornwall;Three Holes Cross;;W4.80;N50.52;10; 
2;England;Cornwall;Threemilestone;;W5.11;N50.25;10; 
2;England;Cornwall;Threewaters;;W4.77;N50.46;10; 
2;England;Cornwall;Thurdon;;W4.44;N50.87;10; 
2;England;Cornwall;Tideford;;W4.33;N50.40;10; 
2;England;Cornwall;Tideford Cross;;W4.33;N50.42;10; 
2;England;Cornwall;Tilland;;W4.36;N50.42;10; 
2;England;Cornwall;Timbrelham;;W4.31;N50.59;10; 
2;England;Cornwall;Tintagel;;W4.76;N50.65;10; 
2;England;Cornwall;Tintagel Head;;W4.75;N50.66;10; 
2;England;Cornwall;Titson;;W4.49;N50.78;10; 
2;England;Cornwall;Todpool;;W5.17;N50.24;10; 
2;England;Cornwall;Tolborough;;W4.58;N50.56;10; 
2;England;Cornwall;Tolcarne;;W5.24;N50.16;10; 
2;England;Cornwall;Tolcarne;;W5.29;N50.19;10; 
2;England;Cornwall;Tolcarne Wartha;;W5.25;N50.16;10; 
2;England;Cornwall;Toldish;;W4.92;N50.39;10; 
2;England;Cornwall;Tolgus Mount;;W5.25;N50.23;10; 
2;England;Cornwall;Tolskithy;;W5.25;N50.22;10; 
2;England;Cornwall;Tolvaddon Downs;;W5.29;N50.23;10; 
2;England;Cornwall;Tomperrow;;W5.13;N50.25;10; 
2;England;Cornwall;Torfrey;;W4.65;N50.35;10; 
2;England;Cornwall;Torpoint;;W4.20;N50.37;10; 
2;England;Cornwall;Towan;;W5.00;N50.52;10; 
2;England;Cornwall;Towan Cross;;W5.23;N50.28;10; 
2;England;Cornwall;Towan Head;;W5.10;N50.42;10; 
2;England;Cornwall;Towednack;;W5.53;N50.18;10; 
2;England;Cornwall;Townshend;;W5.37;N50.13;10; 
2;England;Cornwall;Traboe;;W5.15;N50.04;10; 
2;England;Cornwall;Tramagenna;;W4.70;N50.60;10; 
2;England;Cornwall;Treal;;W5.19;N50.00;10; 
2;England;Cornwall;Treamble;;W5.12;N50.36;10; 
2;England;Cornwall;Treath;;W5.13;N50.09;10; 
2;England;Cornwall;Treator;;W4.96;N50.53;10; 
2;England;Cornwall;Trebarber;;W5.01;N50.41;10; 
2;England;Cornwall;Trebartha;;W4.45;N50.56;10; 
2;England;Cornwall;Trebarwith;;W4.75;N50.64;10; 
2;England;Cornwall;Trebarwith Strand;;W4.77;N50.64;10; 
2;England;Cornwall;Trebeath;;W4.47;N50.65;10; 
2;England;Cornwall;Trebell Green;;W4.74;N50.42;10; 
2;England;Cornwall;Trebetherick;;W4.92;N50.56;10; 
2;England;Cornwall;Trebilcock;;W4.83;N50.40;10; 
2;England;Cornwall;Trebudannon;;W4.97;N50.41;10; 
2;England;Cornwall;Trebullett;;W4.37;N50.57;10; 
2;England;Cornwall;Treburgett;;W4.75;N50.57;10; 
2;England;Cornwall;Treburgie;;W4.53;N50.44;10; 
2;England;Cornwall;Treburley;;W4.34;N50.56;10; 
2;England;Cornwall;Treburrick;;W5.01;N50.49;10; 
2;England;Cornwall;Trebyan;;W4.71;N50.43;10; 
2;England;Cornwall;Tredannick;;W4.80;N50.50;10; 
2;England;Cornwall;Tredaule;;W4.50;N50.60;10; 
2;England;Cornwall;Tredavoe;;W5.56;N50.09;10; 
2;England;Cornwall;Tredethy;;W4.73;N50.50;10; 
2;England;Cornwall;Tredinnick;;W5.58;N50.15;10; 
2;England;Cornwall;Tredinnick;;W4.49;N50.38;10; 
2;England;Cornwall;Tredinnick;;W4.75;N50.39;10; 
2;England;Cornwall;Tredinnick;;W4.59;N50.46;10; 
2;England;Cornwall;Tredinnick;;W4.93;N50.49;10; 
2;England;Cornwall;Tredrizzick;;W4.89;N50.54;10; 
2;England;Cornwall;Treen;;W5.60;N50.17;10; 
2;England;Cornwall;Treesmill;;W4.70;N50.36;10; 
2;England;Cornwall;Trefanny Hill;;W4.53;N50.38;10; 
2;England;Cornwall;Treforda;;W4.72;N50.59;10; 
2;England;Cornwall;Trefrize;;W4.40;N50.55;10; 
2;England;Cornwall;Tregada;;W4.34;N50.60;10; 
2;England;Cornwall;Tregadgwith;;W5.60;N50.06;10; 
2;England;Cornwall;Tregadillett;;W4.41;N50.62;10; 
2;England;Cornwall;Tregajorran;;W5.26;N50.21;10; 
2;England;Cornwall;Tregamere;;W4.93;N50.43;10; 
2;England;Cornwall;Tregardock;;W4.77;N50.61;10; 
2;England;Cornwall;Tregargus;;W4.89;N50.34;10; 
2;England;Cornwall;Tregarland;;W4.46;N50.38;10; 
2;England;Cornwall;Tregarlandbridge;;W4.47;N50.38;10; 
2;England;Cornwall;Tregarne;;W5.10;N50.05;10; 
2;England;Cornwall;Tregarrick Mill;;W4.53;N50.38;10; 
2;England;Cornwall;Tregatillian;;W4.93;N50.43;10; 
2;England;Cornwall;Tregatta;;W4.76;N50.65;10; 
2;England;Cornwall;Tregavarah;;W5.58;N50.10;10; 
2;England;Cornwall;Tregear;;W5.22;N50.06;10; 
2;England;Cornwall;Tregeare;;W4.49;N50.64;10; 
2;England;Cornwall;Tregellist;;W4.82;N50.55;10; 
2;England;Cornwall;Tregeseal;;W5.68;N50.12;10; 
2;England;Cornwall;Tregew;;W5.08;N50.16;10; 
2;England;Cornwall;Tregidden;;W5.14;N50.06;10; 
2;England;Cornwall;Tregolls;;W5.18;N50.18;10; 
2;England;Cornwall;Tregona;;W5.03;N50.48;10; 
2;England;Cornwall;Tregonce;;W4.93;N50.51;10; 
2;England;Cornwall;Tregonetha;;W4.88;N50.43;10; 
2;England;Cornwall;Tregonna;;W4.94;N50.51;10; 
2;England;Cornwall;Tregonning;;W5.01;N50.38;10; 
2;England;Cornwall;Tregony;;W4.92;N50.26;10; 
2;England;Cornwall;Tregoodwell;;W4.67;N50.61;10; 
2;England;Cornwall;Tregorden;;W4.82;N50.53;10; 
2;England;Cornwall;Tregorrick;;W4.79;N50.32;10; 
2;England;Cornwall;Tregoss;;W4.87;N50.40;10; 
2;England;Cornwall;Tregreenwell;;W4.72;N50.58;10; 
2;England;Cornwall;Tregrehan Mills;;W4.75;N50.34;10; 
2;England;Cornwall;Tregullon;;W4.73;N50.44;10; 
2;England;Cornwall;Tregunna;;W4.87;N50.52;10; 
2;England;Cornwall;Tregurrian;;W5.02;N50.44;10; 
2;England;Cornwall;Tregurtha Downs;;W5.45;N50.12;10; 
2;England;Cornwall;Trehan;;W4.25;N50.39;10; 
2;England;Cornwall;Trehemborne;;W5.00;N50.51;10; 
2;England;Cornwall;Trehunist;;W4.38;N50.44;10; 
2;England;Cornwall;Trekeivesteps;;W4.51;N50.50;10; 
2;England;Cornwall;Trekenner;;W4.34;N50.57;10; 
2;England;Cornwall;Trekenning;;W4.95;N50.42;10; 
2;England;Cornwall;Treknow;;W4.75;N50.64;10; 
2;England;Cornwall;Trelan;;W5.15;N50.01;10; 
2;England;Cornwall;Trelash;;W4.57;N50.68;10; 
2;England;Cornwall;Treleigh;;W5.22;N50.24;10; 
2;England;Cornwall;Trelew;;W5.06;N50.17;10; 
2;England;Cornwall;Treligga;;W4.75;N50.62;10; 
2;England;Cornwall;Trelights;;W4.84;N50.57;10; 
2;England;Cornwall;Trelill;;W4.76;N50.56;10; 
2;England;Cornwall;Trelion;;W4.91;N50.33;10; 
2;England;Cornwall;Treliske;;W5.08;N50.26;10; 
2;England;Cornwall;Trelissick;;W5.04;N50.21;10; 
2;England;Cornwall;Treliver;;W4.84;N50.45;10; 
2;England;Cornwall;Treloquithack;;W5.23;N50.11;10; 
2;England;Cornwall;Trelowia;;W4.40;N50.37;10; 
2;England;Cornwall;Trelowth;;W4.82;N50.32;10; 
2;England;Cornwall;Tremail;;W4.60;N50.64;10; 
2;England;Cornwall;Tremaine;;W4.50;N50.66;10; 
2;England;Cornwall;Tremar;;W4.46;N50.48;10; 
2;England;Cornwall;Trematon;;W4.26;N50.40;10; 
2;England;Cornwall;Trematon Castle;;W4.23;N50.39;10; 
2;England;Cornwall;Tremayne;;W5.30;N50.16;10; 
2;England;Cornwall;Trembraze;;W4.46;N50.45;10; 
2;England;Cornwall;Tremedda;;W5.56;N50.19;10; 
2;England;Cornwall;Tremethick Cross;;W5.58;N50.11;10; 
2;England;Cornwall;Tremore;;W4.80;N50.44;10; 
2;England;Cornwall;Tremorebridge;;W4.81;N50.44;10; 
2;England;Cornwall;Trenance;;W5.08;N50.40;10; 
2;England;Cornwall;Trenance;;W4.84;N50.44;10; 
2;England;Cornwall;Trenance;;W5.03;N50.46;10; 
2;England;Cornwall;Trenance;;W4.93;N50.50;10; 
2;England;Cornwall;Trenant;;W4.52;N50.48;10; 
2;England;Cornwall;Trenant;;W4.83;N50.51;10; 
2;England;Cornwall;Trenarren;;W4.76;N50.29;10; 
2;England;Cornwall;Trenay;;W4.59;N50.46;10; 
2;England;Cornwall;Trencreek;;W5.06;N50.39;10; 
2;England;Cornwall;Trencrom;;W5.48;N50.17;10; 
2;England;Cornwall;Trendeal;;W4.96;N50.33;10; 
2;England;Cornwall;Trenear;;W5.24;N50.13;10; 
2;England;Cornwall;Treneglos;;W4.54;N50.66;10; 
2;England;Cornwall;Trenerth;;W5.36;N50.16;10; 
2;England;Cornwall;Trenewan;;W4.57;N50.34;10; 
2;England;Cornwall;Trengale;;W4.52;N50.47;10; 
2;England;Cornwall;Trengune;;W4.57;N50.70;10; 
2;England;Cornwall;Trenhorne;;W4.44;N50.57;10; 
2;England;Cornwall;Treningle;;W4.76;N50.45;10; 
2;England;Cornwall;Treninnick;;W5.08;N50.39;10; 
2;England;Cornwall;Trenithon;;W4.96;N50.35;10; 
2;England;Cornwall;Trenoon;;W5.21;N50.01;10; 
2;England;Cornwall;Trenoweth;;W5.15;N50.15;10; 
2;England;Cornwall;Trenwheal;;W5.34;N50.13;10; 
2;England;Cornwall;Trequite;;W4.79;N50.55;10; 
2;England;Cornwall;Trerise;;W5.19;N50.00;10; 
2;England;Cornwall;Trerose;;W5.10;N50.10;10; 
2;England;Cornwall;Trerulefoot;;W4.36;N50.39;10; 
2;England;Cornwall;Tresamble;;W5.15;N50.20;10; 
2;England;Cornwall;Tresarrett;;W4.71;N50.52;10; 
2;England;Cornwall;Tresavean;;W5.19;N50.20;10; 
2;England;Cornwall;Tresawle;;W4.96;N50.27;10; 
2;England;Cornwall;Tresawsen;;W5.11;N50.29;10; 
2;England;Cornwall;Trescoll;;W4.77;N50.41;10; 
2;England;Cornwall;Trescowe;;W5.40;N50.12;10; 
2;England;Cornwall;Tresean;;W5.12;N50.38;10; 
2;England;Cornwall;Tresevern Croft;;W5.20;N50.18;10; 
2;England;Cornwall;Tresillian;;W5.00;N50.27;10; 
2;England;Cornwall;Tresinney;;W4.68;N50.59;10; 
2;England;Cornwall;Treskerby;;W5.21;N50.24;10; 
2;England;Cornwall;Treskillard;;W5.26;N50.20;10; 
2;England;Cornwall;Treskilling;;W4.77;N50.37;10; 
2;England;Cornwall;Treskinnick Cross;;W4.55;N50.75;10; 
2;England;Cornwall;Treslothan;;W5.29;N50.18;10; 
2;England;Cornwall;Tresmeer;;W4.50;N50.65;10; 
2;England;Cornwall;Tresowes Green;;W5.37;N50.11;10; 
2;England;Cornwall;Tresoweshill;;W5.35;N50.11;10; 
2;England;Cornwall;Tresparrett;;W4.63;N50.68;10; 
2;England;Cornwall;Tresparrett Posts;;W4.63;N50.70;10; 
2;England;Cornwall;Treswithian;;W5.32;N50.21;10; 
2;England;Cornwall;Treswithian Downs;;W5.32;N50.22;10; 
2;England;Cornwall;Trethellan Water;;W5.21;N50.19;10; 
2;England;Cornwall;Trethevy;;W4.73;N50.66;10; 
2;England;Cornwall;Trethewell;;W5.01;N50.17;10; 
2;England;Cornwall;Trethewey;;W5.66;N50.04;10; 
2;England;Cornwall;Trethillick;;W4.96;N50.53;10; 
2;England;Cornwall;Trethosa;;W4.89;N50.34;10; 
2;England;Cornwall;Trethowel;;W4.79;N50.34;10; 
2;England;Cornwall;Trethurgy;;W4.77;N50.36;10; 
2;England;Cornwall;Trevadlock;;W4.45;N50.58;10; 
2;England;Cornwall;Trevalga;;W4.71;N50.67;10; 
2;England;Cornwall;Trevalgan;;W5.51;N50.20;10; 
2;England;Cornwall;Trevance;;W4.92;N50.50;10; 
2;England;Cornwall;Trevanger;;W4.89;N50.55;10; 
2;England;Cornwall;Trevanson;;W4.86;N50.51;10; 
2;England;Cornwall;Trevarrack;;W5.52;N50.12;10; 
2;England;Cornwall;Trevarren;;W4.94;N50.40;10; 
2;England;Cornwall;Trevarrian;;W5.03;N50.45;10; 
2;England;Cornwall;Trevarrick;;W4.83;N50.25;10; 
2;England;Cornwall;Trevarth;;W5.19;N50.21;10; 
2;England;Cornwall;Treveal;;W5.54;N50.20;10; 
2;England;Cornwall;Treveal;;W5.12;N50.38;10; 
2;England;Cornwall;Trevegean;;W5.69;N50.10;10; 
2;England;Cornwall;Treveighan;;W4.72;N50.57;10; 
2;England;Cornwall;Trevellas;;W5.17;N50.32;10; 
2;England;Cornwall;Trevelmond;;W4.53;N50.43;10; 
2;England;Cornwall;Trevelver;;W4.89;N50.52;10; 
2;England;Cornwall;Trevemper;;W5.08;N50.39;10; 
2;England;Cornwall;Treven;;W4.76;N50.65;10; 
2;England;Cornwall;Trevena;;W5.34;N50.10;10; 
2;England;Cornwall;Trevenen;;W5.24;N50.11;10; 
2;England;Cornwall;Trevenen Bal;;W5.26;N50.11;10; 
2;England;Cornwall;Trevenning;;W4.72;N50.56;10; 
2;England;Cornwall;Treveor;;W4.83;N50.23;10; 
2;England;Cornwall;Treverbyn;;W4.77;N50.37;10; 
2;England;Cornwall;Treverbyn;;W4.80;N50.37;10; 
2;England;Cornwall;Treverbyn;;W4.53;N50.47;10; 
2;England;Cornwall;Treverva;;W5.15;N50.13;10; 
2;England;Cornwall;Trevescan;;W5.70;N50.05;10; 
2;England;Cornwall;Trevia;;W4.70;N50.61;10; 
2;England;Cornwall;Trevigro;;W4.35;N50.49;10; 
2;England;Cornwall;Trevilder;;W4.79;N50.51;10; 
2;England;Cornwall;Trevilla;;W5.05;N50.21;10; 
2;England;Cornwall;Trevilson;;W5.03;N50.35;10; 
2;England;Cornwall;Trevine;;W4.83;N50.54;10; 
2;England;Cornwall;Treviscoe;;W4.89;N50.36;10; 
2;England;Cornwall;Treviskey;;W5.19;N50.20;10; 
2;England;Cornwall;Trevithal;;W5.55;N50.07;10; 
2;England;Cornwall;Trevoll;;W5.05;N50.38;10; 
2;England;Cornwall;Trevone;;W4.97;N50.53;10; 
2;England;Cornwall;Trevorrick;;W4.93;N50.51;10; 
2;England;Cornwall;Trevose Head;;W5.02;N50.54;10; 
2;England;Cornwall;Trevowah;;W5.11;N50.38;10; 
2;England;Cornwall;Trevowhan;;W5.64;N50.15;10; 
2;England;Cornwall;Trew;;W5.34;N50.11;10; 
2;England;Cornwall;Trewalder;;W4.72;N50.60;10; 
2;England;Cornwall;Trewarmett;;W4.74;N50.64;10; 
2;England;Cornwall;Trewartha;;W5.48;N50.18;10; 
2;England;Cornwall;Trewartha;;W4.91;N50.21;10; 
2;England;Cornwall;Trewassa;;W4.63;N50.64;10; 
2;England;Cornwall;Trewavas Head;;W5.36;N50.09;10; 
2;England;Cornwall;Treween;;W4.51;N50.61;10; 
2;England;Cornwall;Trewellard;;W5.68;N50.13;10; 
2;England;Cornwall;Trewen;;W4.71;N50.61;10; 
2;England;Cornwall;Trewen;;W4.47;N50.62;10; 
2;England;Cornwall;Trewennack;;W5.24;N50.10;10; 
2;England;Cornwall;Trewennan;;W4.74;N50.59;10; 
2;England;Cornwall;Trewetha;;W4.82;N50.58;10; 
2;England;Cornwall;Trewethen;;W4.76;N50.57;10; 
2;England;Cornwall;Trewethern;;W4.82;N50.54;10; 
2;England;Cornwall;Trewey;;W5.57;N50.18;10; 
2;England;Cornwall;Trewidland;;W4.46;N50.40;10; 
2;England;Cornwall;Trewindle;;W4.62;N50.42;10; 
2;England;Cornwall;Trewint;;W4.40;N50.44;10; 
2;England;Cornwall;Trewint;;W4.51;N50.59;10; 
2;England;Cornwall;Trewint;;W4.58;N50.74;10; 
2;England;Cornwall;Trewithian;;W4.98;N50.19;10; 
2;England;Cornwall;Trewithick;;W4.41;N50.63;10; 
2;England;Cornwall;Trewollock;;W4.80;N50.24;10; 
2;England;Cornwall;Trewoodloe;;W4.37;N50.51;10; 
2;England;Cornwall;Trewoon;;W5.24;N50.02;10; 
2;England;Cornwall;Trewoon;;W4.82;N50.33;10; 
2;England;Cornwall;Treworga;;W4.95;N50.22;10; 
2;England;Cornwall;Treworlas;;W4.95;N50.20;10; 
2;England;Cornwall;Treworld;;W4.67;N50.67;10; 
2;England;Cornwall;Trewornan;;W4.85;N50.53;10; 
2;England;Cornwall;Treworrick;;W4.49;N50.48;10; 
2;England;Cornwall;Treworthal;;W4.97;N50.20;10; 
2;England;Cornwall;Treyarnon;;W5.02;N50.51;10; 
2;England;Cornwall;Trezaise;;W4.82;N50.39;10; 
2;England;Cornwall;Trezelah;;W5.54;N50.14;10; 
2;England;Cornwall;Trillacott;;W4.46;N50.67;10; 
2;England;Cornwall;Trispen;;W5.03;N50.31;10; 
2;England;Cornwall;Troan;;W4.96;N50.37;10; 
2;England;Cornwall;Troon;;W5.28;N50.19;10; 
2;England;Cornwall;Troswell;;W4.47;N50.69;10; 
2;England;Cornwall;Truas;;W4.74;N50.65;10; 
2;England;Cornwall;Truro;;W5.05;N50.25;10; 
2;England;Cornwall;Truscott;;W4.40;N50.63;10; 
2;England;Cornwall;Trussall;;W5.23;N50.11;10; 
2;England;Cornwall;Truthan;;W5.04;N50.31;10; 
2;England;Cornwall;Truthwall;;W5.47;N50.13;10; 
2;England;Cornwall;Trythogga;;W5.54;N50.12;10; 
2;England;Cornwall;Tubbs Mill;;W4.86;N50.25;10; 
2;England;Cornwall;Tuckingmill;;W5.28;N50.21;10; 
2;England;Cornwall;Tuckingmill;;W4.69;N50.56;10; 
2;England;Cornwall;Tuelmenna;;W4.50;N50.45;10; 
2;England;Cornwall;Turfdown;;W4.69;N50.45;10; 
2;England;Cornwall;Tutwell;;W4.27;N50.55;10; 
2;England;Cornwall;Twelveheads;;W5.14;N50.23;10; 
2;England;Cornwall;Twelvewoods;;W4.53;N50.45;10; 
2;England;Cornwall;Two Burrows;;W5.18;N50.27;10; 
2;England;Cornwall;Tywardreath;;W4.70;N50.35;10; 
2;England;Cornwall;Tywardreath Highway;;W4.71;N50.36;10; 
2;England;Cornwall;United Downs;;W5.17;N50.22;10; 
2;England;Cornwall;Upcott;;W4.50;N50.92;10; 
2;England;Cornwall;Upton;;W4.44;N50.52;10; 
2;England;Cornwall;Upton;;W4.55;N50.80;10; 
2;England;Cornwall;Upton Cross;;W4.42;N50.52;10; 
2;England;Cornwall;Valley Truckle;;W4.70;N50.60;10; 
2;England;Cornwall;Varfell;;W5.50;N50.13;10; 
2;England;Cornwall;Vellanoweth;;W5.50;N50.14;10; 
2;England;Cornwall;Venterdon;;W4.33;N50.54;10; 
2;England;Cornwall;Ventongimps;;W5.12;N50.31;10; 
2;England;Cornwall;Ventonleague;;W5.40;N50.19;10; 
2;England;Cornwall;Veryan;;W4.93;N50.21;10; 
2;England;Cornwall;Veryan Green;;W4.91;N50.22;10; 
2;England;Cornwall;Victoria;;W4.84;N50.41;10; 
2;England;Cornwall;Viscar;;W5.20;N50.15;10; 
2;England;Cornwall;Vogue;;W5.19;N50.23;10; 
2;England;Cornwall;Wadebridge;;W4.85;N50.51;10; 
2;England;Cornwall;Wainhouse Corner;;W4.58;N50.72;10; 
2;England;Cornwall;Wall;;W5.36;N50.17;10; 
2;England;Cornwall;Wanson;;W4.56;N50.77;10; 
2;England;Cornwall;Warbstow;;W4.54;N50.68;10; 
2;England;Cornwall;Warbstow Cross;;W4.54;N50.68;10; 
2;England;Cornwall;Warleggan;;W4.60;N50.49;10; 
2;England;Cornwall;Washaway;;W4.77;N50.48;10; 
2;England;Cornwall;Watergate;;W4.49;N50.35;10; 
2;England;Cornwall;Watergate;;W4.67;N50.59;10; 
2;England;Cornwall;Waterloo;;W4.68;N50.51;10; 
2;England;Cornwall;Wearde;;W4.22;N50.40;10; 
2;England;Cornwall;Week Green;;W4.51;N50.74;10; 
2;England;Cornwall;Week St Mary;;W4.51;N50.74;10; 
2;England;Cornwall;Weir Quay;;W4.21;N50.45;10; 
2;England;Cornwall;Welltown;;W4.63;N50.47;10; 
2;England;Cornwall;Wendron;;W5.26;N50.13;10; 
2;England;Cornwall;Wenfordbridge;;W4.71;N50.54;10; 
2;England;Cornwall;Werrington;;W4.37;N50.65;10; 
2;England;Cornwall;West Curry;;W4.43;N50.71;10; 
2;England;Cornwall;West Downs;;W4.77;N50.44;10; 
2;England;Cornwall;West Looe;;W4.45;N50.35;10; 
2;England;Cornwall;West Looe;;W4.46;N50.35;10; 
2;England;Cornwall;West Pentire;;W5.13;N50.39;10; 
2;England;Cornwall;West Taphouse;;W4.60;N50.43;10; 
2;England;Cornwall;West Tolgus;;W5.26;N50.23;10; 
2;England;Cornwall;West Watergate;;W4.51;N50.34;10; 
2;England;Cornwall;West Youlstone;;W4.47;N50.90;10; 
2;England;Cornwall;Westdowns;;W4.75;N50.60;10; 
2;England;Cornwall;Wheal Alfred;;W5.40;N50.17;10; 
2;England;Cornwall;Wheal Baddon;;W5.12;N50.23;10; 
2;England;Cornwall;Wheal Busy;;W5.17;N50.25;10; 
2;England;Cornwall;Wheal Frances;;W5.12;N50.32;10; 
2;England;Cornwall;Wheal Kitty;;W5.20;N50.31;10; 
2;England;Cornwall;Wheal Rose;;W5.21;N50.25;10; 
2;England;Cornwall;Wherry Town;;W5.55;N50.10;10; 
2;England;Cornwall;Whipsiderry;;W5.05;N50.42;10; 
2;England;Cornwall;White Cross;;W5.24;N50.04;10; 
2;England;Cornwall;White Cross;;W4.97;N50.39;10; 
2;England;Cornwall;Whitecross;;W5.47;N50.15;10; 
2;England;Cornwall;Whitecross;;W4.62;N50.33;10; 
2;England;Cornwall;Whitecross;;W4.87;N50.51;10; 
2;England;Cornwall;Whitemoor;;W4.85;N50.37;10; 
2;England;Cornwall;Whitewell;;W4.75;N50.58;10; 
2;England;Cornwall;Whitstone;;W4.46;N50.75;10; 
2;England;Cornwall;Widegates;;W4.42;N50.38;10; 
2;England;Cornwall;Widemouth Bay;;W4.55;N50.78;10; 
2;England;Cornwall;Wilcove;;W4.20;N50.38;10; 
2;England;Cornwall;Windmill;;W4.97;N50.52;10; 
2;England;Cornwall;Winnard's Perch;;W4.93;N50.45;10; 
2;England;Cornwall;Withiel;;W4.83;N50.45;10; 
2;England;Cornwall;Withielgoose;;W4.81;N50.45;10; 
2;England;Cornwall;Withielgoose Mills;;W4.81;N50.45;10; 
2;England;Cornwall;Wolf Rock;;W5.80;N49.94;10; 
2;England;Cornwall;Woodford;;W4.54;N50.88;10; 
2;England;Cornwall;Woolley;;W4.49;N50.91;10; 
2;England;Cornwall;Woolston;;W4.41;N50.48;10; 
2;England;Cornwall;Woon;;W4.81;N50.39;10; 
2;England;Cornwall;Wringsdown;;W4.39;N50.65;10; 
2;England;Cornwall;Yeolmbridge;;W4.39;N50.65;10; 
2;England;Cornwall;Zelah;;W5.07;N50.31;10; 
2;England;Cornwall;Zennor;;W5.57;N50.18;10; 
2;England;Cornwall;Zoar;;W5.12;N50.02;10; 
2;England;Cornwall;Zone Point;;W5.00;N50.14;10;