"Level";"Country";"County";"Place";"void";"Longitude";"Latitude";"ZoomLevel";"Icon"
2;ENG;Devon;Abbey;;W3.22;N50.88;10;
2;ENG;Devon;Abbey Gate;;W3.00;N50.76;10;
2;ENG;Devon;Abbots Bickington;;W4.30;N50.89;10;
2;ENG;Devon;Abbotsham;;W4.25;N51.01;10;
2;ENG;Devon;Abbotskerswell;;W3.62;N50.50;10;
2;ENG;Devon;Abbotsleigh;;W3.68;N50.31;10;
2;ENG;Devon;Aish;;W3.63;N50.41;10;
2;ENG;Devon;Aish;;W3.84;N50.42;10;
2;ENG;Devon;Alfington;;W3.26;N50.77;10;
2;ENG;Devon;All Saints;;W2.99;N50.80;10;
2;ENG;Devon;Allaleigh;;W3.68;N50.36;10;
2;ENG;Devon;Aller;;W3.59;N50.50;10;
2;ENG;Devon;Aller;;W3.35;N50.84;10;
2;ENG;Devon;Aller Grove;;W3.34;N50.75;10;
2;ENG;Devon;Aller Park;;W3.59;N50.50;10;
2;ENG;Devon;Allercombe;;W3.36;N50.73;10;
2;ENG;Devon;Alminstone Cross;;W4.36;N50.95;10;
2;ENG;Devon;Alphington;;W3.54;N50.69;10;
2;ENG;Devon;Alston;;W2.99;N50.81;10;
2;ENG;Devon;Alswear;;W3.82;N50.98;10;
2;ENG;Devon;Alverdiscott;;W4.12;N51.00;10;
2;ENG;Devon;Alwington;;W4.28;N50.98;10;
2;ENG;Devon;Appledore;;W3.33;N50.91;10;
2;ENG;Devon;Appledore;;W4.19;N51.04;10;
2;ENG;Devon;Arlington;;W3.98;N51.14;10;
2;ENG;Devon;Arlington Beccott;;W3.98;N51.15;10;
2;ENG;Devon;Ash;;W3.64;N50.32;10;
2;ENG;Devon;Ash Hill;;W3.53;N50.54;10;
2;ENG;Devon;Ash Mill;;W3.73;N50.99;10;
2;ENG;Devon;Ash Moor;;W3.72;N50.95;10;
2;ENG;Devon;Ash Thomas;;W3.42;N50.88;10;
2;ENG;Devon;Ashburton;;W3.76;N50.51;10;
2;ENG;Devon;Ashbury;;W4.12;N50.76;10;
2;ENG;Devon;Ashcombe;;W3.54;N50.60;10;
2;ENG;Devon;Ashculme;;W3.22;N50.91;10;
2;ENG;Devon;Ashford;;W4.10;N51.09;10;
2;ENG;Devon;Ashford;;W3.85;N50.31;10;
2;ENG;Devon;Ashill;;W3.30;N50.89;10;
2;ENG;Devon;Ashmansworthy;;W4.37;N50.93;10;
2;ENG;Devon;Ashmill;;W4.28;N50.73;10;
2;ENG;Devon;Ashprington;;W3.67;N50.40;10;
2;ENG;Devon;Ashreigney;;W3.96;N50.90;10;
2;ENG;Devon;Ashridge Court;;W3.90;N50.81;10;
2;ENG;Devon;Ashwater;;W4.29;N50.73;10;
2;ENG;Devon;Ashwell;;W3.56;N50.55;10;
2;ENG;Devon;Atherington;;W4.01;N50.98;10;
2;ENG;Devon;Aunk;;W3.36;N50.79;10;
2;ENG;Devon;Aveton Gifford;;W3.84;N50.30;10;
2;ENG;Devon;Avon;;W3.80;N50.40;10;
2;ENG;Devon;Avonwick;;W3.81;N50.40;10;
2;ENG;Devon;Awliscombe;;W3.23;N50.80;10;
2;ENG;Devon;Axe;;W3.05;N50.72;10;
2;ENG;Devon;Axminster;;W3.00;N50.77;10;
2;ENG;Devon;Axmouth;;W3.06;N50.71;10;
2;ENG;Devon;Axtown;;W4.10;N50.48;10;
2;ENG;Devon;Aylesbeare;;W3.37;N50.71;10;
2;ENG;Devon;Ayshford;;W3.36;N50.92;10;
2;ENG;Devon;Babbacombe;;W3.52;N50.47;10;
2;ENG;Devon;Babeny;;W3.87;N50.55;10;
2;ENG;Devon;Badworthy;;W3.86;N50.43;10;
2;ENG;Devon;Baggy Point;;W4.25;N51.14;10;
2;ENG;Devon;Ballhill;;W4.48;N50.98;10;
2;ENG;Devon;Bampton;;W3.49;N50.98;10;
2;ENG;Devon;Bantham;;W3.88;N50.27;10;
2;ENG;Devon;Barbican;;W4.13;N50.36;10;
2;ENG;Devon;Barbrook;;W3.84;N51.20;10;
2;ENG;Devon;Barne Barton;;W4.19;N50.39;10;
2;ENG;Devon;Barnstaple;;W4.05;N51.07;10;
2;ENG;Devon;Barton;;W3.55;N50.49;10;
2;ENG;Devon;Barton Gate;;W3.88;N51.15;10;
2;ENG;Devon;Barton Town;;W3.88;N51.14;10;
2;ENG;Devon;Barwick;;W4.00;N50.84;10;
2;ENG;Devon;Batherm;;W3.46;N51.00;10;
2;ENG;Devon;Batson;;W3.78;N50.23;10;
2;ENG;Devon;Batsworthy;;W3.68;N50.95;10;
2;ENG;Devon;Battledown Cross;;W4.20;N50.85;10;
2;ENG;Devon;Batworthy;;W3.82;N50.65;10;
2;ENG;Devon;Beacon;;W3.18;N50.83;10;
2;ENG;Devon;Beacon;;W3.09;N50.86;10;
2;ENG;Devon;Beaford;;W4.06;N50.90;10;
2;ENG;Devon;Beare;;W3.44;N50.79;10;
2;ENG;Devon;Beaworthy;;W4.19;N50.76;10;
2;ENG;Devon;Beer;;W3.10;N50.69;10;
2;ENG;Devon;Beer Head;;W3.09;N50.68;10;
2;ENG;Devon;Beesands;;W3.67;N50.24;10;
2;ENG;Devon;Beeson;;W3.67;N50.24;10;
2;ENG;Devon;Bellever;;W3.90;N50.57;10;
2;ENG;Devon;Belsford;;W3.74;N50.41;10;
2;ENG;Devon;Belstone;;W3.97;N50.72;10;
2;ENG;Devon;Belstone Corner;;W3.95;N50.76;10;
2;ENG;Devon;Bennah;;W3.65;N50.64;10;
2;ENG;Devon;Benton;;W3.92;N51.10;10;
2;ENG;Devon;Bentwichen;;W3.81;N51.08;10;
2;ENG;Devon;Bere Alston;;W4.20;N50.47;10;
2;ENG;Devon;Bere Ferrers;;W4.18;N50.44;10;
2;ENG;Devon;Berner's Cross;;W3.94;N50.86;10;
2;ENG;Devon;Berry Cross;;W4.17;N50.90;10;
2;ENG;Devon;Berry Down Cross;;W4.04;N51.16;10;
2;ENG;Devon;Berry Head;;W3.48;N50.39;10;
2;ENG;Devon;Berry Pomeroy;;W3.66;N50.43;10;
2;ENG;Devon;Berrynarbor;;W4.06;N51.19;10;
2;ENG;Devon;Berrysbridge;;W3.53;N50.79;10;
2;ENG;Devon;Bickerton;;W3.66;N50.23;10;
2;ENG;Devon;Bickingcott;;W3.75;N51.03;10;
2;ENG;Devon;Bickington;;W3.70;N50.53;10;
2;ENG;Devon;Bickington;;W4.09;N51.06;10;
2;ENG;Devon;Bickleigh;;W4.08;N50.43;10;
2;ENG;Devon;Bickleigh;;W3.50;N50.85;10;
2;ENG;Devon;Bickleton;;W4.14;N51.05;10;
2;ENG;Devon;Bideford;;W4.22;N51.01;10;
2;ENG;Devon;Bidlake;;W4.13;N50.67;10;
2;ENG;Devon;Bigbury;;W3.88;N50.29;10;
2;ENG;Devon;Bigbury on Sea;;W3.89;N50.28;10;
2;ENG;Devon;Billacombe;;W4.08;N50.36;10;
2;ENG;Devon;Bilsdon;;W3.67;N50.70;10;
2;ENG;Devon;Birchill;;W2.99;N50.82;10;
2;ENG;Devon;Bish Mill;;W3.79;N51.01;10;
2;ENG;Devon;Bishop's Nympton;;W3.78;N50.99;10;
2;ENG;Devon;Bishop's Tawton;;W4.05;N51.05;10;
2;ENG;Devon;Bishopsteignton;;W3.55;N50.54;10;
2;ENG;Devon;Bishopswood;;W3.06;N50.90;10;
2;ENG;Devon;Bittadon;;W4.08;N51.14;10;
2;ENG;Devon;Bittaford;;W3.88;N50.39;10;
2;ENG;Devon;Black Dog;;W3.70;N50.86;10;
2;ENG;Devon;Black Torrington;;W4.18;N50.82;10;
2;ENG;Devon;Blackawton;;W3.68;N50.33;10;
2;ENG;Devon;Blackborough;;W3.29;N50.87;10;
2;ENG;Devon;Blackhorse;;W3.46;N50.72;10;
2;ENG;Devon;Blackmoor Gate;;W3.94;N51.17;10;
2;ENG;Devon;Blackpool;;W3.61;N50.31;10;
2;ENG;Devon;Blackpool;;W4.02;N50.36;10;
2;ENG;Devon;Blackpool;;W3.68;N50.55;10;
2;ENG;Devon;Blackpool Corner;;W2.95;N50.77;10;
2;ENG;Devon;Blackwell;;W3.42;N51.02;10;
2;ENG;Devon;Blagdon;;W3.62;N50.43;10;
2;ENG;Devon;Blannicombe;;W3.20;N50.76;10;
2;ENG;Devon;Blegbury;;W4.52;N51.00;10;
2;ENG;Devon;Boasley Cross;;W4.12;N50.71;10;
2;ENG;Devon;Bocombe;;W4.30;N50.96;10;
2;ENG;Devon;Bodley;;W3.91;N51.18;10;
2;ENG;Devon;Bodmiscombe;;W3.28;N50.87;10;
2;ENG;Devon;Bolberry;;W3.83;N50.23;10;
2;ENG;Devon;Bolham;;W3.49;N50.91;10;
2;ENG;Devon;Bolham Water;;W3.19;N50.90;10;
2;ENG;Devon;Bolt Head;;W3.78;N50.20;10;
2;ENG;Devon;Bolt Tail;;W3.86;N50.23;10;
2;ENG;Devon;Bondleigh;;W3.91;N50.81;10;
2;ENG;Devon;Bonehill;;W3.80;N50.57;10;
2;ENG;Devon;Boode;;W4.14;N51.12;10;
2;ENG;Devon;Bottreaux Mill;;W3.68;N51.02;10;
2;ENG;Devon;Bovey;;W3.81;N50.65;10;
2;ENG;Devon;Bovey Tracey;;W3.68;N50.58;10;
2;ENG;Devon;Bow;;W3.67;N50.39;10;
2;ENG;Devon;Bow;;W3.81;N50.79;10;
2;ENG;Devon;Bowd;;W3.27;N50.70;10;
2;ENG;Devon;Bowden;;W3.63;N50.32;10;
2;ENG;Devon;Bradaford;;W4.28;N50.72;10;
2;ENG;Devon;Bradfield;;W3.35;N50.87;10;
2;ENG;Devon;Bradford;;W4.24;N50.84;10;
2;ENG;Devon;Bradiford;;W4.07;N51.08;10;
2;ENG;Devon;Bradninch;;W3.43;N50.81;10;
2;ENG;Devon;Bradstone;;W4.29;N50.59;10;
2;ENG;Devon;Bradwell;;W4.16;N51.15;10;
2;ENG;Devon;Bradworthy;;W4.39;N50.89;10;
2;ENG;Devon;Brampford Speke;;W3.53;N50.77;10;
2;ENG;Devon;Brandis Corner;;W4.25;N50.80;10;
2;ENG;Devon;Branscombe;;W3.14;N50.68;10;
2;ENG;Devon;Bratton Clovelly;;W4.18;N50.69;10;
2;ENG;Devon;Bratton Fleming;;W3.94;N51.11;10;
2;ENG;Devon;Braunton;;W4.17;N51.10;10;
2;ENG;Devon;Bray;;W3.88;N51.03;10;
2;ENG;Devon;Brayford;;W3.88;N51.09;10;
2;ENG;Devon;Brayfordhill;;W3.88;N51.09;10;
2;ENG;Devon;Brealeys;;W4.07;N50.91;10;
2;ENG;Devon;Brendon;;W4.33;N50.83;10;
2;ENG;Devon;Brendon;;W4.34;N50.89;10;
2;ENG;Devon;Brendon;;W3.77;N51.20;10;
2;ENG;Devon;Brent Mill;;W3.84;N50.41;10;
2;ENG;Devon;Bridestowe;;W4.11;N50.68;10;
2;ENG;Devon;Bridford;;W3.68;N50.66;10;
2;ENG;Devon;Bridfordmills;;W3.65;N50.67;10;
2;ENG;Devon;Bridge Ball;;W3.80;N51.19;10;
2;ENG;Devon;Bridge End;;W3.84;N50.29;10;
2;ENG;Devon;Bridge End;;W3.28;N50.69;10;
2;ENG;Devon;Bridge Reeve;;W3.90;N50.90;10;
2;ENG;Devon;Bridgend;;W4.03;N50.31;10;
2;ENG;Devon;Bridgerule;;W4.45;N50.79;10;
2;ENG;Devon;Bridgetown;;W3.67;N50.42;10;
2;ENG;Devon;Brightley;;W4.00;N50.75;10;
2;ENG;Devon;Brimley;;W3.71;N50.58;10;
2;ENG;Devon;Brimley;;W2.95;N50.79;10;
2;ENG;Devon;Brinsworthy;;W3.78;N51.05;10;
2;ENG;Devon;Brithem Bottom;;W3.40;N50.88;10;
2;ENG;Devon;Brixham;;W3.52;N50.38;10;
2;ENG;Devon;Brixton;;W4.03;N50.35;10;
2;ENG;Devon;Broad Oak;;W3.33;N50.72;10;
2;ENG;Devon;Broad Parkham;;W4.32;N50.97;10;
2;ENG;Devon;Broadbury;;W4.17;N50.74;10;
2;ENG;Devon;Broadclyst;;W3.44;N50.76;10;
2;ENG;Devon;Broadhembury;;W3.27;N50.82;10;
2;ENG;Devon;Broadhempston;;W3.69;N50.48;10;
2;ENG;Devon;Broadlands;;W3.62;N50.52;10;
2;ENG;Devon;Broadsands;;W3.56;N50.40;10;
2;ENG;Devon;Broadwoodkelly;;W3.97;N50.82;10;
2;ENG;Devon;Broadwoodwidger;;W4.25;N50.67;10;
2;ENG;Devon;Brockfield;;W2.99;N50.84;10;
2;ENG;Devon;Brockscombe;;W4.18;N50.72;10;
2;ENG;Devon;Brook;;W4.16;N50.52;10;
2;ENG;Devon;Brook;;W3.70;N50.70;10;
2;ENG;Devon;Brookleigh;;W3.49;N50.77;10;
2;ENG;Devon;Broom;;W2.96;N50.81;10;
2;ENG;Devon;Brownheath;;W3.22;N50.92;10;
2;ENG;Devon;Brownston;;W3.84;N50.35;10;
2;ENG;Devon;Brushford;;W3.89;N50.84;10;
2;ENG;Devon;Brynsworthy;;W4.09;N51.05;10;
2;ENG;Devon;Buckerell;;W3.25;N50.79;10;
2;ENG;Devon;Buckfast;;W3.79;N50.48;10;
2;ENG;Devon;Buckfastleigh;;W3.79;N50.48;10;
2;ENG;Devon;Buckhorn;;W4.31;N50.76;10;
2;ENG;Devon;Buckland;;W3.86;N50.27;10;
2;ENG;Devon;Buckland;;W3.59;N50.52;10;
2;ENG;Devon;Buckland Brewer;;W4.26;N50.95;10;
2;ENG;Devon;Buckland Filleigh;;W4.18;N50.86;10;
2;ENG;Devon;Buckland in the Moor;;W3.80;N50.54;10;
2;ENG;Devon;Buckland Monachorum;;W4.14;N50.49;10;
2;ENG;Devon;Buckleigh;;W4.24;N51.03;10;
2;ENG;Devon;Buck's Cross;;W4.36;N50.98;10;
2;ENG;Devon;Buck's Mills;;W4.35;N50.98;10;
2;ENG;Devon;Budlake;;W3.44;N50.79;10;
2;ENG;Devon;Budleigh Salterton;;W3.33;N50.63;10;
2;ENG;Devon;Bugford;;W4.00;N51.16;10;
2;ENG;Devon;Bulkworthy;;W4.29;N50.90;10;
2;ENG;Devon;Bull Point;;W4.19;N51.19;10;
2;ENG;Devon;Bulverton;;W3.26;N50.68;10;
2;ENG;Devon;Burford;;W4.42;N50.97;10;
2;ENG;Devon;Burlescombe;;W3.32;N50.93;10;
2;ENG;Devon;Burlestone;;W3.65;N50.32;10;
2;ENG;Devon;Burnard's Ho;;W4.40;N50.81;10;
2;ENG;Devon;Burnstone;;W4.39;N50.98;10;
2;ENG;Devon;Burridge;;W2.98;N50.84;10;
2;ENG;Devon;Burridge;;W4.05;N51.09;10;
2;ENG;Devon;Burrington;;W3.95;N50.92;10;
2;ENG;Devon;Burrow;;W3.31;N50.69;10;
2;ENG;Devon;Burrow;;W3.43;N50.76;10;
2;ENG;Devon;Burscott;;W4.40;N50.99;10;
2;ENG;Devon;Bursdon;;W4.47;N50.94;10;
2;ENG;Devon;Burston;;W3.83;N50.80;10;
2;ENG;Devon;Butterleigh;;W3.46;N50.86;10;
2;ENG;Devon;Butts;;W3.70;N50.68;10;
2;ENG;Devon;Cabbacott;;W4.28;N50.96;10;
2;ENG;Devon;Cadbury;;W3.54;N50.82;10;
2;ENG;Devon;Cadeleigh;;W3.55;N50.85;10;
2;ENG;Devon;Caen;;W4.16;N51.08;10;
2;ENG;Devon;Calstock;;W4.21;N50.49;10;
2;ENG;Devon;Calverleigh;;W3.53;N50.91;10;
2;ENG;Devon;Capton;;W3.64;N50.36;10;
2;ENG;Devon;Carey;;W4.32;N50.64;10;
2;ENG;Devon;Carlingwark;;W3.19;N50.91;10;
2;ENG;Devon;Carrhouse;;W3.74;N50.84;10;
2;ENG;Devon;Castle;;W2.95;N50.80;10;
2;ENG;Devon;Caton;;W3.72;N50.52;10;
2;ENG;Devon;Cattedown;;W4.12;N50.35;10;
2;ENG;Devon;Caute;;W4.23;N50.86;10;
2;ENG;Devon;Chaddlehanger;;W4.17;N50.57;10;
2;ENG;Devon;Chaddlewood;;W4.04;N50.38;10;
2;ENG;Devon;Chagford;;W3.84;N50.66;10;
2;ENG;Devon;Challaborough;;W3.89;N50.28;10;
2;ENG;Devon;Challacombe;;W3.87;N51.14;10;
2;ENG;Devon;Chambercombe;;W4.12;N51.20;10;
2;ENG;Devon;Champson;;W3.71;N51.03;10;
2;ENG;Devon;Chantry;;W4.02;N50.98;10;
2;ENG;Devon;Chapelton;;W4.04;N51.01;10;
2;ENG;Devon;Chapmans Well;;W4.33;N50.71;10;
2;ENG;Devon;Chardstock;;W2.99;N50.83;10;
2;ENG;Devon;Charles;;W3.88;N51.07;10;
2;ENG;Devon;Charles Bottom;;W3.88;N51.06;10;
2;ENG;Devon;Chasty;;W4.35;N50.79;10;
2;ENG;Devon;Chawleigh;;W3.83;N50.89;10;
2;ENG;Devon;Cheglinch;;W4.13;N51.16;10;
2;ENG;Devon;Cheldon;;W3.80;N50.90;10;
2;ENG;Devon;Chelfham;;W3.98;N51.09;10;
2;ENG;Devon;Chelston;;W3.56;N50.46;10;
2;ENG;Devon;Cheristow;;W4.49;N50.99;10;
2;ENG;Devon;Cheriton;;W3.81;N51.19;10;
2;ENG;Devon;Cheriton Bishop;;W3.74;N50.72;10;
2;ENG;Devon;Cheriton Cross;;W3.74;N50.71;10;
2;ENG;Devon;Cheriton Fitzpaine;;W3.62;N50.84;10;
2;ENG;Devon;Cheston;;W3.85;N50.40;10;
2;ENG;Devon;Chettiscombe;;W3.48;N50.91;10;
2;ENG;Devon;Chevithorne;;W3.46;N50.92;10;
2;ENG;Devon;Chichacott;;W3.98;N50.74;10;
2;ENG;Devon;Chillaton;;W4.22;N50.60;10;
2;ENG;Devon;Chillington;;W3.69;N50.26;10;
2;ENG;Devon;Chilson;;W2.96;N50.82;10;
2;ENG;Devon;Chilsworthy;;W4.38;N50.82;10;
2;ENG;Devon;Chitterley;;W3.50;N50.82;10;
2;ENG;Devon;Chittlehamholt;;W3.93;N50.96;10;
2;ENG;Devon;Chittlehampton;;W3.95;N51.00;10;
2;ENG;Devon;Chivelstone;;W3.71;N50.22;10;
2;ENG;Devon;Chivenor;;W4.14;N51.08;10;
2;ENG;Devon;Christow;;W3.65;N50.64;10;
2;ENG;Devon;Chub Tor;;W4.10;N50.47;10;
2;ENG;Devon;Chudleigh;;W3.61;N50.59;10;
2;ENG;Devon;Chudleigh Knighton;;W3.63;N50.58;10;
2;ENG;Devon;Chulmleigh;;W3.87;N50.91;10;
2;ENG;Devon;Church Green;;W3.17;N50.75;10;
2;ENG;Devon;Churchill;;W3.00;N50.80;10;
2;ENG;Devon;Churchill;;W4.01;N51.14;10;
2;ENG;Devon;Churchstow;;W3.81;N50.29;10;
2;ENG;Devon;Churchtown;;W4.44;N50.80;10;
2;ENG;Devon;Churchtown;;W3.90;N51.17;10;
2;ENG;Devon;Churscombe;;W3.59;N50.44;10;
2;ENG;Devon;Churston Ferrers;;W3.54;N50.38;10;
2;ENG;Devon;Clapham;;W3.57;N50.67;10;
2;ENG;Devon;Clapworthy;;W3.89;N51.00;10;
2;ENG;Devon;Clawton;;W4.34;N50.76;10;
2;ENG;Devon;Clayhanger;;W3.39;N50.98;10;
2;ENG;Devon;Clayhidon;;W3.19;N50.92;10;
2;ENG;Devon;Clearbrook;;W4.08;N50.46;10;
2;ENG;Devon;Cleave;;W3.13;N50.79;10;
2;ENG;Devon;Clifford;;W4.42;N50.96;10;
2;ENG;Devon;Clifton;;W4.01;N51.15;10;
2;ENG;Devon;Clovelly;;W4.40;N50.99;10;
2;ENG;Devon;Clyst;;W3.45;N50.69;10;
2;ENG;Devon;Clyst Honiton;;W3.44;N50.72;10;
2;ENG;Devon;Clyst Hydon;;W3.37;N50.80;10;
2;ENG;Devon;Clyst St George;;W3.44;N50.68;10;
2;ENG;Devon;Clyst St Lawrence;;W3.39;N50.79;10;
2;ENG;Devon;Clyst St Mary;;W3.46;N50.70;10;
2;ENG;Devon;Coarsewell;;W3.82;N50.37;10;
2;ENG;Devon;Cobb;;W2.95;N50.71;10;
2;ENG;Devon;Cobbaton;;W3.98;N51.01;10;
2;ENG;Devon;Cockington;;W3.56;N50.45;10;
2;ENG;Devon;Cockwood;;W3.45;N50.61;10;
2;ENG;Devon;Coffinswell;;W3.56;N50.50;10;
2;ENG;Devon;Cofton;;W3.47;N50.61;10;
2;ENG;Devon;Colaton Raleigh;;W3.31;N50.67;10;
2;ENG;Devon;Coldeast;;W3.68;N50.56;10;
2;ENG;Devon;Coldharbour;;W3.33;N50.89;10;
2;ENG;Devon;Coldridge;;W3.86;N50.84;10;
2;ENG;Devon;Colebrook;;W3.42;N50.84;10;
2;ENG;Devon;Colebrooke;;W3.74;N50.78;10;
2;ENG;Devon;Coleford;;W3.74;N50.79;10;
2;ENG;Devon;Colestocks;;W3.29;N50.79;10;
2;ENG;Devon;Collaton;;W3.81;N50.23;10;
2;ENG;Devon;Collaton St Mary;;W3.60;N50.42;10;
2;ENG;Devon;Colleton Mills;;W3.90;N50.91;10;
2;ENG;Devon;Collipriest;;W3.49;N50.88;10;
2;ENG;Devon;Colliton;;W3.30;N50.82;10;
2;ENG;Devon;Colscott;;W4.33;N50.90;10;
2;ENG;Devon;Columbjohn;;W3.49;N50.78;10;
2;ENG;Devon;Colyford;;W3.07;N50.72;10;
2;ENG;Devon;Colyton;;W3.07;N50.73;10;
2;ENG;Devon;Combe;;W3.81;N50.22;10;
2;ENG;Devon;Combe;;W4.05;N50.34;10;
2;ENG;Devon;Combe;;W3.83;N50.49;10;
2;ENG;Devon;Combe Fishacre;;W3.63;N50.46;10;
2;ENG;Devon;Combe Martin;;W4.03;N51.19;10;
2;ENG;Devon;Combe Pafford;;W3.53;N50.48;10;
2;ENG;Devon;Combe Raleigh;;W3.20;N50.81;10;
2;ENG;Devon;Combebow;;W4.15;N50.66;10;
2;ENG;Devon;Combeinteignhead;;W3.55;N50.52;10;
2;ENG;Devon;Combpyne;;W3.00;N50.72;10;
2;ENG;Devon;Combrew;;W4.11;N51.06;10;
2;ENG;Devon;Compton;;W4.12;N50.38;10;
2;ENG;Devon;Compton;;W3.60;N50.46;10;
2;ENG;Devon;Cookbury;;W4.27;N50.83;10;
2;ENG;Devon;Cookbury Wick;;W4.30;N50.82;10;
2;ENG;Devon;Coombe;;W3.51;N50.55;10;
2;ENG;Devon;Coombe;;W3.27;N50.71;10;
2;ENG;Devon;Coombe;;W3.42;N50.94;10;
2;ENG;Devon;Coombelake;;W3.30;N50.75;10;
2;ENG;Devon;Copplestone;;W3.76;N50.80;10;
2;ENG;Devon;Cornwood;;W3.97;N50.41;10;
2;ENG;Devon;Cornworthy;;W3.66;N50.38;10;
2;ENG;Devon;Cory;;W4.34;N50.91;10;
2;ENG;Devon;Coryton;;W4.19;N50.62;10;
2;ENG;Devon;Coryton;;W3.03;N50.77;10;
2;ENG;Devon;Cotford;;W3.21;N50.72;10;
2;ENG;Devon;Cotleigh;;W3.13;N50.81;10;
2;ENG;Devon;Cotmaton;;W3.26;N50.67;10;
2;ENG;Devon;Cott;;W3.71;N50.43;10;
2;ENG;Devon;Cotteylands;;W3.50;N50.89;10;
2;ENG;Devon;Cottwood;;W3.97;N50.90;10;
2;ENG;Devon;Countess Wear;;W3.50;N50.70;10;
2;ENG;Devon;Countisbury;;W3.80;N51.22;10;
2;ENG;Devon;Court Barton;;W3.65;N50.65;10;
2;ENG;Devon;Cove;;W3.49;N50.96;10;
2;ENG;Devon;Cowley;;W3.56;N50.74;10;
2;ENG;Devon;Cowleymoor;;W3.48;N50.90;10;
2;ENG;Devon;Crabtree;;W4.09;N50.38;10;
2;ENG;Devon;Craddock;;W3.30;N50.90;10;
2;ENG;Devon;Cranford;;W4.36;N50.96;10;
2;ENG;Devon;Crapstone;;W4.11;N50.48;10;
2;ENG;Devon;Crawley;;W3.05;N50.85;10;
2;ENG;Devon;Creacombe;;W3.69;N50.95;10;
2;ENG;Devon;Crediton;;W3.66;N50.78;10;
2;ENG;Devon;Crockernwell;;W3.77;N50.71;10;
2;ENG;Devon;Crockers;;W4.07;N51.12;10;
2;ENG;Devon;Crook;;W3.19;N50.81;10;
2;ENG;Devon;Cross;;W4.00;N51.08;10;
2;ENG;Devon;Cross;;W4.21;N51.12;10;
2;ENG;Devon;Cross Green;;W4.29;N50.66;10;
2;ENG;Devon;Cross Roads;;W4.19;N50.65;10;
2;ENG;Devon;Crowden;;W4.14;N50.77;10;
2;ENG;Devon;Crowder Park;;W3.83;N50.41;10;
2;ENG;Devon;Crownhill;;W4.14;N50.40;10;
2;ENG;Devon;Croyde;;W4.23;N51.12;10;
2;ENG;Devon;Croyde Bay;;W4.24;N51.12;10;
2;ENG;Devon;Cruwys Morchard;;W3.60;N50.89;10;
2;ENG;Devon;Cudlipptown;;W4.09;N50.59;10;
2;ENG;Devon;Cullompton;;W3.39;N50.85;10;
2;ENG;Devon;Culm;;W3.43;N50.81;10;
2;ENG;Devon;Culm Davy;;W3.25;N50.92;10;
2;ENG;Devon;Culmstock;;W3.28;N50.90;10;
2;ENG;Devon;Culverlane;;W3.77;N50.42;10;
2;ENG;Devon;Curtisknowle;;W3.78;N50.36;10;
2;ENG;Devon;Daccombe;;W3.55;N50.50;10;
2;ENG;Devon;Dainton;;W3.62;N50.48;10;
2;ENG;Devon;Dalch;;W3.64;N50.91;10;
2;ENG;Devon;Dalwood;;W3.07;N50.79;10;
2;ENG;Devon;Darracott;;W4.18;N51.12;10;
2;ENG;Devon;Dart;;W3.77;N50.49;10;
2;ENG;Devon;Dartington;;W3.70;N50.44;10;
2;ENG;Devon;Dartmeet;;W3.87;N50.54;10;
2;ENG;Devon;Dartmoor;;W3.97;N50.59;10;
2;ENG;Devon;Dartmouth;;W3.58;N50.34;10;
2;ENG;Devon;Dawlish;;W3.47;N50.57;10;
2;ENG;Devon;Dawlish Warren;;W3.45;N50.59;10;
2;ENG;Devon;Dean;;W3.97;N51.18;10;
2;ENG;Devon;Dean;;W3.86;N51.21;10;
2;ENG;Devon;Dean Cross;;W4.14;N51.15;10;
2;ENG;Devon;Dean Prior;;W3.80;N50.45;10;
2;ENG;Devon;Denbury;;W3.66;N50.49;10;
2;ENG;Devon;Derby;;W4.05;N51.07;10;
2;ENG;Devon;Derriford;;W4.12;N50.41;10;
2;ENG;Devon;Derril;;W4.41;N50.80;10;
2;ENG;Devon;Derriton;;W4.37;N50.80;10;
2;ENG;Devon;Devonport;;W4.18;N50.37;10;
2;ENG;Devon;Diddywell;;W4.21;N51.03;10;
2;ENG;Devon;Didworthy;;W3.86;N50.44;10;
2;ENG;Devon;Dinworthy;;W4.40;N50.90;10;
2;ENG;Devon;Dippertown;;W4.23;N50.63;10;
2;ENG;Devon;Dipple;;W4.36;N50.92;10;
2;ENG;Devon;Diptford;;W3.80;N50.39;10;
2;ENG;Devon;Dittisham;;W3.60;N50.37;10;
2;ENG;Devon;Doccombe;;W3.74;N50.66;10;
2;ENG;Devon;Docton;;W4.50;N50.96;10;
2;ENG;Devon;Dodbrooke;;W3.78;N50.28;10;
2;ENG;Devon;Doddiscombsleigh;;W3.62;N50.66;10;
2;ENG;Devon;Dodscott;;W4.08;N50.95;10;
2;ENG;Devon;Dog Village;;W3.44;N50.75;10;
2;ENG;Devon;Dolton;;W4.03;N50.88;10;
2;ENG;Devon;Dousland;;W4.07;N50.49;10;
2;ENG;Devon;Dowland;;W4.04;N50.87;10;
2;ENG;Devon;Down St Mary;;W3.79;N50.82;10;
2;ENG;Devon;Down Thomas;;W4.10;N50.33;10;
2;ENG;Devon;Downicary;;W4.30;N50.68;10;
2;ENG;Devon;Drakeland Corner;;W4.01;N50.40;10;
2;ENG;Devon;Drayford;;W3.73;N50.90;10;
2;ENG;Devon;Drewsteignton;;W3.80;N50.70;10;
2;ENG;Devon;Dubbs Cross;;W4.29;N50.70;10;
2;ENG;Devon;Duerdon;;W4.39;N50.94;10;
2;ENG;Devon;Dulford;;W3.33;N50.84;10;
2;ENG;Devon;Dumpinghill;;W4.21;N50.85;10;
2;ENG;Devon;Dunchideock;;W3.60;N50.67;10;
2;ENG;Devon;Dunkeswell;;W3.22;N50.85;10;
2;ENG;Devon;Dunsford;;W3.68;N50.68;10;
2;ENG;Devon;Dunstone;;W3.69;N50.24;10;
2;ENG;Devon;Dunstone;;W3.98;N50.34;10;
2;ENG;Devon;Dunstone;;W3.82;N50.56;10;
2;ENG;Devon;Dunterton;;W4.30;N50.58;10;
2;ENG;Devon;Duryard;;W3.54;N50.73;10;
2;ENG;Devon;East Allington;;W3.74;N50.31;10;
2;ENG;Devon;East Anstey;;W3.62;N51.02;10;
2;ENG;Devon;East Buckland;;W3.89;N51.06;10;
2;ENG;Devon;East Budleigh;;W3.33;N50.64;10;
2;ENG;Devon;East Butterleigh;;W3.45;N50.86;10;
2;ENG;Devon;East Charleton;;W3.74;N50.26;10;
2;ENG;Devon;East Cornworthy;;W3.63;N50.38;10;
2;ENG;Devon;East Dart;;W3.87;N50.54;10;
2;ENG;Devon;East Down;;W4.00;N51.15;10;
2;ENG;Devon;East Ilkerton;;W3.84;N51.19;10;
2;ENG;Devon;East Kimber;;W4.14;N50.76;10;
2;ENG;Devon;East Knowstone;;W3.66;N50.99;10;
2;ENG;Devon;East Leigh;;W3.85;N50.35;10;
2;ENG;Devon;East Leigh;;W3.86;N50.82;10;
2;ENG;Devon;East Mere;;W3.43;N50.94;10;
2;ENG;Devon;East Ogwell;;W3.65;N50.51;10;
2;ENG;Devon;East Panson;;W4.32;N50.70;10;
2;ENG;Devon;East Portlemouth;;W3.76;N50.22;10;
2;ENG;Devon;East Prawle;;W3.71;N50.21;10;
2;ENG;Devon;East Putford;;W4.33;N50.92;10;
2;ENG;Devon;East Stowford;;W3.95;N51.01;10;
2;ENG;Devon;East Village;;W3.64;N50.83;10;
2;ENG;Devon;East Week;;W3.89;N50.71;10;
2;ENG;Devon;East Worlington;;W3.75;N50.90;10;
2;ENG;Devon;Eastacombe;;W4.02;N50.98;10;
2;ENG;Devon;Eastacombe;;W4.09;N51.04;10;
2;ENG;Devon;Eastacott;;W3.96;N50.98;10;
2;ENG;Devon;Eastdon;;W3.45;N50.60;10;
2;ENG;Devon;Eastdown;;W3.65;N50.32;10;
2;ENG;Devon;Eastington;;W3.79;N50.86;10;
2;ENG;Devon;Eastleigh;;W4.16;N51.02;10;
2;ENG;Devon;Easton;;W3.86;N50.30;10;
2;ENG;Devon;Easton;;W3.82;N50.67;10;
2;ENG;Devon;East-the-Water;;W4.19;N51.01;10;
2;ENG;Devon;Ebberly Hill;;W4.03;N50.95;10;
2;ENG;Devon;Ebford;;W3.44;N50.67;10;
2;ENG;Devon;Eckworthy;;W4.27;N50.93;10;
2;ENG;Devon;Eddystone Rocks;;W4.28;N50.17;10;
2;ENG;Devon;Edginswell;;W3.58;N50.48;10;
2;ENG;Devon;Edistone;;W4.50;N50.96;10;
2;ENG;Devon;Efford;;W4.11;N50.38;10;
2;ENG;Devon;Eggbuckland;;W4.11;N50.39;10;
2;ENG;Devon;Eggesford Station;;W3.87;N50.88;10;
2;ENG;Devon;Elburton;;W4.06;N50.34;10;
2;ENG;Devon;Ellacombe;;W3.52;N50.46;10;
2;ENG;Devon;Ellerhayes;;W3.46;N50.80;10;
2;ENG;Devon;Elmscott;;W4.52;N50.96;10;
2;ENG;Devon;Elston;;W3.73;N50.80;10;
2;ENG;Devon;Elstone;;W3.89;N50.92;10;
2;ENG;Devon;Elwell;;W3.91;N51.06;10;
2;ENG;Devon;Enis;;W4.05;N51.01;10;
2;ENG;Devon;Erme;;W3.91;N50.46;10;
2;ENG;Devon;Ermington;;W3.92;N50.36;10;
2;ENG;Devon;Ernesettle;;W4.18;N50.41;10;
2;ENG;Devon;Estover;;W4.11;N50.41;10;
2;ENG;Devon;Eworthy;;W4.21;N50.73;10;
2;ENG;Devon;Exbourne;;W3.98;N50.80;10;
2;ENG;Devon;Exe;;W3.51;N50.95;10;
2;ENG;Devon;Exebridge;;W3.52;N51.00;10;
2;ENG;Devon;Exeter;;W3.53;N50.71;10;
2;ENG;Devon;Exeter Canal;;W3.49;N50.69;10;
2;ENG;Devon;Exminster;;W3.50;N50.67;10;
2;ENG;Devon;Exmouth;;W3.41;N50.62;10;
2;ENG;Devon;Exton;;W3.44;N50.66;10;
2;ENG;Devon;Exwick;;W3.56;N50.72;10;
2;ENG;Devon;Fairmile;;W3.30;N50.76;10;
2;ENG;Devon;Fairy Cross;;W4.28;N50.99;10;
2;ENG;Devon;Farringdon;;W3.40;N50.71;10;
2;ENG;Devon;Farway;;W3.16;N50.74;10;
2;ENG;Devon;Farway Marsh;;W2.99;N50.83;10;
2;ENG;Devon;Feniton;;W3.29;N50.78;10;
2;ENG;Devon;Fenny Bridges;;W3.26;N50.77;10;
2;ENG;Devon;Filham;;W3.91;N50.37;10;
2;ENG;Devon;Filleigh;;W3.79;N50.87;10;
2;ENG;Devon;Filleigh;;W3.91;N51.02;10;
2;ENG;Devon;Fishleigh;;W4.07;N50.82;10;
2;ENG;Devon;Fishleigh Castle;;W4.07;N50.82;10;
2;ENG;Devon;Fluxton;;W3.30;N50.72;10;
2;ENG;Devon;Folly Cross;;W4.20;N50.85;10;
2;ENG;Devon;Folly Gate;;W4.02;N50.75;10;
2;ENG;Devon;Ford;;W3.71;N50.24;10;
2;ENG;Devon;Ford;;W3.95;N50.33;10;
2;ENG;Devon;Ford;;W4.16;N50.38;10;
2;ENG;Devon;Ford;;W3.08;N50.82;10;
2;ENG;Devon;Ford;;W4.28;N50.99;10;
2;ENG;Devon;Forda;;W4.08;N50.69;10;
2;ENG;Devon;Forda;;W4.21;N51.12;10;
2;ENG;Devon;Forder Green;;W3.72;N50.49;10;
2;ENG;Devon;Fordton Mill;;W3.64;N50.77;10;
2;ENG;Devon;Fordwater;;W2.98;N50.81;10;
2;ENG;Devon;Foreland Point;;W3.78;N51.24;10;
2;ENG;Devon;Forestreet;;W4.29;N50.87;10;
2;ENG;Devon;Four Elms;;W3.06;N50.85;10;
2;ENG;Devon;Fremington;;W4.12;N51.06;10;
2;ENG;Devon;Frenchbeer;;W3.88;N50.64;10;
2;ENG;Devon;Frithelstock;;W4.19;N50.94;10;
2;ENG;Devon;Frithelstock Stone;;W4.20;N50.94;10;
2;ENG;Devon;Frittiscombe;;W3.68;N50.27;10;
2;ENG;Devon;Frost;;W3.74;N50.84;10;
2;ENG;Devon;Fullabrook;;W4.11;N51.14;10;
2;ENG;Devon;Furley;;W3.03;N50.83;10;
2;ENG;Devon;Furze;;W3.94;N51.01;10;
2;ENG;Devon;Galmpton;;W3.85;N50.24;10;
2;ENG;Devon;Galmpton;;W3.56;N50.39;10;
2;ENG;Devon;Gammaton;;W4.16;N51.00;10;
2;ENG;Devon;Gammaton Moor;;W4.15;N50.99;10;
2;ENG;Devon;Gappah;;W3.61;N50.58;10;
2;ENG;Devon;Garlandhayes;;W3.18;N50.92;10;
2;ENG;Devon;Garliford;;W3.78;N51.01;10;
2;ENG;Devon;Gatherley;;W4.30;N50.61;10;
2;ENG;Devon;George Nympton;;W3.85;N50.99;10;
2;ENG;Devon;Georgeham;;W4.20;N51.12;10;
2;ENG;Devon;Germansweek;;W4.22;N50.72;10;
2;ENG;Devon;Gidleigh;;W3.88;N50.67;10;
2;ENG;Devon;Gittisham;;W3.23;N50.77;10;
2;ENG;Devon;Glenholt;;W4.11;N50.42;10;
2;ENG;Devon;Godwell;;W3.91;N50.37;10;
2;ENG;Devon;Golden Park;;W4.52;N50.95;10;
2;ENG;Devon;Goldworthy;;W4.29;N50.97;10;
2;ENG;Devon;Goodleigh;;W4.01;N51.08;10;
2;ENG;Devon;Goodrington;;W3.57;N50.41;10;
2;ENG;Devon;Goodstone;;W3.72;N50.52;10;
2;ENG;Devon;Gooseford;;W3.88;N50.70;10;
2;ENG;Devon;Goosemoor;;W3.33;N50.69;10;
2;ENG;Devon;Goosewell;;W4.07;N51.20;10;
2;ENG;Devon;Gosford;;W3.29;N50.76;10;
2;ENG;Devon;Goveton;;W3.75;N50.30;10;
2;ENG;Devon;Grand Western Canal;;W3.39;N50.90;10;
2;ENG;Devon;Gratton;;W4.28;N50.86;10;
2;ENG;Devon;Great Torrington;;W4.15;N50.95;10;
2;ENG;Devon;Great Weeke;;W3.82;N50.66;10;
2;ENG;Devon;Green Down;;W3.02;N50.81;10;
2;ENG;Devon;Green Gate;;W3.41;N50.92;10;
2;ENG;Devon;Green Lane;;W3.72;N50.58;10;
2;ENG;Devon;Greenham;;W3.32;N50.97;10;
2;ENG;Devon;Grenofen;;W4.13;N50.51;10;
2;ENG;Devon;Grilstone;;W3.81;N51.00;10;
2;ENG;Devon;Grinacombe Moor;;W4.25;N50.69;10;
2;ENG;Devon;Guineaford;;W4.08;N51.11;10;
2;ENG;Devon;Gulworthy;;W4.20;N50.52;10;
2;ENG;Devon;Gunn;;W3.95;N51.08;10;
2;ENG;Devon;Haccombe;;W3.56;N50.51;10;
2;ENG;Devon;Haddacott;;W4.13;N50.99;10;
2;ENG;Devon;Hagginton Hill;;W4.07;N51.20;10;
2;ENG;Devon;Hakeford;;W3.98;N51.09;10;
2;ENG;Devon;Halberton;;W3.42;N50.89;10;
2;ENG;Devon;Half Moon Village;;W3.57;N50.76;10;
2;ENG;Devon;Hallsands;;W3.66;N50.23;10;
2;ENG;Devon;Hallspill;;W4.18;N50.98;10;
2;ENG;Devon;Halsfordwood;;W3.60;N50.72;10;
2;ENG;Devon;Halsinger;;W4.13;N51.12;10;
2;ENG;Devon;Halwell;;W3.73;N50.36;10;
2;ENG;Devon;Halwill;;W4.24;N50.76;10;
2;ENG;Devon;Halwill Junction;;W4.21;N50.77;10;
2;ENG;Devon;Ham;;W4.16;N50.39;10;
2;ENG;Devon;Ham;;W3.09;N50.80;10;
2;ENG;Devon;Hamlet;;W3.22;N50.78;10;
2;ENG;Devon;Hampton;;W3.05;N50.75;10;
2;ENG;Devon;Hand and Pen;;W3.36;N50.74;10;
2;ENG;Devon;Hannaford;;W3.99;N51.04;10;
2;ENG;Devon;Hansel;;W3.65;N50.31;10;
2;ENG;Devon;Harberton;;W3.73;N50.40;10;
2;ENG;Devon;Harbertonford;;W3.71;N50.39;10;
2;ENG;Devon;Harbourneford;;W3.81;N50.44;10;
2;ENG;Devon;Harcombe;;W3.58;N50.61;10;
2;ENG;Devon;Harcombe;;W3.20;N50.70;10;
2;ENG;Devon;Harcombe Bottom;;W2.95;N50.75;10;
2;ENG;Devon;Hardisworthy;;W4.53;N50.95;10;
2;ENG;Devon;Harford;;W3.92;N50.41;10;
2;ENG;Devon;Harford;;W3.99;N51.06;10;
2;ENG;Devon;Harleston;;W3.70;N50.29;10;
2;ENG;Devon;Harpford;;W3.29;N50.70;10;
2;ENG;Devon;Harracott;;W4.06;N51.01;10;
2;ENG;Devon;Harrowbeer;;W4.10;N50.49;10;
2;ENG;Devon;Hartland;;W4.49;N50.98;10;
2;ENG;Devon;Hartland Point;;W4.51;N51.01;10;
2;ENG;Devon;Hartley;;W4.14;N50.39;10;
2;ENG;Devon;Hatch;;W3.81;N50.29;10;
2;ENG;Devon;Hatherleigh;;W4.07;N50.81;10;
2;ENG;Devon;Hawkchurch;;W2.93;N50.79;10;
2;ENG;Devon;Hawkerland;;W3.34;N50.68;10;
2;ENG;Devon;Hawkridge;;W3.62;N51.05;10;
2;ENG;Devon;Hawley Bottom;;W3.09;N50.79;10;
2;ENG;Devon;Hayne;;W3.59;N50.85;10;
2;ENG;Devon;Haytor Vale;;W3.73;N50.57;10;
2;ENG;Devon;Haytown;;W4.30;N50.90;10;
2;ENG;Devon;Hazelwood;;W3.80;N50.35;10;
2;ENG;Devon;Headon;;W4.32;N50.79;10;
2;ENG;Devon;Heanton Punchardon;;W4.14;N51.09;10;
2;ENG;Devon;Heasley Mill;;W3.81;N51.07;10;
2;ENG;Devon;Heath Cross;;W3.64;N50.73;10;
2;ENG;Devon;Heath Cross;;W3.84;N50.75;10;
2;ENG;Devon;Heathercombe;;W3.82;N50.61;10;
2;ENG;Devon;Heathfield;;W3.65;N50.57;10;
2;ENG;Devon;Heathstock;;W3.08;N50.82;10;
2;ENG;Devon;Heavitree;;W3.50;N50.71;10;
2;ENG;Devon;Heddon;;W3.92;N51.03;10;
2;ENG;Devon;Hele;;W3.55;N50.47;10;
2;ENG;Devon;Hele;;W3.77;N50.51;10;
2;ENG;Devon;Hele;;W3.43;N50.80;10;
2;ENG;Devon;Hele;;W4.10;N51.20;10;
2;ENG;Devon;Hemerdon;;W4.02;N50.39;10;
2;ENG;Devon;Hemyock;;W3.23;N50.91;10;
2;ENG;Devon;Henaford;;W4.50;N50.93;10;
2;ENG;Devon;Henford;;W4.32;N50.72;10;
2;ENG;Devon;Hennock;;W3.65;N50.61;10;
2;ENG;Devon;Henstridge;;W4.03;N51.17;10;
2;ENG;Devon;Hexworthy;;W3.90;N50.53;10;
2;ENG;Devon;Heybrook Bay;;W4.12;N50.31;10;
2;ENG;Devon;High Bickington;;W4.00;N50.96;10;
2;ENG;Devon;High Bray;;W3.87;N51.09;10;
2;ENG;Devon;High Bullen;;W4.09;N50.96;10;
2;ENG;Devon;Highampton;;W4.15;N50.81;10;
2;ENG;Devon;Higher Ashton;;W3.62;N50.64;10;
2;ENG;Devon;Higher Brixham;;W3.52;N50.38;10;
2;ENG;Devon;Higher Burrowtown;;W3.41;N50.76;10;
2;ENG;Devon;Higher Cheriton;;W3.27;N50.79;10;
2;ENG;Devon;Higher Clovelly;;W4.40;N50.98;10;
2;ENG;Devon;Higher Gabwell;;W3.52;N50.51;10;
2;ENG;Devon;Higher Metcombe;;W3.33;N50.72;10;
2;ENG;Devon;Higher Molland;;W3.85;N51.08;10;
2;ENG;Devon;Higher Muddiford;;W4.07;N51.12;10;
2;ENG;Devon;Higher Prestacott;;W4.28;N50.74;10;
2;ENG;Devon;Higher Rocombe Barton;;W3.53;N50.50;10;
2;ENG;Devon;Higher Slade;;W4.14;N51.19;10;
2;ENG;Devon;Higher Tale;;W3.33;N50.80;10;
2;ENG;Devon;Higher Warcombe;;W4.19;N51.18;10;
2;ENG;Devon;Higher Weaver;;W3.35;N50.82;10;
2;ENG;Devon;Highweek;;W3.63;N50.53;10;
2;ENG;Devon;Highwood;;W3.22;N50.84;10;
2;ENG;Devon;Highworthy;;W4.21;N50.85;10;
2;ENG;Devon;Hillerton;;W3.81;N50.76;10;
2;ENG;Devon;Hillfield;;W3.64;N50.34;10;
2;ENG;Devon;Hillhead;;W3.54;N50.36;10;
2;ENG;Devon;Hillmoor;;W3.28;N50.90;10;
2;ENG;Devon;Hillside;;W3.83;N50.42;10;
2;ENG;Devon;Hillside;;W3.18;N50.83;10;
2;ENG;Devon;Hiscott;;W4.08;N51.01;10;
2;ENG;Devon;Hittisleigh Barton;;W3.80;N50.74;10;
2;ENG;Devon;Hoaroak Water;;W3.81;N51.20;10;
2;ENG;Devon;Hockworthy;;W3.38;N50.96;10;
2;ENG;Devon;Holbeton;;W3.95;N50.33;10;
2;ENG;Devon;Holcombe;;W3.48;N50.55;10;
2;ENG;Devon;Holcombe;;W2.97;N50.73;10;
2;ENG;Devon;Holcombe Rogus;;W3.35;N50.95;10;
2;ENG;Devon;Hole;;W4.37;N50.92;10;
2;ENG;Devon;Holemoor;;W4.24;N50.82;10;
2;ENG;Devon;Holewater;;W3.85;N51.09;10;
2;ENG;Devon;Hollacombe;;W3.70;N50.78;10;
2;ENG;Devon;Hollacombe;;W4.31;N50.80;10;
2;ENG;Devon;Hollacombe Hill;;W4.08;N50.33;10;
2;ENG;Devon;Hollicombe;;W3.56;N50.44;10;
2;ENG;Devon;Hollis Green;;W3.30;N50.86;10;
2;ENG;Devon;Hollis Head;;W3.43;N50.79;10;
2;ENG;Devon;Hollocombe;;W3.94;N50.88;10;
2;ENG;Devon;Hollocombe Town;;W3.96;N50.88;10;
2;ENG;Devon;Holmacott;;W4.14;N51.03;10;
2;ENG;Devon;Holmsleigh Green;;W3.13;N50.81;10;
2;ENG;Devon;Holne;;W3.83;N50.50;10;
2;ENG;Devon;Holsworthy;;W4.35;N50.80;10;
2;ENG;Devon;Holsworthy Beacon;;W4.34;N50.84;10;
2;ENG;Devon;Holy City;;W3.00;N50.83;10;
2;ENG;Devon;Holyford;;W3.09;N50.72;10;
2;ENG;Devon;Honeychurch;;W3.95;N50.80;10;
2;ENG;Devon;Honicknowle;;W4.16;N50.40;10;
2;ENG;Devon;Honiton;;W3.19;N50.79;10;
2;ENG;Devon;Hoo Meavy;;W4.07;N50.46;10;
2;ENG;Devon;Hooe;;W4.10;N50.34;10;
2;ENG;Devon;Hook;;W2.99;N50.84;10;
2;ENG;Devon;Hookway;;W3.63;N50.77;10;
2;ENG;Devon;Hoops;;W4.32;N50.98;10;
2;ENG;Devon;Hopworthy;;W4.41;N50.79;10;
2;ENG;Devon;Horndon;;W4.09;N50.60;10;
2;ENG;Devon;Horns Cross;;W4.30;N50.98;10;
2;ENG;Devon;Horrabridge;;W4.10;N50.50;10;
2;ENG;Devon;Horsebridge;;W4.25;N50.54;10;
2;ENG;Devon;Horsebrook;;W3.81;N50.40;10;
2;ENG;Devon;Horwood;;W4.14;N51.02;10;
2;ENG;Devon;Huddisford;;W4.42;N50.94;10;
2;ENG;Devon;Hugglepit;;W4.42;N50.99;10;
2;ENG;Devon;Huish;;W4.09;N50.87;10;
2;ENG;Devon;Huish;;W4.16;N51.04;10;
2;ENG;Devon;Hulham;;W3.40;N50.63;10;
2;ENG;Devon;Humber;;W3.56;N50.55;10;
2;ENG;Devon;Huntsham;;W3.42;N50.97;10;
2;ENG;Devon;Huntshaw;;W4.13;N50.97;10;
2;ENG;Devon;Huntshaw Water;;W4.13;N50.98;10;
2;ENG;Devon;Hutcherleigh;;W3.71;N50.33;10;
2;ENG;Devon;Huxham;;W3.50;N50.76;10;
2;ENG;Devon;Icy Park;;W3.84;N50.30;10;
2;ENG;Devon;Iddesleigh;;W4.04;N50.85;10;
2;ENG;Devon;Ide;;W3.57;N50.69;10;
2;ENG;Devon;Ideford;;W3.56;N50.58;10;
2;ENG;Devon;Ilfracombe;;W4.13;N51.20;10;
2;ENG;Devon;Ilsington;;W3.72;N50.57;10;
2;ENG;Devon;Ingleigh Green;;W3.99;N50.84;10;
2;ENG;Devon;Inner Hope;;W3.86;N50.23;10;
2;ENG;Devon;Instow;;W4.18;N51.04;10;
2;ENG;Devon;Inwardleigh;;W4.04;N50.77;10;
2;ENG;Devon;Ipplepen;;W3.65;N50.48;10;
2;ENG;Devon;Ivybridge;;W3.92;N50.38;10;
2;ENG;Devon;Jack-in-the-Green;;W3.40;N50.74;10;
2;ENG;Devon;Jacobstowe;;W4.01;N50.79;10;
2;ENG;Devon;Jewell's Cross;;W4.47;N50.80;10;
2;ENG;Devon;Jurston;;W3.85;N50.64;10;
2;ENG;Devon;Kellacott;;W4.26;N50.66;10;
2;ENG;Devon;Kellaton;;W3.68;N50.23;10;
2;ENG;Devon;Kelly;;W4.27;N50.60;10;
2;ENG;Devon;Kemacott;;W3.91;N51.20;10;
2;ENG;Devon;Kenn;;W3.45;N50.64;10;
2;ENG;Devon;Kenn;;W3.52;N50.65;10;
2;ENG;Devon;Kennerleigh;;W3.69;N50.85;10;
2;ENG;Devon;Kennford;;W3.54;N50.66;10;
2;ENG;Devon;Kentisbeare;;W3.33;N50.86;10;
2;ENG;Devon;Kentisbury;;W3.97;N51.16;10;
2;ENG;Devon;Kentisbury Ford;;W3.98;N51.16;10;
2;ENG;Devon;Kenton;;W3.48;N50.63;10;
2;ENG;Devon;Kernborough;;W3.69;N50.25;10;
2;ENG;Devon;Kersbrook;;W3.33;N50.63;10;
2;ENG;Devon;Kerscott;;W3.95;N51.04;10;
2;ENG;Devon;Kerswell;;W3.30;N50.84;10;
2;ENG;Devon;Killington;;W3.91;N51.19;10;
2;ENG;Devon;Kilmington;;W3.03;N50.76;10;
2;ENG;Devon;Kimworthy;;W4.40;N50.88;10;
2;ENG;Devon;Kingford;;W3.96;N50.95;10;
2;ENG;Devon;King's Nympton;;W3.88;N50.95;10;
2;ENG;Devon;King's Tamerton;;W4.18;N50.40;10;
2;ENG;Devon;Kingsbridge;;W3.78;N50.28;10;
2;ENG;Devon;Kingscott;;W4.09;N50.94;10;
2;ENG;Devon;Kingsdon;;W3.06;N50.74;10;
2;ENG;Devon;Kingsett;;W4.10;N50.60;10;
2;ENG;Devon;Kingsheanton;;W4.07;N51.11;10;
2;ENG;Devon;Kingskerswell;;W3.58;N50.49;10;
2;ENG;Devon;Kingsteignton;;W3.59;N50.54;10;
2;ENG;Devon;Kingston;;W3.92;N50.30;10;
2;ENG;Devon;Kingston;;W3.54;N50.34;10;
2;ENG;Devon;Kingston;;W3.33;N50.67;10;
2;ENG;Devon;Kingswear;;W3.57;N50.34;10;
2;ENG;Devon;Kitbridge;;W2.99;N50.82;10;
2;ENG;Devon;Knightacott;;W3.94;N51.13;10;
2;ENG;Devon;Knighton;;W4.08;N50.32;10;
2;ENG;Devon;Knotty Corner;;W4.26;N51.00;10;
2;ENG;Devon;Knowle;;W3.34;N50.63;10;
2;ENG;Devon;Knowle;;W3.73;N50.79;10;
2;ENG;Devon;Knowle;;W3.42;N50.85;10;
2;ENG;Devon;Knowle;;W4.15;N51.12;10;
2;ENG;Devon;Knowles Hill;;W3.62;N50.52;10;
2;ENG;Devon;Knowstone;;W3.68;N50.99;10;
2;ENG;Devon;Laira;;W4.11;N50.37;10;
2;ENG;Devon;Lake;;W4.09;N50.67;10;
2;ENG;Devon;Lake;;W4.21;N50.85;10;
2;ENG;Devon;Lake;;W4.07;N51.06;10;
2;ENG;Devon;Lamerton;;W4.20;N50.56;10;
2;ENG;Devon;Lana;;W4.35;N50.73;10;
2;ENG;Devon;Lana;;W4.41;N50.83;10;
2;ENG;Devon;Landcross;;W4.19;N50.98;10;
2;ENG;Devon;Landhill;;W4.24;N50.75;10;
2;ENG;Devon;Landkey;;W4.01;N51.06;10;
2;ENG;Devon;Landkey Newland;;W4.01;N51.06;10;
2;ENG;Devon;Landscove;;W3.73;N50.48;10;
2;ENG;Devon;Lane End;;W4.22;N50.77;10;
2;ENG;Devon;Langaford;;W4.25;N50.76;10;
2;ENG;Devon;Langage;;W4.02;N50.36;10;
2;ENG;Devon;Langford;;W3.56;N50.76;10;
2;ENG;Devon;Langford;;W3.39;N50.80;10;
2;ENG;Devon;Langford Green;;W3.37;N50.80;10;
2;ENG;Devon;Langridgeford;;W4.03;N50.97;10;
2;ENG;Devon;Langstone;;W3.78;N50.62;10;
2;ENG;Devon;Langtree;;W4.20;N50.91;10;
2;ENG;Devon;Langtree Week;;W4.17;N50.91;10;
2;ENG;Devon;Lapford;;W3.80;N50.85;10;
2;ENG;Devon;Lapford Cross;;W3.81;N50.84;10;
2;ENG;Devon;Larkbeare;;W3.33;N50.76;10;
2;ENG;Devon;Lea;;W3.07;N50.78;10;
2;ENG;Devon;Ledstone;;W3.77;N50.30;10;
2;ENG;Devon;Lee;;W4.07;N51.19;10;
2;ENG;Devon;Lee;;W4.17;N51.19;10;
2;ENG;Devon;Lee Mill;;W3.98;N50.37;10;
2;ENG;Devon;Lee Moor;;W4.02;N50.43;10;
2;ENG;Devon;Leeford;;W3.76;N51.21;10;
2;ENG;Devon;Leigh;;W3.82;N50.89;10;
2;ENG;Devon;Leigham;;W4.09;N50.40;10;
2;ENG;Devon;Lettaford;;W3.84;N50.64;10;
2;ENG;Devon;Lew;;W4.18;N50.79;10;
2;ENG;Devon;Lewdown;;W4.20;N50.65;10;
2;ENG;Devon;Lewthorn Cross;;W3.73;N50.57;10;
2;ENG;Devon;Lewtrenchard;;W4.19;N50.65;10;
2;ENG;Devon;Liddaton;;W4.19;N50.61;10;
2;ENG;Devon;Lifton;;W4.29;N50.64;10;
2;ENG;Devon;Liftondown;;W4.32;N50.64;10;
2;ENG;Devon;Lincombe;;W4.16;N51.19;10;
2;ENG;Devon;Little Bray;;W3.88;N51.09;10;
2;ENG;Devon;Little Dart;;W3.82;N50.90;10;
2;ENG;Devon;Little Knowle;;W3.33;N50.63;10;
2;ENG;Devon;Little Silver;;W3.55;N50.87;10;
2;ENG;Devon;Little Silver;;W4.08;N51.14;10;
2;ENG;Devon;Little Torrington;;W4.15;N50.92;10;
2;ENG;Devon;Littleborough;;W3.67;N50.87;10;
2;ENG;Devon;Littleham;;W3.38;N50.62;10;
2;ENG;Devon;Littleham;;W4.23;N50.98;10;
2;ENG;Devon;Littlehempston;;W3.67;N50.44;10;
2;ENG;Devon;Littletown;;W3.19;N50.78;10;
2;ENG;Devon;Livermead;;W3.55;N50.44;10;
2;ENG;Devon;Liverton;;W3.69;N50.56;10;
2;ENG;Devon;Livingshayes;;W3.47;N50.81;10;
2;ENG;Devon;Lobb;;W4.18;N51.11;10;
2;ENG;Devon;Lobhillcross;;W4.18;N50.65;10;
2;ENG;Devon;Loddiswell;;W3.81;N50.31;10;
2;ENG;Devon;Longbridge;;W4.09;N50.39;10;
2;ENG;Devon;Longcause;;W3.70;N50.43;10;
2;ENG;Devon;Longcombe;;W3.64;N50.41;10;
2;ENG;Devon;Longcross;;W4.21;N50.58;10;
2;ENG;Devon;Longdown;;W3.61;N50.70;10;
2;ENG;Devon;Lopwell;;W4.15;N50.45;10;
2;ENG;Devon;Lovaton;;W4.05;N50.47;10;
2;ENG;Devon;Lower Ashton;;W3.64;N50.64;10;
2;ENG;Devon;Lower Cator;;W3.86;N50.56;10;
2;ENG;Devon;Lower Cheriton;;W3.27;N50.80;10;
2;ENG;Devon;Lower Creedy;;W3.64;N50.80;10;
2;ENG;Devon;Lower Dean;;W3.79;N50.46;10;
2;ENG;Devon;Lower Gabwell;;W3.53;N50.51;10;
2;ENG;Devon;Lower Holditch;;W2.95;N50.81;10;
2;ENG;Devon;Lower Hookner;;W3.82;N50.62;10;
2;ENG;Devon;Lower Lovacott;;W4.11;N51.02;10;
2;ENG;Devon;Lower Loxhore;;W3.98;N51.11;10;
2;ENG;Devon;Lower Ridge;;W3.09;N50.80;10;
2;ENG;Devon;Lower Slade;;W4.13;N51.18;10;
2;ENG;Devon;Lower Tale;;W3.33;N50.80;10;
2;ENG;Devon;Lower Town;;W3.42;N50.89;10;
2;ENG;Devon;Lower Twitchen;;W4.29;N50.93;10;
2;ENG;Devon;Lower Wear;;W3.50;N50.69;10;
2;ENG;Devon;Lower Yelland;;W4.15;N51.06;10;
2;ENG;Devon;Lowertown;;W4.17;N50.63;10;
2;ENG;Devon;Loxbeare;;W3.55;N50.93;10;
2;ENG;Devon;Loxhore;;W3.98;N51.12;10;
2;ENG;Devon;Loxhore Cott;;W3.98;N51.12;10;
2;ENG;Devon;Ludbrook;;W3.89;N50.37;10;
2;ENG;Devon;Lumburn;;W4.18;N50.53;10;
2;ENG;Devon;Lundy;;W4.66;N51.16;10;
2;ENG;Devon;Luppitt;;W3.19;N50.84;10;
2;ENG;Devon;Lupridge;;W3.81;N50.36;10;
2;ENG;Devon;Lurley;;W3.53;N50.91;10;
2;ENG;Devon;Luson;;W3.96;N50.33;10;
2;ENG;Devon;Lustleigh;;W3.72;N50.61;10;
2;ENG;Devon;Lustleigh Cleave;;W3.75;N50.61;10;
2;ENG;Devon;Luton;;W3.55;N50.57;10;
2;ENG;Devon;Luton;;W3.30;N50.81;10;
2;ENG;Devon;Lutsford;;W4.49;N50.94;10;
2;ENG;Devon;Lutton;;W3.98;N50.41;10;
2;ENG;Devon;Lutton;;W3.84;N50.43;10;
2;ENG;Devon;Luxton;;W3.12;N50.89;10;
2;ENG;Devon;Lydcott;;W3.87;N51.10;10;
2;ENG;Devon;Lydford;;W4.10;N50.63;10;
2;ENG;Devon;Lympstone;;W3.43;N50.64;10;
2;ENG;Devon;Lynbridge;;W3.83;N51.21;10;
2;ENG;Devon;Lynmouth;;W3.83;N51.22;10;
2;ENG;Devon;Lynton;;W3.84;N51.22;10;
2;ENG;Devon;Mackham;;W3.20;N50.87;10;
2;ENG;Devon;Madford;;W3.22;N50.89;10;
2;ENG;Devon;Maidencombe;;W3.52;N50.50;10;
2;ENG;Devon;Maidenhayne;;W3.03;N50.75;10;
2;ENG;Devon;Malborough;;W3.82;N50.23;10;
2;ENG;Devon;Malmsmead;;W3.73;N51.20;10;
2;ENG;Devon;Manadon;;W4.15;N50.40;10;
2;ENG;Devon;Manaton;;W3.76;N50.61;10;
2;ENG;Devon;Manley;;W3.45;N50.88;10;
2;ENG;Devon;Mannamead;;W4.13;N50.38;10;
2;ENG;Devon;Manor Bourne;;W4.12;N50.32;10;
2;ENG;Devon;Mariansleigh;;W3.79;N50.98;10;
2;ENG;Devon;Marldon;;W3.60;N50.45;10;
2;ENG;Devon;Marsh;;W3.06;N50.88;10;
2;ENG;Devon;Marsh Green;;W3.36;N50.72;10;
2;ENG;Devon;Martinhoe;;W3.92;N51.21;10;
2;ENG;Devon;Martinhoe Cross;;W3.89;N51.19;10;
2;ENG;Devon;Marwood;;W4.08;N51.11;10;
2;ENG;Devon;Mary Tavy;;W4.12;N50.59;10;
2;ENG;Devon;Mead;;W3.73;N50.51;10;
2;ENG;Devon;Meadwell;;W4.26;N50.60;10;
2;ENG;Devon;Meavy;;W4.05;N50.48;10;
2;ENG;Devon;Meeth;;W4.07;N50.85;10;
2;ENG;Devon;Meethe;;W3.89;N50.98;10;
2;ENG;Devon;Meldon;;W4.05;N50.70;10;
2;ENG;Devon;Membland;;W4.02;N50.31;10;
2;ENG;Devon;Membury;;W3.03;N50.82;10;
2;ENG;Devon;Merrifield;;W3.67;N50.31;10;
2;ENG;Devon;Merrivale;;W4.06;N50.55;10;
2;ENG;Devon;Merton;;W4.10;N50.88;10;
2;ENG;Devon;Meshaw;;W3.78;N50.95;10;
2;ENG;Devon;Metcombe;;W3.31;N50.72;10;
2;ENG;Devon;Michelcombe;;W3.84;N50.49;10;
2;ENG;Devon;Middle Luxton;;W3.13;N50.88;10;
2;ENG;Devon;Middle Marwood;;W4.10;N51.12;10;
2;ENG;Devon;Middle Rocombe;;W3.55;N50.51;10;
2;ENG;Devon;Middlecott;;W3.82;N50.65;10;
2;ENG;Devon;Middlecott;;W4.25;N50.82;10;
2;ENG;Devon;Middlecott;;W3.77;N50.84;10;
2;ENG;Devon;Middlemoor;;W4.13;N50.52;10;
2;ENG;Devon;Middlemoor;;W4.13;N50.52;10;
2;ENG;Devon;Milber;;W3.59;N50.51;10;
2;ENG;Devon;Mile End;;W3.65;N50.53;10;
2;ENG;Devon;Milford;;W4.52;N50.97;10;
2;ENG;Devon;Millbrook;;W2.99;N50.77;10;
2;ENG;Devon;Millbrook;;W3.78;N51.05;10;
2;ENG;Devon;Millhayes;;W3.09;N50.82;10;
2;ENG;Devon;Millhayes;;W3.23;N50.91;10;
2;ENG;Devon;Millhill;;W4.18;N50.54;10;
2;ENG;Devon;Millmoor;;W3.28;N50.91;10;
2;ENG;Devon;Milltown;;W4.07;N51.12;10;
2;ENG;Devon;Millway Rise;;W2.99;N50.78;10;
2;ENG;Devon;Milton Abbot;;W4.26;N50.58;10;
2;ENG;Devon;Milton Coombe;;W4.14;N50.46;10;
2;ENG;Devon;Milton Damerel;;W4.30;N50.86;10;
2;ENG;Devon;Milton Green;;W4.26;N50.57;10;
2;ENG;Devon;Milton Hill;;W3.52;N50.59;10;
2;ENG;Devon;Modbury;;W3.89;N50.34;10;
2;ENG;Devon;Mogworthy;;W3.63;N50.94;10;
2;ENG;Devon;Mole;;W3.82;N50.98;10;
2;ENG;Devon;Molland;;W3.71;N51.03;10;
2;ENG;Devon;Monkerton;;W3.47;N50.72;10;
2;ENG;Devon;Monkleigh;;W4.20;N50.95;10;
2;ENG;Devon;Monkokehampton;;W4.01;N50.82;10;
2;ENG;Devon;Monkton;;W3.16;N50.82;10;
2;ENG;Devon;Monkton Wyld;;W2.95;N50.75;10;
2;ENG;Devon;Moor Cross;;W3.95;N50.40;10;
2;ENG;Devon;Moorhayne;;W3.08;N50.85;10;
2;ENG;Devon;Moortown;;W4.09;N50.53;10;
2;ENG;Devon;Moortown;;W4.36;N50.73;10;
2;ENG;Devon;Moortown;;W4.12;N50.96;10;
2;ENG;Devon;Morchard Bishop;;W3.76;N50.84;10;
2;ENG;Devon;Morchard Road;;W3.77;N50.82;10;
2;ENG;Devon;Morebath;;W3.49;N51.00;10;
2;ENG;Devon;Moreleigh;;W3.74;N50.35;10;
2;ENG;Devon;Moretonhampstead;;W3.77;N50.66;10;
2;ENG;Devon;Morte Point;;W4.22;N51.18;10;
2;ENG;Devon;Mortehoe;;W4.21;N51.18;10;
2;ENG;Devon;Mothecombe;;W3.96;N50.30;10;
2;ENG;Devon;Mount Gould;;W4.12;N50.37;10;
2;ENG;Devon;Mount Lane;;W4.33;N50.73;10;
2;ENG;Devon;Mount Pleasant;;W3.15;N50.79;10;
2;ENG;Devon;Mouth Mill;;W4.43;N51.00;10;
2;ENG;Devon;Muddiford;;W4.05;N51.12;10;
2;ENG;Devon;Muddlebridge;;W4.11;N51.06;10;
2;ENG;Devon;Murchington;;W3.86;N50.67;10;
2;ENG;Devon;Murtwell;;W3.76;N50.39;10;
2;ENG;Devon;Musbury;;W3.03;N50.74;10;
2;ENG;Devon;Mutley;;W4.13;N50.37;10;
2;ENG;Devon;Mutterton;;W3.37;N50.83;10;
2;ENG;Devon;Nadderwater;;W3.57;N50.72;10;
2;ENG;Devon;Narfords;;W3.01;N50.84;10;
2;ENG;Devon;Narracott;;W4.33;N50.92;10;
2;ENG;Devon;Natcott;;W4.46;N50.98;10;
2;ENG;Devon;Neopardy;;W3.71;N50.77;10;
2;ENG;Devon;Nether Exe;;W3.51;N50.78;10;
2;ENG;Devon;Nethercott;;W4.34;N50.74;10;
2;ENG;Devon;Nethercott;;W4.17;N51.13;10;
2;ENG;Devon;Netherton;;W3.56;N50.52;10;
2;ENG;Devon;Nettacott;;W3.56;N50.78;10;
2;ENG;Devon;New Inn;;W4.21;N50.85;10;
2;ENG;Devon;Newbuildings;;W3.71;N50.81;10;
2;ENG;Devon;Newcott;;W3.09;N50.86;10;
2;ENG;Devon;Newhaven;;W4.29;N50.97;10;
2;ENG;Devon;Newport;;W4.05;N51.06;10;
2;ENG;Devon;Newtake;;W3.58;N50.51;10;
2;ENG;Devon;Newton Abbot;;W3.60;N50.52;10;
2;ENG;Devon;Newton Ferrers;;W4.05;N50.31;10;
2;ENG;Devon;Newton Poppleford;;W3.30;N50.69;10;
2;ENG;Devon;Newton St Cyres;;W3.60;N50.77;10;
2;ENG;Devon;Newton St Petrock;;W4.26;N50.88;10;
2;ENG;Devon;Newton Tracey;;W4.11;N51.01;10;
2;ENG;Devon;Newtown;;W3.33;N50.78;10;
2;ENG;Devon;Newtown;;W3.76;N51.01;10;
2;ENG;Devon;Nicholashayne;;W3.28;N50.93;10;
2;ENG;Devon;Nine Oaks;;W3.38;N50.70;10;
2;ENG;Devon;Nomansland (Devon);;W3.66;N50.90;10;
2;ENG;Devon;Norley;;W4.12;N50.78;10;
2;ENG;Devon;Norman's Green;;W3.35;N50.81;10;
2;ENG;Devon;North Bovey;;W3.79;N50.63;10;
2;ENG;Devon;North Brentor;;W4.14;N50.60;10;
2;ENG;Devon;North Buckland;;W4.18;N51.13;10;
2;ENG;Devon;North End;;W3.28;N50.93;10;
2;ENG;Devon;North Heasley;;W3.81;N51.08;10;
2;ENG;Devon;North Huish;;W3.81;N50.38;10;
2;ENG;Devon;North Molton;;W3.81;N51.04;10;
2;ENG;Devon;North Radworthy;;W3.78;N51.09;10;
2;ENG;Devon;North Star;;W3.30;N50.65;10;
2;ENG;Devon;North Tawton;;W3.90;N50.79;10;
2;ENG;Devon;North Town;;W4.11;N50.86;10;
2;ENG;Devon;North Waterhayne;;W3.06;N50.86;10;
2;ENG;Devon;North West Point;;W4.67;N51.19;10;
2;ENG;Devon;North Whilborough;;W3.59;N50.48;10;
2;ENG;Devon;Northam;;W4.22;N51.03;10;
2;ENG;Devon;Northay;;W2.90;N50.79;10;
2;ENG;Devon;Northcote;;W3.17;N50.80;10;
2;ENG;Devon;Northcott;;W4.36;N50.70;10;
2;ENG;Devon;Northcott;;W3.26;N50.87;10;
2;ENG;Devon;Northcott;;W3.29;N50.90;10;
2;ENG;Devon;Northleigh;;W3.14;N50.75;10;
2;ENG;Devon;Northleigh;;W4.00;N51.08;10;
2;ENG;Devon;Northlew;;W4.12;N50.77;10;
2;ENG;Devon;Northmoor;;W4.42;N50.91;10;
2;ENG;Devon;Northmostown;;W3.28;N50.69;10;
2;ENG;Devon;Northway;;W4.30;N50.98;10;
2;ENG;Devon;Norton;;W3.61;N50.34;10;
2;ENG;Devon;Norton;;W4.48;N50.99;10;
2;ENG;Devon;Noss Mayo;;W4.05;N50.30;10;
2;ENG;Devon;Nymet Rowland;;W3.83;N50.85;10;
2;ENG;Devon;Nymet Tracey;;W3.81;N50.78;10;
2;ENG;Devon;Oak Cross;;W4.08;N50.77;10;
2;ENG;Devon;Oakford;;W3.56;N50.97;10;
2;ENG;Devon;Oakfordbridge;;W3.55;N50.97;10;
2;ENG;Devon;Odam Barton;;W3.79;N50.95;10;
2;ENG;Devon;Odham;;W4.17;N50.79;10;
2;ENG;Devon;Offwell;;W3.15;N50.78;10;
2;ENG;Devon;Okehampton;;W4.01;N50.73;10;
2;ENG;Devon;Olchard;;W3.59;N50.58;10;
2;ENG;Devon;Oldborough;;W3.74;N50.84;10;
2;ENG;Devon;Oldway;;W3.57;N50.43;10;
2;ENG;Devon;Oldways End;;W3.62;N51.00;10;
2;ENG;Devon;Orchard Hill;;W4.21;N51.02;10;
2;ENG;Devon;Oreston;;W4.11;N50.35;10;
2;ENG;Devon;Otter;;W3.28;N50.73;10;
2;ENG;Devon;Otterton;;W3.30;N50.65;10;
2;ENG;Devon;Ottery St Mary;;W3.27;N50.74;10;
2;ENG;Devon;Outer Hope;;W3.86;N50.24;10;
2;ENG;Devon;Padson;;W4.04;N50.75;10;
2;ENG;Devon;Paignton;;W3.56;N50.42;10;
2;ENG;Devon;Pancrasweek;;W4.42;N50.81;10;
2;ENG;Devon;Park;;W3.66;N50.77;10;
2;ENG;Devon;Parkham;;W4.30;N50.96;10;
2;ENG;Devon;Parkham Ash;;W4.33;N50.95;10;
2;ENG;Devon;Parnacott;;W4.40;N50.81;10;
2;ENG;Devon;Parracombe;;W3.91;N51.17;10;
2;ENG;Devon;Patchacott;;W4.17;N50.76;10;
2;ENG;Devon;Patchole;;W3.98;N51.16;10;
2;ENG;Devon;Pathfinder Village;;W3.64;N50.72;10;
2;ENG;Devon;Patsford;;W4.10;N51.13;10;
2;ENG;Devon;Payhembury;;W3.30;N50.80;10;
2;ENG;Devon;Penhill;;W4.11;N51.07;10;
2;ENG;Devon;Pennsylvania;;W3.53;N50.73;10;
2;ENG;Devon;Pennycross;;W4.15;N50.39;10;
2;ENG;Devon;Pennymoor;;W3.62;N50.88;10;
2;ENG;Devon;Penquit;;W3.91;N50.37;10;
2;ENG;Devon;Penstone;;W3.74;N50.78;10;
2;ENG;Devon;Peppercombe;;W4.30;N50.98;10;
2;ENG;Devon;Perkin's Village;;W3.38;N50.71;10;
2;ENG;Devon;Perry;;W3.62;N50.83;10;
2;ENG;Devon;Peter Tavy;;W4.10;N50.57;10;
2;ENG;Devon;Peter's Finger;;W4.33;N50.66;10;
2;ENG;Devon;Peters Marland;;W4.17;N50.89;10;
2;ENG;Devon;Petrockstowe;;W4.11;N50.86;10;
2;ENG;Devon;Petton;;W3.42;N51.00;10;
2;ENG;Devon;Peverell;;W4.15;N50.38;10;
2;ENG;Devon;Philham;;W4.49;N50.97;10;
2;ENG;Devon;Pillmouth;;W4.19;N50.99;10;
2;ENG;Devon;Pilton;;W4.07;N51.08;10;
2;ENG;Devon;Pinhoe;;W3.47;N50.73;10;
2;ENG;Devon;Pippacott;;W4.11;N51.11;10;
2;ENG;Devon;Plym;;W4.08;N50.42;10;
2;ENG;Devon;Plymouth;;W4.15;N50.38;10;
2;ENG;Devon;Plympton;;W4.06;N50.38;10;
2;ENG;Devon;Plymstock;;W4.09;N50.35;10;
2;ENG;Devon;Plymtree;;W3.34;N50.80;10;
2;ENG;Devon;Polsloe;;W3.51;N50.72;10;
2;ENG;Devon;Poltimore;;W3.47;N50.76;10;
2;ENG;Devon;Pomphlett;;W4.09;N50.35;10;
2;ENG;Devon;Ponsford;;W3.42;N50.85;10;
2;ENG;Devon;Ponsworthy;;W3.83;N50.54;10;
2;ENG;Devon;Popham;;W3.85;N51.07;10;
2;ENG;Devon;Port Bridge;;W3.61;N50.40;10;
2;ENG;Devon;Portington;;W4.23;N50.56;10;
2;ENG;Devon;Postbridge;;W3.90;N50.59;10;
2;ENG;Devon;Pottington;;W4.07;N51.07;10;
2;ENG;Devon;Poughill;;W3.63;N50.86;10;
2;ENG;Devon;Poundsgate;;W3.83;N50.53;10;
2;ENG;Devon;Powderham;;W3.47;N50.64;10;
2;ENG;Devon;Powler's Piece;;W4.32;N50.93;10;
2;ENG;Devon;Prawle Point;;W3.71;N50.20;10;
2;ENG;Devon;Prescott;;W3.31;N50.91;10;
2;ENG;Devon;Preston;;W3.57;N50.43;10;
2;ENG;Devon;Preston;;W3.62;N50.55;10;
2;ENG;Devon;Priestacott;;W4.24;N50.83;10;
2;ENG;Devon;Princetown;;W4.00;N50.53;10;
2;ENG;Devon;Pristacott;;W4.08;N51.01;10;
2;ENG;Devon;Prixford;;W4.08;N51.10;10;
2;ENG;Devon;Prowse;;W3.64;N50.83;10;
2;ENG;Devon;Puddaven;;W3.71;N50.43;10;
2;ENG;Devon;Puddington;;W3.66;N50.87;10;
2;ENG;Devon;Pulsford;;W3.69;N50.49;10;
2;ENG;Devon;Putsborough;;W4.23;N51.13;10;
2;ENG;Devon;Pye Corner;;W3.54;N50.77;10;
2;ENG;Devon;Pyworthy;;W4.39;N50.79;10;
2;ENG;Devon;Queen Dart;;W3.66;N50.93;10;
2;ENG;Devon;Quoditch;;W4.26;N50.75;10;
2;ENG;Devon;Rackenford;;W3.63;N50.95;10;
2;ENG;Devon;Raddington;;W3.39;N51.01;10;
2;ENG;Devon;Raddon;;W3.54;N50.79;10;
2;ENG;Devon;Raleigh;;W4.05;N51.08;10;
2;ENG;Devon;Ramsley;;W3.92;N50.72;10;
2;ENG;Devon;Ratsloe;;W3.49;N50.76;10;
2;ENG;Devon;Rattery;;W3.77;N50.43;10;
2;ENG;Devon;Rawridge;;W3.13;N50.84;10;
2;ENG;Devon;Raymond's Hill;;W2.96;N50.75;10;
2;ENG;Devon;Red Ball;;W3.31;N50.94;10;
2;ENG;Devon;Redhills;;W3.55;N50.71;10;
2;ENG;Devon;Redomsford;;W4.41;N50.90;10;
2;ENG;Devon;Reedy;;W3.67;N50.68;10;
2;ENG;Devon;Rew;;W3.81;N50.22;10;
2;ENG;Devon;Rew;;W3.76;N50.51;10;
2;ENG;Devon;Rewe;;W3.50;N50.78;10;
2;ENG;Devon;Rexon;;W4.25;N50.67;10;
2;ENG;Devon;Rexon Cross;;W4.25;N50.67;10;
2;ENG;Devon;Rickard's Down;;W4.25;N51.02;10;
2;ENG;Devon;Riddlecombe;;W3.97;N50.89;10;
2;ENG;Devon;Ridge;;W3.01;N50.84;10;
2;ENG;Devon;Ringmore;;W3.89;N50.28;10;
2;ENG;Devon;Riverton;;W3.95;N51.05;10;
2;ENG;Devon;Roachill;;W3.65;N50.98;10;
2;ENG;Devon;Road Green;;W3.07;N50.74;10;
2;ENG;Devon;Roadford Reservoir;;W4.23;N50.69;10;
2;ENG;Devon;Roborough;;W4.11;N50.43;10;
2;ENG;Devon;Roborough;;W4.03;N50.93;10;
2;ENG;Devon;Rock;;W3.03;N50.81;10;
2;ENG;Devon;Rockbeare;;W3.39;N50.73;10;
2;ENG;Devon;Rockford;;W3.79;N51.20;10;
2;ENG;Devon;Romansleigh;;W3.82;N50.96;10;
2;ENG;Devon;Rose Ash;;W3.73;N50.97;10;
2;ENG;Devon;Rosedown;;W4.46;N50.98;10;
2;ENG;Devon;Rosemary Lane;;W3.21;N50.91;10;
2;ENG;Devon;Roundswell;;W4.08;N51.05;10;
2;ENG;Devon;Rousdon;;W3.00;N50.71;10;
2;ENG;Devon;Rowden;;W3.93;N50.76;10;
2;ENG;Devon;Rumsam;;W4.05;N51.06;10;
2;ENG;Devon;Rushford;;W4.20;N50.56;10;
2;ENG;Devon;Rydon;;W3.59;N50.54;10;
2;ENG;Devon;Saint Hill;;W3.29;N50.86;10;
2;ENG;Devon;Salcombe;;W3.78;N50.23;10;
2;ENG;Devon;Salcombe Regis;;W3.21;N50.68;10;
2;ENG;Devon;Salmonhutch;;W3.67;N50.76;10;
2;ENG;Devon;Saltrens;;W4.20;N50.96;10;
2;ENG;Devon;Sampford Chapple;;W3.95;N50.79;10;
2;ENG;Devon;Sampford Courtenay;;W3.94;N50.79;10;
2;ENG;Devon;Sampford Moor;;W3.26;N50.94;10;
2;ENG;Devon;Sampford Peverell;;W3.38;N50.91;10;
2;ENG;Devon;Sampford Spiney;;W4.07;N50.52;10;
2;ENG;Devon;Sandford;;W3.67;N50.80;10;
2;ENG;Devon;Sandy Gate;;W3.47;N50.70;10;
2;ENG;Devon;Sandygate;;W3.61;N50.55;10;
2;ENG;Devon;Satterleigh;;W3.91;N50.98;10;
2;ENG;Devon;Saunton;;W4.21;N51.11;10;
2;ENG;Devon;Scorriton;;W3.83;N50.49;10;
2;ENG;Devon;Seaton;;W3.07;N50.70;10;
2;ENG;Devon;Seaton Junction;;W3.07;N50.75;10;
2;ENG;Devon;Sector;;W2.98;N50.77;10;
2;ENG;Devon;Shaldon;;W3.51;N50.53;10;
2;ENG;Devon;Shallowford;;W3.88;N51.03;10;
2;ENG;Devon;Shaugh Prior;;W4.05;N50.44;10;
2;ENG;Devon;Shebbear;;W4.23;N50.85;10;
2;ENG;Devon;Sheepstor;;W4.04;N50.48;10;
2;ENG;Devon;Sheepwash;;W4.16;N50.83;10;
2;ENG;Devon;Sheldon;;W3.25;N50.86;10;
2;ENG;Devon;Shelvin;;W3.19;N50.82;10;
2;ENG;Devon;Sherberton;;W3.92;N50.54;10;
2;ENG;Devon;Sherdon Water;;W3.72;N51.08;10;
2;ENG;Devon;Sherford;;W3.72;N50.28;10;
2;ENG;Devon;Sherwood Green;;W4.06;N50.96;10;
2;ENG;Devon;Shillingford;;W3.45;N50.99;10;
2;ENG;Devon;Shillingford Abbot;;W3.55;N50.68;10;
2;ENG;Devon;Shillingford St George;;W3.55;N50.67;10;
2;ENG;Devon;Shinner's Bridge;;W3.71;N50.44;10;
2;ENG;Devon;Shiphay;;W3.56;N50.47;10;
2;ENG;Devon;Shirwell;;W4.01;N51.11;10;
2;ENG;Devon;Shobrooke;;W3.61;N50.78;10;
2;ENG;Devon;Shop;;W4.29;N50.87;10;
2;ENG;Devon;Shore Bottom;;W3.09;N50.82;10;
2;ENG;Devon;Shortacombe;;W4.09;N50.65;10;
2;ENG;Devon;Shortmoor;;W3.10;N50.83;10;
2;ENG;Devon;Shorton;;W3.57;N50.44;10;
2;ENG;Devon;Shute;;W3.06;N50.76;10;
2;ENG;Devon;Shute;;W3.57;N50.78;10;
2;ENG;Devon;Sid;;W3.23;N50.68;10;
2;ENG;Devon;Sidbury;;W3.23;N50.71;10;
2;ENG;Devon;Sidford;;W3.23;N50.70;10;
2;ENG;Devon;Sidmouth;;W3.24;N50.67;10;
2;ENG;Devon;Sigford;;W3.73;N50.54;10;
2;ENG;Devon;Silford;;W4.24;N51.03;10;
2;ENG;Devon;Silverton;;W3.49;N50.80;10;
2;ENG;Devon;Simonsburrow;;W3.22;N50.93;10;
2;ENG;Devon;Skaigh;;W3.95;N50.72;10;
2;ENG;Devon;Slade;;W3.26;N50.86;10;
2;ENG;Devon;Slapton;;W3.65;N50.29;10;
2;ENG;Devon;Sloncombe;;W3.79;N50.65;10;
2;ENG;Devon;Smallbrook;;W3.61;N50.77;10;
2;ENG;Devon;Smallmarsh;;W3.99;N50.98;10;
2;ENG;Devon;Smallridge;;W2.99;N50.79;10;
2;ENG;Devon;Smeatharpe;;W3.15;N50.88;10;
2;ENG;Devon;Smithaleigh;;W3.99;N50.37;10;
2;ENG;Devon;Smithincott;;W3.33;N50.89;10;
2;ENG;Devon;Snapper;;W4.01;N51.08;10;
2;ENG;Devon;Soar;;W3.82;N50.21;10;
2;ENG;Devon;Soldon Cross;;W4.38;N50.86;10;
2;ENG;Devon;Sorley;;W3.79;N50.30;10;
2;ENG;Devon;Sourton;;W4.08;N50.69;10;
2;ENG;Devon;South Allington;;W3.69;N50.22;10;
2;ENG;Devon;South Brent;;W3.84;N50.42;10;
2;ENG;Devon;South Common;;W2.99;N50.80;10;
2;ENG;Devon;South Hole;;W4.53;N50.95;10;
2;ENG;Devon;South Huish;;W3.83;N50.25;10;
2;ENG;Devon;South Knighton;;W3.68;N50.53;10;
2;ENG;Devon;South Milton;;W3.83;N50.26;10;
2;ENG;Devon;South Molton;;W3.84;N51.01;10;
2;ENG;Devon;South Radworthy;;W3.80;N51.07;10;
2;ENG;Devon;South Tawton;;W3.91;N50.73;10;
2;ENG;Devon;South Town;;W3.47;N50.63;10;
2;ENG;Devon;South West Point;;W4.66;N51.15;10;
2;ENG;Devon;South Wonford;;W4.30;N50.84;10;
2;ENG;Devon;South Yeo;;W4.11;N50.78;10;
2;ENG;Devon;South Zeal;;W3.91;N50.72;10;
2;ENG;Devon;Southcott;;W4.22;N50.92;10;
2;ENG;Devon;Southerly;;W4.09;N50.67;10;
2;ENG;Devon;Southerton;;W3.31;N50.70;10;
2;ENG;Devon;Southleigh;;W3.13;N50.73;10;
2;ENG;Devon;Southville;;W3.76;N50.27;10;
2;ENG;Devon;Southway;;W4.14;N50.42;10;
2;ENG;Devon;Sowton;;W3.46;N50.71;10;
2;ENG;Devon;Sowton Barton;;W3.65;N50.67;10;
2;ENG;Devon;Sparkwell;;W3.99;N50.39;10;
2;ENG;Devon;Splatt;;W3.98;N50.82;10;
2;ENG;Devon;Spreyton;;W3.85;N50.74;10;
2;ENG;Devon;Spriddlestone;;W4.06;N50.34;10;
2;ENG;Devon;St Andrew's Wood;;W3.33;N50.83;10;
2;ENG;Devon;St Ann's Chapel;;W3.88;N50.30;10;
2;ENG;Devon;St Budeaux;;W4.19;N50.40;10;
2;ENG;Devon;St Dympna's;;W3.07;N50.71;10;
2;ENG;Devon;St George's Well;;W3.39;N50.86;10;
2;ENG;Devon;St Giles in the Wood;;W4.09;N50.94;10;
2;ENG;Devon;St Giles on the Heath;;W4.32;N50.68;10;
2;ENG;Devon;St John's Chapel;;W4.09;N51.04;10;
2;ENG;Devon;St Marychurch;;W3.52;N50.48;10;
2;ENG;Devon;St Michaels;;W3.57;N50.42;10;
2;ENG;Devon;St Thomas;;W3.55;N50.70;10;
2;ENG;Devon;Staddiscombe;;W4.09;N50.34;10;
2;ENG;Devon;Staddon;;W4.34;N50.80;10;
2;ENG;Devon;Staddon;;W4.47;N50.97;10;
2;ENG;Devon;Stag's Head;;W3.89;N51.02;10;
2;ENG;Devon;Staple Cross;;W3.38;N50.97;10;
2;ENG;Devon;Starcross;;W3.45;N50.61;10;
2;ENG;Devon;Start;;W3.68;N50.28;10;
2;ENG;Devon;Start Point;;W3.65;N50.22;10;
2;ENG;Devon;Staverton;;W3.70;N50.46;10;
2;ENG;Devon;Stenhill;;W3.35;N50.88;10;
2;ENG;Devon;Stentwood;;W3.23;N50.87;10;
2;ENG;Devon;Stevenstone;;W4.10;N50.95;10;
2;ENG;Devon;Stibb Cross;;W4.24;N50.90;10;
2;ENG;Devon;Sticklepath;;W3.94;N50.72;10;
2;ENG;Devon;Sticklepath;;W4.07;N51.06;10;
2;ENG;Devon;Stockland;;W3.08;N50.83;10;
2;ENG;Devon;Stockleigh English;;W3.63;N50.84;10;
2;ENG;Devon;Stockleigh Pomeroy;;W3.60;N50.81;10;
2;ENG;Devon;Stockwell;;W3.46;N50.80;10;
2;ENG;Devon;Stoford Water;;W3.32;N50.86;10;
2;ENG;Devon;Stoke;;W4.16;N50.37;10;
2;ENG;Devon;Stoke;;W3.84;N50.51;10;
2;ENG;Devon;Stoke;;W4.52;N50.98;10;
2;ENG;Devon;Stoke Canon;;W3.51;N50.77;10;
2;ENG;Devon;Stoke Fleming;;W3.60;N50.32;10;
2;ENG;Devon;Stoke Gabriel;;W3.63;N50.40;10;
2;ENG;Devon;Stoke Hill;;W3.51;N50.73;10;
2;ENG;Devon;Stoke Point;;W4.03;N50.29;10;
2;ENG;Devon;Stoke Rivers;;W3.95;N51.09;10;
2;ENG;Devon;Stokeinteignhead;;W3.53;N50.51;10;
2;ENG;Devon;Stokenham;;W3.68;N50.26;10;
2;ENG;Devon;Stonecombe;;W4.00;N51.16;10;
2;ENG;Devon;Stonehouse;;W4.16;N50.36;10;
2;ENG;Devon;Stoneycombe;;W3.60;N50.49;10;
2;ENG;Devon;Stoneyford;;W3.39;N50.85;10;
2;ENG;Devon;Stony Cross;;W4.12;N51.00;10;
2;ENG;Devon;Stonyland;;W4.09;N51.04;10;
2;ENG;Devon;Stoodleigh;;W3.53;N50.95;10;
2;ENG;Devon;Stopgate;;W3.09;N50.87;10;
2;ENG;Devon;Stowford;;W4.22;N50.65;10;
2;ENG;Devon;Stowford;;W3.26;N50.69;10;
2;ENG;Devon;Stowford;;W4.22;N50.75;10;
2;ENG;Devon;Stowford;;W4.43;N50.89;10;
2;ENG;Devon;Stowford;;W3.96;N51.01;10;
2;ENG;Devon;Stowford;;W3.93;N51.15;10;
2;ENG;Devon;Street;;W3.16;N50.69;10;
2;ENG;Devon;Stretch Down;;W3.69;N50.90;10;
2;ENG;Devon;Strete;;W3.64;N50.31;10;
2;ENG;Devon;Strete Raleigh;;W3.36;N50.74;10;
2;ENG;Devon;Stroxworthy;;W4.36;N50.94;10;
2;ENG;Devon;Sutcombe;;W4.36;N50.87;10;
2;ENG;Devon;Sutcombemill;;W4.36;N50.87;10;
2;ENG;Devon;Sutton;;W3.82;N50.26;10;
2;ENG;Devon;Swallowfields;;W3.70;N50.43;10;
2;ENG;Devon;Sweetham;;W3.59;N50.77;10;
2;ENG;Devon;Swimbridge;;W3.97;N51.04;10;
2;ENG;Devon;Swimbridge Newland;;W3.99;N51.05;10;
2;ENG;Devon;Swincombe;;W3.87;N51.15;10;
2;ENG;Devon;Sycamore;;W3.00;N50.84;10;
2;ENG;Devon;Sydenham Damerel;;W4.26;N50.56;10;
2;ENG;Devon;Taddiport;;W4.16;N50.94;10;
2;ENG;Devon;Talaton;;W3.33;N50.78;10;
2;ENG;Devon;Taleford;;W3.29;N50.75;10;
2;ENG;Devon;Talewater;;W3.30;N50.78;10;
2;ENG;Devon;Tamar;;W4.42;N50.86;10;
2;ENG;Devon;Tamerton Foliot;;W4.15;N50.42;10;
2;ENG;Devon;Tavistock;;W4.14;N50.54;10;
2;ENG;Devon;Tavy;;W4.04;N50.62;10;
2;ENG;Devon;Taw;;W3.90;N50.92;10;
2;ENG;Devon;Taw Green;;W3.91;N50.75;10;
2;ENG;Devon;Tawstock;;W4.06;N51.04;10;
2;ENG;Devon;Tedburn St Mary;;W3.68;N50.73;10;
2;ENG;Devon;Teign;;W3.73;N50.69;10;
2;ENG;Devon;Teign Village;;W3.65;N50.61;10;
2;ENG;Devon;Teigngrace;;W3.63;N50.54;10;
2;ENG;Devon;Teignmouth;;W3.49;N50.54;10;
2;ENG;Devon;Templeton;;W3.59;N50.91;10;
2;ENG;Devon;Templeton Bridge;;W3.60;N50.91;10;
2;ENG;Devon;Tetcott;;W4.36;N50.73;10;
2;ENG;Devon;The Point;;W3.42;N50.61;10;
2;ENG;Devon;Thorn;;W3.86;N50.65;10;
2;ENG;Devon;Thornbury;;W4.27;N50.84;10;
2;ENG;Devon;Thorndon Cross;;W4.08;N50.71;10;
2;ENG;Devon;Thorne Moor;;W4.29;N50.67;10;
2;ENG;Devon;Thornehillhead;;W4.26;N50.92;10;
2;ENG;Devon;Thorverton;;W3.53;N50.80;10;
2;ENG;Devon;Throwleigh;;W3.89;N50.69;10;
2;ENG;Devon;Thrushel;;W4.21;N50.67;10;
2;ENG;Devon;Thrushelton;;W4.20;N50.66;10;
2;ENG;Devon;Thurlestone;;W3.86;N50.27;10;
2;ENG;Devon;Ticketwood;;W3.78;N50.27;10;
2;ENG;Devon;Tigley;;W3.76;N50.42;10;
2;ENG;Devon;Tillislow;;W4.29;N50.71;10;
2;ENG;Devon;Tillworth;;W2.95;N50.79;10;
2;ENG;Devon;Tinhay;;W4.27;N50.64;10;
2;ENG;Devon;Tippacott;;W3.77;N51.20;10;
2;ENG;Devon;Tipple Cross;;W4.33;N50.65;10;
2;ENG;Devon;Tipton St John;;W3.29;N50.71;10;
2;ENG;Devon;Titchberry;;W4.51;N51.01;10;
2;ENG;Devon;Tiverton;;W3.49;N50.89;10;
2;ENG;Devon;Topsham;;W3.47;N50.68;10;
2;ENG;Devon;Torbay;;W3.56;N50.43;10;
2;ENG;Devon;Torbryan;;W3.66;N50.48;10;
2;ENG;Devon;Torcross;;W3.65;N50.26;10;
2;ENG;Devon;Torquay;;W3.53;N50.47;10;
2;ENG;Devon;Torr;;W3.99;N50.34;10;
2;ENG;Devon;Torr;;W3.95;N50.42;10;
2;ENG;Devon;Torre;;W3.55;N50.46;10;
2;ENG;Devon;Torridge;;W4.10;N50.83;10;
2;ENG;Devon;Tosberry;;W4.47;N50.96;10;
2;ENG;Devon;Totnes;;W3.69;N50.42;10;
2;ENG;Devon;Tower Hill;;W4.30;N50.68;10;
2;ENG;Devon;Town Barton;;W3.70;N50.73;10;
2;ENG;Devon;Townlake;;W4.25;N50.54;10;
2;ENG;Devon;Townsend;;W3.95;N51.00;10;
2;ENG;Devon;Tracebridge;;W3.34;N50.98;10;
2;ENG;Devon;Trecott;;W3.94;N50.78;10;
2;ENG;Devon;Tredown;;W4.52;N50.93;10;
2;ENG;Devon;Trentishoe;;W3.94;N51.21;10;
2;ENG;Devon;Trewyn;;W4.37;N50.81;10;
2;ENG;Devon;Tricombe;;W3.13;N50.75;10;
2;ENG;Devon;Trill;;W3.02;N50.75;10;
2;ENG;Devon;Trimstone;;W4.14;N51.16;10;
2;ENG;Devon;Trinity;;W3.43;N50.83;10;
2;ENG;Devon;Trow;;W3.20;N50.69;10;
2;ENG;Devon;True Street;;W3.66;N50.42;10;
2;ENG;Devon;Trusham;;W3.62;N50.62;10;
2;ENG;Devon;Tuckenhay;;W3.67;N50.38;10;
2;ENG;Devon;Tuckermarsh;;W4.20;N50.48;10;
2;ENG;Devon;Tudhay;;W2.96;N50.79;10;
2;ENG;Devon;Turfmoor;;W3.03;N50.80;10;
2;ENG;Devon;Turnchapel;;W4.12;N50.34;10;
2;ENG;Devon;Twist;;W3.02;N50.82;10;
2;ENG;Devon;Twitchen;;W3.74;N51.05;10;
2;ENG;Devon;Twitchen Mill;;W3.74;N51.05;10;
2;ENG;Devon;Two Bridges;;W3.97;N50.55;10;
2;ENG;Devon;Two Mile Oak Cross;;W3.63;N50.50;10;
2;ENG;Devon;Two Pots;;W4.10;N51.17;10;
2;ENG;Devon;Tythecott;;W4.26;N50.93;10;
2;ENG;Devon;Tytherleigh;;W2.98;N50.82;10;
2;ENG;Devon;Uffculme;;W3.33;N50.89;10;
2;ENG;Devon;Ugborough;;W3.87;N50.37;10;
2;ENG;Devon;Ullcombe;;W3.12;N50.87;10;
2;ENG;Devon;Umberleigh;;W3.99;N50.98;10;
2;ENG;Devon;Umborne;;W3.09;N50.76;10;
2;ENG;Devon;Umbourne Brook;;W3.11;N50.79;10;
2;ENG;Devon;Underdown;;W3.58;N50.65;10;
2;ENG;Devon;Underwood;;W4.06;N50.37;10;
2;ENG;Devon;Up Exe;;W3.50;N50.80;10;
2;ENG;Devon;Upcott;;W3.91;N50.86;10;
2;ENG;Devon;Upcott;;W4.03;N50.86;10;
2;ENG;Devon;Upcott;;W4.17;N51.13;10;
2;ENG;Devon;Upham;;W3.59;N50.86;10;
2;ENG;Devon;Uphempston;;W3.66;N50.45;10;
2;ENG;Devon;Uplowman;;W3.41;N50.92;10;
2;ENG;Devon;Uplyme;;W2.96;N50.73;10;
2;ENG;Devon;Upottery;;W3.13;N50.85;10;
2;ENG;Devon;Uppacott;;W4.06;N51.03;10;
2;ENG;Devon;Upper Dean;;W3.80;N50.46;10;
2;ENG;Devon;Uppincott;;W3.59;N50.80;10;
2;ENG;Devon;Upton;;W3.82;N50.27;10;
2;ENG;Devon;Upton;;W3.29;N50.81;10;
2;ENG;Devon;Upton Hellions;;W3.64;N50.81;10;
2;ENG;Devon;Upton Pyne;;W3.54;N50.76;10;
2;ENG;Devon;Uton;;W3.67;N50.76;10;
2;ENG;Devon;Vale Down;;W4.09;N50.65;10;
2;ENG;Devon;Velator;;W4.17;N51.09;10;
2;ENG;Devon;Velly;;W4.43;N50.99;10;
2;ENG;Devon;Venn;;W3.82;N50.29;10;
2;ENG;Devon;Venn Ottery;;W3.31;N50.71;10;
2;ENG;Devon;Venngreen;;W4.31;N50.87;10;
2;ENG;Devon;Venny Tedburn;;W3.67;N50.76;10;
2;ENG;Devon;Vention;;W4.21;N51.13;10;
2;ENG;Devon;Venton;;W3.99;N50.38;10;
2;ENG;Devon;Veraby;;W3.75;N51.02;10;
2;ENG;Devon;Vicarage;;W3.13;N50.68;10;
2;ENG;Devon;Virginstow;;W4.31;N50.70;10;
2;ENG;Devon;Wadbrook;;W2.96;N50.80;10;
2;ENG;Devon;Waddeton;;W3.59;N50.39;10;
2;ENG;Devon;Waddicombe;;W3.62;N51.03;10;
2;ENG;Devon;Waddon;;W3.58;N50.60;10;
2;ENG;Devon;Waggs Plot;;W2.98;N50.80;10;
2;ENG;Devon;Waldon;;W4.29;N50.86;10;
2;ENG;Devon;Walkhampton;;W4.07;N50.50;10;
2;ENG;Devon;Ware;;W2.96;N50.71;10;
2;ENG;Devon;Warfleet;;W3.58;N50.33;10;
2;ENG;Devon;Warkleigh;;W3.93;N50.98;10;
2;ENG;Devon;Washbourne;;W3.70;N50.37;10;
2;ENG;Devon;Washfield;;W3.52;N50.92;10;
2;ENG;Devon;Washford Pyne;;W3.69;N50.88;10;
2;ENG;Devon;Wastor;;W3.91;N50.32;10;
2;ENG;Devon;Watchcombe;;W3.09;N50.76;10;
2;ENG;Devon;Watcombe;;W3.53;N50.49;10;
2;ENG;Devon;Water;;W3.76;N50.60;10;
2;ENG;Devon;Waterhead;;W3.85;N50.30;10;
2;ENG;Devon;Way Village;;W3.59;N50.87;10;
2;ENG;Devon;Waye;;W3.73;N50.52;10;
2;ENG;Devon;Waytown;;W4.33;N50.97;10;
2;ENG;Devon;Waytown;;W4.04;N51.07;10;
2;ENG;Devon;Weare Giffard;;W4.18;N50.96;10;
2;ENG;Devon;Week;;W3.71;N50.44;10;
2;ENG;Devon;Week;;W4.19;N50.60;10;
2;ENG;Devon;Week;;W4.05;N51.02;10;
2;ENG;Devon;Weeke;;W3.76;N50.84;10;
2;ENG;Devon;Welcombe;;W4.53;N50.93;10;
2;ENG;Devon;Well Town;;W3.56;N50.87;10;
2;ENG;Devon;Wellswood;;W3.52;N50.46;10;
2;ENG;Devon;Welsford;;W4.46;N50.96;10;
2;ENG;Devon;Welstor;;W3.77;N50.54;10;
2;ENG;Devon;Wembury;;W4.08;N50.31;10;
2;ENG;Devon;Wembworthy;;W3.90;N50.86;10;
2;ENG;Devon;West Alvington;;W3.79;N50.27;10;
2;ENG;Devon;West Anstey;;W3.64;N51.03;10;
2;ENG;Devon;West Ashford;;W4.11;N51.09;10;
2;ENG;Devon;West Blackdown;;W4.13;N50.60;10;
2;ENG;Devon;West Buckland;;W3.92;N51.06;10;
2;ENG;Devon;West Charleton;;W3.75;N50.26;10;
2;ENG;Devon;West Dart;;W3.86;N50.52;10;
2;ENG;Devon;West Down;;W4.13;N51.15;10;
2;ENG;Devon;West Hill;;W3.33;N50.73;10;
2;ENG;Devon;West Ilkerton;;W3.86;N51.19;10;
2;ENG;Devon;West Leigh;;W3.87;N50.82;10;
2;ENG;Devon;West Lyn;;W3.83;N51.21;10;
2;ENG;Devon;West Ogwell;;W3.66;N50.51;10;
2;ENG;Devon;West Panson;;W4.35;N50.69;10;
2;ENG;Devon;West Putford;;W4.34;N50.91;10;
2;ENG;Devon;West Sandford;;W3.69;N50.80;10;
2;ENG;Devon;West Town;;W3.60;N50.76;10;
2;ENG;Devon;West Town;;W4.39;N50.96;10;
2;ENG;Devon;West Wembury;;W4.08;N50.32;10;
2;ENG;Devon;West Worlington;;W3.76;N50.90;10;
2;ENG;Devon;Westacott;;W4.02;N51.06;10;
2;ENG;Devon;Westcott;;W3.39;N50.82;10;
2;ENG;Devon;Westlake;;W3.94;N50.36;10;
2;ENG;Devon;Westleigh;;W3.33;N50.94;10;
2;ENG;Devon;Westleigh;;W4.18;N51.03;10;
2;ENG;Devon;Weston;;W3.19;N50.68;10;
2;ENG;Devon;Weston;;W3.22;N50.79;10;
2;ENG;Devon;Weston Mill;;W4.18;N50.39;10;
2;ENG;Devon;Westown;;W3.26;N50.90;10;
2;ENG;Devon;Westville;;W3.78;N50.28;10;
2;ENG;Devon;Westward Ho!;;W4.24;N51.03;10;
2;ENG;Devon;Westweekmoor;;W4.26;N50.71;10;
2;ENG;Devon;Westwood;;W3.47;N50.61;10;
2;ENG;Devon;Westwood;;W3.40;N50.77;10;
2;ENG;Devon;Weycroft;;W2.99;N50.78;10;
2;ENG;Devon;Whiddon;;W4.07;N51.12;10;
2;ENG;Devon;Whiddon Down;;W3.87;N50.71;10;
2;ENG;Devon;Whimble;;W4.35;N50.79;10;
2;ENG;Devon;Whimple;;W3.36;N50.76;10;
2;ENG;Devon;Whipcott;;W3.32;N50.95;10;
2;ENG;Devon;Whipton;;W3.50;N50.72;10;
2;ENG;Devon;Whitchurch;;W4.13;N50.53;10;
2;ENG;Devon;Whitehall;;W3.25;N50.91;10;
2;ENG;Devon;Whitehall;;W4.10;N51.11;10;
2;ENG;Devon;Whitestone;;W3.61;N50.72;10;
2;ENG;Devon;Whitford;;W3.06;N50.74;10;
2;ENG;Devon;Whitleigh;;W4.15;N50.41;10;
2;ENG;Devon;Whitmoor;;W3.32;N50.88;10;
2;ENG;Devon;Whitnage;;W3.39;N50.92;10;
2;ENG;Devon;Wick;;W3.17;N50.82;10;
2;ENG;Devon;Widecombe in the Moor;;W3.82;N50.56;10;
2;ENG;Devon;Widewell;;W4.12;N50.42;10;
2;ENG;Devon;Widworthy;;W3.12;N50.78;10;
2;ENG;Devon;Wiggaton;;W3.27;N50.72;10;
2;ENG;Devon;Willand;;W3.38;N50.88;10;
2;ENG;Devon;Willand Moor;;W3.36;N50.89;10;
2;ENG;Devon;Willingcott;;W4.17;N51.16;10;
2;ENG;Devon;Wilmington;;W3.12;N50.78;10;
2;ENG;Devon;Wilminstone;;W4.13;N50.56;10;
2;ENG;Devon;Wilsham;;W3.79;N51.21;10;
2;ENG;Devon;Wiltown;;W3.18;N50.93;10;
2;ENG;Devon;Winkleigh;;W3.94;N50.85;10;
2;ENG;Devon;Winsham;;W4.15;N51.12;10;
2;ENG;Devon;Winslade;;W4.30;N50.93;10;
2;ENG;Devon;Winswell;;W4.14;N50.89;10;
2;ENG;Devon;Withacott;;W4.23;N50.91;10;
2;ENG;Devon;Witheridge;;W3.70;N50.91;10;
2;ENG;Devon;Withleigh;;W3.56;N50.89;10;
2;ENG;Devon;Withycombe Raleigh;;W3.40;N50.62;10;
2;ENG;Devon;Wolborough;;W3.62;N50.51;10;
2;ENG;Devon;Wolverstone;;W3.25;N50.82;10;
2;ENG;Devon;Wonford;;W3.50;N50.71;10;
2;ENG;Devon;Wonson;;W3.88;N50.68;10;
2;ENG;Devon;Woodacott;;W4.30;N50.83;10;
2;ENG;Devon;Woodacott Cross;;W4.30;N50.83;10;
2;ENG;Devon;Woodbridge;;W3.16;N50.74;10;
2;ENG;Devon;Woodbury;;W3.40;N50.67;10;
2;ENG;Devon;Woodbury Salterton;;W3.40;N50.69;10;
2;ENG;Devon;Woodford;;W3.70;N50.33;10;
2;ENG;Devon;Woodgate;;W3.28;N50.92;10;
2;ENG;Devon;Woodland;;W3.94;N50.38;10;
2;ENG;Devon;Woodland;;W3.70;N50.49;10;
2;ENG;Devon;Woodland Head;;W3.73;N50.75;10;
2;ENG;Devon;Woodleigh;;W3.78;N50.31;10;
2;ENG;Devon;Woodmanton;;W3.40;N50.65;10;
2;ENG;Devon;Woodtown;;W4.26;N50.98;10;
2;ENG;Devon;Woodtown;;W4.15;N51.00;10;
2;ENG;Devon;Woody Bay;;W3.90;N51.22;10;
2;ENG;Devon;Woolacombe;;W4.21;N51.16;10;
2;ENG;Devon;Woolfardisworthy;;W3.67;N50.85;10;
2;ENG;Devon;Woolfardisworthy (Woolsery);;W4.37;N50.96;10;
2;ENG;Devon;Woollaton;;W4.17;N50.88;10;
2;ENG;Devon;Woolsery (Woolfardisworthy);;W4.37;N50.96;10;
2;ENG;Devon;Woolsgrove;;W3.71;N50.80;10;
2;ENG;Devon;Woolston;;W3.81;N50.25;10;
2;ENG;Devon;Woolston Green;;W3.73;N50.48;10;
2;ENG;Devon;Woolwell;;W4.11;N50.42;10;
2;ENG;Devon;Worlington;;W4.17;N51.04;10;
2;ENG;Devon;Worston;;W3.98;N50.36;10;
2;ENG;Devon;Wotter;;W4.04;N50.43;10;
2;ENG;Devon;Wotton;;W3.69;N50.50;10;
2;ENG;Devon;Wrafton;;W4.15;N51.09;10;
2;ENG;Devon;Wrangaton;;W3.87;N50.39;10;
2;ENG;Devon;Wreyland;;W3.72;N50.61;10;
2;ENG;Devon;Wrinkleberry;;W4.40;N50.99;10;
2;ENG;Devon;Wyke Green;;W2.99;N50.75;10;
2;ENG;Devon;Yalberton;;W3.60;N50.41;10;
2;ENG;Devon;Yarcombe;;W3.08;N50.86;10;
2;ENG;Devon;Yarnacott;;W3.97;N51.05;10;
2;ENG;Devon;Yarnscombe;;W4.05;N50.98;10;
2;ENG;Devon;Yarty;;W3.01;N50.77;10;
2;ENG;Devon;Yawl;;W2.97;N50.74;10;
2;ENG;Devon;Yealm;;W3.95;N50.41;10;
2;ENG;Devon;Yealmbridge;;W3.98;N50.34;10;
2;ENG;Devon;Yealmpton;;W4.01;N50.34;10;
2;ENG;Devon;Yelland;;W4.15;N51.05;10;
2;ENG;Devon;Yelverton;;W4.08;N50.48;10;
2;ENG;Devon;Yeo;;W3.88;N50.73;10;
2;ENG;Devon;Yeo Mill;;W3.65;N51.02;10;
2;ENG;Devon;Yeo Vale;;W4.25;N50.98;10;
2;ENG;Devon;Yeoford;;W3.73;N50.76;10;
2;ENG;Devon;Yettington;;W3.34;N50.65;10;
2;ENG;Devon;Yodercott;;W3.32;N50.90;10;
2;ENG;Devon;Yondertown;;W3.98;N50.41;10;
2;ENG;Devon;Zeal Monachorum;;W3.81;N50.82;10;