"Level";"Country";"County";"Place";"void";"Longitude";"Latitude";"ZoomLevel";"Icon"
2;ENG;Bedfordshire;Ampthill;;W0.50;N52.02;10;
2;ENG;Bedfordshire;Apsley End;;W0.37;N51.97;10;
2;ENG;Bedfordshire;Arlesey;;W0.26;N52.00;10;
2;ENG;Bedfordshire;Aspley Guise;;W0.63;N52.01;10;
2;ENG;Bedfordshire;Aspley Heath;;W0.66;N52.00;10;
2;ENG;Bedfordshire;Astwick;;W0.23;N52.02;10;
2;ENG;Bedfordshire;Astwood;;W0.61;N52.11;10;
2;ENG;Bedfordshire;Atterbury;;W0.70;N52.04;10;
2;ENG;Bedfordshire;Ballingdon Bottom;;W0.50;N51.81;10;
2;ENG;Bedfordshire;Barton le Clay;;W0.42;N51.96;10;
2;ENG;Bedfordshire;Battlesden;;W0.60;N51.94;10;
2;ENG;Bedfordshire;Beadlow;;W0.39;N52.02;10;
2;ENG;Bedfordshire;Beanhill;;W0.74;N52.01;10;
2;ENG;Bedfordshire;Bedford;;W0.46;N52.12;10;
2;ENG;Bedfordshire;Beecroft;;W0.54;N51.88;10;
2;ENG;Bedfordshire;Beeston;;W0.30;N52.11;10;
2;ENG;Bedfordshire;Biddenham;;W0.51;N52.13;10;
2;ENG;Bedfordshire;Bidwell;;W0.53;N51.90;10;
2;ENG;Bedfordshire;Biggleswade;;W0.26;N52.08;10;
2;ENG;Bedfordshire;Billington;;W0.63;N51.88;10;
2;ENG;Bedfordshire;Birchmoor Green;;W0.63;N51.98;10;
2;ENG;Bedfordshire;Biscot;;W0.43;N51.88;10;
2;ENG;Bedfordshire;Blakelands;;W0.74;N52.06;10;
2;ENG;Bedfordshire;Bleak Hall;;W0.76;N52.01;10;
2;ENG;Bedfordshire;Bletchley;;W0.74;N51.99;10;
2;ENG;Bedfordshire;Bletsoe;;W0.50;N52.21;10;
2;ENG;Bedfordshire;Blunham;;W0.32;N52.14;10;
2;ENG;Bedfordshire;Bolnhurst;;W0.42;N52.21;10;
2;ENG;Bedfordshire;Bougton End;;W0.57;N52.02;10;
2;ENG;Bedfordshire;Bourne End;;W0.60;N52.08;10;
2;ENG;Bedfordshire;Bow Brickhill;;W0.69;N51.99;10;
2;ENG;Bedfordshire;Box End;;W0.54;N52.12;10;
2;ENG;Bedfordshire;Bradville;;W0.79;N52.06;10;
2;ENG;Bedfordshire;Bradwell;;W0.79;N52.04;10;
2;ENG;Bedfordshire;Bradwell Common;;W0.77;N52.04;10;
2;ENG;Bedfordshire;Brickhill;;W0.46;N52.15;10;
2;ENG;Bedfordshire;Bridge End;;W0.54;N52.13;10;
2;ENG;Bedfordshire;Brinklow;;W0.68;N52.02;10;
2;ENG;Bedfordshire;Broad Green;;W0.61;N52.07;10;
2;ENG;Bedfordshire;Brogborough;;W0.60;N52.03;10;
2;ENG;Bedfordshire;Bromham;;W0.53;N52.14;10;
2;ENG;Bedfordshire;Brook End;;W0.30;N52.10;10;
2;ENG;Bedfordshire;Brook End;;W0.43;N52.25;10;
2;ENG;Bedfordshire;Brook End;;W0.67;N52.08;10;
2;ENG;Bedfordshire;Broom;;W0.29;N52.07;10;
2;ENG;Bedfordshire;Browns Wood;;W0.69;N52.00;10;
2;ENG;Bedfordshire;Bury End;;W0.37;N51.99;10;
2;ENG;Bedfordshire;Bury End;;W0.56;N52.13;10;
2;ENG;Bedfordshire;Bury Park;;W0.43;N51.87;10;
2;ENG;Bedfordshire;Bushmead;;W0.37;N52.22;10;
2;ENG;Bedfordshire;Caddington;;W0.46;N51.85;10;
2;ENG;Bedfordshire;Caldecotte;;W0.70;N52.00;10;
2;ENG;Bedfordshire;Calverton;;W0.84;N52.04;10;
2;ENG;Bedfordshire;Cam (Rhee);;W0.15;N52.08;10;
2;ENG;Bedfordshire;Campton;;W0.35;N52.02;10;
2;ENG;Bedfordshire;Cardington;;W0.42;N52.11;10;
2;ENG;Bedfordshire;Carlton;;W0.61;N52.18;10;
2;ENG;Bedfordshire;Caulcott;;W0.55;N52.06;10;
2;ENG;Bedfordshire;Central Milton Keynes;;W0.76;N52.03;10;
2;ENG;Bedfordshire;Central Milton Keynes;;W0.77;N52.03;10;
2;ENG;Bedfordshire;Chadwell End;;W0.41;N52.27;10;
2;ENG;Bedfordshire;Chalgrave;;W0.53;N51.93;10;
2;ENG;Bedfordshire;Chalton;;W0.50;N51.92;10;
2;ENG;Bedfordshire;Chalton;;W0.33;N52.13;10;
2;ENG;Bedfordshire;Channel's End;;W0.37;N52.19;10;
2;ENG;Bedfordshire;Chapel End;;W0.46;N52.06;10;
2;ENG;Bedfordshire;Chapel End;;W0.40;N52.11;10;
2;ENG;Bedfordshire;Chapel End;;W0.39;N52.20;10;
2;ENG;Bedfordshire;Chaul End;;W0.47;N51.87;10;
2;ENG;Bedfordshire;Chawston;;W0.31;N52.19;10;
2;ENG;Bedfordshire;Chellington;;W0.61;N52.18;10;
2;ENG;Bedfordshire;Chicheley;;W0.68;N52.09;10;
2;ENG;Bedfordshire;Chicksands;;W0.36;N52.03;10;
2;ENG;Bedfordshire;Chiltern Green;;W0.36;N51.85;10;
2;ENG;Bedfordshire;Church End;;W0.50;N51.85;10;
2;ENG;Bedfordshire;Church End;;W0.56;N51.87;10;
2;ENG;Bedfordshire;Church End;;W0.57;N51.97;10;
2;ENG;Bedfordshire;Church End;;W0.26;N52.01;10;
2;ENG;Bedfordshire;Church End;;W0.61;N52.01;10;
2;ENG;Bedfordshire;Church End;;W0.30;N52.16;10;
2;ENG;Bedfordshire;Church End;;W0.43;N52.17;10;
2;ENG;Bedfordshire;Church End;;W0.39;N52.20;10;
2;ENG;Bedfordshire;Church End;;W0.46;N52.21;10;
2;ENG;Bedfordshire;Clapham;;W0.50;N52.16;10;
2;ENG;Bedfordshire;Clapham Green;;W0.49;N52.15;10;
2;ENG;Bedfordshire;Clement's End;;W0.52;N51.82;10;
2;ENG;Bedfordshire;Clifton;;W0.31;N52.02;10;
2;ENG;Bedfordshire;Clifton Reynes;;W0.68;N52.15;10;
2;ENG;Bedfordshire;Clipstone;;W0.63;N51.92;10;
2;ENG;Bedfordshire;Clipstone Brook;;W0.58;N51.92;10;
2;ENG;Bedfordshire;Cliton Manor;;W0.31;N52.03;10;
2;ENG;Bedfordshire;Clophill;;W0.42;N52.02;10;
2;ENG;Bedfordshire;Cockayne Hatley;;W0.16;N52.12;10;
2;ENG;Bedfordshire;Cockernhoe;;W0.37;N51.89;10;
2;ENG;Bedfordshire;Coffee Hall;;W0.74;N52.01;10;
2;ENG;Bedfordshire;Cold Brayfield;;W0.65;N52.15;10;
2;ENG;Bedfordshire;Colesden;;W0.36;N52.18;10;
2;ENG;Bedfordshire;Colmworth;;W0.39;N52.20;10;
2;ENG;Bedfordshire;Colworth Ho;;W0.56;N52.22;10;
2;ENG;Bedfordshire;Conniburrow;;W0.76;N52.04;10;
2;ENG;Bedfordshire;Cooper's Hill;;W0.51;N52.02;10;
2;ENG;Bedfordshire;Cople;;W0.39;N52.11;10;
2;ENG;Bedfordshire;Cotton End;;W0.42;N52.09;10;
2;ENG;Bedfordshire;Covington;;W0.46;N52.31;10;
2;ENG;Bedfordshire;Cranfield;;W0.61;N52.06;10;
2;ENG;Bedfordshire;Cross End;;W0.44;N52.21;10;
2;ENG;Bedfordshire;Cross End;;W0.67;N52.02;10;
2;ENG;Bedfordshire;Crowhill;;W0.80;N52.02;10;
2;ENG;Bedfordshire;Deadman's Cross;;W0.38;N52.05;10;
2;ENG;Bedfordshire;Deepdale;;W0.24;N52.12;10;
2;ENG;Bedfordshire;Downhead Park;;W0.74;N52.05;10;
2;ENG;Bedfordshire;Downside;;W0.50;N51.86;10;
2;ENG;Bedfordshire;Duck End;;W0.45;N52.08;10;
2;ENG;Bedfordshire;Duck End;;W0.56;N52.15;10;
2;ENG;Bedfordshire;Duloe;;W0.31;N52.22;10;
2;ENG;Bedfordshire;Dunstable;;W0.53;N51.87;10;
2;ENG;Bedfordshire;Dunton;;W0.20;N52.08;10;
2;ENG;Bedfordshire;Eaglestone;;W0.74;N52.02;10;
2;ENG;Bedfordshire;East End;;W0.60;N52.06;10;
2;ENG;Bedfordshire;East End;;W0.39;N52.18;10;
2;ENG;Bedfordshire;East End;;W0.62;N52.08;10;
2;ENG;Bedfordshire;East Hyde;;W0.37;N51.84;10;
2;ENG;Bedfordshire;Eastcotts;;W0.45;N52.11;10;
2;ENG;Bedfordshire;Eaton Socon;;W0.30;N52.21;10;
2;ENG;Bedfordshire;Edworth;;W0.22;N52.05;10;
2;ENG;Bedfordshire;Eggington;;W0.62;N51.91;10;
2;ENG;Bedfordshire;Elstow;;W0.46;N52.10;10;
2;ENG;Bedfordshire;Emberton;;W0.71;N52.13;10;
2;ENG;Bedfordshire;Emerson Valley;;W0.77;N51.99;10;
2;ENG;Bedfordshire;Eversholt;;W0.55;N51.98;10;
2;ENG;Bedfordshire;Everton;;W0.24;N52.14;10;
2;ENG;Bedfordshire;Eyeworth;;W0.19;N52.08;10;
2;ENG;Bedfordshire;Fancott;;W0.53;N51.93;10;
2;ENG;Bedfordshire;Farley Hill;;W0.44;N51.86;10;
2;ENG;Bedfordshire;Felmersham;;W0.55;N52.20;10;
2;ENG;Bedfordshire;Fenlake;;W0.45;N52.12;10;
2;ENG;Bedfordshire;Fenny Stratford;;W0.71;N51.99;10;
2;ENG;Bedfordshire;Filgrave;;W0.73;N52.12;10;
2;ENG;Bedfordshire;Fishermead;;W0.74;N52.03;10;
2;ENG;Bedfordshire;Flitton;;W0.47;N52.00;10;
2;ENG;Bedfordshire;Flitwick;;W0.50;N51.99;10;
2;ENG;Bedfordshire;Fox Corner;;W0.66;N51.95;10;
2;ENG;Bedfordshire;Froxfield;;W0.58;N51.98;10;
2;ENG;Bedfordshire;Furzton;;W0.77;N52.00;10;
2;ENG;Bedfordshire;Gamlinghay Great Heath;;W0.23;N52.14;10;
2;ENG;Bedfordshire;Gayhurst;;W0.77;N52.10;10;
2;ENG;Bedfordshire;Gibraltar;;W0.54;N52.10;10;
2;ENG;Bedfordshire;Giffard Park;;W0.74;N52.06;10;
2;ENG;Bedfordshire;Goldington;;W0.43;N52.13;10;
2;ENG;Bedfordshire;Gossard's Green;;W0.60;N52.07;10;
2;ENG;Bedfordshire;Great Barford;;W0.36;N52.15;10;
2;ENG;Bedfordshire;Great Holm;;W0.80;N52.03;10;
2;ENG;Bedfordshire;Great Linford;;W0.76;N52.07;10;
2;ENG;Bedfordshire;Great Ouse;;W0.52;N52.13;10;
2;ENG;Bedfordshire;Green End;;W0.45;N52.03;10;
2;ENG;Bedfordshire;Green End;;W0.52;N52.11;10;
2;ENG;Bedfordshire;Green End;;W0.36;N52.15;10;
2;ENG;Bedfordshire;Green End;;W0.38;N52.25;10;
2;ENG;Bedfordshire;Green End;;W0.43;N52.26;10;
2;ENG;Bedfordshire;Greenfield;;W0.47;N51.99;10;
2;ENG;Bedfordshire;Greenley;;W0.83;N52.05;10;
2;ENG;Bedfordshire;Hall End;;W0.44;N52.02;10;
2;ENG;Bedfordshire;Hall End;;W0.54;N52.09;10;
2;ENG;Bedfordshire;Hanscombe End;;W0.38;N51.98;10;
2;ENG;Bedfordshire;Hanslope;;W0.83;N52.10;10;
2;ENG;Bedfordshire;Hardmead;;W0.64;N52.11;10;
2;ENG;Bedfordshire;Hargrave;;W0.49;N52.31;10;
2;ENG;Bedfordshire;Harlington;;W0.50;N51.95;10;
2;ENG;Bedfordshire;Harrold;;W0.62;N52.19;10;
2;ENG;Bedfordshire;Harrowden;;W0.45;N52.11;10;
2;ENG;Bedfordshire;Hart Hill;;W0.40;N51.88;10;
2;ENG;Bedfordshire;Hatch;;W0.32;N52.10;10;
2;ENG;Bedfordshire;Hatch End;;W0.43;N52.23;10;
2;ENG;Bedfordshire;Haversham;;W0.80;N52.07;10;
2;ENG;Bedfordshire;Haynes;;W0.41;N52.06;10;
2;ENG;Bedfordshire;Haynes Church End;;W0.42;N52.05;10;
2;ENG;Bedfordshire;Haynes West End;;W0.45;N52.04;10;
2;ENG;Bedfordshire;Heath and Reach;;W0.66;N51.93;10;
2;ENG;Bedfordshire;Heelands;;W0.79;N52.04;10;
2;ENG;Bedfordshire;Henlow;;W0.29;N52.02;10;
2;ENG;Bedfordshire;Herring's Green;;W0.42;N52.08;10;
2;ENG;Bedfordshire;High Town;;W0.41;N51.87;10;
2;ENG;Bedfordshire;Higham Gobion;;W0.39;N51.97;10;
2;ENG;Bedfordshire;Higher Berry End;;W0.57;N51.99;10;
2;ENG;Bedfordshire;Higher Rads End;;W0.55;N51.97;10;
2;ENG;Bedfordshire;Hillfoot End;;W0.37;N51.99;10;
2;ENG;Bedfordshire;Hinwick;;W0.63;N52.23;10;
2;ENG;Bedfordshire;Hiz;;W0.28;N52.00;10;
2;ENG;Bedfordshire;Hockliffe;;W0.59;N51.92;10;
2;ENG;Bedfordshire;Holme;;W0.27;N52.06;10;
2;ENG;Bedfordshire;Holme Green;;W0.26;N52.07;10;
2;ENG;Bedfordshire;Holwell;;W0.31;N51.98;10;
2;ENG;Bedfordshire;Holwellbury;;W0.31;N51.99;10;
2;ENG;Bedfordshire;Holywell;;W0.53;N51.83;10;
2;ENG;Bedfordshire;Honeydon;;W0.34;N52.20;10;
2;ENG;Bedfordshire;Honeywick;;W0.59;N51.87;10;
2;ENG;Bedfordshire;Houghton Conquest;;W0.48;N52.05;10;
2;ENG;Bedfordshire;Houghton Regis;;W0.53;N51.90;10;
2;ENG;Bedfordshire;How End;;W0.49;N52.04;10;
2;ENG;Bedfordshire;Hulcote;;W0.63;N52.03;10;
2;ENG;Bedfordshire;Husborne Crawley;;W0.61;N52.00;10;
2;ENG;Bedfordshire;Ickwell;;W0.32;N52.09;10;
2;ENG;Bedfordshire;Ickwell Green;;W0.32;N52.09;10;
2;ENG;Bedfordshire;Ireland;;W0.35;N52.05;10;
2;ENG;Bedfordshire;Keeley Green;;W0.54;N52.10;10;
2;ENG;Bedfordshire;Kempston;;W0.49;N52.12;10;
2;ENG;Bedfordshire;Kempston Church End;;W0.52;N52.11;10;
2;ENG;Bedfordshire;Kempston Hardwick;;W0.49;N52.08;10;
2;ENG;Bedfordshire;Kempston West End;;W0.55;N52.11;10;
2;ENG;Bedfordshire;Kensworth;;W0.52;N51.85;10;
2;ENG;Bedfordshire;Kents Hill;;W0.70;N52.02;10;
2;ENG;Bedfordshire;Keysoe;;W0.43;N52.24;10;
2;ENG;Bedfordshire;Keysoe Row;;W0.41;N52.23;10;
2;ENG;Bedfordshire;Kingston;;W0.68;N52.03;10;
2;ENG;Bedfordshire;Knotting;;W0.53;N52.25;10;
2;ENG;Bedfordshire;Knotting Green;;W0.53;N52.24;10;
2;ENG;Bedfordshire;Kym;;W0.39;N52.30;10;
2;ENG;Bedfordshire;Langford;;W0.28;N52.04;10;
2;ENG;Bedfordshire;Lathbury;;W0.73;N52.09;10;
2;ENG;Bedfordshire;Lavendon;;W0.67;N52.16;10;
2;ENG;Bedfordshire;Lea (Lee);;W0.32;N51.81;10;
2;ENG;Bedfordshire;Leagrave;;W0.47;N51.89;10;
2;ENG;Bedfordshire;Lee (Lea);;W0.32;N51.81;10;
2;ENG;Bedfordshire;Leighton Buzzard;;W0.66;N51.91;10;
2;ENG;Bedfordshire;Lidlington;;W0.57;N52.04;10;
2;ENG;Bedfordshire;Limbury;;W0.46;N51.90;10;
2;ENG;Bedfordshire;Linslade;;W0.67;N51.91;10;
2;ENG;Bedfordshire;Little Barford;;W0.27;N52.18;10;
2;ENG;Bedfordshire;Little Billington;;W0.64;N51.88;10;
2;ENG;Bedfordshire;Little Crawley;;W0.65;N52.09;10;
2;ENG;Bedfordshire;Little Linford;;W0.77;N52.08;10;
2;ENG;Bedfordshire;Little Odell;;W0.59;N52.20;10;
2;ENG;Bedfordshire;Little Staughton;;W0.39;N52.24;10;
2;ENG;Bedfordshire;Little Wymington;;W0.60;N52.27;10;
2;ENG;Bedfordshire;Littleworth;;W0.43;N52.08;10;
2;ENG;Bedfordshire;Long Street;;W0.84;N52.11;10;
2;ENG;Bedfordshire;Loughton;;W0.79;N52.02;10;
2;ENG;Bedfordshire;Lower Caldecote;;W0.29;N52.10;10;
2;ENG;Bedfordshire;Lower Dean;;W0.46;N52.30;10;
2;ENG;Bedfordshire;Lower End;;W0.59;N51.88;10;
2;ENG;Bedfordshire;Lower End;;W0.64;N52.02;10;
2;ENG;Bedfordshire;Lower Gravenhurst;;W0.38;N52.00;10;
2;ENG;Bedfordshire;Lower Shelton;;W0.55;N52.06;10;
2;ENG;Bedfordshire;Lower Stondon;;W0.32;N52.00;10;
2;ENG;Bedfordshire;Lower Sundon;;W0.47;N51.93;10;
2;ENG;Bedfordshire;Luton;;W0.41;N51.87;10;
2;ENG;Bedfordshire;Mangrove Green;;W0.37;N51.89;10;
2;ENG;Bedfordshire;Marston Moretaine;;W0.55;N52.05;10;
2;ENG;Bedfordshire;Maulden;;W0.47;N52.03;10;
2;ENG;Bedfordshire;Melchbourne;;W0.50;N52.27;10;
2;ENG;Bedfordshire;Meppershall;;W0.35;N52.01;10;
2;ENG;Bedfordshire;Middle Weald;;W0.84;N52.03;10;
2;ENG;Bedfordshire;Millbrook;;W0.52;N52.03;10;
2;ENG;Bedfordshire;Millow;;W0.22;N52.07;10;
2;ENG;Bedfordshire;Milton Bryan;;W0.58;N51.96;10;
2;ENG;Bedfordshire;Milton Ernest;;W0.52;N52.19;10;
2;ENG;Bedfordshire;Milton Keynes;;W0.45;N52.02;10;
2;ENG;Bedfordshire;Milton Keynes Village;;W0.70;N52.04;10;
2;ENG;Bedfordshire;Mogerhanger;;W0.33;N52.12;10;
2;ENG;Bedfordshire;Monkston Park;;W0.71;N52.03;10;
2;ENG;Bedfordshire;Moulsoe;;W0.68;N52.06;10;
2;ENG;Bedfordshire;Neath Hill;;W0.76;N52.05;10;
2;ENG;Bedfordshire;Netherfield;;W0.73;N52.01;10;
2;ENG;Bedfordshire;New Bradwell;;W0.80;N52.06;10;
2;ENG;Bedfordshire;New Town;;W0.41;N51.86;10;
2;ENG;Bedfordshire;Newport Pagnell;;W0.73;N52.07;10;
2;ENG;Bedfordshire;Newton;;W0.22;N52.08;10;
2;ENG;Bedfordshire;Newton Blossomville;;W0.65;N52.14;10;
2;ENG;Bedfordshire;North Crawley;;W0.65;N52.08;10;
2;ENG;Bedfordshire;North End;;W0.58;N52.13;10;
2;ENG;Bedfordshire;North End;;W0.50;N52.22;10;
2;ENG;Bedfordshire;Northfield;;W0.71;N52.05;10;
2;ENG;Bedfordshire;Northill;;W0.33;N52.10;10;
2;ENG;Bedfordshire;Oakgrove;;W0.73;N52.03;10;
2;ENG;Bedfordshire;Oakley;;W0.52;N52.16;10;
2;ENG;Bedfordshire;Odell;;W0.59;N52.20;10;
2;ENG;Bedfordshire;Old Farm Park;;W0.68;N52.01;10;
2;ENG;Bedfordshire;Old Linslade;;W0.67;N51.92;10;
2;ENG;Bedfordshire;Old Warden;;W0.35;N52.07;10;
2;ENG;Bedfordshire;Old Wolverton;;W0.81;N52.06;10;
2;ENG;Bedfordshire;Oldbrook;;W0.76;N52.02;10;
2;ENG;Bedfordshire;Olney;;W0.71;N52.15;10;
2;ENG;Bedfordshire;Ouzel;;W0.58;N51.89;10;
2;ENG;Bedfordshire;Park End;;W0.55;N52.16;10;
2;ENG;Bedfordshire;Park Street;;W0.41;N51.86;10;
2;ENG;Bedfordshire;Parkside;;W0.51;N51.90;10;
2;ENG;Bedfordshire;Passenham;;W0.86;N52.04;10;
2;ENG;Bedfordshire;Pavenham;;W0.55;N52.18;10;
2;ENG;Bedfordshire;Pegsdon;;W0.37;N51.95;10;
2;ENG;Bedfordshire;Pepperstock;;W0.43;N51.85;10;
2;ENG;Bedfordshire;Pertenhall;;W0.41;N52.27;10;
2;ENG;Bedfordshire;Petsoe End;;W0.70;N52.13;10;
2;ENG;Bedfordshire;Pineham;;W0.71;N52.06;10;
2;ENG;Bedfordshire;Pinfoldpond;;W0.64;N51.97;10;
2;ENG;Bedfordshire;Podington;;W0.62;N52.24;10;
2;ENG;Bedfordshire;Potsgrove;;W0.61;N51.95;10;
2;ENG;Bedfordshire;Potton;;W0.21;N52.12;10;
2;ENG;Bedfordshire;Pulloxhill;;W0.45;N51.98;10;
2;ENG;Bedfordshire;Putnoe;;W0.45;N52.14;10;
2;ENG;Bedfordshire;Queen's Park;;W0.49;N52.13;10;
2;ENG;Bedfordshire;Radwell;;W0.53;N52.20;10;
2;ENG;Bedfordshire;Ravensden;;W0.43;N52.17;10;
2;ENG;Bedfordshire;Ravenstone;;W0.77;N52.14;10;
2;ENG;Bedfordshire;Renhold;;W0.42;N52.15;10;
2;ENG;Bedfordshire;Rhee (Cam);;W0.15;N52.08;10;
2;ENG;Bedfordshire;Ridgmont;;W0.58;N52.01;10;
2;ENG;Bedfordshire;Riseley;;W0.47;N52.24;10;
2;ENG;Bedfordshire;Rootham's Green;;W0.39;N52.20;10;
2;ENG;Bedfordshire;Round Green;;W0.41;N51.88;10;
2;ENG;Bedfordshire;Roxton;;W0.31;N52.17;10;
2;ENG;Bedfordshire;Rushmere;;W0.67;N51.93;10;
2;ENG;Bedfordshire;Salford;;W0.64;N52.04;10;
2;ENG;Bedfordshire;Salford Ford;;W0.64;N52.03;10;
2;ENG;Bedfordshire;Salph End;;W0.43;N52.15;10;
2;ENG;Bedfordshire;Sandy;;W0.30;N52.12;10;
2;ENG;Bedfordshire;Scald End;;W0.47;N52.20;10;
2;ENG;Bedfordshire;Seddington;;W0.29;N52.10;10;
2;ENG;Bedfordshire;Sevick End;;W0.40;N52.17;10;
2;ENG;Bedfordshire;Sewell;;W0.56;N51.88;10;
2;ENG;Bedfordshire;Sharnbrook;;W0.55;N52.22;10;
2;ENG;Bedfordshire;Sharpenhoe;;W0.45;N51.95;10;
2;ENG;Bedfordshire;Sheeplane;;W0.64;N51.96;10;
2;ENG;Bedfordshire;Shefford;;W0.33;N52.03;10;
2;ENG;Bedfordshire;Shelton;;W0.49;N52.30;10;
2;ENG;Bedfordshire;Shenley Brook End;;W0.79;N52.00;10;
2;ENG;Bedfordshire;Shenley Church End;;W0.79;N52.01;10;
2;ENG;Bedfordshire;Shenley Lodge;;W0.77;N52.01;10;
2;ENG;Bedfordshire;Shenley Wood;;W0.80;N52.01;10;
2;ENG;Bedfordshire;Sherington;;W0.71;N52.10;10;
2;ENG;Bedfordshire;Shillington;;W0.37;N51.99;10;
2;ENG;Bedfordshire;Shortstown;;W0.43;N52.10;10;
2;ENG;Bedfordshire;Silsoe;;W0.44;N52.00;10;
2;ENG;Bedfordshire;Simpson;;W0.71;N52.00;10;
2;ENG;Bedfordshire;Slip End;;W0.43;N51.85;10;
2;ENG;Bedfordshire;Souldrop;;W0.56;N52.23;10;
2;ENG;Bedfordshire;South End;;W0.48;N52.12;10;
2;ENG;Bedfordshire;Southill;;W0.32;N52.06;10;
2;ENG;Bedfordshire;Springfield;;W0.73;N52.03;10;
2;ENG;Bedfordshire;Stagsden;;W0.56;N52.13;10;
2;ENG;Bedfordshire;Stagsden West End;;W0.58;N52.11;10;
2;ENG;Bedfordshire;Stanbridge;;W0.60;N51.90;10;
2;ENG;Bedfordshire;Stanbridgeford;;W0.60;N51.89;10;
2;ENG;Bedfordshire;Stanford;;W0.30;N52.05;10;
2;ENG;Bedfordshire;Stantonbury;;W0.77;N52.06;10;
2;ENG;Bedfordshire;Staploe;;W0.33;N52.22;10;
2;ENG;Bedfordshire;Steppingley;;W0.52;N52.00;10;
2;ENG;Bedfordshire;Stevington;;W0.56;N52.16;10;
2;ENG;Bedfordshire;Stewartby;;W0.51;N52.06;10;
2;ENG;Bedfordshire;Stoke Goldington;;W0.78;N52.12;10;
2;ENG;Bedfordshire;Stony Stratford;;W0.84;N52.05;10;
2;ENG;Bedfordshire;Stopsley;;W0.40;N51.89;10;
2;ENG;Bedfordshire;Stotfold;;W0.23;N52.00;10;
2;ENG;Bedfordshire;Stratford;;W0.27;N52.10;10;
2;ENG;Bedfordshire;Streatley;;W0.44;N51.94;10;
2;ENG;Bedfordshire;Studham;;W0.52;N51.82;10;
2;ENG;Bedfordshire;Sundon Park;;W0.47;N51.91;10;
2;ENG;Bedfordshire;Sutton;;W0.21;N52.10;10;
2;ENG;Bedfordshire;Swineshead;;W0.46;N52.27;10;
2;ENG;Bedfordshire;Tathall End;;W0.80;N52.10;10;
2;ENG;Bedfordshire;Tattenhoe;;W0.79;N51.99;10;
2;ENG;Bedfordshire;Tebworth;;W0.56;N51.92;10;
2;ENG;Bedfordshire;Tempsford;;W0.30;N52.16;10;
2;ENG;Bedfordshire;Tetworth;;W0.23;N52.16;10;
2;ENG;Bedfordshire;The Green;;W0.54;N51.84;10;
2;ENG;Bedfordshire;The Green;;W0.73;N52.07;10;
2;ENG;Bedfordshire;Thorncote Green;;W0.32;N52.10;10;
2;ENG;Bedfordshire;Thurleigh;;W0.46;N52.21;10;
2;ENG;Bedfordshire;Tickford End;;W0.71;N52.07;10;
2;ENG;Bedfordshire;Tilsworth;;W0.57;N51.90;10;
2;ENG;Bedfordshire;Tingrith;;W0.54;N51.97;10;
2;ENG;Bedfordshire;Toddington;;W0.54;N51.94;10;
2;ENG;Bedfordshire;Tongwell;;W0.73;N52.06;10;
2;ENG;Bedfordshire;Top End;;W0.49;N52.24;10;
2;ENG;Bedfordshire;Totternhoe;;W0.57;N51.87;10;
2;ENG;Bedfordshire;Turvey;;W0.62;N52.15;10;
2;ENG;Bedfordshire;Two Mile Ash;;W0.82;N52.03;10;
2;ENG;Bedfordshire;Tyrells End;;W0.57;N51.98;10;
2;ENG;Bedfordshire;Tyringham;;W0.75;N52.11;10;
2;ENG;Bedfordshire;Up End;;W0.65;N52.09;10;
2;ENG;Bedfordshire;Upper Caldecote;;W0.30;N52.09;10;
2;ENG;Bedfordshire;Upper Dean;;W0.47;N52.29;10;
2;ENG;Bedfordshire;Upper Gravenhurst;;W0.38;N52.01;10;
2;ENG;Bedfordshire;Upper Shelton;;W0.55;N52.07;10;
2;ENG;Bedfordshire;Upper Staploe;;W0.33;N52.21;10;
2;ENG;Bedfordshire;Upper Stondon;;W0.34;N52.00;10;
2;ENG;Bedfordshire;Upper Sundon;;W0.48;N51.93;10;
2;ENG;Bedfordshire;Upper Weald;;W0.83;N52.02;10;
2;ENG;Bedfordshire;Upton End;;W0.37;N51.99;10;
2;ENG;Bedfordshire;Walnut Tree;;W0.70;N52.01;10;
2;ENG;Bedfordshire;Walton;;W0.70;N52.01;10;
2;ENG;Bedfordshire;Wandon End;;W0.35;N51.88;10;
2;ENG;Bedfordshire;Warden Street;;W0.36;N52.08;10;
2;ENG;Bedfordshire;Wardhedges;;W0.45;N52.00;10;
2;ENG;Bedfordshire;Warrington;;W0.69;N52.17;10;
2;ENG;Bedfordshire;Water Eaton;;W0.73;N51.97;10;
2;ENG;Bedfordshire;Water End;;W0.45;N52.02;10;
2;ENG;Bedfordshire;Water End;;W0.17;N52.10;10;
2;ENG;Bedfordshire;Water End;;W0.39;N52.11;10;
2;ENG;Bedfordshire;Wavendon;;W0.68;N52.02;10;
2;ENG;Bedfordshire;Wavendon Gate;;W0.68;N52.01;10;
2;ENG;Bedfordshire;West End;;W0.56;N52.16;10;
2;ENG;Bedfordshire;West End;;W0.40;N52.24;10;
2;ENG;Bedfordshire;Westcroft;;W0.80;N51.99;10;
2;ENG;Bedfordshire;Weston Underwood;;W0.74;N52.14;10;
2;ENG;Bedfordshire;Westoning;;W0.50;N51.97;10;
2;ENG;Bedfordshire;Wharley End;;W0.64;N52.06;10;
2;ENG;Bedfordshire;Whipsnade;;W0.54;N51.85;10;
2;ENG;Bedfordshire;Wilden;;W0.40;N52.18;10;
2;ENG;Bedfordshire;Willen;;W0.73;N52.06;10;
2;ENG;Bedfordshire;Willington;;W0.37;N52.12;10;
2;ENG;Bedfordshire;Wilstead;;W0.45;N52.07;10;
2;ENG;Bedfordshire;Wingfield;;W0.54;N51.92;10;
2;ENG;Bedfordshire;Winsdon Hill;;W0.44;N51.87;10;
2;ENG;Bedfordshire;Woburn;;W0.63;N51.98;10;
2;ENG;Bedfordshire;Woburn Sands;;W0.66;N52.00;10;
2;ENG;Bedfordshire;Wolverton;;W0.82;N52.05;10;
2;ENG;Bedfordshire;Wood End;;W0.58;N52.05;10;
2;ENG;Bedfordshire;Woodside;;W0.44;N51.85;10;
2;ENG;Bedfordshire;Woodside;;W0.43;N52.15;10;
2;ENG;Bedfordshire;Woolstone;;W0.73;N52.03;10;
2;ENG;Bedfordshire;Wootton;;W0.54;N52.09;10;
2;ENG;Bedfordshire;Wootton Bourne End;;W0.57;N52.09;10;
2;ENG;Bedfordshire;Wootton Broadmead;;W0.51;N52.07;10;
2;ENG;Bedfordshire;Wootton Green;;W0.55;N52.07;10;
2;ENG;Bedfordshire;Workhouse End;;W0.39;N52.15;10;
2;ENG;Bedfordshire;Woughton on the Green;;W0.73;N52.02;10;
2;ENG;Bedfordshire;Wrestlingworth;;W0.17;N52.10;10;
2;ENG;Bedfordshire;Wyboston;;W0.30;N52.19;10;
2;ENG;Bedfordshire;Wymbush;;W0.80;N52.03;10;
2;ENG;Bedfordshire;Wymington;;W0.60;N52.26;10;
2;ENG;Bedfordshire;Yelden;;W0.52;N52.29;10;
