"Level";"Country";"County";"Place";"void";"Longitude";"Latitude";"ZoomLevel";"Icon"
2;England;Gloucestershire;Abbeydale;;W2.20;N51.84;10;
2;England;Gloucestershire;Ablington;;W1.85;N51.76;10;
2;England;Gloucestershire;Abson;;W2.43;N51.46;10;
2;England;Gloucestershire;Acton Turville;;W2.28;N51.51;10;
2;England;Gloucestershire;Adlestrop;;W1.65;N51.94;10;
2;England;Gloucestershire;Alderley;;W2.34;N51.60;10;
2;England;Gloucestershire;Alderton;;W2.00;N51.99;10;
2;England;Gloucestershire;Alderton Fields;;W2.00;N51.98;10;
2;England;Gloucestershire;Aldsworth;;W1.78;N51.78;10;
2;England;Gloucestershire;Alkerton;;W2.33;N51.74;10;
2;England;Gloucestershire;Allaston;;W2.53;N51.73;10;
2;England;Gloucestershire;Almondsbury;;W2.57;N51.55;10;
2;England;Gloucestershire;Alstone;;W2.10;N51.89;10;
2;England;Gloucestershire;Alstone;;W2.03;N51.98;10;
2;England;Gloucestershire;Alveston;;W2.53;N51.58;10;
2;England;Gloucestershire;Alveston Down;;W2.54;N51.58;10;
2;England;Gloucestershire;Alvington;;W2.58;N51.69;10;
2;England;Gloucestershire;Amberley;;W2.21;N51.70;10;
2;England;Gloucestershire;Ampney Crucis;;W1.91;N51.70;10;
2;England;Gloucestershire;Ampney St Mary;;W1.88;N51.71;10;
2;England;Gloucestershire;Ampney St Peter;;W1.88;N51.70;10;
2;England;Gloucestershire;Andoversford;;W1.97;N51.86;10;
2;England;Gloucestershire;Anthony's Cross;;W2.42;N51.90;10;
2;England;Gloucestershire;Apperley;;W2.20;N51.95;10;
2;England;Gloucestershire;Arle;;W2.11;N51.90;10;
2;England;Gloucestershire;Arlebrook;;W2.27;N51.77;10;
2;England;Gloucestershire;Arlingham;;W2.43;N51.78;10;
2;England;Gloucestershire;Arlington;;W1.85;N51.75;10;
2;England;Gloucestershire;Ashchurch;;W2.11;N51.99;10;
2;England;Gloucestershire;Ashleworth;;W2.27;N51.92;10;
2;England;Gloucestershire;Ashley;;W2.10;N51.64;10;
2;England;Gloucestershire;Ashmead Green;;W2.34;N51.68;10;
2;England;Gloucestershire;Aston Cross;;W2.08;N51.99;10;
2;England;Gloucestershire;Aston Magna;;W1.72;N52.01;10;
2;England;Gloucestershire;Aston on Carrant;;W2.08;N52.00;10;
2;England;Gloucestershire;Aston Subedge;;W1.81;N52.06;10;
2;England;Gloucestershire;Aust;;W2.62;N51.59;10;
2;England;Gloucestershire;Avening;;W2.17;N51.68;10;
2;England;Gloucestershire;Avening Green;;W2.42;N51.63;10;
2;England;Gloucestershire;Avon;;W2.17;N51.98;10;
2;England;Gloucestershire;Awkley;;W2.59;N51.56;10;
2;England;Gloucestershire;Awre;;W2.43;N51.77;10;
2;England;Gloucestershire;Aylburton;;W2.56;N51.70;10;
2;England;Gloucestershire;Aylburton Common;;W2.58;N51.71;10;
2;England;Gloucestershire;Aylworth;;W1.85;N51.89;10;
2;England;Gloucestershire;Badgeworth;;W2.14;N51.86;10;
2;England;Gloucestershire;Badminton;;W2.28;N51.53;10;
2;England;Gloucestershire;Bagendon;;W1.98;N51.75;10;
2;England;Gloucestershire;Bagpath;;W2.29;N51.64;10;
2;England;Gloucestershire;Bagpath;;W2.21;N51.71;10;
2;England;Gloucestershire;Bagstone;;W2.46;N51.58;10;
2;England;Gloucestershire;Baker's Hill;;W2.61;N51.79;10;
2;England;Gloucestershire;Ball's Green;;W2.20;N51.68;10;
2;England;Gloucestershire;Bamfurlong;;W2.14;N51.88;10;
2;England;Gloucestershire;Barnsley;;W1.90;N51.74;10;
2;England;Gloucestershire;Barnwood;;W2.21;N51.86;10;
2;England;Gloucestershire;Barrow;;W2.17;N51.91;10;
2;England;Gloucestershire;Barrow Wake;;W2.11;N51.83;10;
2;England;Gloucestershire;Barton;;W2.23;N51.85;10;
2;England;Gloucestershire;Barton;;W1.87;N51.92;10;
2;England;Gloucestershire;Barton End;;W2.23;N51.67;10;
2;England;Gloucestershire;Batsford;;W1.73;N51.99;10;
2;England;Gloucestershire;Battledown;;W2.05;N51.88;10;
2;England;Gloucestershire;Battlescombe;;W2.13;N51.75;10;
2;England;Gloucestershire;Baunton;;W1.97;N51.73;10;
2;England;Gloucestershire;Beach;;W2.43;N51.42;10;
2;England;Gloucestershire;Beachley;;W2.65;N51.61;10;
2;England;Gloucestershire;Bencombe;;W2.30;N51.67;10;
2;England;Gloucestershire;Bengrove;;W2.04;N51.98;10;
2;England;Gloucestershire;Benhall;;W2.11;N51.88;10;
2;England;Gloucestershire;Bentham;;W2.13;N51.84;10;
2;England;Gloucestershire;Berkeley;;W2.46;N51.68;10;
2;England;Gloucestershire;Berkeley Heath;;W2.44;N51.68;10;
2;England;Gloucestershire;Berkeley Pill;;W2.40;N51.67;10;
2;England;Gloucestershire;Berkeley Road;;W2.42;N51.69;10;
2;England;Gloucestershire;Berry Hill;;W2.62;N51.80;10;
2;England;Gloucestershire;Berwick;;W2.64;N51.51;10;
2;England;Gloucestershire;Beverston;;W2.20;N51.63;10;
2;England;Gloucestershire;Bevington;;W2.50;N51.66;10;
2;England;Gloucestershire;Bibstone;;W2.44;N51.61;10;
2;England;Gloucestershire;Bibury;;W1.84;N51.75;10;
2;England;Gloucestershire;Bilson Green;;W2.50;N51.82;10;
2;England;Gloucestershire;Birdlip;;W2.11;N51.82;10;
2;England;Gloucestershire;Birdwood;;W2.37;N51.86;10;
2;England;Gloucestershire;Bishop's Cleeve;;W2.07;N51.94;10;
2;England;Gloucestershire;Bishop's Norton;;W2.23;N51.91;10;
2;England;Gloucestershire;Bisley;;W2.14;N51.75;10;
2;England;Gloucestershire;Bitton;;W2.46;N51.41;10;
2;England;Gloucestershire;Blackhorse;;W2.49;N51.49;10;
2;England;Gloucestershire;Blaisdon;;W2.43;N51.84;10;
2;England;Gloucestershire;Blakeney;;W2.49;N51.75;10;
2;England;Gloucestershire;Blockley;;W1.76;N52.00;10;
2;England;Gloucestershire;Boddington;;W2.16;N51.92;10;
2;England;Gloucestershire;Bondend;;W2.20;N51.83;10;
2;England;Gloucestershire;Botloe's Green;;W2.40;N51.95;10;
2;England;Gloucestershire;Boughspring;;W2.65;N51.67;10;
2;England;Gloucestershire;Boulsdon;;W2.43;N51.91;10;
2;England;Gloucestershire;Bournes Green;;W2.14;N51.73;10;
2;England;Gloucestershire;Bournside;;W2.10;N51.88;10;
2;England;Gloucestershire;Bournstream;;W2.37;N51.64;10;
2;England;Gloucestershire;Bourton on the Hill;;W1.75;N51.98;10;
2;England;Gloucestershire;Bourton on the Water;;W1.76;N51.87;10;
2;England;Gloucestershire;Bowbridge;;W2.21;N51.73;10;
2;England;Gloucestershire;Bowling Green;;W1.97;N51.71;10;
2;England;Gloucestershire;Box;;W2.20;N51.69;10;
2;England;Gloucestershire;Boxbush;;W2.48;N51.87;10;
2;England;Gloucestershire;Boxwell;;W2.27;N51.62;10;
2;England;Gloucestershire;Bradley;;W2.36;N51.63;10;
2;England;Gloucestershire;Bradley Green;;W2.37;N51.63;10;
2;England;Gloucestershire;Bradley Stoke;;W2.54;N51.52;10;
2;England;Gloucestershire;Brain's Green;;W2.49;N51.76;10;
2;England;Gloucestershire;Brand Green;;W2.37;N51.95;10;
2;England;Gloucestershire;Bread Street;;W2.24;N51.75;10;
2;England;Gloucestershire;Breadstone;;W2.42;N51.69;10;
2;England;Gloucestershire;Bream;;W2.58;N51.74;10;
2;England;Gloucestershire;Bream's Meend;;W2.59;N51.74;10;
2;England;Gloucestershire;Bridge Yate;;W2.46;N51.45;10;
2;England;Gloucestershire;Bridgend;;W2.29;N51.73;10;
2;England;Gloucestershire;Brierley;;W2.55;N51.83;10;
2;England;Gloucestershire;Brimps Hill;;W2.48;N51.85;10;
2;England;Gloucestershire;Brimpsfield;;W2.10;N51.80;10;
2;England;Gloucestershire;Brimscombe;;W2.18;N51.71;10;
2;England;Gloucestershire;Britain Bottom;;W2.31;N51.57;10;
2;England;Gloucestershire;Broad Campden;;W1.78;N52.03;10;
2;England;Gloucestershire;Broadoak;;W2.43;N51.80;10;
2;England;Gloucestershire;Broadrock;;W2.66;N51.66;10;
2;England;Gloucestershire;Broadwell;;W2.61;N51.79;10;
2;England;Gloucestershire;Broadwell;;W1.71;N51.94;10;
2;England;Gloucestershire;Brockhampton;;W1.95;N51.89;10;
2;England;Gloucestershire;Brockhampton;;W2.08;N51.93;10;
2;England;Gloucestershire;Brockhollands;;W2.56;N51.74;10;
2;England;Gloucestershire;Brockweir;;W2.66;N51.70;10;
2;England;Gloucestershire;Brockworth;;W2.16;N51.84;10;
2;England;Gloucestershire;Bromley Heath;;W2.50;N51.50;10;
2;England;Gloucestershire;Bromsberrow;;W2.38;N52.00;10;
2;England;Gloucestershire;Bromsberrow Heath;;W2.39;N51.98;10;
2;England;Gloucestershire;Brookend;;W2.59;N51.68;10;
2;England;Gloucestershire;Brookend;;W2.46;N51.71;10;
2;England;Gloucestershire;Brookthorpe;;W2.24;N51.80;10;
2;England;Gloucestershire;Brown's End;;W2.38;N52.00;10;
2;England;Gloucestershire;Brownshill;;W2.17;N51.71;10;
2;England;Gloucestershire;Bubblewell;;W2.18;N51.69;10;
2;England;Gloucestershire;Buckland;;W1.88;N52.02;10;
2;England;Gloucestershire;Buckover;;W2.49;N51.60;10;
2;England;Gloucestershire;Bulley;;W2.35;N51.86;10;
2;England;Gloucestershire;Bullo;;W2.46;N51.77;10;
2;England;Gloucestershire;Burleigh;;W2.20;N51.70;10;
2;England;Gloucestershire;Burmington;;W1.62;N52.03;10;
2;England;Gloucestershire;Burnt Ash;;W2.17;N51.70;10;
2;England;Gloucestershire;Bussage;;W2.17;N51.72;10;
2;England;Gloucestershire;Butterow;;W2.21;N51.72;10;
2;England;Gloucestershire;Cadbury Heath;;W2.49;N51.44;10;
2;England;Gloucestershire;Cainscross;;W2.24;N51.74;10;
2;England;Gloucestershire;Calcot;;W1.88;N51.78;10;
2;England;Gloucestershire;Calcott's Green;;W2.32;N51.85;10;
2;England;Gloucestershire;Calmsden;;W1.94;N51.77;10;
2;England;Gloucestershire;Cam;;W2.37;N51.68;10;
2;England;Gloucestershire;Cambridge;;W2.37;N51.72;10;
2;England;Gloucestershire;Camer's Green;;W2.33;N52.00;10;
2;England;Gloucestershire;Cannop;;W2.58;N51.79;10;
2;England;Gloucestershire;Carterspiece;;W2.59;N51.82;10;
2;England;Gloucestershire;Cashes Green;;W2.26;N51.74;10;
2;England;Gloucestershire;Cassey Compton;;W1.94;N51.83;10;
2;England;Gloucestershire;Castletump;;W2.42;N51.95;10;
2;England;Gloucestershire;Catbrain;;W2.62;N51.51;10;
2;England;Gloucestershire;Caudle Green;;W2.08;N51.78;10;
2;England;Gloucestershire;Cerney Wick;;W1.90;N51.66;10;
2;England;Gloucestershire;Chaceley;;W2.21;N51.96;10;
2;England;Gloucestershire;Chaceley Hole;;W2.23;N51.96;10;
2;England;Gloucestershire;Chaceley Stock;;W2.20;N51.95;10;
2;England;Gloucestershire;Chalford;;W2.16;N51.71;10;
2;England;Gloucestershire;Chalford Hill;;W2.16;N51.72;10;
2;England;Gloucestershire;Chapel Hill;;W2.56;N51.71;10;
2;England;Gloucestershire;Charfield;;W2.40;N51.62;10;
2;England;Gloucestershire;Charfield Green;;W2.40;N51.62;10;
2;England;Gloucestershire;Charfield Hill;;W2.42;N51.62;10;
2;England;Gloucestershire;Chargrove;;W2.11;N51.86;10;
2;England;Gloucestershire;Charingworth;;W1.70;N52.04;10;
2;England;Gloucestershire;Charlton Abbots;;W1.95;N51.91;10;
2;England;Gloucestershire;Charlton Kings;;W2.05;N51.87;10;
2;England;Gloucestershire;Charlton Park;;W2.07;N51.87;10;
2;England;Gloucestershire;Chase End Street;;W2.35;N52.01;10;
2;England;Gloucestershire;Chase Hill;;W2.39;N51.59;10;
2;England;Gloucestershire;Chavenage Green;;W2.20;N51.65;10;
2;England;Gloucestershire;Chaxhill;;W2.37;N51.82;10;
2;England;Gloucestershire;Chedworth;;W1.92;N51.79;10;
2;England;Gloucestershire;Chedworth Laines;;W1.95;N51.79;10;
2;England;Gloucestershire;Cheltenham;;W2.08;N51.89;10;
2;England;Gloucestershire;Cherington;;W2.14;N51.68;10;
2;England;Gloucestershire;Chesterton;;W1.98;N51.69;10;
2;England;Gloucestershire;Chipmans Platt;;W2.32;N51.75;10;
2;England;Gloucestershire;Chipping Campden;;W1.78;N52.04;10;
2;England;Gloucestershire;Chipping Sodbury;;W2.40;N51.53;10;
2;England;Gloucestershire;Christchurch;;W2.62;N51.80;10;
2;England;Gloucestershire;Church End;;W2.37;N51.75;10;
2;England;Gloucestershire;Church End;;W2.16;N52.02;10;
2;England;Gloucestershire;Church Westcote;;W1.68;N51.87;10;
2;England;Gloucestershire;Churcham;;W2.34;N51.86;10;
2;England;Gloucestershire;Churchdown;;W2.19;N51.87;10;
2;England;Gloucestershire;Churchend;;W2.32;N51.74;10;
2;England;Gloucestershire;Churchend;;W2.42;N51.61;10;
2;England;Gloucestershire;Churn;;W1.97;N51.72;10;
2;England;Gloucestershire;Cinderford;;W2.50;N51.81;10;
2;England;Gloucestershire;Cirencester;;W1.97;N51.70;10;
2;England;Gloucestershire;Clapton-on-the-Hill;;W1.76;N51.85;10;
2;England;Gloucestershire;Claydon;;W2.10;N51.97;10;
2;England;Gloucestershire;Claypits;;W2.34;N51.74;10;
2;England;Gloucestershire;Cleeve;;W2.40;N51.80;10;
2;England;Gloucestershire;Cleeve Hill;;W2.03;N51.93;10;
2;England;Gloucestershire;Clements End;;W2.61;N51.76;10;
2;England;Gloucestershire;Clifford's Mesne;;W2.43;N51.90;10;
2;England;Gloucestershire;Coaley;;W2.33;N51.70;10;
2;England;Gloucestershire;Coaley Peak;;W2.30;N51.70;10;
2;England;Gloucestershire;Coalpit Heath;;W2.47;N51.51;10;
2;England;Gloucestershire;Coalway;;W2.61;N51.78;10;
2;England;Gloucestershire;Coates;;W2.03;N51.69;10;
2;England;Gloucestershire;Cobb's Cross;;W2.35;N51.99;10;
2;England;Gloucestershire;Coberley;;W2.05;N51.84;10;
2;England;Gloucestershire;Cockleford;;W2.05;N51.82;10;
2;England;Gloucestershire;Codrington;;W2.40;N51.50;10;
2;England;Gloucestershire;Cold Ashton;;W2.37;N51.44;10;
2;England;Gloucestershire;Cold Aston;;W1.82;N51.86;10;
2;England;Gloucestershire;Coldharbour;;W2.65;N51.72;10;
2;England;Gloucestershire;Coleford;;W2.62;N51.78;10;
2;England;Gloucestershire;Colesbourne;;W2.01;N51.81;10;
2;England;Gloucestershire;Colethrop;;W2.26;N51.78;10;
2;England;Gloucestershire;Collafield;;W2.49;N51.82;10;
2;England;Gloucestershire;Coln;;W1.79;N51.72;10;
2;England;Gloucestershire;Coln Rogers;;W1.88;N51.77;10;
2;England;Gloucestershire;Coln St Aldwyns;;W1.79;N51.74;10;
2;England;Gloucestershire;Coln St Dennis;;W1.88;N51.78;10;
2;England;Gloucestershire;Colt's Green;;W2.37;N51.52;10;
2;England;Gloucestershire;Compton Abdale;;W1.91;N51.84;10;
2;England;Gloucestershire;Compton Green;;W2.39;N51.95;10;
2;England;Gloucestershire;Compton Greenfield;;W2.63;N51.52;10;
2;England;Gloucestershire;Condicote;;W1.78;N51.95;10;
2;England;Gloucestershire;Coney Hill;;W2.21;N51.85;10;
2;England;Gloucestershire;Conham;;W2.53;N51.44;10;
2;England;Gloucestershire;Coombe;;W2.34;N51.64;10;
2;England;Gloucestershire;Coombs End;;W2.36;N51.51;10;
2;England;Gloucestershire;Corse;;W2.32;N51.93;10;
2;England;Gloucestershire;Corse Lawn;;W2.24;N51.96;10;
2;England;Gloucestershire;Cotswold Hills;;W2.07;N51.75;10;
2;England;Gloucestershire;Cowhill;;W2.57;N51.61;10;
2;England;Gloucestershire;Cowhorn Hill;;W2.47;N51.43;10;
2;England;Gloucestershire;Cowley;;W2.05;N51.82;10;
2;England;Gloucestershire;Cranham;;W2.16;N51.80;10;
2;England;Gloucestershire;Cress Green;;W2.32;N51.73;10;
2;England;Gloucestershire;Cribbs Causeway;;W2.62;N51.51;10;
2;England;Gloucestershire;Cromhall;;W2.44;N51.60;10;
2;England;Gloucestershire;Cromhall Common;;W2.44;N51.59;10;
2;England;Gloucestershire;Cross Hill;;W2.65;N51.66;10;
2;England;Gloucestershire;Crossways;;W2.50;N51.60;10;
2;England;Gloucestershire;Culkerton;;W2.10;N51.65;10;
2;England;Gloucestershire;Cutsdean;;W1.88;N51.96;10;
2;England;Gloucestershire;Daglingworth;;W2.01;N51.74;10;
2;England;Gloucestershire;Damery;;W2.43;N51.64;10;
2;England;Gloucestershire;Daneway;;W2.08;N51.72;10;
2;England;Gloucestershire;Daylesford;;W1.65;N51.92;10;
2;England;Gloucestershire;Deerhurst;;W2.19;N51.95;10;
2;England;Gloucestershire;Deerhurst Walton;;W2.17;N51.95;10;
2;England;Gloucestershire;Didbrook;;W1.92;N51.97;10;
2;England;Gloucestershire;Dikler;;W1.74;N51.91;10;
2;England;Gloucestershire;Dixton;;W2.03;N51.96;10;
2;England;Gloucestershire;Dodington;;W2.37;N51.51;10;
2;England;Gloucestershire;Donnington;;W1.72;N51.95;10;
2;England;Gloucestershire;Donnington;;W2.43;N51.99;10;
2;England;Gloucestershire;Dorn;;W1.71;N52.00;10;
2;England;Gloucestershire;Doughton;;W2.18;N51.61;10;
2;England;Gloucestershire;Down Ampney;;W1.85;N51.67;10;
2;England;Gloucestershire;Down Hatherley;;W2.20;N51.89;10;
2;England;Gloucestershire;Downend;;W2.24;N51.68;10;
2;England;Gloucestershire;Doynton;;W2.41;N51.46;10;
2;England;Gloucestershire;Draycott;;W2.37;N51.71;10;
2;England;Gloucestershire;Draycott;;W1.73;N52.01;10;
2;England;Gloucestershire;Driffield;;W1.90;N51.68;10;
2;England;Gloucestershire;Drybrook;;W2.52;N51.85;10;
2;England;Gloucestershire;Duckhole;;W2.52;N51.62;10;
2;England;Gloucestershire;Dudbridge;;W2.24;N51.73;10;
2;England;Gloucestershire;Dumbleton;;W1.98;N52.02;10;
2;England;Gloucestershire;Dunkirk;;W2.31;N51.57;10;
2;England;Gloucestershire;Duntisbourne Abbots;;W2.04;N51.76;10;
2;England;Gloucestershire;Duntisbourne Leer;;W2.04;N51.76;10;
2;England;Gloucestershire;Duntisbourne Rouse;;W2.03;N51.75;10;
2;England;Gloucestershire;Dursley;;W2.34;N51.68;10;
2;England;Gloucestershire;Dursley Cross;;W2.45;N51.87;10;
2;England;Gloucestershire;Dyer's Common;;W2.65;N51.54;10;
2;England;Gloucestershire;Dymock;;W2.45;N51.97;10;
2;England;Gloucestershire;Dyrham;;W2.39;N51.47;10;
2;England;Gloucestershire;Earthcott Green;;W2.50;N51.56;10;
2;England;Gloucestershire;East Dean;;W2.50;N51.87;10;
2;England;Gloucestershire;East End;;W1.78;N51.69;10;
2;England;Gloucestershire;East End;;W2.31;N51.45;10;
2;England;Gloucestershire;Eastcombe;;W2.16;N51.73;10;
2;England;Gloucestershire;Easter Compton;;W2.62;N51.53;10;
2;England;Gloucestershire;Eastington;;W2.33;N51.74;10;
2;England;Gloucestershire;Eastington;;W1.82;N51.81;10;
2;England;Gloucestershire;Eastleach Martin;;W1.71;N51.74;10;
2;England;Gloucestershire;Eastleach Turville;;W1.72;N51.74;10;
2;England;Gloucestershire;Eaves;;W2.56;N51.75;10;
2;England;Gloucestershire;Ebley;;W2.26;N51.73;10;
2;England;Gloucestershire;Ebrington;;W1.73;N52.05;10;
2;England;Gloucestershire;Edge;;W2.23;N51.77;10;
2;England;Gloucestershire;Edge End;;W2.59;N51.81;10;
2;England;Gloucestershire;Edgeworth;;W2.08;N51.75;10;
2;England;Gloucestershire;Elberton;;W2.57;N51.58;10;
2;England;Gloucestershire;Elcombe;;W2.31;N51.67;10;
2;England;Gloucestershire;Elkstone;;W2.05;N51.80;10;
2;England;Gloucestershire;Ell Brook;;W2.41;N51.93;10;
2;England;Gloucestershire;Ellwood;;W2.59;N51.76;10;
2;England;Gloucestershire;Elmbridge;;W2.21;N51.86;10;
2;England;Gloucestershire;Elmore;;W2.32;N51.83;10;
2;England;Gloucestershire;Elmore Back;;W2.33;N51.84;10;
2;England;Gloucestershire;Elmstone Hardwicke;;W2.11;N51.93;10;
2;England;Gloucestershire;Elton;;W2.45;N51.81;10;
2;England;Gloucestershire;Emerson's Green;;W2.49;N51.48;10;
2;England;Gloucestershire;Engine Common;;W2.44;N51.55;10;
2;England;Gloucestershire;English Bicknor;;W2.61;N51.83;10;
2;England;Gloucestershire;Epney;;W2.34;N51.79;10;
2;England;Gloucestershire;Etloe;;W2.47;N51.74;10;
2;England;Gloucestershire;Evenlode;;W1.68;N51.95;10;
2;England;Gloucestershire;Evenlode;;W1.69;N51.95;10;
2;England;Gloucestershire;Ewen;;W2.00;N51.67;10;
2;England;Gloucestershire;Fairfields;;W2.38;N51.98;10;
2;England;Gloucestershire;Fairford;;W1.78;N51.69;10;
2;England;Gloucestershire;Fairview;;W2.07;N51.89;10;
2;England;Gloucestershire;Falfield;;W2.46;N51.63;10;
2;England;Gloucestershire;Far Green;;W2.33;N51.69;10;
2;England;Gloucestershire;Far Oakridge;;W2.11;N51.72;10;
2;England;Gloucestershire;Far Thrupp;;W2.20;N51.72;10;
2;England;Gloucestershire;Farleys End;;W2.33;N51.83;10;
2;England;Gloucestershire;Farmcote;;W1.91;N51.95;10;
2;England;Gloucestershire;Farmington;;W1.81;N51.83;10;
2;England;Gloucestershire;Fiddington;;W2.11;N51.96;10;
2;England;Gloucestershire;Fiddler's Green;;W2.13;N51.89;10;
2;England;Gloucestershire;Five Acres;;W2.62;N51.80;10;
2;England;Gloucestershire;Flaxley;;W2.45;N51.83;10;
2;England;Gloucestershire;Footbridge;;W1.95;N51.95;10;
2;England;Gloucestershire;Ford;;W1.88;N51.95;10;
2;England;Gloucestershire;Forest Green;;W2.23;N51.69;10;
2;England;Gloucestershire;Forest of Dean;;W2.54;N51.89;10;
2;England;Gloucestershire;Forthampton;;W2.21;N51.98;10;
2;England;Gloucestershire;Forthay;;W2.37;N51.66;10;
2;England;Gloucestershire;Forwood;;W2.20;N51.69;10;
2;England;Gloucestershire;Fossebridge;;W1.88;N51.79;10;
2;England;Gloucestershire;Four Mile Elm;;W2.29;N51.80;10;
2;England;Gloucestershire;Four Oaks;;W2.45;N51.94;10;
2;England;Gloucestershire;Foxcote;;W1.98;N51.86;10;
2;England;Gloucestershire;Frampton Cotterell;;W2.49;N51.52;10;
2;England;Gloucestershire;Frampton Court;;W1.98;N51.98;10;
2;England;Gloucestershire;Frampton End;;W2.47;N51.52;10;
2;England;Gloucestershire;Frampton Mansell;;W2.11;N51.71;10;
2;England;Gloucestershire;Frampton On Severn;;W2.37;N51.76;10;
2;England;Gloucestershire;France Lynch;;W2.14;N51.72;10;
2;England;Gloucestershire;Fretherne;;W2.39;N51.77;10;
2;England;Gloucestershire;Frocester;;W2.31;N51.72;10;
2;England;Gloucestershire;Frogland Cross;;W2.52;N51.54;10;
2;England;Gloucestershire;Frome;;W2.19;N51.68;10;
2;England;Gloucestershire;Frome;;W2.50;N51.51;10;
2;England;Gloucestershire;Fromebridge;;W2.34;N51.76;10;
2;England;Gloucestershire;Fyfield;;W1.71;N51.72;10;
2;England;Gloucestershire;Ganders Green;;W2.43;N51.87;10;
2;England;Gloucestershire;Gatwick;;W2.39;N51.81;10;
2;England;Gloucestershire;Gaunt's Earthcott;;W2.53;N51.55;10;
2;England;Gloucestershire;Glasshouse;;W2.43;N51.88;10;
2;England;Gloucestershire;Gloucester;;W2.24;N51.86;10;
2;England;Gloucestershire;Gloucester and Sharpness Canal;;W2.29;N51.81;10;
2;England;Gloucestershire;Golden Valley;;W2.14;N51.89;10;
2;England;Gloucestershire;Goose Green;;W2.41;N51.54;10;
2;England;Gloucestershire;Gossington;;W2.39;N51.71;10;
2;England;Gloucestershire;Gotherington;;W2.05;N51.95;10;
2;England;Gloucestershire;Grange Village;;W2.48;N51.80;10;
2;England;Gloucestershire;Great Barrington;;W1.71;N51.81;10;
2;England;Gloucestershire;Great Rissington;;W1.72;N51.85;10;
2;England;Gloucestershire;Great Stoke;;W2.54;N51.51;10;
2;England;Gloucestershire;Great Washbourne;;W2.03;N52.00;10;
2;England;Gloucestershire;Great Witcombe;;W2.13;N51.82;10;
2;England;Gloucestershire;Green Bottom;;W2.48;N51.83;10;
2;England;Gloucestershire;Green Street;;W2.34;N51.69;10;
2;England;Gloucestershire;Green Street;;W2.16;N51.83;10;
2;England;Gloucestershire;Greenway;;W2.43;N51.99;10;
2;England;Gloucestershire;Greet;;W1.97;N51.96;10;
2;England;Gloucestershire;Gretton;;W2.00;N51.96;10;
2;England;Gloucestershire;Gretton Fields;;W2.00;N51.97;10;
2;England;Gloucestershire;Guiting Power;;W1.87;N51.91;10;
2;England;Gloucestershire;Hagloe;;W2.46;N51.75;10;
2;England;Gloucestershire;Hailes;;W1.94;N51.96;10;
2;England;Gloucestershire;Hall End;;W2.43;N51.57;10;
2;England;Gloucestershire;Hallen;;W2.64;N51.51;10;
2;England;Gloucestershire;Halmore;;W2.45;N51.71;10;
2;England;Gloucestershire;Ham;;W2.46;N51.68;10;
2;England;Gloucestershire;Ham;;W2.04;N51.88;10;
2;England;Gloucestershire;Hambrook;;W2.52;N51.49;10;
2;England;Gloucestershire;Hampen;;W1.92;N51.86;10;
2;England;Gloucestershire;Hampnett;;W1.87;N51.83;10;
2;England;Gloucestershire;Hampton Fields;;W2.17;N51.68;10;
2;England;Gloucestershire;Hamshill;;W2.33;N51.70;10;
2;England;Gloucestershire;Hanham;;W2.51;N51.44;10;
2;England;Gloucestershire;Hardeicke;;W2.29;N51.80;10;
2;England;Gloucestershire;Hardwicke;;W2.14;N51.94;10;
2;England;Gloucestershire;Harescombe;;W2.24;N51.78;10;
2;England;Gloucestershire;Haresfield;;W2.27;N51.78;10;
2;England;Gloucestershire;Harleywood;;W2.23;N51.68;10;
2;England;Gloucestershire;Harnhill;;W1.90;N51.69;10;
2;England;Gloucestershire;Harrow Hill;;W2.52;N51.84;10;
2;England;Gloucestershire;Harry Stoke;;W2.54;N51.49;10;
2;England;Gloucestershire;Hartpury;;W2.30;N51.92;10;
2;England;Gloucestershire;Hasfield;;W2.26;N51.94;10;
2;England;Gloucestershire;Hatherley;;W2.11;N51.88;10;
2;England;Gloucestershire;Hatherley Brook;;W2.25;N51.88;10;
2;England;Gloucestershire;Hatherop;;W1.78;N51.74;10;
2;England;Gloucestershire;Hawcross;;W2.36;N51.96;10;
2;England;Gloucestershire;Hawkesbury;;W2.34;N51.57;10;
2;England;Gloucestershire;Hawkesbury Upton;;W2.31;N51.57;10;
2;England;Gloucestershire;Hawling;;W1.91;N51.90;10;
2;England;Gloucestershire;Hayden;;W2.14;N51.90;10;
2;England;Gloucestershire;Hazelton;;W1.89;N51.86;10;
2;England;Gloucestershire;Heath End;;W2.44;N51.59;10;
2;England;Gloucestershire;Heathfield;;W2.43;N51.68;10;
2;England;Gloucestershire;Hempsted;;W2.27;N51.84;10;
2;England;Gloucestershire;Henfield;;W2.47;N51.50;10;
2;England;Gloucestershire;Henley;;W2.14;N51.84;10;
2;England;Gloucestershire;Hester's Way;;W2.11;N51.90;10;
2;England;Gloucestershire;Hethelpit Cross;;W2.33;N51.95;10;
2;England;Gloucestershire;Hewelsfield;;W2.63;N51.71;10;
2;England;Gloucestershire;Hewelsfield Common;;W2.66;N51.71;10;
2;England;Gloucestershire;Hidcote Bartrim;;W1.75;N52.07;10;
2;England;Gloucestershire;Hidcote Boyce;;W1.75;N52.06;10;
2;England;Gloucestershire;High Brotheridge;;W2.16;N51.81;10;
2;England;Gloucestershire;High Nash;;W2.62;N51.78;10;
2;England;Gloucestershire;High Woolaston;;W2.62;N51.68;10;
2;England;Gloucestershire;Highfield;;W2.52;N51.72;10;
2;England;Gloucestershire;Highfields;;W2.34;N51.67;10;
2;England;Gloucestershire;Highleadon;;W2.35;N51.90;10;
2;England;Gloucestershire;Highnam;;W2.30;N51.86;10;
2;England;Gloucestershire;Highnam Green;;W2.30;N51.87;10;
2;England;Gloucestershire;Hilcot;;W2.01;N51.84;10;
2;England;Gloucestershire;Hilcot End;;W1.90;N51.71;10;
2;England;Gloucestershire;Hill;;W2.52;N51.65;10;
2;England;Gloucestershire;Hill End;;W2.14;N52.03;10;
2;England;Gloucestershire;Hillend Green;;W2.43;N51.94;10;
2;England;Gloucestershire;Hillersland;;W2.63;N51.82;10;
2;England;Gloucestershire;Hillesley;;W2.34;N51.59;10;
2;England;Gloucestershire;Hinchwick;;W1.79;N51.96;10;
2;England;Gloucestershire;Hinton;;W2.46;N51.72;10;
2;England;Gloucestershire;Hinton;;W2.39;N51.48;10;
2;England;Gloucestershire;Holbrook Common;;W2.44;N51.45;10;
2;England;Gloucestershire;Holywell;;W2.34;N51.63;10;
2;England;Gloucestershire;Homedowns;;W2.11;N51.98;10;
2;England;Gloucestershire;Hook Street;;W2.47;N51.68;10;
2;England;Gloucestershire;Horcott;;W1.78;N51.69;10;
2;England;Gloucestershire;Horsepools;;W2.23;N51.78;10;
2;England;Gloucestershire;Horsley;;W2.24;N51.68;10;
2;England;Gloucestershire;Horton;;W2.34;N51.55;10;
2;England;Gloucestershire;Horwood Riding;;W2.37;N51.56;10;
2;England;Gloucestershire;Houndscroft;;W2.21;N51.71;10;
2;England;Gloucestershire;Howley;;W2.37;N51.64;10;
2;England;Gloucestershire;Hucclecote;;W2.20;N51.85;10;
2;England;Gloucestershire;Hudnalls;;W2.66;N51.72;10;
2;England;Gloucestershire;Huntingford;;W2.42;N51.63;10;
2;England;Gloucestershire;Huntley;;W2.40;N51.86;10;
2;England;Gloucestershire;Hyde;;W2.17;N51.70;10;
2;England;Gloucestershire;Hyde;;W1.88;N51.95;10;
2;England;Gloucestershire;Hystfield;;W2.49;N51.66;10;
2;England;Gloucestershire;Icomb;;W1.69;N51.89;10;
2;England;Gloucestershire;Inchbrook;;W2.23;N51.69;10;
2;England;Gloucestershire;Inglesham;;W1.71;N51.68;10;
2;England;Gloucestershire;Ingst;;W2.60;N51.58;10;
2;England;Gloucestershire;Innsworth;;W2.20;N51.88;10;
2;England;Gloucestershire;Iron Acton;;W2.47;N51.54;10;
2;England;Gloucestershire;Isbourne;;W1.95;N51.98;10;
2;England;Gloucestershire;Itchington;;W2.50;N51.57;10;
2;England;Gloucestershire;Jack's Green;;W2.17;N51.77;10;
2;England;Gloucestershire;Joyford;;W2.62;N51.81;10;
2;England;Gloucestershire;Joy's Green;;W2.58;N51.84;10;
2;England;Gloucestershire;Kemble;;W2.03;N51.67;10;
2;England;Gloucestershire;Kempley;;W2.48;N51.95;10;
2;England;Gloucestershire;Kempley Green;;W2.48;N51.95;10;
2;England;Gloucestershire;Kendleshire;;W2.49;N51.50;10;
2;England;Gloucestershire;Kenton Green;;W2.33;N51.82;10;
2;England;Gloucestershire;Kent's Green;;W2.37;N51.90;10;
2;England;Gloucestershire;Ketford;;W2.40;N51.96;10;
2;England;Gloucestershire;Kilcot;;W2.45;N51.92;10;
2;England;Gloucestershire;Kilkenny;;W2.00;N51.86;10;
2;England;Gloucestershire;Kineton;;W1.87;N51.93;10;
2;England;Gloucestershire;Kingham;;W1.63;N51.90;10;
2;England;Gloucestershire;King's Green;;W2.35;N51.99;10;
2;England;Gloucestershire;Kings Hill;;W1.95;N51.70;10;
2;England;Gloucestershire;King's Stanley;;W2.27;N51.72;10;
2;England;Gloucestershire;Kingscote;;W2.27;N51.66;10;
2;England;Gloucestershire;Kingscourt;;W2.23;N51.72;10;
2;England;Gloucestershire;Kingsditch;;W2.10;N51.91;10;
2;England;Gloucestershire;Kingshill;;W2.36;N51.68;10;
2;England;Gloucestershire;Kingsholm;;W2.24;N51.86;10;
2;England;Gloucestershire;Kingswood;;W2.37;N51.61;10;
2;England;Gloucestershire;Kington;;W2.55;N51.60;10;
2;England;Gloucestershire;Kinsham;;W2.10;N52.01;10;
2;England;Gloucestershire;Kitlye;;W2.16;N51.73;10;
2;England;Gloucestershire;Knee Brook;;W1.70;N52.01;10;
2;England;Gloucestershire;Knightsbridge;;W2.16;N51.93;10;
2;England;Gloucestershire;Knockdown;;W2.24;N51.59;10;
2;England;Gloucestershire;Langley;;W2.00;N51.95;10;
2;England;Gloucestershire;Lansdown;;W2.10;N51.88;10;
2;England;Gloucestershire;Lasborough;;W2.26;N51.64;10;
2;England;Gloucestershire;Latteridge;;W2.49;N51.55;10;
2;England;Gloucestershire;Laverton;;W1.89;N52.01;10;
2;England;Gloucestershire;Leach;;W1.70;N51.72;10;
2;England;Gloucestershire;Leadon;;W2.31;N51.88;10;
2;England;Gloucestershire;Leathern Bottle;;W2.40;N51.69;10;
2;England;Gloucestershire;Leckhampton;;W2.08;N51.86;10;
2;England;Gloucestershire;Leddington;;W2.45;N52.00;10;
2;England;Gloucestershire;Leighterton;;W2.26;N51.61;10;
2;England;Gloucestershire;Leonard Stanley;;W2.29;N51.72;10;
2;England;Gloucestershire;Leyhill;;W2.44;N51.62;10;
2;England;Gloucestershire;Lightpill;;W2.23;N51.72;10;
2;England;Gloucestershire;Lime Street;;W2.27;N51.96;10;
2;England;Gloucestershire;Linden;;W2.26;N51.84;10;
2;England;Gloucestershire;Lintridge;;W2.38;N51.98;10;
2;England;Gloucestershire;Little Avon;;W2.40;N51.63;10;
2;England;Gloucestershire;Little Badminton;;W2.28;N51.55;10;
2;England;Gloucestershire;Little Barrington;;W1.71;N51.80;10;
2;England;Gloucestershire;Little Bristol;;W2.40;N51.61;10;
2;England;Gloucestershire;Little Drybrook;;W2.59;N51.76;10;
2;England;Gloucestershire;Little Faringdon;;W1.68;N51.70;10;
2;England;Gloucestershire;Little Haresfield;;W2.29;N51.77;10;
2;England;Gloucestershire;Little Herbert's;;W2.05;N51.86;10;
2;England;Gloucestershire;Little London;;W2.43;N51.86;10;
2;England;Gloucestershire;Little Rissington;;W1.72;N51.86;10;
2;England;Gloucestershire;Little Shurdington;;W2.13;N51.85;10;
2;England;Gloucestershire;Little Sodbury;;W2.36;N51.54;10;
2;England;Gloucestershire;Little Sodbury End;;W2.37;N51.54;10;
2;England;Gloucestershire;Little Stoke;;W2.56;N51.52;10;
2;England;Gloucestershire;Little Washbourne;;W2.01;N51.99;10;
2;England;Gloucestershire;Little Witcombe;;W2.13;N51.83;10;
2;England;Gloucestershire;Littledean;;W2.48;N51.81;10;
2;England;Gloucestershire;Littledean Hill;;W2.49;N51.82;10;
2;England;Gloucestershire;Littleton-upon-Severn;;W2.59;N51.60;10;
2;England;Gloucestershire;Littleworth;;W2.21;N51.70;10;
2;England;Gloucestershire;Littleworth;;W1.79;N52.04;10;
2;England;Gloucestershire;Long Newnton;;W2.14;N51.62;10;
2;England;Gloucestershire;Longborough;;W1.75;N51.95;10;
2;England;Gloucestershire;Longford;;W2.24;N51.87;10;
2;England;Gloucestershire;Longhope;;W2.46;N51.85;10;
2;England;Gloucestershire;Longlevens;;W2.21;N51.87;10;
2;England;Gloucestershire;Longney;;W2.34;N51.80;10;
2;England;Gloucestershire;Longridge;;W2.17;N51.77;10;
2;England;Gloucestershire;Longridge End;;W2.27;N51.91;10;
2;England;Gloucestershire;Longwell Green;;W2.50;N51.43;10;
2;England;Gloucestershire;Lowbands;;W2.33;N51.97;10;
2;England;Gloucestershire;Lower Berry Hill;;W2.62;N51.79;10;
2;England;Gloucestershire;Lower Cam;;W2.37;N51.69;10;
2;England;Gloucestershire;Lower Chedworth;;W1.91;N51.78;10;
2;England;Gloucestershire;Lower Dowdeswell;;W2.00;N51.86;10;
2;England;Gloucestershire;Lower End;;W2.01;N51.73;10;
2;England;Gloucestershire;Lower Hamswell;;W2.38;N51.43;10;
2;England;Gloucestershire;Lower Hazel;;W2.54;N51.58;10;
2;England;Gloucestershire;Lower Kilcott;;W2.31;N51.59;10;
2;England;Gloucestershire;Lower Lemington;;W1.69;N52.00;10;
2;England;Gloucestershire;Lower Lode;;W2.19;N51.97;10;
2;England;Gloucestershire;Lower Lydbrook;;W2.59;N51.84;10;
2;England;Gloucestershire;Lower Meend;;W2.65;N51.73;10;
2;England;Gloucestershire;Lower Morton;;W2.52;N51.61;10;
2;England;Gloucestershire;Lower Oddington;;W1.66;N51.92;10;
2;England;Gloucestershire;Lower Rea;;W2.29;N51.83;10;
2;England;Gloucestershire;Lower Slaughter;;W1.76;N51.89;10;
2;England;Gloucestershire;Lower Soudley;;W2.49;N51.77;10;
2;England;Gloucestershire;Lower Stone;;W2.47;N51.64;10;
2;England;Gloucestershire;Lower Swell;;W1.75;N51.92;10;
2;England;Gloucestershire;Lower Tuffley;;W2.26;N51.82;10;
2;England;Gloucestershire;Lower Wick;;W2.42;N51.66;10;
2;England;Gloucestershire;Ludstock;;W2.46;N52.01;10;
2;England;Gloucestershire;Luxley;;W2.46;N51.88;10;
2;England;Gloucestershire;Lyde Green;;W2.47;N51.50;10;
2;England;Gloucestershire;Lydney;;W2.53;N51.72;10;
2;England;Gloucestershire;Lynworth;;W2.05;N51.90;10;
2;England;Gloucestershire;Lypiatt;;W2.10;N51.77;10;
2;England;Gloucestershire;Maisemore;;W2.27;N51.88;10;
2;England;Gloucestershire;Malswick;;W2.37;N51.92;10;
2;England;Gloucestershire;Mangotsfield;;W2.50;N51.48;10;
2;England;Gloucestershire;Marle Hill;;W2.07;N51.90;10;
2;England;Gloucestershire;Marsh Common;;W2.63;N51.54;10;
2;England;Gloucestershire;Marsh Lane;;W2.61;N51.76;10;
2;England;Gloucestershire;Marshfield;;W2.33;N51.45;10;
2;England;Gloucestershire;Marston Meysey;;W1.82;N51.67;10;
2;England;Gloucestershire;Matson;;W2.21;N51.83;10;
2;England;Gloucestershire;Maugersbury;;W1.71;N51.92;10;
2;England;Gloucestershire;Mayshill;;W2.46;N51.52;10;
2;England;Gloucestershire;Meysey Hampton;;W1.84;N51.68;10;
2;England;Gloucestershire;Mickleton;;W1.76;N52.08;10;
2;England;Gloucestershire;Middle Duntisbourne;;W2.03;N51.75;10;
2;England;Gloucestershire;Middle Street;;W2.33;N51.73;10;
2;England;Gloucestershire;Middle Wick;;W2.42;N51.66;10;
2;England;Gloucestershire;Middleyard;;W2.26;N51.72;10;
2;England;Gloucestershire;Milbury Heath;;W2.49;N51.60;10;
2;England;Gloucestershire;Mile End;;W2.61;N51.79;10;
2;England;Gloucestershire;Milkwall;;W2.61;N51.77;10;
2;England;Gloucestershire;Mill End;;W1.84;N51.82;10;
2;England;Gloucestershire;Mill Hill;;W2.58;N51.75;10;
2;England;Gloucestershire;Millend;;W2.36;N51.66;10;
2;England;Gloucestershire;Millend;;W2.32;N51.74;10;
2;England;Gloucestershire;Milton End;;W1.79;N51.69;10;
2;England;Gloucestershire;Milton End;;W2.42;N51.78;10;
2;England;Gloucestershire;Minchinhampton;;W2.20;N51.69;10;
2;England;Gloucestershire;Minsterworth;;W2.33;N51.84;10;
2;England;Gloucestershire;Miserden;;W2.10;N51.77;10;
2;England;Gloucestershire;Mitcheldean;;W2.49;N51.85;10;
2;England;Gloucestershire;Mitton;;W2.14;N51.99;10;
2;England;Gloucestershire;Moor End;;W2.05;N51.87;10;
2;England;Gloucestershire;Moorend;;W2.39;N51.71;10;
2;England;Gloucestershire;Moorend;;W2.20;N51.81;10;
2;England;Gloucestershire;Moorend;;W2.50;N51.50;10;
2;England;Gloucestershire;Moreton Valence;;W2.32;N51.77;10;
2;England;Gloucestershire;Moreton-in-Marsh;;W1.71;N51.98;10;
2;England;Gloucestershire;Mork;;W2.65;N51.74;10;
2;England;Gloucestershire;Morton;;W2.52;N51.60;10;
2;England;Gloucestershire;Mount Hill;;W2.50;N51.44;10;
2;England;Gloucestershire;Murrell's End;;W2.32;N51.89;10;
2;England;Gloucestershire;Murrell's End;;W2.37;N51.96;10;
2;England;Gloucestershire;Nag's Head;;W2.16;N51.68;10;
2;England;Gloucestershire;Nailbridge;;W2.52;N51.84;10;
2;England;Gloucestershire;Nailsworth;;W2.23;N51.68;10;
2;England;Gloucestershire;Nashend;;W2.16;N51.74;10;
2;England;Gloucestershire;Nastend;;W2.30;N51.75;10;
2;England;Gloucestershire;Natton;;W2.11;N51.98;10;
2;England;Gloucestershire;Naunton;;W1.84;N51.90;10;
2;England;Gloucestershire;Nether Westcote;;W1.68;N51.87;10;
2;England;Gloucestershire;Netherend;;W2.59;N51.69;10;
2;England;Gloucestershire;Netherton;;W1.78;N51.73;10;
2;England;Gloucestershire;Nettleton;;W2.08;N51.81;10;
2;England;Gloucestershire;New Cheltenham;;W2.50;N51.46;10;
2;England;Gloucestershire;New Mills;;W2.53;N51.73;10;
2;England;Gloucestershire;New Passage;;W2.66;N51.57;10;
2;England;Gloucestershire;New Town;;W1.94;N51.98;10;
2;England;Gloucestershire;Newent;;W2.40;N51.92;10;
2;England;Gloucestershire;Newerne;;W2.53;N51.72;10;
2;England;Gloucestershire;Newington Bagpath;;W2.27;N51.64;10;
2;England;Gloucestershire;Newland;;W2.65;N51.77;10;
2;England;Gloucestershire;Newmarket;;W2.23;N51.68;10;
2;England;Gloucestershire;Newnham;;W2.45;N51.79;10;
2;England;Gloucestershire;Newport;;W2.44;N51.67;10;
2;England;Gloucestershire;Newton;;W2.52;N51.62;10;
2;England;Gloucestershire;Newtown;;W2.47;N51.70;10;
2;England;Gloucestershire;Newtown;;W2.30;N51.74;10;
2;England;Gloucestershire;Newtown;;W2.14;N51.98;10;
2;England;Gloucestershire;Nibley;;W2.49;N51.75;10;
2;England;Gloucestershire;Nibley;;W2.44;N51.53;10;
2;England;Gloucestershire;Nibley Green;;W2.39;N51.66;10;
2;England;Gloucestershire;Nimlet;;W2.37;N51.43;10;
2;England;Gloucestershire;Ninewells;;W2.61;N51.80;10;
2;England;Gloucestershire;Norcote;;W1.94;N51.71;10;
2;England;Gloucestershire;Norman Hill;;W2.36;N51.68;10;
2;England;Gloucestershire;North Cerney;;W1.97;N51.76;10;
2;England;Gloucestershire;North Common;;W2.47;N51.44;10;
2;England;Gloucestershire;North Corner;;W2.50;N51.53;10;
2;England;Gloucestershire;North Nibley;;W2.39;N51.65;10;
2;England;Gloucestershire;Northington;;W2.43;N51.77;10;
2;England;Gloucestershire;Northleach;;W1.84;N51.82;10;
2;England;Gloucestershire;Northway;;W2.11;N51.99;10;
2;England;Gloucestershire;Northwick;;W2.63;N51.57;10;
2;England;Gloucestershire;Northwood Green;;W2.42;N51.84;10;
2;England;Gloucestershire;Norton;;W2.21;N51.91;10;
2;England;Gloucestershire;Notgrove;;W1.85;N51.87;10;
2;England;Gloucestershire;Noverton;;W2.04;N51.90;10;
2;England;Gloucestershire;Nupdown;;W2.53;N51.65;10;
2;England;Gloucestershire;Nupend;;W2.24;N51.68;10;
2;England;Gloucestershire;Nupend;;W2.32;N51.75;10;
2;England;Gloucestershire;Nuppend;;W2.58;N51.70;10;
2;England;Gloucestershire;Nympsfield;;W2.29;N51.69;10;
2;England;Gloucestershire;Oakle Street;;W2.36;N51.85;10;
2;England;Gloucestershire;Oakley;;W2.04;N51.89;10;
2;England;Gloucestershire;Oakridge;;W2.13;N51.72;10;
2;England;Gloucestershire;Okle Green;;W2.36;N51.92;10;
2;England;Gloucestershire;Old Canal;;W2.25;N51.73;10;
2;England;Gloucestershire;Old Down;;W2.56;N51.58;10;
2;England;Gloucestershire;Old Passage;;W2.63;N51.58;10;
2;England;Gloucestershire;Old Sodbury;;W2.36;N51.52;10;
2;England;Gloucestershire;Oldbury Naite;;W2.55;N51.63;10;
2;England;Gloucestershire;Oldbury on the Hill;;W2.27;N51.59;10;
2;England;Gloucestershire;Oldbury-on-Severn;;W2.56;N51.62;10;
2;England;Gloucestershire;Oldcroft;;W2.52;N51.75;10;
2;England;Gloucestershire;Oldend;;W2.30;N51.74;10;
2;England;Gloucestershire;Oldland;;W2.49;N51.43;10;
2;England;Gloucestershire;Oldland Common;;W2.47;N51.43;10;
2;England;Gloucestershire;Olveston;;W2.57;N51.58;10;
2;England;Gloucestershire;Oridge Street;;W2.32;N51.94;10;
2;England;Gloucestershire;Over;;W2.27;N51.86;10;
2;England;Gloucestershire;Over;;W2.60;N51.53;10;
2;England;Gloucestershire;Overton;;W2.40;N51.78;10;
2;England;Gloucestershire;Owlpen;;W2.29;N51.68;10;
2;England;Gloucestershire;Oxenhall;;W2.42;N51.93;10;
2;England;Gloucestershire;Oxenton;;W2.07;N51.97;10;
2;England;Gloucestershire;Ozleworth;;W2.30;N51.63;10;
2;England;Gloucestershire;Paganhill;;W2.23;N51.74;10;
2;England;Gloucestershire;Painswick;;W2.20;N51.77;10;
2;England;Gloucestershire;Palmer's Flat;;W2.61;N51.77;10;
2;England;Gloucestershire;Pamington;;W2.08;N51.99;10;
2;England;Gloucestershire;Pancakehill;;W1.91;N51.79;10;
2;England;Gloucestershire;Paradise;;W2.18;N51.79;10;
2;England;Gloucestershire;Park Hill;;W2.63;N51.68;10;
2;England;Gloucestershire;Parkend;;W2.56;N51.76;10;
2;England;Gloucestershire;Parkend;;W2.32;N51.78;10;
2;England;Gloucestershire;Parkfield;;W2.44;N51.49;10;
2;England;Gloucestershire;Patchway;;W2.57;N51.53;10;
2;England;Gloucestershire;Paxford;;W1.73;N52.03;10;
2;England;Gloucestershire;Pennsylvania;;W2.37;N51.45;10;
2;England;Gloucestershire;Perrott's Brook;;W1.98;N51.75;10;
2;England;Gloucestershire;Petty France;;W2.31;N51.56;10;
2;England;Gloucestershire;Picklenash;;W2.42;N51.93;10;
2;England;Gloucestershire;Piff's Elm;;W2.14;N51.92;10;
2;England;Gloucestershire;Pilley;;W2.07;N51.86;10;
2;England;Gloucestershire;Pillowell;;W2.55;N51.75;10;
2;England;Gloucestershire;Pillows Green;;W2.30;N51.95;10;
2;England;Gloucestershire;Pilning;;W2.65;N51.56;10;
2;England;Gloucestershire;Pinfarthings;;W2.21;N51.69;10;
2;England;Gloucestershire;Pitchcombe;;W2.21;N51.77;10;
2;England;Gloucestershire;Pitt Court;;W2.36;N51.66;10;
2;England;Gloucestershire;Pittville;;W2.07;N51.90;10;
2;England;Gloucestershire;Playley Green;;W2.35;N51.97;10;
2;England;Gloucestershire;Plump Hill;;W2.49;N51.85;10;
2;England;Gloucestershire;Plusterwine;;W2.59;N51.68;10;
2;England;Gloucestershire;Podsmead;;W2.26;N51.83;10;
2;England;Gloucestershire;Poole Keynes;;W2.00;N51.65;10;
2;England;Gloucestershire;Poolhill;;W2.39;N51.95;10;
2;England;Gloucestershire;Pope's Hill;;W2.46;N51.82;10;
2;England;Gloucestershire;Portway;;W2.33;N51.99;10;
2;England;Gloucestershire;Postlip;;W2.00;N51.94;10;
2;England;Gloucestershire;Poulton;;W1.85;N51.70;10;
2;England;Gloucestershire;Pound;;W2.43;N51.97;10;
2;England;Gloucestershire;Prescott;;W2.03;N51.95;10;
2;England;Gloucestershire;Prestbury;;W2.04;N51.90;10;
2;England;Gloucestershire;Preston;;W1.94;N51.69;10;
2;England;Gloucestershire;Preston;;W2.48;N52.00;10;
2;England;Gloucestershire;Prior's Norton;;W2.20;N51.91;10;
2;England;Gloucestershire;Priors Park;;W2.16;N51.97;10;
2;England;Gloucestershire;Pucklechurch;;W2.44;N51.48;10;
2;England;Gloucestershire;Puckrup;;W2.17;N52.02;10;
2;England;Gloucestershire;Puckshole;;W2.24;N51.74;10;
2;England;Gloucestershire;Pullens Green;;W2.56;N51.62;10;
2;England;Gloucestershire;Purton;;W2.45;N51.73;10;
2;England;Gloucestershire;Purton;;W2.47;N51.73;10;
2;England;Gloucestershire;Putloe;;W2.32;N51.77;10;
2;England;Gloucestershire;Pye Corner;;W2.52;N51.50;10;
2;England;Gloucestershire;Quarhouse;;W2.18;N51.71;10;
2;England;Gloucestershire;Quedgeley;;W2.27;N51.82;10;
2;England;Gloucestershire;Quenington;;W1.79;N51.73;10;
2;England;Gloucestershire;Ram Hill;;W2.47;N51.50;10;
2;England;Gloucestershire;Randwick;;W2.26;N51.75;10;
2;England;Gloucestershire;Rangeworthy;;W2.46;N51.57;10;
2;England;Gloucestershire;Readings;;W2.56;N51.84;10;
2;England;Gloucestershire;Ready Token;;W1.85;N51.73;10;
2;England;Gloucestershire;Reddings;;W2.14;N51.88;10;
2;England;Gloucestershire;Redmarley D'Abitot;;W2.36;N51.97;10;
2;England;Gloucestershire;Redwick;;W2.66;N51.56;10;
2;England;Gloucestershire;Rendcomb;;W1.97;N51.77;10;
2;England;Gloucestershire;Rockhampton;;W2.50;N51.63;10;
2;England;Gloucestershire;Rockness;;W2.23;N51.68;10;
2;England;Gloucestershire;Rockstowes;;W2.33;N51.67;10;
2;England;Gloucestershire;Rodborough;;W2.23;N51.73;10;
2;England;Gloucestershire;Rodford;;W2.44;N51.52;10;
2;England;Gloucestershire;Rodley;;W2.37;N51.79;10;
2;England;Gloucestershire;Rodmarton;;W2.08;N51.67;10;
2;England;Gloucestershire;Rooksmoor;;W2.23;N51.72;10;
2;England;Gloucestershire;Rowanfield;;W2.11;N51.89;10;
2;England;Gloucestershire;Rowland's Green;;W2.46;N52.02;10;
2;England;Gloucestershire;Ruardean;;W2.56;N51.85;10;
2;England;Gloucestershire;Ruardean Hill;;W2.53;N51.85;10;
2;England;Gloucestershire;Ruardean Woodside;;W2.55;N51.84;10;
2;England;Gloucestershire;Ruddle;;W2.46;N51.79;10;
2;England;Gloucestershire;Rudford;;W2.33;N51.88;10;
2;England;Gloucestershire;Rudgeway;;W2.54;N51.57;10;
2;England;Gloucestershire;Ruscombe;;W2.24;N51.76;10;
2;England;Gloucestershire;Ruspidge;;W2.50;N51.80;10;
2;England;Gloucestershire;Ryeford;;W2.27;N51.73;10;
2;England;Gloucestershire;Ryeworth;;W2.05;N51.88;10;
2;England;Gloucestershire;Ryton;;W2.40;N51.97;10;
2;England;Gloucestershire;Ryton;;W2.39;N51.98;10;
2;England;Gloucestershire;Saintbridge;;W2.21;N51.84;10;
2;England;Gloucestershire;Saintbury;;W1.84;N52.04;10;
2;England;Gloucestershire;Salperton;;W1.89;N51.87;10;
2;England;Gloucestershire;Salperton Park;;W1.89;N51.86;10;
2;England;Gloucestershire;Sandholme;;W2.26;N51.90;10;
2;England;Gloucestershire;Sandpits;;W2.24;N51.95;10;
2;England;Gloucestershire;Sapperton;;W2.08;N51.72;10;
2;England;Gloucestershire;Saul;;W2.37;N51.77;10;
2;England;Gloucestershire;Scarr;;W2.40;N51.95;10;
2;England;Gloucestershire;Scowles;;W2.63;N51.78;10;
2;England;Gloucestershire;Sedbury;;W2.66;N51.63;10;
2;England;Gloucestershire;Selsley;;W2.24;N51.72;10;
2;England;Gloucestershire;Seven Springs;;W2.05;N51.85;10;
2;England;Gloucestershire;Sevenhampton;;W1.95;N51.88;10;
2;England;Gloucestershire;Severn;;W2.27;N51.86;10;
2;England;Gloucestershire;Severn Beach;;W2.66;N51.55;10;
2;England;Gloucestershire;Sezincote;;W1.75;N51.96;10;
2;England;Gloucestershire;Shab Hill;;W2.10;N51.83;10;
2;England;Gloucestershire;Shadwell;;W2.31;N51.67;10;
2;England;Gloucestershire;Shakesfield;;W2.45;N51.97;10;
2;England;Gloucestershire;Shapridge;;W2.48;N51.84;10;
2;England;Gloucestershire;Sharpness;;W2.47;N51.71;10;
2;England;Gloucestershire;Shaw Common;;W2.45;N51.94;10;
2;England;Gloucestershire;Sheepscombe;;W2.16;N51.78;10;
2;England;Gloucestershire;Shepherd's Patch;;W2.40;N51.73;10;
2;England;Gloucestershire;Shepperdine;;W2.56;N51.65;10;
2;England;Gloucestershire;Sherborne;;W1.75;N51.82;10;
2;England;Gloucestershire;Sherborne Brook;;W1.75;N51.82;10;
2;England;Gloucestershire;Shipton;;W1.95;N51.86;10;
2;England;Gloucestershire;Shipton Moyne;;W2.16;N51.59;10;
2;England;Gloucestershire;Shipton Oliffe;;W1.95;N51.86;10;
2;England;Gloucestershire;Shipton Solers;;W1.95;N51.86;10;
2;England;Gloucestershire;Shorncote;;W1.97;N51.66;10;
2;England;Gloucestershire;Shortstanding;;W2.62;N51.81;10;
2;England;Gloucestershire;Shortwood;;W2.23;N51.68;10;
2;England;Gloucestershire;Shortwood;;W2.47;N51.47;10;
2;England;Gloucestershire;Shurdington;;W2.11;N51.86;10;
2;England;Gloucestershire;Shuthonger;;W2.17;N52.01;10;
2;England;Gloucestershire;Siddington;;W1.95;N51.68;10;
2;England;Gloucestershire;Silver Street;;W2.31;N51.70;10;
2;England;Gloucestershire;Siston;;W2.46;N51.47;10;
2;England;Gloucestershire;Siston Common;;W2.49;N51.46;10;
2;England;Gloucestershire;Slad;;W2.18;N51.76;10;
2;England;Gloucestershire;Sladbrook;;W2.33;N51.95;10;
2;England;Gloucestershire;Slimbridge;;W2.39;N51.72;10;
2;England;Gloucestershire;Sling;;W2.61;N51.76;10;
2;England;Gloucestershire;Smallbrook;;W2.59;N51.69;10;
2;England;Gloucestershire;Snig's End;;W2.30;N51.95;10;
2;England;Gloucestershire;Snowshill;;W1.87;N51.99;10;
2;England;Gloucestershire;Somerford Keynes;;W1.98;N51.65;10;
2;England;Gloucestershire;Soundwell;;W2.50;N51.47;10;
2;England;Gloucestershire;South Cerney;;W1.94;N51.67;10;
2;England;Gloucestershire;Southam;;W2.04;N51.92;10;
2;England;Gloucestershire;Southend;;W2.37;N51.65;10;
2;England;Gloucestershire;Southrop;;W1.71;N51.72;10;
2;England;Gloucestershire;Springbank;;W2.13;N51.90;10;
2;England;Gloucestershire;St Briavels;;W2.63;N51.73;10;
2;England;Gloucestershire;St Briavels Common;;W2.66;N51.71;10;
2;England;Gloucestershire;St Chloe;;W2.23;N51.70;10;
2;England;Gloucestershire;St Mark's;;W2.11;N51.89;10;
2;England;Gloucestershire;St Paul's;;W2.26;N51.85;10;
2;England;Gloucestershire;St Peter's;;W2.10;N51.90;10;
2;England;Gloucestershire;Standish;;W2.29;N51.77;10;
2;England;Gloucestershire;Stanley Downton;;W2.29;N51.73;10;
2;England;Gloucestershire;Stanley Pontlarge;;W2.01;N51.96;10;
2;England;Gloucestershire;Stanton;;W1.91;N52.00;10;
2;England;Gloucestershire;Stantway;;W2.40;N51.81;10;
2;England;Gloucestershire;Stanway;;W1.91;N51.98;10;
2;England;Gloucestershire;Staple Hill;;W2.50;N51.48;10;
2;England;Gloucestershire;Starveall;;W2.30;N51.58;10;
2;England;Gloucestershire;Staunton;;W2.65;N51.80;10;
2;England;Gloucestershire;Staunton;;W2.32;N51.95;10;
2;England;Gloucestershire;Staverton;;W2.16;N51.90;10;
2;England;Gloucestershire;Steam Mills;;W2.52;N51.83;10;
2;England;Gloucestershire;Stinchcombe;;W2.39;N51.68;10;
2;England;Gloucestershire;Stockend;;W2.23;N51.77;10;
2;England;Gloucestershire;Stockwell;;W2.08;N51.82;10;
2;England;Gloucestershire;Stoke Gifford;;W2.54;N51.51;10;
2;England;Gloucestershire;Stoke Orchard;;W2.11;N51.95;10;
2;England;Gloucestershire;Stone;;W2.46;N51.65;10;
2;England;Gloucestershire;Stone Hill;;W2.51;N51.43;10;
2;England;Gloucestershire;Stonehouse;;W2.29;N51.74;10;
2;England;Gloucestershire;Stowe;;W2.63;N51.75;10;
2;England;Gloucestershire;Stowe Green;;W2.63;N51.75;10;
2;England;Gloucestershire;Stowell;;W1.88;N51.81;10;
2;England;Gloucestershire;Stowfield;;W2.59;N51.85;10;
2;England;Gloucestershire;Stow-on-the-Wold;;W1.72;N51.92;10;
2;England;Gloucestershire;Strand;;W2.42;N51.81;10;
2;England;Gloucestershire;Stratford;;W2.17;N52.04;10;
2;England;Gloucestershire;Stratton;;W1.98;N51.72;10;
2;England;Gloucestershire;Stroat;;W2.62;N51.67;10;
2;England;Gloucestershire;Stroud;;W2.23;N51.74;10;
2;England;Gloucestershire;Stroud Green;;W2.29;N51.76;10;
2;England;Gloucestershire;Stumps Cross;;W1.89;N51.96;10;
2;England;Gloucestershire;Sudgrove;;W2.10;N51.76;10;
2;England;Gloucestershire;Sundayshill;;W2.47;N51.63;10;
2;England;Gloucestershire;Sunhill;;W1.84;N51.71;10;
2;England;Gloucestershire;Swanley;;W2.43;N51.66;10;
2;England;Gloucestershire;Swindon;;W2.10;N51.92;10;
2;England;Gloucestershire;Swineford;;W2.44;N51.41;10;
2;England;Gloucestershire;Syde;;W2.08;N51.78;10;
2;England;Gloucestershire;Synwell;;W2.34;N51.63;10;
2;England;Gloucestershire;Syreford;;W1.97;N51.87;10;
2;England;Gloucestershire;Taddington;;W1.88;N51.97;10;
2;England;Gloucestershire;Talbot's End;;W2.43;N51.60;10;
2;England;Gloucestershire;Tarlton;;W2.07;N51.68;10;
2;England;Gloucestershire;Taynton;;W2.39;N51.88;10;
2;England;Gloucestershire;Teddington;;W2.05;N51.99;10;
2;England;Gloucestershire;Teddington Hands;;W2.05;N52.00;10;
2;England;Gloucestershire;Temple Guiting;;W1.87;N51.95;10;
2;England;Gloucestershire;Tetbury;;W2.16;N51.63;10;
2;England;Gloucestershire;Tetbury Upton;;W2.17;N51.65;10;
2;England;Gloucestershire;Tewkesbury;;W2.16;N51.98;10;
2;England;Gloucestershire;Thames;;W1.70;N51.68;10;
2;England;Gloucestershire;Thames Head;;W2.03;N51.68;10;
2;England;Gloucestershire;The Batch;;W2.49;N51.44;10;
2;England;Gloucestershire;The Beeches;;W1.95;N51.71;10;
2;England;Gloucestershire;The Camp;;W2.13;N51.77;10;
2;England;Gloucestershire;The Fence;;W2.66;N51.74;10;
2;England;Gloucestershire;The Flat;;W2.36;N51.83;10;
2;England;Gloucestershire;The Folly;;W2.37;N51.45;10;
2;England;Gloucestershire;The Hacket;;W2.50;N51.59;10;
2;England;Gloucestershire;The Knapp;;W2.50;N51.61;10;
2;England;Gloucestershire;The Leigh;;W2.19;N51.93;10;
2;England;Gloucestershire;The Lyd;;W2.53;N51.72;10;
2;England;Gloucestershire;The Mythe;;W2.16;N52.00;10;
2;England;Gloucestershire;The Park;;W2.08;N51.88;10;
2;England;Gloucestershire;The Pludds;;W2.56;N51.84;10;
2;England;Gloucestershire;The Quarry;;W2.39;N51.68;10;
2;England;Gloucestershire;The Rocks;;W2.40;N51.55;10;
2;England;Gloucestershire;The Scarr;;W2.40;N51.94;10;
2;England;Gloucestershire;The Twittocks;;W2.17;N52.03;10;
2;England;Gloucestershire;The Tynings;;W2.11;N51.86;10;
2;England;Gloucestershire;Thornbury;;W2.52;N51.60;10;
2;England;Gloucestershire;Througham;;W2.11;N51.76;10;
2;England;Gloucestershire;Thrupp;;W2.20;N51.72;10;
2;England;Gloucestershire;Tibberton;;W2.35;N51.88;10;
2;England;Gloucestershire;Tickmorend;;W2.24;N51.68;10;
2;England;Gloucestershire;Tidenham;;W2.65;N51.65;10;
2;England;Gloucestershire;Tidenham Chase;;W2.65;N51.67;10;
2;England;Gloucestershire;Tillers' Green;;W2.45;N51.98;10;
2;England;Gloucestershire;Tilsdown;;W2.37;N51.68;10;
2;England;Gloucestershire;Tiltups End;;W2.23;N51.67;10;
2;England;Gloucestershire;Tirley;;W2.24;N51.95;10;
2;England;Gloucestershire;Tirley Knowle;;W2.26;N51.95;10;
2;England;Gloucestershire;Tockington;;W2.57;N51.57;10;
2;England;Gloucestershire;Toddington;;W1.95;N51.98;10;
2;England;Gloucestershire;Todenham;;W1.65;N52.02;10;
2;England;Gloucestershire;Tormarton;;W2.34;N51.50;10;
2;England;Gloucestershire;Tortworth;;W2.43;N51.63;10;
2;England;Gloucestershire;Totteroak;;W2.37;N51.55;10;
2;England;Gloucestershire;Town Street;;W2.23;N51.95;10;
2;England;Gloucestershire;Townwell;;W2.44;N51.60;10;
2;England;Gloucestershire;Tredington;;W2.14;N51.95;10;
2;England;Gloucestershire;Tredworth;;W2.23;N51.85;10;
2;England;Gloucestershire;Tresham;;W2.30;N51.61;10;
2;England;Gloucestershire;Triangle;;W2.66;N51.70;10;
2;England;Gloucestershire;Trow Green;;W2.62;N51.75;10;
2;England;Gloucestershire;Tuffley;;W2.24;N51.83;10;
2;England;Gloucestershire;Tumpy Green;;W2.40;N51.70;10;
2;England;Gloucestershire;Tunley;;W2.10;N51.73;10;
2;England;Gloucestershire;Turkdean;;W1.85;N51.85;10;
2;England;Gloucestershire;Tutnalls;;W2.52;N51.71;10;
2;England;Gloucestershire;Tutshill;;W2.66;N51.64;10;
2;England;Gloucestershire;Twigworth;;W2.23;N51.89;10;
2;England;Gloucestershire;Two Bridges;;W2.49;N51.76;10;
2;England;Gloucestershire;Twyning;;W2.16;N52.02;10;
2;England;Gloucestershire;Twyning Green;;W2.14;N52.02;10;
2;England;Gloucestershire;Tytherington;;W2.47;N51.59;10;
2;England;Gloucestershire;Uckington;;W2.13;N51.91;10;
2;England;Gloucestershire;Uley;;W2.31;N51.68;10;
2;England;Gloucestershire;Up Hatherley;;W2.13;N51.87;10;
2;England;Gloucestershire;Uplands;;W2.21;N51.74;10;
2;England;Gloucestershire;Upleadon;;W2.36;N51.93;10;
2;England;Gloucestershire;Upleadon Court;;W2.35;N51.93;10;
2;England;Gloucestershire;Upper Cam;;W2.36;N51.68;10;
2;England;Gloucestershire;Upper Coberley;;W2.04;N51.83;10;
2;England;Gloucestershire;Upper Dowdeswell;;W2.00;N51.86;10;
2;England;Gloucestershire;Upper End;;W2.00;N51.75;10;
2;England;Gloucestershire;Upper End;;W1.82;N51.81;10;
2;England;Gloucestershire;Upper Framilode;;W2.36;N51.78;10;
2;England;Gloucestershire;Upper Hill;;W2.50;N51.66;10;
2;England;Gloucestershire;Upper Kilcott;;W2.30;N51.59;10;
2;England;Gloucestershire;Upper Lode;;W2.17;N51.99;10;
2;England;Gloucestershire;Upper Lydbrook;;W2.58;N51.83;10;
2;England;Gloucestershire;Upper Morton;;W2.50;N51.61;10;
2;England;Gloucestershire;Upper Oddington;;W1.68;N51.92;10;
2;England;Gloucestershire;Upper Siddington;;W1.97;N51.68;10;
2;England;Gloucestershire;Upper Slaughter;;W1.78;N51.90;10;
2;England;Gloucestershire;Upper Soudley;;W2.50;N51.78;10;
2;England;Gloucestershire;Upper Swell;;W1.75;N51.93;10;
2;England;Gloucestershire;Upper Wick;;W2.42;N51.66;10;
2;England;Gloucestershire;Upthorpe;;W2.36;N51.69;10;
2;England;Gloucestershire;Upton Cheyney;;W2.44;N51.41;10;
2;England;Gloucestershire;Upton St Leonards;;W2.20;N51.82;10;
2;England;Gloucestershire;Viney Hill;;W2.50;N51.75;10;
2;England;Gloucestershire;Vinney Green;;W2.49;N51.49;10;
2;England;Gloucestershire;Walham;;W2.26;N51.87;10;
2;England;Gloucestershire;Wallow Green;;W2.24;N51.68;10;
2;England;Gloucestershire;Wallsworth;;W2.23;N51.90;10;
2;England;Gloucestershire;Walton Cardiff;;W2.14;N51.98;10;
2;England;Gloucestershire;Wanswell;;W2.46;N51.70;10;
2;England;Gloucestershire;Wapley;;W2.41;N51.50;10;
2;England;Gloucestershire;Warden Hill;;W2.10;N51.87;10;
2;England;Gloucestershire;Warmley;;W2.47;N51.45;10;
2;England;Gloucestershire;Warmley Hill;;W2.50;N51.45;10;
2;England;Gloucestershire;Warmley Tower;;W2.49;N51.44;10;
2;England;Gloucestershire;Waterend;;W2.36;N51.82;10;
2;England;Gloucestershire;Waterlane;;W2.11;N51.73;10;
2;England;Gloucestershire;Watermead;;W2.16;N51.83;10;
2;England;Gloucestershire;Watermoor;;W1.97;N51.70;10;
2;England;Gloucestershire;Watledge;;W2.23;N51.69;10;
2;England;Gloucestershire;Watley's End;;W2.50;N51.52;10;
2;England;Gloucestershire;Welsh Bicknor;;W2.59;N51.85;10;
2;England;Gloucestershire;West End;;W2.18;N51.67;10;
2;England;Gloucestershire;West End;;W2.42;N51.59;10;
2;England;Gloucestershire;West Littleton;;W2.34;N51.47;10;
2;England;Gloucestershire;Westbury-on-Severn;;W2.42;N51.82;10;
2;England;Gloucestershire;Westend;;W2.57;N51.62;10;
2;England;Gloucestershire;Westerleigh;;W2.44;N51.50;10;
2;England;Gloucestershire;Westerleigh Hill;;W2.43;N51.50;10;
2;England;Gloucestershire;Westington;;W1.79;N52.04;10;
2;England;Gloucestershire;Westonbirt;;W2.21;N51.59;10;
2;England;Gloucestershire;Weston-sub-Edge;;W1.82;N52.06;10;
2;England;Gloucestershire;Westrip;;W2.26;N51.74;10;
2;England;Gloucestershire;Whaddon;;W2.24;N51.81;10;
2;England;Gloucestershire;Whaddon;;W2.05;N51.89;10;
2;England;Gloucestershire;Wheatenhurst;;W2.34;N51.77;10;
2;England;Gloucestershire;Whelford;;W1.76;N51.68;10;
2;England;Gloucestershire;Whitecliff;;W2.63;N51.78;10;
2;England;Gloucestershire;Whitecroft;;W2.56;N51.75;10;
2;England;Gloucestershire;Whiteleaved Oak;;W2.36;N52.01;10;
2;England;Gloucestershire;Whiteshill;;W2.23;N51.76;10;
2;England;Gloucestershire;Whiteshill;;W2.52;N51.50;10;
2;England;Gloucestershire;Whiteway;;W2.23;N51.68;10;
2;England;Gloucestershire;Whiteway;;W2.13;N51.78;10;
2;England;Gloucestershire;Whitfield;;W2.47;N51.61;10;
2;England;Gloucestershire;Whitminster;;W2.33;N51.77;10;
2;England;Gloucestershire;Whittington;;W1.98;N51.88;10;
2;England;Gloucestershire;Wibdon;;W2.63;N51.67;10;
2;England;Gloucestershire;Wick;;W2.43;N51.45;10;
2;England;Gloucestershire;Wick Rocks;;W2.43;N51.45;10;
2;England;Gloucestershire;Wick Street;;W2.20;N51.76;10;
2;England;Gloucestershire;Wickridge Street;;W2.27;N51.94;10;
2;England;Gloucestershire;Wickwar;;W2.40;N51.59;10;
2;England;Gloucestershire;Willsbridge;;W2.49;N51.42;10;
2;England;Gloucestershire;Winchcombe;;W1.97;N51.95;10;
2;England;Gloucestershire;Windrush;;W1.72;N51.81;10;
2;England;Gloucestershire;Windrush;;W1.81;N51.89;10;
2;England;Gloucestershire;Windsoredge;;W2.23;N51.69;10;
2;England;Gloucestershire;Winson;;W1.87;N51.77;10;
2;England;Gloucestershire;Winstone;;W2.05;N51.77;10;
2;England;Gloucestershire;Winterbourne;;W2.50;N51.51;10;
2;England;Gloucestershire;Winterbourne Down;;W2.50;N51.50;10;
2;England;Gloucestershire;Wishanger;;W2.11;N51.77;10;
2;England;Gloucestershire;Withington;;W1.95;N51.83;10;
2;England;Gloucestershire;Wood Stanway;;W1.91;N51.97;10;
2;England;Gloucestershire;Woodbridge;;W1.95;N51.82;10;
2;England;Gloucestershire;Woodchester;;W2.23;N51.71;10;
2;England;Gloucestershire;Woodcroft;;W2.66;N51.65;10;
2;England;Gloucestershire;Woodfield;;W2.37;N51.68;10;
2;England;Gloucestershire;Woodford;;W2.44;N51.65;10;
2;England;Gloucestershire;Woodhouse Down;;W2.56;N51.56;10;
2;England;Gloucestershire;Woodmancote;;W2.36;N51.67;10;
2;England;Gloucestershire;Woodmancote;;W2.00;N51.77;10;
2;England;Gloucestershire;Woodmancote;;W2.04;N51.94;10;
2;England;Gloucestershire;Woolaston;;W2.60;N51.68;10;
2;England;Gloucestershire;Woolaston Common;;W2.60;N51.70;10;
2;England;Gloucestershire;Woolaston Slade;;W2.62;N51.69;10;
2;England;Gloucestershire;Woolaston Woodside;;W2.62;N51.69;10;
2;England;Gloucestershire;Woolridge;;W2.29;N51.90;10;
2;England;Gloucestershire;Woolstone;;W2.05;N51.96;10;
2;England;Gloucestershire;Worley;;W2.23;N51.68;10;
2;England;Gloucestershire;Wormington;;W1.95;N52.02;10;
2;England;Gloucestershire;Worrall Hill;;W2.58;N51.82;10;
2;England;Gloucestershire;Wortley;;W2.34;N51.61;10;
2;England;Gloucestershire;Wotton;;W2.23;N51.86;10;
2;England;Gloucestershire;Wotton-under-Edge;;W2.34;N51.62;10;
2;England;Gloucestershire;Wyck Rissington;;W1.72;N51.88;10;
2;England;Gloucestershire;Wyegate Green;;W2.65;N51.75;10;
2;England;Gloucestershire;Wymans Brook;;W2.08;N51.91;10;
2;England;Gloucestershire;Yanworth;;W1.89;N51.81;10;
2;England;Gloucestershire;Yate;;W2.41;N51.53;10;
2;England;Gloucestershire;Yate Rocks;;W2.40;N51.55;10;
2;England;Gloucestershire;Yorkley;;W2.53;N51.75;10;
2;England;Gloucestershire;Yorkley Slade;;W2.52;N51.76;10;