"Level";"Country";"County";"Place";"void";"Longitude";"Latitude";"ZoomLevel";"Icon"
2;England;Nottinghamshire;Adbolton;;W1.10;N52.93;10;
2;England;Nottinghamshire;Alma;;W1.30;N53.06;10;
2;England;Nottinghamshire;Alverton;;W0.82;N52.96;10;
2;England;Nottinghamshire;Annesley;;W1.25;N53.07;10;
2;England;Nottinghamshire;Annesley Woodhouse;;W1.27;N53.07;10;
2;England;Nottinghamshire;Arnold;;W1.12;N52.99;10;
2;England;Nottinghamshire;Askerton Hill;;W0.80;N53.00;10;
2;England;Nottinghamshire;Askham;;W0.89;N53.25;10;
2;England;Nottinghamshire;Aslockton;;W0.89;N52.95;10;
2;England;Nottinghamshire;Aspley;;W1.21;N52.97;10;
2;England;Nottinghamshire;Attenborough;;W1.24;N52.90;10;
2;England;Nottinghamshire;Averham;;W0.86;N53.07;10;
2;England;Nottinghamshire;Awsworth;;W1.28;N52.98;10;
2;England;Nottinghamshire;Babbington;;W1.27;N52.98;10;
2;England;Nottinghamshire;Babworth;;W0.98;N53.31;10;
2;England;Nottinghamshire;Bagthorpe;;W1.30;N53.05;10;
2;England;Nottinghamshire;Balderton;;W0.79;N53.05;10;
2;England;Nottinghamshire;Balk Field;;W0.93;N53.32;10;
2;England;Nottinghamshire;Barnby in the Willows;;W0.73;N53.05;10;
2;England;Nottinghamshire;Barnby Moor;;W1.00;N53.34;10;
2;England;Nottinghamshire;Barnstone;;W0.91;N52.90;10;
2;England;Nottinghamshire;Barrows Green;;W1.32;N53.06;10;
2;England;Nottinghamshire;Barton in Fabis;;W1.22;N52.88;10;
2;England;Nottinghamshire;Bassingfield;;W1.07;N52.92;10;
2;England;Nottinghamshire;Bathley;;W0.85;N53.12;10;
2;England;Nottinghamshire;Beacon Hill;;W0.79;N53.06;10;
2;England;Nottinghamshire;Beauvale;;W1.28;N53.00;10;
2;England;Nottinghamshire;Beauvale;;W1.22;N53.02;10;
2;England;Nottinghamshire;Beckingham;;W0.70;N53.06;10;
2;England;Nottinghamshire;Beckingham;;W0.84;N53.40;10;
2;England;Nottinghamshire;Beeston;;W1.22;N52.91;10;
2;England;Nottinghamshire;Beeston Canal;;W1.18;N52.92;10;
2;England;Nottinghamshire;Belle Eau Park;;W1.01;N53.12;10;
2;England;Nottinghamshire;Besthorpe;;W0.77;N53.16;10;
2;England;Nottinghamshire;Bestwood;;W1.16;N52.99;10;
2;England;Nottinghamshire;Bestwood Village;;W1.18;N53.01;10;
2;England;Nottinghamshire;Bilborough;;W1.22;N52.96;10;
2;England;Nottinghamshire;Bilby;;W1.05;N53.34;10;
2;England;Nottinghamshire;Bilsthorpe;;W1.04;N53.13;10;
2;England;Nottinghamshire;Bilsthorpe Moor;;W1.03;N53.12;10;
2;England;Nottinghamshire;Bingham;;W0.95;N52.94;10;
2;England;Nottinghamshire;Bircotes;;W1.05;N53.41;10;
2;England;Nottinghamshire;Bleasby;;W0.94;N53.03;10;
2;England;Nottinghamshire;Blidworth;;W1.12;N53.09;10;
2;England;Nottinghamshire;Blidworth Bottoms;;W1.12;N53.08;10;
2;England;Nottinghamshire;Blidworth Dale;;W1.15;N53.07;10;
2;England;Nottinghamshire;Blyth;;W1.06;N53.37;10;
2;England;Nottinghamshire;Bogend;;W1.27;N53.00;10;
2;England;Nottinghamshire;Bole;;W0.81;N53.37;10;
2;England;Nottinghamshire;Bolham;;W0.95;N53.33;10;
2;England;Nottinghamshire;Bothamsall;;W0.99;N53.25;10;
2;England;Nottinghamshire;Boughton;;W0.99;N53.20;10;
2;England;Nottinghamshire;Bradmore;;W1.13;N52.87;10;
2;England;Nottinghamshire;Bramcote;;W1.24;N52.92;10;
2;England;Nottinghamshire;Bramcote Hills;;W1.24;N52.93;10;
2;England;Nottinghamshire;Brick kiln End;;W1.13;N53.09;10;
2;England;Nottinghamshire;Brinkley;;W0.94;N53.06;10;
2;England;Nottinghamshire;Brinsley;;W1.31;N53.03;10;
2;England;Nottinghamshire;Brook Hill;;W1.16;N52.89;10;
2;England;Nottinghamshire;Broomhill;;W1.19;N53.02;10;
2;England;Nottinghamshire;Brough;;W0.76;N53.11;10;
2;England;Nottinghamshire;Broxtowe;;W1.22;N52.97;10;
2;England;Nottinghamshire;Budby;;W1.08;N53.22;10;
2;England;Nottinghamshire;Bulcote;;W1.03;N52.98;10;
2;England;Nottinghamshire;Bulwell;;W1.21;N53.00;10;
2;England;Nottinghamshire;Bulwell Forest;;W1.19;N52.99;10;
2;England;Nottinghamshire;Bunny;;W1.13;N52.85;10;
2;England;Nottinghamshire;Bunny Hill;;W1.15;N52.84;10;
2;England;Nottinghamshire;Burrowsmoor Holt;;W0.95;N52.96;10;
2;England;Nottinghamshire;Burton Joyce;;W1.04;N52.98;10;
2;England;Nottinghamshire;Butler's Hill;;W1.19;N53.02;10;
2;England;Nottinghamshire;Calverton;;W1.09;N53.03;10;
2;England;Nottinghamshire;Car Colston;;W0.92;N52.97;10;
2;England;Nottinghamshire;Carburton;;W1.08;N53.25;10;
2;England;Nottinghamshire;Carlton;;W1.10;N52.96;10;
2;England;Nottinghamshire;Carlton in Lindrick;;W1.11;N53.35;10;
2;England;Nottinghamshire;Carlton-on-Trent;;W0.81;N53.15;10;
2;England;Nottinghamshire;Carrington;;W1.16;N52.97;10;
2;England;Nottinghamshire;Caunton;;W0.89;N53.13;10;
2;England;Nottinghamshire;Caythorpe;;W0.98;N52.99;10;
2;England;Nottinghamshire;Chesterfield Canal;;W0.86;N53.43;10;
2;England;Nottinghamshire;Chilwell;;W1.24;N52.91;10;
2;England;Nottinghamshire;Church Laneham;;W0.78;N53.27;10;
2;England;Nottinghamshire;Church Warsop;;W1.16;N53.20;10;
2;England;Nottinghamshire;Cinderhill;;W1.21;N52.98;10;
2;England;Nottinghamshire;Clarborough;;W0.90;N53.33;10;
2;England;Nottinghamshire;Clayworth;;W0.91;N53.38;10;
2;England;Nottinghamshire;Clifton;;W1.18;N52.90;10;
2;England;Nottinghamshire;Clifton;;W1.19;N52.90;10;
2;England;Nottinghamshire;Clipston;;W1.06;N52.90;10;
2;England;Nottinghamshire;Clipstone;;W1.13;N53.16;10;
2;England;Nottinghamshire;Coates;;W0.77;N53.31;10;
2;England;Nottinghamshire;Coddington;;W0.76;N53.07;10;
2;England;Nottinghamshire;Collingham;;W0.76;N53.14;10;
2;England;Nottinghamshire;Colston Bassett;;W0.96;N52.89;10;
2;England;Nottinghamshire;Colwick;;W1.09;N52.95;10;
2;England;Nottinghamshire;Cossall;;W1.28;N52.97;10;
2;England;Nottinghamshire;Cossall Marsh;;W1.28;N52.97;10;
2;England;Nottinghamshire;Costhorpe;;W1.12;N53.36;10;
2;England;Nottinghamshire;Costock;;W1.15;N52.82;10;
2;England;Nottinghamshire;Cotgrave;;W1.04;N52.90;10;
2;England;Nottinghamshire;Cotham;;W0.82;N53.01;10;
2;England;Nottinghamshire;Cottam;;W0.78;N53.30;10;
2;England;Nottinghamshire;Cox Moor;;W1.23;N53.09;10;
2;England;Nottinghamshire;Cromwell;;W0.82;N53.14;10;
2;England;Nottinghamshire;Cropwell Bishop;;W0.99;N52.90;10;
2;England;Nottinghamshire;Cropwell Butler;;W0.98;N52.92;10;
2;England;Nottinghamshire;Cuckney;;W1.16;N53.23;10;
2;England;Nottinghamshire;Dalestorth;;W1.25;N53.13;10;
2;England;Nottinghamshire;Darlton;;W0.84;N53.24;10;
2;England;Nottinghamshire;Daybrook;;W1.15;N52.99;10;
2;England;Nottinghamshire;Devon;;W0.81;N52.95;10;
2;England;Nottinghamshire;Dove Green;;W1.31;N53.06;10;
2;England;Nottinghamshire;Dunham on Trent;;W0.78;N53.25;10;
2;England;Nottinghamshire;Dunkirk;;W1.18;N52.93;10;
2;England;Nottinghamshire;Dunsill;;W1.31;N53.14;10;
2;England;Nottinghamshire;Eakring;;W0.99;N53.15;10;
2;England;Nottinghamshire;East Bridgford;;W0.97;N52.98;10;
2;England;Nottinghamshire;East Drayton;;W0.84;N53.26;10;
2;England;Nottinghamshire;East Leake;;W1.18;N52.82;10;
2;England;Nottinghamshire;East Markham;;W0.89;N53.24;10;
2;England;Nottinghamshire;East Stoke;;W0.88;N53.03;10;
2;England;Nottinghamshire;Easthorpe;;W0.95;N53.07;10;
2;England;Nottinghamshire;Eastwood;;W1.31;N53.00;10;
2;England;Nottinghamshire;Eastwood Hall;;W1.31;N53.01;10;
2;England;Nottinghamshire;Eaton;;W0.93;N53.29;10;
2;England;Nottinghamshire;Edingley;;W1.01;N53.08;10;
2;England;Nottinghamshire;Edwalton;;W1.12;N52.90;10;
2;England;Nottinghamshire;Edwinstowe;;W1.07;N53.18;10;
2;England;Nottinghamshire;Egmanton;;W0.90;N53.20;10;
2;England;Nottinghamshire;Elkesley;;W0.98;N53.26;10;
2;England;Nottinghamshire;Elston;;W0.88;N53.02;10;
2;England;Nottinghamshire;Elton;;W0.87;N52.93;10;
2;England;Nottinghamshire;Epperstone;;W1.03;N53.02;10;
2;England;Nottinghamshire;Erewash;;W1.32;N53.01;10;
2;England;Nottinghamshire;Erewash Canal;;W1.27;N52.87;10;
2;England;Nottinghamshire;Everton;;W0.96;N53.41;10;
2;England;Nottinghamshire;Fackley;;W1.29;N53.14;10;
2;England;Nottinghamshire;Fairham Brook;;W1.16;N52.91;10;
2;England;Nottinghamshire;Farndon;;W0.85;N53.06;10;
2;England;Nottinghamshire;Farnsfield;;W1.04;N53.09;10;
2;England;Nottinghamshire;Fiskerton;;W0.91;N53.05;10;
2;England;Nottinghamshire;Flawborough;;W0.83;N52.97;10;
2;England;Nottinghamshire;Fledborough;;W0.78;N53.23;10;
2;England;Nottinghamshire;Flintham;;W0.89;N53.00;10;
2;England;Nottinghamshire;Forest Town;;W1.16;N53.15;10;
2;England;Nottinghamshire;Friezeland;;W1.30;N53.04;10;
2;England;Nottinghamshire;Gamston;;W1.10;N52.92;10;
2;England;Nottinghamshire;Gamston;;W0.95;N53.27;10;
2;England;Nottinghamshire;Gateford;;W1.14;N53.32;10;
2;England;Nottinghamshire;Gedling;;W1.09;N52.97;10;
2;England;Nottinghamshire;Gibsmere;;W0.94;N53.02;10;
2;England;Nottinghamshire;Giltbrook;;W1.28;N53.00;10;
2;England;Nottinghamshire;Girton;;W0.77;N53.18;10;
2;England;Nottinghamshire;Gonalston;;W1.00;N53.01;10;
2;England;Nottinghamshire;Gorsethorpe;;W1.11;N53.17;10;
2;England;Nottinghamshire;Gotham;;W1.21;N52.86;10;
2;England;Nottinghamshire;Goverton;;W0.95;N53.04;10;
2;England;Nottinghamshire;Granby;;W0.88;N52.91;10;
2;England;Nottinghamshire;Grantham Canal;;W0.98;N52.86;10;
2;England;Nottinghamshire;Grassthorpe;;W0.81;N53.19;10;
2;England;Nottinghamshire;Greasley;;W1.27;N53.01;10;
2;England;Nottinghamshire;Greet;;W0.93;N53.07;10;
2;England;Nottinghamshire;Gringley on the Hill;;W0.90;N53.40;10;
2;England;Nottinghamshire;Grove;;W0.90;N53.30;10;
2;England;Nottinghamshire;Gunthorpe;;W0.98;N52.98;10;
2;England;Nottinghamshire;Halam;;W1.00;N53.07;10;
2;England;Nottinghamshire;Halloughton;;W0.98;N53.05;10;
2;England;Nottinghamshire;Harby;;W0.69;N53.22;10;
2;England;Nottinghamshire;Hardwick Village;;W1.05;N53.26;10;
2;England;Nottinghamshire;Harlequin;;W1.03;N52.94;10;
2;England;Nottinghamshire;Harwell;;W0.97;N53.41;10;
2;England;Nottinghamshire;Harworth;;W1.08;N53.41;10;
2;England;Nottinghamshire;Haughton;;W0.99;N53.24;10;
2;England;Nottinghamshire;Hawksworth;;W0.88;N52.97;10;
2;England;Nottinghamshire;Hawton;;W0.83;N53.05;10;
2;England;Nottinghamshire;Hayton;;W0.91;N53.34;10;
2;England;Nottinghamshire;Haywood Oaks;;W1.10;N53.08;10;
2;England;Nottinghamshire;Hazelgrove;;W1.21;N53.02;10;
2;England;Nottinghamshire;Headon;;W0.89;N53.28;10;
2;England;Nottinghamshire;Heckdyke;;W0.81;N53.45;10;
2;England;Nottinghamshire;Hempshill Vale;;W1.22;N52.99;10;
2;England;Nottinghamshire;Hickling;;W0.97;N52.85;10;
2;England;Nottinghamshire;Hickling Pastures;;W1.02;N52.84;10;
2;England;Nottinghamshire;High Marnham;;W0.80;N53.22;10;
2;England;Nottinghamshire;Highbury Vale;;W1.19;N52.99;10;
2;England;Nottinghamshire;Hill Top;;W1.30;N53.00;10;
2;England;Nottinghamshire;Hockerton;;W0.94;N53.09;10;
2;England;Nottinghamshire;Hodsock;;W1.08;N53.35;10;
2;England;Nottinghamshire;Holbeck;;W1.19;N53.25;10;
2;England;Nottinghamshire;Holbeck Woodhouse;;W1.19;N53.25;10;
2;England;Nottinghamshire;Hollies;;W0.77;N53.05;10;
2;England;Nottinghamshire;Holme;;W0.80;N53.12;10;
2;England;Nottinghamshire;Holme Lane;;W1.07;N52.92;10;
2;England;Nottinghamshire;Holme Pierrepont;;W1.07;N52.94;10;
2;England;Nottinghamshire;Hoveringham;;W0.97;N53.00;10;
2;England;Nottinghamshire;Hucknall;;W1.21;N53.03;10;
2;England;Nottinghamshire;Huthwaite;;W1.31;N53.12;10;
2;England;Nottinghamshire;Idle;;W0.93;N53.30;10;
2;England;Nottinghamshire;Kelham;;W0.85;N53.08;10;
2;England;Nottinghamshire;Kersall;;W0.93;N53.15;10;
2;England;Nottinghamshire;Keyworth;;W1.09;N52.86;10;
2;England;Nottinghamshire;Kilton;;W1.11;N53.30;10;
2;England;Nottinghamshire;Kilvington;;W0.81;N52.96;10;
2;England;Nottinghamshire;Kimberley;;W1.27;N52.99;10;
2;England;Nottinghamshire;Kingston on Soar;;W1.25;N52.83;10;
2;England;Nottinghamshire;Kinoulton;;W1.00;N52.86;10;
2;England;Nottinghamshire;Kirkby Woodhouse;;W1.26;N53.08;10;
2;England;Nottinghamshire;Kirkby-in-Ashfield;;W1.25;N53.09;10;
2;England;Nottinghamshire;Kirklington;;W1.00;N53.10;10;
2;England;Nottinghamshire;Kirton;;W0.96;N53.21;10;
2;England;Nottinghamshire;Knaith;;W0.76;N53.34;10;
2;England;Nottinghamshire;Knapthorpe;;W0.89;N53.11;10;
2;England;Nottinghamshire;Kneesall;;W0.95;N53.16;10;
2;England;Nottinghamshire;Kneeton;;W0.94;N53.00;10;
2;England;Nottinghamshire;Ladybrook;;W1.22;N53.14;10;
2;England;Nottinghamshire;Lambley;;W1.06;N52.99;10;
2;England;Nottinghamshire;Laneham;;W0.80;N53.27;10;
2;England;Nottinghamshire;Langar;;W0.93;N52.89;10;
2;England;Nottinghamshire;Langford;;W0.77;N53.11;10;
2;England;Nottinghamshire;Langholme;;W0.87;N53.46;10;
2;England;Nottinghamshire;Langold;;W1.12;N53.37;10;
2;England;Nottinghamshire;Laxton;;W0.92;N53.19;10;
2;England;Nottinghamshire;Leen;;W1.18;N53.03;10;
2;England;Nottinghamshire;Lenton;;W1.18;N52.94;10;
2;England;Nottinghamshire;Lenton Abbey;;W1.21;N52.93;10;
2;England;Nottinghamshire;Lidgett;;W1.07;N53.17;10;
2;England;Nottinghamshire;Linby;;W1.21;N53.05;10;
2;England;Nottinghamshire;Little Carlton;;W0.85;N53.10;10;
2;England;Nottinghamshire;Little Green;;W0.92;N52.97;10;
2;England;Nottinghamshire;Little Gringley;;W0.90;N53.31;10;
2;England;Nottinghamshire;Littleborough;;W0.77;N53.32;10;
2;England;Nottinghamshire;Lound;;W0.96;N53.36;10;
2;England;Nottinghamshire;Low Marnham;;W0.80;N53.21;10;
2;England;Nottinghamshire;Lowdham;;W1.01;N53.00;10;
2;England;Nottinghamshire;Maltby Dyke;;W1.08;N53.37;10;
2;England;Nottinghamshire;Manor Park;;W1.15;N52.89;10;
2;England;Nottinghamshire;Mansfield;;W1.20;N53.14;10;
2;England;Nottinghamshire;Mansfield Woodhouse;;W1.19;N53.16;10;
2;England;Nottinghamshire;Manton;;W1.11;N53.29;10;
2;England;Nottinghamshire;Maplebeck;;W0.94;N53.13;10;
2;England;Nottinghamshire;Mapperley;;W1.13;N52.98;10;
2;England;Nottinghamshire;Mapperley Park;;W1.15;N52.97;10;
2;England;Nottinghamshire;Market Warsop;;W1.16;N53.19;10;
2;England;Nottinghamshire;Markham Moor;;W0.93;N53.24;10;
2;England;Nottinghamshire;Mattersey;;W0.97;N53.39;10;
2;England;Nottinghamshire;Mattersey Thorpe;;W0.99;N53.40;10;
2;England;Nottinghamshire;Maun;;W0.98;N53.24;10;
2;England;Nottinghamshire;Maythorne;;W0.97;N53.08;10;
2;England;Nottinghamshire;Meadows;;W1.15;N52.93;10;
2;England;Nottinghamshire;Meden Vale;;W1.14;N53.21;10;
2;England;Nottinghamshire;Milton;;W0.93;N53.24;10;
2;England;Nottinghamshire;Misson;;W0.97;N53.43;10;
2;England;Nottinghamshire;Misterton;;W0.85;N53.43;10;
2;England;Nottinghamshire;Misterton Soss;;W0.84;N53.44;10;
2;England;Nottinghamshire;Moorgreen;;W1.28;N53.01;10;
2;England;Nottinghamshire;Moorhaigh;;W1.25;N53.16;10;
2;England;Nottinghamshire;Moorhouse;;W0.87;N53.18;10;
2;England;Nottinghamshire;Morton;;W0.92;N53.05;10;
2;England;Nottinghamshire;Morton;;W0.79;N53.41;10;
2;England;Nottinghamshire;Nether Headon;;W0.89;N53.28;10;
2;England;Nottinghamshire;Nether Langwith;;W1.20;N53.22;10;
2;England;Nottinghamshire;Netherfield;;W1.09;N52.95;10;
2;England;Nottinghamshire;New Balderton;;W0.79;N53.05;10;
2;England;Nottinghamshire;New Basford;;W1.18;N52.97;10;
2;England;Nottinghamshire;New Brinsley;;W1.33;N53.04;10;
2;England;Nottinghamshire;New Eastwood;;W1.31;N53.00;10;
2;England;Nottinghamshire;New Kingston;;W1.24;N52.84;10;
2;England;Nottinghamshire;New Ollerton;;W1.01;N53.20;10;
2;England;Nottinghamshire;Newington;;W1.00;N53.43;10;
2;England;Nottinghamshire;Newlands;;W1.14;N53.15;10;
2;England;Nottinghamshire;Newstead;;W1.24;N53.06;10;
2;England;Nottinghamshire;Newthorpe;;W1.28;N53.00;10;
2;England;Nottinghamshire;Newthorpe Common;;W1.30;N53.00;10;
2;England;Nottinghamshire;Newton;;W0.98;N52.96;10;
2;England;Nottinghamshire;Normanton;;W0.95;N53.07;10;
2;England;Nottinghamshire;Normanton on Trent;;W0.81;N53.20;10;
2;England;Nottinghamshire;Normanton-on-the-Wolds;;W1.07;N52.89;10;
2;England;Nottinghamshire;North Carlton;;W1.11;N53.35;10;
2;England;Nottinghamshire;North Clifton;;W0.77;N53.23;10;
2;England;Nottinghamshire;North Leverton with Habblesthorpe;;W0.83;N53.32;10;
2;England;Nottinghamshire;North Muskham;;W0.82;N53.11;10;
2;England;Nottinghamshire;North Wheatley;;W0.87;N53.35;10;
2;England;Nottinghamshire;Norton;;W1.14;N53.24;10;
2;England;Nottinghamshire;Norwell;;W0.85;N53.14;10;
2;England;Nottinghamshire;Norwell Woodhouse;;W0.89;N53.15;10;
2;England;Nottinghamshire;Nottingham;;W1.16;N52.96;10;
2;England;Nottinghamshire;Nottingham Canal (disused);;W1.28;N52.97;10;
2;England;Nottinghamshire;Nuncargate;;W1.25;N53.08;10;
2;England;Nottinghamshire;Nuthall;;W1.24;N52.99;10;
2;England;Nottinghamshire;Old Basford;;W1.18;N52.98;10;
2;England;Nottinghamshire;Old Clipstone;;W1.11;N53.17;10;
2;England;Nottinghamshire;Oldcotes;;W1.12;N53.38;10;
2;England;Nottinghamshire;Ollerton;;W1.02;N53.19;10;
2;England;Nottinghamshire;Ompton;;W0.98;N53.17;10;
2;England;Nottinghamshire;Ordsall;;W0.96;N53.31;10;
2;England;Nottinghamshire;Orston;;W0.85;N52.95;10;
2;England;Nottinghamshire;Ossington;;W0.87;N53.16;10;
2;England;Nottinghamshire;Owthorpe;;W1.00;N52.89;10;
2;England;Nottinghamshire;Oxton;;W1.06;N53.05;10;
2;England;Nottinghamshire;Papplewick;;W1.19;N53.05;10;
2;England;Nottinghamshire;Perlethorpe;;W1.04;N53.23;10;
2;England;Nottinghamshire;Pinxton;;W1.32;N53.08;10;
2;England;Nottinghamshire;Plain Spot;;W1.31;N53.04;10;
2;England;Nottinghamshire;Pleasleyhill;;W1.25;N53.16;10;
2;England;Nottinghamshire;Plumtree;;W1.09;N52.88;10;
2;England;Nottinghamshire;Plumtree Park;;W1.09;N52.87;10;
2;England;Nottinghamshire;Porchester;;W1.12;N52.97;10;
2;England;Nottinghamshire;Poulter;;W1.19;N53.23;10;
2;England;Nottinghamshire;Radcliffe on Trent;;W1.04;N52.94;10;
2;England;Nottinghamshire;Radford;;W1.18;N52.95;10;
2;England;Nottinghamshire;Radmanthwaite;;W1.23;N53.16;10;
2;England;Nottinghamshire;Ragnall;;W0.80;N53.24;10;
2;England;Nottinghamshire;Rainworth;;W1.11;N53.11;10;
2;England;Nottinghamshire;Rainworth Water;;W1.04;N53.13;10;
2;England;Nottinghamshire;Rampton;;W0.81;N53.29;10;
2;England;Nottinghamshire;Ranby;;W1.02;N53.31;10;
2;England;Nottinghamshire;Ranskill;;W1.02;N53.37;10;
2;England;Nottinghamshire;Ravenshead;;W1.18;N53.08;10;
2;England;Nottinghamshire;Redhill;;W1.15;N53.00;10;
2;England;Nottinghamshire;Rempstone;;W1.15;N52.81;10;
2;England;Nottinghamshire;Retford;;W0.95;N53.31;10;
2;England;Nottinghamshire;Rhodesia;;W1.16;N53.31;10;
2;England;Nottinghamshire;Rise Park;;W1.18;N53.00;10;
2;England;Nottinghamshire;Rockley;;W0.93;N53.25;10;
2;England;Nottinghamshire;Rolleston;;W0.89;N53.06;10;
2;England;Nottinghamshire;Ruddington;;W1.15;N52.89;10;
2;England;Nottinghamshire;Ruffs;;W1.22;N53.02;10;
2;England;Nottinghamshire;Rylands;;W1.21;N52.91;10;
2;England;Nottinghamshire;Ryton;;W1.03;N53.41;10;
2;England;Nottinghamshire;Saundby;;W0.82;N53.38;10;
2;England;Nottinghamshire;Saxondale;;W0.98;N52.94;10;
2;England;Nottinghamshire;Scaftworth;;W1.00;N53.41;10;
2;England;Nottinghamshire;Scarrington;;W0.91;N52.96;10;
2;England;Nottinghamshire;Scofton;;W1.07;N53.31;10;
2;England;Nottinghamshire;Screveton;;W0.91;N52.97;10;
2;England;Nottinghamshire;Scrooby;;W1.02;N53.40;10;
2;England;Nottinghamshire;Selston;;W1.31;N53.07;10;
2;England;Nottinghamshire;Selston Common;;W1.30;N53.06;10;
2;England;Nottinghamshire;Selston Green;;W1.32;N53.07;10;
2;England;Nottinghamshire;Serlby;;W1.05;N53.39;10;
2;England;Nottinghamshire;Shelford;;W1.01;N52.97;10;
2;England;Nottinghamshire;Shelton;;W0.83;N52.98;10;
2;England;Nottinghamshire;Sherwood;;W1.15;N52.98;10;
2;England;Nottinghamshire;Sherwood Forest;;W1.09;N53.15;10;
2;England;Nottinghamshire;Shireoaks;;W1.17;N53.31;10;
2;England;Nottinghamshire;Sibthorpe;;W0.86;N52.99;10;
2;England;Nottinghamshire;Sibthorpe Place;;W0.92;N53.24;10;
2;England;Nottinghamshire;Skegby;;W1.26;N53.14;10;
2;England;Nottinghamshire;Skegby;;W0.83;N53.22;10;
2;England;Nottinghamshire;Sneinton;;W1.13;N52.94;10;
2;England;Nottinghamshire;Soar;;W1.26;N52.80;10;
2;England;Nottinghamshire;Sookholme;;W1.19;N53.18;10;
2;England;Nottinghamshire;South Carlton;;W1.11;N53.34;10;
2;England;Nottinghamshire;South Clifton;;W0.77;N53.22;10;
2;England;Nottinghamshire;South Leverton;;W0.83;N53.31;10;
2;England;Nottinghamshire;South Muskham;;W0.82;N53.10;10;
2;England;Nottinghamshire;South Scarle;;W0.74;N53.16;10;
2;England;Nottinghamshire;South Wheatley;;W0.85;N53.35;10;
2;England;Nottinghamshire;Southwell;;W0.95;N53.07;10;
2;England;Nottinghamshire;Spalford;;W0.75;N53.21;10;
2;England;Nottinghamshire;Spion Kop;;W1.17;N53.18;10;
2;England;Nottinghamshire;St Ann's;;W1.15;N52.95;10;
2;England;Nottinghamshire;Stanford Hills;;W1.20;N52.80;10;
2;England;Nottinghamshire;Stanton Hill;;W1.28;N53.13;10;
2;England;Nottinghamshire;Stanton-on-the-Wolds;;W1.06;N52.86;10;
2;England;Nottinghamshire;Stapleford;;W1.25;N52.92;10;
2;England;Nottinghamshire;Staunton in the Vale;;W0.80;N52.97;10;
2;England;Nottinghamshire;Staythorpe;;W0.88;N53.06;10;
2;England;Nottinghamshire;Stoke Bardolph;;W1.04;N52.96;10;
2;England;Nottinghamshire;Stokeham;;W0.83;N53.27;10;
2;England;Nottinghamshire;Stony Dale;;W0.92;N52.98;10;
2;England;Nottinghamshire;Strelley;;W1.25;N52.96;10;
2;England;Nottinghamshire;Sturton le Steeple;;W0.82;N53.34;10;
2;England;Nottinghamshire;Styrrup;;W1.09;N53.40;10;
2;England;Nottinghamshire;Sutton;;W0.87;N52.92;10;
2;England;Nottinghamshire;Sutton;;W0.97;N53.34;10;
2;England;Nottinghamshire;Sutton Bonington;;W1.25;N52.82;10;
2;England;Nottinghamshire;Sutton Forest Side;;W1.25;N53.12;10;
2;England;Nottinghamshire;Sutton In Ashfield;;W1.26;N53.11;10;
2;England;Nottinghamshire;Sutton on Trent;;W0.81;N53.17;10;
2;England;Nottinghamshire;Swingate;;W1.25;N52.99;10;
2;England;Nottinghamshire;Syerston;;W0.89;N53.01;10;
2;England;Nottinghamshire;Teversal;;W1.28;N53.14;10;
2;England;Nottinghamshire;Thoresby;;W1.05;N53.23;10;
2;England;Nottinghamshire;Thorney;;W0.72;N53.23;10;
2;England;Nottinghamshire;Thorneywood;;W1.12;N52.96;10;
2;England;Nottinghamshire;Thoroton;;W0.86;N52.97;10;
2;England;Nottinghamshire;Thorpe;;W0.86;N53.03;10;
2;England;Nottinghamshire;Thrumpton;;W1.25;N52.87;10;
2;England;Nottinghamshire;Thrumpton;;W0.95;N53.31;10;
2;England;Nottinghamshire;Thurgarton;;W0.97;N53.03;10;
2;England;Nottinghamshire;Tithby;;W0.97;N52.91;10;
2;England;Nottinghamshire;Tollerton;;W1.10;N52.90;10;
2;England;Nottinghamshire;Top Green;;W0.86;N52.99;10;
2;England;Nottinghamshire;Top Valley;;W1.18;N52.99;10;
2;England;Nottinghamshire;Torworth;;W1.02;N53.36;10;
2;England;Nottinghamshire;Trent;;W1.02;N52.98;10;
2;England;Nottinghamshire;Treswell;;W0.83;N53.30;10;
2;England;Nottinghamshire;Tuxford;;W0.90;N53.22;10;
2;England;Nottinghamshire;Underwood;;W1.30;N53.04;10;
2;England;Nottinghamshire;Upper Broughton;;W0.99;N52.82;10;
2;England;Nottinghamshire;Upton;;W0.91;N53.07;10;
2;England;Nottinghamshire;Upton;;W0.89;N53.27;10;
2;England;Nottinghamshire;Upton Field;;W0.94;N53.07;10;
2;England;Nottinghamshire;Walesby;;W0.98;N53.22;10;
2;England;Nottinghamshire;Walkeringham;;W0.85;N53.41;10;
2;England;Nottinghamshire;Walkerith;;W0.82;N53.41;10;
2;England;Nottinghamshire;Wallingwells;;W1.14;N53.35;10;
2;England;Nottinghamshire;Warsop Vale;;W1.19;N53.19;10;
2;England;Nottinghamshire;Watnall;;W1.25;N53.00;10;
2;England;Nottinghamshire;Weecar;;W0.77;N53.18;10;
2;England;Nottinghamshire;Welham;;W0.92;N53.33;10;
2;England;Nottinghamshire;Wellow;;W0.99;N53.18;10;
2;England;Nottinghamshire;West Bridgford;;W1.13;N52.91;10;
2;England;Nottinghamshire;West Drayton;;W0.95;N53.25;10;
2;England;Nottinghamshire;West Leake;;W1.22;N52.82;10;
2;England;Nottinghamshire;West Markham;;W0.92;N53.24;10;
2;England;Nottinghamshire;West Retford;;W0.96;N53.32;10;
2;England;Nottinghamshire;West Stockwith;;W0.81;N53.44;10;
2;England;Nottinghamshire;Westhorpe;;W0.98;N53.06;10;
2;England;Nottinghamshire;Weston;;W0.84;N53.19;10;
2;England;Nottinghamshire;Westville;;W1.24;N53.01;10;
2;England;Nottinghamshire;Westwood;;W1.33;N53.05;10;
2;England;Nottinghamshire;Whatton;;W0.90;N52.94;10;
2;England;Nottinghamshire;White Houses;;W0.93;N53.30;10;
2;England;Nottinghamshire;White Post;;W1.07;N53.10;10;
2;England;Nottinghamshire;Whitemoor;;W1.19;N52.97;10;
2;England;Nottinghamshire;Widmerpool;;W1.06;N52.84;10;
2;England;Nottinghamshire;Wigsley;;W0.71;N53.22;10;
2;England;Nottinghamshire;Wigthorpe;;W1.11;N53.34;10;
2;England;Nottinghamshire;Wilford;;W1.16;N52.92;10;
2;England;Nottinghamshire;Willoughby-on-the-Wolds;;W1.06;N52.81;10;
2;England;Nottinghamshire;Winkburn;;W0.94;N53.11;10;
2;England;Nottinghamshire;Winthorpe;;W0.79;N53.09;10;
2;England;Nottinghamshire;Wiseton;;W0.93;N53.39;10;
2;England;Nottinghamshire;Witham;;W0.72;N53.05;10;
2;England;Nottinghamshire;Wollaton;;W1.22;N52.94;10;
2;England;Nottinghamshire;Woodbeck;;W0.84;N53.29;10;
2;England;Nottinghamshire;Woodborough;;W1.06;N53.01;10;
2;England;Nottinghamshire;Woodend;;W1.31;N53.13;10;
2;England;Nottinghamshire;Woodthorpe;;W1.13;N52.99;10;
2;England;Nottinghamshire;Worksop;;W1.13;N53.30;10;
2;England;Nottinghamshire;Wysall;;W1.11;N52.83;10;