"Level";"Country";"County";"Place";"void";"Longitude";"Latitude";"ZoomLevel";"Icon"
2;England;Shropshire;Abbey Green;;W2.74;N52.89;10;
2;England;Shropshire;Abcott;;W2.89;N52.39;10;
2;England;Shropshire;Abdon;;W2.63;N52.47;10;
2;England;Shropshire;Ackleton;;W2.34;N52.57;10;
2;England;Shropshire;Acton;;W3.01;N52.44;10;
2;England;Shropshire;Acton Burnell;;W2.69;N52.60;10;
2;England;Shropshire;Acton Pigott;;W2.68;N52.61;10;
2;England;Shropshire;Acton Reynald;;W2.69;N52.80;10;
2;England;Shropshire;Acton Round;;W2.54;N52.55;10;
2;England;Shropshire;Acton Scott;;W2.81;N52.49;10;
2;England;Shropshire;Adderley;;W2.50;N52.94;10;
2;England;Shropshire;Adeney;;W2.44;N52.75;10;
2;England;Shropshire;Admaston;;W2.54;N52.70;10;
2;England;Shropshire;Alberbury;;W2.94;N52.72;10;
2;England;Shropshire;Albrighton;;W2.28;N52.63;10;
2;England;Shropshire;Albrighton;;W2.75;N52.75;10;
2;England;Shropshire;Alcaston;;W2.81;N52.47;10;
2;England;Shropshire;Alderton;;W2.75;N52.80;10;
2;England;Shropshire;Aldon;;W2.83;N52.40;10;
2;England;Shropshire;Ale Oak;;W3.14;N52.44;10;
2;England;Shropshire;Alkington;;W2.71;N52.93;10;
2;England;Shropshire;All Stretton;;W2.79;N52.55;10;
2;England;Shropshire;Allscot;;W2.39;N52.56;10;
2;England;Shropshire;Allscott;;W2.57;N52.71;10;
2;England;Shropshire;Alveley;;W2.35;N52.45;10;
2;England;Shropshire;Anchor;;W3.22;N52.45;10;
2;England;Shropshire;Angelbank;;W2.63;N52.38;10;
2;England;Shropshire;Annscroft;;W2.81;N52.65;10;
2;England;Shropshire;Apley Forge;;W2.44;N52.57;10;
2;England;Shropshire;Aqueduct;;W2.47;N52.64;10;
2;England;Shropshire;Argoed;;W3.03;N52.44;10;
2;England;Shropshire;Argoed;;W3.00;N52.77;10;
2;England;Shropshire;Arleston;;W2.50;N52.68;10;
2;England;Shropshire;Arscott;;W2.84;N52.65;10;
2;England;Shropshire;Ash Magna;;W2.64;N52.94;10;
2;England;Shropshire;Ash Parva;;W2.64;N52.94;10;
2;England;Shropshire;Ashbrook;;W2.81;N52.54;10;
2;England;Shropshire;Ashfield;;W3.02;N52.81;10;
2;England;Shropshire;Ashfields;;W2.44;N52.83;10;
2;England;Shropshire;Ashford Bowdler;;W2.72;N52.32;10;
2;England;Shropshire;Ashford Carbonel;;W2.70;N52.32;10;
2;England;Shropshire;Ashmore Park;;W2.06;N52.60;10;
2;England;Shropshire;Asterley;;W2.93;N52.65;10;
2;England;Shropshire;Asterton;;W2.90;N52.51;10;
2;England;Shropshire;Astley;;W2.71;N52.75;10;
2;England;Shropshire;Astley Abbotts;;W2.44;N52.56;10;
2;England;Shropshire;Aston;;W2.29;N52.53;10;
2;England;Shropshire;Aston;;W2.69;N52.84;10;
2;England;Shropshire;Aston Botterell;;W2.54;N52.45;10;
2;England;Shropshire;Aston Eyre;;W2.51;N52.54;10;
2;England;Shropshire;Aston Munslow;;W2.72;N52.47;10;
2;England;Shropshire;Aston on Clun;;W2.89;N52.42;10;
2;England;Shropshire;Aston Pigott;;W2.99;N52.63;10;
2;England;Shropshire;Aston Rogers;;W2.97;N52.64;10;
2;England;Shropshire;Aston Sq;;W3.01;N52.84;10;
2;England;Shropshire;Atcham;;W2.68;N52.67;10;
2;England;Shropshire;Atterley;;W2.53;N52.56;10;
2;England;Shropshire;Aylesford Brook;;W3.07;N52.60;10;
2;England;Shropshire;Babbinswood;;W2.99;N52.86;10;
2;England;Shropshire;Bache;;W2.79;N52.42;10;
2;England;Shropshire;Bache Mill;;W2.73;N52.46;10;
2;England;Shropshire;Back Brook;;W2.32;N52.74;10;
2;England;Shropshire;Badger;;W2.35;N52.58;10;
2;England;Shropshire;Bagginswood;;W2.47;N52.42;10;
2;England;Shropshire;Bagley;;W2.89;N52.83;10;
2;England;Shropshire;Bagley Marsh;;W2.90;N52.84;10;
2;England;Shropshire;Ball;;W3.04;N52.82;10;
2;England;Shropshire;Balls Hill;;W2.01;N52.53;10;
2;England;Shropshire;Balmer;;W2.83;N52.90;10;
2;England;Shropshire;Balmer Heath;;W2.83;N52.90;10;
2;England;Shropshire;Bankshead;;W3.03;N52.49;10;
2;England;Shropshire;Barkers Green;;W2.71;N52.84;10;
2;England;Shropshire;Barnsley;;W2.37;N52.53;10;
2;England;Shropshire;Barrow;;W2.51;N52.58;10;
2;England;Shropshire;Barrow;;W2.51;N52.59;10;
2;England;Shropshire;Baschurch;;W2.86;N52.78;10;
2;England;Shropshire;Basford;;W2.89;N52.45;10;
2;England;Shropshire;Battlefield;;W2.72;N52.73;10;
2;England;Shropshire;Bayston Hill;;W2.78;N52.66;10;
2;England;Shropshire;Beambridge;;W2.69;N52.48;10;
2;England;Shropshire;Bearwood;;W1.97;N52.47;10;
2;England;Shropshire;Beckbury;;W2.35;N52.60;10;
2;England;Shropshire;Beckjay;;W2.89;N52.38;10;
2;England;Shropshire;Bedstone;;W2.94;N52.36;10;
2;England;Shropshire;Belle Vue;;W2.75;N52.69;10;
2;England;Shropshire;Benthall;;W2.50;N52.61;10;
2;England;Shropshire;Bentlawnt;;W2.99;N52.60;10;
2;England;Shropshire;Beobridge;;W2.31;N52.51;10;
2;England;Shropshire;Berrington;;W2.71;N52.64;10;
2;England;Shropshire;Berwick Wharf;;W2.68;N52.69;10;
2;England;Shropshire;Bescot;;W2.00;N52.56;10;
2;England;Shropshire;Besford;;W2.66;N52.81;10;
2;England;Shropshire;Betchcott;;W2.84;N52.57;10;
2;England;Shropshire;Betton;;W2.46;N52.92;10;
2;England;Shropshire;Betton Strange;;W2.74;N52.67;10;
2;England;Shropshire;Bettws y crwyn;;W3.17;N52.42;10;
2;England;Shropshire;Bicton;;W3.06;N52.43;10;
2;England;Shropshire;Bicton;;W2.83;N52.73;10;
2;England;Shropshire;Bicton Heath;;W2.81;N52.71;10;
2;England;Shropshire;Billingsley;;W2.44;N52.46;10;
2;England;Shropshire;Bilmarsh;;W2.75;N52.82;10;
2;England;Shropshire;Bilston;;W2.08;N52.57;10;
2;England;Shropshire;Bings Heath;;W2.68;N52.75;10;
2;England;Shropshire;Birdsgreen;;W2.35;N52.45;10;
2;England;Shropshire;Birtley;;W2.78;N52.50;10;
2;England;Shropshire;Bishop's Castle;;W3.00;N52.48;10;
2;England;Shropshire;Bishops Wood;;W2.25;N52.67;10;
2;England;Shropshire;Bitterley;;W2.64;N52.38;10;
2;England;Shropshire;Black Lake;;W2.01;N52.52;10;
2;England;Shropshire;Blackford;;W2.60;N52.43;10;
2;England;Shropshire;Blackheath;;W2.04;N52.47;10;
2;England;Shropshire;Blackmore;;W3.02;N52.67;10;
2;England;Shropshire;Blakenhall;;W2.13;N52.57;10;
2;England;Shropshire;Bletchley;;W2.56;N52.89;10;
2;England;Shropshire;Blists Hill;;W2.45;N52.62;10;
2;England;Shropshire;Bloomfield;;W2.07;N52.53;10;
2;England;Shropshire;Bluebell;;W2.60;N52.68;10;
2;England;Shropshire;Bobbington;;W2.29;N52.50;10;
2;England;Shropshire;Bog, The;;W2.96;N52.56;10;
2;England;Shropshire;Bolas Heath;;W2.49;N52.78;10;
2;England;Shropshire;Bomere Heath;;W2.78;N52.76;10;
2;England;Shropshire;Booleybank;;W2.63;N52.82;10;
2;England;Shropshire;Boraston;;W2.57;N52.31;10;
2;England;Shropshire;Boraston Dale;;W2.57;N52.32;10;
2;England;Shropshire;Bouldon;;W2.67;N52.46;10;
2;England;Shropshire;Bourton;;W2.60;N52.56;10;
2;England;Shropshire;Bowbrook;;W2.81;N52.70;10;
2;England;Shropshire;Bowling Green;;W2.08;N52.47;10;
2;England;Shropshire;Bowling Green;;W2.56;N52.82;10;
2;England;Shropshire;Bradeley Green;;W2.70;N52.99;10;
2;England;Shropshire;Brades Village;;W2.04;N52.50;10;
2;England;Shropshire;Bradley;;W2.07;N52.55;10;
2;England;Shropshire;Bradmore;;W2.16;N52.57;10;
2;England;Shropshire;Bradney;;W2.35;N52.55;10;
2;England;Shropshire;Brandhill;;W2.85;N52.39;10;
2;England;Shropshire;Brandwood;;W2.78;N52.82;10;
2;England;Shropshire;Bratton;;W2.54;N52.72;10;
2;England;Shropshire;Breaden Heath;;W2.83;N52.91;10;
2;England;Shropshire;Bridges;;W2.90;N52.55;10;
2;England;Shropshire;Bridgnorth;;W2.42;N52.53;10;
2;England;Shropshire;Broad Lanes;;W2.34;N52.48;10;
2;England;Shropshire;Broad Oak;;W2.32;N52.48;10;
2;England;Shropshire;Broadoak;;W2.75;N52.74;10;
2;England;Shropshire;Broadstone;;W2.67;N52.49;10;
2;England;Shropshire;Brockton;;W3.00;N52.45;10;
2;England;Shropshire;Brockton;;W2.63;N52.53;10;
2;England;Shropshire;Brockton;;W2.41;N52.62;10;
2;England;Shropshire;Brockton;;W3.02;N52.62;10;
2;England;Shropshire;Brockton;;W2.41;N52.74;10;
2;England;Shropshire;Bromdon;;W2.58;N52.41;10;
2;England;Shropshire;Bromfield;;W2.76;N52.37;10;
2;England;Shropshire;Bromley;;W2.39;N52.55;10;
2;England;Shropshire;Bromley;;W2.89;N52.82;10;
2;England;Shropshire;Bromlow;;W3.00;N52.60;10;
2;England;Shropshire;Brompton;;W2.68;N52.65;10;
2;England;Shropshire;Broncroft;;W2.67;N52.47;10;
2;England;Shropshire;Bronygarth;;W3.10;N52.92;10;
2;England;Shropshire;Brookhampton;;W2.64;N52.50;10;
2;England;Shropshire;Brooklands;;W2.71;N52.97;10;
2;England;Shropshire;Brookrow;;W2.58;N52.36;10;
2;England;Shropshire;Brookside;;W2.45;N52.64;10;
2;England;Shropshire;Broome;;W2.88;N52.41;10;
2;England;Shropshire;Broome;;W2.70;N52.57;10;
2;England;Shropshire;Broomfields;;W2.86;N52.74;10;
2;England;Shropshire;Broseley;;W2.48;N52.60;10;
2;England;Shropshire;Broughall;;W2.65;N52.96;10;
2;England;Shropshire;Broughton;;W2.29;N52.51;10;
2;England;Shropshire;Brownheath;;W2.80;N52.85;10;
2;England;Shropshire;Brownhill;;W2.89;N52.79;10;
2;England;Shropshire;Brownhills;;W2.49;N52.91;10;
2;England;Shropshire;Bryn;;W3.04;N52.45;10;
2;England;Shropshire;Bryn y cochin;;W2.95;N52.90;10;
2;England;Shropshire;Brynore;;W2.95;N52.90;10;
2;England;Shropshire;Bucknell;;W2.95;N52.35;10;
2;England;Shropshire;Buildwas;;W2.54;N52.63;10;
2;England;Shropshire;Bulkeley Hall;;W2.40;N52.97;10;
2;England;Shropshire;Burcote;;W2.38;N52.55;10;
2;England;Shropshire;Burford;;W2.61;N52.30;10;
2;England;Shropshire;Burley;;W2.78;N52.42;10;
2;England;Shropshire;Burleydam;;W2.59;N52.97;10;
2;England;Shropshire;Burlton;;W2.81;N52.82;10;
2;England;Shropshire;Burnhill Green;;W2.32;N52.59;10;
2;England;Shropshire;Burton Westwood;;W2.59;N52.56;10;
2;England;Shropshire;Burwarton;;W2.57;N52.46;10;
2;England;Shropshire;Burwood;;W2.76;N52.47;10;
2;England;Shropshire;Bushbury;;W2.11;N52.62;10;
2;England;Shropshire;Bushmoor;;W2.84;N52.47;10;
2;England;Shropshire;Butlane Head;;W2.87;N52.71;10;
2;England;Shropshire;Butlersbank;;W2.62;N52.79;10;
2;England;Shropshire;Buttonbridge;;W2.39;N52.40;10;
2;England;Shropshire;Buttonoak;;W2.38;N52.39;10;
2;England;Shropshire;Byne Brook;;W2.73;N52.50;10;
2;England;Shropshire;Cabin;;W3.01;N52.49;10;
2;England;Shropshire;Cadney Bank;;W2.80;N52.90;10;
2;England;Shropshire;Caebitra;;W3.13;N52.52;10;
2;England;Shropshire;Calcott;;W2.83;N52.71;10;
2;England;Shropshire;Callaughton;;W2.57;N52.56;10;
2;England;Shropshire;Calverhall;;W2.59;N52.92;10;
2;England;Shropshire;Camlad;;W3.07;N52.53;10;
2;England;Shropshire;Cantlop;;W2.71;N52.64;10;
2;England;Shropshire;Cardeston;;W2.90;N52.70;10;
2;England;Shropshire;Cardington;;W2.73;N52.55;10;
2;England;Shropshire;Castle Fields;;W2.74;N52.71;10;
2;England;Shropshire;Castlegreen;;W3.00;N52.49;10;
2;England;Shropshire;Catstree;;W2.38;N52.56;10;
2;England;Shropshire;Causeway Green;;W2.01;N52.48;10;
2;England;Shropshire;Causewaywood;;W2.70;N52.57;10;
2;England;Shropshire;Caynham;;W2.67;N52.35;10;
2;England;Shropshire;Cefn Einion;;W3.06;N52.46;10;
2;England;Shropshire;Ceiriog;;W3.02;N52.94;10;
2;England;Shropshire;Chadwell;;W2.32;N52.72;10;
2;England;Shropshire;Chapel Lawn;;W3.01;N52.37;10;
2;England;Shropshire;Charlemont;;W1.98;N52.53;10;
2;England;Shropshire;Charlton;;W2.60;N52.69;10;
2;England;Shropshire;Chatford;;W2.78;N52.64;10;
2;England;Shropshire;Chavel;;W2.86;N52.71;10;
2;England;Shropshire;Chelmarsh;;W2.41;N52.48;10;
2;England;Shropshire;Chelmick;;W2.79;N52.51;10;
2;England;Shropshire;Chemistry;;W2.70;N52.96;10;
2;England;Shropshire;Cheney Longville;;W2.85;N52.45;10;
2;England;Shropshire;Cherrington;;W2.50;N52.76;10;
2;England;Shropshire;Cherry Orchard;;W2.75;N52.70;10;
2;England;Shropshire;Chesterton;;W2.32;N52.57;10;
2;England;Shropshire;Cheswardine;;W2.43;N52.85;10;
2;England;Shropshire;Cheswell;;W2.43;N52.75;10;
2;England;Shropshire;Chetton;;W2.50;N52.50;10;
2;England;Shropshire;Chetwynd Aston;;W2.37;N52.75;10;
2;England;Shropshire;Childs Ercall;;W2.50;N52.82;10;
2;England;Shropshire;Chipnall;;W2.41;N52.87;10;
2;England;Shropshire;Chirbury;;W3.09;N52.57;10;
2;England;Shropshire;Chirk;;W3.05;N52.92;10;
2;England;Shropshire;Chirk Bank;;W3.05;N52.91;10;
2;England;Shropshire;Chorley;;W2.45;N52.44;10;
2;England;Shropshire;Choulton;;W2.92;N52.48;10;
2;England;Shropshire;Church Aston;;W2.38;N52.75;10;
2;England;Shropshire;Church Hill;;W2.03;N52.55;10;
2;England;Shropshire;Church Preen;;W2.68;N52.57;10;
2;England;Shropshire;Church Pulverbatch;;W2.84;N52.61;10;
2;England;Shropshire;Church Stretton;;W2.81;N52.53;10;
2;England;Shropshire;Churchbank;;W3.04;N52.40;10;
2;England;Shropshire;Churchfield;;W1.98;N52.52;10;
2;England;Shropshire;Churchmoor Rough;;W2.88;N52.48;10;
2;England;Shropshire;Churchtown;;W3.09;N52.47;10;
2;England;Shropshire;Claregate;;W2.16;N52.60;10;
2;England;Shropshire;Claverley;;W2.31;N52.53;10;
2;England;Shropshire;Clee St Margaret;;W2.64;N52.45;10;
2;England;Shropshire;Cleedownton;;W2.61;N52.41;10;
2;England;Shropshire;Cleehill;;W2.60;N52.37;10;
2;England;Shropshire;Cleemarsh;;W2.64;N52.45;10;
2;England;Shropshire;Cleestanton;;W2.63;N52.40;10;
2;England;Shropshire;Cleeton St Mary;;W2.57;N52.39;10;
2;England;Shropshire;Cleobury Mortimer;;W2.48;N52.37;10;
2;England;Shropshire;Cleobury North;;W2.56;N52.47;10;
2;England;Shropshire;Clive;;W2.72;N52.81;10;
2;England;Shropshire;Cluddley;;W2.54;N52.68;10;
2;England;Shropshire;Clun;;W2.95;N52.41;10;
2;England;Shropshire;Clun;;W3.03;N52.41;10;
2;England;Shropshire;Clunbury;;W2.92;N52.41;10;
2;England;Shropshire;Clungunford;;W2.89;N52.39;10;
2;England;Shropshire;Clunton;;W2.98;N52.42;10;
2;England;Shropshire;Coalbrookdale;;W2.50;N52.63;10;
2;England;Shropshire;Coalmoor;;W2.50;N52.65;10;
2;England;Shropshire;Coalport;;W2.45;N52.61;10;
2;England;Shropshire;Cobscot;;W2.47;N52.93;10;
2;England;Shropshire;Cockshutford;;W2.61;N52.46;10;
2;England;Shropshire;Cockshutt;;W2.39;N52.44;10;
2;England;Shropshire;Cockshutt;;W2.84;N52.85;10;
2;England;Shropshire;Codsall Wood;;W2.23;N52.64;10;
2;England;Shropshire;Coed y go;;W3.08;N52.83;10;
2;England;Shropshire;Coedway;;W2.97;N52.71;10;
2;England;Shropshire;Cold Hatton;;W2.56;N52.78;10;
2;England;Shropshire;Cold Hatton Heath;;W2.55;N52.78;10;
2;England;Shropshire;Colebatch;;W3.01;N52.47;10;
2;England;Shropshire;Colemere;;W2.84;N52.88;10;
2;England;Shropshire;Colemore Green;;W2.44;N52.57;10;
2;England;Shropshire;Comley;;W2.76;N52.55;10;
2;England;Shropshire;Commonwood;;W2.77;N52.84;10;
2;England;Shropshire;Compton;;W2.17;N52.58;10;
2;England;Shropshire;Condover;;W2.75;N52.64;10;
2;England;Shropshire;Conquermoor Heath;;W2.49;N52.76;10;
2;England;Shropshire;Coppicegate;;W2.39;N52.41;10;
2;England;Shropshire;Copthorne;;W2.78;N52.70;10;
2;England;Shropshire;Coptiviney;;W2.87;N52.92;10;
2;England;Shropshire;Coreley;;W2.57;N52.35;10;
2;England;Shropshire;Corfton;;W2.75;N52.45;10;
2;England;Shropshire;Corfton Bache;;W2.75;N52.46;10;
2;England;Shropshire;Cornbrook;;W2.58;N52.37;10;
2;England;Shropshire;Corner;;W2.84;N52.47;10;
2;England;Shropshire;Corve;;W2.65;N52.50;10;
2;England;Shropshire;Coton;;W2.70;N52.90;10;
2;England;Shropshire;Coton Hill;;W2.77;N52.71;10;
2;England;Shropshire;Cotonwood;;W2.70;N52.91;10;
2;England;Shropshire;Cotwall;;W2.59;N52.74;10;
2;England;Shropshire;Cound;;W2.66;N52.63;10;
2;England;Shropshire;Cound Brook;;W2.85;N52.57;10;
2;England;Shropshire;Coundlane;;W2.63;N52.64;10;
2;England;Shropshire;Coundmoor;;W2.66;N52.61;10;
2;England;Shropshire;Coxbank;;W2.52;N52.96;10;
2;England;Shropshire;Coxgreen;;W2.29;N52.47;10;
2;England;Shropshire;Crackleybank;;W2.37;N52.68;10;
2;England;Shropshire;Craig-llwyn;;W3.14;N52.83;10;
2;England;Shropshire;Crateford;;W2.41;N52.48;10;
2;England;Shropshire;Craven Arms;;W2.83;N52.43;10;
2;England;Shropshire;Creamore Bank;;W2.72;N52.86;10;
2;England;Shropshire;Cressage;;W2.60;N52.63;10;
2;England;Shropshire;Crickheath;;W3.05;N52.79;10;
2;England;Shropshire;Crickheath Wharf;;W3.05;N52.80;10;
2;England;Shropshire;Crickmery;;W2.49;N52.85;10;
2;England;Shropshire;Criftins (Dudleston Heath);;W2.95;N52.91;10;
2;England;Shropshire;Croesau Bach;;W3.12;N52.84;10;
2;England;Shropshire;Croeswallt (Oswestry);;W3.05;N52.85;10;
2;England;Shropshire;Crosemere;;W2.84;N52.85;10;
2;England;Shropshire;Cross;;W2.90;N52.91;10;
2;England;Shropshire;Cross Green;;W2.57;N52.70;10;
2;England;Shropshire;Cross Houses;;W2.45;N52.51;10;
2;England;Shropshire;Cross Houses;;W2.68;N52.65;10;
2;England;Shropshire;Cross Lane Head;;W2.44;N52.55;10;
2;England;Shropshire;Crossgreen;;W2.78;N52.73;10;
2;England;Shropshire;Crosslanes;;W3.00;N52.75;10;
2;England;Shropshire;Crowgreaves;;W2.38;N52.58;10;
2;England;Shropshire;Crowsnest;;W2.94;N52.60;10;
2;England;Shropshire;Cruckmeole;;W2.84;N52.67;10;
2;England;Shropshire;Cruckton;;W2.84;N52.68;10;
2;England;Shropshire;Crudgington;;W2.54;N52.75;10;
2;England;Shropshire;Crumpsbrook;;W2.55;N52.39;10;
2;England;Shropshire;Culmington;;W2.75;N52.43;10;
2;England;Shropshire;Cwm;;W2.98;N52.40;10;
2;England;Shropshire;Cwm Head;;W2.85;N52.48;10;
2;England;Shropshire;Cynllaith;;W3.15;N52.85;10;
2;England;Shropshire;Dallicott;;W2.34;N52.54;10;
2;England;Shropshire;Dalwey;;W2.47;N52.66;10;
2;England;Shropshire;Danesford;;W2.41;N52.51;10;
2;England;Shropshire;Darby's Hill;;W2.06;N52.49;10;
2;England;Shropshire;Darley;;W2.47;N52.58;10;
2;England;Shropshire;Darliston;;W2.62;N52.89;10;
2;England;Shropshire;Dawley Bank;;W2.47;N52.66;10;
2;England;Shropshire;Daywall;;W3.05;N52.89;10;
2;England;Shropshire;Derrington;;W2.59;N52.50;10;
2;England;Shropshire;Deuxhill;;W2.45;N52.48;10;
2;England;Shropshire;Dhustone;;W2.61;N52.38;10;
2;England;Shropshire;Diddlebury;;W2.73;N52.46;10;
2;England;Shropshire;Ditherington;;W2.74;N52.72;10;
2;England;Shropshire;Ditton Priors;;W2.59;N52.49;10;
2;England;Shropshire;Dobson's Bridge;;W2.75;N52.90;10;
2;England;Shropshire;Doddington;;W2.57;N52.38;10;
2;England;Shropshire;Donington;;W2.28;N52.63;10;
2;England;Shropshire;Donnington;;W2.63;N52.65;10;
2;England;Shropshire;Donnington;;W2.44;N52.71;10;
2;England;Shropshire;Donnington Wood;;W2.44;N52.70;10;
2;England;Shropshire;Dorrington;;W2.78;N52.61;10;
2;England;Shropshire;Doseley;;W2.48;N52.65;10;
2;England;Shropshire;Dothill;;W2.53;N52.70;10;
2;England;Shropshire;Dovaston;;W2.97;N52.77;10;
2;England;Shropshire;Dowles Brook;;W2.46;N52.42;10;
2;England;Shropshire;Down;;W2.47;N52.50;10;
2;England;Shropshire;Downton;;W2.68;N52.70;10;
2;England;Shropshire;Draycott;;W2.28;N52.52;10;
2;England;Shropshire;Dryton;;W2.62;N52.65;10;
2;England;Shropshire;Duddlewick;;W2.51;N52.44;10;
2;England;Shropshire;Dudleston;;W2.98;N52.93;10;
2;England;Shropshire;Dudleston Grove;;W2.95;N52.91;10;
2;England;Shropshire;Dudleston Heath (Criftins);;W2.95;N52.91;10;
2;England;Shropshire;Dudley Port;;W2.06;N52.51;10;
2;England;Shropshire;Dudley Wood;;W2.08;N52.47;10;
2;England;Shropshire;Duffryn;;W3.14;N52.43;10;
2;England;Shropshire;Dunnsheath;;W2.78;N52.74;10;
2;England;Shropshire;Dunstall Hill;;W2.14;N52.59;10;
2;England;Shropshire;Eardington;;W2.41;N52.50;10;
2;England;Shropshire;Eardiston;;W2.93;N52.81;10;
2;England;Shropshire;East Wall;;W2.70;N52.53;10;
2;England;Shropshire;Easthope;;W2.65;N52.55;10;
2;England;Shropshire;Easthopewood;;W2.65;N52.56;10;
2;England;Shropshire;Eaton;;W2.92;N52.49;10;
2;England;Shropshire;Eaton;;W2.73;N52.50;10;
2;England;Shropshire;Eaton Constantine;;W2.60;N52.65;10;
2;England;Shropshire;Eaton Mascott;;W2.69;N52.64;10;
2;England;Shropshire;Eaton upon Tern;;W2.52;N52.80;10;
2;England;Shropshire;Ebreywood;;W2.68;N52.74;10;
2;England;Shropshire;Edge;;W2.90;N52.66;10;
2;England;Shropshire;Edgebolton;;W2.63;N52.78;10;
2;England;Shropshire;Edgerley;;W2.97;N52.75;10;
2;England;Shropshire;Edgmond;;W2.41;N52.76;10;
2;England;Shropshire;Edgmond Marsh;;W2.43;N52.77;10;
2;England;Shropshire;Edgton;;W2.91;N52.45;10;
2;England;Shropshire;Edstaston;;W2.72;N52.87;10;
2;England;Shropshire;Elbridge;;W2.95;N52.81;10;
2;England;Shropshire;Ellerdine;;W2.59;N52.77;10;
2;England;Shropshire;Ellerdine Heath;;W2.57;N52.79;10;
2;England;Shropshire;Ellerton;;W2.43;N52.82;10;
2;England;Shropshire;Ellesmere;;W2.90;N52.90;10;
2;England;Shropshire;Elson;;W2.92;N52.90;10;
2;England;Shropshire;Emstrey;;W2.71;N52.68;10;
2;England;Shropshire;Enchmarsh;;W2.73;N52.55;10;
2;England;Shropshire;English Frankton;;W2.81;N52.85;10;
2;England;Shropshire;Ensdon;;W2.89;N52.73;10;
2;England;Shropshire;Etsell;;W2.96;N52.62;10;
2;England;Shropshire;Ettingshall;;W2.10;N52.56;10;
2;England;Shropshire;Eudon Burnell;;W2.45;N52.49;10;
2;England;Shropshire;Eudon George;;W2.47;N52.48;10;
2;England;Shropshire;Exfords Green;;W2.81;N52.64;10;
2;England;Shropshire;Eyton;;W2.92;N52.47;10;
2;England;Shropshire;Eyton;;W2.93;N52.71;10;
2;England;Shropshire;Eyton on Severn;;W2.63;N52.65;10;
2;England;Shropshire;Eyton upon the Weald Moors;;W2.51;N52.73;10;
2;England;Shropshire;Far Forest;;W2.41;N52.37;10;
2;England;Shropshire;Far Ley;;W2.31;N52.58;10;
2;England;Shropshire;Farden;;W2.63;N52.37;10;
2;England;Shropshire;Farley;;W2.54;N52.61;10;
2;England;Shropshire;Farley;;W2.91;N52.65;10;
2;England;Shropshire;Farlow;;W2.54;N52.41;10;
2;England;Shropshire;Farmcote;;W2.32;N52.51;10;
2;England;Shropshire;Fauls;;W2.61;N52.88;10;
2;England;Shropshire;Felhampton;;W2.82;N52.47;10;
2;England;Shropshire;Felton Butler;;W2.90;N52.74;10;
2;England;Shropshire;Fenn Green;;W2.33;N52.44;10;
2;England;Shropshire;Fitz;;W2.83;N52.74;10;
2;England;Shropshire;Folley;;W2.34;N52.57;10;
2;England;Shropshire;Ford;;W2.87;N52.71;10;
2;England;Shropshire;Ford Heath;;W2.88;N52.69;10;
2;England;Shropshire;Fordhouses;;W2.13;N52.62;10;
2;England;Shropshire;Forton;;W2.86;N52.73;10;
2;England;Shropshire;Forton Heath;;W2.84;N52.74;10;
2;England;Shropshire;Foxholes;;W2.53;N52.41;10;
2;England;Shropshire;Foxwood;;W2.55;N52.38;10;
2;England;Shropshire;Frankwell;;W2.77;N52.71;10;
2;England;Shropshire;Friar Park;;W2.00;N52.54;10;
2;England;Shropshire;Frodesley;;W2.72;N52.60;10;
2;England;Shropshire;Fron;;W3.10;N52.90;10;
2;England;Shropshire;Gadlas;;W2.93;N52.92;10;
2;England;Shropshire;Garmston;;W2.59;N52.65;10;
2;England;Shropshire;Gatacre Park;;W2.31;N52.49;10;
2;England;Shropshire;Glan-yr-afon;;W3.15;N52.80;10;
2;England;Shropshire;Glazeley;;W2.44;N52.48;10;
2;England;Shropshire;Gledrid;;W3.05;N52.91;10;
2;England;Shropshire;Glynmorlas;;W3.02;N52.92;10;
2;England;Shropshire;Gobowen;;W3.04;N52.89;10;
2;England;Shropshire;Golds Green;;W2.03;N52.53;10;
2;England;Shropshire;Goldstone;;W2.44;N52.84;10;
2;England;Shropshire;Goldthorn Park;;W2.13;N52.56;10;
2;England;Shropshire;Gore;;W2.60;N52.43;10;
2;England;Shropshire;Grafton;;W2.84;N52.75;10;
2;England;Shropshire;Grand Union Canal;;W2.00;N52.50;10;
2;England;Shropshire;Gravel Hole;;W2.95;N52.91;10;
2;England;Shropshire;Gravelhill;;W2.77;N52.71;10;
2;England;Shropshire;Gravels;;W2.99;N52.59;10;
2;England;Shropshire;Gravelsbank;;W2.99;N52.59;10;
2;England;Shropshire;Gravenhunger Moss;;W2.40;N52.97;10;
2;England;Shropshire;Great Barr;;W1.94;N52.54;10;
2;England;Shropshire;Great Bolas;;W2.53;N52.78;10;
2;England;Shropshire;Great Bridge;;W2.04;N52.52;10;
2;England;Shropshire;Great Chatwell;;W2.31;N52.72;10;
2;England;Shropshire;Great Lyth;;W2.81;N52.65;10;
2;England;Shropshire;Great Ness;;W2.90;N52.75;10;
2;England;Shropshire;Great Ryton;;W2.76;N52.62;10;
2;England;Shropshire;Great Sutton;;W2.72;N52.44;10;
2;England;Shropshire;Great Wytheford;;W2.63;N52.76;10;
2;England;Shropshire;Green;;W3.09;N52.53;10;
2;England;Shropshire;Green;;W3.03;N52.42;10;
2;England;Shropshire;Greenhill Bank;;W2.93;N52.91;10;
2;England;Shropshire;Greete;;W2.63;N52.32;10;
2;England;Shropshire;Gretton;;W2.72;N52.55;10;
2;England;Shropshire;Grimpo;;W2.95;N52.82;10;
2;England;Shropshire;Grindle;;W2.37;N52.62;10;
2;England;Shropshire;Grindley Brook;;W2.71;N52.97;10;
2;England;Shropshire;Grinshill;;W2.71;N52.80;10;
2;England;Shropshire;Gronwen;;W3.08;N52.82;10;
2;England;Shropshire;Grove;;W2.84;N52.45;10;
2;England;Shropshire;Grove;;W2.93;N52.63;10;
2;England;Shropshire;Grove Vale;;W1.95;N52.54;10;
2;England;Shropshire;Guns Village;;W2.01;N52.51;10;
2;England;Shropshire;Gwern y brenin;;W3.04;N52.82;10;
2;England;Shropshire;Habberley;;W2.90;N52.62;10;
2;England;Shropshire;Haden Cross;;W2.06;N52.46;10;
2;England;Shropshire;Hadley;;W2.48;N52.70;10;
2;England;Shropshire;Hadley Castle;;W2.48;N52.70;10;
2;England;Shropshire;Hadnall;;W2.71;N52.77;10;
2;England;Shropshire;Halesfield;;W2.42;N52.63;10;
2;England;Shropshire;Halford;;W2.84;N52.44;10;
2;England;Shropshire;Halfway House;;W2.97;N52.69;10;
2;England;Shropshire;Hall Green;;W2.00;N52.54;10;
2;England;Shropshire;Hallon;;W2.37;N52.56;10;
2;England;Shropshire;Hallonsford;;W2.37;N52.56;10;
2;England;Shropshire;Hamperley;;W2.87;N52.49;10;
2;England;Shropshire;Hampton;;W2.38;N52.47;10;
2;England;Shropshire;Hampton Bank;;W2.81;N52.90;10;
2;England;Shropshire;Hampton Beech;;W3.03;N52.63;10;
2;England;Shropshire;Hampton Loade;;W2.38;N52.47;10;
2;England;Shropshire;Hamstead;;W1.94;N52.53;10;
2;England;Shropshire;Handless;;W2.90;N52.50;10;
2;England;Shropshire;Hanwood;;W2.82;N52.67;10;
2;England;Shropshire;Hanwood Bank;;W2.82;N52.68;10;
2;England;Shropshire;Hardwick;;W2.94;N52.50;10;
2;England;Shropshire;Harlescott;;W2.72;N52.73;10;
2;England;Shropshire;Harley;;W2.60;N52.60;10;
2;England;Shropshire;Harley Brook;;W2.57;N52.61;10;
2;England;Shropshire;Harmer Hill;;W2.77;N52.79;10;
2;England;Shropshire;Harnage;;W2.65;N52.63;10;
2;England;Shropshire;Hartlebury;;W2.38;N52.57;10;
2;England;Shropshire;Harton;;W2.76;N52.48;10;
2;England;Shropshire;Hartsgreen;;W2.31;N52.44;10;
2;England;Shropshire;Harvills Hawthorn;;W2.03;N52.53;10;
2;England;Shropshire;Haston;;W2.72;N52.77;10;
2;England;Shropshire;Hateley Heath;;W2.00;N52.53;10;
2;England;Shropshire;Hatton;;W2.79;N52.50;10;
2;England;Shropshire;Hatton Grange;;W2.35;N52.63;10;
2;England;Shropshire;Haughton;;W2.48;N52.55;10;
2;England;Shropshire;Haughton;;W2.38;N52.66;10;
2;England;Shropshire;Haughton;;W2.66;N52.74;10;
2;England;Shropshire;Haughton;;W2.93;N52.82;10;
2;England;Shropshire;Hawgreen;;W2.56;N52.82;10;
2;England;Shropshire;Haybridge;;W2.53;N52.35;10;
2;England;Shropshire;Haybridge;;W2.48;N52.69;10;
2;England;Shropshire;Haygate;;W2.53;N52.68;10;
2;England;Shropshire;Hayton's Bent;;W2.72;N52.41;10;
2;England;Shropshire;Hazler;;W2.79;N52.53;10;
2;England;Shropshire;Heath Hill;;W2.35;N52.72;10;
2;England;Shropshire;Heath Lanes;;W2.57;N52.77;10;
2;England;Shropshire;Heath Town;;W2.11;N52.58;10;
2;England;Shropshire;Heathcote;;W2.52;N52.84;10;
2;England;Shropshire;Heathton;;W2.28;N52.52;10;
2;England;Shropshire;Hemford;;W3.00;N52.59;10;
2;England;Shropshire;Hengoed;;W3.07;N52.88;10;
2;England;Shropshire;Henley;;W2.67;N52.38;10;
2;England;Shropshire;Henley;;W2.81;N52.48;10;
2;England;Shropshire;Henlle;;W3.01;N52.89;10;
2;England;Shropshire;Hifnal;;W2.44;N52.58;10;
2;England;Shropshire;High Ercall;;W2.60;N52.74;10;
2;England;Shropshire;High Green;;W2.44;N52.44;10;
2;England;Shropshire;High Hatton;;W2.58;N52.81;10;
2;England;Shropshire;High Heath;;W2.47;N52.83;10;
2;England;Shropshire;High Town;;W2.42;N52.53;10;
2;England;Shropshire;Higher Ridge;;W2.96;N52.89;10;
2;England;Shropshire;Highley;;W2.38;N52.44;10;
2;England;Shropshire;Hill Houses;;W2.54;N52.40;10;
2;England;Shropshire;Hill Top;;W2.01;N52.53;10;
2;England;Shropshire;Hillend;;W2.29;N52.54;10;
2;England;Shropshire;Hillside;;W2.60;N52.47;10;
2;England;Shropshire;Hilton;;W2.34;N52.55;10;
2;England;Shropshire;Hindford;;W2.99;N52.88;10;
2;England;Shropshire;Hinstock;;W2.46;N52.83;10;
2;England;Shropshire;Hinton;;W2.88;N52.66;10;
2;England;Shropshire;Hints;;W2.57;N52.37;10;
2;England;Shropshire;Hinwood;;W2.94;N52.66;10;
2;England;Shropshire;Hobarris;;W3.01;N52.39;10;
2;England;Shropshire;Hobbins;;W2.39;N52.53;10;
2;England;Shropshire;Hodnet;;W2.58;N52.84;10;
2;England;Shropshire;Hodnetheath;;W2.58;N52.83;10;
2;England;Shropshire;Holdgate;;W2.64;N52.49;10;
2;England;Shropshire;Hollins Lane;;W2.70;N52.92;10;
2;England;Shropshire;Hollinswood;;W2.44;N52.67;10;
2;England;Shropshire;Hollinwood;;W2.71;N52.91;10;
2;England;Shropshire;Hollyhurst;;W2.78;N52.56;10;
2;England;Shropshire;Hollywaste;;W2.53;N52.37;10;
2;England;Shropshire;Homer;;W2.57;N52.60;10;
2;England;Shropshire;Honnington;;W2.41;N52.73;10;
2;England;Shropshire;Hook-a-gate;;W2.80;N52.67;10;
2;England;Shropshire;Hope;;W2.97;N52.60;10;
2;England;Shropshire;Hope;;W2.72;N52.39;10;
2;England;Shropshire;Hope Bagot;;W2.61;N52.36;10;
2;England;Shropshire;Hope Bowdler;;W2.78;N52.52;10;
2;England;Shropshire;Hope Park;;W3.00;N52.60;10;
2;England;Shropshire;Hopesay;;W2.89;N52.44;10;
2;England;Shropshire;Hopesgate;;W2.99;N52.60;10;
2;England;Shropshire;Hopstone;;W2.32;N52.54;10;
2;England;Shropshire;Hopton;;W2.92;N52.77;10;
2;England;Shropshire;Hopton Cangeford;;W2.67;N52.41;10;
2;England;Shropshire;Hopton Castle;;W2.94;N52.39;10;
2;England;Shropshire;Hopton Wafers;;W2.54;N52.38;10;
2;England;Shropshire;Hoptonbank;;W2.55;N52.39;10;
2;England;Shropshire;Hoptongate;;W2.69;N52.41;10;
2;England;Shropshire;Hordley;;W2.92;N52.86;10;
2;England;Shropshire;Horsebridge;;W2.94;N52.64;10;
2;England;Shropshire;Horsehay;;W2.48;N52.66;10;
2;England;Shropshire;Horseley Heath;;W2.04;N52.52;10;
2;England;Shropshire;Horton;;W2.47;N52.72;10;
2;England;Shropshire;Horton;;W2.75;N52.86;10;
2;England;Shropshire;Hortonlane;;W2.83;N52.69;10;
2;England;Shropshire;Hortonwood;;W2.47;N52.71;10;
2;England;Shropshire;Howle;;W2.46;N52.80;10;
2;England;Shropshire;Hughley;;W2.65;N52.56;10;
2;England;Shropshire;Hughley Brook;;W2.65;N52.55;10;
2;England;Shropshire;Hungerford;;W2.69;N52.49;10;
2;England;Shropshire;Hungreyhatton;;W2.49;N52.83;10;
2;England;Shropshire;Huntington;;W2.51;N52.65;10;
2;England;Shropshire;Ifton Heath;;W2.99;N52.92;10;
2;England;Shropshire;Ightfield;;W2.61;N52.93;10;
2;England;Shropshire;Ightfield Heath;;W2.61;N52.92;10;
2;England;Shropshire;Inwood;;W2.79;N52.55;10;
2;England;Shropshire;Ireland's Cross;;W2.40;N52.96;10;
2;England;Shropshire;Ironbridge;;W2.48;N52.62;10;
2;England;Shropshire;Islington;;W2.38;N52.77;10;
2;England;Shropshire;Isombridge;;W2.57;N52.71;10;
2;England;Shropshire;Jackfield;;W2.47;N52.61;10;
2;England;Shropshire;Kemberton;;W2.40;N52.63;10;
2;England;Shropshire;Kempton;;W2.95;N52.43;10;
2;England;Shropshire;Kenley;;W2.65;N52.59;10;
2;England;Shropshire;Kenwick;;W2.86;N52.86;10;
2;England;Shropshire;Kenwick Park;;W2.87;N52.85;10;
2;England;Shropshire;Ketley;;W2.48;N52.68;10;
2;England;Shropshire;Ketley Bank;;W2.46;N52.68;10;
2;England;Shropshire;Kingsland;;W2.77;N52.69;10;
2;England;Shropshire;Kingslow;;W2.31;N52.57;10;
2;England;Shropshire;Kingsnordley;;W2.34;N52.48;10;
2;England;Shropshire;Kinlet;;W2.42;N52.41;10;
2;England;Shropshire;Kinnerley;;W2.99;N52.77;10;
2;England;Shropshire;Kinton;;W2.93;N52.76;10;
2;England;Shropshire;Knighton;;W2.41;N52.95;10;
2;England;Shropshire;Knockin;;W2.99;N52.79;10;
2;England;Shropshire;Knockin Heath;;W2.96;N52.78;10;
2;England;Shropshire;Knolton;;W2.93;N52.93;10;
2;England;Shropshire;Knowbury;;W2.63;N52.36;10;
2;England;Shropshire;Knowle;;W2.60;N52.35;10;
2;England;Shropshire;Knowlegate;;W2.60;N52.35;10;
2;England;Shropshire;Knowlesands;;W2.41;N52.51;10;
2;England;Shropshire;Kynaston;;W2.96;N52.77;10;
2;England;Shropshire;Kynnersley;;W2.49;N52.74;10;
2;England;Shropshire;Lady Halton;;W2.77;N52.37;10;
2;England;Shropshire;Ladyoak;;W2.94;N52.62;10;
2;England;Shropshire;Ladywell;;W2.75;N52.90;10;
2;England;Shropshire;Ladywood;;W2.48;N52.62;10;
2;England;Shropshire;Lambert's End;;W2.01;N52.51;10;
2;England;Shropshire;Lane's End;;W2.54;N52.41;10;
2;England;Shropshire;Langley;;W2.01;N52.49;10;
2;England;Shropshire;Langley Green;;W2.01;N52.48;10;
2;England;Shropshire;Lawley;;W2.48;N52.66;10;
2;England;Shropshire;Lawton;;W2.72;N52.44;10;
2;England;Shropshire;Lea;;W2.95;N52.49;10;
2;England;Shropshire;Lea;;W2.87;N52.66;10;
2;England;Shropshire;Leamoor Common;;W2.85;N52.46;10;
2;England;Shropshire;Leath, The;;W2.62;N52.49;10;
2;England;Shropshire;Leaton;;W2.57;N52.69;10;
2;England;Shropshire;Leaton;;W2.80;N52.75;10;
2;England;Shropshire;Leaton Heath;;W2.81;N52.75;10;
2;England;Shropshire;Lee;;W2.89;N52.88;10;
2;England;Shropshire;Lee Brockhurst;;W2.68;N52.83;10;
2;England;Shropshire;Leebotwood;;W2.78;N52.57;10;
2;England;Shropshire;Leegomery;;W2.50;N52.70;10;
2;England;Shropshire;Leigh;;W2.99;N52.62;10;
2;England;Shropshire;Leighton;;W2.57;N52.64;10;
2;England;Shropshire;Lighteach;;W2.68;N52.90;10;
2;England;Shropshire;Lightmoor;;W2.48;N52.64;10;
2;England;Shropshire;Lightwood;;W2.53;N52.51;10;
2;England;Shropshire;Lightwood;;W2.46;N52.85;10;
2;England;Shropshire;Lilleshall;;W2.40;N52.73;10;
2;England;Shropshire;Lilyhurst;;W2.38;N52.71;10;
2;England;Shropshire;Linley;;W2.95;N52.52;10;
2;England;Shropshire;Linley;;W2.47;N52.57;10;
2;England;Shropshire;Linley Brook;;W2.47;N52.57;10;
2;England;Shropshire;Linleygreen;;W2.47;N52.57;10;
2;England;Shropshire;Lipley;;W2.40;N52.87;10;
2;England;Shropshire;Little Brampton;;W2.94;N52.42;10;
2;England;Shropshire;Little Common;;W2.89;N52.38;10;
2;England;Shropshire;Little Dawley;;W2.47;N52.65;10;
2;England;Shropshire;Little Drayton;;W2.50;N52.89;10;
2;England;Shropshire;Little London;;W2.73;N52.48;10;
2;England;Shropshire;Little Lyth;;W2.78;N52.64;10;
2;England;Shropshire;Little Ness;;W2.89;N52.76;10;
2;England;Shropshire;Little Ryton;;W2.76;N52.62;10;
2;England;Shropshire;Little Soudley;;W2.43;N52.84;10;
2;England;Shropshire;Little Stretton;;W2.82;N52.51;10;
2;England;Shropshire;Little Sutton;;W2.72;N52.43;10;
2;England;Shropshire;Little Wenlock;;W2.53;N52.65;10;
2;England;Shropshire;Little Worthen;;W2.99;N52.63;10;
2;England;Shropshire;Little Wytheford;;W2.65;N52.76;10;
2;England;Shropshire;Littlegain;;W2.32;N52.56;10;
2;England;Shropshire;Llangollen Canal;;W2.91;N52.89;10;
2;England;Shropshire;Llanllwyd;;W3.19;N52.42;10;
2;England;Shropshire;Llanyblodwel;;W3.12;N52.79;10;
2;England;Shropshire;Llawnt;;W3.13;N52.86;10;
2;England;Shropshire;Llwyn;;W3.06;N52.41;10;
2;England;Shropshire;Llwyn-y-go;;W3.02;N52.78;10;
2;England;Shropshire;Llynclys;;W3.06;N52.80;10;
2;England;Shropshire;Lockleywood;;W2.46;N52.84;10;
2;England;Shropshire;Lodgebank;;W2.60;N52.82;10;
2;England;Shropshire;Lonco Brook;;W2.38;N52.78;10;
2;England;Shropshire;Londonderry;;W2.00;N52.48;10;
2;England;Shropshire;Long Lane;;W2.54;N52.73;10;
2;England;Shropshire;Long Meadowend;;W2.86;N52.43;10;
2;England;Shropshire;Long Oak;;W2.96;N52.80;10;
2;England;Shropshire;Longden;;W2.82;N52.64;10;
2;England;Shropshire;Longden Common;;W2.84;N52.63;10;
2;England;Shropshire;Longdon on Tern;;W2.56;N52.73;10;
2;England;Shropshire;Longford;;W2.41;N52.75;10;
2;England;Shropshire;Longford;;W2.53;N52.89;10;
2;England;Shropshire;Longnor;;W2.75;N52.59;10;
2;England;Shropshire;Longnor Park;;W2.79;N52.59;10;
2;England;Shropshire;Longslow;;W2.52;N52.91;10;
2;England;Shropshire;Longville in the Dale;;W2.69;N52.53;10;
2;England;Shropshire;Loppington;;W2.78;N52.85;10;
2;England;Shropshire;Lostford;;W2.56;N52.87;10;
2;England;Shropshire;Loughton;;W2.57;N52.44;10;
2;England;Shropshire;Low Hill;;W2.11;N52.60;10;
2;England;Shropshire;Low Town;;W2.41;N52.53;10;
2;England;Shropshire;Lowe;;W2.75;N52.86;10;
2;England;Shropshire;Lower Allscot;;W2.39;N52.56;10;
2;England;Shropshire;Lower Beobridge;;W2.32;N52.51;10;
2;England;Shropshire;Lower Bradley;;W2.07;N52.55;10;
2;England;Shropshire;Lower Common;;W2.81;N52.64;10;
2;England;Shropshire;Lower Dinchope;;W2.81;N52.45;10;
2;England;Shropshire;Lower Down;;W2.98;N52.45;10;
2;England;Shropshire;Lower Faintree;;W2.51;N52.48;10;
2;England;Shropshire;Lower Forge;;W2.39;N52.49;10;
2;England;Shropshire;Lower Frankton;;W2.95;N52.87;10;
2;England;Shropshire;Lower Hayton;;W2.73;N52.42;10;
2;England;Shropshire;Lower Hopton;;W2.93;N52.77;10;
2;England;Shropshire;Lower Hordley;;W2.90;N52.85;10;
2;England;Shropshire;Lower Ledwyche;;W2.69;N52.36;10;
2;England;Shropshire;Lower Netchwood;;W2.56;N52.51;10;
2;England;Shropshire;Lower Ridge;;W2.98;N52.88;10;
2;England;Shropshire;Lubberland;;W2.55;N52.39;10;
2;England;Shropshire;Ludford;;W2.72;N52.35;10;
2;England;Shropshire;Ludlow;;W2.72;N52.36;10;
2;England;Shropshire;Ludstone;;W2.29;N52.54;10;
2;England;Shropshire;Lushcott;;W2.66;N52.55;10;
2;England;Shropshire;Lydbury North;;W2.95;N52.46;10;
2;England;Shropshire;Lyde;;W3.02;N52.60;10;
2;England;Shropshire;Lydham;;W2.98;N52.50;10;
2;England;Shropshire;Lynchgate;;W2.92;N52.45;10;
2;England;Shropshire;Lyneal;;W2.83;N52.89;10;
2;England;Shropshire;Lyneal Mill;;W2.81;N52.88;10;
2;England;Shropshire;Lyneal Wood;;W2.81;N52.87;10;
2;England;Shropshire;Lynn;;W2.32;N52.73;10;
2;England;Shropshire;Lythbank;;W2.79;N52.65;10;
2;England;Shropshire;Madeley;;W2.45;N52.63;10;
2;England;Shropshire;Madeleywood;;W2.48;N52.62;10;
2;England;Shropshire;Maesbrook;;W3.03;N52.78;10;
2;England;Shropshire;Maesbury;;W3.04;N52.81;10;
2;England;Shropshire;Maesbury Marsh;;W3.02;N52.81;10;
2;England;Shropshire;Mainstone;;W3.07;N52.47;10;
2;England;Shropshire;Malehurst;;W2.91;N52.64;10;
2;England;Shropshire;Malinslee;;W2.45;N52.66;10;
2;England;Shropshire;Marchamley;;W2.61;N52.85;10;
2;England;Shropshire;Marchamley Wood;;W2.61;N52.87;10;
2;England;Shropshire;Mardu;;W3.09;N52.44;10;
2;England;Shropshire;Mardy;;W3.07;N52.88;10;
2;England;Shropshire;Market Drayton;;W2.49;N52.90;10;
2;England;Shropshire;Marsh Green;;W2.59;N52.72;10;
2;England;Shropshire;Marshbrook;;W2.84;N52.49;10;
2;England;Shropshire;Marton;;W3.06;N52.61;10;
2;England;Shropshire;Marton;;W2.83;N52.80;10;
2;England;Shropshire;Mayer's Green;;W1.98;N52.51;10;
2;England;Shropshire;Meadowley;;W2.50;N52.52;10;
2;England;Shropshire;Meadowtown;;W3.02;N52.60;10;
2;England;Shropshire;Medlicott;;W2.88;N52.54;10;
2;England;Shropshire;Meese;;W2.49;N52.78;10;
2;England;Shropshire;Meeson;;W2.52;N52.77;10;
2;England;Shropshire;Meeson Heath;;W2.52;N52.77;10;
2;England;Shropshire;Melverley;;W2.99;N52.73;10;
2;England;Shropshire;Meole Brace;;W2.77;N52.68;10;
2;England;Shropshire;Meretown;;W2.37;N52.77;10;
2;England;Shropshire;Merridale;;W2.16;N52.58;10;
2;England;Shropshire;Merrington;;W2.78;N52.77;10;
2;England;Shropshire;Merry Hill;;W2.17;N52.57;10;
2;England;Shropshire;Mesty Croft;;W2.01;N52.54;10;
2;England;Shropshire;Mickley;;W2.58;N52.88;10;
2;England;Shropshire;Middlehope;;W2.75;N52.48;10;
2;England;Shropshire;Middleton;;W2.69;N52.38;10;
2;England;Shropshire;Middleton;;W3.02;N52.85;10;
2;England;Shropshire;Middleton Baggot;;W2.56;N52.50;10;
2;England;Shropshire;Middleton Priors;;W2.56;N52.50;10;
2;England;Shropshire;Middleton Scriven;;W2.47;N52.48;10;
2;England;Shropshire;Mile Oak;;W3.04;N52.83;10;
2;England;Shropshire;Milford;;W2.87;N52.78;10;
2;England;Shropshire;Mill Green;;W2.47;N52.84;10;
2;England;Shropshire;Milson;;W2.54;N52.34;10;
2;England;Shropshire;Minsterley;;W2.93;N52.63;10;
2;England;Shropshire;Minton;;W2.84;N52.50;10;
2;England;Shropshire;Mondaytown;;W2.97;N52.65;10;
2;England;Shropshire;Monkhopton;;W2.56;N52.53;10;
2;England;Shropshire;Monkmoor;;W2.72;N52.71;10;
2;England;Shropshire;Monmore Green;;W2.10;N52.57;10;
2;England;Shropshire;Montford;;W2.87;N52.72;10;
2;England;Shropshire;Montford Bridge;;W2.84;N52.72;10;
2;England;Shropshire;Moortown;;W2.57;N52.75;10;
2;England;Shropshire;Mor Brook;;W2.41;N52.49;10;
2;England;Shropshire;Morda;;W3.07;N52.83;10;
2;England;Shropshire;Morda;;W3.12;N52.87;10;
2;England;Shropshire;More;;W2.97;N52.51;10;
2;England;Shropshire;Moreton Corbet;;W2.66;N52.80;10;
2;England;Shropshire;Moreton Say;;W2.56;N52.90;10;
2;England;Shropshire;Moretonwood;;W2.56;N52.90;10;
2;England;Shropshire;Morton;;W3.05;N52.80;10;
2;England;Shropshire;Morton Common;;W3.05;N52.80;10;
2;England;Shropshire;Morton Mill;;W2.63;N52.79;10;
2;England;Shropshire;Morville;;W2.50;N52.54;10;
2;England;Shropshire;Morville Heath;;W2.47;N52.53;10;
2;England;Shropshire;Mose;;W2.36;N52.50;10;
2;England;Shropshire;Moseley;;W2.10;N52.58;10;
2;England;Shropshire;Moston;;W2.65;N52.83;10;
2;England;Shropshire;Mount Pleasant;;W2.75;N52.72;10;
2;England;Shropshire;Moxley;;W2.06;N52.55;10;
2;England;Shropshire;Much Wenlock;;W2.56;N52.58;10;
2;England;Shropshire;Muckleton;;W2.60;N52.78;10;
2;England;Shropshire;Muckley;;W2.53;N52.55;10;
2;England;Shropshire;Muckley Cross;;W2.53;N52.55;10;
2;England;Shropshire;Munslow;;W2.70;N52.47;10;
2;England;Shropshire;Muxton;;W2.43;N52.72;10;
2;England;Shropshire;Myddle;;W2.78;N52.80;10;
2;England;Shropshire;Myddlewood;;W2.81;N52.80;10;
2;England;Shropshire;Mynd;;W2.95;N52.36;10;
2;England;Shropshire;Myndtown;;W2.90;N52.49;10;
2;England;Shropshire;Mytton;;W2.83;N52.74;10;
2;England;Shropshire;Nant y Caws;;W3.07;N52.82;10;
2;England;Shropshire;Nantmawr;;W3.12;N52.80;10;
2;England;Shropshire;Nant-y-gollen;;W3.12;N52.84;10;
2;England;Shropshire;Nash;;W2.58;N52.33;10;
2;England;Shropshire;Nedge Hill;;W2.43;N52.66;10;
2;England;Shropshire;Neen Savage;;W2.48;N52.39;10;
2;England;Shropshire;Neen Sollars;;W2.51;N52.34;10;
2;England;Shropshire;Neenton;;W2.54;N52.47;10;
2;England;Shropshire;Nefod;;W3.04;N52.91;10;
2;England;Shropshire;Nesscliffe;;W2.92;N52.76;10;
2;England;Shropshire;Netherton;;W2.39;N52.43;10;
2;England;Shropshire;New Invention;;W3.04;N52.37;10;
2;England;Shropshire;New Marton;;W2.99;N52.89;10;
2;England;Shropshire;New Town;;W2.04;N52.51;10;
2;England;Shropshire;New Woodhouses;;W2.61;N52.96;10;
2;England;Shropshire;New Works;;W2.50;N52.66;10;
2;England;Shropshire;Newbolds;;W2.10;N52.59;10;
2;England;Shropshire;Newbridge;;W3.04;N52.81;10;
2;England;Shropshire;Newbridge;;W2.16;N52.58;10;
2;England;Shropshire;Newcastle;;W3.11;N52.43;10;
2;England;Shropshire;Newington;;W2.84;N52.44;10;
2;England;Shropshire;Newnes;;W2.92;N52.90;10;
2;England;Shropshire;Newport;;W2.38;N52.76;10;
2;England;Shropshire;Newstreet Lane;;W2.56;N52.92;10;
2;England;Shropshire;Newton;;W1.95;N52.53;10;
2;England;Shropshire;Newton;;W2.39;N52.57;10;
2;England;Shropshire;Newton;;W2.86;N52.90;10;
2;England;Shropshire;Newton on the Hill;;W2.77;N52.80;10;
2;England;Shropshire;Newtown;;W2.56;N52.59;10;
2;England;Shropshire;Newtown;;W2.86;N52.79;10;
2;England;Shropshire;Newtown;;W2.77;N52.87;10;
2;England;Shropshire;Nib Heath;;W2.87;N52.75;10;
2;England;Shropshire;Nobold;;W2.78;N52.68;10;
2;England;Shropshire;Noneley;;W2.77;N52.83;10;
2;England;Shropshire;Norbury;;W2.94;N52.52;10;
2;England;Shropshire;Nordley;;W2.45;N52.56;10;
2;England;Shropshire;Northwood;;W2.80;N52.89;10;
2;England;Shropshire;Norton;;W2.79;N52.42;10;
2;England;Shropshire;Norton;;W2.41;N52.59;10;
2;England;Shropshire;Norton;;W2.65;N52.67;10;
2;England;Shropshire;Norton in Hales;;W2.44;N52.93;10;
2;England;Shropshire;Nox;;W2.87;N52.68;10;
2;England;Shropshire;Oakengates;;W2.44;N52.69;10;
2;England;Shropshire;Oakham;;W2.06;N52.49;10;
2;England;Shropshire;Oaks;;W2.85;N52.63;10;
2;England;Shropshire;Obley;;W3.00;N52.38;10;
2;England;Shropshire;Ocker Hill;;W2.04;N52.53;10;
2;England;Shropshire;Old Coppice;;W2.79;N52.65;10;
2;England;Shropshire;Old Fallings;;W2.11;N52.60;10;
2;England;Shropshire;Old Field;;W2.75;N52.38;10;
2;England;Shropshire;Old Hill;;W2.07;N52.47;10;
2;England;Shropshire;Old Marton;;W2.98;N52.89;10;
2;England;Shropshire;Old Park;;W2.47;N52.67;10;
2;England;Shropshire;Old Woodhouses;;W2.62;N52.97;10;
2;England;Shropshire;Oldbury;;W2.03;N52.49;10;
2;England;Shropshire;Oldbury;;W2.44;N52.51;10;
2;England;Shropshire;Oldfield;;W2.48;N52.48;10;
2;England;Shropshire;Oldington;;W2.39;N52.57;10;
2;England;Shropshire;Ollerton;;W2.53;N52.82;10;
2;England;Shropshire;Ollerton Lane;;W2.52;N52.82;10;
2;England;Shropshire;Onibury;;W2.80;N52.40;10;
2;England;Shropshire;Onneley;;W2.37;N52.98;10;
2;England;Shropshire;Onny;;W2.82;N52.41;10;
2;England;Shropshire;Oreton;;W2.51;N52.41;10;
2;England;Shropshire;Osbaston;;W2.60;N52.75;10;
2;England;Shropshire;Osbaston;;W3.00;N52.79;10;
2;England;Shropshire;Oswestry (Croeswallt);;W3.05;N52.85;10;
2;England;Shropshire;Oteley;;W2.87;N52.90;10;
2;England;Shropshire;Overs;;W2.90;N52.55;10;
2;England;Shropshire;Overton;;W2.73;N52.34;10;
2;England;Shropshire;Oxley;;W2.13;N52.60;10;
2;England;Shropshire;Paddolgreen;;W2.74;N52.88;10;
2;England;Shropshire;Pant;;W3.08;N52.79;10;
2;England;Shropshire;Pant-glas;;W3.08;N52.88;10;
2;England;Shropshire;Papermill Bank;;W2.66;N52.82;10;
2;England;Shropshire;Park Hall;;W3.04;N52.87;10;
2;England;Shropshire;Park Village;;W2.11;N52.59;10;
2;England;Shropshire;Parkfield;;W2.11;N52.56;10;
2;England;Shropshire;Patton;;W2.62;N52.54;10;
2;England;Shropshire;Pave Lane;;W2.37;N52.74;10;
2;England;Shropshire;Peaton;;W2.69;N52.45;10;
2;England;Shropshire;Peatonstrand;;W2.69;N52.45;10;
2;England;Shropshire;Pedlar's Rest;;W2.76;N52.45;10;
2;England;Shropshire;Pendeford;;W2.16;N52.61;10;
2;England;Shropshire;Penley;;W2.87;N52.94;10;
2;England;Shropshire;Penn;;W2.16;N52.56;10;
2;England;Shropshire;Pennerley;;W2.96;N52.58;10;
2;England;Shropshire;Pentiken;;W3.16;N52.43;10;
2;England;Shropshire;Pentirvin;;W2.99;N52.60;10;
2;England;Shropshire;Pentre;;W2.94;N52.74;10;
2;England;Shropshire;Pentre;;W3.14;N52.82;10;
2;England;Shropshire;Pentre;;W3.01;N52.92;10;
2;England;Shropshire;Pentre Hodre;;W3.00;N52.37;10;
2;England;Shropshire;Pentre-cefn;;W3.14;N52.83;10;
2;England;Shropshire;Pentre-clawdd;;W3.05;N52.88;10;
2;England;Shropshire;Pentre-coed;;W2.96;N52.93;10;
2;England;Shropshire;Pentreheyling;;W3.12;N52.52;10;
2;England;Shropshire;Pentre-newydd;;W3.10;N52.91;10;
2;England;Shropshire;Pen-y-Bryn;;W3.01;N52.93;10;
2;England;Shropshire;Pen-y-coed;;W3.08;N52.79;10;
2;England;Shropshire;Pen-y-wern;;W3.03;N52.39;10;
2;England;Shropshire;Perry;;W2.90;N52.79;10;
2;England;Shropshire;Perthy;;W2.95;N52.89;10;
2;England;Shropshire;Petton;;W2.84;N52.82;10;
2;England;Shropshire;Picklescott;;W2.84;N52.58;10;
2;England;Shropshire;Pickstock;;W2.41;N52.80;10;
2;England;Shropshire;Pinstones;;W2.76;N52.46;10;
2;England;Shropshire;Pitchford;;W2.69;N52.62;10;
2;England;Shropshire;Pixley;;W2.47;N52.82;10;
2;England;Shropshire;Plaish;;W2.70;N52.56;10;
2;England;Shropshire;Plasau;;W2.96;N52.77;10;
2;England;Shropshire;Platt Lane;;W2.73;N52.91;10;
2;England;Shropshire;Plealey;;W2.85;N52.64;10;
2;England;Shropshire;Plowden;;W2.91;N52.47;10;
2;England;Shropshire;Ploxgreen;;W2.94;N52.62;10;
2;England;Shropshire;Pontesbury;;W2.90;N52.64;10;
2;England;Shropshire;Pontesbury Hill;;W2.90;N52.63;10;
2;England;Shropshire;Pontesford;;W2.87;N52.64;10;
2;England;Shropshire;Pont-Faen;;W3.08;N52.91;10;
2;England;Shropshire;Ponthen;;W2.99;N52.74;10;
2;England;Shropshire;Pont-y-blew;;W3.02;N52.93;10;
2;England;Shropshire;Poolhead;;W2.75;N52.88;10;
2;England;Shropshire;Porthill;;W2.78;N52.70;10;
2;England;Shropshire;Porth-y-waen;;W3.09;N52.79;10;
2;England;Shropshire;Portobello;;W2.07;N52.58;10;
2;England;Shropshire;Portway;;W2.04;N52.49;10;
2;England;Shropshire;Posenhall;;W2.51;N52.60;10;
2;England;Shropshire;Pound Green;;W2.36;N52.39;10;
2;England;Shropshire;Poynton;;W2.63;N52.74;10;
2;England;Shropshire;Poynton Green;;W2.65;N52.75;10;
2;England;Shropshire;Prees;;W2.67;N52.89;10;
2;England;Shropshire;Prees Green;;W2.65;N52.87;10;
2;England;Shropshire;Prees Heath;;W2.67;N52.92;10;
2;England;Shropshire;Prees Higher Heath;;W2.65;N52.91;10;
2;England;Shropshire;Prees Lower Heath;;W2.64;N52.88;10;
2;England;Shropshire;Prees Wood;;W2.65;N52.89;10;
2;England;Shropshire;Preesgweene;;W3.05;N52.90;10;
2;England;Shropshire;Preeshenlle;;W3.04;N52.89;10;
2;England;Shropshire;Prescott;;W2.50;N52.42;10;
2;England;Shropshire;Prescott;;W2.86;N52.78;10;
2;England;Shropshire;Presthope;;W2.62;N52.56;10;
2;England;Shropshire;Preston;;W2.71;N52.69;10;
2;England;Shropshire;Preston Brockhurst;;W2.69;N52.81;10;
2;England;Shropshire;Preston Gubbals;;W2.75;N52.76;10;
2;England;Shropshire;Preston Montford;;W2.84;N52.72;10;
2;England;Shropshire;Preston upon the Weald Moors;;W2.47;N52.73;10;
2;England;Shropshire;Priest Weston;;W3.04;N52.56;10;
2;England;Shropshire;Priestfield;;W2.10;N52.57;10;
2;England;Shropshire;Princes End;;W2.07;N52.53;10;
2;England;Shropshire;Priors Halton;;W2.75;N52.37;10;
2;England;Shropshire;Priorslee;;W2.43;N52.68;10;
2;England;Shropshire;Puleston;;W2.40;N52.79;10;
2;England;Shropshire;Pulley;;W2.77;N52.67;10;
2;England;Shropshire;Pulverbatch;;W2.85;N52.61;10;
2;England;Shropshire;Purlogue;;W3.05;N52.37;10;
2;England;Shropshire;Purslow;;W2.94;N52.41;10;
2;England;Shropshire;Quabbs;;W3.17;N52.41;10;
2;England;Shropshire;Quatford;;W2.39;N52.50;10;
2;England;Shropshire;Quatt;;W2.36;N52.48;10;
2;England;Shropshire;Queen's Head;;W2.98;N52.82;10;
2;England;Shropshire;Quina Brook;;W2.71;N52.89;10;
2;England;Shropshire;Radlith;;W2.87;N52.63;10;
2;England;Shropshire;Radmoor;;W2.56;N52.81;10;
2;England;Shropshire;Ragdon;;W2.81;N52.51;10;
2;England;Shropshire;Ratlinghope;;W2.88;N52.55;10;
2;England;Shropshire;Rea;;W2.49;N52.41;10;
2;England;Shropshire;Rea Brook;;W2.97;N52.63;10;
2;England;Shropshire;Reabrook;;W2.94;N52.63;10;
2;England;Shropshire;Red Lake;;W2.47;N52.68;10;
2;England;Shropshire;Redhill;;W2.80;N52.67;10;
2;England;Shropshire;Redhill;;W2.40;N52.68;10;
2;England;Shropshire;Redhill;;W2.43;N52.69;10;
2;England;Shropshire;Rednal;;W2.95;N52.84;10;
2;England;Shropshire;Redwith;;W3.04;N52.80;10;
2;England;Shropshire;Renshaw Wood;;W2.25;N52.65;10;
2;England;Shropshire;Rhewl;;W3.04;N52.89;10;
2;England;Shropshire;Rhewl;;W2.95;N52.94;10;
2;England;Shropshire;Rhiews;;W2.55;N52.92;10;
2;England;Shropshire;Rhoswiel;;W3.05;N52.91;10;
2;England;Shropshire;Rhosygadfa;;W3.01;N52.89;10;
2;England;Shropshire;Rhydycroesau;;W3.13;N52.86;10;
2;England;Shropshire;Rhyn;;W3.04;N52.92;10;
2;England;Shropshire;Ridgway;;W2.89;N52.46;10;
2;England;Shropshire;Rindleford;;W2.39;N52.55;10;
2;England;Shropshire;Rockgreen;;W2.70;N52.37;10;
2;England;Shropshire;Rockhill;;W3.05;N52.40;10;
2;England;Shropshire;Roden;;W2.63;N52.74;10;
2;England;Shropshire;Roden;;W2.67;N52.84;10;
2;England;Shropshire;Rodington;;W2.62;N52.72;10;
2;England;Shropshire;Rodington Heath;;W2.63;N52.72;10;
2;England;Shropshire;Rodway;;W2.50;N52.75;10;
2;England;Shropshire;Rondlay;;W2.44;N52.66;10;
2;England;Shropshire;Rood End;;W2.00;N52.49;10;
2;England;Shropshire;Rorrington;;W3.03;N52.59;10;
2;England;Shropshire;Rosehill;;W2.50;N52.86;10;
2;England;Shropshire;Roughton;;W2.37;N52.54;10;
2;England;Shropshire;Round Oak;;W2.89;N52.45;10;
2;England;Shropshire;Round's Green;;W2.03;N52.49;10;
2;England;Shropshire;Rowley;;W3.03;N52.64;10;
2;England;Shropshire;Rowley Regis;;W2.06;N52.48;10;
2;England;Shropshire;Rowton;;W2.94;N52.70;10;
2;England;Shropshire;Rowton;;W2.57;N52.76;10;
2;England;Shropshire;Ruckley;;W2.69;N52.59;10;
2;England;Shropshire;Rudge;;W2.28;N52.57;10;
2;England;Shropshire;Rudge Heath;;W2.31;N52.55;10;
2;England;Shropshire;Ruewood;;W2.75;N52.83;10;
2;England;Shropshire;Rushbury;;W2.72;N52.51;10;
2;England;Shropshire;Rushmoor;;W2.57;N52.71;10;
2;England;Shropshire;Rushton;;W2.59;N52.66;10;
2;England;Shropshire;Ruthall;;W2.60;N52.49;10;
2;England;Shropshire;Ruyton-XI-Towns;;W2.90;N52.79;10;
2;England;Shropshire;Ryebank;;W2.72;N52.87;10;
2;England;Shropshire;Ryton;;W2.35;N52.61;10;
2;England;Shropshire;Saltershill;;W2.53;N52.84;10;
2;England;Shropshire;Sambrook;;W2.43;N52.81;10;
2;England;Shropshire;Sandford;;W2.98;N52.80;10;
2;England;Shropshire;Sandford;;W2.62;N52.90;10;
2;England;Shropshire;Sansaw Heath;;W2.72;N52.79;10;
2;England;Shropshire;Sascott;;W2.85;N52.69;10;
2;England;Shropshire;Scotlands;;W2.10;N52.60;10;
2;England;Shropshire;Seifton;;W2.76;N52.44;10;
2;England;Shropshire;Selattyn;;W3.10;N52.88;10;
2;England;Shropshire;Severn;;W2.68;N52.67;10;
2;England;Shropshire;Shackerley;;W2.28;N52.65;10;
2;England;Shropshire;Shakeford;;W2.49;N52.84;10;
2;England;Shropshire;Shawbank;;W2.79;N52.44;10;
2;England;Shropshire;Shawbirch;;W2.53;N52.71;10;
2;England;Shropshire;Shawbury;;W2.66;N52.78;10;
2;England;Shropshire;Sheet;;W2.69;N52.36;10;
2;England;Shropshire;Sheinton;;W2.57;N52.62;10;
2;England;Shropshire;Shelderton;;W2.88;N52.38;10;
2;England;Shropshire;Shelton;;W2.80;N52.71;10;
2;England;Shropshire;Shelve;;W2.99;N52.57;10;
2;England;Shropshire;Sherriffhales;;W2.37;N52.70;10;
2;England;Shropshire;Shifnal;;W2.38;N52.66;10;
2;England;Shropshire;Shipley;;W2.29;N52.55;10;
2;England;Shropshire;Shipton;;W2.64;N52.51;10;
2;England;Shropshire;Shirlett;;W2.50;N52.57;10;
2;England;Shropshire;Shoot Hill;;W2.87;N52.70;10;
2;England;Shropshire;Shorthill;;W2.85;N52.66;10;
2;England;Shropshire;Shotatton;;W2.95;N52.79;10;
2;England;Shropshire;Shrawardine;;W2.90;N52.72;10;
2;England;Shropshire;Shrewsbury;;W2.75;N52.70;10;
2;England;Shropshire;Shropshire Union Canal;;W2.94;N52.87;10;
2;England;Shropshire;Shropshire Union Canal;;W2.13;N52.59;10;
2;England;Shropshire;Sibdon Carwood;;W2.86;N52.44;10;
2;England;Shropshire;Sidbury;;W2.47;N52.46;10;
2;England;Shropshire;Silvington;;W2.56;N52.40;10;
2;England;Shropshire;Sleap;;W2.77;N52.82;10;
2;England;Shropshire;Sleapford;;W2.54;N52.73;10;
2;England;Shropshire;Smethcott;;W2.81;N52.58;10;
2;England;Shropshire;Smethwick;;W1.97;N52.48;10;
2;England;Shropshire;Smithies, The;;W2.48;N52.57;10;
2;England;Shropshire;Snailbeach;;W2.93;N52.61;10;
2;England;Shropshire;Snead;;W3.01;N52.52;10;
2;England;Shropshire;Snedshill;;W2.44;N52.67;10;
2;England;Shropshire;Snitton;;W2.66;N52.37;10;
2;England;Shropshire;Snittongate;;W2.64;N52.37;10;
2;England;Shropshire;Sodylt Bank;;W2.98;N52.94;10;
2;England;Shropshire;Soho;;W1.95;N52.49;10;
2;England;Shropshire;Somerwood;;W2.65;N52.72;10;
2;England;Shropshire;Soudley;;W2.78;N52.51;10;
2;England;Shropshire;Soudley;;W2.41;N52.84;10;
2;England;Shropshire;Soulton Brook;;W2.67;N52.91;10;
2;England;Shropshire;Spoonleygate;;W2.29;N52.56;10;
2;England;Shropshire;Spring Gdns;;W2.74;N52.71;10;
2;England;Shropshire;Springfield;;W2.06;N52.49;10;
2;England;Shropshire;Springfield;;W2.13;N52.58;10;
2;England;Shropshire;Spunhill;;W2.87;N52.89;10;
2;England;Shropshire;Spurtree;;W2.58;N52.31;10;
2;England;Shropshire;St George's;;W2.44;N52.68;10;
2;England;Shropshire;St Martin's;;W3.01;N52.91;10;
2;England;Shropshire;St Martin's Moor;;W3.02;N52.90;10;
2;England;Shropshire;Stableford;;W2.37;N52.57;10;
2;England;Shropshire;Stafford Park;;W2.43;N52.66;10;
2;England;Shropshire;Staffordshire and Worcestershire Canal;;W2.15;N52.59;10;
2;England;Shropshire;Standford Bridge;;W2.44;N52.81;10;
2;England;Shropshire;Stanford;;W2.99;N52.70;10;
2;England;Shropshire;Stanley;;W2.36;N52.44;10;
2;England;Shropshire;Stanley;;W2.47;N52.45;10;
2;England;Shropshire;Stanley Green;;W2.71;N52.91;10;
2;England;Shropshire;Stanlow;;W2.31;N52.58;10;
2;England;Shropshire;Stanmore;;W2.38;N52.52;10;
2;England;Shropshire;Stanton Lacy;;W2.75;N52.39;10;
2;England;Shropshire;Stanton Long;;W2.63;N52.50;10;
2;England;Shropshire;Stanton upon Hine Heath;;W2.65;N52.81;10;
2;England;Shropshire;Stanwardine in the Fields;;W2.87;N52.81;10;
2;England;Shropshire;Stanwardine in the Wood;;W2.86;N52.83;10;
2;England;Shropshire;Stapleton;;W2.79;N52.63;10;
2;England;Shropshire;Steel Heath;;W2.68;N52.91;10;
2;England;Shropshire;Steeraway;;W2.51;N52.67;10;
2;England;Shropshire;Steventon;;W2.70;N52.35;10;
2;England;Shropshire;Stiperstones;;W2.94;N52.59;10;
2;England;Shropshire;Stirchley;;W2.44;N52.65;10;
2;England;Shropshire;Stockton;;W2.41;N52.58;10;
2;England;Shropshire;Stockton;;W2.34;N52.74;10;
2;England;Shropshire;Stockwell End;;W2.17;N52.59;10;
2;England;Shropshire;Stoke Heath;;W2.52;N52.85;10;
2;England;Shropshire;Stoke on Tern;;W2.53;N52.83;10;
2;England;Shropshire;Stoke St Milborough;;W2.64;N52.43;10;
2;England;Shropshire;Stokegorse;;W2.64;N52.44;10;
2;England;Shropshire;Stokesay;;W2.83;N52.42;10;
2;England;Shropshire;Stone Cross;;W2.00;N52.54;10;
2;England;Shropshire;Stoneacton;;W2.73;N52.53;10;
2;England;Shropshire;Stoney Stretton;;W2.91;N52.67;10;
2;England;Shropshire;Stoneylane;;W2.66;N52.38;10;
2;England;Shropshire;Stottesdon;;W2.48;N52.43;10;
2;England;Shropshire;Stow Lawn;;W2.08;N52.57;10;
2;England;Shropshire;Stowe;;W3.01;N52.35;10;
2;England;Shropshire;Street Dinas;;W2.99;N52.93;10;
2;England;Shropshire;Strefford;;W2.82;N52.46;10;
2;England;Shropshire;Stretton Westwood;;W2.60;N52.57;10;
2;England;Shropshire;Styche Hall;;W2.53;N52.91;10;
2;England;Shropshire;Summer Hill;;W2.06;N52.53;10;
2;England;Shropshire;Summerhill;;W2.41;N52.76;10;
2;England;Shropshire;Sutton;;W2.41;N52.47;10;
2;England;Shropshire;Sutton;;W2.74;N52.68;10;
2;England;Shropshire;Sutton;;W2.96;N52.83;10;
2;England;Shropshire;Sutton;;W2.50;N52.87;10;
2;England;Shropshire;Sutton Hall;;W2.42;N52.60;10;
2;England;Shropshire;Sutton Hill;;W2.44;N52.62;10;
2;England;Shropshire;Sutton Maddock;;W2.41;N52.60;10;
2;England;Shropshire;Swan Village;;W2.03;N52.52;10;
2;England;Shropshire;Sytch Ho Green;;W2.32;N52.50;10;
2;England;Shropshire;Sytch Lane;;W2.56;N52.77;10;
2;England;Shropshire;Tanat;;W3.15;N52.80;10;
2;England;Shropshire;Tarts Hill;;W2.84;N52.93;10;
2;England;Shropshire;Tasley;;W2.45;N52.54;10;
2;England;Shropshire;Tat Bank;;W2.01;N52.49;10;
2;England;Shropshire;Tedsmore;;W2.93;N52.81;10;
2;England;Shropshire;Telford;;W2.45;N52.67;10;
2;England;Shropshire;Teme;;W3.03;N52.34;10;
2;England;Shropshire;Tern;;W2.53;N52.78;10;
2;England;Shropshire;Ternhill;;W2.55;N52.88;10;
2;England;Shropshire;Tetchill;;W2.90;N52.88;10;
2;England;Shropshire;Tettenhall;;W2.17;N52.59;10;
2;England;Shropshire;Tettenhall Wood;;W2.19;N52.58;10;
2;England;Shropshire;The Common;;W2.49;N52.83;10;
2;England;Shropshire;The Four Alls;;W2.47;N52.87;10;
2;England;Shropshire;The Hem;;W2.41;N52.64;10;
2;England;Shropshire;The Humbers;;W2.46;N52.72;10;
2;England;Shropshire;The Knowle;;W2.06;N52.48;10;
2;England;Shropshire;The Lunt;;W2.06;N52.56;10;
2;England;Shropshire;The Marsh;;W2.46;N52.82;10;
2;England;Shropshire;The Nook;;W2.49;N52.81;10;
2;England;Shropshire;The Nook;;W2.65;N52.86;10;
2;England;Shropshire;The Quarry;;W2.77;N52.70;10;
2;England;Shropshire;The Rock;;W2.47;N52.67;10;
2;England;Shropshire;The Sydnall;;W2.47;N52.86;10;
2;England;Shropshire;The Waterwheel;;W2.94;N52.61;10;
2;England;Shropshire;The Wood;;W3.03;N52.79;10;
2;England;Shropshire;The Wood;;W2.81;N52.84;10;
2;England;Shropshire;The Woods;;W2.00;N52.55;10;
2;England;Shropshire;The Wyke;;W2.40;N52.65;10;
2;England;Shropshire;Three Ashes;;W2.92;N52.39;10;
2;England;Shropshire;Tibberton;;W2.47;N52.77;10;
2;England;Shropshire;Ticklerton;;W2.76;N52.50;10;
2;England;Shropshire;Tilley;;W2.74;N52.83;10;
2;England;Shropshire;Tilley Green;;W2.72;N52.83;10;
2;England;Shropshire;Tilsop;;W2.57;N52.34;10;
2;England;Shropshire;Tilstock;;W2.68;N52.92;10;
2;England;Shropshire;Tipton;;W2.07;N52.52;10;
2;England;Shropshire;Tipton Green;;W2.07;N52.52;10;
2;England;Shropshire;Titterhill;;W2.73;N52.41;10;
2;England;Shropshire;Tividale;;W2.06;N52.50;10;
2;England;Shropshire;Toll End;;W2.04;N52.52;10;
2;England;Shropshire;Tong;;W2.31;N52.66;10;
2;England;Shropshire;Tong Forge;;W2.32;N52.66;10;
2;England;Shropshire;Tong Norton;;W2.31;N52.66;10;
2;England;Shropshire;Totterton;;W2.94;N52.47;10;
2;England;Shropshire;Town Centre;;W2.45;N52.66;10;
2;England;Shropshire;Town Park;;W2.45;N52.66;10;
2;England;Shropshire;Treflach;;W3.09;N52.81;10;
2;England;Shropshire;Trefonen;;W3.11;N52.82;10;
2;England;Shropshire;Trench;;W2.46;N52.70;10;
2;England;Shropshire;Tuckhill;;W2.32;N52.48;10;
2;England;Shropshire;Tugford;;W2.66;N52.47;10;
2;England;Shropshire;Turfmoor;;W2.96;N52.75;10;
2;England;Shropshire;Turleygreen;;W2.35;N52.46;10;
2;England;Shropshire;Tweedale;;W2.44;N52.63;10;
2;England;Shropshire;Twitchen;;W2.92;N52.40;10;
2;England;Shropshire;Twyford;;W2.98;N52.82;10;
2;England;Shropshire;Tyn-y-coed;;W3.11;N52.84;10;
2;England;Shropshire;Uckington;;W2.63;N52.67;10;
2;England;Shropshire;Uffington;;W2.71;N52.71;10;
2;England;Shropshire;Underdale;;W2.74;N52.71;10;
2;England;Shropshire;Underton;;W2.47;N52.52;10;
2;England;Shropshire;Upper Affcot;;W2.82;N52.46;10;
2;England;Shropshire;Upper Astley;;W2.69;N52.75;10;
2;England;Shropshire;Upper Aston;;W2.28;N52.53;10;
2;England;Shropshire;Upper Battlefield;;W2.72;N52.74;10;
2;England;Shropshire;Upper College;;W2.64;N52.90;10;
2;England;Shropshire;Upper Cound;;W2.66;N52.63;10;
2;England;Shropshire;Upper Dinchope;;W2.81;N52.44;10;
2;England;Shropshire;Upper Farmcote;;W2.34;N52.51;10;
2;England;Shropshire;Upper Forge;;W2.41;N52.49;10;
2;England;Shropshire;Upper Hayton;;W2.72;N52.42;10;
2;England;Shropshire;Upper Hengoed;;W3.07;N52.89;10;
2;England;Shropshire;Upper Ludstone;;W2.29;N52.55;10;
2;England;Shropshire;Upper Netchwood;;W2.59;N52.52;10;
2;England;Shropshire;Upper Treverward;;W3.07;N52.39;10;
2;England;Shropshire;Upper Wigginton;;W2.99;N52.90;10;
2;England;Shropshire;Uppington;;W2.59;N52.67;10;
2;England;Shropshire;Uppington;;W2.60;N52.67;10;
2;England;Shropshire;Uppper Longwood;;W2.59;N52.65;10;
2;England;Shropshire;Upton Cressett;;W2.51;N52.52;10;
2;England;Shropshire;Upton Magna;;W2.66;N52.70;10;
2;England;Shropshire;Valeswood;;W2.90;N52.77;10;
2;England;Shropshire;Vennington;;W2.99;N52.67;10;
2;England;Shropshire;Vernolds Common;;W2.78;N52.41;10;
2;England;Shropshire;Vron Gate;;W3.00;N52.67;10;
2;England;Shropshire;Wagbeach;;W2.94;N52.61;10;
2;England;Shropshire;Walcot;;W2.60;N52.69;10;
2;England;Shropshire;Walford;;W2.84;N52.77;10;
2;England;Shropshire;Walford Heath;;W2.81;N52.76;10;
2;England;Shropshire;Walkmill;;W2.93;N52.52;10;
2;England;Shropshire;Walkmills;;W2.79;N52.58;10;
2;England;Shropshire;Wall Bank;;W2.73;N52.52;10;
2;England;Shropshire;Wall under Heywood;;W2.73;N52.52;10;
2;England;Shropshire;Walton;;W2.79;N52.40;10;
2;England;Shropshire;Walton;;W2.62;N52.75;10;
2;England;Shropshire;Warley Woods;;W1.98;N52.47;10;
2;England;Shropshire;Waterloo;;W2.75;N52.89;10;
2;England;Shropshire;Waters Upton;;W2.54;N52.76;10;
2;England;Shropshire;Waterside;;W2.56;N52.76;10;
2;England;Shropshire;Wattlesborough Heath;;W2.96;N52.69;10;
2;England;Shropshire;Waymills;;W2.67;N52.96;10;
2;England;Shropshire;Weaver;;W2.55;N52.91;10;
2;England;Shropshire;Webscott;;W2.78;N52.79;10;
2;England;Shropshire;Wednesbury;;W2.03;N52.55;10;
2;England;Shropshire;Wednesbury Oak;;W2.06;N52.54;10;
2;England;Shropshire;Wednesfield;;W2.09;N52.59;10;
2;England;Shropshire;Weirbrook;;W2.98;N52.80;10;
2;England;Shropshire;Wellington;;W2.53;N52.69;10;
2;England;Shropshire;Welsh End;;W2.73;N52.91;10;
2;England;Shropshire;Welsh Frankton;;W2.95;N52.88;10;
2;England;Shropshire;Welshampton;;W2.84;N52.90;10;
2;England;Shropshire;Wem;;W2.72;N52.85;10;
2;England;Shropshire;Wentnor;;W2.91;N52.52;10;
2;England;Shropshire;Wern;;W3.08;N52.89;10;
2;England;Shropshire;Wern ddu;;W3.14;N52.82;10;
2;England;Shropshire;Wernlas;;W3.02;N52.77;10;
2;England;Shropshire;West Bromwich;;W2.01;N52.52;10;
2;England;Shropshire;West Felton;;W2.98;N52.81;10;
2;England;Shropshire;West Onny;;W2.99;N52.54;10;
2;England;Shropshire;Westbury;;W2.96;N52.67;10;
2;England;Shropshire;Westcott;;W2.88;N52.60;10;
2;England;Shropshire;Westcroft;;W2.10;N52.61;10;
2;England;Shropshire;Westhope;;W2.78;N52.46;10;
2;England;Shropshire;Westley;;W2.94;N52.64;10;
2;England;Shropshire;Weston;;W2.60;N52.52;10;
2;England;Shropshire;Weston;;W3.05;N52.83;10;
2;England;Shropshire;Weston;;W2.65;N52.84;10;
2;England;Shropshire;Weston Heath;;W2.34;N52.71;10;
2;England;Shropshire;Weston Lullingfields;;W2.86;N52.81;10;
2;England;Shropshire;Weston Rhyn;;W3.07;N52.90;10;
2;England;Shropshire;Westoncommon;;W2.86;N52.82;10;
2;England;Shropshire;Westonwharf;;W2.86;N52.81;10;
2;England;Shropshire;Wettles;;W2.84;N52.46;10;
2;England;Shropshire;Whatmore;;W2.57;N52.33;10;
2;England;Shropshire;Wheathall;;W2.75;N52.62;10;
2;England;Shropshire;Wheathill;;W2.56;N52.43;10;
2;England;Shropshire;Whettleton;;W2.82;N52.43;10;
2;England;Shropshire;Whiston Cross;;W2.31;N52.62;10;
2;England;Shropshire;Whitchurch;;W2.68;N52.96;10;
2;England;Shropshire;Whitcot;;W2.92;N52.51;10;
2;England;Shropshire;Whitcott Keysett;;W3.07;N52.43;10;
2;England;Shropshire;White Grit;;W3.01;N52.57;10;
2;England;Shropshire;Whitehaven;;W3.09;N52.80;10;
2;England;Shropshire;Whiteheath Gate;;W2.04;N52.48;10;
2;England;Shropshire;Whittingslow;;W2.84;N52.48;10;
2;England;Shropshire;Whittington;;W3.01;N52.87;10;
2;England;Shropshire;Whitton;;W2.63;N52.34;10;
2;England;Shropshire;Whittytree;;W2.82;N52.39;10;
2;England;Shropshire;Whixall;;W2.72;N52.90;10;
2;England;Shropshire;Wigginton;;W2.99;N52.90;10;
2;England;Shropshire;Wigmarsh;;W2.93;N52.81;10;
2;England;Shropshire;Wilcott;;W2.93;N52.75;10;
2;England;Shropshire;Wilcott Marsh;;W2.92;N52.74;10;
2;England;Shropshire;Willaston;;W2.61;N52.91;10;
2;England;Shropshire;Willey;;W2.48;N52.58;10;
2;England;Shropshire;Willstone;;W2.75;N52.55;10;
2;England;Shropshire;Winnington Green;;W3.02;N52.69;10;
2;England;Shropshire;Wistanstow;;W2.84;N52.46;10;
2;England;Shropshire;Wistanswick;;W2.50;N52.84;10;
2;England;Shropshire;Withington;;W2.63;N52.71;10;
2;England;Shropshire;Wixhill;;W2.65;N52.84;10;
2;England;Shropshire;Wollaston;;W3.00;N52.70;10;
2;England;Shropshire;Wollerton;;W2.56;N52.86;10;
2;England;Shropshire;Wollerton Wood;;W2.58;N52.87;10;
2;England;Shropshire;Wolverley;;W2.78;N52.87;10;
2;England;Shropshire;Wolverton;;W2.79;N52.47;10;
2;England;Shropshire;Wombridge;;W2.46;N52.69;10;
2;England;Shropshire;Wood End;;W2.09;N52.60;10;
2;England;Shropshire;Wood Green;;W2.01;N52.56;10;
2;England;Shropshire;Wood Hayes;;W2.09;N52.60;10;
2;England;Shropshire;Wood Lane;;W2.87;N52.88;10;
2;England;Shropshire;Woodbank;;W2.61;N52.46;10;
2;England;Shropshire;Woodcote;;W2.35;N52.73;10;
2;England;Shropshire;Woodhill;;W2.39;N52.45;10;
2;England;Shropshire;Woodlane;;W2.46;N52.83;10;
2;England;Shropshire;Woodseaves;;W2.47;N52.87;10;
2;England;Shropshire;Woodside;;W3.01;N52.41;10;
2;England;Shropshire;Woodside;;W2.47;N52.63;10;
2;England;Shropshire;Woolstaston;;W2.81;N52.57;10;
2;England;Shropshire;Woolston;;W2.85;N52.47;10;
2;England;Shropshire;Woolston;;W3.01;N52.80;10;
2;England;Shropshire;Woore;;W2.40;N52.97;10;
2;England;Shropshire;Wooton;;W2.63;N52.35;10;
2;England;Shropshire;Wooton;;W2.35;N52.49;10;
2;England;Shropshire;Wootton;;W2.80;N52.39;10;
2;England;Shropshire;Wootton;;W2.98;N52.83;10;
2;England;Shropshire;Worfe;;W2.31;N52.65;10;
2;England;Shropshire;Worfield;;W2.37;N52.55;10;
2;England;Shropshire;Worthen;;W3.00;N52.62;10;
2;England;Shropshire;Wotherton;;W3.06;N52.59;10;
2;England;Shropshire;Woundale;;W2.34;N52.52;10;
2;England;Shropshire;Wrentnall;;W2.85;N52.62;10;
2;England;Shropshire;Wrickton;;W2.53;N52.46;10;
2;England;Shropshire;Wrockwardine;;W2.56;N52.69;10;
2;England;Shropshire;Wrockwardine Wood;;W2.44;N52.69;10;
2;England;Shropshire;Wroxeter;;W2.65;N52.66;10;
2;England;Shropshire;Wyke;;W2.53;N52.61;10;
2;England;Shropshire;Wyken;;W2.35;N52.54;10;
2;England;Shropshire;Wykey;;W2.90;N52.81;10;
2;England;Shropshire;Wyre Forest;;W2.36;N52.38;10;
2;England;Shropshire;Wyrley and Essington Canal;;W2.07;N52.59;10;
2;England;Shropshire;Yeaton;;W2.84;N52.76;10;
2;England;Shropshire;Yeld, The;;W2.63;N52.44;10;
2;England;Shropshire;Yew Tree;;W1.97;N52.55;10;
2;England;Shropshire;Yockleton;;W2.88;N52.68;10;
2;England;Shropshire;Yorton;;W2.74;N52.80;10;
2;England;Shropshire;Yorton Heath;;W2.74;N52.79;10;