"Level";"Country";"County";"Place";"void";"Longitude";"Latitude";"ZoomLevel";"Icon"
2;ENG;Warwickshire;Abbey Hey;;W2.16;N53.46;10;
2;ENG;Warwickshire;Abbots Salford;;W1.91;N52.14;10;
2;ENG;Warwickshire;Acocks Green;;W1.83;N52.44;10;
2;ENG;Warwickshire;Admington;;W1.70;N52.11;10;
2;ENG;Warwickshire;Ailstone;;W1.70;N52.14;10;
2;ENG;Warwickshire;Alcester;;W1.88;N52.21;10;
2;ENG;Warwickshire;Alcester Lane's End;;W1.89;N52.41;10;
2;ENG;Warwickshire;Alderman's Green;;W1.48;N52.44;10;
2;ENG;Warwickshire;Alderminster;;W1.66;N52.13;10;
2;ENG;Warwickshire;Aldridge;;W1.92;N52.59;10;
2;ENG;Warwickshire;Allen End;;W1.76;N52.56;10;
2;ENG;Warwickshire;Allesley;;W1.57;N52.42;10;
2;ENG;Warwickshire;Alne;;W1.78;N52.27;10;
2;ENG;Warwickshire;Alne End;;W1.84;N52.22;10;
2;ENG;Warwickshire;Alne Hills;;W1.84;N52.23;10;
2;ENG;Warwickshire;Alum Rock;;W1.83;N52.48;10;
2;ENG;Warwickshire;Alveston;;W1.66;N52.20;10;
2;ENG;Warwickshire;Alveston Hill;;W1.67;N52.18;10;
2;ENG;Warwickshire;Ancoats;;W2.22;N53.47;10;
2;ENG;Warwickshire;Anker;;W1.70;N52.62;10;
2;ENG;Warwickshire;Ansley;;W1.57;N52.51;10;
2;ENG;Warwickshire;Ansley Common;;W1.54;N52.53;10;
2;ENG;Warwickshire;Ansty;;W1.42;N52.44;10;
2;ENG;Warwickshire;Appleby Parva;;W1.55;N52.66;10;
2;ENG;Warwickshire;Ardens Grafton;;W1.84;N52.18;10;
2;ENG;Warwickshire;Ardwick;;W2.22;N53.46;10;
2;ENG;Warwickshire;Arlescote;;W1.43;N52.12;10;
2;ENG;Warwickshire;Armscote;;W1.65;N52.09;10;
2;ENG;Warwickshire;Arrow;;W1.88;N52.15;10;
2;ENG;Warwickshire;Arrow;;W1.89;N52.20;10;
2;ENG;Warwickshire;Ascott;;W1.53;N52.00;10;
2;ENG;Warwickshire;Ash Green;;W1.51;N52.46;10;
2;ENG;Warwickshire;Ashmore Lake;;W2.06;N52.58;10;
2;ENG;Warwickshire;Ashorne;;W1.56;N52.21;10;
2;ENG;Warwickshire;Ashow;;W1.54;N52.32;10;
2;ENG;Warwickshire;Astley;;W1.54;N52.49;10;
2;ENG;Warwickshire;Aston;;W1.88;N52.49;10;
2;ENG;Warwickshire;Aston Cantlow;;W1.81;N52.22;10;
2;ENG;Warwickshire;Atherstone;;W1.54;N52.57;10;
2;ENG;Warwickshire;Atherstone on Stour;;W1.70;N52.14;10;
2;ENG;Warwickshire;Attleborough;;W1.45;N52.50;10;
2;ENG;Warwickshire;Austrey;;W1.57;N52.65;10;
2;ENG;Warwickshire;Avon;;W1.59;N52.26;10;
2;ENG;Warwickshire;Avon Dassett;;W1.40;N52.14;10;
2;ENG;Warwickshire;Baddesley Clinton;;W1.70;N52.34;10;
2;ENG;Warwickshire;Baddesley Ensor;;W1.60;N52.57;10;
2;ENG;Warwickshire;Baginton;;W1.50;N52.36;10;
2;ENG;Warwickshire;Baguley;;W2.28;N53.39;10;
2;ENG;Warwickshire;Ballard's Green;;W1.60;N52.51;10;
2;ENG;Warwickshire;Balsall Heath;;W1.89;N52.45;10;
2;ENG;Warwickshire;Banners Gate;;W1.88;N52.55;10;
2;ENG;Warwickshire;Barcheston;;W1.62;N52.04;10;
2;ENG;Warwickshire;Barford;;W1.60;N52.23;10;
2;ENG;Warwickshire;Barlow Moor;;W2.27;N53.42;10;
2;ENG;Warwickshire;Barnacle;;W1.44;N52.45;10;
2;ENG;Warwickshire;Barnmoor Green;;W1.73;N52.27;10;
2;ENG;Warwickshire;Barr Common;;W1.92;N52.58;10;
2;ENG;Warwickshire;Bartley Green;;W1.98;N52.43;10;
2;ENG;Warwickshire;Barton;;W1.85;N52.15;10;
2;ENG;Warwickshire;Barton on the Heath;;W1.63;N51.98;10;
2;ENG;Warwickshire;Bascote;;W1.41;N52.26;10;
2;ENG;Warwickshire;Bascote Heath;;W1.43;N52.25;10;
2;ENG;Warwickshire;Baxterley;;W1.60;N52.57;10;
2;ENG;Warwickshire;Bearley;;W1.73;N52.23;10;
2;ENG;Warwickshire;Bearley Cross;;W1.76;N52.23;10;
2;ENG;Warwickshire;Beaudesert;;W1.78;N52.29;10;
2;ENG;Warwickshire;Beausale;;W1.66;N52.32;10;
2;ENG;Warwickshire;Bedworth;;W1.48;N52.47;10;
2;ENG;Warwickshire;Bedworth Heath;;W1.50;N52.47;10;
2;ENG;Warwickshire;Bedworth Woodlands;;W1.50;N52.48;10;
2;ENG;Warwickshire;Beech Lanes;;W1.98;N52.46;10;
2;ENG;Warwickshire;Bell Green;;W1.47;N52.42;10;
2;ENG;Warwickshire;Belle Vue;;W2.19;N53.46;10;
2;ENG;Warwickshire;Benchill;;W2.27;N53.38;10;
2;ENG;Warwickshire;Bentley;;W2.03;N52.58;10;
2;ENG;Warwickshire;Bentley;;W1.58;N52.55;10;
2;ENG;Warwickshire;Bentley Common;;W1.58;N52.56;10;
2;ENG;Warwickshire;Bermuda;;W1.48;N52.49;10;
2;ENG;Warwickshire;Beswick;;W2.21;N53.46;10;
2;ENG;Warwickshire;Bickmarsh;;W1.85;N52.13;10;
2;ENG;Warwickshire;Bidford on Avon;;W1.85;N52.15;10;
2;ENG;Warwickshire;Billesley;;W1.86;N52.41;10;
2;ENG;Warwickshire;Billesley;;W1.79;N52.20;10;
2;ENG;Warwickshire;Billesley Common;;W1.88;N52.41;10;
2;ENG;Warwickshire;Bilton;;W1.29;N52.35;10;
2;ENG;Warwickshire;Binley;;W1.45;N52.39;10;
2;ENG;Warwickshire;Binley Woods;;W1.42;N52.38;10;
2;ENG;Warwickshire;Binton;;W1.79;N52.18;10;
2;ENG;Warwickshire;Birches Green;;W1.83;N52.50;10;
2;ENG;Warwickshire;Birchfield;;W1.89;N52.50;10;
2;ENG;Warwickshire;Birchills;;W2.00;N52.58;10;
2;ENG;Warwickshire;Birchley Heath;;W1.58;N52.54;10;
2;ENG;Warwickshire;Birchmoor;;W1.63;N52.60;10;
2;ENG;Warwickshire;Birdingbury;;W1.37;N52.30;10;
2;ENG;Warwickshire;Birmingham;;W1.86;N52.48;10;
2;ENG;Warwickshire;Bishop's Itchington;;W1.43;N52.21;10;
2;ENG;Warwickshire;Bishop's Tachbrook;;W1.54;N52.24;10;
2;ENG;Warwickshire;Bishopton;;W1.72;N52.20;10;
2;ENG;Warwickshire;Black Bank;;W1.48;N52.47;10;
2;ENG;Warwickshire;Blackdown;;W1.54;N52.30;10;
2;ENG;Warwickshire;Blackley;;W2.21;N53.51;10;
2;ENG;Warwickshire;Blackwell;;W1.65;N52.08;10;
2;ENG;Warwickshire;Blakenall Heath;;W2.00;N52.60;10;
2;ENG;Warwickshire;Bloxwich;;W2.01;N52.61;10;
2;ENG;Warwickshire;Blunt's Green;;W1.81;N52.31;10;
2;ENG;Warwickshire;Blyth End;;W1.69;N52.50;10;
2;ENG;Warwickshire;Bodymoor Heath;;W1.70;N52.56;10;
2;ENG;Warwickshire;Boldmere;;W1.83;N52.54;10;
2;ENG;Warwickshire;Bordesley;;W1.88;N52.47;10;
2;ENG;Warwickshire;Bordesley Green;;W1.85;N52.47;10;
2;ENG;Warwickshire;Botts Green;;W1.64;N52.52;10;
2;ENG;Warwickshire;Bournbrook;;W1.94;N52.43;10;
2;ENG;Warwickshire;Bourne Vale;;W1.91;N52.58;10;
2;ENG;Warwickshire;Bournville;;W1.94;N52.42;10;
2;ENG;Warwickshire;Bourton on Dunsmore;;W1.37;N52.32;10;
2;ENG;Warwickshire;Bradford;;W2.21;N53.47;10;
2;ENG;Warwickshire;Bradley Green;;W1.58;N52.59;10;
2;ENG;Warwickshire;Bramcote;;W1.41;N52.48;10;
2;ENG;Warwickshire;Bramcote Mains;;W1.41;N52.47;10;
2;ENG;Warwickshire;Brandon;;W1.41;N52.38;10;
2;ENG;Warwickshire;Brandwood End;;W1.89;N52.40;10;
2;ENG;Warwickshire;Bretford;;W1.38;N52.38;10;
2;ENG;Warwickshire;Bridge End;;W1.59;N52.27;10;
2;ENG;Warwickshire;Bridge Town;;W1.70;N52.18;10;
2;ENG;Warwickshire;Brinklow;;W1.36;N52.40;10;
2;ENG;Warwickshire;Broadwell;;W1.34;N52.28;10;
2;ENG;Warwickshire;Brockhurst;;W1.32;N52.44;10;
2;ENG;Warwickshire;Bromford;;W1.82;N52.50;10;
2;ENG;Warwickshire;Broom;;W1.86;N52.17;10;
2;ENG;Warwickshire;Brownhills;;W1.94;N52.64;10;
2;ENG;Warwickshire;Brown's Green;;W1.94;N52.51;10;
2;ENG;Warwickshire;Brownshill Green;;W1.56;N52.43;10;
2;ENG;Warwickshire;Brownsover;;W1.25;N52.38;10;
2;ENG;Warwickshire;Brunswick;;W2.24;N53.46;10;
2;ENG;Warwickshire;Bubbenhall;;W1.47;N52.34;10;
2;ENG;Warwickshire;Buckland End;;W1.79;N52.49;10;
2;ENG;Warwickshire;Buckley Green;;W1.78;N52.30;10;
2;ENG;Warwickshire;Budbrooke;;W1.63;N52.28;10;
2;ENG;Warwickshire;Bulkington;;W1.42;N52.47;10;
2;ENG;Warwickshire;Burnage;;W2.21;N53.42;10;
2;ENG;Warwickshire;Burton Dassett;;W1.43;N52.15;10;
2;ENG;Warwickshire;Burton Hastings;;W1.39;N52.49;10;
2;ENG;Warwickshire;Butlers Marston;;W1.54;N52.14;10;
2;ENG;Warwickshire;Caldecote;;W1.48;N52.54;10;
2;ENG;Warwickshire;Caldmore;;W1.98;N52.57;10;
2;ENG;Warwickshire;California;;W1.98;N52.44;10;
2;ENG;Warwickshire;Camp Hill;;W1.51;N52.52;10;
2;ENG;Warwickshire;Campion Hills;;W1.53;N52.29;10;
2;ENG;Warwickshire;Canley;;W1.56;N52.39;10;
2;ENG;Warwickshire;Carroway Head;;W1.78;N52.58;10;
2;ENG;Warwickshire;Castle Bromwich;;W1.78;N52.49;10;
2;ENG;Warwickshire;Castle Vale;;W1.79;N52.51;10;
2;ENG;Warwickshire;Cathiron;;W1.32;N52.39;10;
2;ENG;Warwickshire;Catshill;;W1.92;N52.64;10;
2;ENG;Warwickshire;Cawston;;W1.31;N52.35;10;
2;ENG;Warwickshire;Chad Valley;;W1.94;N52.46;10;
2;ENG;Warwickshire;Chadshunt;;W1.50;N52.16;10;
2;ENG;Warwickshire;Chadwick End;;W1.70;N52.35;10;
2;ENG;Warwickshire;Chapel End;;W1.52;N52.53;10;
2;ENG;Warwickshire;Chapel Fields;;W1.54;N52.40;10;
2;ENG;Warwickshire;Chapel Green;;W1.32;N52.23;10;
2;ENG;Warwickshire;Charlecote;;W1.62;N52.20;10;
2;ENG;Warwickshire;Charlestown;;W2.21;N53.52;10;
2;ENG;Warwickshire;Chattle Hill;;W1.72;N52.50;10;
2;ENG;Warwickshire;Cheetam Hill;;W2.24;N53.49;10;
2;ENG;Warwickshire;Cherington;;W1.57;N52.02;10;
2;ENG;Warwickshire;Cherwell;;W1.29;N52.19;10;
2;ENG;Warwickshire;Chessetts Wood;;W1.73;N52.35;10;
2;ENG;Warwickshire;Chesterton;;W1.48;N52.21;10;
2;ENG;Warwickshire;Chesterton Green;;W1.50;N52.21;10;
2;ENG;Warwickshire;Cheylesmore;;W1.51;N52.39;10;
2;ENG;Warwickshire;Chilvers Coton;;W1.48;N52.50;10;
2;ENG;Warwickshire;Chorlton-cum-Hardy;;W2.28;N53.43;10;
2;ENG;Warwickshire;Church End;;W1.48;N52.40;10;
2;ENG;Warwickshire;Church End;;W1.64;N52.50;10;
2;ENG;Warwickshire;Church End;;W1.57;N52.52;10;
2;ENG;Warwickshire;Church Lawford;;W1.35;N52.38;10;
2;ENG;Warwickshire;Churchover;;W1.25;N52.41;10;
2;ENG;Warwickshire;Claverdon;;W1.72;N52.27;10;
2;ENG;Warwickshire;Claydon;;W1.34;N52.14;10;
2;ENG;Warwickshire;Clayhanger;;W1.94;N52.63;10;
2;ENG;Warwickshire;Clayton;;W2.18;N53.47;10;
2;ENG;Warwickshire;Cliff;;W1.70;N52.57;10;
2;ENG;Warwickshire;Clifford Chambers;;W1.72;N52.16;10;
2;ENG;Warwickshire;Clifton upon Dunsmore;;W1.22;N52.37;10;
2;ENG;Warwickshire;Cloudesley Bush;;W1.32;N52.47;10;
2;ENG;Warwickshire;Coal Pool;;W1.98;N52.59;10;
2;ENG;Warwickshire;Coalpit Field;;W1.47;N52.47;10;
2;ENG;Warwickshire;Cock Bevington;;W1.92;N52.16;10;
2;ENG;Warwickshire;Cofton Common;;W1.98;N52.39;10;
2;ENG;Warwickshire;Cole End;;W1.72;N52.49;10;
2;ENG;Warwickshire;Colehall;;W1.79;N52.49;10;
2;ENG;Warwickshire;Coleshill;;W1.72;N52.49;10;
2;ENG;Warwickshire;Collycroft;;W1.48;N52.48;10;
2;ENG;Warwickshire;Collyhurst;;W2.22;N53.49;10;
2;ENG;Warwickshire;Combrook;;W1.56;N52.15;10;
2;ENG;Warwickshire;Copston Magna;;W1.33;N52.48;10;
2;ENG;Warwickshire;Copt Green;;W1.75;N52.31;10;
2;ENG;Warwickshire;Corley;;W1.55;N52.46;10;
2;ENG;Warwickshire;Corley Ash;;W1.57;N52.47;10;
2;ENG;Warwickshire;Corley Moor;;W1.58;N52.45;10;
2;ENG;Warwickshire;Cosford;;W1.28;N52.40;10;
2;ENG;Warwickshire;Cotteridge;;W1.94;N52.41;10;
2;ENG;Warwickshire;Coughton;;W1.89;N52.23;10;
2;ENG;Warwickshire;Coughton Fields;;W1.86;N52.22;10;
2;ENG;Warwickshire;Coundon;;W1.54;N52.42;10;
2;ENG;Warwickshire;Court House Green;;W1.48;N52.42;10;
2;ENG;Warwickshire;Coventry;;W1.51;N52.39;10;
2;ENG;Warwickshire;Coventry Canal;;W1.46;N52.47;10;
2;ENG;Warwickshire;Crackley;;W1.57;N52.35;10;
2;ENG;Warwickshire;Cranhill;;W1.82;N52.17;10;
2;ENG;Warwickshire;Crimscote;;W1.66;N52.12;10;
2;ENG;Warwickshire;Crumpsall;;W2.24;N53.51;10;
2;ENG;Warwickshire;Cubbington;;W1.50;N52.30;10;
2;ENG;Warwickshire;Curdworth;;W1.75;N52.52;10;
2;ENG;Warwickshire;Danzey Green;;W1.82;N52.31;10;
2;ENG;Warwickshire;Darlaston;;W2.04;N52.57;10;
2;ENG;Warwickshire;Darlaston Green;;W2.04;N52.57;10;
2;ENG;Warwickshire;Darley Green;;W1.73;N52.36;10;
2;ENG;Warwickshire;Darlingscote;;W1.66;N52.07;10;
2;ENG;Warwickshire;Daw End;;W1.95;N52.59;10;
2;ENG;Warwickshire;Dean's Green;;W1.81;N52.31;10;
2;ENG;Warwickshire;Debdale;;W2.16;N53.46;10;
2;ENG;Warwickshire;Deppers Bridge;;W1.43;N52.22;10;
2;ENG;Warwickshire;Devitts Green;;W1.60;N52.50;10;
2;ENG;Warwickshire;Didsbury;;W2.24;N53.41;10;
2;ENG;Warwickshire;Digbeth;;W1.89;N52.47;10;
2;ENG;Warwickshire;Doe Bank;;W1.83;N52.57;10;
2;ENG;Warwickshire;Dordon;;W1.61;N52.59;10;
2;ENG;Warwickshire;Draycote;;W1.35;N52.32;10;
2;ENG;Warwickshire;Drayton;;W1.76;N52.19;10;
2;ENG;Warwickshire;Droylsden;;W2.16;N53.47;10;
2;ENG;Warwickshire;Dudley's Fields;;W2.03;N52.60;10;
2;ENG;Warwickshire;Duke End;;W1.69;N52.48;10;
2;ENG;Warwickshire;Dunchurch;;W1.29;N52.33;10;
2;ENG;Warwickshire;Dunnington;;W1.91;N52.17;10;
2;ENG;Warwickshire;Dunsmore;;W1.20;N52.37;10;
2;ENG;Warwickshire;Earlsdon;;W1.54;N52.39;10;
2;ENG;Warwickshire;Earlswood;;W1.83;N52.36;10;
2;ENG;Warwickshire;Easenhall;;W1.32;N52.40;10;
2;ENG;Warwickshire;East Didsbury;;W2.22;N53.40;10;
2;ENG;Warwickshire;Eathorpe;;W1.42;N52.31;10;
2;ENG;Warwickshire;Edgbaston;;W1.92;N52.45;10;
2;ENG;Warwickshire;Edge Hill;;W1.66;N52.57;10;
2;ENG;Warwickshire;Edgehill;;W1.46;N52.12;10;
2;ENG;Warwickshire;Edgwick;;W1.50;N52.42;10;
2;ENG;Warwickshire;Edstone;;W1.75;N52.24;10;
2;ENG;Warwickshire;Emscote;;W1.57;N52.28;10;
2;ENG;Warwickshire;Erdington;;W1.83;N52.51;10;
2;ENG;Warwickshire;Ettington;;W1.62;N52.12;10;
2;ENG;Warwickshire;Exhall;;W1.85;N52.19;10;
2;ENG;Warwickshire;Exhall;;W1.48;N52.46;10;
2;ENG;Warwickshire;Fairfield;;W2.15;N53.47;10;
2;ENG;Warwickshire;Falcon Lodge;;W1.79;N52.56;10;
2;ENG;Warwickshire;Fallings Heath;;W2.03;N52.56;10;
2;ENG;Warwickshire;Fallowfield;;W2.22;N53.43;10;
2;ENG;Warwickshire;Farnborough;;W1.37;N52.13;10;
2;ENG;Warwickshire;Fenny Compton;;W1.40;N52.16;10;
2;ENG;Warwickshire;Fillongley;;W1.58;N52.48;10;
2;ENG;Warwickshire;Finham;;W1.51;N52.37;10;
2;ENG;Warwickshire;Finwood;;W1.72;N52.31;10;
2;ENG;Warwickshire;Fishley;;W2.00;N52.62;10;
2;ENG;Warwickshire;Five Ways;;W1.67;N52.31;10;
2;ENG;Warwickshire;Flecknoe;;W1.25;N52.26;10;
2;ENG;Warwickshire;Foleshill;;W1.48;N52.43;10;
2;ENG;Warwickshire;Forshaw Heath;;W1.88;N52.35;10;
2;ENG;Warwickshire;Foul End;;W1.64;N52.54;10;
2;ENG;Warwickshire;Four Oaks;;W1.85;N52.58;10;
2;ENG;Warwickshire;Four Oaks Park;;W1.83;N52.58;10;
2;ENG;Warwickshire;Foxford;;W1.48;N52.44;10;
2;ENG;Warwickshire;Frankley;;W2.01;N52.40;10;
2;ENG;Warwickshire;Frankton;;W1.38;N52.32;10;
2;ENG;Warwickshire;Freasley;;W1.64;N52.58;10;
2;ENG;Warwickshire;Fulready;;W1.59;N52.11;10;
2;ENG;Warwickshire;Furnace End;;W1.64;N52.51;10;
2;ENG;Warwickshire;Galley Common;;W1.54;N52.51;10;
2;ENG;Warwickshire;Garrets Green;;W1.79;N52.46;10;
2;ENG;Warwickshire;Gaydon;;W1.47;N52.18;10;
2;ENG;Warwickshire;Geat Wolford;;W1.65;N52.00;10;
2;ENG;Warwickshire;Gib Heath;;W1.92;N52.49;10;
2;ENG;Warwickshire;Gibbet Hill;;W1.56;N52.36;10;
2;ENG;Warwickshire;Gibbet Hill;;W1.23;N52.41;10;
2;ENG;Warwickshire;Gilbert's Green;;W1.85;N52.33;10;
2;ENG;Warwickshire;Gilbertstone;;W1.81;N52.45;10;
2;ENG;Warwickshire;Gilson;;W1.73;N52.50;10;
2;ENG;Warwickshire;Goodyers End;;W1.51;N52.46;10;
2;ENG;Warwickshire;Gorcott Hill;;W1.86;N52.31;10;
2;ENG;Warwickshire;Gorton;;W2.18;N53.46;10;
2;ENG;Warwickshire;Goscote;;W1.97;N52.60;10;
2;ENG;Warwickshire;Gosford Green;;W1.50;N52.39;10;
2;ENG;Warwickshire;Grand Union Canal;;W1.64;N52.29;10;
2;ENG;Warwickshire;Grandborough;;W1.28;N52.29;10;
2;ENG;Warwickshire;Gravelly Hill;;W1.85;N52.50;10;
2;ENG;Warwickshire;Great Alne;;W1.82;N52.22;10;
2;ENG;Warwickshire;Great Heath;;W1.50;N52.41;10;
2;ENG;Warwickshire;Green End;;W1.61;N52.47;10;
2;ENG;Warwickshire;Green Lane;;W1.91;N52.27;10;
2;ENG;Warwickshire;Green Lane;;W1.53;N52.37;10;
2;ENG;Warwickshire;Grendon;;W1.60;N52.58;10;
2;ENG;Warwickshire;Grendon;;W1.58;N52.59;10;
2;ENG;Warwickshire;Grendon Common;;W1.60;N52.57;10;
2;ENG;Warwickshire;Griff;;W1.48;N52.48;10;
2;ENG;Warwickshire;Griffins Hill;;W1.95;N52.42;10;
2;ENG;Warwickshire;Gross Green;;W1.44;N52.21;10;
2;ENG;Warwickshire;Grove End;;W1.76;N52.55;10;
2;ENG;Warwickshire;Grove End;;W1.56;N52.04;10;
2;ENG;Warwickshire;Guy's Cliffe;;W1.59;N52.29;10;
2;ENG;Warwickshire;Halford;;W1.62;N52.10;10;
2;ENG;Warwickshire;Hall End;;W1.63;N52.59;10;
2;ENG;Warwickshire;Hall Green;;W1.83;N52.42;10;
2;ENG;Warwickshire;Hall Green;;W1.48;N52.43;10;
2;ENG;Warwickshire;Hallend;;W1.81;N52.30;10;
2;ENG;Warwickshire;Hampton Lucy;;W1.63;N52.21;10;
2;ENG;Warwickshire;Hampton Magna;;W1.62;N52.28;10;
2;ENG;Warwickshire;Hampton on the Hill;;W1.63;N52.27;10;
2;ENG;Warwickshire;Handsworth;;W1.95;N52.50;10;
2;ENG;Warwickshire;Handsworth Wood;;W1.92;N52.50;10;
2;ENG;Warwickshire;Harborne;;W1.97;N52.45;10;
2;ENG;Warwickshire;Harborough Magna;;W1.31;N52.40;10;
2;ENG;Warwickshire;Harborough Parva;;W1.31;N52.39;10;
2;ENG;Warwickshire;Harbury;;W1.45;N52.22;10;
2;ENG;Warwickshire;Harden;;W1.98;N52.60;10;
2;ENG;Warwickshire;Hardwick;;W1.89;N52.58;10;
2;ENG;Warwickshire;Harpurhey;;W2.21;N53.50;10;
2;ENG;Warwickshire;Hartshill;;W1.52;N52.53;10;
2;ENG;Warwickshire;Hartshill Green;;W1.52;N52.54;10;
2;ENG;Warwickshire;Harvest Hill;;W1.58;N52.43;10;
2;ENG;Warwickshire;Haseley;;W1.66;N52.30;10;
2;ENG;Warwickshire;Haseley Green;;W1.66;N52.31;10;
2;ENG;Warwickshire;Haseley Knob;;W1.66;N52.33;10;
2;ENG;Warwickshire;Haselor;;W1.82;N52.21;10;
2;ENG;Warwickshire;Hatton;;W1.66;N52.30;10;
2;ENG;Warwickshire;Hawkes End;;W1.57;N52.43;10;
2;ENG;Warwickshire;Hawkesbury;;W1.47;N52.45;10;
2;ENG;Warwickshire;Hawkesley;;W1.94;N52.39;10;
2;ENG;Warwickshire;Hay Mills;;W1.83;N52.45;10;
2;ENG;Warwickshire;Heath End;;W1.97;N52.61;10;
2;ENG;Warwickshire;Heath End;;W1.66;N52.23;10;
2;ENG;Warwickshire;Heathcote;;W1.56;N52.26;10;
2;ENG;Warwickshire;Henley Green;;W1.47;N52.42;10;
2;ENG;Warwickshire;Henley-in-Arden;;W1.78;N52.28;10;
2;ENG;Warwickshire;High Cross;;W1.72;N52.30;10;
2;ENG;Warwickshire;High Heath;;W1.95;N52.61;10;
2;ENG;Warwickshire;Highbridge;;W1.97;N52.63;10;
2;ENG;Warwickshire;Higher Blackley;;W2.24;N53.53;10;
2;ENG;Warwickshire;Highgate;;W1.89;N52.46;10;
2;ENG;Warwickshire;Highter's Heath;;W1.88;N52.40;10;
2;ENG;Warwickshire;Hill;;W1.83;N52.58;10;
2;ENG;Warwickshire;Hill;;W1.34;N52.29;10;
2;ENG;Warwickshire;Hill Hook;;W1.85;N52.59;10;
2;ENG;Warwickshire;Hill Top;;W1.47;N52.50;10;
2;ENG;Warwickshire;Hill Top;;W1.57;N52.50;10;
2;ENG;Warwickshire;Hill Wood;;W1.82;N52.59;10;
2;ENG;Warwickshire;Hill Wootton;;W1.56;N52.30;10;
2;ENG;Warwickshire;Hillfields;;W1.50;N52.40;10;
2;ENG;Warwickshire;Hillmorton;;W1.22;N52.35;10;
2;ENG;Warwickshire;Hockley Heath;;W1.78;N52.34;10;
2;ENG;Warwickshire;Hodgehill;;W1.82;N52.49;10;
2;ENG;Warwickshire;Hoggrill's End;;W1.67;N52.51;10;
2;ENG;Warwickshire;Holbrooks;;W1.51;N52.44;10;
2;ENG;Warwickshire;Holly Bank;;W1.92;N52.62;10;
2;ENG;Warwickshire;Hollyhurst;;W1.45;N52.46;10;
2;ENG;Warwickshire;Holywell;;W1.72;N52.29;10;
2;ENG;Warwickshire;Honiley;;W1.64;N52.34;10;
2;ENG;Warwickshire;Honington;;W1.62;N52.07;10;
2;ENG;Warwickshire;Hopsford;;W1.38;N52.45;10;
2;ENG;Warwickshire;Howe Green;;W1.54;N52.48;10;
2;ENG;Warwickshire;Hunningham;;W1.45;N52.30;10;
2;ENG;Warwickshire;Hunningham Hill;;W1.44;N52.30;10;
2;ENG;Warwickshire;Hunts Green;;W1.73;N52.57;10;
2;ENG;Warwickshire;Hurley;;W1.64;N52.56;10;
2;ENG;Warwickshire;Hurley Common;;W1.64;N52.56;10;
2;ENG;Warwickshire;Idlicote;;W1.59;N52.09;10;
2;ENG;Warwickshire;Illshaw Heath;;W1.81;N52.36;10;
2;ENG;Warwickshire;Ilmington;;W1.69;N52.08;10;
2;ENG;Warwickshire;Ingon;;W1.69;N52.21;10;
2;ENG;Warwickshire;Iron Cross;;W1.92;N52.16;10;
2;ENG;Warwickshire;Itchen;;W1.41;N52.30;10;
2;ENG;Warwickshire;Kemps Green;;W1.79;N52.32;10;
2;ENG;Warwickshire;Kenilworth;;W1.57;N52.33;10;
2;ENG;Warwickshire;Keresley;;W1.54;N52.45;10;
2;ENG;Warwickshire;Keresley Newlands;;W1.53;N52.45;10;
2;ENG;Warwickshire;Kineton;;W1.51;N52.15;10;
2;ENG;Warwickshire;King's Coughton;;W1.88;N52.22;10;
2;ENG;Warwickshire;King's Heath;;W1.89;N52.42;10;
2;ENG;Warwickshire;King's Hill;;W2.03;N52.56;10;
2;ENG;Warwickshire;King's Newnham;;W1.34;N52.38;10;
2;ENG;Warwickshire;Kings Norton;;W1.92;N52.40;10;
2;ENG;Warwickshire;Kingsbury;;W1.69;N52.56;10;
2;ENG;Warwickshire;Kingshurst;;W1.76;N52.49;10;
2;ENG;Warwickshire;Kingstanding;;W1.88;N52.54;10;
2;ENG;Warwickshire;Kingswood;;W1.73;N52.33;10;
2;ENG;Warwickshire;Kingswood Brook;;W1.72;N52.32;10;
2;ENG;Warwickshire;Kinwalsey;;W1.63;N52.46;10;
2;ENG;Warwickshire;Kirby Corner;;W1.57;N52.38;10;
2;ENG;Warwickshire;Kite Green;;W1.76;N52.29;10;
2;ENG;Warwickshire;Kites Hardwick;;W1.31;N52.30;10;
2;ENG;Warwickshire;Kitt's Green;;W1.78;N52.48;10;
2;ENG;Warwickshire;Knightcote;;W1.43;N52.18;10;
2;ENG;Warwickshire;Ladbroke;;W1.40;N52.21;10;
2;ENG;Warwickshire;Ladyes Hill;;W1.57;N52.34;10;
2;ENG;Warwickshire;Ladywood;;W1.92;N52.47;10;
2;ENG;Warwickshire;Lane Head;;W2.04;N52.59;10;
2;ENG;Warwickshire;Langley;;W1.72;N52.25;10;
2;ENG;Warwickshire;Langley Green;;W1.72;N52.25;10;
2;ENG;Warwickshire;Lapworth;;W1.76;N52.33;10;
2;ENG;Warwickshire;Lawford Heath;;W1.34;N52.35;10;
2;ENG;Warwickshire;Lea Hall;;W1.79;N52.47;10;
2;ENG;Warwickshire;Lea Marston;;W1.70;N52.53;10;
2;ENG;Warwickshire;Leam;;W1.43;N52.32;10;
2;ENG;Warwickshire;Leamington Hastings;;W1.35;N52.29;10;
2;ENG;Warwickshire;Leamore;;W2.01;N52.59;10;
2;ENG;Warwickshire;Lee Bank;;W1.91;N52.47;10;
2;ENG;Warwickshire;Leek Wootton;;W1.57;N52.31;10;
2;ENG;Warwickshire;Leicester Grange;;W1.36;N52.50;10;
2;ENG;Warwickshire;Leighswood;;W1.92;N52.60;10;
2;ENG;Warwickshire;Levenshulme;;W2.19;N53.44;10;
2;ENG;Warwickshire;Ley Hill;;W1.83;N52.58;10;
2;ENG;Warwickshire;Lifford;;W1.92;N52.40;10;
2;ENG;Warwickshire;Lighthorne;;W1.51;N52.19;10;
2;ENG;Warwickshire;Lighthorne Heath;;W1.48;N52.19;10;
2;ENG;Warwickshire;Lighthorne Rough;;W1.53;N52.19;10;
2;ENG;Warwickshire;Lillington;;W1.53;N52.30;10;
2;ENG;Warwickshire;Lime Tree Park;;W1.57;N52.39;10;
2;ENG;Warwickshire;Little Alne;;W1.81;N52.24;10;
2;ENG;Warwickshire;Little Bloxwich;;W2.00;N52.62;10;
2;ENG;Warwickshire;Little Britain;;W1.84;N52.18;10;
2;ENG;Warwickshire;Little Bromwich;;W1.85;N52.47;10;
2;ENG;Warwickshire;Little Compton;;W1.62;N51.96;10;
2;ENG;Warwickshire;Little Heath;;W1.50;N52.43;10;
2;ENG;Warwickshire;Little Kineton;;W1.51;N52.14;10;
2;ENG;Warwickshire;Little Lawford;;W1.32;N52.38;10;
2;ENG;Warwickshire;Little Morrell;;W1.54;N52.20;10;
2;ENG;Warwickshire;Little Packington;;W1.69;N52.45;10;
2;ENG;Warwickshire;Little Walton;;W1.28;N52.44;10;
2;ENG;Warwickshire;Little Warton;;W1.58;N52.62;10;
2;ENG;Warwickshire;Little Wolford;;W1.62;N52.01;10;
2;ENG;Warwickshire;Littlewood Green;;W1.89;N52.25;10;
2;ENG;Warwickshire;Littleworth;;W1.66;N52.26;10;
2;ENG;Warwickshire;Littleworth End;;W1.78;N52.57;10;
2;ENG;Warwickshire;Lodge Hill;;W1.97;N52.43;10;
2;ENG;Warwickshire;Long Compton;;W1.59;N51.98;10;
2;ENG;Warwickshire;Long Itchington;;W1.40;N52.28;10;
2;ENG;Warwickshire;Long Lawford;;W1.31;N52.38;10;
2;ENG;Warwickshire;Long Marston;;W1.78;N52.13;10;
2;ENG;Warwickshire;Longbridge;;W1.98;N52.39;10;
2;ENG;Warwickshire;Longbridge;;W1.62;N52.25;10;
2;ENG;Warwickshire;Longford;;W1.50;N52.44;10;
2;ENG;Warwickshire;Longsight;;W2.21;N53.46;10;
2;ENG;Warwickshire;Lower Binton;;W1.79;N52.17;10;
2;ENG;Warwickshire;Lower Brailes;;W1.54;N52.04;10;
2;ENG;Warwickshire;Lower Clopton;;W1.72;N52.21;10;
2;ENG;Warwickshire;Lower Eastern Green;;W1.57;N52.40;10;
2;ENG;Warwickshire;Lower Green;;W1.26;N52.30;10;
2;ENG;Warwickshire;Lower Norton;;W1.66;N52.26;10;
2;ENG;Warwickshire;Lower Quinton;;W1.73;N52.12;10;
2;ENG;Warwickshire;Lower Shuckburgh;;W1.28;N52.25;10;
2;ENG;Warwickshire;Lower Stoke;;W1.48;N52.39;10;
2;ENG;Warwickshire;Lower Tysoe;;W1.50;N52.10;10;
2;ENG;Warwickshire;Lowsonford;;W1.73;N52.30;10;
2;ENG;Warwickshire;Loxley;;W1.63;N52.16;10;
2;ENG;Warwickshire;Lozells;;W1.91;N52.49;10;
2;ENG;Warwickshire;Luddington;;W1.76;N52.16;10;
2;ENG;Warwickshire;Lye Green;;W1.72;N52.28;10;
2;ENG;Warwickshire;Lyndon Green;;W1.79;N52.46;10;
2;ENG;Warwickshire;Mancetter;;W1.54;N52.56;10;
2;ENG;Warwickshire;Manchester;;W2.25;N53.47;10;
2;ENG;Warwickshire;Maney;;W1.82;N52.55;10;
2;ENG;Warwickshire;Manor House;;W1.47;N52.43;10;
2;ENG;Warwickshire;Mappleborough Green;;W1.88;N52.28;10;
2;ENG;Warwickshire;Marston;;W1.38;N52.38;10;
2;ENG;Warwickshire;Marston;;W1.70;N52.54;10;
2;ENG;Warwickshire;Marston Doles;;W1.32;N52.21;10;
2;ENG;Warwickshire;Marston Jabbett;;W1.45;N52.48;10;
2;ENG;Warwickshire;Marton;;W1.41;N52.30;10;
2;ENG;Warwickshire;Marton Moor;;W1.41;N52.30;10;
2;ENG;Warwickshire;Maxstoke;;W1.66;N52.47;10;
2;ENG;Warwickshire;Mere Green;;W1.83;N52.58;10;
2;ENG;Warwickshire;Middle Stoke;;W1.48;N52.40;10;
2;ENG;Warwickshire;Middle Tysoe;;W1.51;N52.09;10;
2;ENG;Warwickshire;Middleton;;W1.75;N52.57;10;
2;ENG;Warwickshire;Middletown;;W1.91;N52.25;10;
2;ENG;Warwickshire;Miles Platting;;W2.21;N53.48;10;
2;ENG;Warwickshire;Mill Green;;W1.89;N52.60;10;
2;ENG;Warwickshire;Milverton;;W1.56;N52.29;10;
2;ENG;Warwickshire;Minworth;;W1.78;N52.52;10;
2;ENG;Warwickshire;Monks Kirby;;W1.32;N52.44;10;
2;ENG;Warwickshire;Monwode Lea;;W1.61;N52.51;10;
2;ENG;Warwickshire;Moor Green;;W1.91;N52.43;10;
2;ENG;Warwickshire;Moor Hall;;W1.82;N52.58;10;
2;ENG;Warwickshire;Moreton Morrell;;W1.54;N52.20;10;
2;ENG;Warwickshire;Moreton Paddox;;W1.56;N52.18;10;
2;ENG;Warwickshire;Morton Bagot;;W1.84;N52.27;10;
2;ENG;Warwickshire;Moseley;;W1.88;N52.44;10;
2;ENG;Warwickshire;Moss Nook;;W2.25;N53.36;10;
2;ENG;Warwickshire;Moss Side;;W2.25;N53.45;10;
2;ENG;Warwickshire;Moston;;W2.19;N53.50;10;
2;ENG;Warwickshire;Mount Pleasant;;W1.48;N52.48;10;
2;ENG;Warwickshire;Mousley End;;W1.69;N52.31;10;
2;ENG;Warwickshire;Myton;;W1.56;N52.27;10;
2;ENG;Warwickshire;Napton on the Hill;;W1.32;N52.24;10;
2;ENG;Warwickshire;Neal's Green;;W1.51;N52.45;10;
2;ENG;Warwickshire;Nebsworth;;W1.72;N52.07;10;
2;ENG;Warwickshire;Nechells;;W1.86;N52.49;10;
2;ENG;Warwickshire;Netchells Green;;W1.88;N52.48;10;
2;ENG;Warwickshire;Nether Whitacre;;W1.66;N52.52;10;
2;ENG;Warwickshire;Nethercote;;W1.25;N52.27;10;
2;ENG;Warwickshire;New Arley;;W1.57;N52.49;10;
2;ENG;Warwickshire;New Bilton;;W1.28;N52.37;10;
2;ENG;Warwickshire;New End;;W1.85;N52.23;10;
2;ENG;Warwickshire;New Invention;;W2.04;N52.60;10;
2;ENG;Warwickshire;New Moston;;W2.16;N53.51;10;
2;ENG;Warwickshire;New Oscott;;W1.85;N52.54;10;
2;ENG;Warwickshire;New Town;;W1.92;N52.65;10;
2;ENG;Warwickshire;Newall Green;;W2.28;N53.37;10;
2;ENG;Warwickshire;Newbold Pacey;;W1.57;N52.21;10;
2;ENG;Warwickshire;Newbold-on-Avon;;W1.28;N52.38;10;
2;ENG;Warwickshire;Newbold-on-Stour;;W1.65;N52.11;10;
2;ENG;Warwickshire;Newhall Green;;W1.61;N52.47;10;
2;ENG;Warwickshire;Newnham;;W1.78;N52.23;10;
2;ENG;Warwickshire;Newton;;W1.22;N52.39;10;
2;ENG;Warwickshire;Newton Heath;;W2.18;N53.49;10;
2;ENG;Warwickshire;Newton Regis;;W1.60;N52.66;10;
2;ENG;Warwickshire;Newtown;;W1.91;N52.49;10;
2;ENG;Warwickshire;No Man's Heath;;W1.58;N52.66;10;
2;ENG;Warwickshire;Northend;;W1.43;N52.16;10;
2;ENG;Warwickshire;Northenden;;W2.27;N53.40;10;
2;ENG;Warwickshire;Northern Moor;;W2.28;N53.40;10;
2;ENG;Warwickshire;Northfield;;W1.97;N52.40;10;
2;ENG;Warwickshire;Norton Lindsey;;W1.67;N52.26;10;
2;ENG;Warwickshire;Nuneaton;;W1.47;N52.51;10;
2;ENG;Warwickshire;Nuthurst;;W1.78;N52.33;10;
2;ENG;Warwickshire;Offchurch;;W1.47;N52.28;10;
2;ENG;Warwickshire;Old Arley;;W1.58;N52.50;10;
2;ENG;Warwickshire;Old Milverton;;W1.56;N52.30;10;
2;ENG;Warwickshire;Oldberrow;;W1.82;N52.28;10;
2;ENG;Warwickshire;Oldbury;;W1.54;N52.54;10;
2;ENG;Warwickshire;Openshaw;;W2.18;N53.47;10;
2;ENG;Warwickshire;Outhill;;W1.85;N52.29;10;
2;ENG;Warwickshire;Outwoods;;W1.64;N52.45;10;
2;ENG;Warwickshire;Over Green;;W1.76;N52.54;10;
2;ENG;Warwickshire;Over Whitacre;;W1.63;N52.50;10;
2;ENG;Warwickshire;Overslade;;W1.28;N52.35;10;
2;ENG;Warwickshire;Oversley Green;;W1.86;N52.20;10;
2;ENG;Warwickshire;Oxford Canal;;W1.48;N52.44;10;
2;ENG;Warwickshire;Oxford Canal;;W1.32;N52.25;10;
2;ENG;Warwickshire;Oxhill;;W1.54;N52.10;10;
2;ENG;Warwickshire;Packmores;;W1.59;N52.28;10;
2;ENG;Warwickshire;Packwood;;W1.75;N52.35;10;
2;ENG;Warwickshire;Packwood Gullet;;W1.76;N52.36;10;
2;ENG;Warwickshire;Pailton;;W1.31;N52.42;10;
2;ENG;Warwickshire;Palfrey;;W1.98;N52.57;10;
2;ENG;Warwickshire;Pathlow;;W1.75;N52.22;10;
2;ENG;Warwickshire;Peel Hall;;W2.25;N53.37;10;
2;ENG;Warwickshire;Pelsall;;W1.97;N52.62;10;
2;ENG;Warwickshire;Pelsall Wood;;W1.98;N52.62;10;
2;ENG;Warwickshire;Perry;;W1.89;N52.52;10;
2;ENG;Warwickshire;Perry Barr;;W1.91;N52.52;10;
2;ENG;Warwickshire;Perry Beeches;;W1.92;N52.53;10;
2;ENG;Warwickshire;Perry Common;;W1.86;N52.53;10;
2;ENG;Warwickshire;Pheasey;;W1.91;N52.55;10;
2;ENG;Warwickshire;Piccadilly;;W1.67;N52.57;10;
2;ENG;Warwickshire;Pickford;;W1.60;N52.42;10;
2;ENG;Warwickshire;Pickford Green;;W1.60;N52.42;10;
2;ENG;Warwickshire;Pillerton Hersey;;W1.56;N52.12;10;
2;ENG;Warwickshire;Pillerton Priors;;W1.57;N52.12;10;
2;ENG;Warwickshire;Pinkett's Booth;;W1.60;N52.42;10;
2;ENG;Warwickshire;Pinley;;W1.48;N52.39;10;
2;ENG;Warwickshire;Pinley Green;;W1.70;N52.29;10;
2;ENG;Warwickshire;Pleck;;W2.01;N52.57;10;
2;ENG;Warwickshire;Plough Hill;;W1.52;N52.52;10;
2;ENG;Warwickshire;Polesworth;;W1.61;N52.61;10;
2;ENG;Warwickshire;Potter's Green;;W1.45;N52.43;10;
2;ENG;Warwickshire;Preston Bagot;;W1.75;N52.28;10;
2;ENG;Warwickshire;Preston Fields;;W1.75;N52.29;10;
2;ENG;Warwickshire;Preston Green;;W1.76;N52.28;10;
2;ENG;Warwickshire;Preston on Stour;;W1.70;N52.13;10;
2;ENG;Warwickshire;Princethorpe;;W1.41;N52.32;10;
2;ENG;Warwickshire;Priors Hardwick;;W1.31;N52.19;10;
2;ENG;Warwickshire;Priors Marston;;W1.28;N52.20;10;
2;ENG;Warwickshire;Pype Hayes;;W1.82;N52.52;10;
2;ENG;Warwickshire;Queslett;;W1.91;N52.54;10;
2;ENG;Warwickshire;Radford;;W1.53;N52.41;10;
2;ENG;Warwickshire;Radford Semele;;W1.50;N52.27;10;
2;ENG;Warwickshire;Radway;;W1.46;N52.12;10;
2;ENG;Warwickshire;Ratley;;W1.44;N52.12;10;
2;ENG;Warwickshire;Red Hill;;W1.81;N52.20;10;
2;ENG;Warwickshire;Reddicap Heath;;W1.80;N52.55;10;
2;ENG;Warwickshire;Rhodes;;W2.24;N53.54;10;
2;ENG;Warwickshire;Ridgacre;;W2.00;N52.45;10;
2;ENG;Warwickshire;Ridge Lane;;W1.57;N52.54;10;
2;ENG;Warwickshire;Robinson's End;;W1.52;N52.51;10;
2;ENG;Warwickshire;Rotton Park;;W1.94;N52.48;10;
2;ENG;Warwickshire;Roughley;;W1.82;N52.58;10;
2;ENG;Warwickshire;Rowington;;W1.70;N52.31;10;
2;ENG;Warwickshire;Rowington Green;;W1.70;N52.31;10;
2;ENG;Warwickshire;Rowley's Green;;W1.50;N52.44;10;
2;ENG;Warwickshire;Royal Leamington Spa;;W1.54;N52.28;10;
2;ENG;Warwickshire;Rugby;;W1.26;N52.37;10;
2;ENG;Warwickshire;Rushall;;W1.95;N52.60;10;
2;ENG;Warwickshire;Rusholme;;W2.21;N53.45;10;
2;ENG;Warwickshire;Ryton;;W1.42;N52.47;10;
2;ENG;Warwickshire;Ryton-on-Dunsmore;;W1.44;N52.36;10;
2;ENG;Warwickshire;Salford Priors;;W1.89;N52.15;10;
2;ENG;Warwickshire;Salter Street;;W1.82;N52.36;10;
2;ENG;Warwickshire;Saltley;;W1.86;N52.48;10;
2;ENG;Warwickshire;Sambourne;;W1.92;N52.24;10;
2;ENG;Warwickshire;Sawbridge;;W1.26;N52.28;10;
2;ENG;Warwickshire;Seckington;;W1.61;N52.66;10;
2;ENG;Warwickshire;Selly Oak;;W1.95;N52.43;10;
2;ENG;Warwickshire;Selly Park;;W1.92;N52.43;10;
2;ENG;Warwickshire;Shard End;;W1.78;N52.49;10;
2;ENG;Warwickshire;Sharston;;W2.25;N53.38;10;
2;ENG;Warwickshire;Sheldon;;W1.78;N52.45;10;
2;ENG;Warwickshire;Shelfield;;W1.95;N52.61;10;
2;ENG;Warwickshire;Shelfield;;W1.82;N52.25;10;
2;ENG;Warwickshire;Shelfield Green;;W1.82;N52.24;10;
2;ENG;Warwickshire;Shelford;;W1.38;N52.48;10;
2;ENG;Warwickshire;Shenley Fields;;W1.97;N52.42;10;
2;ENG;Warwickshire;Sherbourne;;W1.62;N52.25;10;
2;ENG;Warwickshire;Shilton;;W1.41;N52.45;10;
2;ENG;Warwickshire;Shipston-on-Stour;;W1.63;N52.05;10;
2;ENG;Warwickshire;Shire Oak;;W1.92;N52.63;10;
2;ENG;Warwickshire;Short Heath;;W1.86;N52.52;10;
2;ENG;Warwickshire;Short Heath;;W2.04;N52.59;10;
2;ENG;Warwickshire;Shottery;;W1.73;N52.18;10;
2;ENG;Warwickshire;Shotteswell;;W1.38;N52.10;10;
2;ENG;Warwickshire;Shrewley;;W1.67;N52.30;10;
2;ENG;Warwickshire;Shrewley Common;;W1.69;N52.30;10;
2;ENG;Warwickshire;Shustoke;;W1.67;N52.50;10;
2;ENG;Warwickshire;Shuttington;;W1.63;N52.64;10;
2;ENG;Warwickshire;Simister;;W2.25;N53.54;10;
2;ENG;Warwickshire;Small Heath;;W1.85;N52.46;10;
2;ENG;Warwickshire;Smockington;;W1.33;N52.49;10;
2;ENG;Warwickshire;Snitterfield;;W1.69;N52.22;10;
2;ENG;Warwickshire;Solihull;;W1.78;N52.40;10;
2;ENG;Warwickshire;South Yardley;;W1.82;N52.45;10;
2;ENG;Warwickshire;Southam;;W1.40;N52.25;10;
2;ENG;Warwickshire;Sowe;;W1.50;N52.39;10;
2;ENG;Warwickshire;Sowe;;W1.44;N52.40;10;
2;ENG;Warwickshire;Sparkbrook;;W1.88;N52.45;10;
2;ENG;Warwickshire;Sparkhill;;W1.86;N52.44;10;
2;ENG;Warwickshire;Spernall;;W1.88;N52.25;10;
2;ENG;Warwickshire;Spon End;;W1.53;N52.40;10;
2;ENG;Warwickshire;Springfield;;W1.86;N52.42;10;
2;ENG;Warwickshire;Springhill;;W1.91;N52.64;10;
2;ENG;Warwickshire;St Helena;;W1.61;N52.60;10;
2;ENG;Warwickshire;St Johns;;W1.59;N52.32;10;
2;ENG;Warwickshire;St Nicolas Park;;W1.45;N52.53;10;
2;ENG;Warwickshire;Stareton;;W1.51;N52.33;10;
2;ENG;Warwickshire;Stechford;;W1.82;N52.48;10;
2;ENG;Warwickshire;Stirchley;;W1.92;N52.42;10;
2;ENG;Warwickshire;Stivichall;;W1.51;N52.38;10;
2;ENG;Warwickshire;Stockfield;;W1.82;N52.45;10;
2;ENG;Warwickshire;Stockingford;;W1.51;N52.51;10;
2;ENG;Warwickshire;Stockland Green;;W1.86;N52.51;10;
2;ENG;Warwickshire;Stockton;;W1.37;N52.26;10;
2;ENG;Warwickshire;Stoke;;W1.47;N52.39;10;
2;ENG;Warwickshire;Stoke Aldermoor;;W1.48;N52.39;10;
2;ENG;Warwickshire;Stoke End;;W1.75;N52.57;10;
2;ENG;Warwickshire;Stoke Heath;;W1.48;N52.41;10;
2;ENG;Warwickshire;Stoneleigh;;W1.51;N52.34;10;
2;ENG;Warwickshire;Stoneton;;W1.32;N52.18;10;
2;ENG;Warwickshire;Stonnall;;W1.89;N52.62;10;
2;ENG;Warwickshire;Stour;;W1.61;N52.04;10;
2;ENG;Warwickshire;Stourton;;W1.57;N52.02;10;
2;ENG;Warwickshire;Stourton Hill;;W1.56;N52.01;10;
2;ENG;Warwickshire;Strangeways;;W2.24;N53.48;10;
2;ENG;Warwickshire;Stratford upon-Avon;;W1.72;N52.19;10;
2;ENG;Warwickshire;Stratford-upon-Avon Canal;;W1.74;N52.28;10;
2;ENG;Warwickshire;Street Ashton;;W1.33;N52.43;10;
2;ENG;Warwickshire;Streetly;;W1.86;N52.58;10;
2;ENG;Warwickshire;Stretton under Fosse;;W1.33;N52.42;10;
2;ENG;Warwickshire;Stretton-on-Dunsmore;;W1.41;N52.34;10;
2;ENG;Warwickshire;Stretton-on-Fosse;;W1.68;N52.04;10;
2;ENG;Warwickshire;Stubber's Green;;W1.94;N52.60;10;
2;ENG;Warwickshire;Studley;;W1.89;N52.26;10;
2;ENG;Warwickshire;Summerfield Park;;W1.95;N52.48;10;
2;ENG;Warwickshire;Sutton Coldfield;;W1.80;N52.55;10;
2;ENG;Warwickshire;Sutton-under-Brailes;;W1.57;N52.03;10;
2;ENG;Warwickshire;Tachbrook Mallory;;W1.54;N52.25;10;
2;ENG;Warwickshire;Tame;;W1.91;N52.51;10;
2;ENG;Warwickshire;Tame;;W1.69;N52.51;10;
2;ENG;Warwickshire;Tame Valley Canal;;W1.92;N52.52;10;
2;ENG;Warwickshire;Tanworth-in-Arden;;W1.83;N52.32;10;
2;ENG;Warwickshire;Tattle Bank;;W1.73;N52.26;10;
2;ENG;Warwickshire;Temple Grafton;;W1.82;N52.18;10;
2;ENG;Warwickshire;Temple Herdewyke;;W1.46;N52.16;10;
2;ENG;Warwickshire;Ten Acres;;W1.92;N52.42;10;
2;ENG;Warwickshire;Terry's Green;;W1.85;N52.35;10;
2;ENG;Warwickshire;The Cape;;W1.60;N52.28;10;
2;ENG;Warwickshire;The Chuckery;;W1.97;N52.58;10;
2;ENG;Warwickshire;The Delves;;W1.98;N52.56;10;
2;ENG;Warwickshire;The Green;;W1.69;N52.22;10;
2;ENG;Warwickshire;The Model Village;;W1.40;N52.27;10;
2;ENG;Warwickshire;The Spring;;W1.59;N52.35;10;
2;ENG;Warwickshire;Thimble End;;W1.80;N52.54;10;
2;ENG;Warwickshire;Thornes;;W1.89;N52.62;10;
2;ENG;Warwickshire;Thurlaston;;W1.32;N52.33;10;
2;ENG;Warwickshire;Tiddington;;W1.67;N52.19;10;
2;ENG;Warwickshire;Tidmington;;W1.63;N52.04;10;
2;ENG;Warwickshire;Tile Cross;;W1.76;N52.47;10;
2;ENG;Warwickshire;Tile Hill;;W1.58;N52.39;10;
2;ENG;Warwickshire;Tipper's Hill;;W1.58;N52.48;10;
2;ENG;Warwickshire;Toft;;W1.31;N52.32;10;
2;ENG;Warwickshire;Tollbar End;;W1.47;N52.37;10;
2;ENG;Warwickshire;Tomlow;;W1.34;N52.26;10;
2;ENG;Warwickshire;Tower Hill;;W1.92;N52.52;10;
2;ENG;Warwickshire;Trap's Green;;W1.85;N52.31;10;
2;ENG;Warwickshire;Tredington;;W1.63;N52.08;10;
2;ENG;Warwickshire;Tudor Hill;;W1.83;N52.56;10;
2;ENG;Warwickshire;Turner's Green;;W1.72;N52.31;10;
2;ENG;Warwickshire;Turves Green;;W1.97;N52.40;10;
2;ENG;Warwickshire;Tyburn;;W1.80;N52.51;10;
2;ENG;Warwickshire;Tyseley;;W1.83;N52.45;10;
2;ENG;Warwickshire;Ufton;;W1.45;N52.25;10;
2;ENG;Warwickshire;Ullenhall;;W1.82;N52.30;10;
2;ENG;Warwickshire;Upper Brailes;;W1.56;N52.04;10;
2;ENG;Warwickshire;Upper Quinton;;W1.75;N52.11;10;
2;ENG;Warwickshire;Upper Stoke;;W1.48;N52.41;10;
2;ENG;Warwickshire;Upper Tysoe;;W1.51;N52.08;10;
2;ENG;Warwickshire;Upper Witton;;W1.88;N52.52;10;
2;ENG;Warwickshire;Upton;;W1.82;N52.21;10;
2;ENG;Warwickshire;Vale, The;;W1.92;N52.45;10;
2;ENG;Warwickshire;Vauxhall;;W1.88;N52.48;10;
2;ENG;Warwickshire;Vigo;;W1.94;N52.61;10;
2;ENG;Warwickshire;Wake Green;;W1.88;N52.43;10;
2;ENG;Warwickshire;Walcote;;W1.82;N52.22;10;
2;ENG;Warwickshire;Walker's Heath;;W1.92;N52.40;10;
2;ENG;Warwickshire;Wallington Heath;;W2.01;N52.61;10;
2;ENG;Warwickshire;Walmley;;W1.80;N52.53;10;
2;ENG;Warwickshire;Walsall;;W1.98;N52.58;10;
2;ENG;Warwickshire;Walsall Wood;;W1.94;N52.62;10;
2;ENG;Warwickshire;Walsgrave on Sowe;;W1.44;N52.42;10;
2;ENG;Warwickshire;Walton;;W1.59;N52.17;10;
2;ENG;Warwickshire;Wappenbury;;W1.45;N52.31;10;
2;ENG;Warwickshire;Ward End;;W1.83;N52.49;10;
2;ENG;Warwickshire;Waring's Green;;W1.82;N52.36;10;
2;ENG;Warwickshire;Warmington;;W1.40;N52.12;10;
2;ENG;Warwickshire;Warstock;;W1.86;N52.40;10;
2;ENG;Warwickshire;Warton;;W1.58;N52.62;10;
2;ENG;Warwickshire;Warwick;;W1.59;N52.28;10;
2;ENG;Warwickshire;Washford;;W1.89;N52.28;10;
2;ENG;Warwickshire;Washwood Heath;;W1.85;N52.49;10;
2;ENG;Warwickshire;Wasperton;;W1.62;N52.21;10;
2;ENG;Warwickshire;Waste Green;;W1.64;N52.31;10;
2;ENG;Warwickshire;Water Orton;;W1.75;N52.51;10;
2;ENG;Warwickshire;Watford Gap;;W1.83;N52.59;10;
2;ENG;Warwickshire;Weddington;;W1.47;N52.52;10;
2;ENG;Warwickshire;Weethley;;W1.92;N52.19;10;
2;ENG;Warwickshire;Weethley Bank;;W1.92;N52.18;10;
2;ENG;Warwickshire;Weethley Gate;;W1.92;N52.18;10;
2;ENG;Warwickshire;Welford-on-Avon;;W1.79;N52.15;10;
2;ENG;Warwickshire;Wellesbourne;;W1.60;N52.19;10;
2;ENG;Warwickshire;Weoley Castle;;W1.97;N52.43;10;
2;ENG;Warwickshire;West Didsbury;;W2.25;N53.41;10;
2;ENG;Warwickshire;West Gorton;;W2.21;N53.46;10;
2;ENG;Warwickshire;West Heath;;W1.97;N52.39;10;
2;ENG;Warwickshire;Weston in Arden;;W1.44;N52.47;10;
2;ENG;Warwickshire;Weston under Wetherley;;W1.47;N52.31;10;
2;ENG;Warwickshire;Weston-on-Avon;;W1.78;N52.15;10;
2;ENG;Warwickshire;Westwood Heath;;W1.59;N52.38;10;
2;ENG;Warwickshire;Whalley Range;;W2.27;N53.44;10;
2;ENG;Warwickshire;Wharf;;W1.37;N52.17;10;
2;ENG;Warwickshire;Whatcote;;W1.57;N52.09;10;
2;ENG;Warwickshire;Whateley;;W1.67;N52.58;10;
2;ENG;Warwickshire;Whichford;;W1.54;N52.00;10;
2;ENG;Warwickshire;Whitacre Heath;;W1.69;N52.52;10;
2;ENG;Warwickshire;Whitehouse Common;;W1.80;N52.57;10;
2;ENG;Warwickshire;Whitemoor;;W1.57;N52.34;10;
2;ENG;Warwickshire;WHITESTONE;;W1.44;N52.49;10;
2;ENG;Warwickshire;Whitley;;W1.48;N52.39;10;
2;ENG;Warwickshire;Whitmore Park;;W1.51;N52.43;10;
2;ENG;Warwickshire;Whitnash;;W1.53;N52.26;10;
2;ENG;Warwickshire;Whittington;;W1.57;N52.58;10;
2;ENG;Warwickshire;Whoberley;;W1.56;N52.39;10;
2;ENG;Warwickshire;Wibtoft;;W1.30;N52.47;10;
2;ENG;Warwickshire;Wigston Parva;;W1.32;N52.49;10;
2;ENG;Warwickshire;Willenhall;;W1.47;N52.38;10;
2;ENG;Warwickshire;Willenhall;;W2.06;N52.58;10;
2;ENG;Warwickshire;Willey;;W1.28;N52.45;10;
2;ENG;Warwickshire;Willington;;W1.62;N52.04;10;
2;ENG;Warwickshire;Willoughby;;W1.25;N52.29;10;
2;ENG;Warwickshire;Wilmcote;;W1.76;N52.22;10;
2;ENG;Warwickshire;Wimpstone;;W1.69;N52.13;10;
2;ENG;Warwickshire;Winderton;;W1.53;N52.05;10;
2;ENG;Warwickshire;Windy Arbour;;W1.57;N52.33;10;
2;ENG;Warwickshire;Winson Green;;W1.94;N52.49;10;
2;ENG;Warwickshire;Wishaw;;W1.75;N52.54;10;
2;ENG;Warwickshire;Witherley;;W1.52;N52.57;10;
2;ENG;Warwickshire;Withington;;W2.22;N53.42;10;
2;ENG;Warwickshire;Withybrook;;W1.36;N52.45;10;
2;ENG;Warwickshire;Witton;;W1.88;N52.51;10;
2;ENG;Warwickshire;Wixford;;W1.88;N52.18;10;
2;ENG;Warwickshire;Wolfhampcote;;W1.23;N52.28;10;
2;ENG;Warwickshire;Wolston;;W1.39;N52.37;10;
2;ENG;Warwickshire;Wolverhampton;;W2.13;N52.58;10;
2;ENG;Warwickshire;Wolverton;;W1.70;N52.25;10;
2;ENG;Warwickshire;Wolvey;;W1.38;N52.47;10;
2;ENG;Warwickshire;Wolvey Heath;;W1.36;N52.48;10;
2;ENG;Warwickshire;Wood Bevington;;W1.92;N52.17;10;
2;ENG;Warwickshire;Wood End;;W1.47;N52.43;10;
2;ENG;Warwickshire;Wood End;;W1.85;N52.33;10;
2;ENG;Warwickshire;Woodcock Hill;;W1.98;N52.42;10;
2;ENG;Warwickshire;Woodgate;;W2.01;N52.43;10;
2;ENG;Warwickshire;Woodgate Valley;;W2.00;N52.44;10;
2;ENG;Warwickshire;Woodhouse Park;;W2.27;N53.37;10;
2;ENG;Warwickshire;Woodloes Park;;W1.59;N52.29;10;
2;ENG;Warwickshire;Woods Bank;;W2.04;N52.56;10;
2;ENG;Warwickshire;Woodway Park;;W1.45;N52.42;10;
2;ENG;Warwickshire;Woolscott;;W1.28;N52.29;10;
2;ENG;Warwickshire;Wootton Wawen;;W1.78;N52.26;10;
2;ENG;Warwickshire;Wormleighton;;W1.35;N52.17;10;
2;ENG;Warwickshire;Wroxhall;;W1.67;N52.33;10;
2;ENG;Warwickshire;Wyken;;W1.47;N52.41;10;
2;ENG;Warwickshire;Wylde Green;;W1.82;N52.54;10;
2;ENG;Warwickshire;Wythenshawe;;W2.27;N53.38;10;
2;ENG;Warwickshire;Yardley;;W1.82;N52.46;10;
2;ENG;Warwickshire;Yardley Wood;;W1.85;N52.41;10;
2;ENG;Warwickshire;Yarningale Common;;W1.72;N52.29;10;
2;ENG;Warwickshire;Yew Green;;W1.67;N52.30;10;