"Level";"Country";"State";"Place";"void";"Longitude";"Latitude";"ZoomLevel";"Icon"
1;Australia;Western Australia;;;122.5;-25.7;6;
2;Australia;Western Australia;Abbotts;;118.3833333;-26.3166667;6;
2;Australia;Western Australia;Agnew;;120.5;-28.0833333;6;
2;Australia;Western Australia;Ajana;;114.6333333;-27.95;6;
2;Australia;Western Australia;Albany;;117.8916667;-35.0169444;6;
2;Australia;Western Australia;Aldersyde;;117.2666667;-32.3833333;6;
2;Australia;Western Australia;Allanson;;116.1;-33.3333333;6;
2;Australia;Western Australia;Amery;;117.0833333;-31.15;6;
2;Australia;Western Australia;Amphion;;116.2;-32.7666667;6;
2;Australia;Western Australia;Ardath;;118.1;-32.0333333;6;
2;Australia;Western Australia;Armadale;;116;-32.15;6;
2;Australia;Western Australia;Arrino;;115.6166667;-29.4333333;6;
2;Australia;Western Australia;Arthur River;;117.0333333;-33.3333333;6;
2;Australia;Western Australia;Arumvale;;115.0833333;-34.1666667;6;
2;Australia;Western Australia;Attadale;;115.7958333;-32.0236111;6;
2;Australia;Western Australia;Augusta;;115.1666667;-34.3166667;6;
2;Australia;Western Australia;Australind;;115.7166667;-33.2666667;6;
2;Australia;Western Australia;Baandee;;117.9666667;-31.5833333;6;
2;Australia;Western Australia;Babakin;;118.0166667;-32.1166667;6;
2;Australia;Western Australia;Baddera;;114.6333333;-28.2833333;6;
2;Australia;Western Australia;Badgebup;;117.9;-33.6333333;6;
2;Australia;Western Australia;Badjaling;;117.5;-32;6;
2;Australia;Western Australia;Bakers Hill;;116.45;-31.75;6;
2;Australia;Western Australia;Baladjie;;118.9333333;-30.9833333;6;
2;Australia;Western Australia;Balbarrup;;116.2;-34.2333333;6;
2;Australia;Western Australia;Balgarri;;121.1166667;-30.4833333;6;
2;Australia;Western Australia;Balgo Hill;;127.9666667;-20.15;6;
2;Australia;Western Australia;Balgo;;127.9666667;-20.15;6;
2;Australia;Western Australia;Balingup;;115.9666667;-33.8;6;
2;Australia;Western Australia;Balkuling;;117.1333333;-31.9833333;6;
2;Australia;Western Australia;Ballaying;;117.55;-33.3;6;
2;Australia;Western Australia;Ballidu;;116.7666667;-30.6;6;
2;Australia;Western Australia;Bally Bally;;117.1;-32.1666667;6;
2;Australia;Western Australia;Bamboo Creek;;120.2166667;-20.9333333;6;
2;Australia;Western Australia;Bamboo Mining Centre;;120.2166667;-20.9333333;6;
2;Australia;Western Australia;Bamboo;;120.2166667;-20.9333333;6;
2;Australia;Western Australia;Bangemall Mining Centre;;116.4666667;-24.2;6;
2;Australia;Western Australia;Bangemall;;116.4666667;-24.2;6;
2;Australia;Western Australia;Banksiadale;;116.0833333;-32.65;6;
2;Australia;Western Australia;Bannister North;;116.4333333;-32.5833333;6;
2;Australia;Western Australia;Barbalin;;118.1166667;-30.8833333;6;
2;Australia;Western Australia;Barberton;;116.0333333;-30.75;6;
2;Australia;Western Australia;Bardoc;;121.2833333;-30.3333333;6;
2;Australia;Western Australia;Barrambie;;119.1166667;-27.4333333;6;
2;Australia;Western Australia;Barronhurst;;116.0666667;-34.4166667;6;
2;Australia;Western Australia;Bartons Mill;;116.2;-32.0666667;6;
2;Australia;Western Australia;Bassendean;;115.95;-31.9;6;
2;Australia;Western Australia;Beacon;;117.85;-30.4333333;6;
2;Australia;Western Australia;Bedfordale;;116.05;-32.1833333;6;
2;Australia;Western Australia;Beechina;;116.3166667;-31.85;6;
2;Australia;Western Australia;Beelerup;;115.85;-33.5666667;6;
2;Australia;Western Australia;Beenong;;118.5833333;-33.05;6;
2;Australia;Western Australia;Beermullah;;115.7666667;-31.2666667;6;
2;Australia;Western Australia;Beete;;121.55;-32.75;6;
2;Australia;Western Australia;Bejoording;;116.5;-31.4;6;
2;Australia;Western Australia;Belka;;118.1833333;-31.7333333;6;
2;Australia;Western Australia;Bellevue;;116.0166667;-31.9;6;
2;Australia;Western Australia;Belmunging;;117.0666667;-31.8166667;6;
2;Australia;Western Australia;Bencubbin;;117.8666667;-30.8;6;
2;Australia;Western Australia;Bendering West;;118.1666667;-32.35;6;
2;Australia;Western Australia;Bendering;;118.3166667;-32.3833333;6;
2;Australia;Western Australia;Benger;;115.85;-33.1666667;6;
2;Australia;Western Australia;Benjinup;;116.3166667;-33.7666667;6;
2;Australia;Western Australia;Bentley;;115.9166667;-32;6;
2;Australia;Western Australia;Berakin;;116.3166667;-32.0833333;6;
2;Australia;Western Australia;Beraking;;116.3166667;-32.0833333;6;
2;Australia;Western Australia;Berkshire Valley;;116.1666667;-30.55;6;
2;Australia;Western Australia;Beverley;;116.9166667;-32.1166667;6;
2;Australia;Western Australia;Bickley;;116.0833333;-32;6;
2;Australia;Western Australia;Bicton;;115.7833333;-32.0277778;6;
2;Australia;Western Australia;Big Bell;;117.6666667;-27.35;6;
2;Australia;Western Australia;Billaricay;;118.3333333;-32.3;6;
2;Australia;Western Australia;Bindi Bindi;;116.3666667;-30.6333333;6;
2;Australia;Western Australia;Binningup;;115.6833333;-33.15;6;
2;Australia;Western Australia;Binnu;;114.65;-28.0333333;6;
2;Australia;Western Australia;Black Flag;;121.2333333;-30.5666667;6;
2;Australia;Western Australia;Blue Spec;;120.2833333;-21.8;6;
2;Australia;Western Australia;Bodallin;;118.8666667;-31.3666667;6;
2;Australia;Western Australia;Boddalin;;118.8666667;-31.3666667;6;
2;Australia;Western Australia;Boddington;;116.4666667;-32.8;6;
2;Australia;Western Australia;Bokal;;116.9;-33.5;6;
2;Australia;Western Australia;Bolgart;;116.5;-31.2666667;6;
2;Australia;Western Australia;Bonnie Rock;;118.35;-30.5333333;6;
2;Australia;Western Australia;Bonnie Vale;;121.1666667;-30.85;6;
2;Australia;Western Australia;Boodarockin;;118.8166667;-31.0166667;6;
2;Australia;Western Australia;Boogardie;;117.7833333;-28.0333333;6;
2;Australia;Western Australia;Boondi;;120.3833333;-31.1833333;6;
2;Australia;Western Australia;Booraan;;118.3833333;-31.45;6;
2;Australia;Western Australia;Boorabbin;;120.3;-31.2;6;
2;Australia;Western Australia;Boorara;;121.6333333;-30.8166667;6;
2;Australia;Western Australia;Bootenal;;114.7166667;-28.8666667;6;
2;Australia;Western Australia;Borden;;118.2666667;-34.0833333;6;
2;Australia;Western Australia;Bornholm;;117.5833333;-35.05;6;
2;Australia;Western Australia;Boscabel;;117.05;-33.6666667;6;
2;Australia;Western Australia;Botherling;;116.8;-31.1333333;6;
2;Australia;Western Australia;Boulder;;121.4833333;-30.7833333;6;
2;Australia;Western Australia;Boundain;;117.3166667;-32.95;6;
2;Australia;Western Australia;Bowelling;;116.5;-33.4166667;6;
2;Australia;Western Australia;Bowes;;114.6666667;-28.3833333;6;
2;Australia;Western Australia;Bowgada;;116.1666667;-29.3333333;6;
2;Australia;Western Australia;Boya;;116.05;-31.9333333;6;
2;Australia;Western Australia;Boyanup;;115.7333333;-33.4833333;6;
2;Australia;Western Australia;Boyup Brook;;116.4;-33.8333333;6;
2;Australia;Western Australia;Bramley;;115.1;-33.9;6;
2;Australia;Western Australia;Bridgetown;;116.1333333;-33.95;6;
2;Australia;Western Australia;Bringo;;114.8333333;-28.7333333;6;
2;Australia;Western Australia;Broad Arrow;;121.45;-30.3333333;6;
2;Australia;Western Australia;Bromus;;121.6333333;-32.5;6;
2;Australia;Western Australia;Brookdale;;115.95;-32.7;6;
2;Australia;Western Australia;Brookton;;117.0166667;-32.3666667;6;
2;Australia;Western Australia;Broome;;122.2333333;-17.9666667;6;
2;Australia;Western Australia;Broomehill;;117.65;-33.85;6;
2;Australia;Western Australia;Brown Hill;;121.5;-30.7666667;6;
2;Australia;Western Australia;Bruce Rock;;118.15;-31.8833333;6;
2;Australia;Western Australia;Brunswick Junction;;115.8333333;-33.25;6;
2;Australia;Western Australia;Buckingham;;116.3333333;-33.4;6;
2;Australia;Western Australia;Buckinghams Mill;;116.3333333;-33.4;6;
2;Australia;Western Australia;Bulading;;116.6166667;-33.3666667;6;
2;Australia;Western Australia;Bullabulling;;120.5333333;-31.0166667;6;
2;Australia;Western Australia;Bullaring;;117.7333333;-32.5;6;
2;Australia;Western Australia;Bullfinch;;119.1;-30.9833333;6;
2;Australia;Western Australia;Bullsbrook;;116;-31.6666667;6;
2;Australia;Western Australia;Bulong;;121.8;-30.75;6;
2;Australia;Western Australia;Bulyee;;117.5166667;-32.3666667;6;
2;Australia;Western Australia;Bunbury;;115.6333333;-33.3333333;6;
2;Australia;Western Australia;Bundera Bundera;;113.8;-22.4;6;
2;Australia;Western Australia;Bungulluping;;118.2333333;-31.9666667;6;
2;Australia;Western Australia;Buniche;;118.8166667;-33;6;
2;Australia;Western Australia;Bunjil;;116.3666667;-29.65;6;
2;Australia;Western Australia;Bunketch;;117.1666667;-30.4333333;6;
2;Australia;Western Australia;Buntine;;116.5666667;-29.9833333;6;
2;Australia;Western Australia;Burabadji;;116.8;-31.2166667;6;
2;Australia;Western Australia;Burakin;;117.1666667;-30.5166667;6;
2;Australia;Western Australia;Burbanks;;121.1333333;-31.05;6;
2;Australia;Western Australia;Burbidge;;119.5666667;-31.55;6;
2;Australia;Western Australia;Burekup;;115.8166667;-33.3;6;
2;Australia;Western Australia;Burges;;116.7833333;-31.8166667;6;
2;Australia;Western Australia;Burngup;;118.7;-33.0333333;6;
2;Australia;Western Australia;Burracoppin;;118.4833333;-31.3833333;6;
2;Australia;Western Australia;Burran Rock;;118;-31.25;6;
2;Australia;Western Australia;Burtville;;122.65;-28.7833333;6;
2;Australia;Western Australia;Busselton;;115.3333333;-33.65;6;
2;Australia;Western Australia;Byford;;116;-32.2166667;6;
2;Australia;Western Australia;Cadoux;;117.1333333;-30.7833333;6;
2;Australia;Western Australia;Caitup;;121.85;-33.75;6;
2;Australia;Western Australia;Calcarra;;116.4666667;-31.1333333;6;
2;Australia;Western Australia;Calingiri;;116.45;-31.1;6;
2;Australia;Western Australia;Campion;;118.4833333;-31.0333333;6;
2;Australia;Western Australia;Cancanning;;117.5666667;-33.1333333;6;
2;Australia;Western Australia;Canna;;115.85;-28.9;6;
2;Australia;Western Australia;Cannington;;115.95;-32.0166667;6;
2;Australia;Western Australia;Capel;;115.55;-33.5666667;6;
2;Australia;Western Australia;Capercup;;116.7333333;-33.5166667;6;
2;Australia;Western Australia;Carani;;116.4;-30.9833333;6;
2;Australia;Western Australia;Carbarup;;117.7;-34.5166667;6;
2;Australia;Western Australia;Carbine;;120.9;-30.4833333;6;
2;Australia;Western Australia;Carbunup;;115.1833333;-33.7;6;
2;Australia;Western Australia;Cardup;;116;-32.25;6;
2;Australia;Western Australia;Carilla;;116.1333333;-32.0333333;6;
2;Australia;Western Australia;Carinyah;;116.1666667;-32.0833333;6;
2;Australia;Western Australia;Carlecatup;;117.3333333;-33.8333333;6;
2;Australia;Western Australia;Carmel;;116.1;-32.0166667;6;
2;Australia;Western Australia;Carnage;;120.9333333;-30.3833333;6;
2;Australia;Western Australia;Carnamah;;115.8833333;-29.7;6;
2;Australia;Western Australia;Carnarvon;;113.6333333;-24.8666667;6;
2;Australia;Western Australia;Caroling;;117.5;-32.0666667;6;
2;Australia;Western Australia;Caron;;116.3;-29.5833333;6;
2;Australia;Western Australia;Carrabin;;118.6833333;-31.3833333;6;
2;Australia;Western Australia;Carrolup;;117.4333333;-33.75;6;
2;Australia;Western Australia;Cartacup;;119.8166667;-33.5666667;6;
2;Australia;Western Australia;Cartmeticup;;117.5333333;-33.4666667;6;
2;Australia;Western Australia;Caversham;;115.9666667;-31.8833333;6;
2;Australia;Western Australia;Celebration;;121.5833333;-31.0166667;6;
2;Australia;Western Australia;Cervantes;;115.0638889;-30.5005556;6;
2;Australia;Western Australia;Chadoora;;116.2166667;-32.7666667;6;
2;Australia;Western Australia;Chedaring;;116.3666667;-31.7833333;6;
2;Australia;Western Australia;Cheritons Find;;119.6333333;-31.8166667;6;
2;Australia;Western Australia;Cherry Tree Pool;;117.2833333;-33.75;6;
2;Australia;Western Australia;Chillilup;;118.6166667;-34.3333333;6;
2;Australia;Western Australia;Chinocup;;118.3833333;-33.5333333;6;
2;Australia;Western Australia;Chinokup;;118.3833333;-33.5333333;6;
2;Australia;Western Australia;Chittering;;116.1;-31.4833333;6;
2;Australia;Western Australia;Chorkerup;;117.7;-34.8166667;6;
2;Australia;Western Australia;Chowerup;;116.6666667;-34.1;6;
2;Australia;Western Australia;Circle Valley;;121.6833333;-33.0833333;6;
2;Australia;Western Australia;Clackline;;116.5333333;-31.7333333;6;
2;Australia;Western Australia;Clampton;;119.1;-29.9333333;6;
2;Australia;Western Australia;Claremont;;115.7861111;-31.9875;6;
2;Australia;Western Australia;Cleary;;117.6333333;-30.4333333;6;
2;Australia;Western Australia;Coates;;116.4;-31.75;6;
2;Australia;Western Australia;Collanilling;;117.5;-33.2666667;6;
2;Australia;Western Australia;Collgar;;118.3666667;-31.55;6;
2;Australia;Western Australia;Collie Burn;;116.1833333;-33.4;6;
2;Australia;Western Australia;Collie Cardiff;;116.2;-33.4333333;6;
2;Australia;Western Australia;Collie;;116.15;-33.3666667;6;
2;Australia;Western Australia;Comet Vale;;121.1166667;-29.95;6;
2;Australia;Western Australia;Comet;;119.7166667;-21.2333333;6;
2;Australia;Western Australia;Condon;;119.3666667;-20.0166667;6;
2;Australia;Western Australia;Congelin;;116.8833333;-32.8333333;6;
2;Australia;Western Australia;Contine;;116.9666667;-32.8666667;6;
2;Australia;Western Australia;Coogee;;115.7666667;-32.1166667;6;
2;Australia;Western Australia;Cooglegong;;119.4;-21.5;6;
2;Australia;Western Australia;Cookernup;;115.8833333;-32.9833333;6;
2;Australia;Western Australia;Coolboogin;;117.5166667;-30.95;6;
2;Australia;Western Australia;Coolgardie;;121.1666667;-30.95;6;
2;Australia;Western Australia;Coolimba;;114.9958333;-29.8583333;6;
2;Australia;Western Australia;Coolup;;115.8666667;-32.75;6;
2;Australia;Western Australia;Coomberdale;;116.0333333;-30.4666667;6;
2;Australia;Western Australia;Coonana;;123.1166667;-31.0166667;6;
2;Australia;Western Australia;Coondle;;116.4333333;-31.4833333;6;
2;Australia;Western Australia;Coorow;;116.0166667;-29.8833333;6;
2;Australia;Western Australia;Cordering;;116.6666667;-33.5166667;6;
2;Australia;Western Australia;Corinthian;;119.2166667;-31.1166667;6;
2;Australia;Western Australia;Corrigin;;117.8666667;-32.35;6;
2;Australia;Western Australia;Cosmo Newberry;;122.9;-28;6;
2;Australia;Western Australia;Cosmo Newbery;;122.9;-28;6;
2;Australia;Western Australia;Cossack;;117.2;-20.7;6;
2;Australia;Western Australia;Cottesloe;;115.7666667;-32;6;
2;Australia;Western Australia;Courtlea;;116.65;-30.3166667;6;
2;Australia;Western Australia;Cowaramup;;115.0833333;-33.8666667;6;
2;Australia;Western Australia;Cowcowing;;117.45;-30.9833333;6;
2;Australia;Western Australia;Cowerdup;;119.9666667;-33.8166667;6;
2;Australia;Western Australia;Cramphorne;;118.55;-31.8333333;6;
2;Australia;Western Australia;Crampthorne;;118.55;-31.8333333;6;
2;Australia;Western Australia;Cranbrook;;117.3333333;-34.25;6;
2;Australia;Western Australia;Crawley-Nedlands;;115.8;-31.9833333;6;
2;Australia;Western Australia;Crossman;;116.6;-32.7833333;6;
2;Australia;Western Australia;Cuballing;;117.1833333;-32.8333333;6;
2;Australia;Western Australia;Cuddingwarra;;117.7833333;-27.35;6;
2;Australia;Western Australia;Cue;;117.9;-27.4166667;6;
2;Australia;Western Australia;Culbin;;116.8333333;-33.1666667;6;
2;Australia;Western Australia;Culham;;116.4666667;-31.4166667;6;
2;Australia;Western Australia;Cunderdin North;;117.2166667;-31.5333333;6;
2;Australia;Western Australia;Cunderdin;;117.25;-31.65;6;
2;Australia;Western Australia;Cunjardine;;116.7833333;-31.4666667;6;
2;Australia;Western Australia;Curara;;115.5666667;-28.5833333;6;
2;Australia;Western Australia;Cuthbert;;117.7983333;-35.0158333;6;
2;Australia;Western Australia;Daadenning Creek;;117.7833333;-31.7666667;6;
2;Australia;Western Australia;Dale Bridge;;116.8166667;-32.0833333;6;
2;Australia;Western Australia;Dalkeith;;115.7958333;-31.9958333;6;
2;Australia;Western Australia;Dalton Mining Centre;;119.2333333;-21.4833333;6;
2;Australia;Western Australia;Dalton;;119.2333333;-21.4833333;6;
2;Australia;Western Australia;Dalwallinu;;116.6666667;-30.2833333;6;
2;Australia;Western Australia;Damboring;;116.7;-30.5166667;6;
2;Australia;Western Australia;Dampier;;116.7;-20.6666667;6;
2;Australia;Western Australia;Dandaragan;;115.7;-30.6666667;6;
2;Australia;Western Australia;Dandarragan;;115.7;-30.6666667;6;
2;Australia;Western Australia;Dangin;;117.3166667;-32.05;6;
2;Australia;Western Australia;Daniell;;121.6166667;-32.6;6;
2;Australia;Western Australia;Dardadine;;116.8333333;-33.2333333;6;
2;Australia;Western Australia;Dardanup;;115.75;-33.4;6;
2;Australia;Western Australia;Darkan;;116.7333333;-33.3333333;6;
2;Australia;Western Australia;Darkin;;116.2666667;-32.05;6;
2;Australia;Western Australia;Darlington;;116.0833333;-31.9166667;6;
2;Australia;Western Australia;Datatine;;117.9166667;-33.4666667;6;
2;Australia;Western Australia;Daveyhurst;;120.6333333;-30.05;6;
2;Australia;Western Australia;Davyhurst;;120.6333333;-30.05;6;
2;Australia;Western Australia;Day Dawn;;117.85;-27.4833333;6;
2;Australia;Western Australia;Deanmill;;116.0833333;-34.25;6;
2;Australia;Western Australia;Deeside Homestead;;116.4166667;-34.4;6;
2;Australia;Western Australia;Deeside;;116.4166667;-34.4;6;
2;Australia;Western Australia;Denham;;113.5422222;-25.9333333;6;
2;Australia;Western Australia;Denison;;114.9166667;-29.2833333;6;
2;Australia;Western Australia;Denmark;;117.35;-34.95;6;
2;Australia;Western Australia;Derby;;123.9666667;-17.3;6;
2;Australia;Western Australia;Desmond;;120.1833333;-33.6333333;6;
2;Australia;Western Australia;Devan Find Mining Centre;;119.4;-22.9;6;
2;Australia;Western Australia;Devans Find Mining Centre;;119.4;-22.9;6;
2;Australia;Western Australia;Devans Find;;119.4;-22.9;6;
2;Australia;Western Australia;Dewars Pool;;116.4333333;-31.4833333;6;
2;Australia;Western Australia;Dindiloa;;114.8;-28.45;6;
2;Australia;Western Australia;Dinninup;;116.55;-33.8166667;6;
2;Australia;Western Australia;Doconing;;116.3;-31.85;6;
2;Australia;Western Australia;Dongara;;114.9333333;-29.25;6;
2;Australia;Western Australia;Dongarra;;114.9333333;-29.25;6;
2;Australia;Western Australia;Dongolocking;;117.8166667;-33.1333333;6;
2;Australia;Western Australia;Donnybrook;;115.8166667;-33.5833333;6;
2;Australia;Western Australia;Doodenanning;;117.15;-31.8666667;6;
2;Australia;Western Australia;Doodlakine;;117.85;-31.5833333;6;
2;Australia;Western Australia;Doombup;;122.0333333;-33.8166667;6;
2;Australia;Western Australia;Dornock;;118.5833333;-32.8;6;
2;Australia;Western Australia;Dowak;;121.55;-32.9;6;
2;Australia;Western Australia;Dowerin;;117.0333333;-31.2;6;
2;Australia;Western Australia;Drummond Cove;;114.6116667;-28.6716667;6;
2;Australia;Western Australia;Dryandra;;116.9666667;-32.7666667;6;
2;Australia;Western Australia;Dudawa;;115.7166667;-29.3833333;6;
2;Australia;Western Australia;Dudinin;;117.9;-32.8833333;6;
2;Australia;Western Australia;Duggan;;118.15;-33.15;6;
2;Australia;Western Australia;Dukin;;117.4166667;-30.95;6;
2;Australia;Western Australia;Dulbelling;;117.2666667;-32.05;6;
2;Australia;Western Australia;Dumbleyung;;117.7333333;-33.3166667;6;
2;Australia;Western Australia;Dundas;;121.7666667;-32.4;6;
2;Australia;Western Australia;Dunnsville;;120.8833333;-30.6333333;6;
2;Australia;Western Australia;Dunsborough;;115.0833333;-33.5833333;6;
2;Australia;Western Australia;Duranillin;;116.7833333;-33.5166667;6;
2;Australia;Western Australia;Duranilling;;116.7833333;-33.5166667;6;
2;Australia;Western Australia;Duri;;120.2;-31.2166667;6;
2;Australia;Western Australia;Dwarda;;116.6666667;-32.7666667;6;
2;Australia;Western Australia;Dwellingup;;116.0666667;-32.7166667;6;
2;Australia;Western Australia;East Arthur;;117.05;-33.4333333;6;
2;Australia;Western Australia;East Beverley;;117.0166667;-32.0333333;6;
2;Australia;Western Australia;East Fremantle;;115.7666667;-32.0388889;6;
2;Australia;Western Australia;East Kirup Mill;;116.05;-33.7;6;
2;Australia;Western Australia;East Knodut;;116.9;-30.6833333;6;
2;Australia;Western Australia;East Popanyinning;;117.25;-32.6333333;6;
2;Australia;Western Australia;East Wickepin;;117.65;-32.7833333;6;
2;Australia;Western Australia;East Witchcliffe;;115.1166667;-34.0166667;6;
2;Australia;Western Australia;Eastbrook;;116.1;-34.4;6;
2;Australia;Western Australia;Eastern Creek Mining Centre;;120.6166667;-21.6833333;6;
2;Australia;Western Australia;Eastern Creek;;120.6166667;-21.6833333;6;
2;Australia;Western Australia;Eaton;;115.7166667;-33.3166667;6;
2;Australia;Western Australia;Ejanding;;117.1166667;-31.0333333;6;
2;Australia;Western Australia;Elabbin;;118.1333333;-31.2333333;6;
2;Australia;Western Australia;Elleker;;117.7302778;-35.0091667;6;
2;Australia;Western Australia;Elphin;;116.6666667;-30.85;6;
2;Australia;Western Australia;Emu Hill;;118.35;-32.1166667;6;
2;Australia;Western Australia;Emu Point;;117.9380556;-34.9983333;6;
2;Australia;Western Australia;Esperance;;121.9;-33.8666667;6;
2;Australia;Western Australia;Eucla Telegraph Office;;128.8666667;-31.7166667;6;
2;Australia;Western Australia;Eucla;;128.8666667;-31.7166667;6;
2;Australia;Western Australia;Eujinyn;;118.05;-31.9;6;
2;Australia;Western Australia;Eundyne;;121.8;-31.7833333;6;
2;Australia;Western Australia;Eundynie;;121.8;-31.7833333;6;
2;Australia;Western Australia;Ewlyamartup;;117.7333333;-33.7;6;
2;Australia;Western Australia;Exmouth;;114.1333333;-21.9333333;6;
2;Australia;Western Australia;Eyre;;126.3;-32.25;6;
2;Australia;Western Australia;Falcondale;;118.2833333;-33.3;6;
2;Australia;Western Australia;Field Finds;;117.2666667;-29.0333333;6;
2;Australia;Western Australia;Fields Find;;117.2666667;-29.0333333;6;
2;Australia;Western Australia;Fitzroy Crossing;;125.5833333;-18.1833333;6;
2;Australia;Western Australia;Fitzroy;;125.5833333;-18.1833333;6;
2;Australia;Western Australia;Flat Rocks;;117.3833333;-33.95;6;
2;Australia;Western Australia;Flinders Bay;;115.1666667;-34.35;6;
2;Australia;Western Australia;Forest Grove;;115.0833333;-34.0666667;6;
2;Australia;Western Australia;Formby;;118.05;-33.9666667;6;
2;Australia;Western Australia;Forrest;;128.1;-30.85;6;
2;Australia;Western Australia;Frankland;;117.0666667;-34.3666667;6;
2;Australia;Western Australia;Fremantle;;115.7666667;-32.05;6;
2;Australia;Western Australia;Gabalong;;116.3833333;-30.7166667;6;
2;Australia;Western Australia;Gabanintha;;118.6333333;-26.9333333;6;
2;Australia;Western Australia;Gabbin;;117.6833333;-30.8;6;
2;Australia;Western Australia;Galena;;114.6833333;-27.8333333;6;
2;Australia;Western Australia;Garden Gully;;118.45;-26.4666667;6;
2;Australia;Western Australia;Garratt;;119.25;-31.2666667;6;
2;Australia;Western Australia;Gascoyne Junction;;115.2166667;-25.05;6;
2;Australia;Western Australia;Geeralying;;117.0333333;-32.9833333;6;
2;Australia;Western Australia;Geraldton;;114.6;-28.7666667;6;
2;Australia;Western Australia;Ghooli;;119.45;-31.25;6;
2;Australia;Western Australia;Gibson;;121.8;-33.65;6;
2;Australia;Western Australia;Gilgai;;119.9333333;-31.25;6;
2;Australia;Western Australia;Gilgering;;116.8;-32.0166667;6;
2;Australia;Western Australia;Gillingarra;;116.05;-30.9333333;6;
2;Australia;Western Australia;Gingin;;115.9;-31.35;6;
2;Australia;Western Australia;Gladstone;;114.25;-25.9333333;6;
2;Australia;Western Australia;Glenlynn;;116.15;-34;6;
2;Australia;Western Australia;Gnarming;;118.2;-32.6166667;6;
2;Australia;Western Australia;Gnowangerup;;117.9833333;-33.9333333;6;
2;Australia;Western Australia;Gnows Nest;;116.8666667;-28.5666667;6;
2;Australia;Western Australia;Goldsworthy;;119.5333333;-20.35;6;
2;Australia;Western Australia;Goodia;;121.6833333;-32.4;6;
2;Australia;Western Australia;Goomalling;;116.8166667;-31.3166667;6;
2;Australia;Western Australia;Goomarin;;118.4;-31.2333333;6;
2;Australia;Western Australia;Goongarrie;;121.15;-30.05;6;
2;Australia;Western Australia;Gooseberry Hill;;116.05;-31.95;6;
2;Australia;Western Australia;Gorge Rock;;117.9333333;-32.45;6;
2;Australia;Western Australia;Gosnells;;116;-32.0833333;6;
2;Australia;Western Australia;Graball;;118.5666667;-32.0333333;6;
2;Australia;Western Australia;Gramphorne;;118.55;-31.8333333;6;
2;Australia;Western Australia;Grants Patch;;121.1166667;-30.45;6;
2;Australia;Western Australia;Grasmere;;117.7555556;-35.0180556;6;
2;Australia;Western Australia;Grass Patch;;121.7166667;-33.2333333;6;
2;Australia;Western Australia;Grass Valley;;116.8;-31.65;6;
2;Australia;Western Australia;Grassmere;;117.7555556;-35.0180556;6;
2;Australia;Western Australia;Green Head;;114.9672222;-30.0716667;6;
2;Australia;Western Australia;Greenbushes;;116.05;-33.85;6;
2;Australia;Western Australia;Greenhills;;116.9666667;-31.9333333;6;
2;Australia;Western Australia;Greenmount;;116.05;-31.9;6;
2;Australia;Western Australia;Greenough;;114.7333333;-28.95;6;
2;Australia;Western Australia;Greylands;;115.7791667;-31.9736111;6;
2;Australia;Western Australia;Gudarra;;121.3333333;-30.4833333;6;
2;Australia;Western Australia;Guilderton;;115.5013889;-31.35;6;
2;Australia;Western Australia;Guildford;;115.9666667;-31.9;6;
2;Australia;Western Australia;Gunyidi;;116.0666667;-30.1333333;6;
2;Australia;Western Australia;Gutha;;115.9333333;-28.9833333;6;
2;Australia;Western Australia;Gwambygine;;116.8;-31.9833333;6;
2;Australia;Western Australia;Haig;;126.0833333;-31.0166667;6;
2;Australia;Western Australia;Hakea;;116.2833333;-32.9333333;6;
2;Australia;Western Australia;Halls Creek;;127.7666667;-18.2666667;6;
2;Australia;Western Australia;Hamel;;115.9166667;-32.8833333;6;
2;Australia;Western Australia;Hamelin Bay;;115.0166667;-34.225;6;
2;Australia;Western Australia;Hamersley;;116.7166667;-31.7666667;6;
2;Australia;Western Australia;Harewood;;117.25;-34.9166667;6;
2;Australia;Western Australia;Harrismith;;117.8666667;-32.9333333;6;
2;Australia;Western Australia;Harvey;;115.9;-33.0833333;6;
2;Australia;Western Australia;Haynesdale;;117.0833333;-34.2833333;6;
2;Australia;Western Australia;Hedges;;118.35;-32.1666667;6;
2;Australia;Western Australia;Herne Hill;;116.0166667;-31.8333333;6;
2;Australia;Western Australia;Hester;;116.15;-33.9;6;
2;Australia;Western Australia;Higginsville;;121.7166667;-31.75;6;
2;Australia;Western Australia;Highbury;;117.25;-33.0666667;6;
2;Australia;Western Australia;Hines Hill;;118.0833333;-31.5333333;6;
2;Australia;Western Australia;Hoddy Well;;116.4833333;-31.6333333;6;
2;Australia;Western Australia;Hoffmans Mill;;116.0833333;-33;6;
2;Australia;Western Australia;Holdens Find;;118.5666667;-25.9166667;6;
2;Australia;Western Australia;Holleton;;119.0333333;-31.95;6;
2;Australia;Western Australia;Holly;;117.4833333;-33.8;6;
2;Australia;Western Australia;Holt Rock;;119.4166667;-32.6666667;6;
2;Australia;Western Australia;Holyoake;;116.0833333;-32.7166667;6;
2;Australia;Western Australia;Hopes Hill;;119.2;-31.1833333;6;
2;Australia;Western Australia;Hopetoun;;120.1166667;-33.95;6;
2;Australia;Western Australia;Hopetown;;120.1166667;-33.95;6;
2;Australia;Western Australia;Horrocks;;114.43;-28.3861111;6;
2;Australia;Western Australia;Horse Shoe;;118.5833333;-25.45;6;
2;Australia;Western Australia;Hotham;;116.3;-32.8;6;
2;Australia;Western Australia;Hovea;;116.1;-31.8833333;6;
2;Australia;Western Australia;Howatharra;;114.6166667;-28.5333333;6;
2;Australia;Western Australia;Huntly;;116.0666667;-32.5833333;6;
2;Australia;Western Australia;Hutt;;114.65;-28.1166667;6;
2;Australia;Western Australia;Hyden;;118.8833333;-32.45;6;
2;Australia;Western Australia;Illawong;;114.9583333;-29.7;6;
2;Australia;Western Australia;Inglehope;;116.1666667;-32.7666667;6;
2;Australia;Western Australia;Irwin;;115.0666667;-29.2;6;
2;Australia;Western Australia;Isseka;;114.6333333;-28.4333333;6;
2;Australia;Western Australia;Ives Find;;120.7666667;-26.9166667;6;
2;Australia;Western Australia;Ives;;120.7666667;-26.9166667;6;
2;Australia;Western Australia;Jacobs Well;;117.2;-32.0333333;6;
2;Australia;Western Australia;Jacup;;119.2666667;-33.8166667;6;
2;Australia;Western Australia;Jaloran;;117.4333333;-33.15;6;
2;Australia;Western Australia;Jardee;;116.1166667;-34.2833333;6;
2;Australia;Western Australia;Jarrahdale;;116.0666667;-32.35;6;
2;Australia;Western Australia;Jarrahwood;;115.6666667;-33.8;6;
2;Australia;Western Australia;Jaurdi;;120.1666667;-30.8166667;6;
2;Australia;Western Australia;Jennaberring;;117.4833333;-31.9;6;
2;Australia;Western Australia;Jennacubbine;;116.7333333;-31.45;6;
2;Australia;Western Australia;Jennapullin;;116.7;-31.5333333;6;
2;Australia;Western Australia;Jilakin;;118.3333333;-32.6666667;6;
2;Australia;Western Australia;Jimble Bar Mining Centre;;120.1833333;-23.4666667;6;
2;Australia;Western Australia;Jimblebar;;120.1833333;-23.4666667;6;
2;Australia;Western Australia;Jingalup;;117.0333333;-33.9666667;6;
2;Australia;Western Australia;Jingymia;;117.4166667;-30.4666667;6;
2;Australia;Western Australia;Jitarning;;117.9833333;-32.8;6;
2;Australia;Western Australia;Juendine;;116.75;-31.5833333;6;
2;Australia;Western Australia;Jura;;118.1833333;-31.8166667;6;
2;Australia;Western Australia;Juradine;;116.75;-31.5833333;6;
2;Australia;Western Australia;Jurien;;115.0375;-30.3041667;6;
2;Australia;Western Australia;Kalannie;;117.1166667;-30.35;6;
2;Australia;Western Australia;Kalbarri;;114.1666667;-27.6666667;6;
2;Australia;Western Australia;Kalgan;;118.0130556;-34.8847222;6;
2;Australia;Western Australia;Kalgoorlie;;121.4666667;-30.75;6;
2;Australia;Western Australia;Kalguddering;;116.75;-30.9666667;6;
2;Australia;Western Australia;Kambalda;;121.6666667;-31.2;6;
2;Australia;Western Australia;Kanowna;;121.6;-30.6;6;
2;Australia;Western Australia;Karlgarin;;118.7;-32.5;6;
2;Australia;Western Australia;Karnilbinia;;122.1666667;-31.05;6;
2;Australia;Western Australia;Karnup;;115.8166667;-32.3666667;6;
2;Australia;Western Australia;Karonie;;122.5333333;-30.9666667;6;
2;Australia;Western Australia;Karping;;117.0833333;-32.6;6;
2;Australia;Western Australia;Karragullen;;116.1333333;-32.1;6;
2;Australia;Western Australia;Karranadgin;;116.75;-31.2333333;6;
2;Australia;Western Australia;Karranadjin;;116.75;-31.2333333;6;
2;Australia;Western Australia;Karridale;;115.0833333;-34.2166667;6;
2;Australia;Western Australia;Katanning;;117.55;-33.7;6;
2;Australia;Western Australia;Keane;;119.1833333;-31.2666667;6;
2;Australia;Western Australia;Kebaringup;;118.15;-34.0333333;6;
2;Australia;Western Australia;Kellandi;;119.75;-31.3;6;
2;Australia;Western Australia;Kellerberrin;;117.7166667;-31.6333333;6;
2;Australia;Western Australia;Kelmscott;;116.0166667;-32.1166667;6;
2;Australia;Western Australia;Kendenup;;117.65;-34.4833333;6;
2;Australia;Western Australia;Kennyville;;119.3666667;-31.3;6;
2;Australia;Western Australia;Kent River;;117.0166667;-34.95;6;
2;Australia;Western Australia;Kentdale;;117.05;-34.9;6;
2;Australia;Western Australia;Kenwick;;115.9666667;-32.0333333;6;
2;Australia;Western Australia;Key Farm;;116.4666667;-31.5833333;6;
2;Australia;Western Australia;Keysbrook;;115.9666667;-32.4333333;6;
2;Australia;Western Australia;King River;;117.9127778;-34.9297222;6;
2;Australia;Western Australia;Kings Find;;117.3;-29.2833333;6;
2;Australia;Western Australia;Kintore;;121.0166667;-30.6;6;
2;Australia;Western Australia;Kirup;;115.9;-33.7;6;
2;Australia;Western Australia;Kirwan;;117.1666667;-30.6;6;
2;Australia;Western Australia;Kitchener;;124.1833333;-31.0333333;6;
2;Australia;Western Australia;Kodj Kodjin;;117.8333333;-31.2833333;6;
2;Australia;Western Australia;Kojarena;;114.85;-28.7333333;6;
2;Australia;Western Australia;Kojonup;;117.15;-33.8333333;6;
2;Australia;Western Australia;Kokardine;;117.1666667;-30.7;6;
2;Australia;Western Australia;Kondinin;;118.2666667;-32.5;6;
2;Australia;Western Australia;Kondut East;;116.9;-30.6833333;6;
2;Australia;Western Australia;Kondut;;116.7666667;-30.7166667;6;
2;Australia;Western Australia;Konnongorring;;116.7833333;-31.0833333;6;
2;Australia;Western Australia;Koojan;;116.0166667;-30.8166667;6;
2;Australia;Western Australia;Koojedda;;116.4333333;-31.75;6;
2;Australia;Western Australia;Kookynie;;121.4833333;-29.3333333;6;
2;Australia;Western Australia;Koolanooka;;116.0666667;-29.25;6;
2;Australia;Western Australia;Koomberkine;;117.0333333;-31.1;6;
2;Australia;Western Australia;Koonadgin;;118.5166667;-31.6;6;
2;Australia;Western Australia;Koorarawalyee;;120.0166667;-31.25;6;
2;Australia;Western Australia;Koorda;;117.4833333;-30.8333333;6;
2;Australia;Western Australia;Korbel;;118.1666667;-31.65;6;
2;Australia;Western Australia;Korraling;;116.7166667;-30.7833333;6;
2;Australia;Western Australia;Korrelocking;;117.4666667;-31.2;6;
2;Australia;Western Australia;Kronkup;;117.6241667;-35.0369444;6;
2;Australia;Western Australia;Kudardup;;115.1;-34.2833333;6;
2;Australia;Western Australia;Kuender;;118.5333333;-32.95;6;
2;Australia;Western Australia;Kukerin;;118.0833333;-33.1833333;6;
2;Australia;Western Australia;Kuliba;;120.1666667;-33.8333333;6;
2;Australia;Western Australia;Kulikup;;116.6833333;-33.8166667;6;
2;Australia;Western Australia;Kulin;;118.1666667;-32.6666667;6;
2;Australia;Western Australia;Kulja;;117.2666667;-30.4833333;6;
2;Australia;Western Australia;Kumarina Mining Centre;;119.5333333;-24.7;6;
2;Australia;Western Australia;Kumarina;;119.5333333;-24.7;6;
2;Australia;Western Australia;Kumarl;;121.55;-32.7833333;6;
2;Australia;Western Australia;Kunanalling;;121.0666667;-30.6833333;6;
2;Australia;Western Australia;Kundana;;121.2333333;-30.7;6;
2;Australia;Western Australia;Kundip;;120.1666667;-33.7;6;
2;Australia;Western Australia;Kunjin;;117.7666667;-32.35;6;
2;Australia;Western Australia;Kununurra;;128.7333333;-15.7666667;6;
2;Australia;Western Australia;Kuringup;;118.3166667;-33.5166667;6;
2;Australia;Western Australia;Kurnalpi;;122.2333333;-30.5333333;6;
2;Australia;Western Australia;Kurrawang;;121.35;-30.8166667;6;
2;Australia;Western Australia;Kurrenkutten;;118.2166667;-32.25;6;
2;Australia;Western Australia;Kweda;;117.4333333;-32.3666667;6;
2;Australia;Western Australia;Kwobrup;;117.9666667;-33.6166667;6;
2;Australia;Western Australia;Kwolyin;;117.7666667;-31.9166667;6;
2;Australia;Western Australia;Kybelup;;119.95;-33.7666667;6;
2;Australia;Western Australia;Kybulup;;119.95;-33.7666667;6;
2;Australia;Western Australia;Lake Biddy;;118.95;-33;6;
2;Australia;Western Australia;Lake Brown;;118.3333333;-30.95;6;
2;Australia;Western Australia;Lake Camm;;119.5833333;-32.9833333;6;
2;Australia;Western Australia;Lake Grace;;118.4666667;-33.1;6;
2;Australia;Western Australia;Lake King;;119.6666667;-33.0833333;6;
2;Australia;Western Australia;Lake Varley;;119.45;-32.7666667;6;
2;Australia;Western Australia;Lakewood;;121.5333333;-30.8;6;
2;Australia;Western Australia;Lalla Rookh Mining Centre;;119.2666667;-21.05;6;
2;Australia;Western Australia;Lalla Rookh;;119.2666667;-21.05;6;
2;Australia;Western Australia;Lancelin;;115.3319444;-31.0233333;6;
2;Australia;Western Australia;Lancing;;118.95;-33.0833333;6;
2;Australia;Western Australia;Larkinville;;121.5;-31.4333333;6;
2;Australia;Western Australia;Latham;;116.4333333;-29.75;6;
2;Australia;Western Australia;Laurier;;118.35;-34.05;6;
2;Australia;Western Australia;Laverton;;122.4166667;-28.6333333;6;
2;Australia;Western Australia;Lawlers;;120.5166667;-28.0833333;6;
2;Australia;Western Australia;Lawnswood;;116.5166667;-31.7;6;
2;Australia;Western Australia;Learmonth;;114.0833333;-22.25;6;
2;Australia;Western Australia;Leeman;;114.9805556;-29.9458333;6;
2;Australia;Western Australia;Lennonville;;117.8333333;-27.9666667;6;
2;Australia;Western Australia;Leonora;;121.3166667;-28.8833333;6;
2;Australia;Western Australia;Lilliginni;;120.7666667;-31.05;6;
2;Australia;Western Australia;Linden;;122.4166667;-29.3;6;
2;Australia;Western Australia;Lionel;;120.1166667;-21.65;6;
2;Australia;Western Australia;Lloyd Crossing;;116.4833333;-31.5666667;6;
2;Australia;Western Australia;Logans Find;;121.3833333;-31.3666667;6;
2;Australia;Western Australia;Lomos;;117.6166667;-32.3666667;6;
2;Australia;Western Australia;Londonderry;;121.1333333;-31.0833333;6;
2;Australia;Western Australia;Loongana;;127.0333333;-30.95;6;
2;Australia;Western Australia;Lowden;;115.9666667;-33.5333333;6;
2;Australia;Western Australia;Lower Chittering;;116.1166667;-31.5833333;6;
2;Australia;Western Australia;Lower Chittertering;;116.1166667;-31.5833333;6;
2;Australia;Western Australia;Lower King;;117.9383333;-34.9577778;6;
2;Australia;Western Australia;Ludlow;;115.4666667;-33.6;6;
2;Australia;Western Australia;Lumeah;;117.2333333;-33.9833333;6;
2;Australia;Western Australia;Lyons Camp;;116.3166667;-30.5333333;6;
2;Australia;Western Australia;Mackies Crossing;;116.8;-31.8333333;6;
2;Australia;Western Australia;Maddington;;115.9833333;-32.05;6;
2;Australia;Western Australia;Mahogany Creek;;116.1333333;-31.9;6;
2;Australia;Western Australia;Mainland;;117.9166667;-27.5833333;6;
2;Australia;Western Australia;Mainnerup;;119.75;-33.7;6;
2;Australia;Western Australia;Malcolm;;121.5;-28.9333333;6;
2;Australia;Western Australia;Malyalling;;117.5333333;-32.7;6;
2;Australia;Western Australia;Mambenup;;121.55;-33.7833333;6;
2;Australia;Western Australia;Mandiga;;117.75;-30.8;6;
2;Australia;Western Australia;Mandurah;;115.7;-32.55;6;
2;Australia;Western Australia;Manjimup;;116.15;-34.2333333;6;
2;Australia;Western Australia;Manmanning;;117.1;-30.85;6;
2;Australia;Western Australia;Manning;;115.85;-32;6;
2;Australia;Western Australia;Manxman;;119.1;-30.9166667;6;
2;Australia;Western Australia;Manypeaks;;118.1666667;-34.8333333;6;
2;Australia;Western Australia;Marbellup;;117.7333333;-34.9675;6;
2;Australia;Western Australia;Marbelup;;117.7333333;-34.9675;6;
2;Australia;Western Australia;Marble Bar;;119.7333333;-21.1833333;6;
2;Australia;Western Australia;Marchagee;;116.0666667;-30.05;6;
2;Australia;Western Australia;Marda;;119.2833333;-30.2166667;6;
2;Australia;Western Australia;Mardella;;115.9833333;-32.3333333;6;
2;Australia;Western Australia;Margaret River;;115.0666667;-33.95;6;
2;Australia;Western Australia;Marindo;;117.75;-30.4333333;6;
2;Australia;Western Australia;Marks;;116.9;-34.9833333;6;
2;Australia;Western Australia;Marracoonda;;117.4166667;-33.65;6;
2;Australia;Western Australia;Marradong;;116.4333333;-32.8666667;6;
2;Australia;Western Australia;Marrinup;;116.0166667;-32.7;6;
2;Australia;Western Australia;Marvel Loch;;119.4666667;-31.4666667;6;
2;Australia;Western Australia;Marvel Lock;;119.4666667;-31.4666667;6;
2;Australia;Western Australia;Maya;;116.5;-29.8666667;6;
2;Australia;Western Australia;Mayanup;;116.45;-33.95;6;
2;Australia;Western Australia;Maylands;;115.8833333;-31.9333333;6;
2;Australia;Western Australia;McPhees Patch Mining Centre;;118.9333333;-21.0333333;6;
2;Australia;Western Australia;McPhees Patch;;118.9333333;-21.0333333;6;
2;Australia;Western Australia;Meckering;;117.0166667;-31.6333333;6;
2;Australia;Western Australia;Medina;;115.7833333;-32.2333333;6;
2;Australia;Western Australia;Meekatharra;;118.4833333;-26.6;6;
2;Australia;Western Australia;Meelon;;115.9333333;-32.7;6;
2;Australia;Western Australia;Meenar;;116.8833333;-31.6333333;6;
2;Australia;Western Australia;Melville;;116.7333333;-28.1833333;6;
2;Australia;Western Australia;Menzies;;121.0333333;-29.6833333;6;
2;Australia;Western Australia;Merilup;;118.1666667;-33.2666667;6;
2;Australia;Western Australia;Merredin;;118.2666667;-31.4833333;6;
2;Australia;Western Australia;Metricup;;115.1166667;-33.7833333;6;
2;Australia;Western Australia;Metzke Find;;120.0666667;-29.2833333;6;
2;Australia;Western Australia;Middle Creek Mining Centre;;120.2666667;-21.8833333;6;
2;Australia;Western Australia;Middle Creek;;120.2666667;-21.8833333;6;
2;Australia;Western Australia;Middle Swan;;116.0166667;-31.85;6;
2;Australia;Western Australia;Midland Junction;;116;-31.9;6;
2;Australia;Western Australia;Miling;;116.35;-30.5;6;
2;Australia;Western Australia;Millendon;;116.0333333;-31.8166667;6;
2;Australia;Western Australia;Mingenew;;115.4333333;-29.1833333;6;
2;Australia;Western Australia;Minniging;;117.05;-32.8666667;6;
2;Australia;Western Australia;Minnivale;;117.1833333;-31.1333333;6;
2;Australia;Western Australia;Mobrup Homestead;;116.9166667;-34.1166667;6;
2;Australia;Western Australia;Mobrup;;116.9166667;-34.1166667;6;
2;Australia;Western Australia;Mogumber;;116.05;-31.05;6;
2;Australia;Western Australia;Mollerin;;117.5166667;-30.45;6;
2;Australia;Western Australia;Monkey Mia;;113.7166667;-25.8;6;
2;Australia;Western Australia;Mooliabeenee;;116.0166667;-31.3333333;6;
2;Australia;Western Australia;Mooliabeenie;;116.0166667;-31.3333333;6;
2;Australia;Western Australia;Moolyella Tin Field;;119.9;-21.1333333;6;
2;Australia;Western Australia;Moolyella;;119.9;-21.1333333;6;
2;Australia;Western Australia;Moondon;;118.2333333;-30.5;6;
2;Australia;Western Australia;Moonies Hill;;117.5166667;-34.0833333;6;
2;Australia;Western Australia;Moonijin;;117.0833333;-30.95;6;
2;Australia;Western Australia;Moonyoonooka;;114.7166667;-28.7833333;6;
2;Australia;Western Australia;Moora;;116.0166667;-30.65;6;
2;Australia;Western Australia;Moorine Rock;;119.1666667;-31.3;6;
2;Australia;Western Australia;Moornaming;;118.0666667;-33.5833333;6;
2;Australia;Western Australia;Mooterdine;;116.8;-32.7666667;6;
2;Australia;Western Australia;Morawa;;116;-29.2166667;6;
2;Australia;Western Australia;Morbinning;;117.15;-32.1;6;
2;Australia;Western Australia;Morgans;;122.0666667;-28.7666667;6;
2;Australia;Western Australia;Mornington Mills;;115.9333333;-33.15;6;
2;Australia;Western Australia;Morowa;;116;-29.2166667;6;
2;Australia;Western Australia;Mortigallup;;117.5166667;-34.4666667;6;
2;Australia;Western Australia;Mosman Park;;115.75;-32;6;
2;Australia;Western Australia;Mosquito Creek Mining Centre;;120.5;-21.8166667;6;
2;Australia;Western Australia;Mosquito Creek;;120.5;-21.8166667;6;
2;Australia;Western Australia;Moulyinning;;117.9333333;-33.25;6;
2;Australia;Western Australia;Mounena;;119.4833333;-24.2666667;6;
2;Australia;Western Australia;Mount Barker;;117.6666667;-34.6333333;6;
2;Australia;Western Australia;Mount Hardey;;116.8666667;-31.9;6;
2;Australia;Western Australia;Mount Helena;;116.2;-31.8833333;6;
2;Australia;Western Australia;Mount Ida;;120.5;-29.05;6;
2;Australia;Western Australia;Mount Kokeby;;116.9666667;-32.2166667;6;
2;Australia;Western Australia;Mount Madden;;119.7833333;-33.2666667;6;
2;Australia;Western Australia;Mount Magnet;;117.8166667;-28.0666667;6;
2;Australia;Western Australia;Mount Morgans;;122.0666667;-28.7666667;6;
2;Australia;Western Australia;Mount Newman;;119.7333333;-23.3666667;6;
2;Australia;Western Australia;Mount Palmer;;119.6833333;-31.4;6;
2;Australia;Western Australia;Muchea;;115.9833333;-31.5833333;6;
2;Australia;Western Australia;Mudiarrup;;116.7833333;-33.6;6;
2;Australia;Western Australia;Mukinbudin;;118.2166667;-30.9166667;6;
2;Australia;Western Australia;Mulgarrie;;121.5;-30.3833333;6;
2;Australia;Western Australia;Mullalloo Beach;;115.7333333;-31.7833333;6;
2;Australia;Western Australia;Mullalyup;;115.9333333;-33.7333333;6;
2;Australia;Western Australia;Mullewa;;115.5166667;-28.5333333;6;
2;Australia;Western Australia;Mummballup;;116.1166667;-33.5333333;6;
2;Australia;Western Australia;Mundaring Weir;;116.1666667;-31.95;6;
2;Australia;Western Australia;Mundaring;;116.1666667;-31.9;6;
2;Australia;Western Australia;Mundawindi;;120.1666667;-23.8333333;6;
2;Australia;Western Australia;Mundijong;;115.9833333;-32.3;6;
2;Australia;Western Australia;Mundiwindi;;120.1666667;-23.8333333;6;
2;Australia;Western Australia;Muntadgin;;118.5666667;-31.75;6;
2;Australia;Western Australia;Muradup;;116.9833333;-33.8333333;6;
2;Australia;Western Australia;Muresk;;116.6666667;-31.75;6;
2;Australia;Western Australia;Murrin Murrin;;121.8166667;-28.9166667;6;
2;Australia;Western Australia;Nabawa;;114.7833333;-28.5;6;
2;Australia;Western Australia;Namban;;116.0333333;-30.3833333;6;
2;Australia;Western Australia;Nambling;;116.9666667;-31.2333333;6;
2;Australia;Western Australia;Nanamoolan;;116.4833333;-31.65;6;
2;Australia;Western Australia;Nanga Brook;;116.0666667;-32.8166667;6;
2;Australia;Western Australia;Nangeenan;;118.1666667;-31.5333333;6;
2;Australia;Western Australia;Nannine;;118.3333333;-26.8833333;6;
2;Australia;Western Australia;Nannup Mill;;115.75;-33.9833333;6;
2;Australia;Western Australia;Nannup;;115.75;-33.9833333;6;
2;Australia;Western Australia;Nanson;;114.7666667;-28.5666667;6;
2;Australia;Western Australia;Napier;;118;-34.8333333;6;
2;Australia;Western Australia;Naraling;;114.8333333;-28.4;6;
2;Australia;Western Australia;Narembeen;;118.4;-32.0666667;6;
2;Australia;Western Australia;Naretha;;124.8333333;-31;6;
2;Australia;Western Australia;Narngulu;;114.6833333;-28.8333333;6;
2;Australia;Western Australia;Narra Tarra;;114.7166667;-28.7;6;
2;Australia;Western Australia;Narrikup;;117.7333333;-34.7666667;6;
2;Australia;Western Australia;Narrogin;;117.1666667;-32.9333333;6;
2;Australia;Western Australia;Nedlands;;115.8083333;-31.9833333;6;
2;Australia;Western Australia;Needilup;;118.8166667;-33.95;6;
2;Australia;Western Australia;Neendaling;;118.3333333;-33.1166667;6;
2;Australia;Western Australia;Netherwood;;117.8666667;-33.3666667;6;
2;Australia;Western Australia;Nevoria;;119.5833333;-31.5;6;
2;Australia;Western Australia;New Norcia;;116.2166667;-30.9666667;6;
2;Australia;Western Australia;Newdegate;;119.0166667;-33.1;6;
2;Australia;Western Australia;Newdgate;;119.0166667;-33.1;6;
2;Australia;Western Australia;Newlands;;115.8666667;-33.6666667;6;
2;Australia;Western Australia;Newman;;119.7333333;-23.3666667;6;
2;Australia;Western Australia;Nippering;;117.6333333;-33.3;6;
2;Australia;Western Australia;Noggerup;;116.1666667;-33.5833333;6;
2;Australia;Western Australia;Nokaning;;118.2333333;-31.3666667;6;
2;Australia;Western Australia;Nolba;;114.8666667;-28.3666667;6;
2;Australia;Western Australia;Nomans Lake;;117.5166667;-32.9333333;6;
2;Australia;Western Australia;Noongaar;;118.9666667;-31.3333333;6;
2;Australia;Western Australia;Noongar;;118.9666667;-31.3333333;6;
2;Australia;Western Australia;Nornakin;;117.9166667;-32.25;6;
2;Australia;Western Australia;Nornalup;;116.8166667;-35;6;
2;Australia;Western Australia;Norpa;;118.4166667;-31.5833333;6;
2;Australia;Western Australia;Norseman;;121.7666667;-32.2;6;
2;Australia;Western Australia;North Banister;;116.4333333;-32.5833333;6;
2;Australia;Western Australia;North Bannister;;116.4333333;-32.5833333;6;
2;Australia;Western Australia;North Beach;;115.75;-31.8666667;6;
2;Australia;Western Australia;North Cunderdin;;117.2166667;-31.5333333;6;
2;Australia;Western Australia;North Dandalup;;115.9666667;-32.5166667;6;
2;Australia;Western Australia;North Fremantle;;115.75;-32.0333333;6;
2;Australia;Western Australia;North Karlgarin;;118.6333333;-32.45;6;
2;Australia;Western Australia;North Kellerberrin;;117.6833333;-31.5;6;
2;Australia;Western Australia;North Kununoppin;;117.95;-31.0333333;6;
2;Australia;Western Australia;North Lake Grace;;118.4666667;-32.95;6;
2;Australia;Western Australia;North Pole Mining Centre;;119.35;-21.1;6;
2;Australia;Western Australia;North Pole;;119.35;-21.1;6;
2;Australia;Western Australia;North Shaw Mining Centre;;119.3666667;-21.3333333;6;
2;Australia;Western Australia;North Shaw;;119.3666667;-21.3333333;6;
2;Australia;Western Australia;North Walgoolan;;118.6;-31.1666667;6;
2;Australia;Western Australia;Northam;;116.6666667;-31.6666667;6;
2;Australia;Western Australia;Northampton;;114.6166667;-28.35;6;
2;Australia;Western Australia;Northcliffe;;116.1166667;-34.6;6;
2;Australia;Western Australia;Northern Gully;;114.9;-28.7166667;6;
2;Australia;Western Australia;Notting;;118.2666667;-32.4666667;6;
2;Australia;Western Australia;Nugadong;;116.65;-30.1833333;6;
2;Australia;Western Australia;Nukarni;;118.2;-31.2833333;6;
2;Australia;Western Australia;Nulla Nulla;;119.0333333;-31.3;6;
2;Australia;Western Australia;Nullagine;;120.1;-21.8833333;6;
2;Australia;Western Australia;Nungarin;;118.1;-31.1833333;6;
2;Australia;Western Australia;Nunngarra;;119.25;-28.0666667;6;
2;Australia;Western Australia;Nunyle Hall;;116.5166667;-31.4833333;6;
2;Australia;Western Australia;Nunyle;;116.5166667;-31.4833333;6;
2;Australia;Western Australia;Nyabing;;118.15;-33.5333333;6;
2;Australia;Western Australia;Nyannia;;116.1166667;-31.9166667;6;
2;Australia;Western Australia;Oak Park;;116.9;-31.1666667;6;
2;Australia;Western Australia;Oakabella;;114.6166667;-28.5;6;
2;Australia;Western Australia;O'Connor;;116.1833333;-31.95;6;
2;Australia;Western Australia;Ogilvie;;114.6333333;-28.15;6;
2;Australia;Western Australia;Old Napier Downs;;124.7333333;-17.25;6;
2;Australia;Western Australia;Ongerup;;118.4833333;-33.9666667;6;
2;Australia;Western Australia;Onslow;;115.1;-21.65;6;
2;Australia;Western Australia;Ora Banda;;121.0666667;-30.3666667;6;
2;Australia;Western Australia;Paddington;;121.3333333;-30.4833333;6;
2;Australia;Western Australia;Palgarup;;116.1666667;-34.2;6;
2;Australia;Western Australia;Parker Range;;119.5833333;-31.6333333;6;
2;Australia;Western Australia;Parkers Range;;119.5833333;-31.6333333;6;
2;Australia;Western Australia;Parkerville;;116.1333333;-31.8833333;6;
2;Australia;Western Australia;Paroo;;119.55;-26.5333333;6;
2;Australia;Western Australia;Parryville;;117.1833333;-34.9833333;6;
2;Australia;Western Australia;Paynes Find;;117.6833333;-29.25;6;
2;Australia;Western Australia;Peak Hill;;118.7166667;-25.6333333;6;
2;Australia;Western Australia;Pearce;;116.0166667;-31.6666667;6;
2;Australia;Western Australia;Pederah;;118.6833333;-32.5833333;6;
2;Australia;Western Australia;Pemberton;;116.0166667;-34.4666667;6;
2;Australia;Western Australia;Peppermint Grove;;115.7638889;-32.0041667;6;
2;Australia;Western Australia;Perenjori;;116.2666667;-29.45;6;
2;Australia;Western Australia;Perilya;;119.1666667;-31.0666667;6;
2;Australia;Western Australia;Perth;;115.83;-31.93;6;
2;Australia;Western Australia;Piawaning;;116.3666667;-30.85;6;
2;Australia;Western Australia;Pickering Brook;;116.1;-32.0333333;6;
2;Australia;Western Australia;Picton Junction;;115.6833333;-33.35;6;
2;Australia;Western Australia;Picton;;115.6833333;-33.35;6;
2;Australia;Western Australia;Piesseville;;117.3;-33.2;6;
2;Australia;Western Australia;Pilbara Mining Centre;;118.3;-21.25;6;
2;Australia;Western Australia;Pilbara;;118.3;-21.25;6;
2;Australia;Western Australia;Pindalup;;116.25;-32.7833333;6;
2;Australia;Western Australia;Pindar;;115.8;-28.4833333;6;
2;Australia;Western Australia;Pingaring;;118.6166667;-32.75;6;
2;Australia;Western Australia;Pingelly;;117.0833333;-32.5333333;6;
2;Australia;Western Australia;Pingrup;;118.5166667;-33.5333333;6;
2;Australia;Western Australia;Pinjarra;;115.8833333;-32.6333333;6;
2;Australia;Western Australia;Pintharuka;;115.9833333;-29.1;6;
2;Australia;Western Australia;Pioneer;;121.7166667;-31.8;6;
2;Australia;Western Australia;Pithara;;116.6666667;-30.4;6;
2;Australia;Western Australia;Point Samson;;117.2;-20.6333333;6;
2;Australia;Western Australia;Popanyinning;;117.1333333;-32.6666667;6;
2;Australia;Western Australia;Popes Landing;;114.6166667;-28.6666667;6;
2;Australia;Western Australia;Porongorup;;117.9;-34.65;6;
2;Australia;Western Australia;Porongorups;;117.9;-34.65;6;
2;Australia;Western Australia;Porongurup;;117.9;-34.65;6;
2;Australia;Western Australia;Porongurups;;117.9;-34.65;6;
2;Australia;Western Australia;Port Denison;;114.9166667;-29.2833333;6;
2;Australia;Western Australia;Port Hedland;;118.5666667;-20.3166667;6;
2;Australia;Western Australia;Portagabra;;116.1666667;-31.95;6;
2;Australia;Western Australia;Princess Royal;;121.8;-32.1333333;6;
2;Australia;Western Australia;Quagitup;;119.9666667;-33.6333333;6;
2;Australia;Western Australia;Quairading;;117.4166667;-32.0166667;6;
2;Australia;Western Australia;Qualen;;116.8;-31.9333333;6;
2;Australia;Western Australia;Qualeup;;116.8;-33.8333333;6;
2;Australia;Western Australia;Quarram;;116.9666667;-34.9666667;6;
2;Australia;Western Australia;Quindalup;;115.1333333;-33.6666667;6;
2;Australia;Western Australia;Quindanning;;116.5666667;-33.05;6;
2;Australia;Western Australia;Quins Castle;;115.5;-31.0666667;6;
2;Australia;Western Australia;Rams Head;;118.6166667;-34.3166667;6;
2;Australia;Western Australia;Ranford;;116.5;-32.8;6;
2;Australia;Western Australia;Ravensthorpe;;120.0333333;-33.5833333;6;
2;Australia;Western Australia;Rawlinna;;125.3333333;-31.0166667;6;
2;Australia;Western Australia;Red Lake;;121.7166667;-33.15;6;
2;Australia;Western Australia;Redmond;;117.6833333;-34.8666667;6;
2;Australia;Western Australia;Reedy;;118.2666667;-27.15;6;
2;Australia;Western Australia;Ridge Hill;;116.0333333;-31.9333333;6;
2;Australia;Western Australia;Ringa;;116.4666667;-31.6;6;
2;Australia;Western Australia;Rockingham;;115.7166667;-32.2833333;6;
2;Australia;Western Australia;Rockwell;;114.9;-28.35;6;
2;Australia;Western Australia;Roebourne;;117.1333333;-20.7833333;6;
2;Australia;Western Australia;Roelands;;115.8166667;-33.2833333;6;
2;Australia;Western Australia;Roleystone;;116.0666667;-32.1166667;6;
2;Australia;Western Australia;Rosa Brook;;115.1833333;-33.95;6;
2;Australia;Western Australia;Rothsay;;116.8833333;-29.2833333;6;
2;Australia;Western Australia;Round Hill;;116.2333333;-30.5666667;6;
2;Australia;Western Australia;Rushy Pool;;117.3833333;-33.0166667;6;
2;Australia;Western Australia;Safety Bay;;115.7;-32.3;6;
2;Australia;Western Australia;Saint Ives;;121.8166667;-31.3833333;6;
2;Australia;Western Australia;Salgash Mining Centre;;119.8166667;-21.2666667;6;
2;Australia;Western Australia;Salgash;;119.8166667;-21.2666667;6;
2;Australia;Western Australia;Salmon Gums;;121.6333333;-32.9833333;6;
2;Australia;Western Australia;Salmon Guns;;121.6333333;-32.9833333;6;
2;Australia;Western Australia;Sandstone;;119.2833333;-27.9833333;6;
2;Australia;Western Australia;Sawyers Valley;;116.2;-31.9;6;
2;Australia;Western Australia;Scaddan;;121.7166667;-33.45;6;
2;Australia;Western Australia;Scarborough Beach;;115.75;-31.9;6;
2;Australia;Western Australia;Scarborough;;115.75;-31.9;6;
2;Australia;Western Australia;Seabird;;115.4444444;-31.2791667;6;
2;Australia;Western Australia;Serpentine;;115.9666667;-32.35;6;
2;Australia;Western Australia;Shackleton;;117.8333333;-31.9333333;6;
2;Australia;Western Australia;Shark Bay;;113.5422222;-25.9333333;6;
2;Australia;Western Australia;Shellborough;;119.3666667;-20.0166667;6;
2;Australia;Western Australia;Shenton Park;;115.7972222;-31.9583333;6;
2;Australia;Western Australia;Shotts;;116.2666667;-33.3833333;6;
2;Australia;Western Australia;Siberia;;120.95;-30.2333333;6;
2;Australia;Western Australia;Smailes Mill;;116.1833333;-32.1;6;
2;Australia;Western Australia;Soansville Mining Centre;;119.15;-21.5166667;6;
2;Australia;Western Australia;Soansville;;119.15;-21.5166667;6;
2;Australia;Western Australia;South Burracoppin;;118.1166667;-31.5666667;6;
2;Australia;Western Australia;South Kalamunda;;116.0666667;-31.9833333;6;
2;Australia;Western Australia;South Kulin;;118.0833333;-32.7333333;6;
2;Australia;Western Australia;South Kumminin;;118.3333333;-32.2;6;
2;Australia;Western Australia;South Lake Vasley;;119.5333333;-32.8333333;6;
2;Australia;Western Australia;South Quaisading;;117.4666667;-32.1666667;6;
2;Australia;Western Australia;South Tammin;;117.5333333;-31.8;6;
2;Australia;Western Australia;South Trayning;;117.7833333;-31.2333333;6;
2;Australia;Western Australia;South Walgoolan;;118.5833333;-31.4833333;6;
2;Australia;Western Australia;Southern Brook;;116.8333333;-31.55;6;
2;Australia;Western Australia;Southern Cross;;119.3166667;-31.2166667;6;
2;Australia;Western Australia;Spargoville;;121.4666667;-31.2333333;6;
2;Australia;Western Australia;Spearwood;;115.7833333;-32.1;6;
2;Australia;Western Australia;Speddingup;;121.75;-33.5166667;6;
2;Australia;Western Australia;Spencers Brook;;116.6333333;-31.7333333;6;
2;Australia;Western Australia;Spring Hill;;116.6833333;-31.7166667;6;
2;Australia;Western Australia;Stathams;;116.05;-31.9333333;6;
2;Australia;Western Australia;Station Peak Mining Centre;;118.1833333;-21.1666667;6;
2;Australia;Western Australia;Station Peak;;118.1833333;-21.1666667;6;
2;Australia;Western Australia;Stoneville;;116.1666667;-31.8833333;6;
2;Australia;Western Australia;Strelley Gorge;;119.05;-21.1166667;6;
2;Australia;Western Australia;Strelly Gorge;;119.05;-21.1166667;6;
2;Australia;Western Australia;Subiaco;;115.8;-31.95;6;
2;Australia;Western Australia;Sussex Mill;;115.7333333;-33.8833333;6;
2;Australia;Western Australia;Swan View;;116.05;-31.8833333;6;
2;Australia;Western Australia;Swanbourne;;115.7833333;-31.9666667;6;
2;Australia;Western Australia;Talbot Brook;;116.6833333;-32.0333333;6;
2;Australia;Western Australia;Talga Talga Mining Centre;;119.8166667;-21.0166667;6;
2;Australia;Western Australia;Talga Talga;;119.8166667;-21.0166667;6;
2;Australia;Western Australia;Tallanalla;;116.1166667;-33.1;6;
2;Australia;Western Australia;Tambellup;;117.65;-34.0333333;6;
2;Australia;Western Australia;Tambourah Mining Centre;;119.1666667;-21.75;6;
2;Australia;Western Australia;Tambourah;;119.1666667;-21.75;6;
2;Australia;Western Australia;Tammin;;117.5;-31.6666667;6;
2;Australia;Western Australia;Tandagin;;118.5666667;-31.6833333;6;
2;Australia;Western Australia;Tardun;;115.75;-28.8;6;
2;Australia;Western Australia;Tarin Rock;;118.25;-33.1;6;
2;Australia;Western Australia;Tennessee;;117.5666667;-35.05;6;
2;Australia;Western Australia;Tenterden;;117.5666667;-34.3833333;6;
2;Australia;Western Australia;Thevenard;;133.6333333;-32.15;6;
2;Australia;Western Australia;Three Springs;;115.75;-29.5333333;6;
2;Australia;Western Australia;Thundulda;;126;-32.2666667;6;
2;Australia;Western Australia;Timberfield;;120.1666667;-30.8166667;6;
2;Australia;Western Australia;Tinkurrin;;117.7666667;-32.9666667;6;
2;Australia;Western Australia;Toodyay;;116.4666667;-31.55;6;
2;Australia;Western Australia;Toolbrunup;;117.8333333;-34.0166667;6;
2;Australia;Western Australia;Toolibin;;117.6333333;-32.95;6;
2;Australia;Western Australia;Toompup;;118.45;-34.0166667;6;
2;Australia;Western Australia;Torbay Junction;;117.7302778;-35.0091667;6;
2;Australia;Western Australia;Torbay;;117.6605556;-35.0233333;6;
2;Australia;Western Australia;Toweranna;;117.8833333;-20.9666667;6;
2;Australia;Western Australia;Trafalgar;;121.5166667;-30.7833333;6;
2;Australia;Western Australia;Trayning South;;117.7833333;-31.2333333;6;
2;Australia;Western Australia;Trayning;;117.8;-31.1166667;6;
2;Australia;Western Australia;Treesville;;116.3;-33.1666667;6;
2;Australia;Western Australia;Treslove;;121.7;-33.35;6;
2;Australia;Western Australia;Trigg Island;;115.75;-31.8666667;6;
2;Australia;Western Australia;Truslove;;121.7;-33.35;6;
2;Australia;Western Australia;Tuckanarra;;118.0833333;-27.1166667;6;
2;Australia;Western Australia;Tuckannarra;;118.0833333;-27.1166667;6;
2;Australia;Western Australia;Tullis;;116.3666667;-32.8;6;
2;Australia;Western Australia;Turkey Creek;;128.2;-17.0333333;6;
2;Australia;Western Australia;Twenty Ounce Gully Mining Centre;;120.3;-21.2;6;
2;Australia;Western Australia;Twenty Ounce Gully;;120.3;-21.2;6;
2;Australia;Western Australia;Two Rocks;;115.5888889;-31.5505556;6;
2;Australia;Western Australia;Udialla;;123.75;-17.9666667;6;
2;Australia;Western Australia;Ulva;;118.2;-31.6;6;
2;Australia;Western Australia;Upper Swan;;116.0166667;-31.7666667;6;
2;Australia;Western Australia;Urakarra;;114.65;-28.7833333;6;
2;Australia;Western Australia;Utakarra;;114.65;-28.7833333;6;
2;Australia;Western Australia;Vasse;;115.25;-33.6666667;6;
2;Australia;Western Australia;Venn;;115.9;-32.5666667;6;
2;Australia;Western Australia;Vurakin;;117.1666667;-30.5166667;6;
2;Australia;Western Australia;Wadderin Hill;;118.45;-32;6;
2;Australia;Western Australia;Wadderin;;118.45;-32;6;
2;Australia;Western Australia;Waddi Forest;;116.1666667;-29.8666667;6;
2;Australia;Western Australia;Waddington;;116.25;-30.85;6;
2;Australia;Western Australia;Wagerup;;115.8833333;-32.9166667;6;
2;Australia;Western Australia;Waggrakine;;114.6166667;-28.7166667;6;
2;Australia;Western Australia;Wagin;;117.35;-33.3;6;
2;Australia;Western Australia;Walebing;;116.2166667;-30.6833333;6;
2;Australia;Western Australia;Walgoolan;;118.5666667;-31.3833333;6;
2;Australia;Western Australia;Walkaway;;114.8;-28.95;6;
2;Australia;Western Australia;Wallaberi;;125.5833333;-18.1833333;6;
2;Australia;Western Australia;Walliston;;116.0666667;-32;6;
2;Australia;Western Australia;Walpole;;116.7333333;-34.95;6;
2;Australia;Western Australia;Wamenusking;;117.5833333;-32.1166667;6;
2;Australia;Western Australia;Wandering;;116.6666667;-32.6833333;6;
2;Australia;Western Australia;Wannamal;;116.05;-31.1666667;6;
2;Australia;Western Australia;Wanneroo;;115.8;-31.75;6;
2;Australia;Western Australia;Wanneru;;115.8;-31.75;6;
2;Australia;Western Australia;Wansbrough;;117.6666667;-34.1333333;6;
2;Australia;Western Australia;Warburton;;126.5833333;-26.1333333;6;
2;Australia;Western Australia;Wardercarrin;;118.5666667;-32.8833333;6;
2;Australia;Western Australia;Warnbro;;115.7486111;-32.3361111;6;
2;Australia;Western Australia;Waroona;;115.9166667;-32.8333333;6;
2;Australia;Western Australia;Warrachuppin;;118.6666667;-31.0333333;6;
2;Australia;Western Australia;Warralackin;;118.6;-31.0333333;6;
2;Australia;Western Australia;Warralakin;;118.6;-31.0333333;6;
2;Australia;Western Australia;Warup;;117.1833333;-33.3666667;6;
2;Australia;Western Australia;Watheroo;;116.0666667;-30.2833333;6;
2;Australia;Western Australia;Wattening;;116.5166667;-31.3333333;6;
2;Australia;Western Australia;Wattleup;;115.8;-32.175;6;
2;Australia;Western Australia;Wedin;;117.6833333;-32.9666667;6;
2;Australia;Western Australia;Weira;;118.4166667;-31.0166667;6;
2;Australia;Western Australia;Welbungin;;117.9833333;-30.8166667;6;
2;Australia;Western Australia;Welcome Hill;;118.6833333;-32.0333333;6;
2;Australia;Western Australia;Weld;;114.6333333;-28.2;6;
2;Australia;Western Australia;Wellard;;115.8333333;-32.2666667;6;
2;Australia;Western Australia;Wellington Mill;;115.9;-33.4666667;6;
2;Australia;Western Australia;Wellington Mills;;115.9;-33.4666667;6;
2;Australia;Western Australia;Wembley;;115.8;-31.9333333;6;
2;Australia;Western Australia;Werribee;;116.35;-31.7666667;6;
2;Australia;Western Australia;West Bendering;;118.1666667;-32.35;6;
2;Australia;Western Australia;West Toodyay;;116.4166667;-31.5333333;6;
2;Australia;Western Australia;West Westonia;;118.6166667;-31.2833333;6;
2;Australia;Western Australia;West Yorkrakine;;117.5;-31.4;6;
2;Australia;Western Australia;Western Shaw Mining Centre;;119.2;-21.8166667;6;
2;Australia;Western Australia;Western Shaw;;119.2;-21.8166667;6;
2;Australia;Western Australia;Westfield;;115.9666667;-32.15;6;
2;Australia;Western Australia;Westonia;;118.7;-31.3;6;
2;Australia;Western Australia;Whelarra;;114.95;-28.3333333;6;
2;Australia;Western Australia;Whim Creek;;117.8333333;-20.8333333;6;
2;Australia;Western Australia;Whitehead Find;;121.75;-30.2166667;6;
2;Australia;Western Australia;Whitehead;;121.75;-30.2166667;6;
2;Australia;Western Australia;Whiteheads Find;;121.75;-30.2166667;6;
2;Australia;Western Australia;Wialki;;118.1166667;-30.4833333;6;
2;Australia;Western Australia;Wickepin;;117.5;-32.7666667;6;
2;Australia;Western Australia;Widgemooltha;;121.5666667;-31.5;6;
2;Australia;Western Australia;Widgiemooltha;;121.5666667;-31.5;6;
2;Australia;Western Australia;Wilga;;116.2333333;-33.6833333;6;
2;Australia;Western Australia;Williams;;116.8666667;-33.0166667;6;
2;Australia;Western Australia;Williamstown;;121.4833333;-30.75;6;
2;Australia;Western Australia;Wilroy;;115.6333333;-28.6333333;6;
2;Australia;Western Australia;Wiluna;;120.2166667;-26.6;6;
2;Australia;Western Australia;Winchester;;115.9166667;-29.7833333;6;
2;Australia;Western Australia;Windanya;;121.25;-30.3833333;6;
2;Australia;Western Australia;Windy Harbour;;116.0333333;-34.8333333;6;
2;Australia;Western Australia;Witchcliffe;;115.1;-34.0333333;6;
2;Australia;Western Australia;Wodgina Mining Centre;;118.6666667;-21.1833333;6;
2;Australia;Western Australia;Wodgina;;118.6666667;-21.1833333;6;
2;Australia;Western Australia;Wogarl;;118.5166667;-31.9;6;
2;Australia;Western Australia;Wokalup;;115.8666667;-33.1166667;6;
2;Australia;Western Australia;Wongamine;;116.6166667;-31.4833333;6;
2;Australia;Western Australia;Wongan Hills;;116.7;-30.8833333;6;
2;Australia;Western Australia;Wongong;;116.0166667;-32.1833333;6;
2;Australia;Western Australia;Wonnerup;;115.4333333;-33.6333333;6;
2;Australia;Western Australia;Wonyil;;116.1666667;-31.9333333;6;
2;Australia;Western Australia;Woodanilling;;117.4333333;-33.5666667;6;
2;Australia;Western Australia;Wooganup;;119.5833333;-33.7666667;6;
2;Australia;Western Australia;Woogenellup;;117.8333333;-34.5166667;6;
2;Australia;Western Australia;Woolgangie;;120.5333333;-31.1666667;6;
2;Australia;Western Australia;Wooroloo;;116.3333333;-31.8166667;6;
2;Australia;Western Australia;Worsley;;116;-33.3;6;
2;Australia;Western Australia;Wubin;;116.6333333;-30.1;6;
2;Australia;Western Australia;Wundowie;;116.3833333;-31.7666667;6;
2;Australia;Western Australia;Wungong;;116.0166667;-32.1833333;6;
2;Australia;Western Australia;Wuraming;;116.2833333;-32.8;6;
2;Australia;Western Australia;Wurarga;;116.2833333;-28.4166667;6;
2;Australia;Western Australia;Wyalkatchem;;117.3666667;-31.1666667;6;
2;Australia;Western Australia;Wyening;;116.4833333;-31.1833333;6;
2;Australia;Western Australia;Wyndham;;128.1;-15.4666667;6;
2;Australia;Western Australia;Xantippe Telegraph Office;;117.0333333;-30.0333333;6;
2;Australia;Western Australia;Xantippe;;117.0333333;-30.0333333;6;
2;Australia;Western Australia;Yalbarrin;;118.1166667;-31.95;6;
2;Australia;Western Australia;Yalgoo;;116.6833333;-28.3333333;6;
2;Australia;Western Australia;Yallingup Caves;;115.0333333;-33.65;6;
2;Australia;Western Australia;Yallingup;;115.0333333;-33.65;6;
2;Australia;Western Australia;Yanchep;;115.6833333;-31.55;6;
2;Australia;Western Australia;Yancher;;115.6833333;-31.55;6;
2;Australia;Western Australia;Yandacoogina Mining Centre;;120.1666667;-21.4166667;6;
2;Australia;Western Australia;Yandanooka;;115.55;-29.3166667;6;
2;Australia;Western Australia;Yandicoogina Mining Centre;;120.1666667;-21.4166667;6;
2;Australia;Western Australia;Yandicoogina;;120.1666667;-21.4166667;6;
2;Australia;Western Australia;Yanmah;;116.0166667;-34.1833333;6;
2;Australia;Western Australia;Yarloop;;115.9;-32.9666667;6;
2;Australia;Western Australia;Yarri;;122.35;-29.7833333;6;
2;Australia;Western Australia;Yealering;;117.6166667;-32.6;6;
2;Australia;Western Australia;Yelbeni;;117.6666667;-31.1833333;6;
2;Australia;Western Australia;Yellowdine;;119.65;-31.3;6;
2;Australia;Western Australia;Yelverton;;115.1;-33.75;6;
2;Australia;Western Australia;Yerangatup;;122.3833333;-33.8166667;6;
2;Australia;Western Australia;Yerbillon;;118.75;-31.3833333;6;
2;Australia;Western Australia;Yericoin;;116.3833333;-30.9333333;6;
2;Australia;Western Australia;Yetna;;114.7;-28.6166667;6;
2;Australia;Western Australia;Yilliminning;;117.3666667;-32.9;6;
2;Australia;Western Australia;Yoongarilup;;115.4333333;-33.7166667;6;
2;Australia;Western Australia;York;;116.7666667;-31.9;6;
2;Australia;Western Australia;Yorkrakine;;117.5833333;-31.3833333;6;
2;Australia;Western Australia;Yornaning;;117.15;-32.7333333;6;
2;Australia;Western Australia;Yornup;;116.1666667;-34.05;6;
2;Australia;Western Australia;Yoting;;117.6166667;-31.9666667;6;
2;Australia;Western Australia;Youanmi;;118.8166667;-28.6166667;6;
2;Australia;Western Australia;Youndegin;;117.3166667;-31.8;6;
2;Australia;Western Australia;Young's Siding;;117.5166667;-35.0166667;6;
2;Australia;Western Australia;Youngs;;117.5166667;-35.0166667;6;
2;Australia;Western Australia;Youraling;;116.9833333;-32.3;6;
2;Australia;Western Australia;Yoweragabbie;;117.65;-28.2166667;6;
2;Australia;Western Australia;Yuna;;115;-28.3333333;6;
2;Australia;Western Australia;Yundamindera;;122.0333333;-29.1166667;6;
2;Australia;Western Australia;Yunndaga;;121.05;-29.75;6;
2;Australia;Western Australia;Zamia;;116.15;-31.9;6;
2;Australia;Western Australia;Zanthus;;123.5666667;-31.0333333;6;
