"Level";"Country";"State";"Place";"void";"Longitude";"Latitude";"ZoomLevel";"Icon"
1;Australia;Queensland;;;143.6;-22.6;6;
2;Australia;Queensland;Abercorn;;151.0333333;-25.15;6;
2;Australia;Queensland;Abermain;;152.7833333;-27.5666667;6;
2;Australia;Queensland;Acacia Ridge;;153.0333333;-27.5833333;6;
2;Australia;Queensland;Ackland;;151.6833333;-27.3;6;
2;Australia;Queensland;Adavale;;144.6;-25.9166667;6;
2;Australia;Queensland;Advancetown;;153.2666667;-28.0666667;6;
2;Australia;Queensland;Aitkenvale;;146.8;-19.2833333;6;
2;Australia;Queensland;Albany Creek;;152.9833333;-27.35;6;
2;Australia;Queensland;Alberton;;153.25;-27.7;6;
2;Australia;Queensland;Aldershot;;152.6666667;-25.4666667;6;
2;Australia;Queensland;Alexandra;;149.1;-21.1666667;6;
2;Australia;Queensland;Alexandra-Mooloolaba;;153.1166667;-26.6833333;6;
2;Australia;Queensland;Alice;;145.8;-23.5666667;6;
2;Australia;Queensland;Allan;;151.95;-28.2;6;
2;Australia;Queensland;Alligator Creek;;149.2;-21.3333333;6;
2;Australia;Queensland;Allingham;;146.25;-18.6666667;6;
2;Australia;Queensland;Allora;;151.9833333;-28.0333333;6;
2;Australia;Queensland;Alma Creek;;150.2833333;-23.9166667;6;
2;Australia;Queensland;Almaden;;144.6833333;-17.3333333;6;
2;Australia;Queensland;Aloomba;;145.8333333;-17.1166667;6;
2;Australia;Queensland;Alpha;;146.6333333;-23.65;6;
2;Australia;Queensland;Alton Downs;;150.35;-23.3;6;
2;Australia;Queensland;Alton;;149.3166667;-27.9833333;6;
2;Australia;Queensland;Alva;;147.4833333;-19.45;6;
2;Australia;Queensland;Amamoor;;152.6833333;-26.35;6;
2;Australia;Queensland;Amberley;;152.7;-27.6333333;6;
2;Australia;Queensland;Ambrose;;150.9333333;-23.8;6;
2;Australia;Queensland;Amby;;148.1833333;-26.55;6;
2;Australia;Queensland;Amhurst;;149.2333333;-21.0666667;6;
2;Australia;Queensland;Amiens;;151.8166667;-28.5833333;6;
2;Australia;Queensland;Amity Point;;153.4333333;-27.4;6;
2;Australia;Queensland;Amos Quarries;;150.8333333;-23.75;6;
2;Australia;Queensland;Anakie;;147.75;-23.55;6;
2;Australia;Queensland;Andergrove;;149.1833333;-21.0833333;6;
2;Australia;Queensland;Anduramba;;152.1;-27.15;6;
2;Australia;Queensland;Angellala;;146.9;-26.4;6;
2;Australia;Queensland;Anthony;;152.6666667;-27.8833333;6;
2;Australia;Queensland;Antigua;;152.6;-25.6333333;6;
2;Australia;Queensland;Antil Plains;;146.8333333;-19.45;6;
2;Australia;Queensland;Anyarro;;151.1166667;-25.0666667;6;
2;Australia;Queensland;Apple Tree Creek;;152.2333333;-25.2166667;6;
2;Australia;Queensland;Applethorpe;;151.9666667;-28.6166667;6;
2;Australia;Queensland;Apunyal;;151.1166667;-27.0666667;6;
2;Australia;Queensland;Aramac;;145.25;-22.9666667;6;
2;Australia;Queensland;Aramara;;152.3166667;-25.6166667;6;
2;Australia;Queensland;Aratula;;152.5333333;-27.9833333;6;
2;Australia;Queensland;Archer Siding;;150.5833333;-23.5833333;6;
2;Australia;Queensland;Archer;;150.5833333;-23.5833333;6;
2;Australia;Queensland;Argoon;;150.4333333;-24.25;6;
2;Australia;Queensland;Arkendeith;;147.3166667;-19.7166667;6;
2;Australia;Queensland;Armstrong Creek;;152.8333333;-27.2166667;6;
2;Australia;Queensland;Armstrong;;152.8333333;-27.2166667;6;
2;Australia;Queensland;Arrilalah;;143.8833333;-23.6833333;6;
2;Australia;Queensland;Ashgrove;;153.0333333;-27.45;6;
2;Australia;Queensland;Aspley;;153.0166667;-27.3666667;6;
2;Australia;Queensland;Atherton;;145.4833333;-17.2666667;6;
2;Australia;Queensland;Aubigney;;151.65;-27.5166667;6;
2;Australia;Queensland;Aubigny;;151.65;-27.5166667;6;
2;Australia;Queensland;Augathella;;146.5833333;-25.8;6;
2;Australia;Queensland;Avondale;;152.1666667;-24.7333333;6;
2;Australia;Queensland;Ayr;;147.4;-19.5833333;6;
2;Australia;Queensland;Ayton;;145.3666667;-15.9333333;6;
2;Australia;Queensland;Babinda;;145.9166667;-17.35;6;
2;Australia;Queensland;Back Plains;;151.7833333;-27.9;6;
2;Australia;Queensland;Baddow;;152.6833333;-25.5166667;6;
2;Australia;Queensland;Badgen;;153.2333333;-27.4833333;6;
2;Australia;Queensland;Badu;;142.1666667;-10.15;6;
2;Australia;Queensland;Baffle Creek;;151.9333333;-24.5;6;
2;Australia;Queensland;Bahrs Scrub;;153.1666667;-27.7333333;6;
2;Australia;Queensland;Bajool;;150.65;-23.6666667;6;
2;Australia;Queensland;Bakers Creek;;149.15;-21.2166667;6;
2;Australia;Queensland;Baking Board Siding;;150.55;-26.7166667;6;
2;Australia;Queensland;Baking Board;;150.55;-26.7166667;6;
2;Australia;Queensland;Balberra;;149.1166667;-21.3;6;
2;Australia;Queensland;Bald Mountain;;151.9166667;-28.9;6;
2;Australia;Queensland;Balfes Creek;;145.9166667;-20.2166667;6;
2;Australia;Queensland;Ballandean;;151.8333333;-28.8;6;
2;Australia;Queensland;Bamaga;;142.3833333;-10.8833333;6;
2;Australia;Queensland;Bambaroo;;146.2;-18.8666667;6;
2;Australia;Queensland;Bamford;;144.9166667;-17.3166667;6;
2;Australia;Queensland;Banana Pocket;;148.65;-20.5333333;6;
2;Australia;Queensland;Banana;;150.1333333;-24.4833333;6;
2;Australia;Queensland;Bancroft;;151.2333333;-24.7833333;6;
2;Australia;Queensland;Banna;;145.8166667;-17.1166667;6;
2;Australia;Queensland;Bapaume;;151.8333333;-28.5666667;6;
2;Australia;Queensland;Barakula;;150.5166667;-26.4333333;6;
2;Australia;Queensland;Baralaba;;149.8166667;-24.1833333;6;
2;Australia;Queensland;Barcaldine;;145.2833333;-23.5666667;6;
2;Australia;Queensland;Barcoo;;149.1166667;-21.0666667;6;
2;Australia;Queensland;Baree;;150.4;-23.6166667;6;
2;Australia;Queensland;Bargara;;152.4666667;-24.8166667;6;
2;Australia;Queensland;Barlil;;151.8833333;-26.2;6;
2;Australia;Queensland;Barmaryee;;150.7166667;-23.1333333;6;
2;Australia;Queensland;Barmundu;;151.2;-24.1333333;6;
2;Australia;Queensland;Barney View;;152.7833333;-28.2333333;6;
2;Australia;Queensland;Barrine;;145.6333333;-17.2;6;
2;Australia;Queensland;Barringha;;146.8333333;-19.55;6;
2;Australia;Queensland;Barringna;;146.8333333;-19.55;6;
2;Australia;Queensland;Bartle Frere;;145.8833333;-17.45;6;
2;Australia;Queensland;Batavia;;142.9666667;-13.1;6;
2;Australia;Queensland;Batcha;;144.9166667;-17.4666667;6;
2;Australia;Queensland;Bauple;;152.6166667;-25.8;6;
2;Australia;Queensland;Bayfield;;150.6666667;-22.8333333;6;
2;Australia;Queensland;Beachmere;;153.05;-27.1333333;6;
2;Australia;Queensland;Beaudesert;;152.9833333;-27.9833333;6;
2;Australia;Queensland;Bedourie;;139.4666667;-24.35;6;
2;Australia;Queensland;Beebo;;150.9666667;-28.7;6;
2;Australia;Queensland;Beecher;;151.2;-23.9;6;
2;Australia;Queensland;Beechmont;;153.2166667;-28.1;6;
2;Australia;Queensland;Beenleigh;;153.2;-27.7166667;6;
2;Australia;Queensland;Beerburrum;;152.9666667;-26.9666667;6;
2;Australia;Queensland;Beerwah;;152.9666667;-26.85;6;
2;Australia;Queensland;Belahville;;151.0166667;-26.7;6;
2;Australia;Queensland;Beldene;;148.6333333;-27.0666667;6;
2;Australia;Queensland;Belgian Gardens;;146.8;-19.25;6;
2;Australia;Queensland;Bell;;151.45;-26.9333333;6;
2;Australia;Queensland;Bellara;;153.1430556;-27.065;6;
2;Australia;Queensland;Bellenden Ker;;145.9166667;-17.2666667;6;
2;Australia;Queensland;Bellevue;;152.55;-27.3333333;6;
2;Australia;Queensland;Belmont;;153.1166667;-27.5;6;
2;Australia;Queensland;Bemerside;;146.2333333;-18.5666667;6;
2;Australia;Queensland;Benaraby;;151.3166667;-24.0166667;6;
2;Australia;Queensland;Benarkin;;152.1333333;-26.8833333;6;
2;Australia;Queensland;Benholme;;148.8166667;-21.1666667;6;
2;Australia;Queensland;Benobble;;153.1666667;-27.9833333;6;
2;Australia;Queensland;Benowa;;153.4;-28.0166667;6;
2;Australia;Queensland;Berajondo;;151.8333333;-24.6333333;6;
2;Australia;Queensland;Berat;;152.05;-28.05;6;
2;Australia;Queensland;Berner Creek;;145.9;-17.5666667;6;
2;Australia;Queensland;Berrembea;;152.05;-25.0333333;6;
2;Australia;Queensland;Beruna;;150.85;-26.6333333;6;
2;Australia;Queensland;Bethania Junction;;153.1666667;-27.6833333;6;
2;Australia;Queensland;Bethania;;153.1666667;-27.6833333;6;
2;Australia;Queensland;Betoota;;140.7333333;-25.7;6;
2;Australia;Queensland;Biboohra;;145.4166667;-16.9333333;6;
2;Australia;Queensland;Biddeston;;151.7166667;-27.5666667;6;
2;Australia;Queensland;Biddleston;;151.7166667;-27.5666667;6;
2;Australia;Queensland;Biggenden;;152.05;-25.5166667;6;
2;Australia;Queensland;Bigriggan;;152.7666667;-28.2166667;6;
2;Australia;Queensland;Bilinga;;153.5166667;-28.1666667;6;
2;Australia;Queensland;Biloela;;150.5;-24.4166667;6;
2;Australia;Queensland;Bilwon;;145.4666667;-16.8666667;6;
2;Australia;Queensland;Bilyana;;145.9166667;-18.1333333;6;
2;Australia;Queensland;Binbee;;147.9333333;-20.3;6;
2;Australia;Queensland;Bindango;;148.55;-36.5833333;6;
2;Australia;Queensland;Bindle;;148.75;-27.6833333;6;
2;Australia;Queensland;Bingera Plantation;;152.2;-24.9333333;6;
2;Australia;Queensland;Bingera;;152.2;-24.9333333;6;
2;Australia;Queensland;Bingham;;152.9166667;-25.4333333;6;
2;Australia;Queensland;Binjour;;151.45;-25.5166667;6;
2;Australia;Queensland;Birdsville;;139.3666667;-25.9;6;
2;Australia;Queensland;Birimgan;;147.45;-22.7;6;
2;Australia;Queensland;Birkalla;;145.95;-17.9166667;6;
2;Australia;Queensland;Birkdale;;153.2166667;-27.4833333;6;
2;Australia;Queensland;Birnam;;151.9166667;-27.4833333;6;
2;Australia;Queensland;Birru;;152.5833333;-27.6;6;
2;Australia;Queensland;Birthamba;;152.1833333;-24.9166667;6;
2;Australia;Queensland;Black Duck Creek;;152.1833333;-27.8333333;6;
2;Australia;Queensland;Black Plains;;151.7833333;-27.9;6;
2;Australia;Queensland;Blackall;;145.4666667;-24.4166667;6;
2;Australia;Queensland;Blackbutt;;152.1;-26.8833333;6;
2;Australia;Queensland;Blackmount;;152.5833333;-25.7;6;
2;Australia;Queensland;Blackridge;;147.6166667;-22.6333333;6;
2;Australia;Queensland;Blacks Beach;;149.2;-21.05;6;
2;Australia;Queensland;Blackwater;;148.8833333;-23.5833333;6;
2;Australia;Queensland;Blair Athol;;147.55;-22.7;6;
2;Australia;Queensland;Blanchview;;152.0333333;-27.5666667;6;
2;Australia;Queensland;Blantyre;;152.6833333;-27.9;6;
2;Australia;Queensland;Blaxland;;151.3166667;-27.2;6;
2;Australia;Queensland;Blenheim;;152.3166667;-27.6666667;6;
2;Australia;Queensland;Bli Bli;;153.0333333;-26.6166667;6;
2;Australia;Queensland;Bloomfield;;145.3333333;-15.9333333;6;
2;Australia;Queensland;Bloomsbury;;148.6;-20.7166667;6;
2;Australia;Queensland;Blue Mountain;;149.0333333;-21.5833333;6;
2;Australia;Queensland;Bluff;;149.0666667;-23.5833333;6;
2;Australia;Queensland;Blythdale;;148.9666667;-26.5833333;6;
2;Australia;Queensland;Bodalla;;152.2333333;-25.2166667;6;
2;Australia;Queensland;Bogandilla;;149.8;-26.5;6;
2;Australia;Queensland;Bogantungan;;147.3;-23.65;6;
2;Australia;Queensland;Boigu;;142.2166667;-9.2333333;6;
2;Australia;Queensland;Boldon;;148.9166667;-21.15;6;
2;Australia;Queensland;Bollon;;147.4833333;-28.0333333;6;
2;Australia;Queensland;Bombeeta;;145.9666667;-17.6833333;6;
2;Australia;Queensland;Bona Vista;;148.6666667;-20.4;6;
2;Australia;Queensland;Bondoola;;150.6833333;-23.1666667;6;
2;Australia;Queensland;Bongaree;;153.1586111;-27.0797222;6;
2;Australia;Queensland;Bongeen;;151.45;-27.5666667;6;
2;Australia;Queensland;Bony Mountain;;151.8333333;-28.1333333;6;
2;Australia;Queensland;Boodua;;151.8333333;-27.3833333;6;
2;Australia;Queensland;Boolba;;148.1;-27.9666667;6;
2;Australia;Queensland;Boolboonda;;151.6833333;-25.0833333;6;
2;Australia;Queensland;Boolburra;;149.7666667;-23.7333333;6;
2;Australia;Queensland;Booloongie;;152.3;-24.8333333;6;
2;Australia;Queensland;Booloumba;;152.6833333;-26.65;6;
2;Australia;Queensland;Boomerang;;151.4333333;-25.6166667;6;
2;Australia;Queensland;Boompa;;152.1833333;-25.5833333;6;
2;Australia;Queensland;Boonah;;152.6833333;-28;6;
2;Australia;Queensland;Boonarda;;150.7166667;-26.8;6;
2;Australia;Queensland;Boonarga;;150.7166667;-26.8;6;
2;Australia;Queensland;Boondall;;153.0666667;-27.35;6;
2;Australia;Queensland;Boondarra;;148.4;-27.3333333;6;
2;Australia;Queensland;Boondooma;;151.2833333;-26.2;6;
2;Australia;Queensland;Boonenne;;151.8;-26.6166667;6;
2;Australia;Queensland;Boongana;;148.5833333;-21.15;6;
2;Australia;Queensland;Boongary;;150.4;-23.5166667;6;
2;Australia;Queensland;Boonmoo;;145.0833333;-17.25;6;
2;Australia;Queensland;Boonooroo;;152.9;-25.6666667;6;
2;Australia;Queensland;Boorooman;;145.0166667;-20.7666667;6;
2;Australia;Queensland;Boortkoi;;150.3833333;-26.5333333;6;
2;Australia;Queensland;Bootawa;;152.75;-27.0833333;6;
2;Australia;Queensland;Bootharh;;152.35;-25.2333333;6;
2;Australia;Queensland;Bootooloo;;148.2;-20.05;6;
2;Australia;Queensland;Boowoogum;;152.4166667;-26.0333333;6;
2;Australia;Queensland;Booyal;;152.0333333;-25.2166667;6;
2;Australia;Queensland;Borallon;;152.6833333;-27.5333333;6;
2;Australia;Queensland;Bororen;;151.5;-24.25;6;
2;Australia;Queensland;Boulia;;139.9;-22.9;6;
2;Australia;Queensland;Bowen;;148.2333333;-20.0166667;6;
2;Australia;Queensland;Bowenville;;151.4833333;-27.3166667;6;
2;Australia;Queensland;Bowketts;;151.05;-26.5666667;6;
2;Australia;Queensland;Bowman;;149.6666667;-22.65;6;
2;Australia;Queensland;Boyland;;153.1333333;-27.95;6;
2;Australia;Queensland;Boyne Island;;151.35;-23.9333333;6;
2;Australia;Queensland;Boyne;;151.55;-26.7166667;6;
2;Australia;Queensland;Boynedale;;151.25;-24.2166667;6;
2;Australia;Queensland;Boyneside;;151.55;-26.7166667;6;
2;Australia;Queensland;Bracalba;;152.85;-27.0166667;6;
2;Australia;Queensland;Bracewell;;150.9;-23.9;6;
2;Australia;Queensland;Braemar;;152.2666667;-25.65;6;
2;Australia;Queensland;Braeside;;151.9166667;-28.4;6;
2;Australia;Queensland;Brandon;;147.3666667;-19.5666667;6;
2;Australia;Queensland;Bribie View;;153.0694444;-27.0052778;6;
2;Australia;Queensland;Bribie;;153.1586111;-27.0797222;6;
2;Australia;Queensland;Bridges;;152.95;-26.5333333;6;
2;Australia;Queensland;Brigalow;;150.7833333;-26.85;6;
2;Australia;Queensland;Brighton;;153.0666667;-27.3;6;
2;Australia;Queensland;Brightview;;152.4833333;-27.5;6;
2;Australia;Queensland;Brisbane;;153.02;-27.51;6;
2;Australia;Queensland;Brixton;;144.95;-23.5333333;6;
2;Australia;Queensland;Broadbeach;;153.4333333;-28.0166667;6;
2;Australia;Queensland;Broadmount;;150.7833333;-23.5;6;
2;Australia;Queensland;Bromelton;;152.9333333;-27.9833333;6;
2;Australia;Queensland;Bromfleet;;153.1166667;-27.9166667;6;
2;Australia;Queensland;Brookfield;;152.9;-27.5;6;
2;Australia;Queensland;Brookhill;;146.8333333;-19.3833333;6;
2;Australia;Queensland;Brookstead;;151.45;-27.7666667;6;
2;Australia;Queensland;Brooloo;;152.7;-26.5;6;
2;Australia;Queensland;Brooweena;;152.2666667;-25.6;6;
2;Australia;Queensland;Brooyar;;152.4;-26.0166667;6;
2;Australia;Queensland;Broughton;;146.4333333;-20.1166667;6;
2;Australia;Queensland;Browns Plains;;153.0333333;-27.65;6;
2;Australia;Queensland;Broxburn;;151.6666667;-27.7;6;
2;Australia;Queensland;Bryden;;152.5833333;-27.2666667;6;
2;Australia;Queensland;Buaraba Creek;;152.4166667;-27.4166667;6;
2;Australia;Queensland;Buaraba;;152.3166667;-27.3666667;6;
2;Australia;Queensland;Bucasia;;149.1666667;-21.0333333;6;
2;Australia;Queensland;Bucca;;152.1;-24.8666667;6;
2;Australia;Queensland;Buccan;;153.1333333;-27.75;6;
2;Australia;Queensland;Buderim;;153.05;-26.6833333;6;
2;Australia;Queensland;Builyan;;151.3833333;-24.5333333;6;
2;Australia;Queensland;Bulgroo;;143.9833333;-25.8;6;
2;Australia;Queensland;Bullock Creek;;144.5166667;-17.7166667;6;
2;Australia;Queensland;Bullyard;;152.0666667;-24.95;6;
2;Australia;Queensland;Bulwer Cottages;;153.3666667;-27.0666667;6;
2;Australia;Queensland;Bulwer;;153.3666667;-27.0666667;6;
2;Australia;Queensland;Bunburra;;152.6833333;-28.0666667;6;
2;Australia;Queensland;Bundaberg;;152.35;-24.85;6;
2;Australia;Queensland;Bundamba;;152.8;-27.6166667;6;
2;Australia;Queensland;Buneru;;150.1666667;-23.95;6;
2;Australia;Queensland;Bungadoo;;152.0666667;-24.9833333;6;
2;Australia;Queensland;Bungeworgorai;;148.7166667;-26.5833333;6;
2;Australia;Queensland;Bungunya;;149.65;-28.4333333;6;
2;Australia;Queensland;Burketown;;139.5666667;-17.7166667;6;
2;Australia;Queensland;Burleigh Heads;;153.45;-28.1;6;
2;Australia;Queensland;Burleigh;;153.45;-28.1;6;
2;Australia;Queensland;Burncluith;;150.7166667;-26.6333333;6;
2;Australia;Queensland;Burnett Heads;;152.4;-24.7666667;6;
2;Australia;Queensland;Burpengary;;152.95;-27.1666667;6;
2;Australia;Queensland;Burrum;;152.5833333;-25.3333333;6;
2;Australia;Queensland;Burrumba;;152.5333333;-25.2;6;
2;Australia;Queensland;Burua;;151.2166667;-23.95;6;
2;Australia;Queensland;Bushley;;150.25;-23.5333333;6;
2;Australia;Queensland;Bustard Head;;151.7666667;-24.0333333;6;
2;Australia;Queensland;Butcher Creek;;145.6833333;-17.35;6;
2;Australia;Queensland;Butchers Creek;;145.6833333;-17.35;6;
2;Australia;Queensland;Buthurra;;148.8666667;-20.9833333;6;
2;Australia;Queensland;Buxton;;152.5333333;-25.2;6;
2;Australia;Queensland;Byanbunnoo;;148.75;-27.55;6;
2;Australia;Queensland;Byee;;151.85;-26.1833333;6;
2;Australia;Queensland;Byer;;148.6;-21.15;6;
2;Australia;Queensland;Byfield;;150.6666667;-22.8333333;6;
2;Australia;Queensland;Bymount;;148.5333333;-26.0666667;6;
2;Australia;Queensland;Byrnestown;;151.75;-25.5166667;6;
2;Australia;Queensland;Cabanda;;152.5833333;-27.6166667;6;
2;Australia;Queensland;Cabandilla;;151.0666667;-26.6333333;6;
2;Australia;Queensland;Cabarlah;;152;-27.4333333;6;
2;Australia;Queensland;Cabawin;;150.25;-27.3333333;6;
2;Australia;Queensland;Caboolture;;152.95;-27.0833333;6;
2;Australia;Queensland;Caboonbah;;152.4833333;-27.15;6;
2;Australia;Queensland;Caffey;;152.2166667;-27.7;6;
2;Australia;Queensland;Cairns;;145.7666667;-16.9166667;6;
2;Australia;Queensland;Calen;;148.7666667;-20.9;6;
2;Australia;Queensland;Callandoon North;;150.1833333;-28.4833333;6;
2;Australia;Queensland;Callide;;150.4666667;-24.3166667;6;
2;Australia;Queensland;Calliope;;151.2;-24;6;
2;Australia;Queensland;Caloundra;;153.1333333;-26.8;6;
2;Australia;Queensland;Calvert;;152.5166667;-27.6666667;6;
2;Australia;Queensland;Camboon;;150.4333333;-25.05;6;
2;Australia;Queensland;Cambooya;;151.8666667;-27.7166667;6;
2;Australia;Queensland;Cameby;;150.4833333;-26.6;6;
2;Australia;Queensland;Camerons Pocket;;148.7166667;-20.95;6;
2;Australia;Queensland;Camoola;;144.4833333;-22.9833333;6;
2;Australia;Queensland;Camooweal;;138.1166667;-19.9166667;6;
2;Australia;Queensland;Camp Mountain;;152.8833333;-27.4;6;
2;Australia;Queensland;Campbells Plains;;152.1;-28.15;6;
2;Australia;Queensland;Canalpin;;153.4108333;-27.5863889;6;
2;Australia;Queensland;Cania;;150.9666667;-24.6333333;6;
2;Australia;Queensland;Cannon Creek;;151.8666667;-28.5833333;6;
2;Australia;Queensland;Cannon Valley;;148.6833333;-20.2833333;6;
2;Australia;Queensland;Cannonvale;;148.7;-20.2833333;6;
2;Australia;Queensland;Canoona;;150.2666667;-23.0833333;6;
2;Australia;Queensland;Canterbury;;141.8833333;-25.3833333;6;
2;Australia;Queensland;Canungra;;153.1666667;-28.0333333;6;
2;Australia;Queensland;Capalaba;;153.1833333;-27.5166667;6;
2;Australia;Queensland;Cape River;;145.4833333;-20.4666667;6;
2;Australia;Queensland;Cape York Telegraph Station;;142.4666667;-10.7166667;6;
2;Australia;Queensland;Cape York;;142.4666667;-10.7166667;6;
2;Australia;Queensland;Capella;;148.0166667;-23.0833333;6;
2;Australia;Queensland;Caping;;148.5833333;-20.6166667;6;
2;Australia;Queensland;Carbeen;;145.4333333;-17.15;6;
2;Australia;Queensland;Carbrook;;153.25;-27.6833333;6;
2;Australia;Queensland;Cardwell;;146.0333333;-18.2666667;6;
2;Australia;Queensland;Carmila West;;149.35;-21.9166667;6;
2;Australia;Queensland;Carmila;;149.4166667;-21.9166667;6;
2;Australia;Queensland;Carrar;;143.1;-20.75;6;
2;Australia;Queensland;Carruchan;;145.9166667;-18.2166667;6;
2;Australia;Queensland;Carstairs;;147.4;-19.65;6;
2;Australia;Queensland;Cassady;;146.3333333;-18.6333333;6;
2;Australia;Queensland;Cassidy;;146.3333333;-18.6333333;6;
2;Australia;Queensland;Cassowary;;145.4;-16.5;6;
2;Australia;Queensland;Castledean;;150.2666667;-26.5333333;6;
2;Australia;Queensland;Cathu;;148.6333333;-20.8166667;6;
2;Australia;Queensland;Cawarral;;150.6666667;-23.2666667;6;
2;Australia;Queensland;Cawdor;;151.9;-27.4666667;6;
2;Australia;Queensland;Cecil Plains;;151.2;-27.5333333;6;
2;Australia;Queensland;Cedar Grove;;152.9833333;-27.8666667;6;
2;Australia;Queensland;Cedarton;;152.8166667;-26.85;6;
2;Australia;Queensland;Cement Hills;;151.5;-28.3333333;6;
2;Australia;Queensland;Cement Mills;;151.5;-28.3333333;6;
2;Australia;Queensland;Ceratodus;;151.15;-25.2833333;6;
2;Australia;Queensland;Chadford;;149.25;-26.4833333;6;
2;Australia;Queensland;Chapingah;;151.3833333;-26.4833333;6;
2;Australia;Queensland;Charleville;;146.25;-26.4;6;
2;Australia;Queensland;Charlton;;151.8666667;-27.5333333;6;
2;Australia;Queensland;Charlwood;;152.5666667;-28.0166667;6;
2;Australia;Queensland;Charringa;;145.8333333;-17.1333333;6;
2;Australia;Queensland;Charters Towers;;146.2666667;-20.1;6;
2;Australia;Queensland;Cheepie;;145.0166667;-26.6333333;6;
2;Australia;Queensland;Cheerulla;;152.7666667;-26.5666667;6;
2;Australia;Queensland;Cherry Gully;;152.0333333;-28.4166667;6;
2;Australia;Queensland;Chewko;;145.3833333;-17.0666667;6;
2;Australia;Queensland;Childers;;152.2666667;-25.25;6;
2;Australia;Queensland;Chillagoe;;144.5333333;-17.15;6;
2;Australia;Queensland;Chilverton;;145.5166667;-17.5666667;6;
2;Australia;Queensland;Chinchilla;;150.6333333;-26.75;6;
2;Australia;Queensland;Chowey;;151.9333333;-25.4666667;6;
2;Australia;Queensland;Chumbrumba;;145.5833333;-17.3;6;
2;Australia;Queensland;Churchill;;152.75;-27.65;6;
2;Australia;Queensland;Churum;;142.6;-9.4166667;6;
2;Australia;Queensland;Cinnabar;;152.1833333;-26.1166667;6;
2;Australia;Queensland;Cinnibar;;152.1833333;-26.1166667;6;
2;Australia;Queensland;Clairview;;149.5333333;-22.1166667;6;
2;Australia;Queensland;Clanside;;148.8166667;-20.9333333;6;
2;Australia;Queensland;Clare;;147.2333333;-19.7833333;6;
2;Australia;Queensland;Clarendon;;152.5333333;-27.4166667;6;
2;Australia;Queensland;Clarke River Telegraph Station;;145.45;-19.2166667;6;
2;Australia;Queensland;Clarke River;;145.45;-19.2166667;6;
2;Australia;Queensland;Claverton;;145.9666667;-27.3666667;6;
2;Australia;Queensland;Clayton;;152.3666667;-24.9333333;6;
2;Australia;Queensland;Clermont;;147.6333333;-22.8166667;6;
2;Australia;Queensland;Clevedon;;147.0166667;-19.4;6;
2;Australia;Queensland;Cleveland;;153.2666667;-27.5333333;6;
2;Australia;Queensland;Clevendon;;147.0166667;-19.4;6;
2;Australia;Queensland;Cliffdale;;151.9833333;-27.4666667;6;
2;Australia;Queensland;Clifton;;151.9166667;-27.9166667;6;
2;Australia;Queensland;Clintonvale;;152.1166667;-28.1;6;
2;Australia;Queensland;Cloncurry;;140.5;-20.7;6;
2;Australia;Queensland;Clonduff;;149.9;-25.8333333;6;
2;Australia;Queensland;Clontarf;;151.2166667;-27.9666667;6;
2;Australia;Queensland;Closeburn;;152.8333333;-27.3333333;6;
2;Australia;Queensland;Cloyna;;151.8333333;-26.1166667;6;
2;Australia;Queensland;Cloyne;;151.8333333;-26.1166667;6;
2;Australia;Queensland;Cluden;;146.8333333;-19.3166667;6;
2;Australia;Queensland;Clumber;;152.4666667;-28.0666667;6;
2;Australia;Queensland;Coalbank;;151.85;-27.1166667;6;
2;Australia;Queensland;Coalstoun Lakes;;151.8833333;-25.6166667;6;
2;Australia;Queensland;Cobba-da-mana;;151.2333333;-28.4166667;6;
2;Australia;Queensland;Coen;;143.2;-13.9333333;6;
2;Australia;Queensland;Coleyville;;152.9;-27.8166667;6;
2;Australia;Queensland;Colinton;;152.3166667;-26.9333333;6;
2;Australia;Queensland;College Green;;151.8333333;-27.9666667;6;
2;Australia;Queensland;Collinsville;;147.85;-20.55;6;
2;Australia;Queensland;Colosseum;;151.6166667;-24.4;6;
2;Australia;Queensland;Colston Park;;149.0833333;-21.5666667;6;
2;Australia;Queensland;Columboola;;150.3333333;-26.6833333;6;
2;Australia;Queensland;Comet;;148.55;-23.6;6;
2;Australia;Queensland;Condamine;;150.1333333;-26.9333333;6;
2;Australia;Queensland;Coningsby;;149.0666667;-21.1;6;
2;Australia;Queensland;Conondale;;152.7166667;-26.7333333;6;
2;Australia;Queensland;Conway;;148.7;-20.4166667;6;
2;Australia;Queensland;Cooktown;;145.25;-15.4666667;6;
2;Australia;Queensland;Coolabunia;;151.9;-26.6;6;
2;Australia;Queensland;Cooladdi;;145.4666667;-26.6333333;6;
2;Australia;Queensland;Coolana;;152.55;-27.5333333;6;
2;Australia;Queensland;Coolangatta;;153.5333333;-28.1666667;6;
2;Australia;Queensland;Coolbie;;146.2666667;-18.9166667;6;
2;Australia;Queensland;Coolcorra;;150.65;-23.35;6;
2;Australia;Queensland;Coolgarra;;145.2;-17.5666667;6;
2;Australia;Queensland;Cooloolabin;;152.8833333;-26.55;6;
2;Australia;Queensland;Coolum Beach;;153.1;-26.5333333;6;
2;Australia;Queensland;Coolum;;153.1;-26.5333333;6;
2;Australia;Queensland;Coomera;;153.3;-27.8833333;6;
2;Australia;Queensland;Coominglah;;150.8333333;-24.75;6;
2;Australia;Queensland;Coominya;;152.5;-27.3833333;6;
2;Australia;Queensland;Coondoo;;152.8833333;-26.1666667;6;
2;Australia;Queensland;Cooneel;;150.1666667;-23.9833333;6;
2;Australia;Queensland;Coongoola;;145.9;-27.65;6;
2;Australia;Queensland;Coopers Hill;;152.3833333;-27.65;6;
2;Australia;Queensland;Cooran;;152.8333333;-16.3333333;6;
2;Australia;Queensland;Cooranga North;;151.3833333;-26.7833333;6;
2;Australia;Queensland;Coorooman;;150.7333333;-23.2666667;6;
2;Australia;Queensland;Cooroy;;152.9166667;-26.4166667;6;
2;Australia;Queensland;Cootharaba;;152.9666667;-26.2666667;6;
2;Australia;Queensland;Coowonga;;150.7166667;-23.2833333;6;
2;Australia;Queensland;Cooyar;;151.8333333;-26.9833333;6;
2;Australia;Queensland;Copperfield;;147.6166667;-22.85;6;
2;Australia;Queensland;Cordalba;;152.2166667;-25.1666667;6;
2;Australia;Queensland;Cordelia;;146.25;-18.5833333;6;
2;Australia;Queensland;Corella;;152.6333333;-26.1;6;
2;Australia;Queensland;Corfield;;143.3666667;-21.7166667;6;
2;Australia;Queensland;Corinda;;152.9833333;-27.5333333;6;
2;Australia;Queensland;Cornubia Park;;153.2166667;-27.6666667;6;
2;Australia;Queensland;Cotswold;;152.75;-28.1833333;6;
2;Australia;Queensland;Cottonvale;;152.4666667;-27.7166667;6;
2;Australia;Queensland;Cowan Cowan;;153.3633333;-27.1283333;6;
2;Australia;Queensland;Cowley;;146.05;-17.6833333;6;
2;Australia;Queensland;Crab Tree Station;;153.0666667;-27.35;6;
2;Australia;Queensland;Cracow;;150.3;-25.3;6;
2;Australia;Queensland;Craigallian;;152.4666667;-26.0833333;6;
2;Australia;Queensland;Cramsie;;144.2333333;-23.4;6;
2;Australia;Queensland;Cranley;;151.95;-27.5166667;6;
2;Australia;Queensland;Crawford;;151.8166667;-26.5;6;
2;Australia;Queensland;Cremorne;;149.2;-21.1333333;6;
2;Australia;Queensland;Cribb Island;;153.1166667;-27.35;6;
2;Australia;Queensland;Croftby;;152.5666667;-28.1333333;6;
2;Australia;Queensland;Cromarty;;147.05;-19.4666667;6;
2;Australia;Queensland;Crows Nest;;152.0666667;-27.2666667;6;
2;Australia;Queensland;Croydon;;142.2333333;-18.2166667;6;
2;Australia;Queensland;Cucania;;145.9166667;-17.25;6;
2;Australia;Queensland;Cunnamulla;;145.6833333;-28.0666667;6;
2;Australia;Queensland;Cunningham;;151.85;-28.15;6;
2;Australia;Queensland;Curra;;152.5833333;-26.0666667;6;
2;Australia;Queensland;Currumbin;;153.4666667;-28.1333333;6;
2;Australia;Queensland;Curulmundi;;150.05;-26.4166667;6;
2;Australia;Queensland;Cutella;;151.8166667;-27.45;6;
2;Australia;Queensland;Cynthia;;151.1333333;-25.2166667;6;
2;Australia;Queensland;Dadamarine;;151.9833333;-25.8666667;6;
2;Australia;Queensland;D'Aguilar;;152.8;-26.9833333;6;
2;Australia;Queensland;Dagun;;152.6833333;-26.3166667;6;
2;Australia;Queensland;Daintree;;145.3166667;-16.25;6;
2;Australia;Queensland;Dajarra;;139.5166667;-21.6833333;6;
2;Australia;Queensland;Dakabin;;152.9833333;-27.2333333;6;
2;Australia;Queensland;Dalby;;151.2666667;-27.1833333;6;
2;Australia;Queensland;Dallachy;;145.9333333;-18.1666667;6;
2;Australia;Queensland;Dallarnil;;152.05;-25.4;6;
2;Australia;Queensland;Dalma Scrub;;150.25;-23.35;6;
2;Australia;Queensland;Dalrymple Heights;;148.5166667;-21.1;6;
2;Australia;Queensland;Dalveen;;151.9833333;-28.4833333;6;
2;Australia;Queensland;Dalwogan;;150.15;-26.5833333;6;
2;Australia;Queensland;Dalwogon;;150.15;-26.5833333;6;
2;Australia;Queensland;Dalysford;;151.8833333;-25.0166667;6;
2;Australia;Queensland;Danbulla;;145.6166667;-17.15;6;
2;Australia;Queensland;Danderoo;;152.2333333;-28.25;6;
2;Australia;Queensland;Dangore;;151.5833333;-26.45;6;
2;Australia;Queensland;Dappil;;151.6333333;-25.55;6;
2;Australia;Queensland;Daradgee;;146;-17.4833333;6;
2;Australia;Queensland;Dareel;;148.8166667;-28.8666667;6;
2;Australia;Queensland;Dargal;;148.5666667;-26.4666667;6;
2;Australia;Queensland;Darra;;152.9666667;-27.5666667;6;
2;Australia;Queensland;Dartmouth;;144.7;-23.5166667;6;
2;Australia;Queensland;Dauan;;142.5166667;-9.4166667;6;
2;Australia;Queensland;Dawlish;;149.15;-21.3666667;6;
2;Australia;Queensland;Dayboro;;152.8333333;-27.1833333;6;
2;Australia;Queensland;Daymar;;148.9833333;-28.6166667;6;
2;Australia;Queensland;Deagon;;153.0666667;-27.3333333;6;
2;Australia;Queensland;Deauville;;148.7;-20.2833333;6;
2;Australia;Queensland;Deception Bay;;153.0333333;-27.2;6;
2;Australia;Queensland;Deeral;;145.9166667;-17.2166667;6;
2;Australia;Queensland;Degilbo;;152;-25.4833333;6;
2;Australia;Queensland;Delta;;148.1833333;-20.0166667;6;
2;Australia;Queensland;Deuchar;;151.95;-28.1166667;6;
2;Australia;Queensland;Devereaux;;148.9166667;-21.1166667;6;
2;Australia;Queensland;Devereux Creek;;148.9166667;-21.1166667;6;
2;Australia;Queensland;Devereux;;148.9166667;-21.1166667;6;
2;Australia;Queensland;Deverton;;152.05;-27.6833333;6;
2;Australia;Queensland;Devils Elbow;;149.1666667;-21.1333333;6;
2;Australia;Queensland;Dicks Creek;;142.4;-21.9166667;6;
2;Australia;Queensland;Didcot;;151.8666667;-25.4833333;6;
2;Australia;Queensland;Dimbulah;;145.1166667;-17.15;6;
2;Australia;Queensland;Dingo;;149.3333333;-23.65;6;
2;Australia;Queensland;Dinmore;;152.8333333;-27.6;6;
2;Australia;Queensland;Dirranbandi;;148.2333333;-28.5833333;6;
2;Australia;Queensland;Dittmer;;148.4;-20.45;6;
2;Australia;Queensland;Dixalea;;150.2833333;-23.9333333;6;
2;Australia;Queensland;Djarawong;;145.9833333;-17.8666667;6;
2;Australia;Queensland;Djuan;;151.9833333;-27.1166667;6;
2;Australia;Queensland;Dobbyn;;140;-19.8;6;
2;Australia;Queensland;Docters Creek;;151.85;-27.2166667;6;
2;Australia;Queensland;Doctors Creek;;151.85;-27.2166667;6;
2;Australia;Queensland;Don River;;150.3;-23.9833333;6;
2;Australia;Queensland;Don;;148.2;-20.0166667;6;
2;Australia;Queensland;Donaldson Telegraph Station;;140.3666667;-19.8666667;6;
2;Australia;Queensland;Donaldson;;140.3666667;-19.8666667;6;
2;Australia;Queensland;Donnybrook;;153.0694444;-27.0052778;6;
2;Australia;Queensland;Doolbi;;152.3;-25.2333333;6;
2;Australia;Queensland;Downsfield;;152.7333333;-26.0666667;6;
2;Australia;Queensland;Dows Creek;;148.7833333;-21.1;6;
2;Australia;Queensland;Drapers;;148.9833333;-21.25;6;
2;Australia;Queensland;Drayton;;151.9166667;-27.5833333;6;
2;Australia;Queensland;Drillham;;149.9833333;-26.65;6;
2;Australia;Queensland;Drinan;;152.0166667;-25.05;6;
2;Australia;Queensland;Drummer Creek;;151.6333333;-25.15;6;
2;Australia;Queensland;Drummers Creek;;151.6333333;-25.15;6;
2;Australia;Queensland;Duaringa;;149.6666667;-23.7333333;6;
2;Australia;Queensland;Duchess;;139.85;-21.3666667;6;
2;Australia;Queensland;Ducklo;;151.0166667;-27.25;6;
2;Australia;Queensland;Duffield;;151.3833333;-26.4166667;6;
2;Australia;Queensland;Dugandan;;152.6833333;-28.0166667;6;
2;Australia;Queensland;Dulacca South;;149.7833333;-26.7833333;6;
2;Australia;Queensland;Dulacca;;149.75;-26.65;6;
2;Australia;Queensland;Dulbolla;;152.8833333;-28.2166667;6;
2;Australia;Queensland;Dulbydilla;;147.3833333;-26.4333333;6;
2;Australia;Queensland;Duleen;;151.05;-27.25;6;
2;Australia;Queensland;Dululu;;150.25;-23.85;6;
2;Australia;Queensland;Dumbleton;;149.1;-21.1333333;6;
2;Australia;Queensland;Dundarrah;;151.8833333;-25.65;6;
2;Australia;Queensland;Dundas;;152.6166667;-27.3;6;
2;Australia;Queensland;Dunwich;;153.4;-27.5;6;
2;Australia;Queensland;Dunwinnie;;148.6666667;-28.55;6;
2;Australia;Queensland;Dunwold;;148.7833333;-21.1666667;6;
2;Australia;Queensland;Durikai;;151.6166667;-28.2;6;
2;Australia;Queensland;Durong;;151.25;-26.3333333;6;
2;Australia;Queensland;Eagle Heights;;153.2;-27.9333333;6;
2;Australia;Queensland;Eagleby;;153.2166667;-27.6833333;6;
2;Australia;Queensland;East Barron;;145.5333333;-17.3166667;6;
2;Australia;Queensland;East Evelyn;;145.5166667;-17.5166667;6;
2;Australia;Queensland;East Malanda;;145.6666667;-17.3833333;6;
2;Australia;Queensland;Ebagoola;;143.2666667;-14.3166667;6;
2;Australia;Queensland;Ebbw Vale;;152.8166667;-27.6;6;
2;Australia;Queensland;Ebenezer;;152.6333333;-27.6833333;6;
2;Australia;Queensland;Edge Hill;;145.75;-16.9;6;
2;Australia;Queensland;Edmonton;;145.75;-17.0166667;6;
2;Australia;Queensland;Edungalba;;149.85;-23.7166667;6;
2;Australia;Queensland;Ehlma;;150.8666667;-26.9;6;
2;Australia;Queensland;Eidsvold;;151.1333333;-25.3666667;6;
2;Australia;Queensland;Eight Mile Plains;;153.1;-27.5833333;6;
2;Australia;Queensland;Eimeo Road;;149.1666667;-21.0666667;6;
2;Australia;Queensland;Eimeo;;149.1833333;-21.0333333;6;
2;Australia;Queensland;Einasleigh;;144.1;-18.5166667;6;
2;Australia;Queensland;Ekibin;;153.0333333;-27.5166667;6;
2;Australia;Queensland;El Arish;;146;-17.8166667;6;
2;Australia;Queensland;Elalie;;149.5;-22.05;6;
2;Australia;Queensland;Elaroo;;148.6166667;-20.7833333;6;
2;Australia;Queensland;Elbow Valley;;152.1333333;-28.3833333;6;
2;Australia;Queensland;Elimba;;152.95;-27.0166667;6;
2;Australia;Queensland;Elimbah;;152.95;-27.0166667;6;
2;Australia;Queensland;Ellangowan;;151.7333333;-27.9333333;6;
2;Australia;Queensland;Ellinthorp;;151.9333333;-28.05;6;
2;Australia;Queensland;Elliott Heads;;152.4833333;-24.9166667;6;
2;Australia;Queensland;Elliott;;152.3833333;-24.9666667;6;
2;Australia;Queensland;Elphinstone;;151.9;-27.9666667;6;
2;Australia;Queensland;Elthinstone;;148.2333333;-21.5;6;
2;Australia;Queensland;Emberly;;152.7;-27.6333333;6;
2;Australia;Queensland;Emerald;;148.1666667;-23.5333333;6;
2;Australia;Queensland;Emmet;;144.4833333;-24.6666667;6;
2;Australia;Queensland;Emu Park;;150.8166667;-23.25;6;
2;Australia;Queensland;Emu Vale;;152.25;-28.2333333;6;
2;Australia;Queensland;Endeavour;;145.0833333;-15.4166667;6;
2;Australia;Queensland;Epala;;150.8833333;-23.7666667;6;
2;Australia;Queensland;Ernest Junction;;153.35;-27.9666667;6;
2;Australia;Queensland;Eromanga;;143.2666667;-26.6666667;6;
2;Australia;Queensland;Esk;;152.4166667;-27.2333333;6;
2;Australia;Queensland;Etna Creek;;150.4666667;-23.2166667;6;
2;Australia;Queensland;Eton;;148.9666667;-21.2666667;6;
2;Australia;Queensland;Etowri;;149.1166667;-21.05;6;
2;Australia;Queensland;Eudlo;;152.9666667;-26.7333333;6;
2;Australia;Queensland;Eukey;;151.9833333;-28.7666667;6;
2;Australia;Queensland;Eulama;;152.9166667;-26.2166667;6;
2;Australia;Queensland;Euleilah;;151.8666667;-24.45;6;
2;Australia;Queensland;Eulo;;145.05;-28.1666667;6;
2;Australia;Queensland;Eumina;;148.6;-26.3166667;6;
2;Australia;Queensland;Eumundi;;152.95;-26.4833333;6;
2;Australia;Queensland;Eungella;;148.4833333;-21.1333333;6;
2;Australia;Queensland;Euramo;;145.9333333;-18;6;
2;Australia;Queensland;Eurella;;148.25;-26.5833333;6;
2;Australia;Queensland;Euri Creek;;148.1166667;-20.05;6;
2;Australia;Queensland;Evelyn;;145.45;-17.5;6;
2;Australia;Queensland;Evergreen;;151.7333333;-27.15;6;
2;Australia;Queensland;Ewan;;145.85;-19.1166667;6;
2;Australia;Queensland;Fairdale;;151.7833333;-26.2833333;6;
2;Australia;Queensland;Fairneyview;;152.6666667;-27.4833333;6;
2;Australia;Queensland;Fairyland;;145.65;-16.8166667;6;
2;Australia;Queensland;Fairylands;;150.9333333;-26.5166667;6;
2;Australia;Queensland;Fairymead;;152.3666667;-24.7833333;6;
2;Australia;Queensland;Fanning;;146.55;-19.9166667;6;
2;Australia;Queensland;Farleigh;;149.1;-21.1;6;
2;Australia;Queensland;Farnborough;;150.7333333;-23.0833333;6;
2;Australia;Queensland;Fassifern Valley;;152.6;-27.9666667;6;
2;Australia;Queensland;Felton East;;151.7666667;-27.8166667;6;
2;Australia;Queensland;Feluga;;145.9666667;-17.8833333;6;
2;Australia;Queensland;Fernflat;;150.9;-26.6833333;6;
2;Australia;Queensland;Fernlees;;148.1166667;-23.8666667;6;
2;Australia;Queensland;Fernvale;;152.65;-27.45;6;
2;Australia;Queensland;Figtree Creek;;145.9;-17.2;6;
2;Australia;Queensland;Finch Hatton;;148.6333333;-21.15;6;
2;Australia;Queensland;Finnie;;151.9;-27.6166667;6;
2;Australia;Queensland;Fishery Falls;;145.8833333;-17.1833333;6;
2;Australia;Queensland;Flaggy Creek;;145.3833333;-17.45;6;
2;Australia;Queensland;Flaggy Rock;;149.4333333;-21.9666667;6;
2;Australia;Queensland;Flagstone Creek;;152.1166667;-27.6166667;6;
2;Australia;Queensland;Fletcher;;151.85;-28.7666667;6;
2;Australia;Queensland;Fleurbaix;;151.9166667;-28.5333333;6;
2;Australia;Queensland;Flinders;;152.7166667;-27.7833333;6;
2;Australia;Queensland;Flinton;;149.5666667;-27.8833333;6;
2;Australia;Queensland;Fordsdale;;152.1333333;-27.7166667;6;
2;Australia;Queensland;Forest Hill;;152.35;-27.6;6;
2;Australia;Queensland;Forsayth;;143.6166667;-18.5833333;6;
2;Australia;Queensland;Fossilbrook;;144.3833333;-17.8166667;6;
2;Australia;Queensland;Foxdale;;148.55;-20.3666667;6;
2;Australia;Queensland;Freestone;;152.1333333;-28.1333333;6;
2;Australia;Queensland;Frenchman Creek;;145.9333333;-17.3166667;6;
2;Australia;Queensland;Frenchton;;152.55;-27.5833333;6;
2;Australia;Queensland;Freshwater;;145.7166667;-16.8833333;6;
2;Australia;Queensland;Fulham Vale;;152.45;-27.0666667;6;
2;Australia;Queensland;Fumar;;145.1833333;-17.1333333;6;
2;Australia;Queensland;Gaeta View;;151.6;-24.8333333;6;
2;Australia;Queensland;Gaeta;;151.6;-24.8333333;6;
2;Australia;Queensland;Gargett;;148.75;-21.1666667;6;
2;Australia;Queensland;Garradunga;;146;-17.4666667;6;
2;Australia;Queensland;Gatton;;152.2833333;-27.55;6;
2;Australia;Queensland;Gavial;;150.5333333;-23.4833333;6;
2;Australia;Queensland;Gayndah;;151.6;-25.6333333;6;
2;Australia;Queensland;Gayside;;150.3;-23.4833333;6;
2;Australia;Queensland;Gebelum;;153.3972222;-27.2761111;6;
2;Australia;Queensland;Geeberga;;148.9;-21.0333333;6;
2;Australia;Queensland;Geengee;;151.9833333;-27.4333333;6;
2;Australia;Queensland;Geera;;145.4666667;-23.55;6;
2;Australia;Queensland;Geham;;152.0166667;-27.4;6;
2;Australia;Queensland;Georgetown;;143.5333333;-18.3;6;
2;Australia;Queensland;Geraldton;;146.0333333;-17.5333333;6;
2;Australia;Queensland;Gheerulla;;152.7666667;-26.5666667;6;
2;Australia;Queensland;Gibinbell;;150.6666667;-28.6;6;
2;Australia;Queensland;Gilbert River;;142.8666667;-18.15;6;
2;Australia;Queensland;Gilbert;;142.8666667;-18.15;6;
2;Australia;Queensland;Gilberton;;153.2833333;-27.7333333;6;
2;Australia;Queensland;Giligulgul;;150.05;-26.3666667;6;
2;Australia;Queensland;Gilla;;152.0333333;-26.8833333;6;
2;Australia;Queensland;Gilldora;;152.6666667;-26.3;6;
2;Australia;Queensland;Gillens Siding;;151.7666667;-25.0166667;6;
2;Australia;Queensland;Gilliat;;141.5;-20.7;6;
2;Australia;Queensland;Gillies;;145.6;-17.4333333;6;
2;Australia;Queensland;Gilmore;;144.9333333;-17.5333333;6;
2;Australia;Queensland;Gilston;;153.3;-28.0333333;6;
2;Australia;Queensland;Gin Gin;;151.95;-25;6;
2;Australia;Queensland;Gindie;;148.1333333;-23.7333333;6;
2;Australia;Queensland;Giru;;147.1;-19.5166667;6;
2;Australia;Queensland;Gladstone;;151.25;-23.85;6;
2;Australia;Queensland;Glamorgan Vale;;152.6333333;-27.5166667;6;
2;Australia;Queensland;Glan Devon;;152.0166667;-26.6;6;
2;Australia;Queensland;Glass House Mountains;;152.9666667;-26.9;6;
2;Australia;Queensland;Glass Mountain;;152.9666667;-26.9;6;
2;Australia;Queensland;Glassford;;151.25;-24.5666667;6;
2;Australia;Queensland;Glastonbury;;152.5166667;-26.2166667;6;
2;Australia;Queensland;Glen Geddes;;150.2666667;-23.0333333;6;
2;Australia;Queensland;Glen Niven;;151.9666667;-28.6;6;
2;Australia;Queensland;Glencarth;;150.3666667;-26.85;6;
2;Australia;Queensland;Gleneagle;;152.9833333;-27.9333333;6;
2;Australia;Queensland;Glenella;;149.15;-21.1166667;6;
2;Australia;Queensland;Glenfern;;152.6;-26.95;6;
2;Australia;Queensland;Glenmorgan Vale;;152.6333333;-27.5166667;6;
2;Australia;Queensland;Glenmorgan;;149.6833333;-27.25;6;
2;Australia;Queensland;Glenore Grove;;152.4;-27.5333333;6;
2;Australia;Queensland;Glenview;;153.0166667;-26.7666667;6;
2;Australia;Queensland;Gogango;;150.0333333;-23.6666667;6;
2;Australia;Queensland;Gold Coast;;153.4333333;-28;6;
2;Australia;Queensland;Golembil;;151.3166667;-24.6;6;
2;Australia;Queensland;Gooburrum;;152.3166667;-24.85;6;
2;Australia;Queensland;Goodger;;151.8166667;-26.6666667;6;
2;Australia;Queensland;Goodna;;152.9;-27.6166667;6;
2;Australia;Queensland;Goodwood;;152.4166667;-25.15;6;
2;Australia;Queensland;Goodyer;;151.8166667;-26.6666667;6;
2;Australia;Queensland;Goolana;;152.55;-27.5333333;6;
2;Australia;Queensland;Goolboo;;146.0333333;-17.7166667;6;
2;Australia;Queensland;Goolman;;152.75;-27.7333333;6;
2;Australia;Queensland;Goomaram;;151.05;-25.15;6;
2;Australia;Queensland;Goombi;;150.4;-26.6833333;6;
2;Australia;Queensland;Goombungee;;151.7;-27.3166667;6;
2;Australia;Queensland;Goomburra;;152.1333333;-28.05;6;
2;Australia;Queensland;Goomeri;;152.0666667;-26.1833333;6;
2;Australia;Queensland;Goondi;;146;-17.5166667;6;
2;Australia;Queensland;Goondiwindi;;150.3166667;-28.55;6;
2;Australia;Queensland;Goondoon;;152.1;-24.95;6;
2;Australia;Queensland;Gooray;;150.0333333;-28.45;6;
2;Australia;Queensland;Gooroolba;;151.8;-25.5166667;6;
2;Australia;Queensland;Gootchie;;152.55;-25.8666667;6;
2;Australia;Queensland;Goovigen;;150.2833333;-24.15;6;
2;Australia;Queensland;Goowarra;;149.4166667;-23.6666667;6;
2;Australia;Queensland;Goranba;;150.6;-27.2833333;6;
2;Australia;Queensland;Gordon Brook;;151.7166667;-26.4333333;6;
2;Australia;Queensland;Gordonvale;;145.7833333;-17.0833333;6;
2;Australia;Queensland;Gore;;151.4833333;-28.2833333;6;
2;Australia;Queensland;Gowrie Junction;;151.8833333;-27.4833333;6;
2;Australia;Queensland;Gowrie;;151.8833333;-27.4833333;6;
2;Australia;Queensland;Gracemere;;150.45;-23.4333333;6;
2;Australia;Queensland;Gradule;;149.2166667;-28.55;6;
2;Australia;Queensland;Grahams Creek;;152.6;-25.5666667;6;
2;Australia;Queensland;Grandchester;;152.4666667;-27.6666667;6;
2;Australia;Queensland;Grantham;;152.2;-27.5833333;6;
2;Australia;Queensland;Graysholm;;151.3333333;-28.3666667;6;
2;Australia;Queensland;Grayson;;152.2666667;-28.3;6;
2;Australia;Queensland;Greenbank;;152.9833333;-27.7166667;6;
2;Australia;Queensland;Greenmount;;151.9;-27.8;6;
2;Australia;Queensland;Greymare;;151.7666667;-28.1666667;6;
2;Australia;Queensland;Grosvenor;;151.1666667;-25.4333333;6;
2;Australia;Queensland;Guluguba;;150.05;-26.2666667;6;
2;Australia;Queensland;Gumlu;;147.6833333;-19.8833333;6;
2;Australia;Queensland;Gunalda;;152.5666667;-26;6;
2;Australia;Queensland;Gunbarwood;;150.55;-26.8833333;6;
2;Australia;Queensland;Gundiah;;152.55;-25.8333333;6;
2;Australia;Queensland;Gunnewin;;148.55;-25.9833333;6;
2;Australia;Queensland;Gunyarra;;148.5666667;-20.5166667;6;
2;Australia;Queensland;Gurrulmundi;;150.05;-26.4166667;6;
2;Australia;Queensland;Gurrumba;;145;-17.5166667;6;
2;Australia;Queensland;Gurrumbah;;145;-17.5166667;6;
2;Australia;Queensland;Gurulmundi;;150.05;-26.4166667;6;
2;Australia;Queensland;Guthalungra;;147.8333333;-19.9166667;6;
2;Australia;Queensland;Gympie;;152.6666667;-26.1833333;6;
2;Australia;Queensland;Habana Mill;;149.0833333;-21.0333333;6;
2;Australia;Queensland;Habana;;149.0833333;-21.0333333;6;
2;Australia;Queensland;Haden;;151.8833333;-27.2166667;6;
2;Australia;Queensland;Halifax;;146.2833333;-18.5833333;6;
2;Australia;Queensland;Haly Creek School;;151.75;-26.6833333;6;
2;Australia;Queensland;Haly Creek;;151.75;-26.6833333;6;
2;Australia;Queensland;Hambledon;;145.7333333;-17.0166667;6;
2;Australia;Queensland;Hampden;;148.9333333;-21.0666667;6;
2;Australia;Queensland;Hampstead;;152.7333333;-27.7;6;
2;Australia;Queensland;Hampton;;152.0833333;-27.35;6;
2;Australia;Queensland;Hannaford;;150.0666667;-27.3333333;6;
2;Australia;Queensland;Harlaxton;;151.9666667;-27.5333333;6;
2;Australia;Queensland;Harlin;;152.35;-26.9833333;6;
2;Australia;Queensland;Harrisons Pocket;;152.9166667;-27.2666667;6;
2;Australia;Queensland;Harristown;;151.9333333;-27.5833333;6;
2;Australia;Queensland;Harrisville;;152.6833333;-27.8;6;
2;Australia;Queensland;Harveys Siding;;152.6166667;-26.0833333;6;
2;Australia;Queensland;Hatton Vale;;152.4666667;-27.5666667;6;
2;Australia;Queensland;Haughton Valley;;146.6666667;-19.85;6;
2;Australia;Queensland;Hawkins Creek;;146.1;-18.6;6;
2;Australia;Queensland;Hawkwood;;150.8333333;-25.7833333;6;
2;Australia;Queensland;Hay Point;;149.3;-21.2833333;6;
2;Australia;Queensland;Hazledean;;148.95;-21.3833333;6;
2;Australia;Queensland;Hebel;;147.7833333;-28.9666667;6;
2;Australia;Queensland;Hector;;149.2583333;-21.275;6;
2;Australia;Queensland;Helens Hill;;146.1666667;-18.7666667;6;
2;Australia;Queensland;Helenvale;;145.2333333;-15.7166667;6;
2;Australia;Queensland;Helidon;;152.1333333;-27.55;6;
2;Australia;Queensland;Hell Hole Creek;;152.0333333;-27.6333333;6;
2;Australia;Queensland;Hendon;;151.95;-28.0666667;6;
2;Australia;Queensland;Herberton;;145.3833333;-17.4;6;
2;Australia;Queensland;Hermitage;;152.1;-28.2;6;
2;Australia;Queensland;Hewitt;;145.9333333;-17.9666667;6;
2;Australia;Queensland;Highgrove;;151.7666667;-27.1333333;6;
2;Australia;Queensland;Hillcrest;;145.6;-17.3666667;6;
2;Australia;Queensland;Hillside;;152.7333333;-27.75;6;
2;Australia;Queensland;Hillview;;153;-28.2166667;6;
2;Australia;Queensland;Hirstglen;;152.1;-27.8333333;6;
2;Australia;Queensland;Hivesville;;151.6833333;-26.1833333;6;
2;Australia;Queensland;Hockley;;145.4833333;-16.5833333;6;
2;Australia;Queensland;Hodel;;147.1333333;-19.5166667;6;
2;Australia;Queensland;Hodgleigh;;151.9333333;-26.6333333;6;
2;Australia;Queensland;Hodgson;;148.6166667;-26.5666667;6;
2;Australia;Queensland;Hollands;;152.45;-24.8333333;6;
2;Australia;Queensland;Holmes;;150.7;-26.6666667;6;
2;Australia;Queensland;Home Hill;;147.4166667;-19.6666667;6;
2;Australia;Queensland;Homebush;;149.05;-21.2833333;6;
2;Australia;Queensland;Homestead;;145.6666667;-20.3666667;6;
2;Australia;Queensland;Horrane;;151.2333333;-27.55;6;
2;Australia;Queensland;Horton;;152.3166667;-25.2333333;6;
2;Australia;Queensland;Howard;;152.5666667;-25.3166667;6;
2;Australia;Queensland;Hoya;;152.6833333;-27.9666667;6;
2;Australia;Queensland;Hughenden;;144.2;-20.85;6;
2;Australia;Queensland;Humphery;;151.4833333;-25.6;6;
2;Australia;Queensland;Hungerford;;144.4166667;-29;6;
2;Australia;Queensland;Hunters Hut;;152.3833333;-25.6166667;6;
2;Australia;Queensland;Hunterton;;148.5;-26.25;6;
2;Australia;Queensland;Hutton;;148.6666667;-25.75;6;
2;Australia;Queensland;Huttonmount;;148.7666667;-25.8166667;6;
2;Australia;Queensland;Huxham;;150.1666667;-23.6;6;
2;Australia;Queensland;Huxley;;152.2666667;-25.2166667;6;
2;Australia;Queensland;Idelwilds;;151.75;-26.8666667;6;
2;Australia;Queensland;Ideraway;;151.6166667;-25.5833333;6;
2;Australia;Queensland;Idlewilds;;151.75;-26.8666667;6;
2;Australia;Queensland;Ilbilbie;;149.35;-21.7;6;
2;Australia;Queensland;Ilfracombe;;144.5;-23.5;6;
2;Australia;Queensland;Imbil;;152.6833333;-26.45;6;
2;Australia;Queensland;Ingham;;146.1666667;-18.65;6;
2;Australia;Queensland;Inglewood;;151.0833333;-28.4166667;6;
2;Australia;Queensland;Injune;;148.5666667;-25.85;6;
2;Australia;Queensland;Inkerman;;147.4833333;-19.75;6;
2;Australia;Queensland;Inneston;;149.2333333;-21.55;6;
2;Australia;Queensland;Innisfail;;146.0333333;-17.5333333;6;
2;Australia;Queensland;Innisplain;;152.9;-28.1666667;6;
2;Australia;Queensland;Innot Hot Springs;;145.25;-17.6666667;6;
2;Australia;Queensland;Inverai;;150.95;-26.7833333;6;
2;Australia;Queensland;Inverncoona;;148.2166667;-19.9833333;6;
2;Australia;Queensland;Inveroona;;148.2166667;-19.9833333;6;
2;Australia;Queensland;Inverramsay;;152.2166667;-28.0166667;6;
2;Australia;Queensland;Invicta;;152.1333333;-24.8166667;6;
2;Australia;Queensland;Ipswich;;152.7666667;-27.6166667;6;
2;Australia;Queensland;Ipswitch;;152.7666667;-27.6166667;6;
2;Australia;Queensland;Iron Range Mine;;143.3;-12.7;6;
2;Australia;Queensland;Iron Range;;143.3;-12.7;6;
2;Australia;Queensland;Irvinebank;;145.2166667;-17.4333333;6;
2;Australia;Queensland;Isis Junction;;152.45;-25.2166667;6;
2;Australia;Queensland;Isis;;152.45;-25.2166667;6;
2;Australia;Queensland;Isisford;;144.4333333;-24.2666667;6;
2;Australia;Queensland;Iveragh;;151.45;-24.1333333;6;
2;Australia;Queensland;Iyah;;147.45;-19.7166667;6;
2;Australia;Queensland;Jackson;;149.6166667;-26.65;6;
2;Australia;Queensland;Jaffa;;146.0166667;-17.7833333;6;
2;Australia;Queensland;Jaggan;;145.6;-17.4;6;
2;Australia;Queensland;Jambin;;150.3666667;-24.2166667;6;
2;Australia;Queensland;Jandowae East;;151.2;-26.7833333;6;
2;Australia;Queensland;Jandowae;;151.1;-26.7833333;6;
2;Australia;Queensland;Japoon;;145.9333333;-17.7166667;6;
2;Australia;Queensland;Japoonvale;;145.9333333;-17.7166667;6;
2;Australia;Queensland;Jaraga;;148;-20.1666667;6;
2;Australia;Queensland;Jarvisfield;;147.4666667;-19.6166667;6;
2;Australia;Queensland;Jericho;;146.1333333;-23.6;6;
2;Australia;Queensland;Jibbinbar;;151.6166667;-28.7833333;6;
2;Australia;Queensland;Jimboomba;;153.0333333;-27.8333333;6;
2;Australia;Queensland;Jimbour;;151.2166667;-26.9666667;6;
2;Australia;Queensland;Jimna;;152.4666667;-26.6666667;6;
2;Australia;Queensland;Jinghi Jinghi;;151.1166667;-26.7;6;
2;Australia;Queensland;Jingi;;151.1166667;-26.7;6;
2;Australia;Queensland;Jogo;;145.9666667;-17.45;6;
2;Australia;Queensland;Jondaryan;;151.6;-27.3666667;6;
2;Australia;Queensland;Jondaryn;;151.6;-27.3666667;6;
2;Australia;Queensland;Jooro;;150.2166667;-24.1166667;6;
2;Australia;Queensland;Josephville;;152.9333333;-28.0333333;6;
2;Australia;Queensland;Juenburra;;139.8333333;-21.4166667;6;
2;Australia;Queensland;Julatten;;145.35;-16.6166667;6;
2;Australia;Queensland;Julia Creek;;141.7333333;-20.65;6;
2;Australia;Queensland;Jullack;;141.7333333;-20.65;6;
2;Australia;Queensland;Junabee;;152.1333333;-28.25;6;
2;Australia;Queensland;Junction View;;152.1833333;-27.8;6;
2;Australia;Queensland;Jundah;;143.0666667;-24.8333333;6;
2;Australia;Queensland;Kaban;;145.4166667;-17.5166667;6;
2;Australia;Queensland;Kabra;;150.4;-23.4666667;6;
2;Australia;Queensland;Kagaru;;152.95;-27.8666667;6;
2;Australia;Queensland;Kahmoomulga;;145.6666667;-26.1333333;6;
2;Australia;Queensland;Kaimkillenbun;;151.4333333;-27.0666667;6;
2;Australia;Queensland;Kairi;;145.55;-17.2166667;6;
2;Australia;Queensland;Kajabbi;;140.0333333;-20.0333333;6;
2;Australia;Queensland;Kakoma;;150.2333333;-23.5333333;6;
2;Australia;Queensland;Kalapa;;150.2666667;-23.5166667;6;
2;Australia;Queensland;Kalarka;;149.5333333;-22.1666667;6;
2;Australia;Queensland;Kalbar;;152.6166667;-27.9333333;6;
2;Australia;Queensland;Kalpowar;;151.3;-24.7;6;
2;Australia;Queensland;Kalunga;;145.3833333;-17.45;6;
2;Australia;Queensland;Kamma;;145.7666667;-17.05;6;
2;Australia;Queensland;Kamo;;148.6166667;-20.75;6;
2;Australia;Queensland;Kandanga Upper;;152.5833333;-26.4166667;6;
2;Australia;Queensland;Kandanga;;152.6666667;-26.3833333;6;
2;Australia;Queensland;Kanighan;;152.6;-25.9;6;
2;Australia;Queensland;Kanyan;;152.55;-25.9333333;6;
2;Australia;Queensland;Kapaldo;;151.1333333;-25.0333333;6;
2;Australia;Queensland;Karara;;151.5666667;-28.2;6;
2;Australia;Queensland;Karaweena;;151.2833333;-26.7833333;6;
2;Australia;Queensland;Karrabin;;152.7166667;-27.6;6;
2;Australia;Queensland;Karumba;;140.8333333;-17.4833333;6;
2;Australia;Queensland;Kawl Kawl;;151.7333333;-26.1833333;6;
2;Australia;Queensland;Kawungan;;152.8333333;-25.3;6;
2;Australia;Queensland;Keebah;;147.4666667;-19.7333333;6;
2;Australia;Queensland;Kellick;;148.7833333;-26.3666667;6;
2;Australia;Queensland;Kelsey Creek;;148.45;-20.4333333;6;
2;Australia;Queensland;Kenbula;;150.3666667;-23.65;6;
2;Australia;Queensland;Kenilworth;;152.7333333;-26.5833333;6;
2;Australia;Queensland;Kennedy;;145.9666667;-18.2;6;
2;Australia;Queensland;Kentville;;152.4333333;-27.4833333;6;
2;Australia;Queensland;Keppel Sands;;150.7833333;-23.35;6;
2;Australia;Queensland;Kerry;;153.0166667;-28.1;6;
2;Australia;Queensland;Kidston;;144.1666667;-18.8666667;6;
2;Australia;Queensland;Kilbirnie;;151.85;-27.2166667;6;
2;Australia;Queensland;Kilcoy;;152.55;-26.95;6;
2;Australia;Queensland;Kilkivan;;152.2333333;-26.0833333;6;
2;Australia;Queensland;Killarney South;;152.3;-28.35;6;
2;Australia;Queensland;Killarney;;152.3;-28.3333333;6;
2;Australia;Queensland;Kimberly;;140.8333333;-17.4833333;6;
2;Australia;Queensland;Kin Kin;;152.8833333;-26.2666667;6;
2;Australia;Queensland;Kinbombi;;152.1166667;-26.2;6;
2;Australia;Queensland;Kinduro;;146.3666667;-19.0166667;6;
2;Australia;Queensland;Kingaroy;;151.8333333;-26.5333333;6;
2;Australia;Queensland;Kings Creek;;151.9166667;-27.9;6;
2;Australia;Queensland;Kingsthorpe;;151.8333333;-27.4666667;6;
2;Australia;Queensland;Kingston;;153.1166667;-27.6666667;6;
2;Australia;Queensland;Kinka;;150.8;-23.2333333;6;
2;Australia;Queensland;Kinkabilla;;149.6;-27.7;6;
2;Australia;Queensland;Kinleymore;;151.65;-26.1833333;6;
2;Australia;Queensland;Kirk River;;146.75;-20;6;
2;Australia;Queensland;Kirkhall;;150.4;-23.6166667;6;
2;Australia;Queensland;Kital;;152.0166667;-28.05;6;
2;Australia;Queensland;Kleinton;;151.95;-27.4333333;6;
2;Australia;Queensland;Koah;;145.5166667;-16.8333333;6;
2;Australia;Queensland;Kobble;;152.8333333;-27.25;6;
2;Australia;Queensland;Kogan;;150.7666667;-27.0333333;6;
2;Australia;Queensland;Kolan South;;152.1833333;-24.9333333;6;
2;Australia;Queensland;Kolan;;152.0833333;-24.9;6;
2;Australia;Queensland;Kolijo;;148.7833333;-20.9;6;
2;Australia;Queensland;Komine;;148.55;-25.9166667;6;
2;Australia;Queensland;Koolboo;;152.15;-24.9166667;6;
2;Australia;Queensland;Kooltandra;;149.7666667;-22.7333333;6;
2;Australia;Queensland;Koondai-i;;151.4666667;-26.95;6;
2;Australia;Queensland;Kooralgin;;151.95;-26.9333333;6;
2;Australia;Queensland;Koorboora;;144.8166667;-17.3833333;6;
2;Australia;Queensland;Kooringal;;153.4177778;-27.3547222;6;
2;Australia;Queensland;Kooroongarra;;151.25;-28.0666667;6;
2;Australia;Queensland;Korenan;;151.6666667;-24.4666667;6;
2;Australia;Queensland;Koumala South;;149.2333333;-21.65;6;
2;Australia;Queensland;Koumala;;149.25;-21.6166667;6;
2;Australia;Queensland;Kounungai;;153.4016667;-27.2869444;6;
2;Australia;Queensland;Kowanyama Community;;141.6;-14.9166667;6;
2;Australia;Queensland;Kowanyama;;141.6;-14.9166667;6;
2;Australia;Queensland;Kowbi;;152.2333333;-25.1833333;6;
2;Australia;Queensland;Kowguran;;150.1;-26.5;6;
2;Australia;Queensland;Kowrowa;;145.5833333;-16.8166667;6;
2;Australia;Queensland;Kudo;;151.8333333;-27.3333333;6;
2;Australia;Queensland;Kulangoor;;152.9666667;-26.5833333;6;
2;Australia;Queensland;Kulara;;145.5666667;-17.25;6;
2;Australia;Queensland;Kulgun;;152.6833333;-27.9333333;6;
2;Australia;Queensland;Kulpi;;151.7;-27.1833333;6;
2;Australia;Queensland;Kumbarilla;;150.8833333;-27.3166667;6;
2;Australia;Queensland;Kumbia;;151.6666667;-26.7;6;
2;Australia;Queensland;Kungurri;;148.7333333;-21.0833333;6;
2;Australia;Queensland;Kunwarara;;150.1333333;-22.9166667;6;
2;Australia;Queensland;Kupunn;;151.1166667;-27.2333333;6;
2;Australia;Queensland;Kuranda;;145.65;-16.8166667;6;
2;Australia;Queensland;Kureen;;145.6;-17.3333333;6;
2;Australia;Queensland;Kuridala;;140.5;-21.2833333;6;
2;Australia;Queensland;Kurumbul;;150.55;-28.6166667;6;
2;Australia;Queensland;Kuttabul;;148.9;-21.0333333;6;
2;Australia;Queensland;Kybong;;152.7166667;-26.3166667;6;
2;Australia;Queensland;Kyburra;;147.7333333;-19.9;6;
2;Australia;Queensland;Kynuna;;141.9;-21.5833333;6;
2;Australia;Queensland;Kyoomba;;152;-28.6833333;6;
2;Australia;Queensland;Ladybrook;;153.0333333;-28.2;6;
2;Australia;Queensland;Lagoon Pocket;;152.6666667;-26.2666667;6;
2;Australia;Queensland;Laidley;;152.3833333;-27.6333333;6;
2;Australia;Queensland;Lake Clarendon;;152.3666667;-27.5166667;6;
2;Australia;Queensland;Lakes Creek;;150.5666667;-23.3833333;6;
2;Australia;Queensland;Lakeside;;152.1333333;-25.5833333;6;
2;Australia;Queensland;Lamington;;153;-28.2333333;6;
2;Australia;Queensland;Lancelot;;145.2666667;-17.4666667;6;
2;Australia;Queensland;Landsborough;;152.9666667;-26.8;6;
2;Australia;Queensland;Lanefield;;152.55;-27.65;6;
2;Australia;Queensland;Langdon;;148.7666667;-21.1;6;
2;Australia;Queensland;Langley;;150.4333333;-23.45;6;
2;Australia;Queensland;Langlo Crossing;;145.6666667;-26.1333333;6;
2;Australia;Queensland;Langshaw;;152.5666667;-26.3;6;
2;Australia;Queensland;Lannercost;;146.05;-18.5833333;6;
2;Australia;Queensland;Lanreef;;148.5;-26.4166667;6;
2;Australia;Queensland;Lappa Junction;;144.8833333;-17.3666667;6;
2;Australia;Queensland;Lappa;;144.8833333;-17.3666667;6;
2;Australia;Queensland;Laravale;;152.9333333;-28.0833333;6;
2;Australia;Queensland;Larcom;;150.9833333;-23.8166667;6;
2;Australia;Queensland;Laugi;;150.6666667;-24.5833333;6;
2;Australia;Queensland;Laura;;144.4666667;-15.5666667;6;
2;Australia;Queensland;Lawgi;;150.6666667;-24.5833333;6;
2;Australia;Queensland;Lawnton;;152.9833333;-27.2833333;6;
2;Australia;Queensland;Leafgold;;145.0833333;-17.1833333;6;
2;Australia;Queensland;Leaholme;;150.65;-23.3666667;6;
2;Australia;Queensland;Leslie;;151.9333333;-28.1833333;6;
2;Australia;Queensland;Lethe Brook;;148.65;-20.5333333;6;
2;Australia;Queensland;Leyburn;;151.5666667;-28.0166667;6;
2;Australia;Queensland;Lilydale;;138.7;-19.0166667;6;
2;Australia;Queensland;Lilypond;;146.2166667;-18.5833333;6;
2;Australia;Queensland;Limevale;;151.2;-28.7333333;6;
2;Australia;Queensland;Linville;;152.2833333;-26.8666667;6;
2;Australia;Queensland;Littabella;;152.0833333;-24.6833333;6;
2;Australia;Queensland;Little Burleigh;;153.45;-28.0666667;6;
2;Australia;Queensland;Little Mulgrave;;145.7166667;-17.15;6;
2;Australia;Queensland;Littlemore;;151.35;-24.45;6;
2;Australia;Queensland;Loamside;;152.7333333;-27.6666667;6;
2;Australia;Queensland;Loch Lomond;;152.2;-28.3166667;6;
2;Australia;Queensland;Lochnagar;;145.6333333;-23.5666667;6;
2;Australia;Queensland;Lockyer;;152.0833333;-27.5166667;6;
2;Australia;Queensland;Logan Village;;153.1;-27.7666667;6;
2;Australia;Queensland;Loganholme;;153.2;-27.7;6;
2;Australia;Queensland;Loganlea;;153.1333333;-27.6666667;6;
2;Australia;Queensland;Long Pocket;;146.0333333;-18.5166667;6;
2;Australia;Queensland;Longreach;;144.25;-23.45;6;
2;Australia;Queensland;Lower Cressbrook;;152.4833333;-27.0833333;6;
2;Australia;Queensland;Lower Gregory;;148.55;-20.3;6;
2;Australia;Queensland;Lower Tully;;146.0166667;-18;6;
2;Australia;Queensland;Lower Woolgar;;143.2833333;-19.8;6;
2;Australia;Queensland;Lowmead;;151.75;-24.5166667;6;
2;Australia;Queensland;Lowood;;152.5833333;-27.4666667;6;
2;Australia;Queensland;Lucinda;;146.3333333;-18.5166667;6;
2;Australia;Queensland;Lyndbrook;;144.4333333;-17.85;6;
2;Australia;Queensland;Lynwood;;152.25;-25.2;6;
2;Australia;Queensland;Lyra;;151.8666667;-28.8333333;6;
2;Australia;Queensland;Lytton;;153.1666667;-27.4166667;6;
2;Australia;Queensland;Ma Ma Creek;;152.1833333;-27.6333333;6;
2;Australia;Queensland;Maadi;;146;-17.8333333;6;
2;Australia;Queensland;Macalister;;151.0833333;-27.05;6;
2;Australia;Queensland;Macdesme;;147.3833333;-19.6166667;6;
2;Australia;Queensland;Mackay;;149.2;-21.15;6;
2;Australia;Queensland;Macknade;;146.2666667;-18.5833333;6;
2;Australia;Queensland;Maclagan Mee;;151.6333333;-27.0833333;6;
2;Australia;Queensland;Maclagan West;;151.65;-26.9833333;6;
2;Australia;Queensland;Maclagan;;151.6333333;-27.0833333;6;
2;Australia;Queensland;Maclean;;153.0166667;-27.7833333;6;
2;Australia;Queensland;Macrossan;;146.4666667;-20;6;
2;Australia;Queensland;Maidenwell;;151.8;-26.85;6;
2;Australia;Queensland;Makowata;;151.65;-24.4333333;6;
2;Australia;Queensland;Malabar;;152.5833333;-27.5833333;6;
2;Australia;Queensland;Malanda;;145.6;-17.35;6;
2;Australia;Queensland;Malbom;;140.3;-21.0833333;6;
2;Australia;Queensland;Malbon;;140.3;-21.0833333;6;
2;Australia;Queensland;Malchi;;150.4166667;-23.45;6;
2;Australia;Queensland;Maleny;;152.85;-26.75;6;
2;Australia;Queensland;Mallow;;151.7833333;-28.6333333;6;
2;Australia;Queensland;Malmoe;;151.2;-25.4833333;6;
2;Australia;Queensland;Malu;;151.5666667;-27.35;6;
2;Australia;Queensland;Mandeville;;151.6333333;-27.05;6;
2;Australia;Queensland;Mangalore;;146.1;-26.8;6;
2;Australia;Queensland;Manly;;153.1833333;-27.4666667;6;
2;Australia;Queensland;Mannhurst;;150.4;-26.7666667;6;
2;Australia;Queensland;Manoo;;152.2333333;-24.8833333;6;
2;Australia;Queensland;Manton;;146.8333333;-19.65;6;
2;Australia;Queensland;Manumbar Mill;;152.3666667;-26.4166667;6;
2;Australia;Queensland;Manumbar;;152.2833333;-26.4;6;
2;Australia;Queensland;Many Peaks;;151.3666667;-24.55;6;
2;Australia;Queensland;Manyung;;152.0333333;-26.2;6;
2;Australia;Queensland;Mapleton;;152.8666667;-26.6333333;6;
2;Australia;Queensland;Marathon;;143.5833333;-20.8666667;6;
2;Australia;Queensland;Marburg;;152.5833333;-27.5666667;6;
2;Australia;Queensland;Mareeba;;145.4333333;-17;6;
2;Australia;Queensland;Margate;;153.1166667;-27.25;6;
2;Australia;Queensland;Marian;;148.9333333;-21.15;6;
2;Australia;Queensland;Marlborough;;149.8833333;-22.8166667;6;
2;Australia;Queensland;Marmor;;150.7166667;-23.6833333;6;
2;Australia;Queensland;Marnhull;;151.1666667;-26.85;6;
2;Australia;Queensland;Maroochydore;;153.1;-26.65;6;
2;Australia;Queensland;Maroon;;152.7166667;-28.1833333;6;
2;Australia;Queensland;Maroondan;;152.0166667;-24.9666667;6;
2;Australia;Queensland;Marule;;152.0833333;-25.2166667;6;
2;Australia;Queensland;Marwood;;149.1166667;-21.2833333;6;
2;Australia;Queensland;Mary Kathleen;;139.5;-20.7333333;6;
2;Australia;Queensland;Maryborough;;152.7;-25.5333333;6;
2;Australia;Queensland;Maryvale;;152.2333333;-28.0666667;6;
2;Australia;Queensland;Massie;;151.9666667;-28.15;6;
2;Australia;Queensland;Maudsland;;153.2666667;-27.95;6;
2;Australia;Queensland;Maxwelton;;142.6833333;-20.7166667;6;
2;Australia;Queensland;Maytown;;144.2833333;-16.05;6;
2;Australia;Queensland;McDonald Flat;;147.6666667;-22.8833333;6;
2;Australia;Queensland;McDonnell Creek;;145.9;-17.2;6;
2;Australia;Queensland;McIlwraith;;152;-24.9833333;6;
2;Australia;Queensland;McKinlay;;141.3;-21.2666667;6;
2;Australia;Queensland;Meadowvale;;152.2833333;-24.8166667;6;
2;Australia;Queensland;Meandarra;;149.8833333;-27.3333333;6;
2;Australia;Queensland;Meeandah;;153.1;-27.4333333;6;
2;Australia;Queensland;Meerawa;;145.8666667;-17.15;6;
2;Australia;Queensland;Melawondi;;152.6666667;-26.4166667;6;
2;Australia;Queensland;Memerambi;;151.8166667;-26.45;6;
2;Australia;Queensland;Mena Creek;;145.9666667;-17.65;6;
2;Australia;Queensland;Mentana;;141.4166667;-16.25;6;
2;Australia;Queensland;Merinda;;148.1666667;-20.0166667;6;
2;Australia;Queensland;Meringa;;145.7833333;-17.0833333;6;
2;Australia;Queensland;Meringandan;;151.9166667;-27.4333333;6;
2;Australia;Queensland;Merseylea;;146.4833333;-41.3666667;6;
2;Australia;Queensland;Miallo;;145.3833333;-16.4;6;
2;Australia;Queensland;Michael Creek;;145.8833333;-18.8333333;6;
2;Australia;Queensland;Miclere;;149.1166667;-21.1166667;6;
2;Australia;Queensland;Middleton;;141.5333333;-22.3666667;6;
2;Australia;Queensland;Middletown;;141.5333333;-22.3666667;6;
2;Australia;Queensland;Midgee Sidings;;150.55;-23.5166667;6;
2;Australia;Queensland;Midgee;;150.55;-23.5166667;6;
2;Australia;Queensland;Midgenoo;;145.9666667;-17.9;6;
2;Australia;Queensland;Midgeton;;148.7166667;-20.65;6;
2;Australia;Queensland;Mikoolu;;148.6;-20.7333333;6;
2;Australia;Queensland;Miles;;150.1833333;-26.6666667;6;
2;Australia;Queensland;Milford;;152.7166667;-28.0333333;6;
2;Australia;Queensland;Millaa Millaa;;145.6166667;-17.5166667;6;
2;Australia;Queensland;Millbong;;152.7333333;-27.8833333;6;
2;Australia;Queensland;Millmerran;;151.2666667;-27.8666667;6;
2;Australia;Queensland;Milman;;150.4;-23.1333333;6;
2;Australia;Queensland;Milmano;;150.4;-23.1333333;6;
2;Australia;Queensland;Milyando;;150.3833333;-23.3166667;6;
2;Australia;Queensland;Minbun;;145.5833333;-17.4833333;6;
2;Australia;Queensland;Minden;;152.55;-27.5833333;6;
2;Australia;Queensland;Minerva;;148.1166667;-23.9666667;6;
2;Australia;Queensland;Mingela;;146.6333333;-19.8833333;6;
2;Australia;Queensland;Mingoola;;151.5166667;-28.9833333;6;
2;Australia;Queensland;Mirani West;;148.85;-21.15;6;
2;Australia;Queensland;Mirani;;148.8666667;-21.1666667;6;
2;Australia;Queensland;Miriam Vale;;151.55;-24.3166667;6;
2;Australia;Queensland;Miriwinni;;145.9166667;-17.4;6;
2;Australia;Queensland;Mirrigan;;147.3833333;-19.5833333;6;
2;Australia;Queensland;Mitchell;;147.9666667;-26.4833333;6;
2;Australia;Queensland;Mitchelton;;152.9666667;-27.4166667;6;
2;Australia;Queensland;Miva;;152.5;-25.9666667;6;
2;Australia;Queensland;Mocattas Corner;;151.3666667;-27.1333333;6;
2;Australia;Queensland;Moggill;;152.8666667;-27.5833333;6;
2;Australia;Queensland;Molangul;;151.55;-24.75;6;
2;Australia;Queensland;Mondure;;151.7666667;-26.1833333;6;
2;Australia;Queensland;Monto;;151.1166667;-24.8666667;6;
2;Australia;Queensland;Montrose;;151.8;-28.1833333;6;
2;Australia;Queensland;Montville;;152.8833333;-26.6833333;6;
2;Australia;Queensland;Moodlu;;152.9;-27.0666667;6;
2;Australia;Queensland;Moodys Valley;;152.7333333;-28.1;6;
2;Australia;Queensland;Mooga;;148.9333333;-26.2666667;6;
2;Australia;Queensland;Moojeeba;;143.65;-14.0833333;6;
2;Australia;Queensland;Moolboolaman;;151.8166667;-25.0166667;6;
2;Australia;Queensland;Mooloolaba;;153.1166667;-26.6833333;6;
2;Australia;Queensland;Mooloolah;;152.9666667;-26.7666667;6;
2;Australia;Queensland;Moondarewa;;153.4333333;-27.9333333;6;
2;Australia;Queensland;Moondooner;;152;-26.2333333;6;
2;Australia;Queensland;Moonford;;151.0333333;-24.7666667;6;
2;Australia;Queensland;Moongan;;150.4;-23.6;6;
2;Australia;Queensland;Moongobulla;;146.3333333;-18.9833333;6;
2;Australia;Queensland;Moonmera;;150.4;-23.5833333;6;
2;Australia;Queensland;Moorang;;152.4666667;-27.9166667;6;
2;Australia;Queensland;Moore;;152.3;-26.9;6;
2;Australia;Queensland;Moorland;;152.1833333;-24.75;6;
2;Australia;Queensland;Moorlands;;153.2666667;-27.5666667;6;
2;Australia;Queensland;Mooroobie;;150.3833333;-28.5666667;6;
2;Australia;Queensland;Mopo;;145.9166667;-17.3666667;6;
2;Australia;Queensland;Morayfield;;152.95;-27.1166667;6;
2;Australia;Queensland;Moregatta;;145.6;-17.5;6;
2;Australia;Queensland;Moreken;;149.7666667;-26.5666667;6;
2;Australia;Queensland;Morella;;143.8666667;-22.9666667;6;
2;Australia;Queensland;Moresby;;146.0333333;-17.6333333;6;
2;Australia;Queensland;Morganbury;;145.4166667;-17.15;6;
2;Australia;Queensland;Morinish;;150.15;-23.25;6;
2;Australia;Queensland;Morugo;;148.55;-21.1333333;6;
2;Australia;Queensland;Morven;;147.1166667;-26.4166667;6;
2;Australia;Queensland;Morwincha;;152.5833333;-27.9833333;6;
2;Australia;Queensland;Mossman;;145.3666667;-16.4666667;6;
2;Australia;Queensland;Motley;;151.6166667;-27.55;6;
2;Australia;Queensland;Mount Aberdeen;;147.95;-20.2166667;6;
2;Australia;Queensland;Mount Alford;;152.5833333;-28.0666667;6;
2;Australia;Queensland;Mount Berryman;;152.3333333;-27.7166667;6;
2;Australia;Queensland;Mount Buckley;;148.1166667;-20.1166667;6;
2;Australia;Queensland;Mount Carbine;;145.1333333;-16.5333333;6;
2;Australia;Queensland;Mount Chalmers;;150.65;-23.3;6;
2;Australia;Queensland;Mount Charlton;;148.7333333;-21.0166667;6;
2;Australia;Queensland;Mount Christian;;149.3166667;-21.6666667;6;
2;Australia;Queensland;Mount Coolon;;147.3333333;-21.3833333;6;
2;Australia;Queensland;Mount Cotton;;153.2333333;-27.6333333;6;
2;Australia;Queensland;Mount Crosby;;152.8;-27.55;6;
2;Australia;Queensland;Mount Cuthbert;;139.9166667;-19.9833333;6;
2;Australia;Queensland;Mount Dalrymple;;148.6;-21.15;6;
2;Australia;Queensland;Mount Debatable;;151.5166667;-25.6166667;6;
2;Australia;Queensland;Mount Edwards;;152.5166667;-28.0166667;6;
2;Australia;Queensland;Mount Egmont;;151.7166667;-26.75;6;
2;Australia;Queensland;Mount Emlyn;;151.3333333;-28.0333333;6;
2;Australia;Queensland;Mount Forbes;;152.6166667;-27.7333333;6;
2;Australia;Queensland;Mount Fox;;145.8333333;-18.8166667;6;
2;Australia;Queensland;Mount Garnet;;145.1166667;-17.6833333;6;
2;Australia;Queensland;Mount Gravatt;;153.0833333;-27.5333333;6;
2;Australia;Queensland;Mount Hallen;;152.4166667;-27.3166667;6;
2;Australia;Queensland;Mount Hallon;;152.4166667;-27.3166667;6;
2;Australia;Queensland;Mount Isa;;139.5;-20.7333333;6;
2;Australia;Queensland;Mount Jukes East;;148.9666667;-21.0166667;6;
2;Australia;Queensland;Mount Jukes;;148.95;-21.0166667;6;
2;Australia;Queensland;Mount Julian;;148.6166667;-20.3833333;6;
2;Australia;Queensland;Mount Kent;;151.8333333;-27.85;6;
2;Australia;Queensland;Mount Larcom;;150.9833333;-23.8166667;6;
2;Australia;Queensland;Mount Luke;;150.0333333;-27.4;6;
2;Australia;Queensland;Mount Marlow;;148.6166667;-20.3666667;6;
2;Australia;Queensland;Mount Marshall;;152.0333333;-28.0833333;6;
2;Australia;Queensland;Mount Martin;;148.8166667;-21.1166667;6;
2;Australia;Queensland;Mount Molloy;;145.3333333;-16.6833333;6;
2;Australia;Queensland;Mount Morgan;;150.3833333;-23.65;6;
2;Australia;Queensland;Mount Mort;;152.4166667;-27.8166667;6;
2;Australia;Queensland;Mount Mulligan;;144.8666667;-16.85;6;
2;Australia;Queensland;Mount Nicholson;;150.65;-23.3166667;6;
2;Australia;Queensland;Mount Ossa;;148.8333333;-20.9666667;6;
2;Australia;Queensland;Mount Oxide;;139.4;-19.5;6;
2;Australia;Queensland;Mount Pelion;;148.8166667;-20.9333333;6;
2;Australia;Queensland;Mount Perry;;151.65;-25.2;6;
2;Australia;Queensland;Mount Samson;;152.85;-27.3;6;
2;Australia;Queensland;Mount Sibley;;151.9666667;-27.8333333;6;
2;Australia;Queensland;Mount Sturt;;152.1833333;-28.2;6;
2;Australia;Queensland;Mount Surprise;;144.3166667;-18.15;6;
2;Australia;Queensland;Mount Sylvia;;152.2166667;-27.7333333;6;
2;Australia;Queensland;Mount Tamborine;;153.2;-27.9666667;6;
2;Australia;Queensland;Mount Tambourine;;153.2;-27.9666667;6;
2;Australia;Queensland;Mount Tyson;;151.5666667;-27.5833333;6;
2;Australia;Queensland;Mount Walker;;152.5333333;-27.7833333;6;
2;Australia;Queensland;Mount Whitestone;;152.1666667;-27.6666667;6;
2;Australia;Queensland;Moura;;150.0166667;-24.5666667;6;
2;Australia;Queensland;Mourilyan Harbour;;146.6333333;-17.6;6;
2;Australia;Queensland;Mourilyan;;146.05;-17.5666667;6;
2;Australia;Queensland;Muan;;151.9666667;-25.4666667;6;
2;Australia;Queensland;Muckadilla;;148.3833333;-26.5833333;6;
2;Australia;Queensland;Mudgeeraba;;153.3666667;-28.0833333;6;
2;Australia;Queensland;Muggleton;;149.2333333;-26.4166667;6;
2;Australia;Queensland;Muirlea;;152.7166667;-27.5666667;6;
2;Australia;Queensland;Muldu;;151.6833333;-27.2666667;6;
2;Australia;Queensland;Mulgeldie;;151.1166667;-24.9666667;6;
2;Australia;Queensland;Mulgowie;;152.3666667;-27.7333333;6;
2;Australia;Queensland;Mullet Creek;;152.05;-24.65;6;
2;Australia;Queensland;Munbilla;;152.65;-27.8666667;6;
2;Australia;Queensland;Munbura;;149.15;-21.3333333;6;
2;Australia;Queensland;Mundoc;;146.0166667;-17.5666667;6;
2;Australia;Queensland;Mundoo;;146.0166667;-17.5666667;6;
2;Australia;Queensland;Mundubbera;;151.3;-25.6;6;
2;Australia;Queensland;Mungallala;;147.5333333;-26.45;6;
2;Australia;Queensland;Mungana;;144.4;-17.1166667;6;
2;Australia;Queensland;Mungar Junction;;152.6;-25.6;6;
2;Australia;Queensland;Mungindi;;148.9833333;-28.9666667;6;
2;Australia;Queensland;Muranu;;150.3666667;-23.6833333;6;
2;Australia;Queensland;Murgon;;151.95;-26.2333333;6;
2;Australia;Queensland;Murphys Creek;;152.05;-27.4666667;6;
2;Australia;Queensland;Murra Murra;;151.9;-27.2666667;6;
2;Australia;Queensland;Murray Upper;;145.85;-18.1;6;
2;Australia;Queensland;Murrumba;;152.5;-27.2;6;
2;Australia;Queensland;Murwen;;146.0333333;-27;6;
2;Australia;Queensland;Mutarnee;;146.3;-18.95;6;
2;Australia;Queensland;Mutchilba;;145.2166667;-17.1333333;6;
2;Australia;Queensland;Mutdapilly;;152.65;-27.7666667;6;
2;Australia;Queensland;Muttaburra;;144.55;-22.6;6;
2;Australia;Queensland;Myola;;145.6166667;-16.8166667;6;
2;Australia;Queensland;Myora;;153.4166667;-27.4833333;6;
2;Australia;Queensland;Myrtle;;153.1333333;-27.3833333;6;
2;Australia;Queensland;Myrtletown;;153.1333333;-27.3833333;6;
2;Australia;Queensland;Mywybilla;;151.35;-27.5666667;6;
2;Australia;Queensland;My-yon;;151.25;-26.3333333;6;
2;Australia;Queensland;Nabilla;;148.95;-21.15;6;
2;Australia;Queensland;Nagoorin;;151.3;-24.3666667;6;
2;Australia;Queensland;Nambour;;152.95;-26.6333333;6;
2;Australia;Queensland;Nanango;;152;-26.6666667;6;
2;Australia;Queensland;Nandi;;151.1666667;-27.2166667;6;
2;Australia;Queensland;Nangwee;;151.3;-27.55;6;
2;Australia;Queensland;Nankin Junction;;150.6333333;-23.3833333;6;
2;Australia;Queensland;Nantglyn;;151.3666667;-25.5333333;6;
2;Australia;Queensland;Nanya;;147.8333333;-22.95;6;
2;Australia;Queensland;Nanyima;;148.8833333;-21.1666667;6;
2;Australia;Queensland;Nara;;151.8166667;-27.35;6;
2;Australia;Queensland;Narangba;;152.9666667;-27.2;6;
2;Australia;Queensland;Nareeten;;148.65;-26.3833333;6;
2;Australia;Queensland;Narpi;;148.8833333;-21;6;
2;Australia;Queensland;Nebe;;148.6833333;-21.6833333;6;
2;Australia;Queensland;Nebo;;148.6833333;-21.6833333;6;
2;Australia;Queensland;Nelia;;142.2333333;-20.65;6;
2;Australia;Queensland;Nerang;;153.3333333;-27.9833333;6;
2;Australia;Queensland;Neranwood;;153.3;-28.1166667;6;
2;Australia;Queensland;Nerimbera;;150.5833333;-23.4;6;
2;Australia;Queensland;Netherby;;152.55;-25.7833333;6;
2;Australia;Queensland;Netherdale;;148.5333333;-21.15;6;
2;Australia;Queensland;Neurum;;152.7;-26.9666667;6;
2;Australia;Queensland;Neuve;;151.8833333;-27.2666667;6;
2;Australia;Queensland;New Northcote;;145.1833333;-17.0166667;6;
2;Australia;Queensland;Newbury Junction;;148.9666667;-21.15;6;
2;Australia;Queensland;Newell Beach;;145.4;-16.4166667;6;
2;Australia;Queensland;Newmarket;;153.0166667;-27.4333333;6;
2;Australia;Queensland;Night jar;;146.7;-19.25;6;
2;Australia;Queensland;Nikenbah;;152.8;-25.3166667;6;
2;Australia;Queensland;Nindaroo;;149.15;-21.0833333;6;
2;Australia;Queensland;Nindigully;;148.8333333;-28.35;6;
2;Australia;Queensland;Nipan;;150.0166667;-24.7833333;6;
2;Australia;Queensland;Nobby;;151.9;-27.8666667;6;
2;Australia;Queensland;Nome;;146.9166667;-19.3833333;6;
2;Australia;Queensland;Nonda;;142.4833333;-20.6833333;6;
2;Australia;Queensland;Noondoo;;148.4333333;-28.6166667;6;
2;Australia;Queensland;Noorlah;;148.5833333;-20.6333333;6;
2;Australia;Queensland;Noosa Heads;;153.15;-26.3833333;6;
2;Australia;Queensland;Noosa;;153.15;-26.3833333;6;
2;Australia;Queensland;Noosaville;;153.0666667;-26.4;6;
2;Australia;Queensland;Normanton;;141.0833333;-17.6666667;6;
2;Australia;Queensland;North Arm;;152.95;-26.5166667;6;
2;Australia;Queensland;North Burleigh;;153.45;-28.05;6;
2;Australia;Queensland;North Coast;;152.2833333;-24.7166667;6;
2;Australia;Queensland;North Copperfield;;147.6166667;-22.85;6;
2;Australia;Queensland;North Dulacca;;114.8333333;-26.45;6;
2;Australia;Queensland;North Eton;;148.9666667;-21.2333333;6;
2;Australia;Queensland;North Gairloch;;146.1666667;-18.6333333;6;
2;Australia;Queensland;North Gate Junction;;153.0666667;-27.4;6;
2;Australia;Queensland;North Koodai-i;;151.5166667;-26.8833333;6;
2;Australia;Queensland;North Koondai;;151.5166667;-26.8833333;6;
2;Australia;Queensland;North Koondai-i;;151.5166667;-26.8833333;6;
2;Australia;Queensland;North Mackay;;149.1833333;-21.1166667;6;
2;Australia;Queensland;North Tambourine;;153.1833333;-27.9333333;6;
2;Australia;Queensland;Northbrook;;152.6;-27.35;6;
2;Australia;Queensland;Northcote;;145.1833333;-17.0166667;6;
2;Australia;Queensland;Northgate;;153.0666667;-27.4;6;
2;Australia;Queensland;Norwell;;153.3166667;-27.7833333;6;
2;Australia;Queensland;Norwin;;151.3833333;-27.5666667;6;
2;Australia;Queensland;Nudley;;151;-26.5;6;
2;Australia;Queensland;Nukku;;152.0666667;-26.8833333;6;
2;Australia;Queensland;Nunkulla;;151.8;-27.7666667;6;
2;Australia;Queensland;Nurinda;;152.3333333;-26.9333333;6;
2;Australia;Queensland;Nutgrove;;151.7666667;-27.05;6;
2;Australia;Queensland;Nyleta;;145.4833333;-17.3;6;
2;Australia;Queensland;Nymbool;;145.05;-17.65;6;
2;Australia;Queensland;Oakenden;;149.0166667;-21.3;6;
2;Australia;Queensland;Oakey;;151.7166667;-27.4333333;6;
2;Australia;Queensland;Oakhurst;;152.6333333;-25.5166667;6;
2;Australia;Queensland;Oaktree;;148.65;-25.85;6;
2;Australia;Queensland;Oakview;;152.3333333;-26.0833333;6;
2;Australia;Queensland;Oakwood;;152.3;-24.8666667;6;
2;Australia;Queensland;Oaky;;151.7166667;-27.4333333;6;
2;Australia;Queensland;Obi Obi;;152.8;-26.65;6;
2;Australia;Queensland;O'Bil Bil;;151.2166667;-25.5166667;6;
2;Australia;Queensland;Ogmore;;149.65;-22.6166667;6;
2;Australia;Queensland;Okuloo;;148.5666667;-21.1333333;6;
2;Australia;Queensland;Old Bribie;;153.1322222;-27.0447222;6;
2;Australia;Queensland;Old Glenroy;;147.1333333;-20.5333333;6;
2;Australia;Queensland;Old Mingoola;;151.5166667;-28.9833333;6;
2;Australia;Queensland;Old Talgai;;151.7666667;-28.0166667;6;
2;Australia;Queensland;Oman-Ama;;151.3;-28.4;6;
2;Australia;Queensland;One Mile;;152.75;-27.6333333;6;
2;Australia;Queensland;Oolbun;;146.9333333;-19.3333333;6;
2;Australia;Queensland;Oondooroo;;143.1;-22.1666667;6;
2;Australia;Queensland;Oonoobah;;146.8166667;-19.3;6;
2;Australia;Queensland;Oonooie;;149.2333333;-21.4666667;6;
2;Australia;Queensland;Oonoonba;;146.8166667;-19.3;6;
2;Australia;Queensland;Oontoo;;141.0166667;-27.65;6;
2;Australia;Queensland;Oorindi;;141.0666667;-20.6833333;6;
2;Australia;Queensland;Ootann;;144.6333333;-17.45;6;
2;Australia;Queensland;Opalton;;142.7666667;-23.25;6;
2;Australia;Queensland;Opalville;;142.7333333;-24.7833333;6;
2;Australia;Queensland;Orallo;;148.55;-26.2666667;6;
2;Australia;Queensland;Orange Grove;;153.0333333;-27.5666667;6;
2;Australia;Queensland;Orkabie;;149.3666667;-21.8166667;6;
2;Australia;Queensland;Ormeau;;153.2666667;-27.7833333;6;
2;Australia;Queensland;Ormiston;;153.25;-27.5166667;6;
2;Australia;Queensland;Ottaba;;152.3833333;-27.15;6;
2;Australia;Queensland;Owanyilla;;152.6;-25.6666667;6;
2;Australia;Queensland;Owens Creek;;148.7166667;-21.0833333;6;
2;Australia;Queensland;Oxford Park;;152.9666667;-27.4;6;
2;Australia;Queensland;Oxley;;152.9833333;-27.55;6;
2;Australia;Queensland;Palen Creek;;152.8;-28.2666667;6;
2;Australia;Queensland;Pallarenda;;146.7666667;-19.2;6;
2;Australia;Queensland;Palm Beach;;153.4666667;-28.1166667;6;
2;Australia;Queensland;Palma;;145.9333333;-17.3166667;6;
2;Australia;Queensland;Palmervill;;144.0833333;-15.9833333;6;
2;Australia;Queensland;Palmerville;;144.0833333;-15.9833333;6;
2;Australia;Queensland;Palms;;149.0833333;-21.1666667;6;
2;Australia;Queensland;Palmwoods;;152.9666667;-26.6833333;6;
2;Australia;Queensland;Pampas;;151.4166667;-27.8;6;
2;Australia;Queensland;Pandoin;;150.5;-23.25;6;
2;Australia;Queensland;Parapi Station;;148.9;-21.0333333;6;
2;Australia;Queensland;Paree;;152.3666667;-27.7;6;
2;Australia;Queensland;Park Ridge;;153.0333333;-27.7166667;6;
2;Australia;Queensland;Parkhurst;;150.5166667;-23.3;6;
2;Australia;Queensland;Parsons Point;;151.3;-23.8666667;6;
2;Australia;Queensland;Paterson;;152.55;-25.8833333;6;
2;Australia;Queensland;Pawngilly;;145.9166667;-17.4166667;6;
2;Australia;Queensland;Peacebourne;;152.7833333;-26.9;6;
2;Australia;Queensland;Peachester;;152.8833333;-26.85;6;
2;Australia;Queensland;Peacock Siding;;146;-18.6833333;6;
2;Australia;Queensland;Peak Crossing;;152.7166667;-27.7833333;6;
2;Australia;Queensland;Pechey;;152.05;-27.3;6;
2;Australia;Queensland;Peeramon;;145.6166667;-17.3166667;6;
2;Australia;Queensland;Pelican;;150.8666667;-26.5833333;6;
2;Australia;Queensland;Pemberton;;152.45;-24.8666667;6;
2;Australia;Queensland;Pengarry Junction;;151.9166667;-27.4833333;6;
2;Australia;Queensland;Pengarry;;151.9166667;-27.4833333;6;
2;Australia;Queensland;Pentland;;145.4;-20.5333333;6;
2;Australia;Queensland;Peranga;;151.7;-27.15;6;
2;Australia;Queensland;Percyville;;143.7833333;-19;6;
2;Australia;Queensland;Perrys Knob;;152.5833333;-27.6166667;6;
2;Australia;Queensland;Perrys Nob;;152.5833333;-27.6166667;6;
2;Australia;Queensland;Perseverance;;152.1333333;-27.3666667;6;
2;Australia;Queensland;Perwillowen;;152.9166667;-26.6333333;6;
2;Australia;Queensland;Petford;;144.9333333;-17.35;6;
2;Australia;Queensland;Petrie;;152.9833333;-27.2666667;6;
2;Australia;Queensland;Philpott Creek;;151.3666667;-25.6;6;
2;Australia;Queensland;Pialba;;152.8333333;-25.3;6;
2;Australia;Queensland;Pickanjinnie;;149.1166667;-26.5833333;6;
2;Australia;Queensland;Piemonte;;145.1666667;-17.1333333;6;
2;Australia;Queensland;Pikedale;;151.6333333;-28.65;6;
2;Australia;Queensland;Pilerwa;;152.5666667;-25.6;6;
2;Australia;Queensland;Pilton;;152.1166667;-27.9166667;6;
2;Australia;Queensland;Pimpama;;153.3;-27.8166667;6;
2;Australia;Queensland;Pimpana;;153.3;-27.8166667;6;
2;Australia;Queensland;Pinbarren;;152.85;-26.3333333;6;
2;Australia;Queensland;Pindi Pindi;;148.7333333;-20.8666667;6;
2;Australia;Queensland;Pine Hill;;146.9666667;-23.65;6;
2;Australia;Queensland;Pine Mountain;;152.7;-27.55;6;
2;Australia;Queensland;Pink Lily;;150.4666667;-23.35;6;
2;Australia;Queensland;Pinkenba;;153.1166667;-27.4333333;6;
2;Australia;Queensland;Pinkertons Corner;;150.4666667;-23.1166667;6;
2;Australia;Queensland;Pinnacle;;148.7166667;-21.15;6;
2;Australia;Queensland;Pioneer;;147.3166667;-19.5333333;6;
2;Australia;Queensland;Pittsworth;;151.6333333;-27.7166667;6;
2;Australia;Queensland;Plainland;;152.4166667;-27.5666667;6;
2;Australia;Queensland;Pleystowe;;149.0333333;-21.15;6;
2;Australia;Queensland;Poid;;142.1833333;-10.1666667;6;
2;Australia;Queensland;Point Lookout;;153.5419444;-27.4358333;6;
2;Australia;Queensland;Point Vernon;;152.8166667;-25.25;6;
2;Australia;Queensland;Pomona;;152.8666667;-26.3666667;6;
2;Australia;Queensland;Port Alma;;150.85;-23.5833333;6;
2;Australia;Queensland;Port Bundaberg;;152.3833333;-24.7666667;6;
2;Australia;Queensland;Port Douglas;;145.4666667;-16.4833333;6;
2;Australia;Queensland;Port Kennedy;;142.2177778;-10.585;6;
2;Australia;Queensland;Powlathanga;;146;-20.1833333;6;
2;Australia;Queensland;Pozieres;;151.8833333;-28.5333333;6;
2;Australia;Queensland;Prairie;;144.6;-20.8833333;6;
2;Australia;Queensland;Pratten;;151.8;-28.0833333;6;
2;Australia;Queensland;Prenslau;;152.5166667;-27.5333333;6;
2;Australia;Queensland;Prenzlau;;152.5166667;-27.5333333;6;
2;Australia;Queensland;Priestdale Lagoons;;153.1333333;-27.6;6;
2;Australia;Queensland;Princhester;;150.0166667;-22.8666667;6;
2;Australia;Queensland;Proserpine;;148.5833333;-20.4166667;6;
2;Australia;Queensland;Proston;;151.6;-26.1666667;6;
2;Australia;Queensland;Pukatika;;150.4333333;-23.3333333;6;
2;Australia;Queensland;Pullen Vale;;152.8833333;-27.5333333;6;
2;Australia;Queensland;Purga;;152.7333333;-27.7;6;
2;Australia;Queensland;Pyramid;;145.8;-17.1;6;
2;Australia;Queensland;Quamby;;140.2833333;-20.3666667;6;
2;Australia;Queensland;Quatia;;146.0166667;-17.8;6;
2;Australia;Queensland;Queens Beach;;148.25;-19.9666667;6;
2;Australia;Queensland;Queerah;;145.75;-17;6;
2;Australia;Queensland;Quibet;;148.6;-27.4166667;6;
2;Australia;Queensland;Quilpie;;144.25;-26.6166667;6;
2;Australia;Queensland;Quinalow;;151.6333333;-27.1166667;6;
2;Australia;Queensland;Quingilli;;145.85;-17.15;6;
2;Australia;Queensland;Raby Bay;;153.2666667;-27.5333333;6;
2;Australia;Queensland;Radford;;152.65;-27.85;6;
2;Australia;Queensland;Raglan;;150.8166667;-23.7166667;6;
2;Australia;Queensland;Ramleh;;146.0166667;-17.6333333;6;
2;Australia;Queensland;Rangal;;148.8166667;-23.5833333;6;
2;Australia;Queensland;Rannes;;150.1166667;-24.1166667;6;
2;Australia;Queensland;Rathdowney;;152.8666667;-28.2166667;6;
2;Australia;Queensland;Ravensbourne;;152.1666667;-27.3666667;6;
2;Australia;Queensland;Ravenshoe;;145.4833333;-17.6333333;6;
2;Australia;Queensland;Ravenswood;;146.8833333;-20.1;6;
2;Australia;Queensland;Rawbelle;;150.8333333;-25.05;6;
2;Australia;Queensland;Red Hill;;148.5;-20.3166667;6;
2;Australia;Queensland;Redbank;;152.8666667;-27.6;6;
2;Australia;Queensland;Redcliffe;;153.1166667;-27.2333333;6;
2;Australia;Queensland;Redland Bay;;153.3166667;-27.6166667;6;
2;Australia;Queensland;Redlynch;;145.7;-16.8833333;6;
2;Australia;Queensland;Reid River;;146.8333333;-19.7666667;6;
2;Australia;Queensland;Retro;;147.9;-23.0166667;6;
2;Australia;Queensland;Richmond;;143.1333333;-20.7166667;6;
2;Australia;Queensland;Ridgelands;;150.2833333;-23.25;6;
2;Australia;Queensland;Ripley;;152.8333333;-27.7166667;6;
2;Australia;Queensland;Rita Island;;147.5333333;-19.6166667;6;
2;Australia;Queensland;Riverleigh;;151.2;-25.5833333;6;
2;Australia;Queensland;Riverview;;152.85;-27.6;6;
2;Australia;Queensland;Roadvale;;152.6833333;-27.9166667;6;
2;Australia;Queensland;Rochedale;;153.1333333;-27.5666667;6;
2;Australia;Queensland;Rockhampton;;150.5;-23.3833333;6;
2;Australia;Queensland;Rocklea;;153.0166667;-27.55;6;
2;Australia;Queensland;Rockmount;;152.0333333;-27.6833333;6;
2;Australia;Queensland;Rocksberg;;152.8333333;-27.1;6;
2;Australia;Queensland;Rockton;;152.7333333;-27.7666667;6;
2;Australia;Queensland;Rocky Creek;;151.35;-28.0166667;6;
2;Australia;Queensland;Rolleston;;148.6166667;-24.4666667;6;
2;Australia;Queensland;Rollingstone;;146.3833333;-19.05;6;
2;Australia;Queensland;Roma;;148.7833333;-26.5833333;6;
2;Australia;Queensland;Ropeley East;;152.2833333;-27.6166667;6;
2;Australia;Queensland;Ropeley;;152.2666667;-27.6666667;6;
2;Australia;Queensland;Rosalie Plains;;151.7;-27.2166667;6;
2;Australia;Queensland;Rosalie;;151.7;-27.2166667;6;
2;Australia;Queensland;Rosedale;;151.9166667;-24.6333333;6;
2;Australia;Queensland;Rosehill;;152;-28.1833333;6;
2;Australia;Queensland;Rosella;;149.1333333;-21.2333333;6;
2;Australia;Queensland;Rosevale;;152.4833333;-27.85;6;
2;Australia;Queensland;Rosewood;;152.5833333;-27.6333333;6;
2;Australia;Queensland;Ross Mount;;152.7333333;-26.1;6;
2;Australia;Queensland;Ross River;;146.7333333;-19.3166667;6;
2;Australia;Queensland;Rossleigh;;148.6666667;-20.4;6;
2;Australia;Queensland;Rossmoya;;150.4833333;-23.0333333;6;
2;Australia;Queensland;Rossville;;145.2666667;-15.6666667;6;
2;Australia;Queensland;Royston;;152.65;-26.95;6;
2;Australia;Queensland;Rubyvale;;147.7;-23.4;6;
2;Australia;Queensland;Rumula;;145.3333333;-16.5833333;6;
2;Australia;Queensland;Russell River;;145.8666667;-17.4833333;6;
2;Australia;Queensland;Rywung;;150.4666667;-26.6833333;6;
2;Australia;Queensland;Sabine;;151.7166667;-27.35;6;
2;Australia;Queensland;Saibai Village;;142.6166667;-9.3833333;6;
2;Australia;Queensland;Saibai;;142.6166667;-9.3833333;6;
2;Australia;Queensland;Saint Aubyn;;151.9166667;-27.0833333;6;
2;Australia;Queensland;Saint George;;148.5833333;-28.0333333;6;
2;Australia;Queensland;Saint Helens;;148.8333333;-20.9166667;6;
2;Australia;Queensland;Saint Lawrence Township;;149.5333333;-22.35;6;
2;Australia;Queensland;Saint Lawrence;;149.5333333;-22.35;6;
2;Australia;Queensland;Saint Lucia;;153;-27.5;6;
2;Australia;Queensland;Saltern;;145.1;-23.5333333;6;
2;Australia;Queensland;Samford;;152.8833333;-27.3666667;6;
2;Australia;Queensland;Samson Vale;;152.85;-27.2666667;6;
2;Australia;Queensland;Sandgate;;153.0833333;-27.3333333;6;
2;Australia;Queensland;Sandhills;;150.7833333;-23.35;6;
2;Australia;Queensland;Sandiford;;149.1;-21.25;6;
2;Australia;Queensland;Sapphire;;147.7166667;-23.4666667;6;
2;Australia;Queensland;Sarina;;149.2166667;-21.4333333;6;
2;Australia;Queensland;Scarborough;;153.1102778;-27.2008333;6;
2;Australia;Queensland;Scarness;;152.85;-25.2833333;6;
2;Australia;Queensland;Scottville;;147.8166667;-20.5666667;6;
2;Australia;Queensland;Scrub View;;146.1833333;-18.85;6;
2;Australia;Queensland;Scrubby Creek;;149.15;-21.2166667;6;
2;Australia;Queensland;Seaforth;;148.9666667;-20.9;6;
2;Australia;Queensland;Seaview;;149.1666667;-21.0333333;6;
2;Australia;Queensland;Selene;;151.15;-25.0166667;6;
2;Australia;Queensland;Sellheim;;146.4166667;-20.0166667;6;
2;Australia;Queensland;Selwyn;;140.5;-21.5333333;6;
2;Australia;Queensland;Septimus;;148.7666667;-21.2333333;6;
2;Australia;Queensland;Seventeen Seventy;;151.8833333;-24.1666667;6;
2;Australia;Queensland;Severnlea;;151.9166667;-28.7;6;
2;Australia;Queensland;Sexton;;152.4333333;-26;6;
2;Australia;Queensland;Seymour;;146.2333333;-18.5666667;6;
2;Australia;Queensland;Sharon;;152.2666667;-24.8833333;6;
2;Australia;Queensland;Shepperd;;151.8833333;-27.65;6;
2;Australia;Queensland;Shinfield;;149.15;-21.4833333;6;
2;Australia;Queensland;Shiptons Flat;;145.25;-15.8;6;
2;Australia;Queensland;Shirley;;151.9166667;-27.45;6;
2;Australia;Queensland;Shorncliffe;;153.0833333;-27.3333333;6;
2;Australia;Queensland;Silent Grove;;148.8;-20.9833333;6;
2;Australia;Queensland;Silkwood;;146.0333333;-17.75;6;
2;Australia;Queensland;Silverspur;;151.2833333;-28.8666667;6;
2;Australia;Queensland;Sisalana;;150.6666667;-23.6666667;6;
2;Australia;Queensland;Slacks Creek;;153.15;-27.65;6;
2;Australia;Queensland;Slade Point;;149.225;-21.075;6;
2;Australia;Queensland;Sladevale;;152.0666667;-28.1666667;6;
2;Australia;Queensland;Sleipner Junction;;150.6666667;-23.35;6;
2;Australia;Queensland;Sleipner;;150.6666667;-23.35;6;
2;Australia;Queensland;Sliepner Junction;;150.6666667;-23.35;6;
2;Australia;Queensland;Snake Creek;;152.0833333;-24.9666667;6;
2;Australia;Queensland;Solanum;;145.0833333;-17.2166667;6;
2;Australia;Queensland;Sommariva;;146.6;-26.4;6;
2;Australia;Queensland;South Copperfield;;147.6166667;-22.85;6;
2;Australia;Queensland;South Glen;;150.3166667;-27.3166667;6;
2;Australia;Queensland;South Ingham;;146.1666667;-18.65;6;
2;Australia;Queensland;South Johnstone;;146;-17.6;6;
2;Australia;Queensland;South Kooroongarra;;151.2666667;-28.1;6;
2;Australia;Queensland;South Mission Beach;;146.0833333;-17.95;6;
2;Australia;Queensland;South Nanango;;151.9666667;-26.75;6;
2;Australia;Queensland;South Wolca;;151.6166667;-25.1333333;6;
2;Australia;Queensland;Southbrook;;151.7166667;-27.6833333;6;
2;Australia;Queensland;Southend;;151.3166667;-23.7666667;6;
2;Australia;Queensland;Southern Cross;;146.1166667;-20.1333333;6;
2;Australia;Queensland;Southport;;153.4;-27.9666667;6;
2;Australia;Queensland;Southwood;;149.9833333;-27.7666667;6;
2;Australia;Queensland;Spring Bluff;;151.9833333;-27.4666667;6;
2;Australia;Queensland;Spring Creek;;151.9833333;-27.9333333;6;
2;Australia;Queensland;Springbrook;;153.2833333;-28.2166667;6;
2;Australia;Queensland;Springcliff;;148.9666667;-20.9;6;
2;Australia;Queensland;Springfield;;152.4833333;-24.9166667;6;
2;Australia;Queensland;Springsure;;148.0833333;-24.1166667;6;
2;Australia;Queensland;Squaretop;;151.45;-27.0166667;6;
2;Australia;Queensland;Stamford;;143.8166667;-21.2666667;6;
2;Australia;Queensland;Stanley;;146.8333333;-19.4;6;
2;Australia;Queensland;Stanmore;;153.2166667;-27.75;6;
2;Australia;Queensland;Stannary Hills;;145.2166667;-17.3166667;6;
2;Australia;Queensland;Stanthorpe;;151.95;-28.6666667;6;
2;Australia;Queensland;Stanwell;;150.3166667;-23.4833333;6;
2;Australia;Queensland;Stapylton;;153.2333333;-27.7333333;6;
2;Australia;Queensland;Steiglitz;;153.35;-27.75;6;
2;Australia;Queensland;Stockleigh;;153.0666667;-27.7666667;6;
2;Australia;Queensland;Stockyard;;152.0666667;-27.6333333;6;
2;Australia;Queensland;Stone River;;146.05;-18.65;6;
2;Australia;Queensland;Stonehenge;;143.2833333;-24.3666667;6;
2;Australia;Queensland;Stoney Creek;;145.6666667;-16.8833333;6;
2;Australia;Queensland;Stony Creek;;145.6666667;-16.8833333;6;
2;Australia;Queensland;Stratford;;145.7333333;-16.8833333;6;
2;Australia;Queensland;Strathdickie North;;148.6;-20.3;6;
2;Australia;Queensland;Strathdickie;;148.6166667;-20.3333333;6;
2;Australia;Queensland;Strathmuir;;149.7333333;-22.7;6;
2;Australia;Queensland;Strathpine;;153;-27.2833333;6;
2;Australia;Queensland;Styx;;149.6333333;-22.5833333;6;
2;Australia;Queensland;Summerholm;;152.45;-27.6166667;6;
2;Australia;Queensland;Sunnybank;;153.05;-27.5833333;6;
2;Australia;Queensland;Sunnyglen;;150.4333333;-26.8833333;6;
2;Australia;Queensland;Sunnyside;;148.8833333;-21.1666667;6;
2;Australia;Queensland;Surat;;149.0666667;-27.1666667;6;
2;Australia;Queensland;Surfers Paradise;;153.4333333;-28;6;
2;Australia;Queensland;Swan Creek;;152.1333333;-28.2;6;
2;Australia;Queensland;Sylvia Vale;;151.9833333;-27.1;6;
2;Australia;Queensland;Taabinga Village;;151.8333333;-26.5833333;6;
2;Australia;Queensland;Taabinga;;151.8333333;-26.5833333;6;
2;Australia;Queensland;Tabacum;;145.3;-17.1166667;6;
2;Australia;Queensland;Tabinga;;151.8333333;-26.5833333;6;
2;Australia;Queensland;Tableland;;145.6833333;-22.9666667;6;
2;Australia;Queensland;Tabooba;;152.95;-28.1333333;6;
2;Australia;Queensland;Takoko;;152.0666667;-24.6833333;6;
2;Australia;Queensland;Takura;;152.7166667;-25.3333333;6;
2;Australia;Queensland;Talaba;;151.2;-23.9666667;6;
2;Australia;Queensland;Talban;;150.3833333;-23.65;6;
2;Australia;Queensland;Talegalla;;152.5666667;-27.6;6;
2;Australia;Queensland;Talgai West;;151.9;-28.0333333;6;
2;Australia;Queensland;Talgai;;151.7666667;-28.0166667;6;
2;Australia;Queensland;Talgarth;;149.9;-26.4833333;6;
2;Australia;Queensland;Tallebudgera;;153.4333333;-28.15;6;
2;Australia;Queensland;Talwood;;149.5;-28.5;6;
2;Australia;Queensland;Tamaree;;152.6666667;-26.1333333;6;
2;Australia;Queensland;Tambo;;146.25;-24.8833333;6;
2;Australia;Queensland;Tamborine North;;153.1833333;-27.9333333;6;
2;Australia;Queensland;Tamborine;;153.1333333;-27.8833333;6;
2;Australia;Queensland;Tambourine North;;153.1833333;-27.9333333;6;
2;Australia;Queensland;Tambourine;;153.1333333;-27.8833333;6;
2;Australia;Queensland;Tanby;;150.75;-23.2333333;6;
2;Australia;Queensland;Tandur;;152.75;-26.2833333;6;
2;Australia;Queensland;Tangalooma;;153.3836111;-27.1808333;6;
2;Australia;Queensland;Tangkam;;151.6666667;-27.4666667;6;
2;Australia;Queensland;Tangorin;;144.2333333;-21.75;6;
2;Australia;Queensland;Tannalo;;148.6833333;-21.15;6;
2;Australia;Queensland;Tannymorel;;152.25;-28.3;6;
2;Australia;Queensland;Tara;;150.4666667;-27.2833333;6;
2;Australia;Queensland;Taragoola;;151.2166667;-24.1;6;
2;Australia;Queensland;Tarampa Flat;;152.5;-27.5;6;
2;Australia;Queensland;Tarampa;;152.55;-27.4833333;6;
2;Australia;Queensland;Targima;;151.1;-23.8;6;
2;Australia;Queensland;Targinie;;151.1;-23.8;6;
2;Australia;Queensland;Targinnie;;151.1;-23.8;6;
2;Australia;Queensland;Tarong;;151.85;-26.7666667;6;
2;Australia;Queensland;Taroom;;149.8;-25.65;6;
2;Australia;Queensland;Tarragindi;;153.0333333;-27.5333333;6;
2;Australia;Queensland;Tarzali;;145.6;-17.4333333;6;
2;Australia;Queensland;Tawah;;152.05;-25.3333333;6;
2;Australia;Queensland;Taylor;;152.0333333;-27.3666667;6;
2;Australia;Queensland;Te Kowai;;149.1166667;-21.1666667;6;
2;Australia;Queensland;Tego;;146.7833333;-28.85;6;
2;Australia;Queensland;Tellebang;;151.2333333;-25.0666667;6;
2;Australia;Queensland;Templeton;;142.4666667;-18.4333333;6;
2;Australia;Queensland;Templin;;152.65;-27.9666667;6;
2;Australia;Queensland;Tennyson;;153.0166667;-27.5333333;6;
2;Australia;Queensland;Tent Hill;;152.2333333;-27.6;6;
2;Australia;Queensland;Tepon;;145.4;-17.4333333;6;
2;Australia;Queensland;Teviotville;;152.6833333;-27.95;6;
2;Australia;Queensland;Tewantin;;153.0333333;-26.3833333;6;
2;Australia;Queensland;Texas;;151.1666667;-28.85;6;
2;Australia;Queensland;Thabeban;;152.35;-24.9;6;
2;Australia;Queensland;Thagoona;;152.6333333;-27.6333333;6;
2;Australia;Queensland;Thallon;;148.8666667;-28.65;6;
2;Australia;Queensland;Thane;;151.7;-28.1666667;6;
2;Australia;Queensland;Thanes Creek;;151.6833333;-28.1166667;6;
2;Australia;Queensland;Thangool;;150.5833333;-24.4833333;6;
2;Australia;Queensland;Thargomindah;;143.8166667;-28;6;
2;Australia;Queensland;The Caves;;150.4666667;-23.1833333;6;
2;Australia;Queensland;The Grange;;152.4166667;-24.8166667;6;
2;Australia;Queensland;The Gums;;150.1833333;-27.3333333;6;
2;Australia;Queensland;The Head;;152.4166667;-28.2833333;6;
2;Australia;Queensland;The Leap;;149.0166667;-21.0833333;6;
2;Australia;Queensland;The Summit;;151.9666667;-28.5833333;6;
2;Australia;Queensland;Theebine;;152.5333333;-25.95;6;
2;Australia;Queensland;Theodore;;150.0833333;-24.95;6;
2;Australia;Queensland;Thinoomba;;152.45;-25.6;6;
2;Australia;Queensland;Thoopara;;148.5666667;-20.55;6;
2;Australia;Queensland;Thornborough;;145.0166667;-16.95;6;
2;Australia;Queensland;Thornhill;;148.75;-26.3333333;6;
2;Australia;Queensland;Thornlands;;153.2666667;-27.55;6;
2;Australia;Queensland;Thornton;;152.3833333;-27.8166667;6;
2;Australia;Queensland;Three Moon;;151.1333333;-24.9166667;6;
2;Australia;Queensland;Thulimbah;;151.95;-28.55;6;
2;Australia;Queensland;Tiaro;;152.5833333;-25.7333333;6;
2;Australia;Queensland;Tilgonda;;151.85;-27.5;6;
2;Australia;Queensland;Tin Can Bay;;153;-25.9166667;6;
2;Australia;Queensland;Tingoora;;151.8166667;-26.3666667;6;
2;Australia;Queensland;Tipton;;151.25;-27.4333333;6;
2;Australia;Queensland;Tirroan;;151.9333333;-25.0166667;6;
2;Australia;Queensland;Tolga;;145.4833333;-17.2333333;6;
2;Australia;Queensland;Tombo;;146.25;-24.8833333;6;
2;Australia;Queensland;Toobanna;;146.15;-18.7;6;
2;Australia;Queensland;Toobeah;;149.8833333;-28.4;6;
2;Australia;Queensland;Toogoolawah;;152.3833333;-27.0833333;6;
2;Australia;Queensland;Toogoom;;152.6666667;-25.25;6;
2;Australia;Queensland;Toolburra;;151.9666667;-28.1666667;6;
2;Australia;Queensland;Toolooa;;151.2833333;-23.9333333;6;
2;Australia;Queensland;Toompine;;144.3666667;-27.2166667;6;
2;Australia;Queensland;Toonda;;150.7333333;-23.6833333;6;
2;Australia;Queensland;Toonpan;;146.8333333;-19.5;6;
2;Australia;Queensland;Toorbul;;153.05;-27.0333333;6;
2;Australia;Queensland;Toowoomba;;151.9666667;-27.55;6;
2;Australia;Queensland;Topaz;;145.7166667;-17.4166667;6;
2;Australia;Queensland;Torbanlea;;152.6;-25.35;6;
2;Australia;Queensland;Torquay;;152.8666667;-25.2833333;6;
2;Australia;Queensland;Torrens Creek;;145.0166667;-20.7666667;6;
2;Australia;Queensland;Toulkerrie;;153.4144444;-27.3222222;6;
2;Australia;Queensland;Townson;;152.3666667;-27.8833333;6;
2;Australia;Queensland;Townsville;;146.8;-19.25;6;
2;Australia;Queensland;Traveston;;152.7833333;-26.3166667;6;
2;Australia;Queensland;Traviston;;152.6166667;-25.1833333;6;
2;Australia;Queensland;Trebonne;;146.0833333;-18.6166667;6;
2;Australia;Queensland;Tremaynes;;149.15;-26.45;6;
2;Australia;Queensland;Trinity Beach;;145.7;-16.7833333;6;
2;Australia;Queensland;Trueman;;148.65;-21.1333333;6;
2;Australia;Queensland;Tuen;;145.7166667;-28.5666667;6;
2;Australia;Queensland;Tugun;;153.5;-28.15;6;
2;Australia;Queensland;Tula;;145.6;-17.3166667;6;
2;Australia;Queensland;Tullagrie;;150.3833333;-27.2833333;6;
2;Australia;Queensland;Tully;;145.9333333;-17.9333333;6;
2;Australia;Queensland;Tumbaree;;145.4833333;-17.2833333;6;
2;Australia;Queensland;Tummaville;;151.5;-27.8666667;6;
2;Australia;Queensland;Tumoulin;;145.4666667;-17.5666667;6;
2;Australia;Queensland;Tungamull;;150.6833333;-23.3166667;6;
2;Australia;Queensland;Turallin;;151.2166667;-27.8333333;6;
2;Australia;Queensland;Tylerville;;152.7833333;-28.3166667;6;
2;Australia;Queensland;Ubobo;;151.3166667;-24.4166667;6;
2;Australia;Queensland;Ukalunda;;147.1666667;-20.85;6;
2;Australia;Queensland;Umbiram;;151.7666667;-27.6666667;6;
2;Australia;Queensland;Undulla;;149.95;-27.1833333;6;
2;Australia;Queensland;Uping;;152;-24.9833333;6;
2;Australia;Queensland;Upper Barron;;145.0166667;-17.3833333;6;
2;Australia;Queensland;Upper Brookfield;;152.8666667;-27.4666667;6;
2;Australia;Queensland;Upper Caboolture;;152.8833333;-27.1166667;6;
2;Australia;Queensland;Upper Coomera;;153.3;-27.9;6;
2;Australia;Queensland;Upper Freestone;;152.2;-28.1333333;6;
2;Australia;Queensland;Upper Glastonbury;;152.5;-26.25;6;
2;Australia;Queensland;Upper Koondai-i;;151.5166667;-26.8833333;6;
2;Australia;Queensland;Upper Mudgeeraba;;153.3166667;-28.1;6;
2;Australia;Queensland;Upper Nerang;;153.2333333;-28.1333333;6;
2;Australia;Queensland;Upper Pilton;;152.1166667;-27.9166667;6;
2;Australia;Queensland;Upper Stone;;145.9666667;-18.7333333;6;
2;Australia;Queensland;Upper Tallebudgera;;153.3333333;-28.2;6;
2;Australia;Queensland;Upper Tent Hill;;152.2333333;-27.6666667;6;
2;Australia;Queensland;Upper Widgee;;152.4333333;-26.2;6;
2;Australia;Queensland;Urandangi;;138.3;-21.6;6;
2;Australia;Queensland;Urandangie;;138.3;-21.6;6;
2;Australia;Queensland;Urangan;;152.9;-25.3;6;
2;Australia;Queensland;Urraween;;152.8166667;-25.3;6;
2;Australia;Queensland;Uruba;;148.6666667;-21.1333333;6;
2;Australia;Queensland;Valentine Plains;;150.5833333;-24.4166667;6;
2;Australia;Queensland;Veresdale;;152.9833333;-27.9166667;6;
2;Australia;Queensland;Vernor;;152.6166667;-27.4666667;6;
2;Australia;Queensland;Vetland;;150.6;-26.9;6;
2;Australia;Queensland;Victoria Estate;;146.2;-18.65;6;
2;Australia;Queensland;Victoria Park;;149.2;-21.15;6;
2;Australia;Queensland;Victoria Point;;153.3;-27.5833333;6;
2;Australia;Queensland;Villeneuve;;152.6333333;-26.9666667;6;
2;Australia;Queensland;Vimy;;150.35;-23.9833333;6;
2;Australia;Queensland;Virginia;;153.0666667;-27.3833333;6;
2;Australia;Queensland;Wacol;;152.9333333;-27.5833333;6;
2;Australia;Queensland;Waggabundi;;139.4;-19.5;6;
2;Australia;Queensland;Wagoora;;148.7;-20.85;6;
2;Australia;Queensland;Wakala;;147.6333333;-19.8666667;6;
2;Australia;Queensland;Walkerston;;149.0666667;-21.1666667;6;
2;Australia;Queensland;Wallal;;146.1833333;-26.65;6;
2;Australia;Queensland;Wallan Creek;;149.9333333;-26.5166667;6;
2;Australia;Queensland;Wallangarra;;151.9333333;-28.9;6;
2;Australia;Queensland;Wallaroo;;149.5666667;-23.7;6;
2;Australia;Queensland;Wallen Wallen;;153.4105556;-27.5433333;6;
2;Australia;Queensland;Walloon;;152.6666667;-27.6;6;
2;Australia;Queensland;Wallumbilla;;149.1833333;-26.6;6;
2;Australia;Queensland;Walmul;;150.3833333;-23.7166667;6;
2;Australia;Queensland;Walsh Telegraph Station;;143.9;-16.65;6;
2;Australia;Queensland;Walsh;;143.9;-16.65;6;
2;Australia;Queensland;Walterhall;;150.4;-23.6333333;6;
2;Australia;Queensland;Walton;;149.1333333;-23.5833333;6;
2;Australia;Queensland;Wamuran;;152.8666667;-27.0333333;6;
2;Australia;Queensland;Wandoan;;149.95;-26.1333333;6;
2;Australia;Queensland;Wanetta;;142.1602778;-10.5669444;6;
2;Australia;Queensland;Wangary;;148.7166667;-26.5166667;6;
2;Australia;Queensland;Wanko;;145.9;-26.5833333;6;
2;Australia;Queensland;Wanora;;152.6666667;-27.5166667;6;
2;Australia;Queensland;Wanuran;;152.8666667;-27.0333333;6;
2;Australia;Queensland;Waraperta;;152.6333333;-27.9;6;
2;Australia;Queensland;Warmga;;151.4666667;-26.9666667;6;
2;Australia;Queensland;Waroula;;150.3333333;-23.3;6;
2;Australia;Queensland;Warra;;150.9166667;-26.9333333;6;
2;Australia;Queensland;Warrbullen;;146.0166667;-17.7;6;
2;Australia;Queensland;Warren;;150.2833333;-23.5;6;
2;Australia;Queensland;Warrubullen;;146.0166667;-17.7;6;
2;Australia;Queensland;Warumkarie;;152.6166667;-27.9666667;6;
2;Australia;Queensland;Warwick;;152.0166667;-28.2333333;6;
2;Australia;Queensland;Wasaga;;142.2458333;-10.5958333;6;
2;Australia;Queensland;Watalgan;;152.0333333;-24.65;6;
2;Australia;Queensland;Waterford;;153.15;-27.7;6;
2;Australia;Queensland;Watsonville;;145.3166667;-17.3833333;6;
2;Australia;Queensland;Wattle Park;;149.3166667;-26.3166667;6;
2;Australia;Queensland;Waughs Pocket;;145.95;-17.4333333;6;
2;Australia;Queensland;Weerimba;;145.6;-17.3;6;
2;Australia;Queensland;Weipa;;141.8666667;-12.6666667;6;
2;Australia;Queensland;Weithem;;152.05;-25.0166667;6;
2;Australia;Queensland;Weithew;;152.05;-25.0166667;6;
2;Australia;Queensland;Welford Lagoon;;143.6666667;-25.05;6;
2;Australia;Queensland;Welford;;143.7166667;-25.1166667;6;
2;Australia;Queensland;Wellcamp;;151.8666667;-27.55;6;
2;Australia;Queensland;Wellers Hill;;153.05;-27.5333333;6;
2;Australia;Queensland;Wellington Point;;153.25;-27.4833333;6;
2;Australia;Queensland;Welltown;;149.75;-28.45;6;
2;Australia;Queensland;Wengenville;;151.7;-26.8333333;6;
2;Australia;Queensland;Wenlock;;142.9666667;-13.1;6;
2;Australia;Queensland;Weranga;;150.7333333;-27.3166667;6;
2;Australia;Queensland;West Burleigh;;153.4333333;-28.1166667;6;
2;Australia;Queensland;West Hill;;149.3666667;-21.8;6;
2;Australia;Queensland;West Talgai;;151.9;-28.0333333;6;
2;Australia;Queensland;Westbrook;;151.8666667;-27.6166667;6;
2;Australia;Queensland;Westcourt;;150.15;-26.8;6;
2;Australia;Queensland;Westwood;;150.15;-23.6166667;6;
2;Australia;Queensland;Wetalla;;151.9333333;-27.5;6;
2;Australia;Queensland;Wetheron;;151.7166667;-25.55;6;
2;Australia;Queensland;Wheatvale;;151.8833333;-28.1666667;6;
2;Australia;Queensland;Whetstone;;150.9333333;-28.5;6;
2;Australia;Queensland;White Rock;;145.75;-16.9833333;6;
2;Australia;Queensland;Whitewood;;143.6;-21.4833333;6;
2;Australia;Queensland;Wieambilla;;150.5;-27.0166667;6;
2;Australia;Queensland;Wietalaba;;151.2833333;-24.3;6;
2;Australia;Queensland;Wilkesdale;;151.65;-26.3666667;6;
2;Australia;Queensland;Willowburn;;151.95;-27.5333333;6;
2;Australia;Queensland;Willows;;147.4833333;-23.65;6;
2;Australia;Queensland;Wilsons Plains;;152.65;-27.8333333;6;
2;Australia;Queensland;Wilsons;;152.65;-27.8333333;6;
2;Australia;Queensland;Windaroo;;153.2;-27.7333333;6;
2;Australia;Queensland;Windera;;151.8333333;-26.05;6;
2;Australia;Queensland;Windermere;;152.45;-24.85;6;
2;Australia;Queensland;Windorah;;142.65;-25.4333333;6;
2;Australia;Queensland;Winhaven;;145.6833333;-22.9666667;6;
2;Australia;Queensland;Winton;;143.0333333;-22.4;6;
2;Australia;Queensland;Winwill;;152.2166667;-27.6;6;
2;Australia;Queensland;Withersfield;;147.5666667;-23.5666667;6;
2;Australia;Queensland;Witta;;152.8166667;-26.7;6;
2;Australia;Queensland;Wiyarra;;152.2333333;-28.2666667;6;
2;Australia;Queensland;Wolca;;151.6;-25.1166667;6;
2;Australia;Queensland;Woleebee;;149.8166667;-26.3333333;6;
2;Australia;Queensland;Wolfdene;;153.1833333;-27.7833333;6;
2;Australia;Queensland;Wolfram;;144.9666667;-17.1;6;
2;Australia;Queensland;Wollingford;;149;-21.15;6;
2;Australia;Queensland;Wolston;;152.9333333;-27.5833333;6;
2;Australia;Queensland;Wolvi;;152.8333333;-26.1666667;6;
2;Australia;Queensland;Womalilla;;147.8333333;-26.5;6;
2;Australia;Queensland;Wombye;;152.9666667;-26.6666667;6;
2;Australia;Queensland;Womina;;152.05;-28.1833333;6;
2;Australia;Queensland;Wonbah;;151.65;-25.1;6;
2;Australia;Queensland;Wondai;;151.8666667;-26.3166667;6;
2;Australia;Queensland;Wondecla;;145.4;-17.4166667;6;
2;Australia;Queensland;Wondoan;;149.95;-26.1333333;6;
2;Australia;Queensland;Wonga;;152.2166667;-28.0166667;6;
2;Australia;Queensland;Wongabel;;145.4833333;-17.3166667;6;
2;Australia;Queensland;Wongalee;;151.0166667;-24.7333333;6;
2;Australia;Queensland;Wongun;;152.9333333;-27.3666667;6;
2;Australia;Queensland;Woodbine;;152.1833333;-27.7833333;6;
2;Australia;Queensland;Woodford;;152.7833333;-26.95;6;
2;Australia;Queensland;Woodgate;;152.55;-25.1;6;
2;Australia;Queensland;Woodhill;;152.9666667;-27.9;6;
2;Australia;Queensland;Woodleighton;;151.6833333;-27.0833333;6;
2;Australia;Queensland;Woodridge;;153.1;-27.6333333;6;
2;Australia;Queensland;Woodstock;;146.8333333;-19.6;6;
2;Australia;Queensland;Woolgar;;143.2833333;-19.8;6;
2;Australia;Queensland;Woolmer;;151.9166667;-27.45;6;
2;Australia;Queensland;Woolooga;;152.4;-26.05;6;
2;Australia;Queensland;Woolton;;150.2666667;-24.9166667;6;
2;Australia;Queensland;Woombye;;152.9666667;-26.6666667;6;
2;Australia;Queensland;Woondum;;152.7333333;-26.25;6;
2;Australia;Queensland;Woongoolba;;153.3333333;-27.75;6;
2;Australia;Queensland;Woorabinda;;149.4666667;-24.15;6;
2;Australia;Queensland;Woorim;;153.2166667;-27.0666667;6;
2;Australia;Queensland;Wooroolin;;151.8166667;-26.4166667;6;
2;Australia;Queensland;Wooroorooka;;145.7166667;-29;6;
2;Australia;Queensland;Woree;;145.75;-16.95;6;
2;Australia;Queensland;Worongary;;153.35;-28.05;6;
2;Australia;Queensland;Wowan;;150.1833333;-23.9166667;6;
2;Australia;Queensland;Wujal Wjual;;145.3;-15.9333333;6;
2;Australia;Queensland;Wulkuraka;;152.7333333;-27.6166667;6;
2;Australia;Queensland;Wumalgi;;149.5666667;-22.4833333;6;
2;Australia;Queensland;Wundaru;;149.0666667;-21.0833333;6;
2;Australia;Queensland;Wura;;150.3333333;-23.8166667;6;
2;Australia;Queensland;Wutul;;151.8;-27.0333333;6;
2;Australia;Queensland;Wyampa;;153.0333333;-27.3;6;
2;Australia;Queensland;Wyandra;;145.9833333;-27.25;6;
2;Australia;Queensland;Wyber;;151.8666667;-28.85;6;
2;Australia;Queensland;Wyberba;;151.8666667;-28.85;6;
2;Australia;Queensland;Wycarbah;;150.2166667;-23.55;6;
2;Australia;Queensland;Wynnum;;153.1666667;-27.45;6;
2;Australia;Queensland;Wyreema;;151.8666667;-27.65;6;
2;Australia;Queensland;Yaamba;;150.3666667;-23.1333333;6;
2;Australia;Queensland;Yadjin;;145.5166667;-17.2166667;6;
2;Australia;Queensland;Yakapari;;149;-21.0666667;6;
2;Australia;Queensland;Yalangur;;151.8333333;-27.4166667;6;
2;Australia;Queensland;Yalbaroo;;148.65;-20.8333333;6;
2;Australia;Queensland;Yalboroo;;148.65;-20.8333333;6;
2;Australia;Queensland;Yalbroo;;148.65;-20.8333333;6;
2;Australia;Queensland;Yalleroi;;145.7666667;-24.0833333;6;
2;Australia;Queensland;Yamala;;148.3666667;-23.5833333;6;
2;Australia;Queensland;Yamsion;;151.5833333;-26.9833333;6;
2;Australia;Queensland;Yandaran;;152.1166667;-24.7166667;6;
2;Australia;Queensland;Yandilla;;151.3666667;-27.85;6;
2;Australia;Queensland;Yandina;;152.9666667;-26.5666667;6;
2;Australia;Queensland;Yangan;;152.2;-28.1833333;6;
2;Australia;Queensland;Yanna;;146.05;-26.9333333;6;
2;Australia;Queensland;Yaraka;;144.0833333;-24.8833333;6;
2;Australia;Queensland;Yargullen;;151.65;-27.5;6;
2;Australia;Queensland;Yarrabah Aboriginal Community;;145.85;-16.9166667;6;
2;Australia;Queensland;Yarraden;;143.2166667;-14.4666667;6;
2;Australia;Queensland;Yarraman;;151.9833333;-26.8333333;6;
2;Australia;Queensland;Yarranlea;;151.5333333;-27.7333333;6;
2;Australia;Queensland;Yarwun;;151.1166667;-23.85;6;
2;Australia;Queensland;Yatala;;153.2166667;-27.7166667;6;
2;Australia;Queensland;Yatee;;145.7666667;-17.05;6;
2;Australia;Queensland;Yednia;;152.4666667;-26.7666667;6;
2;Australia;Queensland;Yekibin;;153.0333333;-27.5166667;6;
2;Australia;Queensland;Yelarbon;;150.75;-28.5666667;6;
2;Australia;Queensland;Yengarie;;152.6166667;-25.5666667;6;
2;Australia;Queensland;Yeppen;;150.5;-23.4166667;6;
2;Australia;Queensland;Yeppoon;;150.7333333;-23.1333333;6;
2;Australia;Queensland;Yerra;;152.5333333;-25.6166667;6;
2;Australia;Queensland;Yeulba;;149.3833333;-26.6166667;6;
2;Australia;Queensland;Yimbun;;152.3666667;-27.0333333;6;
2;Australia;Queensland;Yingerabay;;148.65;-26.4333333;6;
2;Australia;Queensland;Yingerbay;;148.65;-26.4333333;6;
2;Australia;Queensland;Yorkeys Knob;;145.7166667;-16.8166667;6;
2;Australia;Queensland;Yuelba;;149.3833333;-26.6166667;6;
2;Australia;Queensland;Yukan;;149.2333333;-21.5166667;6;
2;Australia;Queensland;Yuleba;;149.3833333;-26.6166667;6;
2;Australia;Queensland;Yulebah;;149.3833333;-26.6166667;6;
2;Australia;Queensland;Yumbabullo;;148.2833333;-20.0333333;6;
2;Australia;Queensland;Yungaburra;;145.5833333;-17.2833333;6;
2;Australia;Queensland;Yuraraba;;151.4;-28.3333333;6;
2;Australia;Queensland;Yuruga;;146.1666667;-18.8333333;6;
