"Level";"Country";"State";"Place";"void";"Longitude";"Latitude";"ZoomLevel";"Icon"
1;Australia;New South Wales;;;145.9;-32.1;6;
2;Australia;New South Wales;Abbotsford;;151.1333333;-33.85;6;
2;Australia;New South Wales;Abercrombie;;149.3166667;-33.95;6;
2;Australia;New South Wales;Aberdare;;151.3666667;-32.8333333;6;
2;Australia;New South Wales;Aberdeen;;150.9;-32.1666667;6;
2;Australia;New South Wales;Aberfoyle;;152.0166667;-30.2666667;6;
2;Australia;New South Wales;Aberglasslyn;;151.5333333;-32.7;6;
2;Australia;New South Wales;Abermain;;151.4333333;-32.8166667;6;
2;Australia;New South Wales;Abernethy;;151.4;-32.9;6;
2;Australia;New South Wales;Abington Creek;;151.1833333;-30.2833333;6;
2;Australia;New South Wales;Abington;;151.1833333;-30.2833333;6;
2;Australia;New South Wales;Acacia Creek;;152.3166667;-28.3833333;6;
2;Australia;New South Wales;Adaminaby;;148.7166667;-36.05;6;
2;Australia;New South Wales;Adelong;;148.05;-35.3166667;6;
2;Australia;New South Wales;Adjungbilly;;148.3833333;-35.1;6;
2;Australia;New South Wales;Afterlee;;152.8166667;-28.5833333;6;
2;Australia;New South Wales;Alagala;;147.7;-32.4;6;
2;Australia;New South Wales;Albert;;147.5;-32.35;6;
2;Australia;New South Wales;Albion Park;;150.7833333;-34.5666667;6;
2;Australia;New South Wales;Albury;;146.9166667;-36.0833333;6;
2;Australia;New South Wales;Aldavilla;;152.7666667;-31.0833333;6;
2;Australia;New South Wales;Alectown;;148.25;-32.9333333;6;
2;Australia;New South Wales;Alfred Town;;147.5166667;-35.1666667;6;
2;Australia;New South Wales;Algalah;;147.7;-32.4;6;
2;Australia;New South Wales;Alice;;152.5833333;-29.05;6;
2;Australia;New South Wales;Allandale;;149.7;-33.1666667;6;
2;Australia;New South Wales;Alleena;;147.1333333;-34.0833333;6;
2;Australia;New South Wales;Allworth;;151.95;-32.55;6;
2;Australia;New South Wales;Alpine;;150.5166667;-34.4166667;6;
2;Australia;New South Wales;Alston;;148.9833333;-33.9833333;6;
2;Australia;New South Wales;Alstonville;;153.4333333;-28.8333333;6;
2;Australia;New South Wales;Alumny Creek;;152.95;-29.65;6;
2;Australia;New South Wales;Alumy Creek;;152.95;-29.65;6;
2;Australia;New South Wales;Amaroo;;148.9333333;-33.1833333;6;
2;Australia;New South Wales;Amosfield;;152.0666667;-28.65;6;
2;Australia;New South Wales;Ando;;149.25;-36.7166667;6;
2;Australia;New South Wales;Angledale;;149.8833333;-36.6166667;6;
2;Australia;New South Wales;Angledool;;147.9333333;-29.1166667;6;
2;Australia;New South Wales;Anna Bay;;152.0666667;-32.7666667;6;
2;Australia;New South Wales;Annalera;;143.9833333;-31.2833333;6;
2;Australia;New South Wales;Annandale;;151.1666667;-33.8833333;6;
2;Australia;New South Wales;Annelera;;143.9833333;-31.2833333;6;
2;Australia;New South Wales;Appin;;150.7833333;-34.2;6;
2;Australia;New South Wales;Apple Tree Flat;;149.7;-32.6833333;6;
2;Australia;New South Wales;Appleby;;150.85;-30.9666667;6;
2;Australia;New South Wales;Applecross;;115.8333333;-32.0166667;6;
2;Australia;New South Wales;Apsley;;148.9833333;-32.6;6;
2;Australia;New South Wales;Arable;;149.0333333;-36.35;6;
2;Australia;New South Wales;Arajoel;;146.8833333;-35.0333333;6;
2;Australia;New South Wales;Arakoon;;153.0666667;-30.9;6;
2;Australia;New South Wales;Araluen West;;149.8;-35.6166667;6;
2;Australia;New South Wales;Araluen;;149.8;-35.6166667;6;
2;Australia;New South Wales;Arcadia;;151.0333333;-33.6166667;6;
2;Australia;New South Wales;Ardglen;;150.7833333;-31.75;6;
2;Australia;New South Wales;Arding;;151.55;-30.5666667;6;
2;Australia;New South Wales;Ardlethan;;146.9;-34.35;6;
2;Australia;New South Wales;Argalong;;148.4333333;-35.3;6;
2;Australia;New South Wales;Argents Hill;;152.75;-30.6166667;6;
2;Australia;New South Wales;Argoon;;145.7;-34.9166667;6;
2;Australia;New South Wales;Ariah Park;;147.2166667;-34.35;6;
2;Australia;New South Wales;Armatree;;148.4666667;-31.4333333;6;
2;Australia;New South Wales;Armidale;;151.65;-30.5166667;6;
2;Australia;New South Wales;Artarman;;151.1833333;-33.8166667;6;
2;Australia;New South Wales;Artarmon;;151.1833333;-33.8166667;6;
2;Australia;New South Wales;Arthur;;149.3333333;-33.8166667;6;
2;Australia;New South Wales;Arthurs Seat;;151.0666667;-29.4;6;
2;Australia;New South Wales;Arthurville;;148.75;-32.5666667;6;
2;Australia;New South Wales;Ashbridge;;146.9666667;-34.6666667;6;
2;Australia;New South Wales;Ashby;;153.1833333;-29.4333333;6;
2;Australia;New South Wales;Ashfield;;151.1166667;-33.8833333;6;
2;Australia;New South Wales;Ashford;;151.1;-29.3333333;6;
2;Australia;New South Wales;Ashley;;149.8166667;-29.3166667;6;
2;Australia;New South Wales;Asquith;;151.1;-33.6833333;6;
2;Australia;New South Wales;Athol Glen;;153.0333333;-30.0333333;6;
2;Australia;New South Wales;Athol;;149.3;-33.55;6;
2;Australia;New South Wales;Atholwood;;151.05;-29.0166667;6;
2;Australia;New South Wales;Attunga;;150.8333333;-30.9333333;6;
2;Australia;New South Wales;Auburn Vale;;151.0333333;-29.8333333;6;
2;Australia;New South Wales;Auburn;;151.0333333;-33.85;6;
2;Australia;New South Wales;Austinmer;;150.9166667;-34.3;6;
2;Australia;New South Wales;Austral Eden;;152.9166667;-31.0333333;6;
2;Australia;New South Wales;Avalon;;151.3333333;-33.6333333;6;
2;Australia;New South Wales;Avenel;;148.7666667;-33.4166667;6;
2;Australia;New South Wales;Avisford;;149.4833333;-32.75;6;
2;Australia;New South Wales;Avoca Beach;;151.4333333;-33.4666667;6;
2;Australia;New South Wales;Avon Dam;;150.6333333;-34.35;6;
2;Australia;New South Wales;Awaba;;151.55;-33.0166667;6;
2;Australia;New South Wales;Aylmerton;;150.5166667;-34.4166667;6;
2;Australia;New South Wales;Baan Baa;;149.9333333;-30.6;6;
2;Australia;New South Wales;Backmede;;153.0166667;-28.75;6;
2;Australia;New South Wales;Backnede;;153.0166667;-28.75;6;
2;Australia;New South Wales;Backwater;;151.8833333;-30.0666667;6;
2;Australia;New South Wales;Badjerribong;;147.7;-33.35;6;
2;Australia;New South Wales;Baerami Creek;;150.4666667;-32.5;6;
2;Australia;New South Wales;Baerami;;150.4833333;-32.4;6;
2;Australia;New South Wales;Bagnoo;;152.5333333;-31.4666667;6;
2;Australia;New South Wales;Bago;;147.9666667;-35.5666667;6;
2;Australia;New South Wales;Bagotville;;153.4166667;-28.9833333;6;
2;Australia;New South Wales;Bakers Creek;;151.0166667;-30.2666667;6;
2;Australia;New South Wales;Bakers Swamp;;148.9333333;-32.7666667;6;
2;Australia;New South Wales;Bald Hill;;146.8333333;-34.4333333;6;
2;Australia;New South Wales;Bald Hills;;149.1;-36.7;6;
2;Australia;New South Wales;Baldersleigh;;151.4333333;-30.2666667;6;
2;Australia;New South Wales;Baldry;;148.5;-32.8666667;6;
2;Australia;New South Wales;Baldwin;;150.6;-30.8166667;6;
2;Australia;New South Wales;Balgowlah;;151.2666667;-33.8;6;
2;Australia;New South Wales;Balgownie;;150.9;-34.4;6;
2;Australia;New South Wales;Balladoran;;148.6666667;-31.8666667;6;
2;Australia;New South Wales;Balldale;;146.5166667;-35.85;6;
2;Australia;New South Wales;Ballengarra;;152.75;-31.3166667;6;
2;Australia;New South Wales;Ballimore;;148.9;-32.2;6;
2;Australia;New South Wales;Ballina;;153.5666667;-28.8666667;6;
2;Australia;New South Wales;Balmain;;151.1833333;-33.8666667;6;
2;Australia;New South Wales;Balmoral;;150.5166667;-34.2833333;6;
2;Australia;New South Wales;Balranald;;143.5666667;-34.6333333;6;
2;Australia;New South Wales;Bamarong;;150.5333333;-34.9;6;
2;Australia;New South Wales;Bandon;;148.3;-33.5;6;
2;Australia;New South Wales;Bangalow;;153.5166667;-28.7;6;
2;Australia;New South Wales;Bangaroo;;148.6333333;-33.6166667;6;
2;Australia;New South Wales;Bankstown;;151.0333333;-33.9166667;6;
2;Australia;New South Wales;Bannaby;;149.9833333;-34.45;6;
2;Australia;New South Wales;Bannister;;149.4833333;-34.6;6;
2;Australia;New South Wales;Bannockburn;;151.0333333;-29.6166667;6;
2;Australia;New South Wales;Baradine;;149.0666667;-30.9333333;6;
2;Australia;New South Wales;Baratta;;144.5333333;-35.2833333;6;
2;Australia;New South Wales;Barellan;;146.5833333;-34.2833333;6;
2;Australia;New South Wales;Bargo;;150.5833333;-34.3;6;
2;Australia;New South Wales;Barham;;144.1333333;-35.6333333;6;
2;Australia;New South Wales;Barkers Lodge;;150.55;-34.15;6;
2;Australia;New South Wales;Barkers Vale;;153.1166667;-28.5333333;6;
2;Australia;New South Wales;Barmedman;;147.3833333;-34.15;6;
2;Australia;New South Wales;Barnsley;;151.5833333;-32.9333333;6;
2;Australia;New South Wales;Baroma;;150.3166667;-29.1333333;6;
2;Australia;New South Wales;Barooga;;145.7;-35.9166667;6;
2;Australia;New South Wales;Barraba;;150.6;-30.3833333;6;
2;Australia;New South Wales;Barraganyatti;;152.9333333;-30.85;6;
2;Australia;New South Wales;Barrallier;;150.0666667;-34.3166667;6;
2;Australia;New South Wales;Barrengarry;;150.5166667;-34.6833333;6;
2;Australia;New South Wales;Barrington;;151.9;-31.9666667;6;
2;Australia;New South Wales;Barringun;;145.7166667;-29.0166667;6;
2;Australia;New South Wales;Barry;;151.3333333;-31.5833333;6;
2;Australia;New South Wales;Baryulgil;;152.6;-29.2166667;6;
2;Australia;New South Wales;Bass Hill;;151;-33.9666667;6;
2;Australia;New South Wales;Bass Hills;;151;-33.9666667;6;
2;Australia;New South Wales;Bateman;;150.1833333;-35.7166667;6;
2;Australia;New South Wales;Batemans Bay;;150.1833333;-35.7166667;6;
2;Australia;New South Wales;Batemans;;150.1833333;-35.7166667;6;
2;Australia;New South Wales;Bathurst;;149.5666667;-33.4166667;6;
2;Australia;New South Wales;Batlow;;148.1666667;-35.5166667;6;
2;Australia;New South Wales;Baulkham Hills;;151;-33.75;6;
2;Australia;New South Wales;Baw Baw;;149.6666667;-34.75;6;
2;Australia;New South Wales;Bay View;;151.3;-33.6666667;6;
2;Australia;New South Wales;Beaconsfield;;149.75;-33.8333333;6;
2;Australia;New South Wales;Beanbri;;148.4166667;-29.95;6;
2;Australia;New South Wales;Bear Hill;;152.1;-30.0333333;6;
2;Australia;New South Wales;Bearbung;;148.8666667;-31.6333333;6;
2;Australia;New South Wales;Beaumont;;150.5666667;-34.7833333;6;
2;Australia;New South Wales;Beckom;;146.9666667;-34.3333333;6;
2;Australia;New South Wales;Bective;;150.7333333;-30.9833333;6;
2;Australia;New South Wales;Bedgerebong;;147.7;-33.35;6;
2;Australia;New South Wales;Beechwood;;152.6833333;-31.3666667;6;
2;Australia;New South Wales;Beelbangera;;146.1;-34.2666667;6;
2;Australia;New South Wales;Beemunnel;;147.85;-31.6666667;6;
2;Australia;New South Wales;Bega;;149.8333333;-36.6666667;6;
2;Australia;New South Wales;Beggan Beggan;;148.2666667;-34.6833333;6;
2;Australia;New South Wales;Belar Creek;;149.1833333;-31.3833333;6;
2;Australia;New South Wales;Belaringar;;147.5833333;-31.7833333;6;
2;Australia;New South Wales;Belbora;;152.1833333;-32.0333333;6;
2;Australia;New South Wales;Belford;;151.2833333;-32.6666667;6;
2;Australia;New South Wales;Belgravia;;149.05;-33.1166667;6;
2;Australia;New South Wales;Bell;;150.2;-33.5166667;6;
2;Australia;New South Wales;Bellambi;;150.9166667;-34.3666667;6;
2;Australia;New South Wales;Bellangry;;152.6333333;-31.3666667;6;
2;Australia;New South Wales;Bellarwi;;147.2;-34.1;6;
2;Australia;New South Wales;Bellata;;149.7833333;-29.9166667;6;
2;Australia;New South Wales;Bellawongarah;;150.6333333;-34.7666667;6;
2;Australia;New South Wales;Bellbird;;151.3166667;-32.8666667;6;
2;Australia;New South Wales;Bellbrook;;152.5166667;-30.8166667;6;
2;Australia;New South Wales;Bellimbopinni;;152.9166667;-31.0166667;6;
2;Australia;New South Wales;Bellingen;;152.8833333;-30.45;6;
2;Australia;New South Wales;Bells Swamp;;151.1666667;-30.6833333;6;
2;Australia;New South Wales;Belltrees;;151.1333333;-31.9833333;6;
2;Australia;New South Wales;Belmont;;151.6666667;-33.0333333;6;
2;Australia;New South Wales;Belmore River Upper;;152.9833333;-31.1166667;6;
2;Australia;New South Wales;Beloka;;148.7333333;-36.5333333;6;
2;Australia;New South Wales;Belrose;;151.2166667;-33.7333333;6;
2;Australia;New South Wales;Bemboka;;149.5833333;-36.6333333;6;
2;Australia;New South Wales;Ben Bullen;;150.0333333;-33.2166667;6;
2;Australia;New South Wales;Ben Lomond;;151.6666667;-30.0166667;6;
2;Australia;New South Wales;Bena;;147.1333333;-33.5166667;6;
2;Australia;New South Wales;Benandarah;;150.25;-35.6333333;6;
2;Australia;New South Wales;Benanee;;142.8666667;-34.5166667;6;
2;Australia;New South Wales;Bendemeer;;151.1666667;-30.8833333;6;
2;Australia;New South Wales;Bendenine;;148.7666667;-34.65;6;
2;Australia;New South Wales;Bendethera;;149.75;-35.9333333;6;
2;Australia;New South Wales;Bendick Murrell;;148.4333333;-34.1666667;6;
2;Australia;New South Wales;Bendolba;;151.75;-32.35;6;
2;Australia;New South Wales;Bendoura;;149.7;-35.5166667;6;
2;Australia;New South Wales;Beni;;148.7666667;-32.2;6;
2;Australia;New South Wales;Bensville;;151.3833333;-33.5;6;
2;Australia;New South Wales;Bentley;;153.1166667;-28.7666667;6;
2;Australia;New South Wales;Beranghi;;152.9166667;-31.2166667;6;
2;Australia;New South Wales;Beremangra;;148.4833333;-34.8;6;
2;Australia;New South Wales;Berendale;;149.1166667;-34.5333333;6;
2;Australia;New South Wales;Berendebba;;147.75;-33.9333333;6;
2;Australia;New South Wales;Beresfield;;151.65;-32.8;6;
2;Australia;New South Wales;Bergalia;;150.1;-35.9833333;6;
2;Australia;New South Wales;Berkeley Vale;;151.4333333;-33.35;6;
2;Australia;New South Wales;Berkeley;;150.85;-34.4833333;6;
2;Australia;New South Wales;Bermaguee;;150.05;-36.4166667;6;
2;Australia;New South Wales;Bermagui;;150.05;-36.4166667;6;
2;Australia;New South Wales;Berowra;;151.15;-33.6333333;6;
2;Australia;New South Wales;Berrebangalo;;149.1833333;-34.85;6;
2;Australia;New South Wales;Berremangra;;148.4833333;-34.8;6;
2;Australia;New South Wales;Berridale;;148.8333333;-36.3666667;6;
2;Australia;New South Wales;Berrigan;;145.8166667;-35.65;6;
2;Australia;New South Wales;Berrilee;;151.1;-33.6166667;6;
2;Australia;New South Wales;Berrima;;150.3333333;-34.4833333;6;
2;Australia;New South Wales;Berry Park;;151.6666667;-32.7333333;6;
2;Australia;New South Wales;Berry;;150.7;-34.7833333;6;
2;Australia;New South Wales;Berrygil;;150.3;-29.9666667;6;
2;Australia;New South Wales;Beryl;;149.45;-32.35;6;
2;Australia;New South Wales;Bethungra;;147.8666667;-34.7666667;6;
2;Australia;New South Wales;Bevendale;;149.1166667;-34.5333333;6;
2;Australia;New South Wales;Beverley;;151;-30.1;6;
2;Australia;New South Wales;Bexhill;;153.35;-28.7666667;6;
2;Australia;New South Wales;Bexley;;151.1166667;-33.95;6;
2;Australia;New South Wales;Biala;;149.25;-34.6;6;
2;Australia;New South Wales;Bibbenluke;;149.2833333;-36.8333333;6;
2;Australia;New South Wales;Bidden;;148.6666667;-31.5;6;
2;Australia;New South Wales;Biddon;;148.7833333;-31.55;6;
2;Australia;New South Wales;Big Bog;;149.45;-36.6166667;6;
2;Australia;New South Wales;Bigga;;149.15;-34.0833333;6;
2;Australia;New South Wales;Bilambil;;153.4666667;-28.2333333;6;
2;Australia;New South Wales;Billeroy;;148.45;-30.7;6;
2;Australia;New South Wales;Billimari;;148.6166667;-33.6833333;6;
2;Australia;New South Wales;Billinudgel;;153.5333333;-28.5;6;
2;Australia;New South Wales;Bilpin;;150.5333333;-33.5;6;
2;Australia;New South Wales;Bimbaya;;149.7;-36.7166667;6;
2;Australia;New South Wales;Bimbi;;147.95;-34.05;6;
2;Australia;New South Wales;Binalong;;148.65;-34.6666667;6;
2;Australia;New South Wales;Binda;;149.3666667;-34.3333333;6;
2;Australia;New South Wales;Bindogandri;;148.3166667;-33.1333333;6;
2;Australia;New South Wales;Bingara;;150.5666667;-29.8666667;6;
2;Australia;New South Wales;Biniguy;;150.2;-29.5333333;6;
2;Australia;New South Wales;Binna Burra;;153.5;-28.7;6;
2;Australia;New South Wales;Binnaway;;149.4;-31.55;6;
2;Australia;New South Wales;Binya;;146.35;-34.2333333;6;
2;Australia;New South Wales;Birriwa;;149.4666667;-32.1166667;6;
2;Australia;New South Wales;Bismuth;;151.6333333;-29.2666667;6;
2;Australia;New South Wales;Black Mountain;;151.65;-30.3166667;6;
2;Australia;New South Wales;Black Springs;;149.7166667;-33.8666667;6;
2;Australia;New South Wales;Black Swamp;;152.15;-29;6;
2;Australia;New South Wales;Blackheath;;150.2666667;-33.65;6;
2;Australia;New South Wales;Blackmans Point;;152.85;-31.3833333;6;
2;Australia;New South Wales;Blacktown;;150.9166667;-33.7666667;6;
2;Australia;New South Wales;Blackville;;150.2333333;-31.6333333;6;
2;Australia;New South Wales;Blackwall;;151.3166667;-33.5;6;
2;Australia;New South Wales;Blair Athol;;150.2;-30.65;6;
2;Australia;New South Wales;Blair Hill;;151.8;-29.9166667;6;
2;Australia;New South Wales;Blake;;150.1333333;-30.4166667;6;
2;Australia;New South Wales;Blakebrook;;153.2333333;-28.7666667;6;
2;Australia;New South Wales;Bland;;147.6833333;-33.9833333;6;
2;Australia;New South Wales;Blandford;;150.9;-31.8;6;
2;Australia;New South Wales;Blanket Flat;;149.2166667;-34.15;6;
2;Australia;New South Wales;Blaxland;;150.6;-33.75;6;
2;Australia;New South Wales;Blaxlands Flat;;152.7833333;-29.9166667;6;
2;Australia;New South Wales;Blayney;;149.2666667;-33.5333333;6;
2;Australia;New South Wales;Blighty;;145.35;-35.5833333;6;
2;Australia;New South Wales;Bloomfield;;149.1166667;-33.3166667;6;
2;Australia;New South Wales;Blow Clear;;147.1666667;-33.6833333;6;
2;Australia;New South Wales;Blowclear;;147.8666667;-33;6;
2;Australia;New South Wales;Blowering;;148.2666667;-35.45;6;
2;Australia;New South Wales;Blue Knob;;153.1833333;-28.5;6;
2;Australia;New South Wales;Blue Nob;;153.1833333;-28.5;6;
2;Australia;New South Wales;Bluff Rock;;152.0166667;-29.1666667;6;
2;Australia;New South Wales;Boambee;;153.1;-30.35;6;
2;Australia;New South Wales;Boat Harbour;;153.35;-28.3166667;6;
2;Australia;New South Wales;Bobadah;;146.6833333;-32.3166667;6;
2;Australia;New South Wales;Bobby Whitlow;;150.6333333;-29.85;6;
2;Australia;New South Wales;Bobin;;152.2833333;-31.7166667;6;
2;Australia;New South Wales;Bobs Farm;;152.0166667;-32.7666667;6;
2;Australia;New South Wales;Bobundara;;148.9333333;-36.5166667;6;
2;Australia;New South Wales;Bodalla;;150.05;-36.0833333;6;
2;Australia;New South Wales;Bodangora;;149;-32.45;6;
2;Australia;New South Wales;Bogabri;;150.0333333;-30.7;6;
2;Australia;New South Wales;Bogan Gate;;147.8166667;-33.1166667;6;
2;Australia;New South Wales;Boggabilla;;150.35;-28.6166667;6;
2;Australia;New South Wales;Boggabri;;150.0333333;-30.7;6;
2;Australia;New South Wales;Boggy Plain;;149.4833333;-36.1333333;6;
2;Australia;New South Wales;Bogolong;;148.0833333;-33.85;6;
2;Australia;New South Wales;Bohena Creek;;149.7;-30.4166667;6;
2;Australia;New South Wales;Bohena;;149.6333333;-30.5;6;
2;Australia;New South Wales;Bohnock;;152.5666667;-31.95;6;
2;Australia;New South Wales;Bokhara;;147.45;-29.1166667;6;
2;Australia;New South Wales;Bolagamy;;146.9166667;-33.7666667;6;
2;Australia;New South Wales;Bolivia;;151.9666667;-29.3;6;
2;Australia;New South Wales;Boloka;;148.7333333;-36.5333333;6;
2;Australia;New South Wales;Bolong;;150.6666667;-34.85;6;
2;Australia;New South Wales;Bolwarra;;151.5666667;-32.7166667;6;
2;Australia;New South Wales;Bomaderry;;150.6166667;-34.85;6;
2;Australia;New South Wales;Bombala;;149.2333333;-36.9;6;
2;Australia;New South Wales;Bomballa;;149.2333333;-36.9;6;
2;Australia;New South Wales;Bomely;;149.1;-32.0333333;6;
2;Australia;New South Wales;Bomen;;147.4166667;-35.0666667;6;
2;Australia;New South Wales;Bonalbo;;152.6166667;-28.75;6;
2;Australia;New South Wales;Bondi;;151.2666667;-33.8916667;6;
2;Australia;New South Wales;Bongongolong;;148.0666667;-34.9333333;6;
2;Australia;New South Wales;Bonnie Vale;;151.1416667;-34.0833333;6;
2;Australia;New South Wales;Bonshaw;;151.2666667;-29.05;6;
2;Australia;New South Wales;Bonville;;153.0666667;-30.3833333;6;
2;Australia;New South Wales;Booker Bay;;151.35;-33.5166667;6;
2;Australia;New South Wales;Bookham;;148.6333333;-34.8166667;6;
2;Australia;New South Wales;Boolambayte;;152.2666667;-32.4;6;
2;Australia;New South Wales;Boolaroo Racecourse;;151.6166667;-32.95;6;
2;Australia;New South Wales;Boolaroo;;151.6166667;-32.95;6;
2;Australia;New South Wales;Booligal;;144.8833333;-33.8666667;6;
2;Australia;New South Wales;Boolorong;;151.5333333;-30.3166667;6;
2;Australia;New South Wales;Boomanoomana;;145.7833333;-35.8833333;6;
2;Australia;New South Wales;Boomi;;149.5833333;-28.7333333;6;
2;Australia;New South Wales;Boomley;;149.1;-32.0333333;6;
2;Australia;New South Wales;Boomooderie;;153.0166667;-28.9166667;6;
2;Australia;New South Wales;Boona Mount;;147.1666667;-32.6333333;6;
2;Australia;New South Wales;Boonoo Boonoo;;152.1;-28.8833333;6;
2;Australia;New South Wales;Booral;;151.9666667;-32.4833333;6;
2;Australia;New South Wales;Boorga;;145.95;-34.0333333;6;
2;Australia;New South Wales;Boorindal;;146.1333333;-30.35;6;
2;Australia;New South Wales;Boorolong;;151.5333333;-30.3166667;6;
2;Australia;New South Wales;Booroorban;;144.7666667;-34.9333333;6;
2;Australia;New South Wales;Boorowa;;148.7333333;-34.4333333;6;
2;Australia;New South Wales;Boothenba;;148.7;-32.2;6;
2;Australia;New South Wales;Booti-Booti;;152.5166667;-32.3166667;6;
2;Australia;New South Wales;Booyong;;153.45;-28.75;6;
2;Australia;New South Wales;Borambil Creek;;150.5666667;-31.5;6;
2;Australia;New South Wales;Borambil;;147.2833333;-33.1833333;6;
2;Australia;New South Wales;Borambola;;147.6666667;-35.2;6;
2;Australia;New South Wales;Boree Creek;;146.6166667;-35.1166667;6;
2;Australia;New South Wales;Boree;;146.6166667;-35.1166667;6;
2;Australia;New South Wales;Borenore;;148.9666667;-33.25;6;
2;Australia;New South Wales;Boro;;149.6666667;-35.15;6;
2;Australia;New South Wales;Botany;;151.2;-33.9666667;6;
2;Australia;New South Wales;Botobolar;;149.7833333;-32.5166667;6;
2;Australia;New South Wales;Bottle Creek;;152.65;-28.8;6;
2;Australia;New South Wales;Bourke;;145.9333333;-30.1;6;
2;Australia;New South Wales;Bow;;150.2333333;-32.1333333;6;
2;Australia;New South Wales;Bowagamy;;146.9166667;-33.7666667;6;
2;Australia;New South Wales;Bowan Park;;148.8166667;-33.3;6;
2;Australia;New South Wales;Bowenfels;;150.1166667;-33.5166667;6;
2;Australia;New South Wales;Bowling Alley Point;;151.15;-31.3833333;6;
2;Australia;New South Wales;Bowmans Creek;;151.1333333;-32.2666667;6;
2;Australia;New South Wales;Bowning;;148.8166667;-34.7666667;6;
2;Australia;New South Wales;Bowra;;152.85;-30.65;6;
2;Australia;New South Wales;Bowral;;150.4166667;-34.4666667;6;
2;Australia;New South Wales;Bowraville;;152.85;-30.65;6;
2;Australia;New South Wales;Bowthorne;;151.65;-32.7;6;
2;Australia;New South Wales;Box Ridge;;148.8166667;-31.25;6;
2;Australia;New South Wales;Box Tank;;142.2333333;-32.2;6;
2;Australia;New South Wales;Boyben;;149;-31.8333333;6;
2;Australia;New South Wales;Boyd Town;;149.8666667;-37.1;6;
2;Australia;New South Wales;Boydtown;;149.9166667;-37.0833333;6;
2;Australia;New South Wales;Braemar;;150.4833333;-34.4333333;6;
2;Australia;New South Wales;Braidwood;;149.7833333;-35.45;6;
2;Australia;New South Wales;Branga;;151.55;-31.1666667;6;
2;Australia;New South Wales;Branxton;;151.3666667;-32.6666667;6;
2;Australia;New South Wales;Brassi;;144.75;-35.5;6;
2;Australia;New South Wales;Braunstone;;152.9666667;-29.8;6;
2;Australia;New South Wales;Brawlin;;148.0333333;-34.7333333;6;
2;Australia;New South Wales;Brays Creek;;153.2;-28.4;6;
2;Australia;New South Wales;Breadalbane;;149.4833333;-34.8;6;
2;Australia;New South Wales;Breakfast Creek;;148.75;-34.1166667;6;
2;Australia;New South Wales;Bredalbane;;149.4833333;-34.8;6;
2;Australia;New South Wales;Bredbo;;149.15;-35.95;6;
2;Australia;New South Wales;Breelong;;148.7833333;-31.8166667;6;
2;Australia;New South Wales;Breeza;;150.4666667;-31.25;6;
2;Australia;New South Wales;Brewarrina;;146.8666667;-29.95;6;
2;Australia;New South Wales;Brewer;;146.1333333;-33.4333333;6;
2;Australia;New South Wales;Brewongle;;149.7166667;-33.4833333;6;
2;Australia;New South Wales;Bribbaree;;147.8666667;-34.1166667;6;
2;Australia;New South Wales;Bridgemans;;151.1666667;-32.45;6;
2;Australia;New South Wales;Bridgman;;151.1666667;-32.45;6;
2;Australia;New South Wales;Brierfield;;152.9;-30.5;6;
2;Australia;New South Wales;Brigalow;;148.7833333;-31.1666667;6;
2;Australia;New South Wales;Briggsvale;;152.7833333;-30.25;6;
2;Australia;New South Wales;Brindabella;;148.7333333;-35.4;6;
2;Australia;New South Wales;Bringagee;;145.7;-34.45;6;
2;Australia;New South Wales;Bringelly;;150.7333333;-33.9333333;6;
2;Australia;New South Wales;Bringle;;148.7833333;-31.4166667;6;
2;Australia;New South Wales;Broadmeadows;;152.3;-29.85;6;
2;Australia;New South Wales;Broadwater;;153.45;-29.0166667;6;
2;Australia;New South Wales;Brocklehurst;;148.6333333;-32.1833333;6;
2;Australia;New South Wales;Brocklesby;;146.6833333;-35.8;6;
2;Australia;New South Wales;Brockley;;151.8166667;-30.2833333;6;
2;Australia;New South Wales;Brodies Plains;;151.2166667;-29.8;6;
2;Australia;New South Wales;Brogans Creek;;149.9333333;-33;6;
2;Australia;New South Wales;Brogo;;149.8333333;-36.5333333;6;
2;Australia;New South Wales;Broke;;151.1;-32.75;6;
2;Australia;New South Wales;Broken Hill;;141.4333333;-31.95;6;
2;Australia;New South Wales;Brolgan;;148.0666667;-33.1333333;6;
2;Australia;New South Wales;Brombin;;152.65;-31.4666667;6;
2;Australia;New South Wales;Bronte;;149.8;-34.9833333;6;
2;Australia;New South Wales;Bronti;;149.8;-34.9833333;6;
2;Australia;New South Wales;Brookfield;;151.75;-32.5;6;
2;Australia;New South Wales;Brooklana;;152.85;-30.2666667;6;
2;Australia;New South Wales;Brooklet;;153.5166667;-28.7333333;6;
2;Australia;New South Wales;Brooklyn;;151.2333333;-33.55;6;
2;Australia;New South Wales;Brookong;;146.6333333;-35.2;6;
2;Australia;New South Wales;Brookvale;;151.2666667;-33.7666667;6;
2;Australia;New South Wales;Brooman;;150.25;-35.5;6;
2;Australia;New South Wales;Broughton Vale;;150.7666667;-34.75;6;
2;Australia;New South Wales;Broughton Village;;150.75;-34.7666667;6;
2;Australia;New South Wales;Broughton;;150.7666667;-34.75;6;
2;Australia;New South Wales;Broula;;148.5333333;-33.8666667;6;
2;Australia;New South Wales;Broulee;;150.1833333;-35.8666667;6;
2;Australia;New South Wales;Brownlow Hill;;150.6666667;-34.0333333;6;
2;Australia;New South Wales;Brownsville;;150.8;-34.4833333;6;
2;Australia;New South Wales;Brucedale;;147.4166667;-35.0333333;6;
2;Australia;New South Wales;Brue Plains;;147.85;-32.7833333;6;
2;Australia;New South Wales;Bruie Plains;;147.85;-32.7833333;6;
2;Australia;New South Wales;Brundah;;148.35;-34;6;
2;Australia;New South Wales;Brundee;;150.6833333;-34.9;6;
2;Australia;New South Wales;Brungle;;148.2333333;-35.15;6;
2;Australia;New South Wales;Brunswick Heads;;153.55;-28.55;6;
2;Australia;New South Wales;Brunswick;;153.55;-28.55;6;
2;Australia;New South Wales;Brush Creek;;151.2833333;-33.1666667;6;
2;Australia;New South Wales;Brushgrove;;153.0833333;-29.55;6;
2;Australia;New South Wales;Brushy Hill;;150.95;-32.0333333;6;
2;Australia;New South Wales;Bryans Gap;;152.0833333;-29.0333333;6;
2;Australia;New South Wales;Buccarumbi;;152.5833333;-29.85;6;
2;Australia;New South Wales;Bucca-Wauka;;152.1666667;-32.1;6;
2;Australia;New South Wales;Buckajo;;149.7166667;-36.7166667;6;
2;Australia;New South Wales;Buckaroo;;149.6333333;-32.55;6;
2;Australia;New South Wales;Buckenbowra;;150.0666667;-35.7333333;6;
2;Australia;New South Wales;Buckendoon;;153.3333333;-29.05;6;
2;Australia;New South Wales;Buckinboura;;150.0666667;-35.7333333;6;
2;Australia;New South Wales;Budden;;150.0833333;-32.5;6;
2;Australia;New South Wales;Buddigower;;147.0166667;-34.05;6;
2;Australia;New South Wales;Budgee Budgee;;149.6666667;-32.5333333;6;
2;Australia;New South Wales;Budgewoi;;151.5666667;-33.2333333;6;
2;Australia;New South Wales;Bugaldie;;149.1166667;-31.1333333;6;
2;Australia;New South Wales;Bugilbone;;148.8333333;-30.25;6;
2;Australia;New South Wales;Bukalong;;149.2;-36.8;6;
2;Australia;New South Wales;Bukkulla;;151.1333333;-29.5;6;
2;Australia;New South Wales;Bulahdelah;;152.2166667;-32.4166667;6;
2;Australia;New South Wales;Bulby Brush;;152.2166667;-32.15;6;
2;Australia;New South Wales;Bulga;;151.0166667;-32.6666667;6;
2;Australia;New South Wales;Bulgandramine;;148.1166667;-32.6;6;
2;Australia;New South Wales;Bulgandry;;146.6166667;-35.6166667;6;
2;Australia;New South Wales;Bulgary;;146.9666667;-35.0666667;6;
2;Australia;New South Wales;Bulgong;;152.2833333;-31.6166667;6;
2;Australia;New South Wales;Bullah Delah;;152.2166667;-32.4166667;6;
2;Australia;New South Wales;Bullamalito;;149.75;-34.8833333;6;
2;Australia;New South Wales;Bullawa Creek;;149.9833333;-30.3166667;6;
2;Australia;New South Wales;Bullenbalong;;148.7166667;-36.2666667;6;
2;Australia;New South Wales;Bullenbong;;146.9333333;-35.1666667;6;
2;Australia;New South Wales;Bulli;;150.9166667;-34.3333333;6;
2;Australia;New South Wales;Bulliac;;152.0333333;-31.9166667;6;
2;Australia;New South Wales;Bumbaldry;;148.4666667;-33.9;6;
2;Australia;New South Wales;Bumberry;;148.4833333;-33.2;6;
2;Australia;New South Wales;Bunaloo;;144.5833333;-35.7833333;6;
2;Australia;New South Wales;Bunda North;;145.6833333;-33.65;6;
2;Australia;New South Wales;Bundaburra;;147.7166667;-33.5166667;6;
2;Australia;New South Wales;Bundaburrah;;147.7166667;-33.5166667;6;
2;Australia;New South Wales;Bundannon;;150.5166667;-34.9;6;
2;Australia;New South Wales;Bundanoon;;150.3;-34.65;6;
2;Australia;New South Wales;Bundarra;;151.0666667;-30.1666667;6;
2;Australia;New South Wales;Bundella Creek;;150.05;-31.6666667;6;
2;Australia;New South Wales;Bundella;;149.9833333;-31.5833333;6;
2;Australia;New South Wales;Bundook;;152.1333333;-31.8833333;6;
2;Australia;New South Wales;Bundure;;146;-35.1666667;6;
2;Australia;New South Wales;Bungalow Flat;;151.3333333;-33.25;6;
2;Australia;New South Wales;Bungaree Norah;;151.5666667;-33.2833333;6;
2;Australia;New South Wales;Bungawalbin;;153.2833333;-29.0333333;6;
2;Australia;New South Wales;Bungendore;;149.4333333;-35.25;6;
2;Australia;New South Wales;Bungonia;;149.95;-34.85;6;
2;Australia;New South Wales;Bungowannah;;146.7666667;-36.0166667;6;
2;Australia;New South Wales;Bungulla;;151.9833333;-29.1333333;6;
2;Australia;New South Wales;Bungwahl;;152.45;-32.4;6;
2;Australia;New South Wales;Bunnabunoo;;151.5333333;-32.5;6;
2;Australia;New South Wales;Bunnaby;;149.9833333;-34.45;6;
2;Australia;New South Wales;Bunnaloo;;144.5833333;-35.7833333;6;
2;Australia;New South Wales;Bunnan;;150.5833333;-32.05;6;
2;Australia;New South Wales;Bunyah;;152.2166667;-32.1666667;6;
2;Australia;New South Wales;Buraja;;146.3666667;-35.8666667;6;
2;Australia;New South Wales;Buralyang;;146.7666667;-33.9666667;6;
2;Australia;New South Wales;Buramilong;;148.5;-31.6666667;6;
2;Australia;New South Wales;Burcher;;147.25;-33.5333333;6;
2;Australia;New South Wales;Burdett;;148.6;-33.4166667;6;
2;Australia;New South Wales;Burgooney;;146.5833333;-33.3833333;6;
2;Australia;New South Wales;Burnima;;149.25;-36.8666667;6;
2;Australia;New South Wales;Burns;;141;-32.0833333;6;
2;Australia;New South Wales;Burnt Bridge;;152.8166667;-31.1;6;
2;Australia;New South Wales;Burnt Yards;;149.0166667;-33.5833333;6;
2;Australia;New South Wales;Burradoo;;150.4;-34.5;6;
2;Australia;New South Wales;Burraga;;149.5333333;-33.95;6;
2;Australia;New South Wales;Burragate;;149.6166667;-37;6;
2;Australia;New South Wales;Burragorang;;150.4166667;-34.05;6;
2;Australia;New South Wales;Burrandong;;149.1666667;-32.6833333;6;
2;Australia;New South Wales;Burrapine;;152.6333333;-30.7333333;6;
2;Australia;New South Wales;Burrawang;;150.5166667;-34.6;6;
2;Australia;New South Wales;Burrell Creek;;152.3;-31.9333333;6;
2;Australia;New South Wales;Burren Junction;;148.9666667;-30.1166667;6;
2;Australia;New South Wales;Burrier;;150.4666667;-34.8833333;6;
2;Australia;New South Wales;Burringbar;;153.4833333;-28.4333333;6;
2;Australia;New South Wales;Burrinjuck;;148.6;-35;6;
2;Australia;New South Wales;Burrumbela;;149.95;-35.7833333;6;
2;Australia;New South Wales;Burrumbuttock;;146.7833333;-35.8;6;
2;Australia;New South Wales;Burwood;;151.1;-33.8833333;6;
2;Australia;New South Wales;Busbys Flat;;152.8;-29.0333333;6;
2;Australia;New South Wales;Buxton;;150.5333333;-34.25;6;
2;Australia;New South Wales;Byabarra;;152.55;-31.5333333;6;
2;Australia;New South Wales;Byangum;;153.3666667;-28.35;6;
2;Australia;New South Wales;Byerock;;146.4;-30.65;6;
2;Australia;New South Wales;Bygalorie;;146.8;-33.4666667;6;
2;Australia;New South Wales;Bygoo;;146.8666667;-34.2666667;6;
2;Australia;New South Wales;Bylong;;150.1166667;-32.3333333;6;
2;Australia;New South Wales;Byng;;149.1666667;-33.35;6;
2;Australia;New South Wales;Byrock;;146.4;-30.65;6;
2;Australia;New South Wales;Byron Bay;;153.6166667;-28.65;6;
2;Australia;New South Wales;Byron;;151.1;-29.6833333;6;
2;Australia;New South Wales;Bywong;;149.3333333;-35.1666667;6;
2;Australia;New South Wales;Cadgee;;149.9166667;-36.15;6;
2;Australia;New South Wales;Cadia;;149;-33.4666667;6;
2;Australia;New South Wales;Cadjangarry;;149.85;-36.4333333;6;
2;Australia;New South Wales;Cajildry;;147.3333333;-31.9833333;6;
2;Australia;New South Wales;Cal Lal;;141.0833333;-34.0666667;6;
2;Australia;New South Wales;Calarie;;148.0166667;-33.3333333;6;
2;Australia;New South Wales;Caldwell;;144.5;-35.6333333;6;
2;Australia;New South Wales;Calimpa;;150.15;-29.3666667;6;
2;Australia;New South Wales;Calleen;;147.1;-33.7833333;6;
2;Australia;New South Wales;Callo;;150.0333333;-36.6166667;6;
2;Australia;New South Wales;Caloola;;149.4333333;-33.6;6;
2;Australia;New South Wales;Cambalong;;149.0833333;-36.8166667;6;
2;Australia;New South Wales;Camberwarra;;150.5666667;-34.8333333;6;
2;Australia;New South Wales;Camberwell;;151.0833333;-32.4833333;6;
2;Australia;New South Wales;Camboon;;149.9666667;-32.7166667;6;
2;Australia;New South Wales;Camden Haven;;152.8;-31.65;6;
2;Australia;New South Wales;Camden;;150.7;-34.05;6;
2;Australia;New South Wales;Camira Creek;;152.9666667;-29.25;6;
2;Australia;New South Wales;Camp Creek;;151.0333333;-28.85;6;
2;Australia;New South Wales;Camp Fire;;151.4333333;-31.1833333;6;
2;Australia;New South Wales;Campbellfields;;148.6333333;-34.4333333;6;
2;Australia;New South Wales;Campbelltown South;;150.8166667;-34.1;6;
2;Australia;New South Wales;Campbelltown;;150.8166667;-34.0666667;6;
2;Australia;New South Wales;Camurra;;149.9166667;-29.4;6;
2;Australia;New South Wales;Canbelego;;146.3166667;-31.5666667;6;
2;Australia;New South Wales;Candelo;;149.6833333;-36.7666667;6;
2;Australia;New South Wales;Cangai;;152.4833333;-29.5;6;
2;Australia;New South Wales;Canimbla;;148.5833333;-33.75;6;
2;Australia;New South Wales;Canoblas;;149.0666667;-33.3;6;
2;Australia;New South Wales;Canobolas;;149.0666667;-33.3;6;
2;Australia;New South Wales;Canoelands;;151.0666667;-33.5;6;
2;Australia;New South Wales;Canowindra;;148.6666667;-33.5666667;6;
2;Australia;New South Wales;Canyan Leigh;;150.1;-34.5833333;6;
2;Australia;New South Wales;Canyon Leigh;;150.1;-34.5833333;6;
2;Australia;New South Wales;Capeen;;152.5833333;-28.6666667;6;
2;Australia;New South Wales;Capertee;;149.9833333;-33.15;6;
2;Australia;New South Wales;Captains Flat;;149.4333333;-35.5833333;6;
2;Australia;New South Wales;Carabost;;147.7166667;-35.6;6;
2;Australia;New South Wales;Caragabal;;147.75;-33.8333333;6;
2;Australia;New South Wales;Carcoar;;149.1333333;-33.6;6;
2;Australia;New South Wales;Cardiff;;151.6666667;-32.95;6;
2;Australia;New South Wales;Cargo;;148.8166667;-33.4166667;6;
2;Australia;New South Wales;Carinda;;147.6833333;-30.4666667;6;
2;Australia;New South Wales;Caringbah;;151.1333333;-34.05;6;
2;Australia;New South Wales;Carlingford;;151.05;-33.7833333;6;
2;Australia;New South Wales;Caroda;;150.4;-30;6;
2;Australia;New South Wales;Carool;;153.4166667;-28.2333333;6;
2;Australia;New South Wales;Caroona;;150.4166667;-31.4;6;
2;Australia;New South Wales;Carpina;;146.6833333;-32.3166667;6;
2;Australia;New South Wales;Carrathool;;145.4333333;-34.4166667;6;
2;Australia;New South Wales;Carrick;;149.8833333;-34.7;6;
2;Australia;New South Wales;Carrington;;152.0166667;-32.6666667;6;
2;Australia;New South Wales;Carroll Gap;;150.5333333;-30.9333333;6;
2;Australia;New South Wales;Carroll;;150.4333333;-30.9833333;6;
2;Australia;New South Wales;Carrolls Gap;;150.5333333;-30.9333333;6;
2;Australia;New South Wales;Carrow Brook;;151.3166667;-32.3;6;
2;Australia;New South Wales;Carrs Creek;;152.9333333;-29.65;6;
2;Australia;New South Wales;Cascade;;152.7833333;-30.2333333;6;
2;Australia;New South Wales;Casino;;153.05;-28.8666667;6;
2;Australia;New South Wales;Cassilis;;149.9833333;-32;6;
2;Australia;New South Wales;Castle Doyle;;151.7666667;-30.6166667;6;
2;Australia;New South Wales;Castle Hill;;151;-33.7333333;6;
2;Australia;New South Wales;Castle Mountain;;150.75;-31.5166667;6;
2;Australia;New South Wales;Castlecrag;;151.2166667;-33.8;6;
2;Australia;New South Wales;Cathcart;;149.3666667;-36.8333333;6;
2;Australia;New South Wales;Catherine Hill Bay;;151.6333333;-33.1666667;6;
2;Australia;New South Wales;Cathundral;;147.8333333;-31.9166667;6;
2;Australia;New South Wales;Cawdor;;150.6666667;-34.1;6;
2;Australia;New South Wales;Caweambah;;152.15;-32.6666667;6;
2;Australia;New South Wales;Cawongla;;153.1;-28.6;6;
2;Australia;New South Wales;Cedar Brush;;151.2833333;-33.1666667;6;
2;Australia;New South Wales;Cedar Party Creek;;152.3833333;-31.8;6;
2;Australia;New South Wales;Cedar Point;;153;-28.6833333;6;
2;Australia;New South Wales;Central Bucca;;153.1;-30.2;6;
2;Australia;New South Wales;Central Colo;;150.8333333;-33.4333333;6;
2;Australia;New South Wales;Central Lansdowne;;152.4666667;-31.75;6;
2;Australia;New South Wales;Central Tilba;;150.0666667;-36.3;6;
2;Australia;New South Wales;Cessnock;;151.35;-32.8333333;6;
2;Australia;New South Wales;Chacola;;149.1833333;-36.1166667;6;
2;Australia;New South Wales;Chakola;;149.1833333;-36.1166667;6;
2;Australia;New South Wales;Chambigne;;152.7833333;-29.7333333;6;
2;Australia;New South Wales;Charbon;;149.9666667;-32.8833333;6;
2;Australia;New South Wales;Charlestown;;151.6666667;-32.95;6;
2;Australia;New South Wales;Charleyong;;149.9166667;-35.25;6;
2;Australia;New South Wales;Charlotte Bay;;152.5166667;-32.3333333;6;
2;Australia;New South Wales;Chatham;;152.4833333;-31.9;6;
2;Australia;New South Wales;Chatsbury;;149.8;-34.55;6;
2;Australia;New South Wales;Chatswood;;151.1833333;-33.8;6;
2;Australia;New South Wales;Chatsworth Island;;153.2333333;-29.3833333;6;
2;Australia;New South Wales;Chatsworth;;153.2333333;-29.3833333;6;
2;Australia;New South Wales;Chelmsford;;153.1333333;-28.7;6;
2;Australia;New South Wales;Cherry Tree Hill;;150.9833333;-29.5333333;6;
2;Australia;New South Wales;Chichester;;151.6166667;-32.2;6;
2;Australia;New South Wales;Chinderah;;153.55;-28.2333333;6;
2;Australia;New South Wales;Chipping Norton;;150.95;-33.9;6;
2;Australia;New South Wales;Chittaway Point;;151.45;-33.3166667;6;
2;Australia;New South Wales;Chullora;;151.05;-33.9;6;
2;Australia;New South Wales;City of Greater Wollongong;;150.8833333;-34.4333333;6;
2;Australia;New South Wales;Clairville;;151.7;-29.7166667;6;
2;Australia;New South Wales;Clandulla;;149.9666667;-32.8833333;6;
2;Australia;New South Wales;Clare;;143.9166667;-33.4166667;6;
2;Australia;New South Wales;Clarence Town;;151.7833333;-32.5833333;6;
2;Australia;New South Wales;Clareval;;151.9166667;-32.3166667;6;
2;Australia;New South Wales;Clarevaulx;;151.7;-29.7166667;6;
2;Australia;New South Wales;Clareville;;151.3166667;-33.6333333;6;
2;Australia;New South Wales;Clear Ridge;;147.3;-33.75;6;
2;Australia;New South Wales;Clearfield;;152.9333333;-29.15;6;
2;Australia;New South Wales;Clergate;;149.1333333;-33.1833333;6;
2;Australia;New South Wales;Clifden;;152.9166667;-29.5666667;6;
2;Australia;New South Wales;Clifton;;150.9666667;-34.25;6;
2;Australia;New South Wales;Clive;;151.85;-29.2333333;6;
2;Australia;New South Wales;Clothiers Creek;;153.5;-28.3333333;6;
2;Australia;New South Wales;Clovass;;153.15;-28.8666667;6;
2;Australia;New South Wales;Clovelly;;151.25;-33.9125;6;
2;Australia;New South Wales;Clowery;;146.65;-33.75;6;
2;Australia;New South Wales;Clunes;;153.4;-28.7333333;6;
2;Australia;New South Wales;Clybucca;;152.95;-30.95;6;
2;Australia;New South Wales;Clyde;;151.0166667;-33.8333333;6;
2;Australia;New South Wales;Coalcliff;;150.9833333;-34.25;6;
2;Australia;New South Wales;Coaldale;;152.8;-29.4;6;
2;Australia;New South Wales;Cobar;;145.8166667;-31.5;6;
2;Australia;New South Wales;Cobargo;;149.8833333;-36.3833333;6;
2;Australia;New South Wales;Cobark;;151.7166667;-31.9333333;6;
2;Australia;New South Wales;Cobbadah;;150.5666667;-30.2166667;6;
2;Australia;New South Wales;Cobbadan;;150.5666667;-30.2166667;6;
2;Australia;New South Wales;Cobbitty;;150.6833333;-34.0166667;6;
2;Australia;New South Wales;Cobbity;;150.6833333;-34.0166667;6;
2;Australia;New South Wales;Cobbora;;149.25;-32.0666667;6;
2;Australia;New South Wales;Cobborah;;149.25;-32.0666667;6;
2;Australia;New South Wales;Cockellineena;;146.6333333;-29.6833333;6;
2;Australia;New South Wales;Cockle Creek;;151.6333333;-32.95;6;
2;Australia;New South Wales;Cocomingla;;148.7833333;-34.0333333;6;
2;Australia;New South Wales;Cocumbark;;152.2833333;-32.1;6;
2;Australia;New South Wales;Codrington;;153.2333333;-28.9333333;6;
2;Australia;New South Wales;Coffee Camp;;153.2166667;-28.65;6;
2;Australia;New South Wales;Coffs Harbour;;153.1333333;-30.3;6;
2;Australia;New South Wales;Coila;;150.1;-36.0166667;6;
2;Australia;New South Wales;Coldstream;;153.1333333;-29.5833333;6;
2;Australia;New South Wales;Coledale;;150.95;-34.2833333;6;
2;Australia;New South Wales;Colinroobie;;146.5833333;-34.45;6;
2;Australia;New South Wales;Colinton;;149.1666667;-35.8666667;6;
2;Australia;New South Wales;Collarenebri;;148.5833333;-29.55;6;
2;Australia;New South Wales;Collarindabri;;148.5833333;-29.55;6;
2;Australia;New South Wales;Collaroy Beach;;151.3;-33.7333333;6;
2;Australia;New South Wales;Collaroy;;151.3;-33.7333333;6;
2;Australia;New South Wales;Collector;;149.4333333;-34.9166667;6;
2;Australia;New South Wales;Collerina;;146.6333333;-29.6833333;6;
2;Australia;New South Wales;Collie;;148.3;-31.6666667;6;
2;Australia;New South Wales;Collingullie;;147.1166667;-35.0833333;6;
2;Australia;New South Wales;Collinroobie;;146.5833333;-34.45;6;
2;Australia;New South Wales;Colly Blue;;150.1333333;-31.4666667;6;
2;Australia;New South Wales;Colo Vale;;150.4833333;-34.4;6;
2;Australia;New South Wales;Colo;;150.8333333;-33.4333333;6;
2;Australia;New South Wales;Comara;;152.3833333;-30.8;6;
2;Australia;New South Wales;Combaning;;147.6833333;-34.45;6;
2;Australia;New South Wales;Combara;;148.35;-31.1333333;6;
2;Australia;New South Wales;Comboyne;;152.4833333;-31.6;6;
2;Australia;New South Wales;Come-by-Chance;;148.4833333;-30.3666667;6;
2;Australia;New South Wales;Comleroy Road;;150.6833333;-33.5333333;6;
2;Australia;New South Wales;Comleroy;;150.6833333;-33.5333333;6;
2;Australia;New South Wales;Comma;;149.1333333;-36.2333333;6;
2;Australia;New South Wales;Commissioners Creek;;153.3166667;-28.5;6;
2;Australia;New South Wales;Como;;151.0666667;-34;6;
2;Australia;New South Wales;Comobella;;148.9666667;-32.4;6;
2;Australia;New South Wales;Compton Downs;;146.5666667;-30.4333333;6;
2;Australia;New South Wales;Conargo;;145.15;-35.3166667;6;
2;Australia;New South Wales;Concord;;151.1;-33.8666667;6;
2;Australia;New South Wales;Condobolin;;147.15;-33.0833333;6;
2;Australia;New South Wales;Condong;;153.4333333;-28.3;6;
2;Australia;New South Wales;Condoublin;;147.15;-33.0833333;6;
2;Australia;New South Wales;Condoulpe;;143.5333333;-34.7666667;6;
2;Australia;New South Wales;Congo Park;;150.15;-35.95;6;
2;Australia;New South Wales;Coniston;;150.8833333;-34.45;6;
2;Australia;New South Wales;Conjola;;150.45;-35.2166667;6;
2;Australia;New South Wales;Connells Point;;150.1833333;-35.85;6;
2;Australia;New South Wales;Cooba;;147.8833333;-34.9666667;6;
2;Australia;New South Wales;Coocooboonah;;150.1333333;-31;6;
2;Australia;New South Wales;Coogee;;151.2666667;-33.9166667;6;
2;Australia;New South Wales;Cookamidgera;;148.3;-33.2;6;
2;Australia;New South Wales;Cookardinia;;147.2166667;-35.5666667;6;
2;Australia;New South Wales;Coolabah;;146.7166667;-31.0333333;6;
2;Australia;New South Wales;Coolac;;148.1666667;-34.95;6;
2;Australia;New South Wales;Coolah;;149.7;-31.8333333;6;
2;Australia;New South Wales;Coolalie;;148.9833333;-34.7833333;6;
2;Australia;New South Wales;Coolamateng;;148.8;-36.4;6;
2;Australia;New South Wales;Coolamatong;;148.8;-36.4;6;
2;Australia;New South Wales;Coolamon;;147.2;-34.8333333;6;
2;Australia;New South Wales;Coolangatta;;150.7166667;-34.8666667;6;
2;Australia;New South Wales;Coolatai;;150.75;-29.25;6;
2;Australia;New South Wales;Coolongolook;;152.3166667;-32.2166667;6;
2;Australia;New South Wales;Cooloondurri;;153.0333333;-30.8833333;6;
2;Australia;New South Wales;Coolringdon;;148.9833333;-36.2833333;6;
2;Australia;New South Wales;Cooma;;149.1333333;-36.2333333;6;
2;Australia;New South Wales;Coombell;;152.9666667;-29.0166667;6;
2;Australia;New South Wales;Coonabarabran;;149.2833333;-31.2666667;6;
2;Australia;New South Wales;Coonabarrabran;;149.2833333;-31.2666667;6;
2;Australia;New South Wales;Coonamble;;148.4;-30.95;6;
2;Australia;New South Wales;Coonong;;146.1166667;-35.1333333;6;
2;Australia;New South Wales;Cooper;;149.7166667;-35.0166667;6;
2;Australia;New South Wales;Cooperabung;;152.8;-31.3;6;
2;Australia;New South Wales;Coopernook;;152.6166667;-31.8333333;6;
2;Australia;New South Wales;Coopers Shoot;;153.5833333;-28.6833333;6;
2;Australia;New South Wales;Coorabell Creek;;153.4833333;-28.6333333;6;
2;Australia;New South Wales;Coorabin;;146.2166667;-35.4666667;6;
2;Australia;New South Wales;Cooranbong;;151.4333333;-33.0833333;6;
2;Australia;New South Wales;Coorumbung;;151.4333333;-33.0833333;6;
2;Australia;New South Wales;Cootamundra;;148.0333333;-34.65;6;
2;Australia;New South Wales;Cootamundry;;148.0333333;-34.65;6;
2;Australia;New South Wales;Cootralantra;;148.8666667;-36.2666667;6;
2;Australia;New South Wales;Cooyal;;149.7666667;-32.4666667;6;
2;Australia;New South Wales;Copeland;;151.8333333;-32;6;
2;Australia;New South Wales;Copeton;;151.0166667;-29.9166667;6;
2;Australia;New South Wales;Copmanhurst;;152.7833333;-29.6;6;
2;Australia;New South Wales;Coradgery;;148.0166667;-32.85;6;
2;Australia;New South Wales;Coraki;;153.3;-28.9833333;6;
2;Australia;New South Wales;Coral Ville;;152.7;-31.7833333;6;
2;Australia;New South Wales;Coramba;;153.0166667;-30.2166667;6;
2;Australia;New South Wales;Corang;;150.0166667;-35.2;6;
2;Australia;New South Wales;Coree;;145.4666667;-35.3666667;6;
2;Australia;New South Wales;Coreen;;146.35;-35.7666667;6;
2;Australia;New South Wales;Coreinbob;;147.6333333;-35.2166667;6;
2;Australia;New South Wales;Corella;;150.5;-30.75;6;
2;Australia;New South Wales;Corindi;;153.1666667;-30.0166667;6;
2;Australia;New South Wales;Corndale;;153.3666667;-28.7;6;
2;Australia;New South Wales;Corowa;;146.3833333;-36.0333333;6;
2;Australia;New South Wales;Corrima;;150.9;-34.3666667;6;
2;Australia;New South Wales;Corrimal;;150.9;-34.3666667;6;
2;Australia;New South Wales;Corunna;;150.0833333;-36.2833333;6;
2;Australia;New South Wales;Cotton Vale;;152;-28.55;6;
2;Australia;New South Wales;Cougal;;152.9666667;-28.3666667;6;
2;Australia;New South Wales;Countegany;;149.45;-36.1833333;6;
2;Australia;New South Wales;Courabyra;;148.0333333;-35.7;6;
2;Australia;New South Wales;Courangra;;151.1166667;-33.4666667;6;
2;Australia;New South Wales;Couridjah;;150.55;-34.2333333;6;
2;Australia;New South Wales;Coutts Crossing;;152.9;-29.8333333;6;
2;Australia;New South Wales;Cowper;;153.0833333;-29.5833333;6;
2;Australia;New South Wales;Cowra Creek;;149.3166667;-36.0166667;6;
2;Australia;New South Wales;Cowra;;148.6833333;-33.8333333;6;
2;Australia;New South Wales;Crabbes Creek;;153.5;-28.4666667;6;
2;Australia;New South Wales;Craboon;;149.45;-32.0333333;6;
2;Australia;New South Wales;Craigie;;149.05;-37.0833333;6;
2;Australia;New South Wales;Cranbury;;148.7;-33.4;6;
2;Australia;New South Wales;Craven;;151.9333333;-32.15;6;
2;Australia;New South Wales;Crawford River;;152.1333333;-32.45;6;
2;Australia;New South Wales;Creewah;;149.3666667;-36.75;6;
2;Australia;New South Wales;Crescent Head;;152.9833333;-31.2;6;
2;Australia;New South Wales;Cresford;;151.5666667;-32.4333333;6;
2;Australia;New South Wales;Cringila;;150.8833333;-34.4666667;6;
2;Australia;New South Wales;Croki;;152.6;-31.8833333;6;
2;Australia;New South Wales;Cronulla Beach;;151.15;-34.05;6;
2;Australia;New South Wales;Cronulla;;151.15;-34.05;6;
2;Australia;New South Wales;Crooble;;150.25;-29.2666667;6;
2;Australia;New South Wales;Crookes Valley;;153.3166667;-28.3333333;6;
2;Australia;New South Wales;Crookwell;;149.4666667;-34.4666667;6;
2;Australia;New South Wales;Croppa Creek;;150.3;-29.1333333;6;
2;Australia;New South Wales;Crow Mountain;;150.7666667;-30.4666667;6;
2;Australia;New South Wales;Crowther;;148.4833333;-34.1166667;6;
2;Australia;New South Wales;Croydon;;151.1166667;-33.8833333;6;
2;Australia;New South Wales;Crudine;;149.7;-32.9666667;6;
2;Australia;New South Wales;Cryon;;148.7;-29.9166667;6;
2;Australia;New South Wales;Crystal Creek;;153.3333333;-28.3166667;6;
2;Australia;New South Wales;Cubbaroo;;149.1333333;-30.1666667;6;
2;Australia;New South Wales;Cudal;;148.75;-33.2833333;6;
2;Australia;New South Wales;Cudgegong;;149.8166667;-32.8;6;
2;Australia;New South Wales;Cudgen;;153.55;-28.2666667;6;
2;Australia;New South Wales;Cudgera Creek;;153.5166667;-28.3833333;6;
2;Australia;New South Wales;Cuerindi North;;150.7666667;-30.65;6;
2;Australia;New South Wales;Cuerindi;;150.7833333;-30.7166667;6;
2;Australia;New South Wales;Culcairn;;147.05;-35.6666667;6;
2;Australia;New South Wales;Culgoora;;149.5833333;-30.2833333;6;
2;Australia;New South Wales;Cullen Bullen;;150.0166667;-33.3;6;
2;Australia;New South Wales;Cullenbone;;149.5166667;-32.5;6;
2;Australia;New South Wales;Cullendora;;152.15;-28.45;6;
2;Australia;New South Wales;Cullerin;;149.4166667;-34.7833333;6;
2;Australia;New South Wales;Cullivel;;146.3833333;-35.2666667;6;
2;Australia;New South Wales;Cumbalum;;153.5333333;-28.8166667;6;
2;Australia;New South Wales;Cumbamurra;;148.4833333;-34.6;6;
2;Australia;New South Wales;Cumborah;;147.7833333;-29.7333333;6;
2;Australia;New South Wales;Cummings;;141.3333333;-33.25;6;
2;Australia;New South Wales;Cumnock;;148.7666667;-32.9166667;6;
2;Australia;New South Wales;Cundle Flat;;151.9833333;-31.8166667;6;
2;Australia;New South Wales;Cundle;;152.5333333;-31.9;6;
2;Australia;New South Wales;Cundletown;;152.5333333;-31.9;6;
2;Australia;New South Wales;Curban;;148.6;-31.55;6;
2;Australia;New South Wales;Curl Curl;;151.2916667;-33.7666667;6;
2;Australia;New South Wales;Curlewis;;150.2666667;-31.1166667;6;
2;Australia;New South Wales;Curra Creek;;148.8166667;-32.7166667;6;
2;Australia;New South Wales;Currabubula;;150.7333333;-31.2666667;6;
2;Australia;New South Wales;Curracaback;;151.6333333;-31.6666667;6;
2;Australia;New South Wales;Curraghmohr;;145.6333333;-35.65;6;
2;Australia;New South Wales;Currarong;;150.8166667;-35.0166667;6;
2;Australia;New South Wales;Currathool West;;145.4333333;-34.4166667;6;
2;Australia;New South Wales;Currawananna;;147.0833333;-35.0166667;6;
2;Australia;New South Wales;Currawang;;149.5166667;-34.9833333;6;
2;Australia;New South Wales;Currawarna;;147.0833333;-35.0166667;6;
2;Australia;New South Wales;Currawong;;148.3666667;-34.45;6;
2;Australia;New South Wales;Curricabark;;151.6333333;-31.6666667;6;
2;Australia;New South Wales;Currowan;;150.1666667;-35.5833333;6;
2;Australia;New South Wales;Currowang;;149.5166667;-34.9833333;6;
2;Australia;New South Wales;Currowidgin;;148.8333333;-36.9333333;6;
2;Australia;New South Wales;Daceyville;;151.2333333;-33.9333333;6;
2;Australia;New South Wales;Dairyville;;152.9666667;-30.2666667;6;
2;Australia;New South Wales;Daisy Park;;147.7833333;-33.25;6;
2;Australia;New South Wales;Dales Creek;;150.4166667;-31.9666667;6;
2;Australia;New South Wales;Dalgety;;148.8333333;-36.5;6;
2;Australia;New South Wales;Dalkeith;;149.9666667;-32;6;
2;Australia;New South Wales;Dalmorton;;152.45;-29.8666667;6;
2;Australia;New South Wales;Dalton;;149.1833333;-34.7166667;6;
2;Australia;New South Wales;Dandaloo;;147.6333333;-32.2833333;6;
2;Australia;New South Wales;Dangarsleigh;;151.6833333;-30.6;6;
2;Australia;New South Wales;Dapper;;149.2333333;-32.2166667;6;
2;Australia;New South Wales;Dapto;;150.7833333;-34.5;6;
2;Australia;New South Wales;Darawank;;152.4833333;-32.1333333;6;
2;Australia;New South Wales;Darbalara;;148.2;-35.0166667;6;
2;Australia;New South Wales;Dareton;;142.05;-34.1;6;
2;Australia;New South Wales;Dark Corner;;149.8666667;-33.3333333;6;
2;Australia;New South Wales;Darlington Point;;146;-34.5666667;6;
2;Australia;New South Wales;Daroobalgie;;148.0666667;-33.3333333;6;
2;Australia;New South Wales;Darouble;;147.1666667;-31.6833333;6;
2;Australia;New South Wales;Darralume;;148.6666667;-32.1166667;6;
2;Australia;New South Wales;Davidson;;151.2;-33.7333333;6;
2;Australia;New South Wales;Davistown;;151.3666667;-33.4833333;6;
2;Australia;New South Wales;Daysdale;;146.3;-35.65;6;
2;Australia;New South Wales;Deep Creek;;149.8333333;-30.3666667;6;
2;Australia;New South Wales;Deepwater;;151.85;-29.4333333;6;
2;Australia;New South Wales;Deer Park;;151.0972222;-34.0666667;6;
2;Australia;New South Wales;Deer Vale;;152.55;-30.35;6;
2;Australia;New South Wales;Deewhy;;151.3;-33.75;6;
2;Australia;New South Wales;Delegate;;148.9333333;-37.05;6;
2;Australia;New South Wales;Delungra;;150.8333333;-29.6666667;6;
2;Australia;New South Wales;Deniliquin;;144.9666667;-35.5333333;6;
2;Australia;New South Wales;Denison;;148.6166667;-35.95;6;
2;Australia;New South Wales;Denman;;150.6833333;-32.3833333;6;
2;Australia;New South Wales;Derriwong;;147.3333333;-33.1;6;
2;Australia;New South Wales;Dignams Creek;;149.9666667;-36.35;6;
2;Australia;New South Wales;Dilga;;148.6166667;-32.9333333;6;
2;Australia;New South Wales;Dilkoon;;152.9833333;-29.5;6;
2;Australia;New South Wales;Dingo Creek;;152.3;-31.8333333;6;
2;Australia;New South Wales;Dinoga;;150.6;-29.9666667;6;
2;Australia;New South Wales;Dirrung;;145.5333333;-33.6;6;
2;Australia;New South Wales;Dobies Bight;;152.95;-28.8166667;6;
2;Australia;New South Wales;Donald;;151.7333333;-30.4333333;6;
2;Australia;New South Wales;Doon Doon;;153.3;-28.5166667;6;
2;Australia;New South Wales;Doonside;;150.8666667;-33.7666667;6;
2;Australia;New South Wales;Dooralong;;151.35;-33.1833333;6;
2;Australia;New South Wales;Dora Creek;;151.5;-33.0833333;6;
2;Australia;New South Wales;Dorrigo North;;152.6833333;-30.2833333;6;
2;Australia;New South Wales;Dorrigo;;152.7;-30.3333333;6;
2;Australia;New South Wales;Dorroughby;;153.35;-28.6666667;6;
2;Australia;New South Wales;Doubtful Creek;;152.9166667;-28.7666667;6;
2;Australia;New South Wales;Douglas Park;;150.7166667;-34.1833333;6;
2;Australia;New South Wales;Downside;;147.35;-35;6;
2;Australia;New South Wales;Doyles Creek;;150.7833333;-32.5333333;6;
2;Australia;New South Wales;Drake;;152.4;-28.9333333;6;
2;Australia;New South Wales;Drill Creek;;149.0666667;-32.3666667;6;
2;Australia;New South Wales;Dripstone;;149;-32.65;6;
2;Australia;New South Wales;Dromore;;143.85;-32.3;6;
2;Australia;New South Wales;Dry Plain;;148.8666667;-36.1166667;6;
2;Australia;New South Wales;Dry Plains;;148.8666667;-36.1166667;6;
2;Australia;New South Wales;Dubbo;;148.6166667;-32.25;6;
2;Australia;New South Wales;Duckenfield;;151.6833333;-32.7333333;6;
2;Australia;New South Wales;Dudauman;;147.9;-34.5833333;6;
2;Australia;New South Wales;Dum Dum;;153.3333333;-28.3833333;6;
2;Australia;New South Wales;Dumaresq;;151.5833333;-30.4666667;6;
2;Australia;New South Wales;Dunbible Creek;;153.4;-28.3833333;6;
2;Australia;New South Wales;Dunbogan;;152.8166667;-31.65;6;
2;Australia;New South Wales;Duncans Creek;;151.2;-31.3666667;6;
2;Australia;New South Wales;Dundarbang;;148.9833333;-33;6;
2;Australia;New South Wales;Dundauman;;147.9;-34.5833333;6;
2;Australia;New South Wales;Dundee;;151.8333333;-29.5666667;6;
2;Australia;New South Wales;Dundurrabin;;152.5333333;-30.2;6;
2;Australia;New South Wales;Dunedoo;;149.4;-32.0166667;6;
2;Australia;New South Wales;Dungaree;;149.8666667;-32.6666667;6;
2;Australia;New South Wales;Dungarubba;;153.3833333;-28.9833333;6;
2;Australia;New South Wales;Dungay;;153.3666667;-28.2833333;6;
2;Australia;New South Wales;Dungog;;151.7666667;-32.4166667;6;
2;Australia;New South Wales;Dungowan;;151.1;-31.2166667;6;
2;Australia;New South Wales;Dunkeld;;149.4833333;-33.4166667;6;
2;Australia;New South Wales;Dunmore;;150.85;-34.6;6;
2;Australia;New South Wales;Dunnee;;150.4333333;-30.2;6;
2;Australia;New South Wales;Dunns Creek;;151.6333333;-32.6333333;6;
2;Australia;New South Wales;Dunoon;;153.3333333;-28.6833333;6;
2;Australia;New South Wales;Dunvegan;;153.0166667;-30.2833333;6;
2;Australia;New South Wales;Dural;;151.0166667;-33.6833333;6;
2;Australia;New South Wales;Duranbah;;153.5333333;-28.3166667;6;
2;Australia;New South Wales;Duri;;150.8166667;-31.2166667;6;
2;Australia;New South Wales;Durras;;150.3;-35.6666667;6;
2;Australia;New South Wales;Durren Durren;;151.4;-33.2;6;
2;Australia;New South Wales;Durrumbul;;153.45;-28.5166667;6;
2;Australia;New South Wales;Durrumbull;;153.45;-28.5166667;6;
2;Australia;New South Wales;Dyers Crossing;;152.3;-32.1;6;
2;Australia;New South Wales;Earlwood;;151.1;-33.95;6;
2;Australia;New South Wales;East Ballina;;153.5833333;-28.8666667;6;
2;Australia;New South Wales;East Boyd Town;;149.9333333;-37.0666667;6;
2;Australia;New South Wales;East Boyd;;149.9333333;-37.0666667;6;
2;Australia;New South Wales;East Gosford;;151.35;-33.4333333;6;
2;Australia;New South Wales;East Guyong;;149.2833333;-33.4166667;6;
2;Australia;New South Wales;East Hills;;150.9833333;-33.9666667;6;
2;Australia;New South Wales;East Kangaloon;;150.5833333;-34.5666667;6;
2;Australia;New South Wales;East Maitland;;151.5833333;-32.75;6;
2;Australia;New South Wales;East Minto;;150.8666667;-34.05;6;
2;Australia;New South Wales;East Toorale;;145.4;-30.4333333;6;
2;Australia;New South Wales;Eastbourne;;148.6666667;-36.2166667;6;
2;Australia;New South Wales;Eastholme;;146.1333333;-34.0333333;6;
2;Australia;New South Wales;Eastwood;;151.0833333;-33.8;6;
2;Australia;New South Wales;Eatonsville;;152.8333333;-29.6333333;6;
2;Australia;New South Wales;Ebor;;152.35;-30.4;6;
2;Australia;New South Wales;Eccleston;;151.5;-32.25;6;
2;Australia;New South Wales;Eden;;149.9;-37.0666667;6;
2;Australia;New South Wales;Edgeroi;;149.8;-30.1;6;
2;Australia;New South Wales;Edith;;149.9166667;-33.8;6;
2;Australia;New South Wales;Eglinton;;149.55;-33.3833333;6;
2;Australia;New South Wales;Elcombe;;150.3833333;-29.7666667;6;
2;Australia;New South Wales;Elderslie;;150.7;-34.05;6;
2;Australia;New South Wales;Ellangowan;;153.0666667;-29.0333333;6;
2;Australia;New South Wales;Ellenborough;;152.4666667;-31.45;6;
2;Australia;New South Wales;Ellerston;;151.3166667;-31.8166667;6;
2;Australia;New South Wales;Elong Elong;;149.0333333;-32.1166667;6;
2;Australia;New South Wales;Elsmore;;151.2666667;-29.8166667;6;
2;Australia;New South Wales;Eltham;;153.4;-28.75;6;
2;Australia;New South Wales;Emerald Hill;;150.0833333;-30.8833333;6;
2;Australia;New South Wales;Emmaville;;151.6;-29.45;6;
2;Australia;New South Wales;Empire Bay;;151.3666667;-33.5;6;
2;Australia;New South Wales;Empire Vale;;153.5;-28.9166667;6;
2;Australia;New South Wales;Emu Creek;;151.7;-30.95;6;
2;Australia;New South Wales;Emu Plains;;150.6666667;-33.75;6;
2;Australia;New South Wales;Engadine;;151.0166667;-34.0666667;6;
2;Australia;New South Wales;Enmore;;151.8;-30.7333333;6;
2;Australia;New South Wales;Enngonia;;145.85;-29.3166667;6;
2;Australia;New South Wales;Epping;;151.0833333;-33.7833333;6;
2;Australia;New South Wales;Eraring;;151.5333333;-33.0833333;6;
2;Australia;New South Wales;Erigolia;;146.3666667;-33.85;6;
2;Australia;New South Wales;Erina East;;151.4166667;-33.4333333;6;
2;Australia;New South Wales;Erina;;151.3833333;-33.4333333;6;
2;Australia;New South Wales;Eschol;;148.65;-32.3333333;6;
2;Australia;New South Wales;Essington;;149.7166667;-33.7;6;
2;Australia;New South Wales;Ettalong Beach;;151.3333333;-33.5166667;6;
2;Australia;New South Wales;Ettalong;;151.35;-33.5166667;6;
2;Australia;New South Wales;Ettrick;;152.9166667;-28.6666667;6;
2;Australia;New South Wales;Euabalong West;;146.4;-33.0666667;6;
2;Australia;New South Wales;Euabalong;;146.4833333;-33.1166667;6;
2;Australia;New South Wales;Euberta;;147.2166667;-35.0666667;6;
2;Australia;New South Wales;Euchareena;;149.1166667;-32.9166667;6;
2;Australia;New South Wales;Eugowra;;148.3666667;-33.4333333;6;
2;Australia;New South Wales;Eulah;;149.9333333;-30.35;6;
2;Australia;New South Wales;Eulomogo;;148.6833333;-32.2666667;6;
2;Australia;New South Wales;Eumungerie;;148.6166667;-31.95;6;
2;Australia;New South Wales;Eungai Creek;;152.8833333;-30.8333333;6;
2;Australia;New South Wales;Eungai;;152.9;-30.85;6;
2;Australia;New South Wales;Eungella;;153.3166667;-28.35;6;
2;Australia;New South Wales;Euraba;;149.6333333;-28.8;6;
2;Australia;New South Wales;Euramilong;;148.5;-31.6666667;6;
2;Australia;New South Wales;Euratha;;146.55;-33.8666667;6;
2;Australia;New South Wales;Eureka;;153.4333333;-28.6833333;6;
2;Australia;New South Wales;Eurimbla;;148.85;-32.8666667;6;
2;Australia;New South Wales;Eurobodalla;;149.9666667;-36.1333333;6;
2;Australia;New South Wales;Euroley;;146.35;-34.7166667;6;
2;Australia;New South Wales;Eurongilly;;147.7666667;-34.95;6;
2;Australia;New South Wales;Europambela;;151.6833333;-30.9833333;6;
2;Australia;New South Wales;Euston;;142.7333333;-34.5666667;6;
2;Australia;New South Wales;Euwylong;;151.8333333;-32.6666667;6;
2;Australia;New South Wales;Evans Head;;153.4333333;-29.1166667;6;
2;Australia;New South Wales;Everton;;148.6;-31.75;6;
2;Australia;New South Wales;Ewingsdale;;153.55;-28.6333333;6;
2;Australia;New South Wales;Excelsior;;149.9833333;-33.0833333;6;
2;Australia;New South Wales;Exeter;;150.3166667;-34.6166667;6;
2;Australia;New South Wales;Failford;;152.45;-32.1;6;
2;Australia;New South Wales;Fairfax;;150.1333333;-30.4833333;6;
2;Australia;New South Wales;Fairfield;;150.95;-33.8666667;6;
2;Australia;New South Wales;Fairholme;;147.3833333;-33.2833333;6;
2;Australia;New South Wales;Fairview;;150.8;-31.5833333;6;
2;Australia;New South Wales;Fairy Hill;;153.0166667;-28.7666667;6;
2;Australia;New South Wales;Falls Creek;;150.6;-34.9666667;6;
2;Australia;New South Wales;Farley;;151.5166667;-32.7333333;6;
2;Australia;New South Wales;Farmeadow;;150.7166667;-34.8166667;6;
2;Australia;New South Wales;Farnham;;149.0833333;-32.85;6;
2;Australia;New South Wales;Farquhar Park;;152.6166667;-31.95;6;
2;Australia;New South Wales;Fassifern;;151.5833333;-32.9833333;6;
2;Australia;New South Wales;Faulconbridge;;150.5333333;-33.7;6;
2;Australia;New South Wales;Federal;;153.45;-28.65;6;
2;Australia;New South Wales;Ferndale;;146.6166667;-35.55;6;
2;Australia;New South Wales;Fernleigh;;153.5;-28.7666667;6;
2;Australia;New South Wales;Fernmount;;152.9333333;-30.4666667;6;
2;Australia;New South Wales;Fernside;;153.1666667;-28.7833333;6;
2;Australia;New South Wales;Ferodale;;151.85;-32.7333333;6;
2;Australia;New South Wales;Fiddletown;;151.05;-33.6;6;
2;Australia;New South Wales;Fiefield;;147.4666667;-32.8;6;
2;Australia;New South Wales;Fifield;;147.4666667;-32.8;6;
2;Australia;New South Wales;Fine Flower Creek;;152.6666667;-29.3833333;6;
2;Australia;New South Wales;Fine Flower;;152.6666667;-29.3833333;6;
2;Australia;New South Wales;Finger Post;;148.8833333;-32.6;6;
2;Australia;New South Wales;Finley;;145.5833333;-35.6333333;6;
2;Australia;New South Wales;Fish River;;149.3;-34.75;6;
2;Australia;New South Wales;Fitzroy Falls;;150.4833333;-34.65;6;
2;Australia;New South Wales;Fitzroy;;150.4166667;-34.4333333;6;
2;Australia;New South Wales;Five Bough;;146.45;-34.5166667;6;
2;Australia;New South Wales;Five Day Creek Upper;;152.4;-30.6666667;6;
2;Australia;New South Wales;Five Day Creek;;152.3833333;-30.7166667;6;
2;Australia;New South Wales;Fladbury;;151.7;-29.5333333;6;
2;Australia;New South Wales;Flemington;;151.0666667;-33.8666667;6;
2;Australia;New South Wales;Flyers Creek;;149.0333333;-33.5333333;6;
2;Australia;New South Wales;Forbes River;;152.3166667;-31.3666667;6;
2;Australia;New South Wales;Forbes;;148.0166667;-33.3833333;6;
2;Australia;New South Wales;Fords Bridge;;145.4166667;-29.75;6;
2;Australia;New South Wales;Forest Hill;;147.4666667;-35.15;6;
2;Australia;New South Wales;Forest Vale;;146.85;-33.35;6;
2;Australia;New South Wales;Forestville;;151.2083333;-33.7666667;6;
2;Australia;New South Wales;Forked Mountain;;149.3333333;-31.2333333;6;
2;Australia;New South Wales;Forster;;152.5166667;-32.1666667;6;
2;Australia;New South Wales;Fosterton;;151.75;-32.3333333;6;
2;Australia;New South Wales;Four Mile Creek;;148.95;-33.4333333;6;
2;Australia;New South Wales;Foxground;;150.7666667;-34.7166667;6;
2;Australia;New South Wales;Frampton;;147.9166667;-34.6833333;6;
2;Australia;New South Wales;Frederickton;;152.8666667;-31.0333333;6;
2;Australia;New South Wales;French Park;;146.9333333;-35.2666667;6;
2;Australia;New South Wales;Frogmore;;148.85;-34.2666667;6;
2;Australia;New South Wales;Fromes Creek;;149.5;-32.5333333;6;
2;Australia;New South Wales;Fullerton;;149.55;-34.2333333;6;
2;Australia;New South Wales;Furracabad;;151.6666667;-29.7833333;6;
2;Australia;New South Wales;Galargambone;;148.4666667;-31.3333333;6;
2;Australia;New South Wales;Galba;;149.85;-36.35;6;
2;Australia;New South Wales;Gallymont;;149.1166667;-33.7333333;6;
2;Australia;New South Wales;Galong;;148.55;-34.6;6;
2;Australia;New South Wales;Galore;;146.8333333;-35;6;
2;Australia;New South Wales;Galston;;151.05;-33.65;6;
2;Australia;New South Wales;Gangat;;152.0666667;-32.0166667;6;
2;Australia;New South Wales;Ganmain;;147.0333333;-34.8;6;
2;Australia;New South Wales;Gannons Creek;;152.6166667;-31.4666667;6;
2;Australia;New South Wales;Gap;;150.6;-31.35;6;
2;Australia;New South Wales;Garah;;149.6333333;-29.0666667;6;
2;Australia;New South Wales;Garema;;147.9333333;-33.55;6;
2;Australia;New South Wales;Garland;;149.0333333;-33.7166667;6;
2;Australia;New South Wales;Garoolgan;;146.45;-34.25;6;
2;Australia;New South Wales;Garra;;148.7666667;-33.1166667;6;
2;Australia;New South Wales;Garryowen;;147.4333333;-35.6666667;6;
2;Australia;New South Wales;Gaspard;;150.8166667;-31.4833333;6;
2;Australia;New South Wales;Geegullalong;;148.7;-34.35;6;
2;Australia;New South Wales;Geehi;;148.1666667;-36.3666667;6;
2;Australia;New South Wales;Gemalla;;149.8333333;-33.5333333;6;
2;Australia;New South Wales;Georges Creek;;152.2;-30.75;6;
2;Australia;New South Wales;Georges Plains;;149.5333333;-33.5;6;
2;Australia;New South Wales;Georgeville;;149.9;-31.35;6;
2;Australia;New South Wales;Georgica;;153.1666667;-28.6666667;6;
2;Australia;New South Wales;Geringong;;150.85;-34.75;6;
2;Australia;New South Wales;Gerogery West;;146.9666667;-35.8666667;6;
2;Australia;New South Wales;Gerogery;;147;-35.8333333;6;
2;Australia;New South Wales;Gerringong;;150.85;-34.75;6;
2;Australia;New South Wales;Geurie;;148.8333333;-32.4;6;
2;Australia;New South Wales;Geweroo;;146.4;-31.6333333;6;
2;Australia;New South Wales;Ghinni Ghinni;;152.5666667;-31.8833333;6;
2;Australia;New South Wales;Ghinnighi;;152.8333333;-28.6333333;6;
2;Australia;New South Wales;Gibberagee;;153.1;-29.2333333;6;
2;Australia;New South Wales;Gidginbung;;147.4666667;-34.3333333;6;
2;Australia;New South Wales;Gidley;;150.8333333;-31.0166667;6;
2;Australia;New South Wales;Gilgai;;151.1166667;-29.8666667;6;
2;Australia;New South Wales;Gilgandra;;148.65;-31.7166667;6;
2;Australia;New South Wales;Gilgoen;;147.1333333;-30.1833333;6;
2;Australia;New South Wales;Gilgooma;;148.5333333;-30.7333333;6;
2;Australia;New South Wales;Gilgunnia;;146.0333333;-32.4166667;6;
2;Australia;New South Wales;Gilmore;;148.1833333;-35.3333333;6;
2;Australia;New South Wales;Gineroi Road;;150.5;-29.7666667;6;
2;Australia;New South Wales;Gingkin;;149.9333333;-33.8666667;6;
2;Australia;New South Wales;Ginkin;;149.9333333;-33.8666667;6;
2;Australia;New South Wales;Girilambone;;146.9;-31.25;6;
2;Australia;New South Wales;Giro;;151.8;-31.7166667;6;
2;Australia;New South Wales;Girral;;147.0833333;-33.7;6;
2;Australia;New South Wales;Girvan;;152.0666667;-32.4666667;6;
2;Australia;New South Wales;Gladesville;;151.1333333;-33.8333333;6;
2;Australia;New South Wales;Gladstone;;152.95;-31.0333333;6;
2;Australia;New South Wales;Glanmire;;149.7166667;-33.4166667;6;
2;Australia;New South Wales;Glasston;;150.4166667;-31.8;6;
2;Australia;New South Wales;Glen Alice;;150.2166667;-33.05;6;
2;Australia;New South Wales;Glen Davis;;150.2833333;-33.1166667;6;
2;Australia;New South Wales;Glen Elgin;;152.1166667;-29.5833333;6;
2;Australia;New South Wales;Glen Innes;;151.7333333;-29.7333333;6;
2;Australia;New South Wales;Glen Moan;;150.2833333;-31.75;6;
2;Australia;New South Wales;Glen Morrison;;151.5333333;-31.2;6;
2;Australia;New South Wales;Glen Ugie;;153.0166667;-29.7833333;6;
2;Australia;New South Wales;Glen Warning;;153.2666667;-28.4333333;6;
2;Australia;New South Wales;Glenallen;;149.3666667;-36.7;6;
2;Australia;New South Wales;Glenbog;;149.35;-36.5833333;6;
2;Australia;New South Wales;Glenbrook;;150.6166667;-33.7666667;6;
2;Australia;New South Wales;Glenburn;;149.7333333;-33.6166667;6;
2;Australia;New South Wales;Glencoe;;151.7166667;-29.9333333;6;
2;Australia;New South Wales;Glendon Brook;;151.35;-32.5333333;6;
2;Australia;New South Wales;Glenellen;;146.9166667;-35.9166667;6;
2;Australia;New South Wales;Glenfield;;150.9;-33.9666667;6;
2;Australia;New South Wales;Glenhaven;;151;-33.7;6;
2;Australia;New South Wales;Gleniffer;;152.8833333;-30.3833333;6;
2;Australia;New South Wales;Glenken;;147.75;-35.95;6;
2;Australia;New South Wales;Glenlogan;;148.6666667;-33.7833333;6;
2;Australia;New South Wales;Glenmartin;;151.8166667;-32.5666667;6;
2;Australia;New South Wales;Glennies Creek;;151.1166667;-32.45;6;
2;Australia;New South Wales;Glenoak;;151.7166667;-32.6166667;6;
2;Australia;New South Wales;Glenorie;;151.0166667;-33.6;6;
2;Australia;New South Wales;Glenquarry;;150.5;-34.5333333;6;
2;Australia;New South Wales;Glenreagh;;152.9666667;-30.05;6;
2;Australia;New South Wales;Glenrock;;151.4;-31.6666667;6;
2;Australia;New South Wales;Glenwilliam;;151.8;-32.5333333;6;
2;Australia;New South Wales;Glenworth Valley;;151.1833333;-33.4333333;6;
2;Australia;New South Wales;Globelands;;148.5166667;-32.0333333;6;
2;Australia;New South Wales;Gloucester;;151.9666667;-32;6;
2;Australia;New South Wales;Gobondery;;147.6;-32.6833333;6;
2;Australia;New South Wales;Gocup;;148.2;-35.2333333;6;
2;Australia;New South Wales;Godfreys Creek;;148.7166667;-34.1333333;6;
2;Australia;New South Wales;Gogeldrie;;146.3;-34.55;6;
2;Australia;New South Wales;Gol Gol;;142.2166667;-34.1833333;6;
2;Australia;New South Wales;Goldspie;;149.65;-34.2833333;6;
2;Australia;New South Wales;Gollan;;149.0833333;-32.2666667;6;
2;Australia;New South Wales;Golspie;;149.65;-34.2833333;6;
2;Australia;New South Wales;Gongolgon;;146.9166667;-30.35;6;
2;Australia;New South Wales;Goobang;;148.25;-33.1;6;
2;Australia;New South Wales;Goobarralong;;148.2666667;-34.9833333;6;
2;Australia;New South Wales;Good Hope;;148.8166667;-34.9166667;6;
2;Australia;New South Wales;Goodooga;;147.45;-29.1166667;6;
2;Australia;New South Wales;Goodradigbee;;148.7;-35;6;
2;Australia;New South Wales;Goolgowi;;145.6833333;-33.9666667;6;
2;Australia;New South Wales;Goolma;;149.2666667;-32.3833333;6;
2;Australia;New South Wales;Goolmangar;;153.2166667;-28.75;6;
2;Australia;New South Wales;Gooloogong;;148.4333333;-33.6166667;6;
2;Australia;New South Wales;Gooloongolok;;152.3166667;-32.2166667;6;
2;Australia;New South Wales;Goondah;;148.7333333;-34.7333333;6;
2;Australia;New South Wales;Goondublui;;148.6333333;-29.1666667;6;
2;Australia;New South Wales;Goonellabah;;153.3166667;-28.8166667;6;
2;Australia;New South Wales;Goonengerry;;153.4333333;-28.6166667;6;
2;Australia;New South Wales;Goonoo Goonoo;;150.9;-31.3;6;
2;Australia;New South Wales;Goonumbla;;148.1333333;-33;6;
2;Australia;New South Wales;Goorianawa;;148.9333333;-31.0833333;6;
2;Australia;New South Wales;Gordon;;151.1333333;-33.75;6;
2;Australia;New South Wales;Gorokan;;151.5166667;-33.2666667;6;
2;Australia;New South Wales;Gosford;;151.35;-33.4333333;6;
2;Australia;New South Wales;Gosforth;;151.4833333;-32.6666667;6;
2;Australia;New South Wales;Gostwyck;;151.5833333;-30.7;6;
2;Australia;New South Wales;Goulburn;;149.7166667;-34.75;6;
2;Australia;New South Wales;Gourlay;;149.65;-36.6833333;6;
2;Australia;New South Wales;Gowan;;149.3666667;-33.1833333;6;
2;Australia;New South Wales;Gowang;;149.1;-31.4166667;6;
2;Australia;New South Wales;Gowrie;;150.85;-31.35;6;
2;Australia;New South Wales;Grabben Gullen;;149.4;-34.5333333;6;
2;Australia;New South Wales;Gradger;;147.85;-31.2166667;6;
2;Australia;New South Wales;Gradgery;;147.85;-31.2166667;6;
2;Australia;New South Wales;Grafton;;152.9333333;-29.6833333;6;
2;Australia;New South Wales;Graham;;148.8833333;-34.1166667;6;
2;Australia;New South Wales;Grahams Valley;;151.7166667;-29.8666667;6;
2;Australia;New South Wales;Grahamstown;;148.0333333;-35.2666667;6;
2;Australia;New South Wales;Graman;;150.9333333;-29.4833333;6;
2;Australia;New South Wales;Granville Junction;;151.0166667;-33.8333333;6;
2;Australia;New South Wales;Granville;;151.0166667;-33.8333333;6;
2;Australia;New South Wales;Grattai;;149.4833333;-32.6833333;6;
2;Australia;New South Wales;Gravesend;;150.3166667;-29.5833333;6;
2;Australia;New South Wales;Grawin;;147.6666667;-29.55;6;
2;Australia;New South Wales;Grawlin Plains;;148.0333333;-33.4666667;6;
2;Australia;New South Wales;Grays Crossing;;152.7666667;-30.7333333;6;
2;Australia;New South Wales;Green Pigeon;;153.05;-28.5;6;
2;Australia;New South Wales;Green Ridge;;153.1166667;-28.9;6;
2;Australia;New South Wales;Green Swamp Road;;145.75;-35.5666667;6;
2;Australia;New South Wales;Green Vale;;146.5333333;-35.0333333;6;
2;Australia;New South Wales;Greenethorpe;;148.4;-34;6;
2;Australia;New South Wales;Greengrove;;151.15;-33.3833333;6;
2;Australia;New South Wales;Greenhill;;152.8;-31.0666667;6;
2;Australia;New South Wales;Greenhills;;149.8166667;-32.1333333;6;
2;Australia;New South Wales;Greenland;;151.1833333;-32.3833333;6;
2;Australia;New South Wales;Greenmantle;;149.1;-33.9333333;6;
2;Australia;New South Wales;Greenwell Point;;150.7333333;-34.9;6;
2;Australia;New South Wales;Greenwich Park;;149.9333333;-34.5666667;6;
2;Australia;New South Wales;Greenwood;;148.0833333;-35.8333333;6;
2;Australia;New South Wales;Greg Greg;;148.05;-36.05;6;
2;Australia;New South Wales;Gregadoo;;147.4333333;-35.2333333;6;
2;Australia;New South Wales;Gregardo;;147.4333333;-35.2333333;6;
2;Australia;New South Wales;Gregra;;148.7833333;-33.1666667;6;
2;Australia;New South Wales;Gregrec;;148.05;-36.05;6;
2;Australia;New South Wales;Greigs Flat;;149.85;-36.9833333;6;
2;Australia;New South Wales;Grenfell;;148.1666667;-33.9;6;
2;Australia;New South Wales;Gresford;;151.5666667;-32.4333333;6;
2;Australia;New South Wales;Greta;;151.3833333;-32.7;6;
2;Australia;New South Wales;Grevillia;;152.8666667;-28.45;6;
2;Australia;New South Wales;Griffith;;146.0333333;-34.2833333;6;
2;Australia;New South Wales;Grogan;;147.8;-34.3166667;6;
2;Australia;New South Wales;Grong Grong;;146.8;-34.75;6;
2;Australia;New South Wales;Groongal;;145.5833333;-34.4166667;6;
2;Australia;New South Wales;Gubbata;;146.55;-33.6333333;6;
2;Australia;New South Wales;Gular;;148.4333333;-31.3166667;6;
2;Australia;New South Wales;Gulargambone;;148.4666667;-31.3333333;6;
2;Australia;New South Wales;Gulf Creek;;150.7;-30.1833333;6;
2;Australia;New South Wales;Gulginni;;152.85;-31.3166667;6;
2;Australia;New South Wales;Gulgong;;149.5333333;-32.3666667;6;
2;Australia;New South Wales;Gullen;;149.3666667;-34.5666667;6;
2;Australia;New South Wales;Gulligal;;150.1333333;-30.8;6;
2;Australia;New South Wales;Gulpa;;144.8833333;-35.7;6;
2;Australia;New South Wales;Gum Scrub;;152.7333333;-31.3;6;
2;Australia;New South Wales;Gumble;;148.65;-33.0833333;6;
2;Australia;New South Wales;Gumly Gumly;;147.4333333;-35.1166667;6;
2;Australia;New South Wales;Gunbar South;;145.4;-34.05;6;
2;Australia;New South Wales;Gunbar;;145.4166667;-34.0166667;6;
2;Australia;New South Wales;Gundabloui;;148.6333333;-29.1666667;6;
2;Australia;New South Wales;Gundagai South;;148.1;-35.0833333;6;
2;Australia;New South Wales;Gundagai;;148.1;-35.0666667;6;
2;Australia;New South Wales;Gundamaian;;151.0916667;-34.0666667;6;
2;Australia;New South Wales;Gundaroo;;149.25;-35.0333333;6;
2;Australia;New South Wales;Gundary;;149.7666667;-34.8333333;6;
2;Australia;New South Wales;Gunderman;;151.0666667;-33.45;6;
2;Australia;New South Wales;Gunderoo;;149.25;-35.0333333;6;
2;Australia;New South Wales;Gundibindyal;;147.8;-34.4666667;6;
2;Australia;New South Wales;Gundurimba;;153.2666667;-28.85;6;
2;Australia;New South Wales;Gundy;;151;-32.0166667;6;
2;Australia;New South Wales;Gungal;;150.5;-32.2666667;6;
2;Australia;New South Wales;Gunnable;;150.3166667;-30.8833333;6;
2;Australia;New South Wales;Gunnamatta;;151.15;-34.05;6;
2;Australia;New South Wales;Gunnary;;148.8333333;-34.3666667;6;
2;Australia;New South Wales;Gunnedah West;;150.2;-30.95;6;
2;Australia;New South Wales;Gunnedah;;150.25;-30.9833333;6;
2;Australia;New South Wales;Gunnendah;;150.25;-30.9833333;6;
2;Australia;New South Wales;Gunnerbene;;150.45;-30.9166667;6;
2;Australia;New South Wales;Gunnible;;150.3166667;-30.8833333;6;
2;Australia;New South Wales;Gunning Grach;;149.15;-36.7666667;6;
2;Australia;New South Wales;Gunning;;149.2833333;-34.7833333;6;
2;Australia;New South Wales;Gunningbland;;147.9166667;-33.1333333;6;
2;Australia;New South Wales;Guntawang;;149.4833333;-32.4;6;
2;Australia;New South Wales;Gurley;;149.8;-29.7333333;6;
2;Australia;New South Wales;Gurrundah;;149.4;-34.6666667;6;
2;Australia;New South Wales;Guy Fawkes;;152.3166667;-30.4166667;6;
2;Australia;New South Wales;Guyong West;;149.2166667;-33.4;6;
2;Australia;New South Wales;Guyong;;149.2833333;-33.4166667;6;
2;Australia;New South Wales;Guyra;;151.6666667;-30.2333333;6;
2;Australia;New South Wales;Gwabegar;;148.9833333;-30.6166667;6;
2;Australia;New South Wales;Gwando;;146.9833333;-32.4333333;6;
2;Australia;New South Wales;Hadley;;149.5666667;-34.2;6;
2;Australia;New South Wales;Halfway Creek;;153.0666667;-29.9166667;6;
2;Australia;New South Wales;Halton;;151.5166667;-32.3166667;6;
2;Australia;New South Wales;Hampton;;150.05;-33.65;6;
2;Australia;New South Wales;Hanging Rock;;151.2;-31.4833333;6;
2;Australia;New South Wales;Hannahs Bridge;;149.65;-31.9333333;6;
2;Australia;New South Wales;Hannan Vale;;152.6;-31.7166667;6;
2;Australia;New South Wales;Hannan;;146.4166667;-33.6166667;6;
2;Australia;New South Wales;Hanwood;;146.0333333;-34.3333333;6;
2;Australia;New South Wales;Harefield;;147.5333333;-34.9666667;6;
2;Australia;New South Wales;Hargraves;;149.45;-32.7833333;6;
2;Australia;New South Wales;Harparary;;150.0166667;-30.5333333;6;
2;Australia;New South Wales;Harrington;;152.7;-31.8666667;6;
2;Australia;New South Wales;Hartley Vale;;150.2333333;-33.5333333;6;
2;Australia;New South Wales;Hartley;;150.1666667;-33.55;6;
2;Australia;New South Wales;Harwood Island;;153.2333333;-29.4166667;6;
2;Australia;New South Wales;Harwood;;153.2333333;-29.4166667;6;
2;Australia;New South Wales;Hat Head;;153.05;-31.05;6;
2;Australia;New South Wales;Hatfield;;143.75;-33.8666667;6;
2;Australia;New South Wales;Havilah;;149.7666667;-32.6333333;6;
2;Australia;New South Wales;Hawks Nest;;152.1666667;-32.6666667;6;
2;Australia;New South Wales;Hay;;144.85;-34.5;6;
2;Australia;New South Wales;Hazelbrook;;150.45;-33.7333333;6;
2;Australia;New South Wales;Hazelgrove;;149.8666667;-33.65;6;
2;Australia;New South Wales;Heathcote;;151.0166667;-34.0833333;6;
2;Australia;New South Wales;Hebden;;151.0666667;-32.3833333;6;
2;Australia;New South Wales;Heddon Greta;;151.5166667;-32.8;6;
2;Australia;New South Wales;Helensburgh;;151;-34.1833333;6;
2;Australia;New South Wales;Henriendi;;150.0166667;-30.6;6;
2;Australia;New South Wales;Henty;;147.05;-35.5166667;6;
2;Australia;New South Wales;Hermidale;;146.7166667;-31.55;6;
2;Australia;New South Wales;Hernani;;152.4;-30.2833333;6;
2;Australia;New South Wales;Herons Creek;;152.7333333;-31.5833333;6;
2;Australia;New South Wales;Hexham;;151.6833333;-32.8333333;6;
2;Australia;New South Wales;Hibbard;;152.8666667;-31.4333333;6;
2;Australia;New South Wales;Hickeys Creek;;152.6;-30.9;6;
2;Australia;New South Wales;Hill End;;149.4166667;-33.0333333;6;
2;Australia;New South Wales;Hill Top;;150.4833333;-34.35;6;
2;Australia;New South Wales;Hilldale;;151.65;-32.5;6;
2;Australia;New South Wales;Hillgrove;;151.9;-30.5666667;6;
2;Australia;New South Wales;Hillston;;145.5333333;-33.4833333;6;
2;Australia;New South Wales;Hillview;;152.3666667;-31.9833333;6;
2;Australia;New South Wales;Hillville;;152.3666667;-31.9833333;6;
2;Australia;New South Wales;Hinton;;151.65;-32.7166667;6;
2;Australia;New South Wales;Holbrook;;147.3166667;-35.7333333;6;
2;Australia;New South Wales;Holgate;;151.4166667;-33.4;6;
2;Australia;New South Wales;Hollisdale;;152.5333333;-31.4;6;
2;Australia;New South Wales;Holmesville;;151.5833333;-32.9166667;6;
2;Australia;New South Wales;Holmwood;;148.7666667;-33.8;6;
2;Australia;New South Wales;Holroyd;;150.95;-33.8333333;6;
2;Australia;New South Wales;Holsworthy;;150.9666667;-33.9833333;6;
2;Australia;New South Wales;Holts Flat;;149.2833333;-36.6666667;6;
2;Australia;New South Wales;Home Rule;;149.6333333;-32.4166667;6;
2;Australia;New South Wales;Homebush;;151.0833333;-33.8666667;6;
2;Australia;New South Wales;Homeleigh;;153.05;-28.5833333;6;
2;Australia;New South Wales;Hopefield;;146.4333333;-35.9;6;
2;Australia;New South Wales;Hornsby;;151.1;-33.7;6;
2;Australia;New South Wales;Horseshoe Creek;;153.0333333;-28.5333333;6;
2;Australia;New South Wales;Horton;;150.4333333;-30.1333333;6;
2;Australia;New South Wales;Hoskinstown;;149.45;-35.4166667;6;
2;Australia;New South Wales;Hovells Creek;;148.9;-34.05;6;
2;Australia;New South Wales;Howell;;151.0333333;-29.95;6;
2;Australia;New South Wales;Howes Valley;;150.8666667;-32.8333333;6;
2;Australia;New South Wales;Howlong;;146.6333333;-35.9666667;6;
2;Australia;New South Wales;Humula;;147.75;-35.4833333;6;
2;Australia;New South Wales;Huntingdon;;152.65;-31.4666667;6;
2;Australia;New South Wales;Huntington;;152.65;-31.4666667;6;
2;Australia;New South Wales;Huntley;;149.1333333;-33.3666667;6;
2;Australia;New South Wales;Huntly;;149.1333333;-33.3666667;6;
2;Australia;New South Wales;Huonbrook;;153.4;-28.5333333;6;
2;Australia;New South Wales;Hurricane Hill;;151.3833333;-29.5166667;6;
2;Australia;New South Wales;Huskisson;;150.6833333;-35.05;6;
2;Australia;New South Wales;Ilarwill;;153.1833333;-29.4833333;6;
2;Australia;New South Wales;Ilford;;149.8666667;-32.9666667;6;
2;Australia;New South Wales;Ilililiwa;;145;-34.45;6;
2;Australia;New South Wales;Illabo;;147.75;-34.8166667;6;
2;Australia;New South Wales;Illewong;;145.95;-31.6166667;6;
2;Australia;New South Wales;Illilliwa;;145;-34.45;6;
2;Australia;New South Wales;Iluka;;153.35;-29.4166667;6;
2;Australia;New South Wales;Ingebirah;;148.5;-36.65;6;
2;Australia;New South Wales;Ingebyra;;148.5;-36.65;6;
2;Australia;New South Wales;Ingebyrah;;148.5;-36.65;6;
2;Australia;New South Wales;Ingleba;;147.85;-31.3833333;6;
2;Australia;New South Wales;Ingleburn;;150.8666667;-34;6;
2;Australia;New South Wales;Inglega;;147.85;-31.3833333;6;
2;Australia;New South Wales;Inveralochy;;149.65;-34.9666667;6;
2;Australia;New South Wales;Inverary Park;;149.9833333;-34.8833333;6;
2;Australia;New South Wales;Inverell;;151.1166667;-29.7833333;6;
2;Australia;New South Wales;Iogebyra;;148.5;-36.65;6;
2;Australia;New South Wales;Iona;;151.6;-32.6666667;6;
2;Australia;New South Wales;Ironbarks;;147.9;-33.6833333;6;
2;Australia;New South Wales;Irondale;;150.0166667;-33.3833333;6;
2;Australia;New South Wales;Ironmungy;;148.9333333;-36.5833333;6;
2;Australia;New South Wales;Irrawang;;151.75;-32.7333333;6;
2;Australia;New South Wales;Isabella;;149.6666667;-33.95;6;
2;Australia;New South Wales;Island Bend;;148.4833333;-36.3166667;6;
2;Australia;New South Wales;Ivanhoe;;144.3;-32.9;6;
2;Australia;New South Wales;Jackadgery;;152.5666667;-29.5833333;6;
2;Australia;New South Wales;Jacks Creek;;150.5833333;-31.7166667;6;
2;Australia;New South Wales;Jamberoo;;150.7833333;-34.65;6;
2;Australia;New South Wales;Jannali;;151.0666667;-34.0166667;6;
2;Australia;New South Wales;Jaspers Brush;;150.6666667;-34.8166667;6;
2;Australia;New South Wales;Jawbone;;148.9666667;-32.4833333;6;
2;Australia;New South Wales;Jeerabung;;148.5833333;-33.1833333;6;
2;Australia;New South Wales;Jellat Jellat;;149.8833333;-36.7166667;6;
2;Australia;New South Wales;Jembatcumbene;;149.7833333;-35.5333333;6;
2;Australia;New South Wales;Jennings;;151.9333333;-28.9333333;6;
2;Australia;New South Wales;Jenolan Caves;;150.0333333;-33.8166667;6;
2;Australia;New South Wales;Jeogla;;152.1166667;-30.5666667;6;
2;Australia;New South Wales;Jerangle;;149.3666667;-35.8666667;6;
2;Australia;New South Wales;Jerilderie;;145.7333333;-35.3666667;6;
2;Australia;New South Wales;Jerrawa;;149.0833333;-34.7833333;6;
2;Australia;New South Wales;Jerrawangala;;150.4833333;-35.1166667;6;
2;Australia;New South Wales;Jerry Bailey;;150.75;-34.8666667;6;
2;Australia;New South Wales;Jerrys Plains;;150.9166667;-32.5;6;
2;Australia;New South Wales;Jerseyville;;153.0333333;-30.9166667;6;
2;Australia;New South Wales;Jiggi;;153.1833333;-28.6833333;6;
2;Australia;New South Wales;Jilliby;;151.3833333;-33.2333333;6;
2;Australia;New South Wales;Jimenbuan;;148.8666667;-36.7166667;6;
2;Australia;New South Wales;Jinabiby;;153.2833333;-29.3666667;6;
2;Australia;New South Wales;Jincumbilly;;149.2166667;-36.7166667;6;
2;Australia;New South Wales;Jindabyne;;148.6333333;-36.4166667;6;
2;Australia;New South Wales;Jindalee;;148.0833333;-34.5833333;6;
2;Australia;New South Wales;Jindera;;146.9;-35.95;6;
2;Australia;New South Wales;Jinderboine;;148.6333333;-36.4166667;6;
2;Australia;New South Wales;Jindy Andy;;150.6833333;-34.9166667;6;
2;Australia;New South Wales;Jingellic;;147.6833333;-35.9333333;6;
2;Australia;New South Wales;Jingellie;;147.6833333;-35.9333333;6;
2;Australia;New South Wales;Joadja Creek;;150.2166667;-34.4166667;6;
2;Australia;New South Wales;Johns River;;152.7;-31.75;6;
2;Australia;New South Wales;Juggah;;148.7;-31.6666667;6;
2;Australia;New South Wales;Jugiong;;148.3333333;-34.8333333;6;
2;Australia;New South Wales;Junee Junction;;147.5833333;-34.8833333;6;
2;Australia;New South Wales;Junee Reefs;;147.6166667;-34.7333333;6;
2;Australia;New South Wales;Junee;;147.5833333;-34.8833333;6;
2;Australia;New South Wales;Kadungle;;147.6333333;-32.7666667;6;
2;Australia;New South Wales;Kahiba;;151.625;-33.0833333;6;
2;Australia;New South Wales;Kahibah;;151.7166667;-32.9666667;6;
2;Australia;New South Wales;Kain;;149.5666667;-35.7166667;6;
2;Australia;New South Wales;Kalkite;;148.6333333;-36.3333333;6;
2;Australia;New South Wales;Kamarah;;146.7666667;-34.3333333;6;
2;Australia;New South Wales;Kameruka;;149.7;-36.75;6;
2;Australia;New South Wales;Kandos;;149.9666667;-32.85;6;
2;Australia;New South Wales;Kangaloon;;150.5333333;-34.55;6;
2;Australia;New South Wales;Kangaroo Creek;;152.9333333;-29.8666667;6;
2;Australia;New South Wales;Kangaroo Flat;;152.1166667;-31.1333333;6;
2;Australia;New South Wales;Kangaroo Valley;;150.5333333;-34.7333333;6;
2;Australia;New South Wales;Kangiara;;148.75;-34.6;6;
2;Australia;New South Wales;Kanwal;;151.4833333;-33.2666667;6;
2;Australia;New South Wales;Karangi;;153.05;-30.2666667;6;
2;Australia;New South Wales;Karkatt;;152.2166667;-32.0833333;6;
2;Australia;New South Wales;Karraganbah;;151.4833333;-33.2833333;6;
2;Australia;New South Wales;Kars Springs;;150.5666667;-31.9;6;
2;Australia;New South Wales;Karuah;;151.9666667;-32.6666667;6;
2;Australia;New South Wales;Katoomba;;150.3;-33.7;6;
2;Australia;New South Wales;Kauthi;;151.8666667;-31.7666667;6;
2;Australia;New South Wales;Kayuga;;150.8666667;-32.2;6;
2;Australia;New South Wales;Keepit;;150.5166667;-30.8333333;6;
2;Australia;New South Wales;Keera;;150.7833333;-29.9833333;6;
2;Australia;New South Wales;Keerong;;153.2666667;-28.6833333;6;
2;Australia;New South Wales;Keiraville;;150.8666667;-34.4166667;6;
2;Australia;New South Wales;Keith Hall;;153.5333333;-28.9;6;
2;Australia;New South Wales;Kellys Creek;;148.3833333;-33.9333333;6;
2;Australia;New South Wales;Kellys Plains;;151.6333333;-30.5833333;6;
2;Australia;New South Wales;Kelso;;149.6;-33.4166667;6;
2;Australia;New South Wales;Kelvin;;150.3333333;-30.8166667;6;
2;Australia;New South Wales;Kembla;;150.8166667;-34.4333333;6;
2;Australia;New South Wales;Kempsey;;152.8333333;-31.0833333;6;
2;Australia;New South Wales;Kendall;;152.7;-31.6333333;6;
2;Australia;New South Wales;Kenebri;;149.0333333;-30.7666667;6;
2;Australia;New South Wales;Kenmore;;149.75;-34.7166667;6;
2;Australia;New South Wales;Kensington;;151.2166667;-33.9166667;6;
2;Australia;New South Wales;Kenthurst;;151;-33.6666667;6;
2;Australia;New South Wales;Kentucky South;;151.4333333;-30.8;6;
2;Australia;New South Wales;Kentucky;;151.45;-30.7666667;6;
2;Australia;New South Wales;Kerrabee;;150.3;-32.4166667;6;
2;Australia;New South Wales;Kerrs Creek;;149.1;-33.05;6;
2;Australia;New South Wales;Kew;;152.7166667;-31.6333333;6;
2;Australia;New South Wales;Keybarbin;;152.6;-29.15;6;
2;Australia;New South Wales;Khancoban;;148.0833333;-36.2;6;
2;Australia;New South Wales;Kiah;;149.8666667;-37.15;6;
2;Australia;New South Wales;Kialla;;149.45;-34.5333333;6;
2;Australia;New South Wales;Kiama;;150.8666667;-34.6833333;6;
2;Australia;New South Wales;Kiandra;;148.5;-35.8833333;6;
2;Australia;New South Wales;Kianga;;150.1166667;-36.1833333;6;
2;Australia;New South Wales;Kianinny;;149.9833333;-36.7333333;6;
2;Australia;New South Wales;Kickabil;;148.4833333;-31.8;6;
2;Australia;New South Wales;Kikoira;;146.6666667;-33.6666667;6;
2;Australia;New South Wales;Kilcare;;151.3666667;-33.5166667;6;
2;Australia;New South Wales;Kildary Road;;147.15;-34.0333333;6;
2;Australia;New South Wales;Kildary;;147.0333333;-34.1166667;6;
2;Australia;New South Wales;Killabakh Creek;;152.4;-31.7333333;6;
2;Australia;New South Wales;Killabakh;;152.4;-31.7333333;6;
2;Australia;New South Wales;Killarney;;151.4666667;-33.3666667;6;
2;Australia;New South Wales;Killawarra;;152.3;-31.8833333;6;
2;Australia;New South Wales;Killcare;;151.3666667;-33.5166667;6;
2;Australia;New South Wales;Killingworth;;151.5666667;-32.9333333;6;
2;Australia;New South Wales;Kilrush;;148.1166667;-34.65;6;
2;Australia;New South Wales;Kimberley;;151.1166667;-29.9333333;6;
2;Australia;New South Wales;Kinchela Creek;;153;-30.9666667;6;
2;Australia;New South Wales;Kincumber South;;151.3833333;-33.4833333;6;
2;Australia;New South Wales;Kincumber;;151.4166667;-33.4833333;6;
2;Australia;New South Wales;Kings Plains;;149.3333333;-33.5;6;
2;Australia;New South Wales;Kingscliff;;153.5666667;-28.2666667;6;
2;Australia;New South Wales;Kingsgate;;151.9833333;-29.8;6;
2;Australia;New South Wales;Kingstown;;151.1166667;-30.5;6;
2;Australia;New South Wales;Kingsvale;;148.3166667;-34.4333333;6;
2;Australia;New South Wales;Kingswood;;150.75;-33.75;6;
2;Australia;New South Wales;Kinross;;151.75;-32.7666667;6;
2;Australia;New South Wales;Kinswood;;150.75;-33.75;6;
2;Australia;New South Wales;Kioloa;;150.3833333;-35.55;6;
2;Australia;New South Wales;Kiora;;150.0333333;-35.9333333;6;
2;Australia;New South Wales;Kirrabelah;;150.2166667;-30.9833333;6;
2;Australia;New South Wales;Kirribilli;;151.2166667;-33.85;6;
2;Australia;New South Wales;Kitchener;;151.3666667;-32.8833333;6;
2;Australia;New South Wales;Kiwarric;;152.4833333;-32.0166667;6;
2;Australia;New South Wales;Klori;;150.7833333;-30.8333333;6;
2;Australia;New South Wales;Knockrow;;153.5333333;-28.7666667;6;
2;Australia;New South Wales;Knorrit Flat;;152.0833333;-31.8166667;6;
2;Australia;New South Wales;Knorritt Flat;;152.0833333;-31.8166667;6;
2;Australia;New South Wales;Kogarah;;151.1166667;-33.9833333;6;
2;Australia;New South Wales;Kolodong;;152.4333333;-31.8833333;6;
2;Australia;New South Wales;Koloona;;150.7166667;-29.6333333;6;
2;Australia;New South Wales;Komungla;;149.65;-34.85;6;
2;Australia;New South Wales;Kookabookra;;152.0666667;-30.0333333;6;
2;Australia;New South Wales;Kookarabooka;;152.0666667;-30.0333333;6;
2;Australia;New South Wales;Koolewong;;151.3166667;-33.4666667;6;
2;Australia;New South Wales;Koonorigan;;153.2333333;-28.6833333;6;
2;Australia;New South Wales;Koorainghat;;152.4833333;-31.9833333;6;
2;Australia;New South Wales;Koorawatha;;148.55;-34.0333333;6;
2;Australia;New South Wales;Koorway;;152.6666667;-29.3833333;6;
2;Australia;New South Wales;Kootingal;;151.05;-31.0666667;6;
2;Australia;New South Wales;Koreelah;;152.3166667;-28.5;6;
2;Australia;New South Wales;Kororo Basin;;153.1333333;-30.25;6;
2;Australia;New South Wales;Kotara;;151.6833333;-32.95;6;
2;Australia;New South Wales;Koyuna;;146.85;-33.3;6;
2;Australia;New South Wales;Krambach;;152.2666667;-32.05;6;
2;Australia;New South Wales;Krawarree;;149.6333333;-35.8;6;
2;Australia;New South Wales;Kunama;;148.1166667;-35.5666667;6;
2;Australia;New South Wales;Kundabung;;152.85;-31.2;6;
2;Australia;New South Wales;Kundibakh;;152.25;-31.9833333;6;
2;Australia;New South Wales;Kungala;;153.0166667;-29.95;6;
2;Australia;New South Wales;Kunghur;;153.25;-28.4666667;6;
2;Australia;New South Wales;Kurnell;;151.2;-34.0166667;6;
2;Australia;New South Wales;Kurrajong Heights;;150.6666667;-33.55;6;
2;Australia;New South Wales;Kurrajong;;150.6666667;-33.55;6;
2;Australia;New South Wales;Kurrara;;153.55;-28.2333333;6;
2;Australia;New South Wales;Kurri Kurri;;151.4833333;-32.8166667;6;
2;Australia;New South Wales;Kyalite;;143.4666667;-34.9666667;6;
2;Australia;New South Wales;Kybean;;149.4166667;-36.3666667;6;
2;Australia;New South Wales;Kybeyan;;149.4166667;-36.3666667;6;
2;Australia;New South Wales;Kydra Reefs;;149.3333333;-36.4;6;
2;Australia;New South Wales;Kydra;;149.3833333;-36.45;6;
2;Australia;New South Wales;Kyeamba;;147.6166667;-35.4333333;6;
2;Australia;New South Wales;Kyloe;;148.6833333;-36.0833333;6;
2;Australia;New South Wales;Kyogle;;153;-28.6166667;6;
2;Australia;New South Wales;Kyuga;;150.8666667;-32.2;6;
2;Australia;New South Wales;Kywong;;146.7333333;-34.9833333;6;
2;Australia;New South Wales;La Perouse;;151.2333333;-33.9833333;6;
2;Australia;New South Wales;Lacmalac;;148.3166667;-35.3166667;6;
2;Australia;New South Wales;Ladysmith;;147.5166667;-35.2;6;
2;Australia;New South Wales;Laggan;;149.5333333;-34.4166667;6;
2;Australia;New South Wales;Laguna;;151.1333333;-32.9833333;6;
2;Australia;New South Wales;Lake Albert;;147.3833333;-35.1666667;6;
2;Australia;New South Wales;Lake Bathurst;;149.65;-35.0166667;6;
2;Australia;New South Wales;Lake Cargellico;;146.3833333;-33.3;6;
2;Australia;New South Wales;Lake Cargelligo;;146.3833333;-33.3;6;
2;Australia;New South Wales;Lake Cowal;;147.3666667;-33.6833333;6;
2;Australia;New South Wales;Lake Illawarra;;150.8666667;-34.55;6;
2;Australia;New South Wales;Lake View;;151.5833333;-33.0666667;6;
2;Australia;New South Wales;Lakemba;;151.0833333;-33.9166667;6;
2;Australia;New South Wales;Lakeside;;151.5;-33.25;6;
2;Australia;New South Wales;Lakesland;;150.5333333;-34.1666667;6;
2;Australia;New South Wales;Lallahrook;;146.8333333;-35.3833333;6;
2;Australia;New South Wales;Lambton;;151.7;-32.9166667;6;
2;Australia;New South Wales;Landervale;;146.85;-34.55;6;
2;Australia;New South Wales;Lane Cove;;151.1666667;-33.8166667;6;
2;Australia;New South Wales;Langley Vale;;152.5666667;-31.8;6;
2;Australia;New South Wales;Langtree;;145.5666667;-33.6666667;6;
2;Australia;New South Wales;Langunya;;145.5666667;-35.7333333;6;
2;Australia;New South Wales;Lankeys Creek;;147.6666667;-35.8166667;6;
2;Australia;New South Wales;Lansdale;;147.1833333;-32.2333333;6;
2;Australia;New South Wales;Larbert;;149.7666667;-35.3;6;
2;Australia;New South Wales;Largs;;151.6;-32.7;6;
2;Australia;New South Wales;Larnook;;153.1166667;-28.65;6;
2;Australia;New South Wales;Larras Lee;;148.85;-33;6;
2;Australia;New South Wales;Laughtondale;;151.0333333;-33.4166667;6;
2;Australia;New South Wales;Laura;;151.1333333;-30.2166667;6;
2;Australia;New South Wales;Laurel Hill;;148.0833333;-35.6166667;6;
2;Australia;New South Wales;Laurieton;;152.8;-31.65;6;
2;Australia;New South Wales;Lavadia;;153.1;-29.7666667;6;
2;Australia;New South Wales;Lavington;;146.9333333;-36.05;6;
2;Australia;New South Wales;Lawrence;;153.1;-29.4833333;6;
2;Australia;New South Wales;Lawson;;150.4333333;-33.7166667;6;
2;Australia;New South Wales;Leadville;;149.55;-32;6;
2;Australia;New South Wales;Leaning Oak;;149.3833333;-32.6166667;6;
2;Australia;New South Wales;Leechs Gully;;152.0333333;-29.0166667;6;
2;Australia;New South Wales;Leefield;;151.8333333;-29.05;6;
2;Australia;New South Wales;Leefields;;151.8333333;-29.05;6;
2;Australia;New South Wales;Leeton;;146.4;-34.5666667;6;
2;Australia;New South Wales;Leeville;;153;-28.95;6;
2;Australia;New South Wales;Legume;;152.3;-28.4;6;
2;Australia;New South Wales;Leichhardt;;151.15;-33.8833333;6;
2;Australia;New South Wales;Leigh;;152.7166667;-30.25;6;
2;Australia;New South Wales;Leniston;;145.6833333;-35.65;6;
2;Australia;New South Wales;Lerida;;149.3333333;-34.8833333;6;
2;Australia;New South Wales;Lette;;143.1666667;-34.3666667;6;
2;Australia;New South Wales;Leumeah;;150.8333333;-34.05;6;
2;Australia;New South Wales;Leura;;150.3333333;-33.7166667;6;
2;Australia;New South Wales;Lewis Ponds Lower;;149.25;-33.2;6;
2;Australia;New South Wales;Lewis Ponds;;149.2666667;-33.2666667;6;
2;Australia;New South Wales;Leycester;;153.2;-28.7833333;6;
2;Australia;New South Wales;Lidcomb;;151.0333333;-33.8666667;6;
2;Australia;New South Wales;Lidcombe;;151.0333333;-33.8666667;6;
2;Australia;New South Wales;Liddell;;151.0333333;-32.4166667;6;
2;Australia;New South Wales;Lidsdale;;150.0833333;-33.4;6;
2;Australia;New South Wales;Lidster;;149.0166667;-33.2833333;6;
2;Australia;New South Wales;Lightning Ridge;;147.9833333;-29.4333333;6;
2;Australia;New South Wales;Lillian Rock;;153.1666667;-28.5333333;6;
2;Australia;New South Wales;Limbri;;151.15;-31.05;6;
2;Australia;New South Wales;Limeburners Creek;;151.9166667;-32.6166667;6;
2;Australia;New South Wales;Limpinwood;;153.2166667;-28.3;6;
2;Australia;New South Wales;Linburn;;149.7166667;-32.4166667;6;
2;Australia;New South Wales;Lincoln;;149.0333333;-32.45;6;
2;Australia;New South Wales;Linden;;150.5;-33.7166667;6;
2;Australia;New South Wales;Lindfield;;151.1666667;-33.7833333;6;
2;Australia;New South Wales;Lionsville;;152.4833333;-29.2;6;
2;Australia;New South Wales;Lisarow;;151.3666667;-33.3833333;6;
2;Australia;New South Wales;Lismore;;153.2666667;-28.8;6;
2;Australia;New South Wales;Liston;;152.0833333;-28.65;6;
2;Australia;New South Wales;Lithgow;;150.15;-33.4833333;6;
2;Australia;New South Wales;Little Billabong;;147.5333333;-35.5833333;6;
2;Australia;New South Wales;Little Plain;;150.9666667;-29.7333333;6;
2;Australia;New South Wales;Liverpool;;150.9333333;-33.9;6;
2;Australia;New South Wales;Llangothlin;;151.6833333;-30.1333333;6;
2;Australia;New South Wales;Lochiel;;149.8;-36.95;6;
2;Australia;New South Wales;Lochinvar;;151.45;-32.7;6;
2;Australia;New South Wales;Lockhart;;146.7166667;-35.2333333;6;
2;Australia;New South Wales;Locksley;;149.7833333;-33.5166667;6;
2;Australia;New South Wales;Lockwood;;148.6833333;-33.4666667;6;
2;Australia;New South Wales;Long Flat;;152.5;-31.4333333;6;
2;Australia;New South Wales;Long Jetty;;151.4833333;-33.3666667;6;
2;Australia;New South Wales;Long Park;;146.65;-35.1333333;6;
2;Australia;New South Wales;Long Point;;150.9;-34.0166667;6;
2;Australia;New South Wales;Long Ridge;;149.5833333;-31.35;6;
2;Australia;New South Wales;Long Swamp;;149.3666667;-33.7666667;6;
2;Australia;New South Wales;Longford;;151.1166667;-30.7666667;6;
2;Australia;New South Wales;Loomberah;;151;-31.1833333;6;
2;Australia;New South Wales;Lorn;;151.5666667;-32.7333333;6;
2;Australia;New South Wales;Lorne;;152.6166667;-31.6666667;6;
2;Australia;New South Wales;Lostock;;151.45;-32.3333333;6;
2;Australia;New South Wales;Louisiana;;147.4;-32.7166667;6;
2;Australia;New South Wales;Louth;;145.1166667;-30.5333333;6;
2;Australia;New South Wales;Lowanna;;152.9;-30.2166667;6;
2;Australia;New South Wales;Lower Acacia Creek;;152.25;-28.4333333;6;
2;Australia;New South Wales;Lower Belmore;;152.9833333;-31.0833333;6;
2;Australia;New South Wales;Lower Boro;;149.7666667;-35.1666667;6;
2;Australia;New South Wales;Lower Botobolar;;149.7833333;-32.5166667;6;
2;Australia;New South Wales;Lower Bucca;;153.0833333;-30.15;6;
2;Australia;New South Wales;Lower Coldstream;;153.1333333;-29.5833333;6;
2;Australia;New South Wales;Lower Creek;;152.25;-30.7333333;6;
2;Australia;New South Wales;Lower Cudgera;;153.5666667;-28.3833333;6;
2;Australia;New South Wales;Lower Hawkesbury;;151.05;-33.45;6;
2;Australia;New South Wales;Lower Mangrove;;151.15;-33.4;6;
2;Australia;New South Wales;Lower Numba;;150.7166667;-34.8833333;6;
2;Australia;New South Wales;Lower Portland;;150.8833333;-33.45;6;
2;Australia;New South Wales;Lower Southgate;;153.0833333;-29.55;6;
2;Australia;New South Wales;Lower Towamba;;149.75;-37.1333333;6;
2;Australia;New South Wales;Lowesdale;;146.3666667;-35.85;6;
2;Australia;New South Wales;Lowther;;150.1;-33.6166667;6;
2;Australia;New South Wales;Lucknow;;149.2;-33.3833333;6;
2;Australia;New South Wales;Luddenham;;150.6833333;-33.8833333;6;
2;Australia;New South Wales;Lue;;149.85;-32.6666667;6;
2;Australia;New South Wales;Lynch's Creek;;153;-28.45;6;
2;Australia;New South Wales;Lyndhurst;;149.0333333;-33.6666667;6;
2;Australia;New South Wales;Macksville;;152.9;-30.7166667;6;
2;Australia;New South Wales;Maclean;;153.2166667;-29.4666667;6;
2;Australia;New South Wales;Maclean's Ridges;;153.3833333;-28.8;6;
2;Australia;New South Wales;Macqueen;;151.25;-31.9166667;6;
2;Australia;New South Wales;Maffra;;148.9833333;-36.5333333;6;
2;Australia;New South Wales;Maharatta;;149.2333333;-36.9833333;6;
2;Australia;New South Wales;Maianbar;;151.1305556;-34.0777778;6;
2;Australia;New South Wales;Maimuru;;148.2666667;-34.2666667;6;
2;Australia;New South Wales;Mairjimmy;;145.7333333;-35.5;6;
2;Australia;New South Wales;Maitland;;151.55;-32.7333333;6;
2;Australia;New South Wales;Majors Creek;;149.75;-35.5833333;6;
2;Australia;New South Wales;Malabar;;151.25;-33.9666667;6;
2;Australia;New South Wales;Maldon;;150.6333333;-34.2;6;
2;Australia;New South Wales;Malebo;;147.2666667;-35.0666667;6;
2;Australia;New South Wales;Mallanganee;;152.7166667;-28.9166667;6;
2;Australia;New South Wales;Malleevale;;146.8666667;-34.2;6;
2;Australia;New South Wales;Manar;;149.7;-35.3;6;
2;Australia;New South Wales;Manara;;143.9333333;-32.4833333;6;
2;Australia;New South Wales;Mandagery;;148.4166667;-33.2166667;6;
2;Australia;New South Wales;Mandalong;;151.4333333;-33.1333333;6;
2;Australia;New South Wales;Mandemar;;150.2833333;-34.4333333;6;
2;Australia;New South Wales;Mandurama;;149.0833333;-33.65;6;
2;Australia;New South Wales;Manfred;;143.7666667;-33.3333333;6;
2;Australia;New South Wales;Mangain;;147.0333333;-34.9166667;6;
2;Australia;New South Wales;Mangoplah;;147.25;-35.3833333;6;
2;Australia;New South Wales;Mangrove Creek;;151.15;-33.35;6;
2;Australia;New South Wales;Mangrove Mountain;;151.2;-33.3;6;
2;Australia;New South Wales;Manildra;;148.6833333;-33.2;6;
2;Australia;New South Wales;Manilla;;150.7166667;-30.75;6;
2;Australia;New South Wales;Manly;;151.2833333;-33.8;6;
2;Australia;New South Wales;Mannus;;147.95;-35.8;6;
2;Australia;New South Wales;Mariaville;;152.8666667;-31.1666667;6;
2;Australia;New South Wales;Markdale;;149.2833333;-34.2333333;6;
2;Australia;New South Wales;Markwell;;152.1833333;-32.3333333;6;
2;Australia;New South Wales;Marlee;;152.3166667;-31.7833333;6;
2;Australia;New South Wales;Marlow;;149.8833333;-35.3;6;
2;Australia;New South Wales;Marlowe;;149.8833333;-35.3;6;
2;Australia;New South Wales;Marom Creek;;152.3833333;-28.9;6;
2;Australia;New South Wales;Maroota;;150.95;-33.4833333;6;
2;Australia;New South Wales;Maroubra;;151.2333333;-33.95;6;
2;Australia;New South Wales;Marrangaroo;;150.1166667;-33.4333333;6;
2;Australia;New South Wales;Marrar;;147.3666667;-34.8333333;6;
2;Australia;New South Wales;Marrickville;;151.1666667;-33.9166667;6;
2;Australia;New South Wales;Marror;;147.3666667;-34.8333333;6;
2;Australia;New South Wales;Marsden;;147.5333333;-33.75;6;
2;Australia;New South Wales;Marshall Mountain;;150.75;-34.55;6;
2;Australia;New South Wales;Martins Creek;;151.6166667;-32.55;6;
2;Australia;New South Wales;Martinsville;;151.4166667;-33.0666667;6;
2;Australia;New South Wales;Marulan;;150.0166667;-34.7;6;
2;Australia;New South Wales;Maryland;;152;-28.55;6;
2;Australia;New South Wales;Maryvale;;148.9;-32.4666667;6;
2;Australia;New South Wales;Mascot;;151.2;-33.9333333;6;
2;Australia;New South Wales;Matcham;;151.4166667;-33.4166667;6;
2;Australia;New South Wales;Matheson;;151.5666667;-29.75;6;
2;Australia;New South Wales;Mathoura;;144.9;-35.8166667;6;
2;Australia;New South Wales;Matong;;146.9166667;-34.7666667;6;
2;Australia;New South Wales;Matraville;;151.2333333;-33.95;6;
2;Australia;New South Wales;Maude;;144.3;-34.4666667;6;
2;Australia;New South Wales;Maybole;;151.5833333;-29.9166667;6;
2;Australia;New South Wales;Mayers Flat;;152.35;-32.3833333;6;
2;Australia;New South Wales;Mayfair;;146.5;-33.4166667;6;
2;Australia;New South Wales;McAlister;;149.5833333;-34.45;6;
2;Australia;New South Wales;McArthur Spring;;150.3666667;-29.5333333;6;
2;Australia;New South Wales;McDonalds Creek;;149.5;-32.5833333;6;
2;Australia;New South Wales;McKees Hill;;153.2;-28.8833333;6;
2;Australia;New South Wales;McLeans Ridges;;153.3833333;-28.8;6;
2;Australia;New South Wales;McMahon;;148.45;-34.6666667;6;
2;Australia;New South Wales;McMahons Reef;;148.45;-34.6666667;6;
2;Australia;New South Wales;Meadow Flat;;149.9333333;-33.4333333;6;
2;Australia;New South Wales;Mebul;;149.3333333;-32.35;6;
2;Australia;New South Wales;Medlow Bath;;150.2833333;-33.6666667;6;
2;Australia;New South Wales;Medowie;;151.8666667;-32.7333333;6;
2;Australia;New South Wales;Meerah North;;149.3;-30.1833333;6;
2;Australia;New South Wales;Meermaul;;150.2166667;-31.0333333;6;
2;Australia;New South Wales;Meerschaum Vale;;153.4333333;-28.9166667;6;
2;Australia;New South Wales;Megalong;;150.25;-33.7333333;6;
2;Australia;New South Wales;Megan;;152.75;-30.2666667;6;
2;Australia;New South Wales;Melbergen;;146.05;-33.7;6;
2;Australia;New South Wales;Meldrum;;152.4666667;-30.35;6;
2;Australia;New South Wales;Melrose;;146.9666667;-32.7;6;
2;Australia;New South Wales;Menai;;151.0166667;-34.0166667;6;
2;Australia;New South Wales;Menangle;;150.75;-34.1333333;6;
2;Australia;New South Wales;Mendooran;;149.1333333;-31.8333333;6;
2;Australia;New South Wales;Menindee;;142.4333333;-32.4;6;
2;Australia;New South Wales;Merah North;;149.3;-30.1833333;6;
2;Australia;New South Wales;Meranburn;;148.6333333;-33.2;6;
2;Australia;New South Wales;Merilla;;149.55;-34.7333333;6;
2;Australia;New South Wales;Merimbula;;149.9;-36.9;6;
2;Australia;New South Wales;Meroo;;150.6166667;-34.8333333;6;
2;Australia;New South Wales;Merrilla;;149.55;-34.7333333;6;
2;Australia;New South Wales;Merrima;;149.2333333;-36.9833333;6;
2;Australia;New South Wales;Merrimbula;;149.9;-36.9;6;
2;Australia;New South Wales;Merriwa;;150.35;-32.15;6;
2;Australia;New South Wales;Merriwagga;;145.6166667;-33.8333333;6;
2;Australia;New South Wales;Merriwaggah;;145.6166667;-33.8333333;6;
2;Australia;New South Wales;Merrygoen;;149.2333333;-31.8166667;6;
2;Australia;New South Wales;Merrylands;;150.9833333;-33.8333333;6;
2;Australia;New South Wales;Merrywinebone;;148.8166667;-29.6833333;6;
2;Australia;New South Wales;Meruthera;;149.5833333;-32.1166667;6;
2;Australia;New South Wales;Methul;;147.15;-34.6;6;
2;Australia;New South Wales;Metz;;151.8666667;-30.5666667;6;
2;Australia;New South Wales;Miandetta;;146.9666667;-31.5833333;6;
2;Australia;New South Wales;Micaligo;;149.1666667;-35.7166667;6;
2;Australia;New South Wales;Michelago;;149.1666667;-35.7166667;6;
2;Australia;New South Wales;Middle Camp;;151.6333333;-33.15;6;
2;Australia;New South Wales;Middlefield;;147.5833333;-32.4333333;6;
2;Australia;New South Wales;Middlingbank;;148.8333333;-36.2166667;6;
2;Australia;New South Wales;Midginbil;;153.2666667;-28.4833333;6;
2;Australia;New South Wales;Mila;;149.1666667;-37.0666667;6;
2;Australia;New South Wales;Milbrulong;;146.8666667;-35.25;6;
2;Australia;New South Wales;Millers Forest;;151.7;-32.75;6;
2;Australia;New South Wales;Millfield;;151.25;-32.8833333;6;
2;Australia;New South Wales;Millie;;149.5666667;-29.8166667;6;
2;Australia;New South Wales;Milligandi;;149.8333333;-36.8666667;6;
2;Australia;New South Wales;Millingandi;;149.8333333;-36.8666667;6;
2;Australia;New South Wales;Millthorpe;;149.1833333;-33.45;6;
2;Australia;New South Wales;Millwood;;147.15;-35.0166667;6;
2;Australia;New South Wales;Milparin;;141.8833333;-29.7333333;6;
2;Australia;New South Wales;Milparinka;;141.8833333;-29.7333333;6;
2;Australia;New South Wales;Milroy;;150.05;-31.15;6;
2;Australia;New South Wales;Milton;;150.4333333;-35.3166667;6;
2;Australia;New South Wales;Milvale;;147.9166667;-34.3166667;6;
2;Australia;New South Wales;Milwood;;147.15;-35.0166667;6;
2;Australia;New South Wales;Mimosa;;147.45;-34.6;6;
2;Australia;New South Wales;Mineral Hill;;147;-32.6;6;
2;Australia;New South Wales;Minimbah;;152.3833333;-32.1666667;6;
2;Australia;New South Wales;Minjary;;148.1333333;-35.2;6;
2;Australia;New South Wales;Minmi;;151.7166667;-32.8833333;6;
2;Australia;New South Wales;Minnamurra;;150.85;-34.6333333;6;
2;Australia;New South Wales;Minore;;148.4666667;-32.25;6;
2;Australia;New South Wales;Minto;;150.85;-34.0333333;6;
2;Australia;New South Wales;Minynon;;153.4166667;-28.6333333;6;
2;Australia;New South Wales;Miranda;;151.1;-34.0333333;6;
2;Australia;New South Wales;Mirrool;;147.1;-34.3166667;6;
2;Australia;New South Wales;Missabotti;;152.8;-30.6;6;
2;Australia;New South Wales;Missingham;;153.0333333;-28.7;6;
2;Australia;New South Wales;Mitchell;;152.1166667;-29.6833333;6;
2;Australia;New South Wales;Mitchells Flat;;151.2833333;-32.5666667;6;
2;Australia;New South Wales;Mitchells Island;;152.6166667;-31.9;6;
2;Australia;New South Wales;Mitta Mitta;;147.85;-34.8833333;6;
2;Australia;New South Wales;Mittagong;;150.45;-34.45;6;
2;Australia;New South Wales;Mogendoura;;150.05;-35.8833333;6;
2;Australia;New South Wales;Mogil Mogil;;148.6833333;-29.3666667;6;
2;Australia;New South Wales;Mogilla;;149.5833333;-36.7;6;
2;Australia;New South Wales;Mogo;;150.1333333;-35.7833333;6;
2;Australia;New South Wales;Mogongong;;148.2833333;-33.9333333;6;
2;Australia;New South Wales;Mograni Creek;;152.0333333;-32.0333333;6;
2;Australia;New South Wales;Mogriguy;;148.6833333;-32.0666667;6;
2;Australia;New South Wales;Moira;;144.85;-35.9333333;6;
2;Australia;New South Wales;Mole River;;151.7666667;-29.1166667;6;
2;Australia;New South Wales;Mole Station;;151.75;-29.1;6;
2;Australia;New South Wales;Moleton;;152.9;-30.1666667;6;
2;Australia;New South Wales;Molong;;148.8666667;-33.1;6;
2;Australia;New South Wales;Molroy;;150.5833333;-29.8;6;
2;Australia;New South Wales;Mona Vale;;151.3;-33.6666667;6;
2;Australia;New South Wales;Monameith;;147.2166667;-35.0666667;6;
2;Australia;New South Wales;Monga;;149.9333333;-35.55;6;
2;Australia;New South Wales;Mongarlowe;;149.9333333;-35.4333333;6;
2;Australia;New South Wales;Mongogarie;;152.9333333;-28.95;6;
2;Australia;New South Wales;Monkerai;;151.8666667;-32.25;6;
2;Australia;New South Wales;Monkeyjacket;;152.1666667;-32.6333333;6;
2;Australia;New South Wales;Monks;;149.0666667;-31.6833333;6;
2;Australia;New South Wales;Monomie;;147.6833333;-33.1333333;6;
2;Australia;New South Wales;Monteagle;;148.35;-34.1833333;6;
2;Australia;New South Wales;Montefiores;;148.9333333;-32.5333333;6;
2;Australia;New South Wales;Mooball;;153.4833333;-28.45;6;
2;Australia;New South Wales;Moolarben;;149.75;-32.35;6;
2;Australia;New South Wales;Moombooldool;;146.6833333;-34.3;6;
2;Australia;New South Wales;Moona Plains;;151.8833333;-31;6;
2;Australia;New South Wales;Moonan Brook;;151.3;-31.95;6;
2;Australia;New South Wales;Moonan Flat;;151.25;-31.9166667;6;
2;Australia;New South Wales;Moonbah;;148.5333333;-36.5;6;
2;Australia;New South Wales;Moonbar;;148.5333333;-36.5;6;
2;Australia;New South Wales;Moonbi;;151.0666667;-31.0166667;6;
2;Australia;New South Wales;Mooneba;;152.6833333;-31.05;6;
2;Australia;New South Wales;Moonee Beach;;153.15;-30.2166667;6;
2;Australia;New South Wales;Mooney Mooney;;151.2;-33.5166667;6;
2;Australia;New South Wales;Moongulla;;148.3833333;-29.4333333;6;
2;Australia;New South Wales;Moore Creek Upper;;150.9666667;-31.0166667;6;
2;Australia;New South Wales;Moore Creek;;150.9166667;-31;6;
2;Australia;New South Wales;Mooren;;149.3333333;-31.7;6;
2;Australia;New South Wales;Moorland;;152.6666667;-31.7833333;6;
2;Australia;New South Wales;Moorna;;141.6166667;-34.1333333;6;
2;Australia;New South Wales;Moorwatha;;146.7;-35.9833333;6;
2;Australia;New South Wales;Mooyabil;;153.45;-28.55;6;
2;Australia;New South Wales;Moppin;;149.75;-29.2;6;
2;Australia;New South Wales;Morago;;144.6833333;-35.35;6;
2;Australia;New South Wales;Morangarell;;147.7;-34.15;6;
2;Australia;New South Wales;Morans Crossing;;149.65;-36.6666667;6;
2;Australia;New South Wales;Moredun;;151.55;-30;6;
2;Australia;New South Wales;Moree;;149.85;-29.4666667;6;
2;Australia;New South Wales;Morisset East;;151.5333333;-33.1166667;6;
2;Australia;New South Wales;Morisset;;151.5;-33.1;6;
2;Australia;New South Wales;Morongla Creek;;148.6833333;-33.9333333;6;
2;Australia;New South Wales;Mororo;;153.25;-29.3333333;6;
2;Australia;New South Wales;Morpeth;;151.6333333;-32.7333333;6;
2;Australia;New South Wales;Morrisset;;151.5;-33.1;6;
2;Australia;New South Wales;Mortdale;;151.0833333;-33.9666667;6;
2;Australia;New South Wales;Mortlake;;151.1166667;-33.85;6;
2;Australia;New South Wales;Morton Creek;;152.65;-31.3833333;6;
2;Australia;New South Wales;Morton;;150.3666667;-35.4;6;
2;Australia;New South Wales;Mortons Creek;;152.65;-31.3833333;6;
2;Australia;New South Wales;Morumbateman;;149.0333333;-34.9666667;6;
2;Australia;New South Wales;Morundah;;146.3;-34.9333333;6;
2;Australia;New South Wales;Moruya Heads;;150.1666667;-35.9166667;6;
2;Australia;New South Wales;Moruya;;150.0833333;-35.9166667;6;
2;Australia;New South Wales;Morven;;147.1;-35.65;6;
2;Australia;New South Wales;Mosman;;151.2333333;-33.8277778;6;
2;Australia;New South Wales;Mosquito Creek;;150.35;-29.45;6;
2;Australia;New South Wales;Moss Vale;;150.3833333;-34.55;6;
2;Australia;New South Wales;Mossgiel;;144.5666667;-33.2666667;6;
2;Australia;New South Wales;Mottram;;152.5833333;-31.85;6;
2;Australia;New South Wales;Moulamein;;144.0333333;-35.0833333;6;
2;Australia;New South Wales;Mount Adrah;;147.9;-35.2166667;6;
2;Australia;New South Wales;Mount Allen;;145.8666667;-32.7;6;
2;Australia;New South Wales;Mount Burrell;;153.2166667;-28.5;6;
2;Australia;New South Wales;Mount Colah;;151.1166667;-33.6833333;6;
2;Australia;New South Wales;Mount Cooper;;149.2166667;-36.6833333;6;
2;Australia;New South Wales;Mount Costigan;;149.3666667;-34.0333333;6;
2;Australia;New South Wales;Mount Darragh;;149.5166667;-36.8333333;6;
2;Australia;New South Wales;Mount David;;149.5833333;-33.8166667;6;
2;Australia;New South Wales;Mount Druitt;;150.8166667;-33.7666667;6;
2;Australia;New South Wales;Mount Drysdale;;145.8666667;-31.1666667;6;
2;Australia;New South Wales;Mount Fairy;;149.6;-35.1833333;6;
2;Australia;New South Wales;Mount Frome;;149.6333333;-32.6;6;
2;Australia;New South Wales;Mount George;;152.1833333;-31.9;6;
2;Australia;New South Wales;Mount Gwynne;;145.9;-35.9;6;
2;Australia;New South Wales;Mount Horeb;;148.0333333;-35.2166667;6;
2;Australia;New South Wales;Mount Horrible;;149.8333333;-33.2166667;6;
2;Australia;New South Wales;Mount Hunter;;150.6333333;-34.0666667;6;
2;Australia;New South Wales;Mount Irvine;;150.4666667;-33.5;6;
2;Australia;New South Wales;Mount Knowles;;149.7166667;-32.6333333;6;
2;Australia;New South Wales;Mount Manara;;143.9333333;-32.4833333;6;
2;Australia;New South Wales;Mount Marshall;;150.75;-34.55;6;
2;Australia;New South Wales;Mount McDonald;;148.95;-33.9;6;
2;Australia;New South Wales;Mount Mitchell;;151.85;-30.0166667;6;
2;Australia;New South Wales;Mount Pleasant;;151.35;-33.4833333;6;
2;Australia;New South Wales;Mount Russell;;150.9333333;-29.6833333;6;
2;Australia;New South Wales;Mount Victoria;;150.25;-33.5833333;6;
2;Australia;New South Wales;Mount View;;151.2833333;-32.85;6;
2;Australia;New South Wales;Mount White;;151.2;-33.45;6;
2;Australia;New South Wales;Mount Wilson;;150.3833333;-33.5;6;
2;Australia;New South Wales;Mountain Creek;;147.15;-35.75;6;
2;Australia;New South Wales;Mowbray Park;;150.55;-34.15;6;
2;Australia;New South Wales;Mudgee River;;149.3;-32.6166667;6;
2;Australia;New South Wales;Mudgee;;149.5833333;-32.4333333;6;
2;Australia;New South Wales;Mugincoble;;148.2333333;-33.1833333;6;
2;Australia;New South Wales;Mulbring;;151.4833333;-32.9;6;
2;Australia;New South Wales;Mulgoa;;150.6666667;-33.8333333;6;
2;Australia;New South Wales;Mullaley;;149.9;-31.1;6;
2;Australia;New South Wales;Mullally;;149.9;-31.1;6;
2;Australia;New South Wales;Mullanjandra;;147.1666667;-35.8833333;6;
2;Australia;New South Wales;Mullengandra;;147.1666667;-35.8833333;6;
2;Australia;New South Wales;Mullengudgery;;147.4333333;-31.6833333;6;
2;Australia;New South Wales;Mullion Creek;;149.1333333;-33.1333333;6;
2;Australia;New South Wales;Mullumbimby;;153.5;-28.55;6;
2;Australia;New South Wales;Mullwee;;151.95;-32.7166667;6;
2;Australia;New South Wales;Mulwala;;146.0166667;-35.9833333;6;
2;Australia;New South Wales;Mumbil;;149.05;-32.7166667;6;
2;Australia;New South Wales;Mummulgum;;152.8;-28.85;6;
2;Australia;New South Wales;Mundarlo;;147.8166667;-35.1333333;6;
2;Australia;New South Wales;Mundawaddra;;146.9833333;-35.3833333;6;
2;Australia;New South Wales;Munderoo;;147.8666667;-35.85;6;
2;Australia;New South Wales;Mundowey;;150.9;-30.7666667;6;
2;Australia;New South Wales;Mundowy;;147.1166667;-35.0833333;6;
2;Australia;New South Wales;Mungarere;;150.0333333;-35.95;6;
2;Australia;New South Wales;Mungary;;148;-32.55;6;
2;Australia;New South Wales;Mungeribar;;148.1166667;-32.1333333;6;
2;Australia;New South Wales;Mungery;;148;-32.55;6;
2;Australia;New South Wales;Munghorn;;149.8;-32.45;6;
2;Australia;New South Wales;Munmurra;;149.9666667;-32.1666667;6;
2;Australia;New South Wales;Munyabla;;146.8666667;-35.4833333;6;
2;Australia;New South Wales;Murga;;148.5333333;-33.3666667;6;
2;Australia;New South Wales;Murrah;;150.0166667;-36.5;6;
2;Australia;New South Wales;Murrami;;146.3;-34.4166667;6;
2;Australia;New South Wales;Murrimba;;150.1166667;-34.65;6;
2;Australia;New South Wales;Murringo;;148.5166667;-34.3;6;
2;Australia;New South Wales;Murrumbateman;;149.0333333;-34.9666667;6;
2;Australia;New South Wales;Murrumbucca;;149.0666667;-36.1166667;6;
2;Australia;New South Wales;Murrumburrah;;148.5333333;-34.55;6;
2;Australia;New South Wales;Murrundi;;150.8333333;-31.7666667;6;
2;Australia;New South Wales;Murrurundi;;150.8333333;-31.7666667;6;
2;Australia;New South Wales;Murrybong;;146.4166667;-33.7166667;6;
2;Australia;New South Wales;Murwillumbah;;153.4;-28.3166667;6;
2;Australia;New South Wales;Musclebrook;;150.9;-32.2666667;6;
2;Australia;New South Wales;Muswellbrook;;150.9;-32.2666667;6;
2;Australia;New South Wales;Muttama;;148.1166667;-34.8;6;
2;Australia;New South Wales;Myall Cowal;;147.1;-32.0166667;6;
2;Australia;New South Wales;Myall Creek Station;;150.7666667;-29.75;6;
2;Australia;New South Wales;Myall Creek;;150.7666667;-29.75;6;
2;Australia;New South Wales;Myall Plains;;145.9333333;-35.5166667;6;
2;Australia;New South Wales;Myalla;;149.1166667;-36.4166667;6;
2;Australia;New South Wales;Myambat;;150.6166667;-32.3833333;6;
2;Australia;New South Wales;Mylestom;;153.05;-30.4666667;6;
2;Australia;New South Wales;Myramount;;150.8333333;-34.7666667;6;
2;Australia;New South Wales;Myrtleville;;149.8166667;-34.4833333;6;
2;Australia;New South Wales;Myuna;;149.15;-37.1166667;6;
2;Australia;New South Wales;Nabiac;;152.3833333;-32.1;6;
2;Australia;New South Wales;Nambucca Heads;;153;-30.65;6;
2;Australia;New South Wales;Nambucca;;152.9833333;-30.6333333;6;
2;Australia;New South Wales;Namoucca Heads;;153;-30.65;6;
2;Australia;New South Wales;Nana Glen;;153.0166667;-30.1333333;6;
2;Australia;New South Wales;Nanami;;148.4;-33.5333333;6;
2;Australia;New South Wales;Nanardine;;148.1166667;-33.0666667;6;
2;Australia;New South Wales;Nandewar;;150.2666667;-30.8;6;
2;Australia;New South Wales;Nangerybone;;146.55;-32.3333333;6;
2;Australia;New South Wales;Nangus;;147.9;-35.05;6;
2;Australia;New South Wales;Napier;;146.7833333;-35.25;6;
2;Australia;New South Wales;Naradhan;;146.3333333;-33.6166667;6;
2;Australia;New South Wales;Narara;;151.35;-33.4;6;
2;Australia;New South Wales;Narellan;;150.7333333;-34.0333333;6;
2;Australia;New South Wales;Nargong;;148.9333333;-33.7166667;6;
2;Australia;New South Wales;Nargorg;;148.9333333;-33.7166667;6;
2;Australia;New South Wales;Nariah;;146.7333333;-33.95;6;
2;Australia;New South Wales;Naringhi Telegraph Office;;146.0833333;-32.2166667;6;
2;Australia;New South Wales;Naringhi;;146.0833333;-32.2166667;6;
2;Australia;New South Wales;Narira;;149.9666667;-36.3833333;6;
2;Australia;New South Wales;Narooma;;150.05;-36.2166667;6;
2;Australia;New South Wales;Narrabarba;;149.8166667;-37.25;6;
2;Australia;New South Wales;Narrabeen;;151.3;-33.7083333;6;
2;Australia;New South Wales;Narrabri West;;149.75;-30.3333333;6;
2;Australia;New South Wales;Narrabri;;149.7833333;-30.3166667;6;
2;Australia;New South Wales;Narraburra;;147.65;-34.3333333;6;
2;Australia;New South Wales;Narrallen;;148.6666667;-34.2666667;6;
2;Australia;New South Wales;Narran;;149.1;-32.1333333;6;
2;Australia;New South Wales;Narrandera;;146.55;-34.75;6;
2;Australia;New South Wales;Narrawa;;149.0833333;-34.4166667;6;
2;Australia;New South Wales;Narriah;;146.7333333;-33.95;6;
2;Australia;New South Wales;Narromine;;148.25;-32.15;6;
2;Australia;New South Wales;Nashdale;;149.0333333;-33.2833333;6;
2;Australia;New South Wales;Nashua;;153.4666667;-28.7333333;6;
2;Australia;New South Wales;Naughtons Gap;;153.1;-28.8;6;
2;Australia;New South Wales;Nea;;150.3;-31.1833333;6;
2;Australia;New South Wales;Neath;;151.4166667;-32.8166667;6;
2;Australia;New South Wales;Neeworra;;149.0833333;-29.0333333;6;
2;Australia;New South Wales;Neilrex;;149.3;-31.7333333;6;
2;Australia;New South Wales;Nelia Gaari;;142.85;-32.1;6;
2;Australia;New South Wales;Nelligen;;150.1333333;-35.65;6;
2;Australia;New South Wales;Nelson Bay;;152.15;-32.7166667;6;
2;Australia;New South Wales;Nelson's Bay;;152.15;-32.7166667;6;
2;Australia;New South Wales;Nelsons Plains;;151.7166667;-37.7333333;6;
2;Australia;New South Wales;Nelungaloo;;148;-33.1333333;6;
2;Australia;New South Wales;Nemingha;;150.9833333;-31.15;6;
2;Australia;New South Wales;Neranie;;152.45;-32.4;6;
2;Australia;New South Wales;Nerriga;;150.0833333;-35.1166667;6;
2;Australia;New South Wales;Nerrigundah;;149.9;-36.1166667;6;
2;Australia;New South Wales;Nethercote;;149.8166667;-37.0333333;6;
2;Australia;New South Wales;Nevertire;;147.7166667;-31.85;6;
2;Australia;New South Wales;Neville;;149.2166667;-33.7166667;6;
2;Australia;New South Wales;New Brighton;;153.55;-28.5166667;6;
2;Australia;New South Wales;New Italy;;153.2833333;-29.15;6;
2;Australia;New South Wales;New Koreelah;;152.3166667;-28.5;6;
2;Australia;New South Wales;New Lambton;;151.6833333;-32.95;6;
2;Australia;New South Wales;New Mexico;;150.6;-30.7333333;6;
2;Australia;New South Wales;Newbridge;;149.3833333;-33.5833333;6;
2;Australia;New South Wales;Newcastle;;151.75;-32.9166667;6;
2;Australia;New South Wales;Newnes Junction;;150.25;-33.4833333;6;
2;Australia;New South Wales;Newnes;;150.25;-33.1833333;6;
2;Australia;New South Wales;Newport;;151.3166667;-33.6666667;6;
2;Australia;New South Wales;Newrea;;148.95;-32.6666667;6;
2;Australia;New South Wales;Newrybar;;153.5333333;-28.7166667;6;
2;Australia;New South Wales;Newstead;;151.35;-29.8333333;6;
2;Australia;New South Wales;Newton Boyd;;152.2666667;-29.75;6;
2;Australia;New South Wales;Niangala;;151.4;-31.2833333;6;
2;Australia;New South Wales;Nicholsons Lagoon;;150.5666667;-31.4166667;6;
2;Australia;New South Wales;Nimbin;;153.2333333;-28.6;6;
2;Australia;New South Wales;Nimmitabel;;149.2833333;-36.5166667;6;
2;Australia;New South Wales;Nirrim;;152.5166667;-31.9166667;6;
2;Australia;New South Wales;Nobbys Creek;;153.3333333;-28.3;6;
2;Australia;New South Wales;Noonbinna;;148.6333333;-33.9;6;
2;Australia;New South Wales;Noorooma;;150.05;-36.2166667;6;
2;Australia;New South Wales;Nora Head;;151.5666667;-33.2833333;6;
2;Australia;New South Wales;Norah;;151.5666667;-33.2833333;6;
2;Australia;New South Wales;Norahville;;151.5666667;-33.2833333;6;
2;Australia;New South Wales;Noraville;;151.5666667;-33.2833333;6;
2;Australia;New South Wales;Nords Wharf;;151.6166667;-33.1333333;6;
2;Australia;New South Wales;Normanhurst;;151.1;-33.7333333;6;
2;Australia;New South Wales;North Bourke;;145.95;-30.05;6;
2;Australia;New South Wales;North Creek;;153.6;-28.8166667;6;
2;Australia;New South Wales;North Dorrigo;;152.6833333;-30.2833333;6;
2;Australia;New South Wales;North Gooloogong;;148.45;-33.5666667;6;
2;Australia;New South Wales;North Haven;;152.8166667;-31.6333333;6;
2;Australia;New South Wales;North Lismore;;153.2833333;-28.8;6;
2;Australia;New South Wales;North Moruva;;150.0833333;-35.9;6;
2;Australia;New South Wales;North Sydney;;151.2072222;-33.8405556;6;
2;Australia;New South Wales;North Tumbulgum;;153.45;-28.25;6;
2;Australia;New South Wales;North Turramurra;;151.15;-33.7166667;6;
2;Australia;New South Wales;North Wagga;;147.3833333;-35.1;6;
2;Australia;New South Wales;North Yathong;;145.9;-35.25;6;
2;Australia;New South Wales;Northmead;;150.9833333;-33.7833333;6;
2;Australia;New South Wales;Norway;;149.8666667;-33.7666667;6;
2;Australia;New South Wales;Norwood;;149.7333333;-34.6666667;6;
2;Australia;New South Wales;Nowendoc;;151.7333333;-31.5166667;6;
2;Australia;New South Wales;Nowra;;150.6;-34.8833333;6;
2;Australia;New South Wales;Nowranie;;146.0833333;-35.4333333;6;
2;Australia;New South Wales;Nubba;;148.2166667;-34.5166667;6;
2;Australia;New South Wales;Nubingerie;;148.6666667;-32.5166667;6;
2;Australia;New South Wales;Nullamanna;;151.2166667;-29.65;6;
2;Australia;New South Wales;Numba;;150.6833333;-34.8833333;6;
2;Australia;New South Wales;Number One;;152.0666667;-31.7333333;6;
2;Australia;New South Wales;Numbla Vale;;148.8;-36.65;6;
2;Australia;New South Wales;Numbugga;;149.75;-36.6333333;6;
2;Australia;New South Wales;Numby;;149.0166667;-34.1333333;6;
2;Australia;New South Wales;Numeralla;;149.3333333;-36.1666667;6;
2;Australia;New South Wales;Numinbah;;153.25;-28.2833333;6;
2;Australia;New South Wales;Numulgi;;153.3333333;-28.7333333;6;
2;Australia;New South Wales;Nundle;;151.1333333;-31.4666667;6;
2;Australia;New South Wales;Nungatta;;149.4;-37.2333333;6;
2;Australia;New South Wales;Nymagee;;146.3333333;-32.0666667;6;
2;Australia;New South Wales;Nymboida;;152.7166667;-29.95;6;
2;Australia;New South Wales;Nyngan;;147.1833333;-31.5666667;6;
2;Australia;New South Wales;Nyrang Creek;;148.55;-33.5333333;6;
2;Australia;New South Wales;O.B.X. Creek;;152.7166667;-29.7833333;6;
2;Australia;New South Wales;Oakdale;;150.5166667;-34.0833333;6;
2;Australia;New South Wales;Oakey Creek;;149.7;-31.6166667;6;
2;Australia;New South Wales;Oakhampton;;151.5666667;-32.7;6;
2;Australia;New South Wales;Oakland;;146.1666667;-35.55;6;
2;Australia;New South Wales;Oaklands;;146.1666667;-35.55;6;
2;Australia;New South Wales;Oakwood;;151.05;-29.65;6;
2;Australia;New South Wales;Oatley;;151.0666667;-33.9833333;6;
2;Australia;New South Wales;Oban;;151.8666667;-30.1333333;6;
2;Australia;New South Wales;Oberne Creek;;147.8333333;-35.4;6;
2;Australia;New South Wales;Oberne;;147.8333333;-35.4;6;
2;Australia;New South Wales;Oberon;;149.8666667;-33.7166667;6;
2;Australia;New South Wales;Obley;;148.5666667;-32.7;6;
2;Australia;New South Wales;Ocean Beach;;151.3166667;-33.5333333;6;
2;Australia;New South Wales;O'Connell;;149.7333333;-33.5333333;6;
2;Australia;New South Wales;Ohio;;151.6166667;-30.9666667;6;
2;Australia;New South Wales;Old Bar;;152.5833333;-31.9666667;6;
2;Australia;New South Wales;Old Bonalbo;;152.6;-28.65;6;
2;Australia;New South Wales;Old Burren;;148.9;-29.95;6;
2;Australia;New South Wales;Old Junee;;147.5333333;-34.8333333;6;
2;Australia;New South Wales;Old Koreelah;;152.4166667;-28.4;6;
2;Australia;New South Wales;Old Rothbury;;151.3333333;-32.75;6;
2;Australia;New South Wales;Olinda;;150.1333333;-32.8333333;6;
2;Australia;New South Wales;Ollera;;151.5333333;-30.1;6;
2;Australia;New South Wales;Oolong;;149.1666667;-34.7833333;6;
2;Australia;New South Wales;Ooma Creek;;148.0833333;-33.7166667;6;
2;Australia;New South Wales;Oorundunby;;151.6666667;-31.2;6;
2;Australia;New South Wales;Ootha;;147.45;-33.1166667;6;
2;Australia;New South Wales;Ophir;;149.2333333;-33.1666667;6;
2;Australia;New South Wales;Orange;;149.1;-33.2833333;6;
2;Australia;New South Wales;Orton Park;;149.5666667;-33.4666667;6;
2;Australia;New South Wales;Osborne;;146.7166667;-35.3666667;6;
2;Australia;New South Wales;Otford;;151;-34.2166667;6;
2;Australia;New South Wales;Oura;;147.5333333;-35.1166667;6;
2;Australia;New South Wales;Ourimbah;;151.4333333;-33.3666667;6;
2;Australia;New South Wales;Ournie;;147.85;-35.9333333;6;
2;Australia;New South Wales;Overton;;146.2666667;-35.5;6;
2;Australia;New South Wales;Owens Gap;;150.7;-32.05;6;
2;Australia;New South Wales;Oxley Island;;152.5666667;-31.9166667;6;
2;Australia;New South Wales;Oxley;;144.1;-34.2;6;
2;Australia;New South Wales;Paddlecock;;151.7666667;-30.3666667;6;
2;Australia;New South Wales;Paddledock;;151.7666667;-30.3666667;6;
2;Australia;New South Wales;Paddys Flat;;152.4166667;-28.7333333;6;
2;Australia;New South Wales;Paleroo;;150.1666667;-30.1166667;6;
2;Australia;New South Wales;Pallal;;150.3833333;-29.9166667;6;
2;Australia;New South Wales;Pallamallawa;;150.1333333;-29.4666667;6;
2;Australia;New South Wales;Palm Beach;;151.3166667;-33.6;6;
2;Australia;New South Wales;Palm Dale;;151.3666667;-33.3333333;6;
2;Australia;New South Wales;Palm Grove;;151.3166667;-33.3333333;6;
2;Australia;New South Wales;Palmer Island;;153.2833333;-29.4166667;6;
2;Australia;New South Wales;Palmers Island;;153.2833333;-29.4166667;6;
2;Australia;New South Wales;Palmers Oaky;;149.8666667;-33.2;6;
2;Australia;New South Wales;Palmvale;;153.4833333;-28.3666667;6;
2;Australia;New South Wales;Pambula;;149.8666667;-36.9333333;6;
2;Australia;New South Wales;Pampoolah;;152.5333333;-31.9333333;6;
2;Australia;New South Wales;Panbula;;149.8666667;-36.9333333;6;
2;Australia;New South Wales;Panjee;;146.7666667;-32;6;
2;Australia;New South Wales;Pappinbarra;;152.5;-31.3666667;6;
2;Australia;New South Wales;Paramellowa;;150.1333333;-29.4666667;6;
2;Australia;New South Wales;Parkes;;148.1833333;-33.1333333;6;
2;Australia;New South Wales;Parkesborough;;148.1666667;-33.1833333;6;
2;Australia;New South Wales;Parkville;;150.8666667;-31.9833333;6;
2;Australia;New South Wales;Parramatta;;151;-33.8166667;6;
2;Australia;New South Wales;Paterson;;151.6;-32.6;6;
2;Australia;New South Wales;Patonga Beach;;151.2666667;-33.55;6;
2;Australia;New South Wales;Patonga;;151.2666667;-33.55;6;
2;Australia;New South Wales;Paupong;;148.6833333;-36.5833333;6;
2;Australia;New South Wales;Paxton;;151.2666667;-32.9166667;6;
2;Australia;New South Wales;Peak Hill;;148.1833333;-32.7333333;6;
2;Australia;New South Wales;Peakview;;149.3833333;-36.0666667;6;
2;Australia;New South Wales;Pearl Beach;;151.3;-33.55;6;
2;Australia;New South Wales;Peats Ridge;;151.2333333;-33.3166667;6;
2;Australia;New South Wales;Pee Dee;;152.45;-30.7833333;6;
2;Australia;New South Wales;Peel;;149.6333333;-33.3166667;6;
2;Australia;New South Wales;Peelwood;;149.4333333;-34.1166667;6;
2;Australia;New South Wales;Pegar;;149.5833333;-34.5833333;6;
2;Australia;New South Wales;Pejar;;149.5833333;-34.5833333;6;
2;Australia;New South Wales;Pelican Flat;;151.65;-33.0666667;6;
2;Australia;New South Wales;Pelican Island;;153.0166667;-30.95;6;
2;Australia;New South Wales;Pembroke;;152.75;-31.3833333;6;
2;Australia;New South Wales;Pembrooke;;152.75;-31.3833333;6;
2;Australia;New South Wales;Penarie;;143.6166667;-34.4;6;
2;Australia;New South Wales;Pendle Hill;;150.95;-33.8;6;
2;Australia;New South Wales;Pendle Hills;;150.95;-33.8;6;
2;Australia;New South Wales;Pennant Hills;;151.0666667;-33.7333333;6;
2;Australia;New South Wales;Penrith;;150.7;-33.75;6;
2;Australia;New South Wales;Penrose;;150.2166667;-34.6666667;6;
2;Australia;New South Wales;Penshurst;;151.0833333;-33.9666667;6;
2;Australia;New South Wales;Perekerten;;143.8333333;-34.9333333;6;
2;Australia;New South Wales;Pericoe;;149.6166667;-37.1166667;6;
2;Australia;New South Wales;Perthville;;149.5333333;-33.4833333;6;
2;Australia;New South Wales;Phillip;;150.85;-31.1333333;6;
2;Australia;New South Wales;Phils Creek;;148.9166667;-34.3666667;6;
2;Australia;New South Wales;Piallamore;;151.0833333;-31.2;6;
2;Australia;New South Wales;Piallaway;;150.5833333;-31.1666667;6;
2;Australia;New South Wales;Piambong;;149.4;-32.5166667;6;
2;Australia;New South Wales;Piambra;;149.3833333;-31.65;6;
2;Australia;New South Wales;Pibbon;;149.0666667;-31.6;6;
2;Australia;New South Wales;Picton Lakes;;150.55;-34.2333333;6;
2;Australia;New South Wales;Picton;;150.6;-34.1833333;6;
2;Australia;New South Wales;Piggabeen;;153.4666667;-28.1833333;6;
2;Australia;New South Wales;Pillar Valley;;153.1166667;-29.7666667;6;
2;Australia;New South Wales;Pilliga;;148.9;-30.35;6;
2;Australia;New South Wales;Pimlico;;153.5;-28.9166667;6;
2;Australia;New South Wales;Pindari;;151.3166667;-29.5166667;6;
2;Australia;New South Wales;Pindimar;;152.1166667;-32.6666667;6;
2;Australia;New South Wales;Pine Ridge;;149.5333333;-31.9833333;6;
2;Australia;New South Wales;Pinecliffe;;148.8;-33.15;6;
2;Australia;New South Wales;Piney Range;;147.9166667;-33.85;6;
2;Australia;New South Wales;Piora;;152.9;-28.85;6;
2;Australia;New South Wales;Pise;;144.1666667;-32.7166667;6;
2;Australia;New South Wales;Pitt Town;;150.8666667;-33.5833333;6;
2;Australia;New South Wales;Plains Station;;152.55;-29;6;
2;Australia;New South Wales;Platts;;149.3;-37.0833333;6;
2;Australia;New South Wales;Plattsburg;;151.6666667;-32.85;6;
2;Australia;New South Wales;Pleasant Hills;;146.8;-35.4666667;6;
2;Australia;New South Wales;Point Clare;;151.3333333;-33.45;6;
2;Australia;New South Wales;Pokataroo;;148.7;-29.5833333;6;
2;Australia;New South Wales;Pokolbin;;151.2833333;-32.8;6;
2;Australia;New South Wales;Pomeroy;;149.5;-34.6666667;6;
2;Australia;New South Wales;Pooncaira;;142.5666667;-33.3833333;6;
2;Australia;New South Wales;Pooncarie;;142.5666667;-33.3833333;6;
2;Australia;New South Wales;Port Hacking;;151.1333333;-34.0666667;6;
2;Australia;New South Wales;Port Kembla;;150.9;-34.4666667;6;
2;Australia;New South Wales;Port Macquarie;;152.9166667;-31.4333333;6;
2;Australia;New South Wales;Porters Retreat;;149.8166667;-34;6;
2;Australia;New South Wales;Portland;;150;-33.3666667;6;
2;Australia;New South Wales;Possum Brush;;152.4333333;-32.0666667;6;
2;Australia;New South Wales;Premer;;149.9;-31.4666667;6;
2;Australia;New South Wales;Pretty Beach;;151.35;-33.5166667;6;
2;Australia;New South Wales;Pretty Gully;;152.45;-28.7833333;6;
2;Australia;New South Wales;Pretty Pine;;144.8666667;-35.4166667;6;
2;Australia;New South Wales;Pucawan;;147.3666667;-34.4;6;
2;Australia;New South Wales;Puddlecock;;151.7666667;-30.3666667;6;
2;Australia;New South Wales;Puddledock;;151.7666667;-30.3666667;6;
2;Australia;New South Wales;Pudman Creek;;148.9333333;-34.6;6;
2;Australia;New South Wales;Puen Buen;;149.7333333;-36.4666667;6;
2;Australia;New South Wales;Puggoon;;149.4833333;-32.2666667;6;
2;Australia;New South Wales;Pullabooka;;147.7666667;-33.75;6;
2;Australia;New South Wales;Pumpenbill;;153.15;-28.3666667;6;
2;Australia;New South Wales;Putty;;150.6666667;-32.95;6;
2;Australia;New South Wales;Pymble West;;151.1333333;-33.7666667;6;
2;Australia;New South Wales;Pymble;;151.15;-33.75;6;
2;Australia;New South Wales;Pyramul;;149.6166667;-32.8833333;6;
2;Australia;New South Wales;Pyree;;150.7;-34.9166667;6;
2;Australia;New South Wales;Quaama;;149.8666667;-36.4666667;6;
2;Australia;New South Wales;Quaamaa;;149.8666667;-36.4666667;6;
2;Australia;New South Wales;Quakers Hill;;150.8833333;-33.7333333;6;
2;Australia;New South Wales;Quambone;;147.8666667;-30.9333333;6;
2;Australia;New South Wales;Quandary;;147.3166667;-34.3833333;6;
2;Australia;New South Wales;Quandialla;;147.7833333;-34.0166667;6;
2;Australia;New South Wales;Queanbeyan;;149.2333333;-35.35;6;
2;Australia;New South Wales;Quinburra;;149.05;-37.1333333;6;
2;Australia;New South Wales;Quipolly;;150.6666667;-31.4333333;6;
2;Australia;New South Wales;Quirindi;;150.6833333;-31.5166667;6;
2;Australia;New South Wales;Quondong;;148.2;-33.9166667;6;
2;Australia;New South Wales;Raglan;;149.6666667;-33.4166667;6;
2;Australia;New South Wales;Rainbow Flat;;152.4833333;-32.0333333;6;
2;Australia;New South Wales;Raleigh;;153.0166667;-30.45;6;
2;Australia;New South Wales;Ramornie Works;;152.7833333;-29.65;6;
2;Australia;New South Wales;Rampsbeck;;152.1166667;-30.2666667;6;
2;Australia;New South Wales;Rand;;146.5833333;-35.5833333;6;
2;Australia;New South Wales;Randwick;;151.2416667;-33.9166667;6;
2;Australia;New South Wales;Rangemore;;144.3166667;-35.3166667;6;
2;Australia;New South Wales;Rangers Valley;;151.75;-29.5166667;6;
2;Australia;New South Wales;Rankins Springs;;146.2666667;-33.8333333;6;
2;Australia;New South Wales;Rannock;;147.25;-34.65;6;
2;Australia;New South Wales;Rappville;;152.95;-29.0833333;6;
2;Australia;New South Wales;Rapville;;152.95;-29.0833333;6;
2;Australia;New South Wales;Rathmines;;151.6;-33.0333333;6;
2;Australia;New South Wales;Ravensfield;;151.5166667;-32.75;6;
2;Australia;New South Wales;Ravensworth;;151.0666667;-32.45;6;
2;Australia;New South Wales;Rawdon Island;;152.7666667;-31.4333333;6;
2;Australia;New South Wales;Rawdon Vale;;151.7;-31.9833333;6;
2;Australia;New South Wales;Raworth;;151.6166667;-32.7333333;6;
2;Australia;New South Wales;Rawsonville;;148.5;-32.1666667;6;
2;Australia;New South Wales;Raymond Terrace;;151.75;-32.7666667;6;
2;Australia;New South Wales;Red Bend;;148.0333333;-33.4166667;6;
2;Australia;New South Wales;Red Range;;151.9;-29.7833333;6;
2;Australia;New South Wales;Red Rock;;153.2166667;-29.9833333;6;
2;Australia;New South Wales;Redbridge;;148.2666667;-34.4833333;6;
2;Australia;New South Wales;Redhead;;151.7166667;-33.0166667;6;
2;Australia;New South Wales;Reedy Flat;;148.1666667;-35.5166667;6;
2;Australia;New South Wales;Reefton;;147.4333333;-34.25;6;
2;Australia;New South Wales;Regents Park;;151.0166667;-33.8833333;6;
2;Australia;New South Wales;Reidsdale;;149.8666667;-35.5666667;6;
2;Australia;New South Wales;Reidtown;;150.9;-34.3833333;6;
2;Australia;New South Wales;Rennie;;146.1333333;-35.8166667;6;
2;Australia;New South Wales;Reno;;148.05;-35.0333333;6;
2;Australia;New South Wales;Repton;;153.0166667;-30.45;6;
2;Australia;New South Wales;Retreat;;151.1166667;-30.6166667;6;
2;Australia;New South Wales;Revesby;;151.0166667;-33.95;6;
2;Australia;New South Wales;Rhine Falls;;148.8666667;-36.1666667;6;
2;Australia;New South Wales;Rhodes;;151.0833333;-33.8333333;6;
2;Australia;New South Wales;Rhondda;;151.5833333;-32.95;6;
2;Australia;New South Wales;Richlands;;149.8166667;-34.3166667;6;
2;Australia;New South Wales;Richmond;;150.7666667;-33.6;6;
2;Australia;New South Wales;Rileys Hill;;153.4;-29.0166667;6;
2;Australia;New South Wales;Ringwood;;146.2;-35.8;6;
2;Australia;New South Wales;Riverside;;148.3833333;-31.0166667;6;
2;Australia;New South Wales;Riverstone;;150.8666667;-33.6833333;6;
2;Australia;New South Wales;Rob Roy;;151.0166667;-29.75;6;
2;Australia;New South Wales;Robertson;;150.6;-34.5833333;6;
2;Australia;New South Wales;Rock Flat;;149.2;-36.35;6;
2;Australia;New South Wales;Rock Valley;;153.1666667;-28.75;6;
2;Australia;New South Wales;Rockdale;;151.1333333;-33.95;6;
2;Australia;New South Wales;Rockley;;149.5666667;-33.7;6;
2;Australia;New South Wales;Rockmore;;150.6666667;-30.4333333;6;
2;Australia;New South Wales;Rockton;;149.3;-37.1333333;6;
2;Australia;New South Wales;Rockvale;;151.95;-30.3833333;6;
2;Australia;New South Wales;Rockwell;;149.6833333;-34.2333333;6;
2;Australia;New South Wales;Rocky Creek;;150.2666667;-30.0333333;6;
2;Australia;New South Wales;Rocky Glen;;149.5666667;-31.1166667;6;
2;Australia;New South Wales;Rocky Gully;;151.2166667;-30.8166667;6;
2;Australia;New South Wales;Rocky Hall;;149.5166667;-36.9333333;6;
2;Australia;New South Wales;Rocky River;;151.5;-30.6166667;6;
2;Australia;New South Wales;Rogans Hill;;151.0166667;-33.7333333;6;
2;Australia;New South Wales;Rollands Plains;;152.6833333;-31.2833333;6;
2;Australia;New South Wales;Rookhurst;;151.8833333;-31.8833333;6;
2;Australia;New South Wales;Rooty Hill;;150.8333333;-33.7666667;6;
2;Australia;New South Wales;Rose Valley;;150.8;-34.7166667;6;
2;Australia;New South Wales;Rosebank;;153.4;-28.6666667;6;
2;Australia;New South Wales;Rosebery;;151.2;-33.9166667;6;
2;Australia;New South Wales;Rosebrook;;151.5166667;-32.65;6;
2;Australia;New South Wales;Rosebury;;151.2;-33.9166667;6;
2;Australia;New South Wales;Rosedale;;148.8666667;-35.9666667;6;
2;Australia;New South Wales;Rosehill;;151.0166667;-33.8333333;6;
2;Australia;New South Wales;Rosenthall;;152.1833333;-32.3833333;6;
2;Australia;New South Wales;Roseville;;151.1833333;-33.7833333;6;
2;Australia;New South Wales;Rosewood;;147.8666667;-35.7;6;
2;Australia;New South Wales;Rossglen;;152.7333333;-31.6666667;6;
2;Australia;New South Wales;Rossi;;149.5;-35.4666667;6;
2;Australia;New South Wales;Rothbury;;151.3333333;-32.75;6;
2;Australia;New South Wales;Roto;;145.4666667;-33.05;6;
2;Australia;New South Wales;Round Mountain;;153.55;-28.35;6;
2;Australia;New South Wales;Round Swamp;;149.9333333;-33.0833333;6;
2;Australia;New South Wales;Rous Mill;;153.3833333;-28.8833333;6;
2;Australia;New South Wales;Rous;;153.3833333;-28.8833333;6;
2;Australia;New South Wales;Rowan;;147.3333333;-35.2;6;
2;Australia;New South Wales;Rowena;;148.9166667;-29.8;6;
2;Australia;New South Wales;Royalla;;149.15;-35.5166667;6;
2;Australia;New South Wales;Rugby;;149.0166667;-34.3833333;6;
2;Australia;New South Wales;Running Stream;;149.9;-33.0333333;6;
2;Australia;New South Wales;Rutherford;;151.5333333;-32.7166667;6;
2;Australia;New South Wales;Ruthven;;153.2833333;-28.9333333;6;
2;Australia;New South Wales;Ryan;;146.8666667;-35.5666667;6;
2;Australia;New South Wales;Rydal;;150.0333333;-33.4833333;6;
2;Australia;New South Wales;Rydalmere;;151.05;-33.8;6;
2;Australia;New South Wales;Ryde;;151.1;-33.8166667;6;
2;Australia;New South Wales;Rye Park;;148.9;-34.5166667;6;
2;Australia;New South Wales;Rylstone;;149.9666667;-32.8;6;
2;Australia;New South Wales;Sackville Reach;;150.9;-33.4833333;6;
2;Australia;New South Wales;Sackville;;150.9;-33.4833333;6;
2;Australia;New South Wales;Saint Albans;;150.9833333;-33.2833333;6;
2;Australia;New South Wales;Saint Ives;;151.1666667;-33.7333333;6;
2;Australia;New South Wales;Saint Leonards Creek;;151.6166667;-31.2666667;6;
2;Australia;New South Wales;Saint Marys;;150.7833333;-33.7833333;6;
2;Australia;New South Wales;Saint Peters;;151.1833333;-33.9166667;6;
2;Australia;New South Wales;Salisbury Court;;151.5166667;-30.7333333;6;
2;Australia;New South Wales;Salisbury Plains;;151.5333333;-30.7666667;6;
2;Australia;New South Wales;Salisbury;;151.5666667;-32.25;6;
2;Australia;New South Wales;Sallys Flat;;149.5833333;-33;6;
2;Australia;New South Wales;Salt Ash;;151.9166667;-32.7833333;6;
2;Australia;New South Wales;Sancrox;;152.7833333;-31.4333333;6;
2;Australia;New South Wales;Sandgate;;151.7;-32.8666667;6;
2;Australia;New South Wales;Sandigo;;146.6333333;-34.9333333;6;
2;Australia;New South Wales;Sandy Flat;;152.0166667;-29.2333333;6;
2;Australia;New South Wales;Sandy Hill;;152.25;-28.9166667;6;
2;Australia;New South Wales;Sandy Hollow;;150.5666667;-32.3333333;6;
2;Australia;New South Wales;Sangar;;146.1666667;-35.7;6;
2;Australia;New South Wales;Sapphire;;151.3333333;-29.7;6;
2;Australia;New South Wales;Sassafras;;150.25;-35.1;6;
2;Australia;New South Wales;Sassafrass;;150.25;-35.1;6;
2;Australia;New South Wales;Saumarez;;151.5833333;-30.55;6;
2;Australia;New South Wales;Savernake;;146.05;-35.7333333;6;
2;Australia;New South Wales;Sawtell;;153.1;-30.3833333;6;
2;Australia;New South Wales;Scarborough;;150.95;-34.2666667;6;
2;Australia;New South Wales;Schofields;;150.8666667;-33.7166667;6;
2;Australia;New South Wales;Scone;;150.85;-32.0833333;6;
2;Australia;New South Wales;Seaham;;151.7333333;-32.6666667;6;
2;Australia;New South Wales;Sebastopol;;147.5333333;-34.5833333;6;
2;Australia;New South Wales;Sedgefield;;151.25;-32.5333333;6;
2;Australia;New South Wales;Seelands;;152.9166667;-29.6166667;6;
2;Australia;New South Wales;Segenhoe House;;150.9166667;-32.1166667;6;
2;Australia;New South Wales;Segenhoe;;150.9166667;-32.1166667;6;
2;Australia;New South Wales;Seven Hills;;150.9333333;-33.7833333;6;
2;Australia;New South Wales;Severn;;151.8666667;-29.5666667;6;
2;Australia;New South Wales;Shadforth;;149.2333333;-33.4;6;
2;Australia;New South Wales;Shannon Brook;;152.9666667;-28.9166667;6;
2;Australia;New South Wales;Shannon Vale;;151.8833333;-29.7;6;
2;Australia;New South Wales;Shark Creek;;153.2;-29.5166667;6;
2;Australia;New South Wales;Shaw;;149.2;-33.6666667;6;
2;Australia;New South Wales;Shellharbour;;150.8666667;-34.5833333;6;
2;Australia;New South Wales;Shepherdstown;;148.05;-35.2833333;6;
2;Australia;New South Wales;Sherwood;;152.7333333;-31.0666667;6;
2;Australia;New South Wales;Shooters Hill;;149.8666667;-33.9166667;6;
2;Australia;New South Wales;Shuttleton;;146.0833333;-32.1333333;6;
2;Australia;New South Wales;Sidebottom Creek;;152.4833333;-31.9833333;6;
2;Australia;New South Wales;Sidebottom;;152.4833333;-31.9833333;6;
2;Australia;New South Wales;Silent Grove;;151.6666667;-29.1166667;6;
2;Australia;New South Wales;Silverton;;141.2166667;-31.8833333;6;
2;Australia;New South Wales;Simsville;;152.0333333;-32.4;6;
2;Australia;New South Wales;Singleton;;151.1833333;-32.5666667;6;
2;Australia;New South Wales;Skillion Flat;;152.7333333;-31.0166667;6;
2;Australia;New South Wales;Slamannon;;143.6666667;-32.0666667;6;
2;Australia;New South Wales;Sleepy Hollow;;153.5166667;-28.4166667;6;
2;Australia;New South Wales;Sloane;;146.0166667;-35.9166667;6;
2;Australia;New South Wales;Smithfield;;150.9333333;-33.85;6;
2;Australia;New South Wales;Smiths Creek;;152.7666667;-31.2;6;
2;Australia;New South Wales;Smithtown;;152.9333333;-31.0166667;6;
2;Australia;New South Wales;Snowball;;149.5833333;-35.9333333;6;
2;Australia;New South Wales;Sodwalls;;149.9833333;-33.5166667;6;
2;Australia;New South Wales;Sofala;;149.7;-33.0833333;6;
2;Australia;New South Wales;Soldiers Point;;152.0666667;-32.7;6;
2;Australia;New South Wales;Solferino;;152.4833333;-29.1666667;6;
2;Australia;New South Wales;Somers;;149.0833333;-33.6666667;6;
2;Australia;New South Wales;Somersby;;151.2833333;-33.3666667;6;
2;Australia;New South Wales;Somerton;;150.6333333;-30.95;6;
2;Australia;New South Wales;South Bowenfels;;150.1166667;-33.5166667;6;
2;Australia;New South Wales;South Grafton;;152.95;-29.7;6;
2;Australia;New South Wales;South Gundagai;;148.1;-35.0833333;6;
2;Australia;New South Wales;South Sydney Municipality;;151.2;-33.9;6;
2;Australia;New South Wales;South Wunnamurra;;145.7;-35.4333333;6;
2;Australia;New South Wales;South Yalgogrin;;146.8166667;-34.1666667;6;
2;Australia;New South Wales;Southgate;;153.0333333;-29.5833333;6;
2;Australia;New South Wales;Sparebrook;;152.95;-30.3833333;6;
2;Australia;New South Wales;Sparkes Creek;;150.7166667;-31.95;6;
2;Australia;New South Wales;Sparks Creek;;150.7166667;-31.95;6;
2;Australia;New South Wales;Spencer;;151.15;-33.45;6;
2;Australia;New South Wales;Spring Hill;;149.1666667;-33.4;6;
2;Australia;New South Wales;Spring Ridge;;149.35;-32.2666667;6;
2;Australia;New South Wales;Spring Terrace;;149.1166667;-33.4;6;
2;Australia;New South Wales;Spring Vale;;148.8;-34.15;6;
2;Australia;New South Wales;Springbrook;;152.3833333;-29.85;6;
2;Australia;New South Wales;Springdale;;147.7333333;-34.4666667;6;
2;Australia;New South Wales;Springfield;;151.3666667;-33.4333333;6;
2;Australia;New South Wales;Springrove;;153.1666667;-28.8333333;6;
2;Australia;New South Wales;Springwood;;150.55;-33.7;6;
2;Australia;New South Wales;Stackpoole;;145.9333333;-33.9333333;6;
2;Australia;New South Wales;Stanborough;;151.15;-29.95;6;
2;Australia;New South Wales;Stanbridge;;146.2333333;-34.5166667;6;
2;Australia;New South Wales;Stannifer;;151.2166667;-29.8833333;6;
2;Australia;New South Wales;Stannum;;151.8;-29.3333333;6;
2;Australia;New South Wales;Stanwell Park;;150.9833333;-34.2333333;6;
2;Australia;New South Wales;Steeple Flat;;149.3666667;-36.5666667;6;
2;Australia;New South Wales;Steinbrook;;152.1;-29.0833333;6;
2;Australia;New South Wales;Stephens Creek;;141.5;-31.8333333;6;
2;Australia;New South Wales;Stevys Forest;;150.5166667;-34.05;6;
2;Australia;New South Wales;Stewarts Brook;;151.3166667;-32;6;
2;Australia;New South Wales;Stewarts River;;152.65;-31.7333333;6;
2;Australia;New South Wales;Stockinbingal;;147.8833333;-34.5;6;
2;Australia;New South Wales;Stockton;;151.7833333;-32.9166667;6;
2;Australia;New South Wales;Stokers Siding;;153.4;-28.4;6;
2;Australia;New South Wales;Stonehenge;;151.75;-29.8166667;6;
2;Australia;New South Wales;Stony Creek;;149.7166667;-32.4833333;6;
2;Australia;New South Wales;Stony Crossing;;143.5666667;-35.0666667;6;
2;Australia;New South Wales;Store Creek;;149.1;-32.8833333;6;
2;Australia;New South Wales;Stotts Creek;;153.5;-28.2666667;6;
2;Australia;New South Wales;Stratford;;151.9333333;-32.1166667;6;
2;Australia;New South Wales;Strathbogie;;151.4833333;-29.4666667;6;
2;Australia;New South Wales;Strathfield;;151.1;-33.8666667;6;
2;Australia;New South Wales;Stroud Road;;151.9333333;-32.35;6;
2;Australia;New South Wales;Stroud;;151.9666667;-32.4;6;
2;Australia;New South Wales;Stuart Town;;149.0833333;-32.8;6;
2;Australia;New South Wales;Stuarts Point;;153;-30.8166667;6;
2;Australia;New South Wales;Stubbo;;149.5333333;-32.3;6;
2;Australia;New South Wales;Sunny Corner;;149.9;-33.3833333;6;
2;Australia;New South Wales;Sunnyside;;151.95;-28.9833333;6;
2;Australia;New South Wales;Suntop;;148.85;-32.5833333;6;
2;Australia;New South Wales;Surface Hill;;152.3166667;-29.1166667;6;
2;Australia;New South Wales;Surveyors Creek;;151.3833333;-30.9833333;6;
2;Australia;New South Wales;Sutherland;;151.0666667;-34.0333333;6;
2;Australia;New South Wales;Sutton Forest;;150.3166667;-34.5833333;6;
2;Australia;New South Wales;Sutton Forrest;;150.3166667;-34.5833333;6;
2;Australia;New South Wales;Sutton;;149.25;-35.1666667;6;
2;Australia;New South Wales;Swan Bay;;153.3166667;-29.05;6;
2;Australia;New South Wales;Swan Reach;;151.6666667;-32.7333333;6;
2;Australia;New South Wales;Swan Vale;;151.4333333;-29.7833333;6;
2;Australia;New South Wales;Swansea;;151.6166667;-33.0833333;6;
2;Australia;New South Wales;Sydney;;151.22;-33.88;6;
2;Australia;New South Wales;Tabbimoble;;153.2666667;-29.2;6;
2;Australia;New South Wales;Tabbita;;145.85;-34.1;6;
2;Australia;New South Wales;Table Top;;147;-35.9666667;6;
2;Australia;New South Wales;Tabulam;;152.5666667;-28.9;6;
2;Australia;New South Wales;Tahlee;;152;-32.6666667;6;
2;Australia;New South Wales;Tahmoor;;150.5833333;-34.2166667;6;
2;Australia;New South Wales;Tahpit;;152.1333333;-32.0833333;6;
2;Australia;New South Wales;Talarm;;152.85;-30.7166667;6;
2;Australia;New South Wales;Talbingo;;148.3;-35.5666667;6;
2;Australia;New South Wales;Talbragar;;148.6333333;-32.2;6;
2;Australia;New South Wales;Tallawang;;149.45;-32.2;6;
2;Australia;New South Wales;Tallimba;;146.8833333;-34;6;
2;Australia;New South Wales;Tallong;;150.0833333;-34.7166667;6;
2;Australia;New South Wales;Talmalmo;;147.5;-35.95;6;
2;Australia;New South Wales;Talmo;;148.6166667;-34.8833333;6;
2;Australia;New South Wales;Tamban;;152.8333333;-30.8666667;6;
2;Australia;New South Wales;Tambar Springs;;149.8333333;-31.35;6;
2;Australia;New South Wales;Tambaroora;;149.4333333;-33;6;
2;Australia;New South Wales;Tamo;;148.6166667;-34.8833333;6;
2;Australia;New South Wales;Tamworth;;150.9333333;-31.1;6;
2;Australia;New South Wales;Tangaratta;;150.8333333;-31.0666667;6;
2;Australia;New South Wales;Tangmangaroo;;148.8166667;-34.65;6;
2;Australia;New South Wales;Tangmanjaroo;;148.8166667;-34.65;6;
2;Australia;New South Wales;Tanja;;149.9833333;-36.6;6;
2;Australia;New South Wales;Tantangara;;148.5666667;-35.8166667;6;
2;Australia;New South Wales;Tantawanglo;;149.6333333;-36.7666667;6;
2;Australia;New South Wales;Tara;;147.1666667;-34.5;6;
2;Australia;New South Wales;Tarago;;149.65;-35.0666667;6;
2;Australia;New South Wales;Taralga;;149.8333333;-34.4166667;6;
2;Australia;New South Wales;Tarana Quarry;;149.8666667;-33.5166667;6;
2;Australia;New South Wales;Tarana;;149.9166667;-33.5166667;6;
2;Australia;New South Wales;Tarban;;151.8833333;-28.9666667;6;
2;Australia;New South Wales;Tarcoon;;146.7166667;-30.2666667;6;
2;Australia;New South Wales;Tarcutta Lower;;147.75;-35.2;6;
2;Australia;New South Wales;Tarcutta;;147.7166667;-35.2833333;6;
2;Australia;New South Wales;Taree;;152.4666667;-31.9;6;
2;Australia;New South Wales;Tarlo;;149.8;-34.6;6;
2;Australia;New South Wales;Tarro;;151.6666667;-32.8;6;
2;Australia;New South Wales;Tartna Point;;142.4;-32.95;6;
2;Australia;New South Wales;Tatham;;153.1666667;-28.9333333;6;
2;Australia;New South Wales;Tathra;;149.9666667;-36.7333333;6;
2;Australia;New South Wales;Taylors Arm;;152.7;-30.7833333;6;
2;Australia;New South Wales;Taylors Flat;;149.0166667;-34.2833333;6;
2;Australia;New South Wales;Tea Gardens;;152.15;-32.6666667;6;
2;Australia;New South Wales;Tegerin;;151.5;-33.2666667;6;
2;Australia;New South Wales;Telarah;;151.5333333;-32.7333333;6;
2;Australia;New South Wales;Telegraph Point;;152.8;-31.3333333;6;
2;Australia;New South Wales;Temora;;147.5333333;-34.4333333;6;
2;Australia;New South Wales;Tempe;;151.15;-33.9333333;6;
2;Australia;New South Wales;Tenambit;;151.6166667;-32.7333333;6;
2;Australia;New South Wales;Tent Hill;;151.6666667;-29.4333333;6;
2;Australia;New South Wales;Tenterden;;151.45;-30.1333333;6;
2;Australia;New South Wales;Tenterfield;;152.0166667;-29.05;6;
2;Australia;New South Wales;Teralba;;151.6;-32.9666667;6;
2;Australia;New South Wales;Terara;;150.6333333;-34.8833333;6;
2;Australia;New South Wales;Teridgerie;;148.8333333;-30.8666667;6;
2;Australia;New South Wales;Termeil;;150.35;-35.4666667;6;
2;Australia;New South Wales;Terowie;;147.9;-32.4666667;6;
2;Australia;New South Wales;Terra Bella;;148.7333333;-32.4333333;6;
2;Australia;New South Wales;Terrabile;;148.6;-31.55;6;
2;Australia;New South Wales;Terragon;;153.2833333;-28.4333333;6;
2;Australia;New South Wales;Terramungamine;;148.55;-32.0666667;6;
2;Australia;New South Wales;Terranaville;;149.6833333;-34.8166667;6;
2;Australia;New South Wales;Terranna;;149.6833333;-34.8166667;6;
2;Australia;New South Wales;Terranora;;153.55;-28.2;6;
2;Australia;New South Wales;Terrey Hills;;151.2333333;-33.6833333;6;
2;Australia;New South Wales;Terrigal;;151.45;-33.45;6;
2;Australia;New South Wales;Terry Hie Hie;;150.15;-29.8166667;6;
2;Australia;New South Wales;Teven;;153.5;-28.8166667;6;
2;Australia;New South Wales;Thalaba;;149.5166667;-34.2666667;6;
2;Australia;New South Wales;The Blacksmith;;151.65;-33.0833333;6;
2;Australia;New South Wales;The Branch;;152.0166667;-32.5333333;6;
2;Australia;New South Wales;The Channon;;153.2833333;-28.6666667;6;
2;Australia;New South Wales;The Entrance;;151.5;-33.35;6;
2;Australia;New South Wales;The Flags;;151.5333333;-31.35;6;
2;Australia;New South Wales;The Forest;;149.7166667;-34.6333333;6;
2;Australia;New South Wales;The Gibbers;;152.0166667;-32.7333333;6;
2;Australia;New South Wales;The Gulf;;151.4833333;-29.3166667;6;
2;Australia;New South Wales;The Lagoon;;149.6166667;-33.55;6;
2;Australia;New South Wales;The Mole;;151.75;-29.1;6;
2;Australia;New South Wales;The Oaks;;150.5666667;-34.0666667;6;
2;Australia;New South Wales;The Pocket;;153.4833333;-28.5166667;6;
2;Australia;New South Wales;The Risk;;152.9333333;-28.4666667;6;
2;Australia;New South Wales;The Rock;;147.1;-35.2666667;6;
2;Australia;New South Wales;The Scrub;;152.0833333;-29.1333333;6;
2;Australia;New South Wales;The Tea Gardens;;152.15;-32.6666667;6;
2;Australia;New South Wales;The Troffs;;147.6666667;-32.8333333;6;
2;Australia;New South Wales;The Vale;;143.85;-33.7166667;6;
2;Australia;New South Wales;Theresa Park;;150.65;-34.0166667;6;
2;Australia;New South Wales;Thirlmere;;150.5666667;-34.2;6;
2;Australia;New South Wales;Thirroul;;150.9166667;-34.3166667;6;
2;Australia;New South Wales;Thoko;;149.3333333;-36.6666667;6;
2;Australia;New South Wales;Thoomee;;146.0166667;-33.5333333;6;
2;Australia;New South Wales;Thora;;152.7833333;-30.4333333;6;
2;Australia;New South Wales;Thornleigh;;151.0833333;-33.7333333;6;
2;Australia;New South Wales;Thornton;;151.6333333;-32.7833333;6;
2;Australia;New South Wales;Thredbo Village;;148.3166667;-36.5;6;
2;Australia;New South Wales;Thuddungra;;148.1166667;-34.15;6;
2;Australia;New South Wales;Thulloo;;146.75;-33.6666667;6;
2;Australia;New South Wales;Thyra;;144.65;-35.85;6;
2;Australia;New South Wales;Tia;;151.8333333;-31.2;6;
2;Australia;New South Wales;Tianjara;;150.3333333;-35.1166667;6;
2;Australia;New South Wales;Tibbereenah;;149.7666667;-30.3666667;6;
2;Australia;New South Wales;Tibooburra;;142.0166667;-29.4333333;6;
2;Australia;New South Wales;Tichborne;;148.1166667;-33.2166667;6;
2;Australia;New South Wales;Tilba Tilba;;150.05;-36.3166667;6;
2;Australia;New South Wales;Tilbuster;;151.6666667;-30.4333333;6;
2;Australia;New South Wales;Tilpa;;144.4;-30.95;6;
2;Australia;New South Wales;Timbarra;;152.1833333;-29.0166667;6;
2;Australia;New South Wales;Timbery Range;;149.0333333;-36.5833333;6;
2;Australia;New South Wales;Timbillica;;149.7;-37.3666667;6;
2;Australia;New South Wales;Timbrebongie;;148.25;-32.1166667;6;
2;Australia;New South Wales;Timor;;151.0833333;-31.7833333;6;
2;Australia;New South Wales;Tingha;;151.2166667;-29.95;6;
2;Australia;New South Wales;Tingiringi;;148.7666667;-36.9;6;
2;Australia;New South Wales;Tinonee;;152.4166667;-31.9333333;6;
2;Australia;New South Wales;Tinpot;;149.8666667;-36.2166667;6;
2;Australia;New South Wales;Tintenbar;;153.5166667;-28.8;6;
2;Australia;New South Wales;Tintinhull;;151.0166667;-31.1;6;
2;Australia;New South Wales;Tirrannaville;;149.6833333;-34.8166667;6;
2;Australia;New South Wales;Tocumwal;;145.5666667;-35.8166667;6;
2;Australia;New South Wales;Tomago;;151.7333333;-32.8333333;6;
2;Australia;New South Wales;Tomakin;;150.1833333;-35.8333333;6;
2;Australia;New South Wales;Tomalla;;151.4666667;-31.85;6;
2;Australia;New South Wales;Tombong;;148.9166667;-36.9166667;6;
2;Australia;New South Wales;Tomerong;;150.5833333;-35.0666667;6;
2;Australia;New South Wales;Tomewin;;153.3833333;-28.25;6;
2;Australia;New South Wales;Tomingley West;;148.15;-32.5833333;6;
2;Australia;New South Wales;Tomingley;;148.2333333;-32.5666667;6;
2;Australia;New South Wales;Tomki;;153.1333333;-28.8666667;6;
2;Australia;New South Wales;Tomooroma;;148.4333333;-35.1666667;6;
2;Australia;New South Wales;Tonambil;;148.2333333;-33.4666667;6;
2;Australia;New South Wales;Tongarra;;150.6833333;-34.5833333;6;
2;Australia;New South Wales;Toogal;;147.2166667;-35.0666667;6;
2;Australia;New South Wales;Toogong;;148.6333333;-33.3333333;6;
2;Australia;New South Wales;Toogoong;;148.6333333;-33.3333333;6;
2;Australia;New South Wales;Tooleybuc;;143.3333333;-35.05;6;
2;Australia;New South Wales;Tooloom;;152.4166667;-28.6166667;6;
2;Australia;New South Wales;Tooma;;148.0666667;-35.9666667;6;
2;Australia;New South Wales;Toongabbie West;;150.9333333;-33.7833333;6;
2;Australia;New South Wales;Toongabbie;;150.95;-33.7833333;6;
2;Australia;New South Wales;Toongi;;148.6;-32.45;6;
2;Australia;New South Wales;Toonumbar;;152.7666667;-28.5833333;6;
2;Australia;New South Wales;Tooraweenah;;148.9;-31.4333333;6;
2;Australia;New South Wales;Toothdale;;149.75;-36.8;6;
2;Australia;New South Wales;Tootool;;146.9833333;-35.25;6;
2;Australia;New South Wales;Tooyal North;;147.1833333;-34.9666667;6;
2;Australia;New South Wales;Topi Topi;;152.3833333;-32.3666667;6;
2;Australia;New South Wales;Toronto;;151.6;-33;6;
2;Australia;New South Wales;Torrington;;151.7;-29.3166667;6;
2;Australia;New South Wales;Torrowangee;;141.4833333;-31.4666667;6;
2;Australia;New South Wales;Torryburn;;151.2166667;-30.45;6;
2;Australia;New South Wales;Toryburn;;151.2166667;-30.45;6;
2;Australia;New South Wales;Toshs Wongy;;148.6166667;-31.25;6;
2;Australia;New South Wales;Tottenham;;147.35;-32.2333333;6;
2;Australia;New South Wales;Toukley;;151.5333333;-33.2666667;6;
2;Australia;New South Wales;Towalbyn;;153.4833333;-28.8666667;6;
2;Australia;New South Wales;Towamba;;149.6833333;-37.0833333;6;
2;Australia;New South Wales;Towrang;;149.85;-34.7;6;
2;Australia;New South Wales;Trajere;;148.3833333;-33.4833333;6;
2;Australia;New South Wales;Trangie;;147.9833333;-32.0333333;6;
2;Australia;New South Wales;Tregeagle;;153.3666667;-28.85;6;
2;Australia;New South Wales;Trewilga;;148.2166667;-32.7833333;6;
2;Australia;New South Wales;Triamble Trianbil;;149.3;-32.8833333;6;
2;Australia;New South Wales;Trianbil;;149.3;-32.8833333;6;
2;Australia;New South Wales;Triangle Flat;;149.5;-33.75;6;
2;Australia;New South Wales;Trida;;145.0166667;-33.0166667;6;
2;Australia;New South Wales;Trundle;;147.7166667;-32.9166667;6;
2;Australia;New South Wales;Trungley Hall;;147.5666667;-34.3166667;6;
2;Australia;New South Wales;Trunkey Creek;;149.3333333;-33.8166667;6;
2;Australia;New South Wales;Tubbamurra;;151.7666667;-30.1166667;6;
2;Australia;New South Wales;Tubbul Road;;147.9333333;-34.25;6;
2;Australia;New South Wales;Tubbul;;147.9833333;-34.2666667;6;
2;Australia;New South Wales;Tucabia;;153.1;-29.6666667;6;
2;Australia;New South Wales;Tucki Tucki;;153.3166667;-28.9333333;6;
2;Australia;New South Wales;Tucki;;153.3166667;-28.9333333;6;
2;Australia;New South Wales;Tucklan;;149.4;-32.1333333;6;
2;Australia;New South Wales;Tuckurimba;;153.3166667;-28.9666667;6;
2;Australia;New South Wales;Tuena;;149.3333333;-34.0333333;6;
2;Australia;New South Wales;Tuggerah;;151.4166667;-33.3166667;6;
2;Australia;New South Wales;Tuglow;;149.95;-33.95;6;
2;Australia;New South Wales;Tullamore;;147.5666667;-32.6333333;6;
2;Australia;New South Wales;Tullera;;153.3;-28.75;6;
2;Australia;New South Wales;Tullibigeal;;146.7333333;-33.4166667;6;
2;Australia;New South Wales;Tullimbar;;150.75;-34.5833333;6;
2;Australia;New South Wales;Tullymorgan;;153.1333333;-29.3833333;6;
2;Australia;New South Wales;Tumbarumba;;148.0166667;-35.7833333;6;
2;Australia;New South Wales;Tumbi Vmbi;;151.45;-33.3666667;6;
2;Australia;New South Wales;Tumblong;;148;-35.15;6;
2;Australia;New South Wales;Tumbulgum;;153.4666667;-28.2833333;6;
2;Australia;New South Wales;Tumorrama;;148.4333333;-35.1666667;6;
2;Australia;New South Wales;Tumut;;148.2166667;-35.3;6;
2;Australia;New South Wales;Tuncester;;153.2166667;-28.8;6;
2;Australia;New South Wales;Tuncurry;;152.5;-32.1666667;6;
2;Australia;New South Wales;Tungsten;;151.6833333;-29.2666667;6;
2;Australia;New South Wales;Tuppal;;145.2666667;-35.6833333;6;
2;Australia;New South Wales;Turlinjah;;150.1;-36.0333333;6;
2;Australia;New South Wales;Turners Flat;;152.7;-31.0166667;6;
2;Australia;New South Wales;Turondale;;149.6166667;-33.0833333;6;
2;Australia;New South Wales;Tuross Head;;150.1333333;-36.0666667;6;
2;Australia;New South Wales;Tuross Heads;;150.1333333;-36.0666667;6;
2;Australia;New South Wales;Turramurra;;151.1333333;-33.7333333;6;
2;Australia;New South Wales;Turrawan;;149.9333333;-30.4833333;6;
2;Australia;New South Wales;Tweed Heads;;153.55;-28.1833333;6;
2;Australia;New South Wales;Twelve Mile;;149.2666667;-32.5;6;
2;Australia;New South Wales;Two Mile Flat;;149.3666667;-32.4166667;6;
2;Australia;New South Wales;Tyagarah;;153.55;-28.6;6;
2;Australia;New South Wales;Tyagong;;148.2333333;-34.05;6;
2;Australia;New South Wales;Tyalgum;;153.2166667;-28.3666667;6;
2;Australia;New South Wales;Tyndale Central;;153.2;-29.5166667;6;
2;Australia;New South Wales;Tyndale;;153.2;-29.5166667;6;
2;Australia;New South Wales;Tyringham;;152.5333333;-30.2166667;6;
2;Australia;New South Wales;Uarbry;;149.7666667;-32.05;6;
2;Australia;New South Wales;Uargon;;148.9833333;-31.4666667;6;
2;Australia;New South Wales;Uki;;153.3333333;-28.4166667;6;
2;Australia;New South Wales;Ukolan;;150.8333333;-30.7;6;
2;Australia;New South Wales;Ulamambri;;149.3833333;-31.3333333;6;
2;Australia;New South Wales;Ulan;;149.7333333;-32.2833333;6;
2;Australia;New South Wales;Uley;;146.9166667;-34.4166667;6;
2;Australia;New South Wales;Ulimambra;;149.3833333;-31.3333333;6;
2;Australia;New South Wales;Ulimambri;;149.3833333;-31.3333333;6;
2;Australia;New South Wales;Ulinda;;149.4833333;-31.5833333;6;
2;Australia;New South Wales;Ulladulla;;150.4666667;-35.35;6;
2;Australia;New South Wales;Ulmarra;;153.0333333;-29.6333333;6;
2;Australia;New South Wales;Ulong;;152.9;-30.2333333;6;
2;Australia;New South Wales;Ulungra Springs;;149.0833333;-31.7333333;6;
2;Australia;New South Wales;Umaralla;;149.3333333;-36.1666667;6;
2;Australia;New South Wales;Umbango;;147.7666667;-35.3666667;6;
2;Australia;New South Wales;Umina;;151.3083333;-33.5333333;6;
2;Australia;New South Wales;Unanderra;;150.85;-34.45;6;
2;Australia;New South Wales;Ungarie;;146.9666667;-33.6333333;6;
2;Australia;New South Wales;Unumgar;;152.75;-28.4333333;6;
2;Australia;New South Wales;Upper Belmore;;152.9833333;-31.1166667;6;
2;Australia;New South Wales;Upper Bingara;;150.65;-30.05;6;
2;Australia;New South Wales;Upper Botoblar;;149.8166667;-32.5333333;6;
2;Australia;New South Wales;Upper Bowman;;151.7666667;-31.95;6;
2;Australia;New South Wales;Upper Brogo;;149.75;-36.4666667;6;
2;Australia;New South Wales;Upper Burragorang;;150.3333333;-34.15;6;
2;Australia;New South Wales;Upper Burringbar;;153.45;-28.45;6;
2;Australia;New South Wales;Upper Coldstream;;153.1166667;-29.6333333;6;
2;Australia;New South Wales;Upper Colo;;150.7333333;-33.4166667;6;
2;Australia;New South Wales;Upper Corindi;;153.1333333;-30.05;6;
2;Australia;New South Wales;Upper Duroby;;153.45;-28.25;6;
2;Australia;New South Wales;Upper Five Day;;152.4;-30.6666667;6;
2;Australia;New South Wales;Upper Horseshoe Creek;;153.0833333;-28.5333333;6;
2;Australia;New South Wales;Upper Horton;;150.4333333;-30.1333333;6;
2;Australia;New South Wales;Upper Kangaroo River;;150.6;-34.7;6;
2;Australia;New South Wales;Upper Kiah;;149.8666667;-37.15;6;
2;Australia;New South Wales;Upper Lansdowne;;152.4666667;-31.7;6;
2;Australia;New South Wales;Upper Mangrove Creek;;151.1166667;-33.2833333;6;
2;Australia;New South Wales;Upper Manilla;;150.6666667;-30.6333333;6;
2;Australia;New South Wales;Upper Mongogarie;;152.85;-28.9833333;6;
2;Australia;New South Wales;Upper Moore Creek;;150.9666667;-31.0166667;6;
2;Australia;New South Wales;Upper Myall;;152.1666667;-32.3;6;
2;Australia;New South Wales;Upper Nambucca;;152.7;-30.6;6;
2;Australia;New South Wales;Upper Orara;;153;-30.2833333;6;
2;Australia;New South Wales;Upper Rollands Plains;;152.6333333;-31.25;6;
2;Australia;New South Wales;Upper Rouchel;;151.0833333;-32.1166667;6;
2;Australia;New South Wales;Upper Shark Creek;;153.2;-29.55;6;
2;Australia;New South Wales;Upper Springrove;;153.1166667;-28.8333333;6;
2;Australia;New South Wales;Upper Turon;;149.7666667;-33.1;6;
2;Australia;New South Wales;Upsalls Creek;;152.6666667;-31.6333333;6;
2;Australia;New South Wales;Uralgurra;;152.55;-30.85;6;
2;Australia;New South Wales;Uralla;;151.5;-30.65;6;
2;Australia;New South Wales;Urana;;146.2666667;-35.3333333;6;
2;Australia;New South Wales;Uranagong;;146.2333333;-35.4;6;
2;Australia;New South Wales;Urangeline East;;146.7;-35.5;6;
2;Australia;New South Wales;Urangeline;;146.7;-35.5;6;
2;Australia;New South Wales;Uranquintry;;147.25;-35.1833333;6;
2;Australia;New South Wales;Uranquinty;;147.25;-35.1833333;6;
2;Australia;New South Wales;Urayarra;;148.9333333;-35.2333333;6;
2;Australia;New South Wales;Urbenville;;152.5333333;-28.4666667;6;
2;Australia;New South Wales;Urisino;;143.75;-29.7;6;
2;Australia;New South Wales;Urobodalla;;149.9666667;-36.1333333;6;
2;Australia;New South Wales;Urunga;;153.0166667;-30.5;6;
2;Australia;New South Wales;Utopia;;149.8166667;-36.2;6;
2;Australia;New South Wales;Utungun;;152.8333333;-30.7333333;6;
2;Australia;New South Wales;Vacy;;151.5833333;-32.55;6;
2;Australia;New South Wales;Valery;;152.95;-30.3833333;6;
2;Australia;New South Wales;Valla;;152.9833333;-30.6;6;
2;Australia;New South Wales;Valley Heights;;150.5833333;-33.7;6;
2;Australia;New South Wales;Vaucluse;;151.2833333;-33.8666667;6;
2;Australia;New South Wales;Vermont Hill;;146.7666667;-32.5833333;6;
2;Australia;New South Wales;Verona;;149.8166667;-36.4666667;6;
2;Australia;New South Wales;Villawood;;150.9666667;-33.8833333;6;
2;Australia;New South Wales;Vineyard;;150.85;-33.65;6;
2;Australia;New South Wales;Wadbilliga;;149.65;-36.25;6;
2;Australia;New South Wales;Waddi;;146;-34.6;6;
2;Australia;New South Wales;Wadeville;;153.1333333;-28.5666667;6;
2;Australia;New South Wales;Wagga Wagga;;147.3666667;-35.1166667;6;
2;Australia;New South Wales;Wagonga;;150.05;-36.2166667;6;
2;Australia;New South Wales;Wagragobilly;;148.2166667;-35.05;6;
2;Australia;New South Wales;Wahroonga;;151.1166667;-33.7166667;6;
2;Australia;New South Wales;Waitara;;151.1166667;-33.7166667;6;
2;Australia;New South Wales;Wakool;;144.3833333;-35.4666667;6;
2;Australia;New South Wales;Walbundrie;;146.7166667;-35.7;6;
2;Australia;New South Wales;Walbundry;;146.7166667;-35.7;6;
2;Australia;New South Wales;Walcha Road;;151.4;-30.9333333;6;
2;Australia;New South Wales;Walcha;;151.6;-30.9833333;6;
2;Australia;New South Wales;Walgett;;148.1166667;-30.0166667;6;
2;Australia;New South Wales;Wallabadah;;150.8333333;-31.55;6;
2;Australia;New South Wales;Wallacia;;150.65;-33.8666667;6;
2;Australia;New South Wales;Wallalong;;151.65;-32.7;6;
2;Australia;New South Wales;Wallanbillan;;147.8333333;-32.4333333;6;
2;Australia;New South Wales;Wallangra;;150.9;-29.2666667;6;
2;Australia;New South Wales;Wallarobba;;151.7;-32.5;6;
2;Australia;New South Wales;Walla-Walla;;146.9;-35.7666667;6;
2;Australia;New South Wales;Wallendbeen;;148.15;-34.5333333;6;
2;Australia;New South Wales;Wallerawang;;150.0666667;-33.4166667;6;
2;Australia;New South Wales;Wallgrove;;150.85;-33.7833333;6;
2;Australia;New South Wales;Walli;;148.85;-33.65;6;
2;Australia;New South Wales;Wallsend;;151.6666667;-32.9166667;6;
2;Australia;New South Wales;Wallumburrawang;;148.95;-31.55;6;
2;Australia;New South Wales;Walmer;;148.75;-32.6666667;6;
2;Australia;New South Wales;Wambanumba;;148.3833333;-34.3166667;6;
2;Australia;New South Wales;Wamberal North;;151.45;-33.4;6;
2;Australia;New South Wales;Wamberal;;151.4833333;-33.4166667;6;
2;Australia;New South Wales;Wambidgee;;148.1333333;-34.8833333;6;
2;Australia;New South Wales;Wamboyne;;147.2666667;-33.5666667;6;
2;Australia;New South Wales;Wamoon;;146.3166667;-34.5166667;6;
2;Australia;New South Wales;Wanaaring;;144.15;-29.7;6;
2;Australia;New South Wales;Wandandian;;150.5;-35.1;6;
2;Australia;New South Wales;Wandello;;149.85;-36.3;6;
2;Australia;New South Wales;Wandera;;151.1666667;-29.6833333;6;
2;Australia;New South Wales;Wandsworth;;151.5;-30.0666667;6;
2;Australia;New South Wales;Wang Wauk;;152.3333333;-32.1666667;6;
2;Australia;New South Wales;Wangabbri;;152.55;-29.5666667;6;
2;Australia;New South Wales;Wangamong;;146.15;-35.6166667;6;
2;Australia;New South Wales;Wanganella;;144.8166667;-35.2166667;6;
2;Australia;New South Wales;Wangat;;151.6833333;-32.25;6;
2;Australia;New South Wales;Wangellie;;149.2;-36.7166667;6;
2;Australia;New South Wales;Wangi Wangi;;151.6;-33.0833333;6;
2;Australia;New South Wales;Wangonilla;;144.8166667;-35.2166667;6;
2;Australia;New South Wales;Wantabadgery;;147.7333333;-35.05;6;
2;Australia;New South Wales;Wantiool;;147.6666667;-34.9;6;
2;Australia;New South Wales;Wapengo;;149.9666667;-36.6166667;6;
2;Australia;New South Wales;Warburn;;145.9166667;-34.1666667;6;
2;Australia;New South Wales;Warburton;;149.3666667;-32.4166667;6;
2;Australia;New South Wales;Wardell;;153.4666667;-28.95;6;
2;Australia;New South Wales;Wardry South;;146.8166667;-33.1666667;6;
2;Australia;New South Wales;Wardry;;146.7833333;-33.0833333;6;
2;Australia;New South Wales;Wards Mistake;;152.0333333;-30.1333333;6;
2;Australia;New South Wales;Wards River;;151.9333333;-32.2166667;6;
2;Australia;New South Wales;Wargan Bogan;;146.15;-33.6166667;6;
2;Australia;New South Wales;Warge Rock;;147.8;-32.55;6;
2;Australia;New South Wales;Warialda Road;;150.5333333;-29.7166667;6;
2;Australia;New South Wales;Warialda;;150.5666667;-29.55;6;
2;Australia;New South Wales;Warkton;;149.3;-31.4;6;
2;Australia;New South Wales;Warkworth;;151.0333333;-32.5833333;6;
2;Australia;New South Wales;Warmatta;;145.9833333;-35.7166667;6;
2;Australia;New South Wales;Warnervale;;151.45;-33.25;6;
2;Australia;New South Wales;Warneton;;152.7833333;-31.0666667;6;
2;Australia;New South Wales;Waroo;;147.5833333;-33.3333333;6;
2;Australia;New South Wales;Warra;;152.1166667;-32.1833333;6;
2;Australia;New South Wales;Warraderry;;148.2166667;-33.7666667;6;
2;Australia;New South Wales;Warrah Creek;;150.6666667;-31.7333333;6;
2;Australia;New South Wales;Warrah Ridge;;150.55;-31.5666667;6;
2;Australia;New South Wales;Warrah;;150.65;-31.65;6;
2;Australia;New South Wales;Warral;;150.8666667;-31.15;6;
2;Australia;New South Wales;Warrall;;150.8666667;-31.15;6;
2;Australia;New South Wales;Warrangong;;148.4666667;-34.0333333;6;
2;Australia;New South Wales;Warranulla;;152.1333333;-32.2;6;
2;Australia;New South Wales;Warrawee;;151.1166667;-33.7333333;6;
2;Australia;New South Wales;Warrel Creek;;152.8833333;-30.7666667;6;
2;Australia;New South Wales;Warrell Creek;;152.8833333;-30.7666667;6;
2;Australia;New South Wales;Warren;;147.8166667;-31.7;6;
2;Australia;New South Wales;Warrigal;;147.2666667;-31.6;6;
2;Australia;New South Wales;Warrigundi;;150.6833333;-31.2833333;6;
2;Australia;New South Wales;Warrimoo;;150.6;-33.7166667;6;
2;Australia;New South Wales;Warroo;;147.5833333;-33.3333333;6;
2;Australia;New South Wales;Warwick Park;;153.5333333;-28.4333333;6;
2;Australia;New South Wales;Water Mark;;150.3666667;-31.2;6;
2;Australia;New South Wales;Waterfall;;151;-34.1333333;6;
2;Australia;New South Wales;Waterloo;;151.7166667;-31.0333333;6;
2;Australia;New South Wales;Watsons Bay;;151.2833333;-33.85;6;
2;Australia;New South Wales;Watsons Creek;;151.05;-30.7333333;6;
2;Australia;New South Wales;Wattagong;;151.2;-33.0166667;6;
2;Australia;New South Wales;Wattamolla;;150.65;-34.7333333;6;
2;Australia;New South Wales;Wattamondara;;148.5333333;-33.9333333;6;
2;Australia;New South Wales;Wattle Flat;;149.7;-33.15;6;
2;Australia;New South Wales;Wattle View;;147.8166667;-32.6666667;6;
2;Australia;New South Wales;Wauchope;;152.7333333;-31.45;6;
2;Australia;New South Wales;Waugoola;;148.9166667;-33.7166667;6;
2;Australia;New South Wales;Waukivory;;152.05;-32.1166667;6;
2;Australia;New South Wales;Waverley;;151.2666667;-33.9;6;
2;Australia;New South Wales;Waverton;;151.2;-33.85;6;
2;Australia;New South Wales;Weabonga;;151.3166667;-31.2166667;6;
2;Australia;New South Wales;Wean;;150.2833333;-30.7;6;
2;Australia;New South Wales;Wedderburn;;150.8166667;-34.1333333;6;
2;Australia;New South Wales;Wee Jasper;;148.7;-35.15;6;
2;Australia;New South Wales;Wee Waa;;149.4333333;-30.2333333;6;
2;Australia;New South Wales;Weeamera;;146.9833333;-35.7166667;6;
2;Australia;New South Wales;Weedallion;;147.9333333;-34.2;6;
2;Australia;New South Wales;Weekes;;152.9333333;-30.4666667;6;
2;Australia;New South Wales;Weelah;;147.85;-31.2166667;6;
2;Australia;New South Wales;Weemelah;;149.2666667;-29.0166667;6;
2;Australia;New South Wales;Weetaliba;;149.5833333;-31.6333333;6;
2;Australia;New South Wales;Weethalle;;146.6333333;-33.8833333;6;
2;Australia;New South Wales;Weilmoringle;;146.9166667;-29.25;6;
2;Australia;New South Wales;Weja;;146.8333333;-33.55;6;
2;Australia;New South Wales;Welaregang;;147.9666667;-36.0166667;6;
2;Australia;New South Wales;Wellesley;;149.1;-36.9833333;6;
2;Australia;New South Wales;Wellingrove;;151.5833333;-29.6333333;6;
2;Australia;New South Wales;Wellington Vale;;151.75;-29.4;6;
2;Australia;New South Wales;Wellington;;148.95;-32.55;6;
2;Australia;New South Wales;Wentworth Falls;;150.3833333;-33.7166667;6;
2;Australia;New South Wales;Wentworth;;141.9166667;-34.1166667;6;
2;Australia;New South Wales;Wentworthville;;150.9666667;-33.8166667;6;
2;Australia;New South Wales;Werombi;;150.5833333;-33.9833333;6;
2;Australia;New South Wales;Werris Creek;;150.65;-31.35;6;
2;Australia;New South Wales;Werris;;150.65;-31.35;6;
2;Australia;New South Wales;West Ballina;;153.5666667;-28.8666667;6;
2;Australia;New South Wales;West Bargo;;150.5833333;-34.3;6;
2;Australia;New South Wales;West Boyd Town;;149.9166667;-37.0833333;6;
2;Australia;New South Wales;West Cambewarra;;150.5333333;-34.8333333;6;
2;Australia;New South Wales;West Cobbora;;149.2333333;-32.05;6;
2;Australia;New South Wales;West Cobborah;;149.2333333;-32.05;6;
2;Australia;New South Wales;West Denison;;148.6;-35.9333333;6;
2;Australia;New South Wales;West Hoxton;;150.85;-33.9166667;6;
2;Australia;New South Wales;West Lynne;;148.55;-36.5166667;6;
2;Australia;New South Wales;West Maitland;;151.55;-32.7333333;6;
2;Australia;New South Wales;West Pymble;;151.1333333;-33.7666667;6;
2;Australia;New South Wales;West Tamworth;;150.9166667;-31.1;6;
2;Australia;New South Wales;West Wallsend;;151.5833333;-32.9;6;
2;Australia;New South Wales;West Wyalong;;147.2166667;-33.9166667;6;
2;Australia;New South Wales;Westbrook;;147.9;-35.5333333;6;
2;Australia;New South Wales;Westby;;147.4166667;-35.5;6;
2;Australia;New South Wales;Westella;;148.9;-32.3;6;
2;Australia;New South Wales;Westmead;;150.9833333;-33.8166667;6;
2;Australia;New South Wales;Weston;;151.4666667;-32.8166667;6;
2;Australia;New South Wales;Westville;;148.8;-33.7666667;6;
2;Australia;New South Wales;Whale Beach;;151.3333333;-33.6166667;6;
2;Australia;New South Wales;Wheeo;;149.2833333;-34.5;6;
2;Australia;New South Wales;Wherrol Flat;;152.25;-31.8;6;
2;Australia;New South Wales;Whian Whian;;153.3166667;-28.6333333;6;
2;Australia;New South Wales;Whiporie;;152.9833333;-29.3;6;
2;Australia;New South Wales;Whipstick;;149.6833333;-36.9333333;6;
2;Australia;New South Wales;White Cliffs;;143.0833333;-30.85;6;
2;Australia;New South Wales;White Swamp;;152.5166667;-28.2833333;6;
2;Australia;New South Wales;White Top;;145.9166667;-33.75;6;
2;Australia;New South Wales;Whitebridge;;151.7166667;-32.9833333;6;
2;Australia;New South Wales;Whiteman Creek;;152.8833333;-29.5833333;6;
2;Australia;New South Wales;Whiterock;;149.6333333;-33.4833333;6;
2;Australia;New South Wales;Whittingham;;151.2;-32.6166667;6;
2;Australia;New South Wales;Whitton;;146.1833333;-34.5166667;6;
2;Australia;New South Wales;Whoota;;152.4833333;-32.3166667;6;
2;Australia;New South Wales;Wiangaree;;152.9666667;-28.5166667;6;
2;Australia;New South Wales;Widden;;150.3666667;-32.5166667;6;
2;Australia;New South Wales;Widdin;;150.3666667;-32.5166667;6;
2;Australia;New South Wales;Widgeland;;147;-32.0166667;6;
2;Australia;New South Wales;Widgiewa;;146.2;-35.05;6;
2;Australia;New South Wales;Wilberforce;;150.8333333;-33.5666667;6;
2;Australia;New South Wales;Wilbertree Flat;;149.5666667;-32.5166667;6;
2;Australia;New South Wales;Wilcannia;;143.3833333;-31.5666667;6;
2;Australia;New South Wales;Wildes Meadow;;150.5166667;-34.6;6;
2;Australia;New South Wales;Willala;;149.8666667;-30.8;6;
2;Australia;New South Wales;Willalla;;149.8666667;-30.8;6;
2;Australia;New South Wales;Willawarrin;;152.6166667;-30.9333333;6;
2;Australia;New South Wales;Willbriggie;;146.0166667;-34.4666667;6;
2;Australia;New South Wales;Willi Willi;;152.45;-30.9333333;6;
2;Australia;New South Wales;Williamsdale;;149.1333333;-35.5666667;6;
2;Australia;New South Wales;Williamtown;;151.85;-32.8166667;6;
2;Australia;New South Wales;Willina;;152.2833333;-32.1666667;6;
2;Australia;New South Wales;Willow Tree;;150.7166667;-31.65;6;
2;Australia;New South Wales;Willow Vale;;150.8;-34.7333333;6;
2;Australia;New South Wales;Willowdale;;150.2;-30.5166667;6;
2;Australia;New South Wales;Willyama;;141.4333333;-31.95;6;
2;Australia;New South Wales;Wilpinjong;;149.8833333;-32.3333333;6;
2;Australia;New South Wales;Wilsons Downfall;;152.0833333;-28.6833333;6;
2;Australia;New South Wales;Wilton;;150.7;-34.2333333;6;
2;Australia;New South Wales;Wimbledon;;149.4333333;-33.5333333;6;
2;Australia;New South Wales;Winchendon Vale;;147.3833333;-34.7;6;
2;Australia;New South Wales;Winda Wapper;;152.15;-32.6833333;6;
2;Australia;New South Wales;Winda Woppa;;152.15;-32.6833333;6;
2;Australia;New South Wales;Windang;;150.8666667;-34.5333333;6;
2;Australia;New South Wales;Windellama;;149.85;-35.0166667;6;
2;Australia;New South Wales;Windever;;149.55;-32.7666667;6;
2;Australia;New South Wales;Windeyer;;149.55;-32.7666667;6;
2;Australia;New South Wales;Windora;;148.9333333;-32.3666667;6;
2;Australia;New South Wales;Windorah;;148.9333333;-32.3666667;6;
2;Australia;New South Wales;Windsor;;150.8166667;-33.6166667;6;
2;Australia;New South Wales;Winduella;;149.2666667;-34.4333333;6;
2;Australia;New South Wales;Windy;;150.3333333;-31.6333333;6;
2;Australia;New South Wales;Wingello;;150.1666667;-34.7;6;
2;Australia;New South Wales;Wingen;;150.8833333;-31.8833333;6;
2;Australia;New South Wales;Wingham;;152.3666667;-31.8666667;6;
2;Australia;New South Wales;Winterbourne;;151.7833333;-30.8333333;6;
2;Australia;New South Wales;Winton;;150.7166667;-31.0666667;6;
2;Australia;New South Wales;Wirega;;148.25;-33.9166667;6;
2;Australia;New South Wales;Wirrimbi;;152.9333333;-30.6666667;6;
2;Australia;New South Wales;Wirrinya;;147.8166667;-33.6666667;6;
2;Australia;New South Wales;Wisemans Ferry;;150.9833333;-33.3833333;6;
2;Australia;New South Wales;Wittitrin;;152.6666667;-31.1333333;6;
2;Australia;New South Wales;Woerden;;151.7333333;-32.55;6;
2;Australia;New South Wales;Wogamia;;150.5166667;-34.8833333;6;
2;Australia;New South Wales;Wollar;;149.95;-32.35;6;
2;Australia;New South Wales;Wollombi;;151.1333333;-32.95;6;
2;Australia;New South Wales;Wollomombi;;152.05;-30.5333333;6;
2;Australia;New South Wales;Wollongbar;;153.4;-28.8166667;6;
2;Australia;New South Wales;Wollongong;;150.8833333;-34.4333333;6;
2;Australia;New South Wales;Wollun;;151.4333333;-30.8333333;6;
2;Australia;New South Wales;Wolseley Park;;147.8833333;-35.7166667;6;
2;Australia;New South Wales;Wolumla South;;149.75;-36.8166667;6;
2;Australia;New South Wales;Wolumla;;149.8;-36.8333333;6;
2;Australia;New South Wales;Wombarra;;150.95;-34.2833333;6;
2;Australia;New South Wales;Wombat;;148.25;-34.4166667;6;
2;Australia;New South Wales;Womboota;;144.5833333;-35.9166667;6;
2;Australia;New South Wales;Wondalga;;148.1166667;-35.4166667;6;
2;Australia;New South Wales;Wongarbon;;148.7666667;-32.3333333;6;
2;Australia;New South Wales;Wongo Creek;;150.5;-30.7;6;
2;Australia;New South Wales;Wongoni;;149.2833333;-31.8666667;6;
2;Australia;New South Wales;Wongwibinda;;152.1666667;-30.3;6;
2;Australia;New South Wales;Woodburn;;153.35;-29.0833333;6;
2;Australia;New South Wales;Woodenbong;;152.6;-28.4;6;
2;Australia;New South Wales;Woodford Leigh;;153.1333333;-29.4833333;6;
2;Australia;New South Wales;Woodford;;150.4833333;-33.7333333;6;
2;Australia;New South Wales;Woodhill;;150.7;-34.7333333;6;
2;Australia;New South Wales;Woodhouselea;;149.6333333;-34.55;6;
2;Australia;New South Wales;Woodhouselee;;149.6333333;-34.55;6;
2;Australia;New South Wales;Woods Reef;;150.7333333;-30.3833333;6;
2;Australia;New South Wales;Woodstock;;148.85;-33.75;6;
2;Australia;New South Wales;Woodview;;152.9666667;-28.8666667;6;
2;Australia;New South Wales;Woodville;;151.6166667;-32.6833333;6;
2;Australia;New South Wales;Woogoolga;;153.2;-30.1166667;6;
2;Australia;New South Wales;Woolamia;;150.65;-35.0166667;6;
2;Australia;New South Wales;Woolbrook;;151.35;-30.9666667;6;
2;Australia;New South Wales;Woolgoolga;;153.2;-30.1166667;6;
2;Australia;New South Wales;Wooli;;153.2666667;-29.8666667;6;
2;Australia;New South Wales;Woolomin;;151.15;-31.3;6;
2;Australia;New South Wales;Woolooma;;151.25;-32;6;
2;Australia;New South Wales;Woolwich;;151.1666667;-33.85;6;
2;Australia;New South Wales;Woolwick;;151.1666667;-33.85;6;
2;Australia;New South Wales;Woomargama;;147.25;-35.8333333;6;
2;Australia;New South Wales;Woombah;;153.2833333;-29.3666667;6;
2;Australia;New South Wales;Woonona;;150.9166667;-34.3333333;6;
2;Australia;New South Wales;Wootton;;152.3;-32.3;6;
2;Australia;New South Wales;Woronora Dam;;150.9333333;-34.1166667;6;
2;Australia;New South Wales;Worragee;;150.6333333;-34.9;6;
2;Australia;New South Wales;Wowagin;;149.7166667;-34.4166667;6;
2;Australia;New South Wales;Wowingragong;;147.9166667;-33.4333333;6;
2;Australia;New South Wales;Woy Woy;;151.3333333;-33.5;6;
2;Australia;New South Wales;Wrightville;;145.85;-31.5333333;6;
2;Australia;New South Wales;Wumbulgal;;146.2166667;-34.35;6;
2;Australia;New South Wales;Wunnamurra;;145.7166667;-35.4;6;
2;Australia;New South Wales;Wuuluman;;149.0833333;-32.55;6;
2;Australia;New South Wales;Wyaldra;;149.5666667;-32.3333333;6;
2;Australia;New South Wales;Wyalong;;147.25;-33.9333333;6;
2;Australia;New South Wales;Wyan;;152.8666667;-29.0666667;6;
2;Australia;New South Wales;Wyanga;;148.1333333;-32.4666667;6;
2;Australia;New South Wales;Wyangle;;148.3;-35.2333333;6;
2;Australia;New South Wales;Wybong;;150.6333333;-32.2666667;6;
2;Australia;New South Wales;Wyee;;151.4833333;-33.1833333;6;
2;Australia;New South Wales;Wylie Creek;;152.1666667;-28.5333333;6;
2;Australia;New South Wales;Wyndham;;149.65;-36.9166667;6;
2;Australia;New South Wales;Wyong Creek;;151.3666667;-33.2666667;6;
2;Australia;New South Wales;Wyong;;151.35;-33.2833333;6;
2;Australia;New South Wales;Wyongah;;151.4833333;-33.2666667;6;
2;Australia;New South Wales;Wyrallah;;153.3;-28.9;6;
2;Australia;New South Wales;Wyrra;;147.2666667;-33.8333333;6;
2;Australia;New South Wales;Yaddra;;146.65;-33.1666667;6;
2;Australia;New South Wales;Yagobie;;150.25;-29.5333333;6;
2;Australia;New South Wales;Yalama;;144.9166667;-35.7;6;
2;Australia;New South Wales;Yalbraith;;149.75;-34.3;6;
2;Australia;New South Wales;Yalgogrin North;;146.8333333;-33.85;6;
2;Australia;New South Wales;Yalgogrin South;;146.8166667;-34.1666667;6;
2;Australia;New South Wales;Yalgogrin;;146.7333333;-34.1666667;6;
2;Australia;New South Wales;Yallaroi;;150.4833333;-29.1166667;6;
2;Australia;New South Wales;Yalpunga;;142.05;-29.0333333;6;
2;Australia;New South Wales;Yalwal;;150.4;-34.9333333;6;
2;Australia;New South Wales;Yamba;;153.3666667;-29.4333333;6;
2;Australia;New South Wales;Yambla;;146.9833333;-35.95;6;
2;Australia;New South Wales;Yambulla;;149.55;-37.2166667;6;
2;Australia;New South Wales;Yanco;;146.4;-34.6;6;
2;Australia;New South Wales;Yanderra;;150.5666667;-34.3333333;6;
2;Australia;New South Wales;Yannergee;;150.0333333;-31.45;6;
2;Australia;New South Wales;Yantabulla;;145;-29.35;6;
2;Australia;New South Wales;Yaouk;;148.8;-35.8166667;6;
2;Australia;New South Wales;Yaraman;;150.2;-31.6166667;6;
2;Australia;New South Wales;Yarbarnba;;150.4666667;-29.4333333;6;
2;Australia;New South Wales;Yarra;;149.6333333;-34.7833333;6;
2;Australia;New South Wales;Yarrabandai;;147.6;-33.1333333;6;
2;Australia;New South Wales;Yarrabandinni;;152.8333333;-30.95;6;
2;Australia;New South Wales;Yarraford;;151.7833333;-29.65;6;
2;Australia;New South Wales;Yarragee;;150.0666667;-35.9;6;
2;Australia;New South Wales;Yarragundry;;147.2333333;-35.1166667;6;
2;Australia;New South Wales;Yarramalong;;151.2833333;-33.2333333;6;
2;Australia;New South Wales;Yarraman;;150.2;-31.6166667;6;
2;Australia;New South Wales;Yarrangobilly Cave;;148.5;-35.7333333;6;
2;Australia;New South Wales;Yarrangobilly Caves;;148.5;-35.7333333;6;
2;Australia;New South Wales;Yarrangobilly;;148.4833333;-35.65;6;
2;Australia;New South Wales;Yarrans;;146.9166667;-33.7666667;6;
2;Australia;New South Wales;Yarrari;;150.3166667;-30.8333333;6;
2;Australia;New South Wales;Yarras;;152.35;-31.4166667;6;
2;Australia;New South Wales;Yarrie Lake;;149.5166667;-30.35;6;
2;Australia;New South Wales;Yarrigan;;149;-31;6;
2;Australia;New South Wales;Yarrow Creek Station;;151.9333333;-29.85;6;
2;Australia;New South Wales;Yarrow Creek;;151.9333333;-29.85;6;
2;Australia;New South Wales;Yarrowick;;151.35;-30.4666667;6;
2;Australia;New South Wales;Yarrowitch;;151.95;-31.25;6;
2;Australia;New South Wales;Yarrowyck;;151.35;-30.4666667;6;
2;Australia;New South Wales;Yass;;148.9166667;-34.8333333;6;
2;Australia;New South Wales;Yatteyatah;;150.4333333;-35.2833333;6;
2;Australia;New South Wales;Yeerawinn;;151.2;-31.4833333;6;
2;Australia;New South Wales;Yelgun;;153.5166667;-28.4833333;6;
2;Australia;New South Wales;Yelkin;;146.3833333;-33.4666667;6;
2;Australia;New South Wales;Yellow Rock;;150.7333333;-34.6;6;
2;Australia;New South Wales;Yellowin;;148.25;-35.5333333;6;
2;Australia;New South Wales;Yenda;;146.1833333;-34.25;6;
2;Australia;New South Wales;Yeoval;;148.65;-32.75;6;
2;Australia;New South Wales;Yerong Creek;;147.0666667;-35.3833333;6;
2;Australia;New South Wales;Yerranderie;;150.2166667;-34.1166667;6;
2;Australia;New South Wales;Yerribah;;148.4666667;-32.3666667;6;
2;Australia;New South Wales;Yerrinbool;;150.55;-34.3666667;6;
2;Australia;New South Wales;Yethera;;147.5833333;-32.55;6;
2;Australia;New South Wales;Yetholme;;149.8333333;-33.45;6;
2;Australia;New South Wales;Yetman;;150.7833333;-28.9;6;
2;Australia;New South Wales;Yiddah;;147.3166667;-34.0333333;6;
2;Australia;New South Wales;Yithan;;146.85;-34.3333333;6;
2;Australia;New South Wales;Yongurra;;153;-28.6333333;6;
2;Australia;New South Wales;Yoogali;;146.0833333;-34.3;6;
2;Australia;New South Wales;Yorklea;;153.0666667;-28.95;6;
2;Australia;New South Wales;Young;;148.3;-34.3166667;6;
2;Australia;New South Wales;Youngareen;;146.85;-33.65;6;
2;Australia;New South Wales;Yowaka;;149.8666667;-36.9666667;6;
2;Australia;New South Wales;Yowrie;;149.7166667;-36.3;6;
2;Australia;New South Wales;Yulgilbar;;152.5833333;-29.2166667;6;
2;Australia;New South Wales;Yuluma;;146.5;-35.1666667;6;
2;Australia;New South Wales;Yurammie;;149.6833333;-36.8166667;6;
2;Australia;New South Wales;Zara;;153.2833333;-28.3166667;6;
